{"type":"FeatureCollection","features":[{"type":"Feature","properties":{"numer":"483","klasa":"droga gĹ‚Ăłwna","kat":"wojewodzka"},"geometry":{"type":"LineString","coordinates":[[19.16047,51.02497],[19.16109,51.02434],[19.16138,51.02368],[19.165079443571717,50.994494389767986]]}},{"type":"Feature","properties":{"numer":"3524E","klasa":"droga zbiorcza","kat":"powiatowa"},"geometry":{"type":"LineString","coordinates":[[19.16047,51.02497],[19.16205,51.02564],[19.16267,51.02578],[19.1804,51.02698],[19.18487,51.02781],[19.1861,51.02794],[19.18928,51.02809],[19.19052,51.02801],[19.19238,51.02758],[19.19275,51.02731],[19.19356,51.02629],[19.20519,51.02574]]}},{"type":"Feature","properties":{"numer":"483","klasa":"droga gĹ‚Ăłwna","kat":"wojewodzka"},"geometry":{"type":"LineString","coordinates":[[19.14801,51.03898],[19.14803,51.0363],[19.14869,51.03482],[19.15513,51.02987],[19.15639,51.02844],[19.16047,51.02497]]}},{"type":"Feature","properties":{"numer":"483","klasa":"droga gĹ‚Ăłwna","kat":"wojewodzka"},"geometry":{"type":"LineString","coordinates":[[19.15363,51.0438],[19.14992,51.04225],[19.14958,51.04203],[19.14815,51.0402],[19.14801,51.03898]]}},{"type":"Feature","properties":{"numer":"483","klasa":"droga gĹ‚Ăłwna","kat":"wojewodzka"},"geometry":{"type":"LineString","coordinates":[[19.15443,51.04435],[19.15363,51.0438]]}},{"type":"Feature","properties":{"numer":"3521E","klasa":"droga zbiorcza","kat":"powiatowa"},"geometry":{"type":"LineString","coordinates":[[19.12304,51.01205],[19.12451,51.01154],[19.12827,51.01129],[19.12863,51.0112],[19.12769,51.00906],[19.12789,51.00848],[19.12763,51.00753],[19.12801,51.00655],[19.12789,51.00629]]}},{"type":"Feature","properties":{"numer":"492","klasa":"droga zbiorcza","kat":"wojewodzka"},"geometry":{"type":"LineString","coordinates":[[19.14801,51.03898],[19.14723,51.03887],[19.14623,51.03824],[19.14551,51.0379],[19.11284,51.0255]]}},{"type":"Feature","properties":{"numer":"3523E","klasa":"droga zbiorcza","kat":"powiatowa"},"geometry":{"type":"LineString","coordinates":[[19.12872,51.07695],[19.13733,51.06649],[19.14641,51.05523],[19.14695,51.05495],[19.1478,51.05366],[19.15227,51.04827],[19.15286,51.04757],[19.15536,51.04541]]}},{"type":"Feature","properties":{"numer":"42","klasa":"droga gĹ‚Ăłwna","kat":"krajowa"},"geometry":{"type":"LineString","coordinates":[[19.12288,51.07875],[19.12471,51.07792],[19.12872,51.07695]]}},{"type":"Feature","properties":{"numer":"3517E","klasa":"droga zbiorcza","kat":"powiatowa"},"geometry":{"type":"LineString","coordinates":[[19.15245,51.10327],[19.15071,51.10311],[19.14747,51.10298],[19.13861,51.10326],[19.13166,51.10458],[19.125,51.1063],[19.1077,51.10983]]}},{"type":"Feature","properties":{"numer":"483","klasa":"droga gĹ‚Ăłwna","kat":"wojewodzka"},"geometry":{"type":"LineString","coordinates":[[19.14273,51.13266],[19.14261,51.13214],[19.14399,51.12046],[19.15195,51.10398],[19.15245,51.10327]]}},{"type":"Feature","properties":{"numer":"3516E","klasa":"droga zbiorcza","kat":"powiatowa"},"geometry":{"type":"LineString","coordinates":[[19.14273,51.13266],[19.14202,51.13234],[19.11767,51.11513],[19.11668,51.11387],[19.11245,51.11225],[19.1077,51.10983]]}},{"type":"Feature","properties":{"numer":"3524E","klasa":"droga zbiorcza","kat":"powiatowa"},"geometry":{"type":"LineString","coordinates":[[19.20519,51.02574],[19.21263,51.02531],[19.21533,51.02544],[19.21584,51.02523],[19.21771,51.02492],[19.21867,51.02464],[19.21943,51.02451],[19.2232,51.02442],[19.22428,51.02449],[19.22831,51.02404]]}},{"type":"Feature","properties":{"numer":"42","klasa":"droga gĹ‚Ăłwna","kat":"krajowa"},"geometry":{"type":"LineString","coordinates":[[19.18453,51.08134],[19.18841,51.08209],[19.19587,51.08374]]}},{"type":"Feature","properties":{"numer":"3515E","klasa":"droga zbiorcza","kat":"powiatowa"},"geometry":{"type":"LineString","coordinates":[[19.17971,51.13417],[19.18016,51.13388],[19.18085,51.13372],[19.19738,51.13282],[19.22196,51.13072],[19.22509,51.13018],[19.22569,51.13024],[19.22836,51.13077]]}},{"type":"Feature","properties":{"numer":"3519E","klasa":"droga zbiorcza","kat":"powiatowa"},"geometry":{"type":"LineString","coordinates":[[19.17909,51.13805],[19.18804,51.14285],[19.18883,51.14319],[19.20365,51.14524]]}},{"type":"Feature","properties":{"numer":"3519E","klasa":"droga zbiorcza","kat":"powiatowa"},"geometry":{"type":"LineString","coordinates":[[19.20365,51.14524],[19.21237,51.14641],[19.21259,51.1484],[19.21273,51.14856],[19.21311,51.14866],[19.22984,51.15093],[19.23335,51.15165],[19.23351,51.1515],[19.23344,51.15034]]}},{"type":"Feature","properties":{"numer":"1901E","klasa":"droga zbiorcza","kat":"powiatowa"},"geometry":{"type":"LineString","coordinates":[[19.20529,51.15303],[19.20505,51.15114],[19.20445,51.15006],[19.20416,51.14901],[19.20365,51.14524]]}},{"type":"Feature","properties":{"numer":"109308E,1901E","klasa":"droga zbiorcza","kat":"powiatowa"},"geometry":{"type":"LineString","coordinates":[[19.20528,51.15314],[19.20529,51.15303]]}},{"type":"Feature","properties":{"numer":"1901E","klasa":"droga zbiorcza","kat":"powiatowa"},"geometry":{"type":"LineString","coordinates":[[19.20289,51.18155],[19.20318,51.17312],[19.20344,51.17014],[19.20411,51.16648],[19.20467,51.16207],[19.20508,51.15731],[19.20528,51.15314]]}},{"type":"Feature","properties":{"numer":"3521E","klasa":"droga zbiorcza","kat":"powiatowa"},"geometry":{"type":"LineString","coordinates":[[19.06052,51.04004],[19.06152,51.04002],[19.06264,51.03969],[19.0643,51.03934],[19.06578,51.03921],[19.06729,51.03918],[19.06775,51.03944],[19.06781,51.04],[19.06802,51.04044],[19.0693,51.04152],[19.06989,51.04169],[19.07122,51.0414],[19.07424,51.04097],[19.07573,51.04068],[19.07701,51.04084],[19.07865,51.0409],[19.0835,51.04064],[19.08587,51.04039],[19.08766,51.04002],[19.08935,51.03943],[19.08993,51.03938],[19.09117,51.03904],[19.09213,51.03872],[19.0925,51.03848],[19.09301,51.03831],[19.09693,51.03755],[19.09949,51.03693]]}},{"type":"Feature","properties":{"numer":"3520E","klasa":"droga zbiorcza","kat":"powiatowa"},"geometry":{"type":"LineString","coordinates":[[19.08835,51.05415],[19.08853,51.054],[19.089,51.05399],[19.08948,51.05384],[19.08978,51.05347]]}},{"type":"Feature","properties":{"numer":"3521E","klasa":"droga zbiorcza","kat":"powiatowa"},"geometry":{"type":"LineString","coordinates":[[19.0522,51.04159],[19.05286,51.04156],[19.05543,51.04067],[19.0562,51.04049],[19.06052,51.04004]]}},{"type":"Feature","properties":{"numer":"3510E","klasa":"droga zbiorcza","kat":"powiatowa"},"geometry":{"type":"LineString","coordinates":[[19.00676,51.07825],[19.00784,51.07785],[19.01057,51.07626],[19.01108,51.07613],[19.01303,51.07629],[19.01603,51.07671],[19.01786,51.07684],[19.03172,51.07703]]}},{"type":"Feature","properties":{"numer":"3512E","klasa":"droga zbiorcza","kat":"powiatowa"},"geometry":{"type":"LineString","coordinates":[[19.00676,51.07825],[19.01635,51.09216],[19.0223,51.10128]]}},{"type":"Feature","properties":{"numer":"109157E,3512E","klasa":"droga zbiorcza","kat":"powiatowa"},"geometry":{"type":"LineString","coordinates":[[19.0223,51.10128],[19.02292,51.10224]]}},{"type":"Feature","properties":{"numer":"3512E","klasa":"droga zbiorcza","kat":"powiatowa"},"geometry":{"type":"LineString","coordinates":[[19.02292,51.10224],[19.02771,51.10958],[19.02815,51.1105]]}},{"type":"Feature","properties":{"numer":"42","klasa":"droga gĹ‚Ăłwna","kat":"krajowa"},"geometry":{"type":"LineString","coordinates":[[19.03432,51.10797],[19.02828,51.11057]]}},{"type":"Feature","properties":{"numer":"3511E,3512E","klasa":"droga zbiorcza","kat":"powiatowa"},"geometry":{"type":"LineString","coordinates":[[19.02815,51.1105],[19.02828,51.11057]]}},{"type":"Feature","properties":{"numer":"42","klasa":"droga gĹ‚Ăłwna","kat":"krajowa"},"geometry":{"type":"LineString","coordinates":[[19.02828,51.11057],[19.02588,51.11237],[19.0095,51.1298],[18.99982,51.13989],[18.99952,51.14042],[18.99966,51.14177]]}},{"type":"Feature","properties":{"numer":"3521E","klasa":"droga zbiorcza","kat":"powiatowa"},"geometry":{"type":"LineString","coordinates":[[19.11284,51.0255],[19.11323,51.02471],[19.11387,51.02433],[19.11452,51.02375],[19.11977,51.01594],[19.12034,51.01551],[19.12399,51.01331],[19.12394,51.01303],[19.12304,51.01205]]}},{"type":"Feature","properties":{"numer":"492","klasa":"droga zbiorcza","kat":"wojewodzka"},"geometry":{"type":"LineString","coordinates":[[19.10812,51.02433],[19.106092532979698,51.023670345658466]]}},{"type":"Feature","properties":{"numer":"492","klasa":"droga zbiorcza","kat":"wojewodzka"},"geometry":{"type":"LineString","coordinates":[[19.10857,51.02447],[19.10812,51.02433]]}},{"type":"Feature","properties":{"numer":"492","klasa":"droga zbiorcza","kat":"wojewodzka"},"geometry":{"type":"LineString","coordinates":[[19.11284,51.0255],[19.11195,51.02512],[19.10958,51.02472],[19.10857,51.02447]]}},{"type":"Feature","properties":{"numer":"3521E","klasa":"droga zbiorcza","kat":"powiatowa"},"geometry":{"type":"LineString","coordinates":[[19.1126,51.02585],[19.11284,51.0255]]}},{"type":"Feature","properties":{"numer":"3521E","klasa":"droga zbiorcza","kat":"powiatowa"},"geometry":{"type":"LineString","coordinates":[[19.09949,51.03693],[19.10009,51.0367],[19.1028,51.03485],[19.10598,51.03315],[19.10693,51.03241],[19.10869,51.03145],[19.10992,51.03063],[19.1114,51.02839],[19.1126,51.02585]]}},{"type":"Feature","properties":{"numer":"3520E","klasa":"droga zbiorcza","kat":"powiatowa"},"geometry":{"type":"LineString","coordinates":[[19.08978,51.05347],[19.09015,51.05231],[19.09057,51.05153],[19.09081,51.05127],[19.09119,51.05037],[19.09189,51.04499],[19.09208,51.04472],[19.09227,51.04399],[19.0927,51.04347],[19.09294,51.04295],[19.09452,51.04152],[19.09586,51.04007],[19.09665,51.03939],[19.09747,51.03811],[19.09812,51.03758],[19.0985,51.03746],[19.09949,51.03693]]}},{"type":"Feature","properties":{"numer":"3520E","klasa":"droga zbiorcza","kat":"powiatowa"},"geometry":{"type":"LineString","coordinates":[[19.12288,51.07875],[19.12264,51.07862],[19.12118,51.07674],[19.11602,51.06903],[19.11576,51.0688],[19.1112,51.06757],[19.1054,51.06489],[19.10167,51.06347],[19.09969,51.06294],[19.09832,51.06187],[19.0978,51.0616],[19.09541,51.06078],[19.09304,51.06019],[19.08994,51.05887],[19.08935,51.05877],[19.08882,51.05881],[19.08791,51.0591],[19.08671,51.05936]]}},{"type":"Feature","properties":{"numer":"42","klasa":"droga gĹ‚Ăłwna","kat":"krajowa"},"geometry":{"type":"LineString","coordinates":[[19.07439,51.10105],[19.07506,51.10085],[19.07899,51.09915],[19.09447,51.09207],[19.10984,51.08653],[19.12089,51.08226],[19.1212,51.08206],[19.12308,51.08004],[19.12288,51.07875]]}},{"type":"Feature","properties":{"numer":"3516E","klasa":"droga zbiorcza","kat":"powiatowa"},"geometry":{"type":"LineString","coordinates":[[19.1077,51.10983],[19.09892,51.10533],[19.09833,51.10514],[19.095,51.10411],[19.09433,51.10396],[19.08676,51.10322]]}},{"type":"Feature","properties":{"numer":"3520E","klasa":"droga zbiorcza","kat":"powiatowa"},"geometry":{"type":"LineString","coordinates":[[19.08823,51.05446],[19.08835,51.05415]]}},{"type":"Feature","properties":{"numer":"3520E","klasa":"droga zbiorcza","kat":"powiatowa"},"geometry":{"type":"LineString","coordinates":[[19.08671,51.05936],[19.08634,51.05846],[19.08641,51.05792],[19.08662,51.05743],[19.0876,51.05617],[19.08781,51.0552],[19.08823,51.05446]]}},{"type":"Feature","properties":{"numer":"3510E","klasa":"droga zbiorcza","kat":"powiatowa"},"geometry":{"type":"LineString","coordinates":[[19.08604,51.06038],[19.08671,51.05936]]}},{"type":"Feature","properties":{"numer":"42","klasa":"droga gĹ‚Ăłwna","kat":"krajowa"},"geometry":{"type":"LineString","coordinates":[[19.07245,51.10086],[19.06192,51.09853],[19.05543,51.09947]]}},{"type":"Feature","properties":{"numer":"109170E","klasa":"","kat":"powiatowa"},"geometry":{"type":"LineString","coordinates":[[19.07241,51.10101],[19.07245,51.10086]]}},{"type":"Feature","properties":{"numer":"42","klasa":"droga gĹ‚Ăłwna","kat":"krajowa"},"geometry":{"type":"LineString","coordinates":[[19.07245,51.10086],[19.07364,51.10109],[19.07439,51.10105]]}},{"type":"Feature","properties":{"numer":"3516E","klasa":"droga zbiorcza","kat":"powiatowa"},"geometry":{"type":"LineString","coordinates":[[19.08676,51.10322],[19.07439,51.10105]]}},{"type":"Feature","properties":{"numer":"3513E","klasa":"droga zbiorcza","kat":"powiatowa"},"geometry":{"type":"LineString","coordinates":[[19.0774,51.12328],[19.07805,51.12281],[19.07825,51.12256],[19.08023,51.11855],[19.08372,51.11212],[19.08478,51.10928],[19.08584,51.10557],[19.08676,51.10322]]}},{"type":"Feature","properties":{"numer":"109170E,3514E","klasa":"droga zbiorcza","kat":"powiatowa"},"geometry":{"type":"LineString","coordinates":[[19.07246,51.11533],[19.07212,51.11491]]}},{"type":"Feature","properties":{"numer":"3514E","klasa":"droga zbiorcza","kat":"powiatowa"},"geometry":{"type":"LineString","coordinates":[[19.0774,51.12328],[19.07246,51.11533]]}},{"type":"Feature","properties":{"numer":"3521E","klasa":"droga zbiorcza","kat":"powiatowa"},"geometry":{"type":"LineString","coordinates":[[19.05206237259534,51.0415594161323],[19.0522,51.04159]]}},{"type":"Feature","properties":{"numer":"3510E","klasa":"droga zbiorcza","kat":"powiatowa"},"geometry":{"type":"LineString","coordinates":[[19.03172,51.07703],[19.03358,51.07667],[19.03641,51.07589],[19.03788,51.07519],[19.03878,51.07497],[19.04058,51.07437],[19.04204,51.0738],[19.04198,51.06584],[19.04357,51.06584],[19.04451,51.06554],[19.04517,51.06543],[19.04805,51.06529],[19.04986,51.0656],[19.05516,51.0652],[19.05853,51.06546],[19.06141,51.06472],[19.06406,51.06432],[19.06721,51.06432],[19.06826,51.06443],[19.0692,51.06441],[19.07484,51.06351],[19.07746,51.06302],[19.07921,51.06292],[19.08158,51.06251],[19.08324,51.06234],[19.08502,51.06145],[19.08604,51.06038]]}},{"type":"Feature","properties":{"numer":"42","klasa":"droga gĹ‚Ăłwna","kat":"krajowa"},"geometry":{"type":"LineString","coordinates":[[19.05543,51.09947],[19.05524,51.0995]]}},{"type":"Feature","properties":{"numer":"42","klasa":"droga gĹ‚Ăłwna","kat":"krajowa"},"geometry":{"type":"LineString","coordinates":[[19.05524,51.0995],[19.05359,51.09976],[19.05309,51.09993],[19.03432,51.10797]]}},{"type":"Feature","properties":{"numer":"3514E","klasa":"droga zbiorcza","kat":"powiatowa"},"geometry":{"type":"LineString","coordinates":[[19.07212,51.11491],[19.07154,51.11475],[19.04167,51.10937],[19.03432,51.10797]]}},{"type":"Feature","properties":{"numer":"3513E","klasa":"droga zbiorcza","kat":"powiatowa"},"geometry":{"type":"LineString","coordinates":[[19.03969,51.13996],[19.05005,51.13751],[19.05744,51.13553],[19.06147,51.13475],[19.0654,51.13188],[19.0672,51.1304],[19.0727,51.12626],[19.07309,51.12603],[19.07331,51.126],[19.07411,51.1263]]}},{"type":"Feature","properties":{"numer":"1500E","klasa":"droga zbiorcza","kat":"powiatowa"},"geometry":{"type":"LineString","coordinates":[[19.02153,51.14714],[19.02875,51.14707],[19.04111,51.14824],[19.04896,51.15029]]}},{"type":"Feature","properties":{"numer":"2311E","klasa":"droga zbiorcza","kat":"powiatowa"},"geometry":{"type":"LineString","coordinates":[[19.07538,51.21579],[19.06591,51.2163],[19.05681,51.21872],[19.04973,51.22041],[19.04506,51.22148],[19.04278,51.22186],[19.04253,51.22177]]}},{"type":"Feature","properties":{"numer":"3500E","klasa":"droga zbiorcza","kat":"powiatowa"},"geometry":{"type":"LineString","coordinates":[[19.04214,51.22138],[19.04231,51.22167]]}},{"type":"Feature","properties":{"numer":"3500E","klasa":"droga zbiorcza","kat":"powiatowa"},"geometry":{"type":"LineString","coordinates":[[19.04231,51.22167],[19.04235,51.22178]]}},{"type":"Feature","properties":{"numer":"3524E","klasa":"droga zbiorcza","kat":"powiatowa"},"geometry":{"type":"LineString","coordinates":[[19.24391,51.02221],[19.24402,51.0222]]}},{"type":"Feature","properties":{"numer":"3524E","klasa":"droga zbiorcza","kat":"powiatowa"},"geometry":{"type":"LineString","coordinates":[[19.24379,51.02222],[19.24391,51.02221]]}},{"type":"Feature","properties":{"numer":"3524E","klasa":"droga zbiorcza","kat":"powiatowa"},"geometry":{"type":"LineString","coordinates":[[19.22831,51.02404],[19.24379,51.02222]]}},{"type":"Feature","properties":{"numer":"42","klasa":"droga gĹ‚Ăłwna","kat":"krajowa"},"geometry":{"type":"LineString","coordinates":[[19.19587,51.08374],[19.19692,51.08358],[19.228638699267215,51.0765521199125]]}},{"type":"Feature","properties":{"numer":"3518E","klasa":"droga zbiorcza","kat":"powiatowa"},"geometry":{"type":"LineString","coordinates":[[19.19587,51.08374],[19.20262,51.08729],[19.20445,51.08862],[19.21468,51.09656],[19.21764,51.0982],[19.2212,51.1],[19.22418,51.10098],[19.23116,51.10202],[19.2338,51.10252],[19.23752,51.10344],[19.24055,51.10442],[19.2443,51.10541],[19.24778,51.10666],[19.24816,51.10695],[19.25092,51.10992],[19.25109,51.11036],[19.25115,51.11139],[19.25142,51.11259]]}},{"type":"Feature","properties":{"numer":"3518E","klasa":"droga zbiorcza","kat":"powiatowa"},"geometry":{"type":"LineString","coordinates":[[19.25142,51.11259],[19.2516,51.11316]]}},{"type":"Feature","properties":{"numer":"3522E","klasa":"droga zbiorcza","kat":"powiatowa"},"geometry":{"type":"LineString","coordinates":[[19.22896,51.13049],[19.22908,51.13008],[19.22866,51.12944],[19.22872,51.12917],[19.23392,51.12529],[19.23793,51.1212],[19.24266,51.11755],[19.24359,51.11702],[19.24852,51.11524],[19.25069,51.11382],[19.25126,51.11331],[19.2516,51.11316]]}},{"type":"Feature","properties":{"numer":"3522E","klasa":"droga zbiorcza","kat":"powiatowa"},"geometry":{"type":"LineString","coordinates":[[19.22892,51.13055],[19.22896,51.13049]]}},{"type":"Feature","properties":{"numer":"3522E","klasa":"droga zbiorcza","kat":"powiatowa"},"geometry":{"type":"LineString","coordinates":[[19.22888,51.1306],[19.22892,51.13055]]}},{"type":"Feature","properties":{"numer":"3522E","klasa":"droga zbiorcza","kat":"powiatowa"},"geometry":{"type":"LineString","coordinates":[[19.22878,51.13071],[19.22888,51.1306]]}},{"type":"Feature","properties":{"numer":"3522E","klasa":"droga zbiorcza","kat":"powiatowa"},"geometry":{"type":"LineString","coordinates":[[19.2287,51.13079],[19.22878,51.13071]]}},{"type":"Feature","properties":{"numer":"3515E","klasa":"droga zbiorcza","kat":"powiatowa"},"geometry":{"type":"LineString","coordinates":[[19.22836,51.13077],[19.22855,51.13078]]}},{"type":"Feature","properties":{"numer":"3515E","klasa":"droga zbiorcza","kat":"powiatowa"},"geometry":{"type":"LineString","coordinates":[[19.22855,51.13078],[19.2287,51.13079]]}},{"type":"Feature","properties":{"numer":"3522E","klasa":"droga zbiorcza","kat":"powiatowa"},"geometry":{"type":"LineString","coordinates":[[19.2516,51.11316],[19.26914,51.11074],[19.27058,51.11039],[19.278149222820222,51.10794952637245]]}},{"type":"Feature","properties":{"numer":"3515E","klasa":"droga zbiorcza","kat":"powiatowa"},"geometry":{"type":"LineString","coordinates":[[19.2287,51.13079],[19.22883,51.13083]]}},{"type":"Feature","properties":{"numer":"3515E","klasa":"droga zbiorcza","kat":"powiatowa"},"geometry":{"type":"LineString","coordinates":[[19.22883,51.13083],[19.22903,51.13089]]}},{"type":"Feature","properties":{"numer":"3515E","klasa":"droga zbiorcza","kat":"powiatowa"},"geometry":{"type":"LineString","coordinates":[[19.22903,51.13089],[19.23182,51.1315]]}},{"type":"Feature","properties":{"numer":"3515E","klasa":"droga zbiorcza","kat":"powiatowa"},"geometry":{"type":"LineString","coordinates":[[19.23182,51.1315],[19.23189,51.13151]]}},{"type":"Feature","properties":{"numer":"3515E","klasa":"droga zbiorcza","kat":"powiatowa"},"geometry":{"type":"LineString","coordinates":[[19.23189,51.13151],[19.25324,51.13619]]}},{"type":"Feature","properties":{"numer":"3515E","klasa":"droga zbiorcza","kat":"powiatowa"},"geometry":{"type":"LineString","coordinates":[[19.25324,51.13619],[19.26485,51.13833],[19.26659,51.13859]]}},{"type":"Feature","properties":{"numer":"3519E","klasa":"droga zbiorcza","kat":"powiatowa"},"geometry":{"type":"LineString","coordinates":[[19.247432077620985,51.146612706204785],[19.25324,51.13619]]}},{"type":"Feature","properties":{"numer":"3519E","klasa":"","kat":"powiatowa"},"geometry":{"type":"LineString","coordinates":[[19.233442811405702,51.150338594297146],[19.23344,51.15034]]}},{"type":"Feature","properties":{"numer":"3947E","klasa":"droga zbiorcza","kat":"powiatowa"},"geometry":{"type":"LineString","coordinates":[[19.20289,51.18155],[19.20316,51.1813],[19.20394,51.18084],[19.21963,51.17222],[19.23944,51.16758],[19.239490680134452,51.167561342776786]]}},{"type":"Feature","properties":{"numer":"3509E","klasa":"droga zbiorcza","kat":"powiatowa"},"geometry":{"type":"LineString","coordinates":[[19.28696,51.18069],[19.29235,51.17999],[19.30522,51.17797]]}},{"type":"Feature","properties":{"numer":"3509E","klasa":"droga zbiorcza","kat":"powiatowa"},"geometry":{"type":"LineString","coordinates":[[19.28684,51.18071],[19.28696,51.18069]]}},{"type":"Feature","properties":{"numer":"3509E","klasa":"droga zbiorcza","kat":"powiatowa"},"geometry":{"type":"LineString","coordinates":[[19.27207,51.18885],[19.28423,51.18175],[19.28533,51.18116],[19.28596,51.18091],[19.28684,51.18071]]}},{"type":"Feature","properties":{"numer":"1900E","klasa":"droga zbiorcza","kat":"powiatowa"},"geometry":{"type":"LineString","coordinates":[[19.288256040992447,51.19025968373051],[19.28772,51.18992],[19.28551,51.18839],[19.28446,51.18834],[19.2813,51.18844],[19.27207,51.18885]]}},{"type":"Feature","properties":{"numer":"3509E","klasa":"","kat":"powiatowa"},"geometry":{"type":"LineString","coordinates":[[19.30522,51.17797],[19.305286379821784,51.17795894199235]]}},{"type":"Feature","properties":{"numer":"3510E","klasa":"droga zbiorcza","kat":"powiatowa"},"geometry":{"type":"LineString","coordinates":[[18.96154,51.08899],[18.96374,51.0882],[18.9652,51.08746],[18.96657,51.08713],[18.96748,51.0867],[18.96874,51.08634],[18.97124,51.08527],[18.97191,51.08484]]}},{"type":"Feature","properties":{"numer":"3510E","klasa":"droga zbiorcza","kat":"powiatowa"},"geometry":{"type":"LineString","coordinates":[[18.96601,51.1028],[18.9649,51.10202],[18.96555,51.10158],[18.96799,51.10104],[18.96847,51.10074],[18.96855,51.09744],[18.96577,51.09499],[18.9651,51.094],[18.9641,51.09306],[18.96369,51.09192],[18.96331,51.09145],[18.96184,51.09057],[18.96137,51.08936],[18.96137,51.08919],[18.96154,51.08899]]}},{"type":"Feature","properties":{"numer":"3512E","klasa":"droga zbiorcza","kat":"powiatowa"},"geometry":{"type":"LineString","coordinates":[[19.00106,51.07141],[19.00034,51.07079]]}},{"type":"Feature","properties":{"numer":"3512E","klasa":"droga zbiorcza","kat":"powiatowa"},"geometry":{"type":"LineString","coordinates":[[19.00106,51.07141],[19.00342,51.07345],[19.00676,51.07825]]}},{"type":"Feature","properties":{"numer":"3510E","klasa":"droga zbiorcza","kat":"powiatowa"},"geometry":{"type":"LineString","coordinates":[[18.97191,51.08484],[18.9739,51.08396],[18.98159,51.08117],[18.98307,51.08028],[18.98804,51.07885],[18.98963,51.07852],[18.99591,51.07673],[18.99626,51.07671],[18.99654,51.07682],[18.99734,51.07812],[18.9984,51.07933],[18.99912,51.08001],[18.9994,51.08018],[19.0,51.0801],[19.00676,51.07825]]}},{"type":"Feature","properties":{"numer":"3511E","klasa":"droga zbiorcza","kat":"powiatowa"},"geometry":{"type":"LineString","coordinates":[[18.97013,51.10488],[18.9779,51.10367]]}},{"type":"Feature","properties":{"numer":"3511E","klasa":"droga zbiorcza","kat":"powiatowa"},"geometry":{"type":"LineString","coordinates":[[18.9779,51.10367],[18.98516,51.10272],[18.98562,51.10271],[18.98588,51.10284],[18.9868,51.10418],[18.98698,51.10475],[18.9872,51.10488],[19.0065,51.10695],[19.02514,51.10974],[19.02815,51.1105]]}},{"type":"Feature","properties":{"numer":"3510E","klasa":"droga zbiorcza","kat":"powiatowa"},"geometry":{"type":"LineString","coordinates":[[18.98757,51.1415],[18.98574,51.13733],[18.98211,51.13133],[18.98,51.12803],[18.97305,51.11548],[18.97044,51.11002],[18.96717,51.10538]]}},{"type":"Feature","properties":{"numer":"109419E,42","klasa":"droga gĹ‚Ăłwna","kat":"powiatowa"},"geometry":{"type":"LineString","coordinates":[[18.99968,51.14205],[18.99966,51.14177]]}},{"type":"Feature","properties":{"numer":"42","klasa":"droga gĹ‚Ăłwna","kat":"krajowa"},"geometry":{"type":"LineString","coordinates":[[18.99972,51.14289],[18.99968,51.14205]]}},{"type":"Feature","properties":{"numer":"42","klasa":"droga gĹ‚Ăłwna","kat":"krajowa"},"geometry":{"type":"LineString","coordinates":[[18.99903,51.14489],[18.99959,51.14457],[18.99975,51.14434],[18.99972,51.14289]]}},{"type":"Feature","properties":{"numer":"3510E","klasa":"droga zbiorcza","kat":"powiatowa"},"geometry":{"type":"LineString","coordinates":[[18.98805,51.14671],[18.98819,51.14619],[18.98773,51.14437],[18.98757,51.1415]]}},{"type":"Feature","properties":{"numer":"42","klasa":"droga gĹ‚Ăłwna","kat":"krajowa"},"geometry":{"type":"LineString","coordinates":[[18.9935,51.14662],[18.99574,51.14586],[18.99758,51.14539],[18.99903,51.14489]]}},{"type":"Feature","properties":{"numer":"3500E","klasa":"droga zbiorcza","kat":"powiatowa"},"geometry":{"type":"LineString","coordinates":[[18.99903,51.14489],[19.00141,51.14705],[19.0017,51.14721]]}},{"type":"Feature","properties":{"numer":"109426E","klasa":"droga lokalna","kat":"powiatowa"},"geometry":{"type":"LineString","coordinates":[[18.9935,51.14662],[18.99369,51.14686]]}},{"type":"Feature","properties":{"numer":"42","klasa":"droga gĹ‚Ăłwna","kat":"krajowa"},"geometry":{"type":"LineString","coordinates":[[18.99103,51.14741],[18.9935,51.14662]]}},{"type":"Feature","properties":{"numer":"42","klasa":"droga gĹ‚Ăłwna","kat":"krajowa"},"geometry":{"type":"LineString","coordinates":[[18.98805,51.14671],[18.99103,51.14741]]}},{"type":"Feature","properties":{"numer":"109426E","klasa":"droga lokalna","kat":"powiatowa"},"geometry":{"type":"LineString","coordinates":[[18.99369,51.14686],[18.99409,51.14731],[18.99423,51.14735]]}},{"type":"Feature","properties":{"numer":"3500E","klasa":"droga zbiorcza","kat":"powiatowa"},"geometry":{"type":"LineString","coordinates":[[19.0017,51.14721],[19.00185,51.14728]]}},{"type":"Feature","properties":{"numer":"1500E","klasa":"droga zbiorcza","kat":"powiatowa"},"geometry":{"type":"LineString","coordinates":[[19.00185,51.14728],[19.00203,51.14729]]}},{"type":"Feature","properties":{"numer":"109455E","klasa":"droga lokalna","kat":"powiatowa"},"geometry":{"type":"LineString","coordinates":[[19.0006,51.14731],[19.00107,51.14731]]}},{"type":"Feature","properties":{"numer":"109455E","klasa":"droga lokalna","kat":"powiatowa"},"geometry":{"type":"LineString","coordinates":[[18.99865,51.14733],[19.0006,51.14731]]}},{"type":"Feature","properties":{"numer":"109455E","klasa":"droga lokalna","kat":"powiatowa"},"geometry":{"type":"LineString","coordinates":[[18.99769,51.14733],[18.99865,51.14733]]}},{"type":"Feature","properties":{"numer":"109455E","klasa":"droga lokalna","kat":"powiatowa"},"geometry":{"type":"LineString","coordinates":[[18.99742,51.14733],[18.99769,51.14733]]}},{"type":"Feature","properties":{"numer":"109455E","klasa":"droga lokalna","kat":"powiatowa"},"geometry":{"type":"LineString","coordinates":[[18.99695,51.14734],[18.99742,51.14733]]}},{"type":"Feature","properties":{"numer":"3500E","klasa":"droga zbiorcza","kat":"powiatowa"},"geometry":{"type":"LineString","coordinates":[[19.00185,51.14728],[19.00186,51.14739]]}},{"type":"Feature","properties":{"numer":"109455E","klasa":"droga lokalna","kat":"powiatowa"},"geometry":{"type":"LineString","coordinates":[[18.99654,51.14734],[18.99695,51.14734]]}},{"type":"Feature","properties":{"numer":"109455E","klasa":"droga lokalna","kat":"powiatowa"},"geometry":{"type":"LineString","coordinates":[[18.99606,51.14735],[18.99654,51.14734]]}},{"type":"Feature","properties":{"numer":"109428E,109455E","klasa":"droga lokalna","kat":"powiatowa"},"geometry":{"type":"LineString","coordinates":[[18.99517,51.14735],[18.99529,51.14735]]}},{"type":"Feature","properties":{"numer":"109455E","klasa":"droga lokalna","kat":"powiatowa"},"geometry":{"type":"LineString","coordinates":[[18.99529,51.14735],[18.99606,51.14735]]}},{"type":"Feature","properties":{"numer":"109455E","klasa":"droga lokalna","kat":"powiatowa"},"geometry":{"type":"LineString","coordinates":[[18.9947,51.14736],[18.99517,51.14735]]}},{"type":"Feature","properties":{"numer":"109455E","klasa":"droga lokalna","kat":"powiatowa"},"geometry":{"type":"LineString","coordinates":[[18.99423,51.14735],[18.9947,51.14736]]}},{"type":"Feature","properties":{"numer":"4536E","klasa":"droga zbiorcza","kat":"powiatowa"},"geometry":{"type":"LineString","coordinates":[[18.98991,51.14807],[18.99103,51.14741]]}},{"type":"Feature","properties":{"numer":"109408E,4536E","klasa":"droga zbiorcza","kat":"powiatowa"},"geometry":{"type":"LineString","coordinates":[[18.98982,51.14812],[18.98991,51.14807]]}},{"type":"Feature","properties":{"numer":"4536E","klasa":"droga zbiorcza","kat":"powiatowa"},"geometry":{"type":"LineString","coordinates":[[18.98595,51.15018],[18.98982,51.14812]]}},{"type":"Feature","properties":{"numer":"3513E","klasa":"droga zbiorcza","kat":"powiatowa"},"geometry":{"type":"LineString","coordinates":[[19.02153,51.14714],[19.02457,51.1456],[19.02662,51.14486],[19.03261,51.14172],[19.03969,51.13996]]}},{"type":"Feature","properties":{"numer":"1500E","klasa":"droga zbiorcza","kat":"powiatowa"},"geometry":{"type":"LineString","coordinates":[[19.02153,51.14714],[19.00477,51.14732],[19.00203,51.14729]]}},{"type":"Feature","properties":{"numer":"3500E","klasa":"droga zbiorcza","kat":"powiatowa"},"geometry":{"type":"LineString","coordinates":[[19.00186,51.14739],[19.02255,51.16647],[19.0238,51.1689],[19.02796,51.1826],[19.02799,51.18304],[19.02787,51.18349],[19.0269,51.18511]]}},{"type":"Feature","properties":{"numer":"3500E","klasa":"droga zbiorcza","kat":"powiatowa"},"geometry":{"type":"LineString","coordinates":[[19.0269,51.18511],[19.01789,51.19969],[19.01716,51.20158]]}},{"type":"Feature","properties":{"numer":"3500E","klasa":"droga zbiorcza","kat":"powiatowa"},"geometry":{"type":"LineString","coordinates":[[19.01713,51.20166],[19.01716,51.20158]]}},{"type":"Feature","properties":{"numer":"3500E","klasa":"droga zbiorcza","kat":"powiatowa"},"geometry":{"type":"LineString","coordinates":[[19.01713,51.20166],[19.01654,51.20375],[19.0172,51.20771]]}},{"type":"Feature","properties":{"numer":"3506E","klasa":"droga zbiorcza","kat":"powiatowa"},"geometry":{"type":"LineString","coordinates":[[18.9927,51.2076],[19.01683,51.20779],[19.0172,51.20771]]}},{"type":"Feature","properties":{"numer":"3500E","klasa":"droga zbiorcza","kat":"powiatowa"},"geometry":{"type":"LineString","coordinates":[[19.0172,51.20771],[19.01742,51.20793],[19.0213,51.21048],[19.02205,51.21085],[19.04062,51.21535],[19.04132,51.21557],[19.04168,51.21586],[19.04183,51.21622],[19.04214,51.22138]]}},{"type":"Feature","properties":{"numer":"3505E","klasa":"droga zbiorcza","kat":"powiatowa"},"geometry":{"type":"LineString","coordinates":[[18.99256,51.23755],[18.99254,51.23744],[18.99303,51.23684],[19.0172,51.20771]]}},{"type":"Feature","properties":{"numer":"2311E","klasa":"droga zbiorcza","kat":"powiatowa"},"geometry":{"type":"LineString","coordinates":[[18.99256,51.23755],[19.02315,51.22792],[19.03319,51.22427]]}},{"type":"Feature","properties":{"numer":"109161E,3510E","klasa":"droga zbiorcza","kat":"powiatowa"},"geometry":{"type":"LineString","coordinates":[[18.96627,51.10299],[18.96601,51.1028]]}},{"type":"Feature","properties":{"numer":"3510E","klasa":"droga zbiorcza","kat":"powiatowa"},"geometry":{"type":"LineString","coordinates":[[18.96717,51.10538],[18.96703,51.10517],[18.96655,51.10327],[18.96627,51.10299]]}},{"type":"Feature","properties":{"numer":"3511E","klasa":"droga zbiorcza","kat":"powiatowa"},"geometry":{"type":"LineString","coordinates":[[18.96717,51.10538],[18.97013,51.10488]]}},{"type":"Feature","properties":{"numer":"42","klasa":"droga gĹ‚Ăłwna","kat":"krajowa"},"geometry":{"type":"LineString","coordinates":[[18.90625,51.1248],[18.91355,51.12658],[18.91727,51.12862],[18.92124,51.1298],[18.92606,51.1315],[18.94487,51.13595],[18.98805,51.14671]]}},{"type":"Feature","properties":{"numer":"3501E","klasa":"droga zbiorcza","kat":"powiatowa"},"geometry":{"type":"LineString","coordinates":[[18.97069,51.22899],[18.95852,51.22117],[18.95774,51.22056],[18.95656,51.2107],[18.95637,51.20799],[18.95646,51.20463],[18.95639,51.20437]]}},{"type":"Feature","properties":{"numer":"3501E","klasa":"droga zbiorcza","kat":"powiatowa"},"geometry":{"type":"LineString","coordinates":[[18.97082,51.22907],[18.97069,51.22899]]}},{"type":"Feature","properties":{"numer":"3504E","klasa":"droga zbiorcza","kat":"powiatowa"},"geometry":{"type":"LineString","coordinates":[[18.95665,51.23434],[18.95697,51.2342]]}},{"type":"Feature","properties":{"numer":"3504E","klasa":"droga zbiorcza","kat":"powiatowa"},"geometry":{"type":"LineString","coordinates":[[18.95697,51.2342],[18.95741,51.23414],[18.95835,51.23447],[18.95923,51.23465],[18.96559,51.23512],[18.9676,51.2356],[18.97695,51.24072],[18.98326,51.24171]]}},{"type":"Feature","properties":{"numer":"2311E","klasa":"droga zbiorcza","kat":"powiatowa"},"geometry":{"type":"LineString","coordinates":[[18.94014,51.27602],[18.93886,51.26438],[18.9389,51.26399],[18.93922,51.2636],[18.9828,51.24607],[18.98346,51.24565]]}},{"type":"Feature","properties":{"numer":"4526E","klasa":"droga zbiorcza","kat":"powiatowa"},"geometry":{"type":"LineString","coordinates":[[18.94014,51.27602],[18.94492,51.2758],[18.95743,51.27503],[18.95753,51.27519],[18.95748,51.27998],[18.9742,51.28108],[18.97669,51.28092],[18.98412,51.27904],[18.98599,51.27871],[19.00198,51.27518]]}},{"type":"Feature","properties":{"numer":"109431E,4536E","klasa":"droga zbiorcza","kat":"powiatowa"},"geometry":{"type":"LineString","coordinates":[[18.98591,51.15019],[18.98595,51.15018]]}},{"type":"Feature","properties":{"numer":"4536E","klasa":"droga zbiorcza","kat":"powiatowa"},"geometry":{"type":"LineString","coordinates":[[18.96136,51.15655],[18.96182,51.15625],[18.96509,51.15489],[18.96587,51.15464],[18.9668,51.15461],[18.9691,51.15468],[18.9805,51.15319],[18.98102,51.153],[18.98591,51.15019]]}},{"type":"Feature","properties":{"numer":"3506E","klasa":"droga zbiorcza","kat":"powiatowa"},"geometry":{"type":"LineString","coordinates":[[18.95639,51.20437],[18.95663,51.20431],[18.95776,51.20432],[18.95938,51.20449],[18.95974,51.20447],[18.96154,51.20324],[18.9619,51.20312],[18.97626,51.20257],[18.97734,51.20279],[18.99254,51.20758]]}},{"type":"Feature","properties":{"numer":"3506E","klasa":"droga zbiorcza","kat":"powiatowa"},"geometry":{"type":"LineString","coordinates":[[18.99254,51.20758],[18.9927,51.2076]]}},{"type":"Feature","properties":{"numer":"3501E","klasa":"droga zbiorcza","kat":"powiatowa"},"geometry":{"type":"LineString","coordinates":[[18.98392,51.23855],[18.98355,51.23735],[18.98319,51.23697],[18.97082,51.22907]]}},{"type":"Feature","properties":{"numer":"2311E","klasa":"droga zbiorcza","kat":"powiatowa"},"geometry":{"type":"LineString","coordinates":[[18.98392,51.23855],[18.99171,51.23771],[18.99256,51.23755]]}},{"type":"Feature","properties":{"numer":"2311E","klasa":"droga zbiorcza","kat":"powiatowa"},"geometry":{"type":"LineString","coordinates":[[18.98347,51.24103],[18.98386,51.23978],[18.98392,51.23855]]}},{"type":"Feature","properties":{"numer":"2311E","klasa":"droga zbiorcza","kat":"powiatowa"},"geometry":{"type":"LineString","coordinates":[[18.98344,51.24114],[18.98347,51.24103]]}},{"type":"Feature","properties":{"numer":"2311E","klasa":"droga zbiorcza","kat":"powiatowa"},"geometry":{"type":"LineString","coordinates":[[18.98326,51.24171],[18.98344,51.24114]]}},{"type":"Feature","properties":{"numer":"2311E","klasa":"droga zbiorcza","kat":"powiatowa"},"geometry":{"type":"LineString","coordinates":[[18.98346,51.24565],[18.98361,51.24524],[18.98326,51.24171]]}},{"type":"Feature","properties":{"numer":"483","klasa":"droga gĹ‚Ăłwna","kat":"wojewodzka"},"geometry":{"type":"LineString","coordinates":[[19.15536,51.04541],[19.15443,51.04435]]}},{"type":"Feature","properties":{"numer":"483","klasa":"droga gĹ‚Ăłwna","kat":"wojewodzka"},"geometry":{"type":"LineString","coordinates":[[19.15695,51.04878],[19.15536,51.04541]]}},{"type":"Feature","properties":{"numer":"483","klasa":"droga gĹ‚Ăłwna","kat":"wojewodzka"},"geometry":{"type":"LineString","coordinates":[[19.1575,51.05047],[19.15695,51.04878]]}},{"type":"Feature","properties":{"numer":"483","klasa":"droga gĹ‚Ăłwna","kat":"wojewodzka"},"geometry":{"type":"LineString","coordinates":[[19.17711,51.0776],[19.17589,51.07679],[19.17048,51.07376],[19.17009,51.07346],[19.16995,51.07281],[19.16999,51.0723],[19.16866,51.06875],[19.16845,51.06755],[19.1682,51.06697],[19.16676,51.06463],[19.15781,51.05119],[19.1575,51.05047]]}},{"type":"Feature","properties":{"numer":"42","klasa":"droga gĹ‚Ăłwna","kat":"krajowa"},"geometry":{"type":"LineString","coordinates":[[19.12872,51.07695],[19.13915,51.07444],[19.14023,51.07425],[19.152,51.07523],[19.15922,51.07563],[19.16116,51.07582],[19.16656,51.07593],[19.17203,51.07673],[19.17414,51.07741],[19.17711,51.0776]]}},{"type":"Feature","properties":{"numer":"42,483","klasa":"droga gĹ‚Ăłwna","kat":"gminna"},"geometry":{"type":"LineString","coordinates":[[19.17711,51.0776],[19.17965,51.07893],[19.18358,51.08119]]}},{"type":"Feature","properties":{"numer":"42","klasa":"droga gĹ‚Ăłwna","kat":"krajowa"},"geometry":{"type":"LineString","coordinates":[[19.18358,51.08119],[19.18433,51.08131]]}},{"type":"Feature","properties":{"numer":"42","klasa":"droga gĹ‚Ăłwna","kat":"krajowa"},"geometry":{"type":"LineString","coordinates":[[19.18433,51.08131],[19.18453,51.08134]]}},{"type":"Feature","properties":{"numer":"483","klasa":"droga gĹ‚Ăłwna","kat":"wojewodzka"},"geometry":{"type":"LineString","coordinates":[[19.15245,51.10327],[19.15519,51.10111],[19.17004,51.09012],[19.17041,51.08971],[19.17241,51.08649],[19.17267,51.08626],[19.18256,51.08182],[19.18358,51.08119]]}},{"type":"Feature","properties":{"numer":"109253E,3515E","klasa":"droga zbiorcza","kat":"powiatowa"},"geometry":{"type":"LineString","coordinates":[[19.17933,51.13487],[19.17971,51.13417]]}},{"type":"Feature","properties":{"numer":"483","klasa":"droga gĹ‚Ăłwna","kat":"wojewodzka"},"geometry":{"type":"LineString","coordinates":[[19.14452,51.13597],[19.14273,51.13266]]}},{"type":"Feature","properties":{"numer":"483","klasa":"droga gĹ‚Ăłwna","kat":"wojewodzka"},"geometry":{"type":"LineString","coordinates":[[19.14466,51.13623],[19.14452,51.13597]]}},{"type":"Feature","properties":{"numer":"483","klasa":"droga gĹ‚Ăłwna","kat":"wojewodzka"},"geometry":{"type":"LineString","coordinates":[[19.14544,51.13878],[19.14548,51.13827],[19.14537,51.1377],[19.14466,51.13623]]}},{"type":"Feature","properties":{"numer":"3515E,483","klasa":"droga zbiorcza","kat":"powiatowa"},"geometry":{"type":"LineString","coordinates":[[19.142,51.13998],[19.14428,51.13985],[19.14474,51.13975],[19.14523,51.13945],[19.14544,51.13878]]}},{"type":"Feature","properties":{"numer":"483","klasa":"droga gĹ‚Ăłwna","kat":"wojewodzka"},"geometry":{"type":"LineString","coordinates":[[19.13344,51.17442],[19.13388,51.17349],[19.13597,51.1716],[19.13632,51.17098],[19.13643,51.1705],[19.13649,51.1661],[19.13638,51.16538],[19.13594,51.16466],[19.13297,51.1609],[19.13269,51.16029],[19.13454,51.15125],[19.14073,51.14066],[19.14124,51.14017],[19.142,51.13998]]}},{"type":"Feature","properties":{"numer":"483","klasa":"droga gĹ‚Ăłwna","kat":"wojewodzka"},"geometry":{"type":"LineString","coordinates":[[19.13336,51.17469],[19.13344,51.17442]]}},{"type":"Feature","properties":{"numer":"1500E","klasa":"droga zbiorcza","kat":"powiatowa"},"geometry":{"type":"LineString","coordinates":[[19.13262,51.17469],[19.1331,51.17479]]}},{"type":"Feature","properties":{"numer":"483","klasa":"droga gĹ‚Ăłwna","kat":"wojewodzka"},"geometry":{"type":"LineString","coordinates":[[19.13334,51.17485],[19.13336,51.17469]]}},{"type":"Feature","properties":{"numer":"1500E","klasa":"droga zbiorcza","kat":"powiatowa"},"geometry":{"type":"LineString","coordinates":[[19.1331,51.17479],[19.13334,51.17485]]}},{"type":"Feature","properties":{"numer":"1500E","klasa":"droga zbiorcza","kat":"powiatowa"},"geometry":{"type":"LineString","coordinates":[[19.13334,51.17485],[19.13355,51.17494]]}},{"type":"Feature","properties":{"numer":"3514E","klasa":"droga zbiorcza","kat":"powiatowa"},"geometry":{"type":"LineString","coordinates":[[19.08984,51.13345],[19.09139,51.13403]]}},{"type":"Feature","properties":{"numer":"3514E","klasa":"droga zbiorcza","kat":"powiatowa"},"geometry":{"type":"LineString","coordinates":[[19.09139,51.13403],[19.09064,51.13912],[19.09081,51.13982]]}},{"type":"Feature","properties":{"numer":"3514E","klasa":"droga zbiorcza","kat":"powiatowa"},"geometry":{"type":"LineString","coordinates":[[19.09083,51.13986],[19.09551,51.14484]]}},{"type":"Feature","properties":{"numer":"3515E","klasa":"droga zbiorcza","kat":"powiatowa"},"geometry":{"type":"LineString","coordinates":[[19.142,51.13998],[19.12162,51.14109],[19.11106,51.1435],[19.10987,51.14364],[19.10598,51.14384],[19.10224,51.1446],[19.10136,51.14488],[19.09776,51.14646],[19.09745,51.14651],[19.09713,51.14641]]}},{"type":"Feature","properties":{"numer":"3515E","klasa":"droga zbiorcza","kat":"powiatowa"},"geometry":{"type":"LineString","coordinates":[[19.0964,51.14572],[19.09551,51.14484]]}},{"type":"Feature","properties":{"numer":"3515E","klasa":"droga zbiorcza","kat":"powiatowa"},"geometry":{"type":"LineString","coordinates":[[19.09648,51.1458],[19.0964,51.14572]]}},{"type":"Feature","properties":{"numer":"3515E","klasa":"droga zbiorcza","kat":"powiatowa"},"geometry":{"type":"LineString","coordinates":[[19.09713,51.14641],[19.09648,51.1458]]}},{"type":"Feature","properties":{"numer":"1500E","klasa":"droga zbiorcza","kat":"powiatowa"},"geometry":{"type":"LineString","coordinates":[[19.10338,51.16853],[19.10405,51.16896]]}},{"type":"Feature","properties":{"numer":"1500E","klasa":"droga zbiorcza","kat":"powiatowa"},"geometry":{"type":"LineString","coordinates":[[19.10405,51.16896],[19.10533,51.16941],[19.11308,51.17101],[19.12194,51.17263],[19.12285,51.17293],[19.12354,51.17372],[19.12403,51.17394],[19.12975,51.17413],[19.13262,51.17469]]}},{"type":"Feature","properties":{"numer":"2311E","klasa":"droga zbiorcza","kat":"powiatowa"},"geometry":{"type":"LineString","coordinates":[[19.13014,51.21871],[19.12876,51.21845],[19.12855,51.21828],[19.12836,51.21783],[19.12818,51.21769],[19.125,51.21703],[19.12222,51.21619],[19.11284,51.21735],[19.112,51.21756],[19.11027,51.21824],[19.10978,51.21831]]}},{"type":"Feature","properties":{"numer":"483","klasa":"droga gĹ‚Ăłwna","kat":"wojewodzka"},"geometry":{"type":"LineString","coordinates":[[19.13329,51.17501],[19.13334,51.17485]]}},{"type":"Feature","properties":{"numer":"1500E","klasa":"droga zbiorcza","kat":"powiatowa"},"geometry":{"type":"LineString","coordinates":[[19.13355,51.17494],[19.13411,51.17517]]}},{"type":"Feature","properties":{"numer":"483","klasa":"droga gĹ‚Ăłwna","kat":"wojewodzka"},"geometry":{"type":"LineString","coordinates":[[19.13322,51.17534],[19.13329,51.17501]]}},{"type":"Feature","properties":{"numer":"1500E","klasa":"droga zbiorcza","kat":"powiatowa"},"geometry":{"type":"LineString","coordinates":[[19.13411,51.17517],[19.13723,51.17645],[19.13833,51.17677],[19.16135,51.18189],[19.16258,51.18206]]}},{"type":"Feature","properties":{"numer":"483","klasa":"droga gĹ‚Ăłwna","kat":"wojewodzka"},"geometry":{"type":"LineString","coordinates":[[19.13128,51.18937],[19.13121,51.18855],[19.13165,51.18157],[19.13322,51.17534]]}},{"type":"Feature","properties":{"numer":"3507E","klasa":"droga zbiorcza","kat":"powiatowa"},"geometry":{"type":"LineString","coordinates":[[19.13128,51.18937],[19.1515,51.18358],[19.16258,51.18206]]}},{"type":"Feature","properties":{"numer":"3507E","klasa":"droga zbiorcza","kat":"powiatowa"},"geometry":{"type":"LineString","coordinates":[[19.12513,51.19122],[19.12683,51.18996],[19.12794,51.18946],[19.12885,51.18933],[19.13099,51.18942],[19.13128,51.18937]]}},{"type":"Feature","properties":{"numer":"3507E","klasa":"droga zbiorcza","kat":"powiatowa"},"geometry":{"type":"LineString","coordinates":[[19.12506,51.19128],[19.12513,51.19122]]}},{"type":"Feature","properties":{"numer":"483","klasa":"droga gĹ‚Ăłwna","kat":"wojewodzka"},"geometry":{"type":"LineString","coordinates":[[19.13409,51.19331],[19.13128,51.18937]]}},{"type":"Feature","properties":{"numer":"483","klasa":"droga gĹ‚Ăłwna","kat":"wojewodzka"},"geometry":{"type":"LineString","coordinates":[[19.13413,51.19336],[19.13409,51.19331]]}},{"type":"Feature","properties":{"numer":"1901E","klasa":"droga zbiorcza","kat":"powiatowa"},"geometry":{"type":"LineString","coordinates":[[19.20144,51.18647],[19.20289,51.18155]]}},{"type":"Feature","properties":{"numer":"1901E","klasa":"droga zbiorcza","kat":"powiatowa"},"geometry":{"type":"LineString","coordinates":[[19.20144,51.18647],[19.20136,51.18663]]}},{"type":"Feature","properties":{"numer":"1500E","klasa":"droga zbiorcza","kat":"powiatowa"},"geometry":{"type":"LineString","coordinates":[[19.20085,51.18658],[19.20116,51.18667]]}},{"type":"Feature","properties":{"numer":"1901E","klasa":"droga zbiorcza","kat":"powiatowa"},"geometry":{"type":"LineString","coordinates":[[19.2013,51.18673],[19.20136,51.18663]]}},{"type":"Feature","properties":{"numer":"1500E","klasa":"droga zbiorcza","kat":"powiatowa"},"geometry":{"type":"LineString","coordinates":[[19.20116,51.18667],[19.2013,51.18673]]}},{"type":"Feature","properties":{"numer":"1901E","klasa":"droga zbiorcza","kat":"powiatowa"},"geometry":{"type":"LineString","coordinates":[[19.20121,51.18683],[19.2013,51.18673]]}},{"type":"Feature","properties":{"numer":"1500E,3509E","klasa":"droga zbiorcza","kat":"powiatowa"},"geometry":{"type":"LineString","coordinates":[[19.20138,51.18683],[19.2013,51.18673]]}},{"type":"Feature","properties":{"numer":"1500E","klasa":"droga zbiorcza","kat":"powiatowa"},"geometry":{"type":"LineString","coordinates":[[19.20152,51.18698],[19.20138,51.18683]]}},{"type":"Feature","properties":{"numer":"1901E","klasa":"droga zbiorcza","kat":"powiatowa"},"geometry":{"type":"LineString","coordinates":[[19.20111,51.18701],[19.20121,51.18683]]}},{"type":"Feature","properties":{"numer":"1500E","klasa":"droga zbiorcza","kat":"powiatowa"},"geometry":{"type":"LineString","coordinates":[[19.2128,51.19069],[19.20825,51.18877],[19.20213,51.18726],[19.20173,51.18714],[19.20152,51.18698]]}},{"type":"Feature","properties":{"numer":"3515E","klasa":"droga zbiorcza","kat":"powiatowa"},"geometry":{"type":"LineString","coordinates":[[19.17011,51.13552],[19.17025,51.13552]]}},{"type":"Feature","properties":{"numer":"3515E","klasa":"droga zbiorcza","kat":"powiatowa"},"geometry":{"type":"LineString","coordinates":[[19.17025,51.13552],[19.17115,51.13556],[19.17225,51.13574],[19.17306,51.13592],[19.17424,51.13629],[19.17453,51.1363],[19.17778,51.1357],[19.17881,51.13525],[19.17933,51.13487]]}},{"type":"Feature","properties":{"numer":"109253E,3519E","klasa":"droga zbiorcza","kat":"powiatowa"},"geometry":{"type":"LineString","coordinates":[[19.17909,51.13805],[19.17946,51.13519],[19.17933,51.13487]]}},{"type":"Feature","properties":{"numer":"3515E","klasa":"droga zbiorcza","kat":"powiatowa"},"geometry":{"type":"LineString","coordinates":[[19.14544,51.13878],[19.15493,51.13957],[19.15598,51.13958],[19.16799,51.13556],[19.16833,51.1355],[19.17011,51.13552]]}},{"type":"Feature","properties":{"numer":"1500E","klasa":"droga zbiorcza","kat":"powiatowa"},"geometry":{"type":"LineString","coordinates":[[19.16258,51.18206],[19.16584,51.18176],[19.16721,51.18179],[19.20085,51.18658]]}},{"type":"Feature","properties":{"numer":"483","klasa":"droga gĹ‚Ăłwna","kat":"wojewodzka"},"geometry":{"type":"LineString","coordinates":[[19.10918,51.21815],[19.13039,51.20742],[19.13146,51.20679],[19.13243,51.20599],[19.13302,51.20529],[19.1334,51.20461],[19.13376,51.2032],[19.13474,51.19476],[19.13459,51.19408],[19.13413,51.19336]]}},{"type":"Feature","properties":{"numer":"1901E","klasa":"droga zbiorcza","kat":"powiatowa"},"geometry":{"type":"LineString","coordinates":[[19.20111,51.18701],[19.19965,51.19041],[19.19955,51.19097],[19.19998,51.19432],[19.20167,51.19888],[19.2026,51.20041],[19.20473,51.20157],[19.20803,51.20427],[19.20873,51.20583],[19.21049,51.20897],[19.20997,51.2197],[19.20919,51.22072],[19.2077,51.22201],[19.20747,51.22232],[19.20708,51.22313],[19.20698,51.22414],[19.21121,51.22513],[19.212234876078575,51.22529963466128]]}},{"type":"Feature","properties":{"numer":"3509E","klasa":"droga zbiorcza","kat":"powiatowa"},"geometry":{"type":"LineString","coordinates":[[19.2128,51.19069],[19.21507,51.19057],[19.21871,51.19002],[19.21976,51.18994],[19.22618,51.18986],[19.24372,51.19009],[19.25309,51.19009],[19.26496,51.18938],[19.26951,51.18895],[19.27207,51.18885]]}},{"type":"Feature","properties":{"numer":"1500E","klasa":"droga zbiorcza","kat":"powiatowa"},"geometry":{"type":"LineString","coordinates":[[19.251532508746653,51.20735529121218],[19.250777686717793,51.20688083165118]]}},{"type":"Feature","properties":{"numer":"1500E","klasa":"droga zbiorcza","kat":"powiatowa"},"geometry":{"type":"LineString","coordinates":[[19.24629486887679,51.204623582384954],[19.24613,51.20457],[19.23413,51.20256],[19.23317,51.20226],[19.22374,51.19792],[19.21705,51.19418],[19.21633,51.19369],[19.2138,51.19128],[19.2128,51.19069]]}},{"type":"Feature","properties":{"numer":"3513E,3514E","klasa":"droga zbiorcza","kat":"powiatowa"},"geometry":{"type":"LineString","coordinates":[[19.07701,51.12356],[19.0774,51.12328]]}},{"type":"Feature","properties":{"numer":"3513E,3514E","klasa":"droga zbiorcza","kat":"powiatowa"},"geometry":{"type":"LineString","coordinates":[[19.07411,51.1263],[19.07701,51.12356]]}},{"type":"Feature","properties":{"numer":"3514E","klasa":"droga zbiorcza","kat":"powiatowa"},"geometry":{"type":"LineString","coordinates":[[19.07411,51.1263],[19.08031,51.12952],[19.08215,51.13015],[19.08547,51.13173],[19.08984,51.13345]]}},{"type":"Feature","properties":{"numer":"3515E","klasa":"droga zbiorcza","kat":"powiatowa"},"geometry":{"type":"LineString","coordinates":[[19.09551,51.14484],[19.09508,51.14471],[19.09318,51.14491],[19.04896,51.15029]]}},{"type":"Feature","properties":{"numer":"1500E","klasa":"droga zbiorcza","kat":"powiatowa"},"geometry":{"type":"LineString","coordinates":[[19.04896,51.15029],[19.04992,51.15055],[19.05099,51.151],[19.05394,51.15341],[19.05508,51.154],[19.07687,51.16076],[19.08905,51.16469],[19.08971,51.16484],[19.09053,51.16488],[19.09696,51.16429],[19.09788,51.16436],[19.09837,51.1646],[19.09881,51.16507],[19.10104,51.16667],[19.10338,51.16853]]}},{"type":"Feature","properties":{"numer":"3507E","klasa":"droga zbiorcza","kat":"powiatowa"},"geometry":{"type":"LineString","coordinates":[[19.0269,51.18511],[19.02938,51.18627],[19.04734,51.19092],[19.04756,51.19107],[19.04797,51.19172],[19.05072,51.1964],[19.06326,51.19418],[19.09499,51.19297],[19.1161,51.19159],[19.12413,51.19172],[19.12453,51.19163],[19.12506,51.19128]]}},{"type":"Feature","properties":{"numer":"109208E,2311E","klasa":"droga zbiorcza","kat":"powiatowa"},"geometry":{"type":"LineString","coordinates":[[19.07552,51.21581],[19.07538,51.21579]]}},{"type":"Feature","properties":{"numer":"3500E","klasa":"droga zbiorcza","kat":"powiatowa"},"geometry":{"type":"LineString","coordinates":[[19.06648,51.24778],[19.06087,51.24102],[19.06081,51.24085],[19.06097,51.24064],[19.06043,51.24036],[19.06012,51.24009],[19.05764,51.23701],[19.05736,51.23651],[19.05674,51.23453]]}},{"type":"Feature","properties":{"numer":"3500E","klasa":"droga zbiorcza","kat":"powiatowa"},"geometry":{"type":"LineString","coordinates":[[19.09462,51.27572],[19.08949,51.27643],[19.08912,51.27603],[19.08641,51.27207],[19.08491,51.27038]]}},{"type":"Feature","properties":{"numer":"2311E","klasa":"droga zbiorcza","kat":"powiatowa"},"geometry":{"type":"LineString","coordinates":[[19.10841,51.21794],[19.10402,51.21846],[19.10319,51.21871],[19.10077,51.21965],[19.10025,51.21977],[19.09976,51.21977],[19.09539,51.2194],[19.09269,51.21883],[19.07552,51.21581]]}},{"type":"Feature","properties":{"numer":"2311E","klasa":"droga zbiorcza","kat":"powiatowa"},"geometry":{"type":"LineString","coordinates":[[19.10841,51.21794],[19.10918,51.21815]]}},{"type":"Feature","properties":{"numer":"2311E","klasa":"droga zbiorcza","kat":"powiatowa"},"geometry":{"type":"LineString","coordinates":[[19.10918,51.21815],[19.10978,51.21831]]}},{"type":"Feature","properties":{"numer":"483","klasa":"droga gĹ‚Ăłwna","kat":"wojewodzka"},"geometry":{"type":"LineString","coordinates":[[19.09921,51.23756],[19.09845,51.22691],[19.09852,51.22588],[19.09889,51.22476],[19.09983,51.22342],[19.10046,51.22282],[19.10137,51.22216],[19.10918,51.21815]]}},{"type":"Feature","properties":{"numer":"483","klasa":"droga zbiorcza","kat":"wojewodzka"},"geometry":{"type":"LineString","coordinates":[[19.09921131455123,51.23757785865942],[19.09921,51.23756]]}},{"type":"Feature","properties":{"numer":"483","klasa":"droga gĹ‚Ăłwna","kat":"wojewodzka"},"geometry":{"type":"LineString","coordinates":[[19.10184783032667,51.26978098000975],[19.1016,51.26919],[19.10148,51.26845],[19.100443544406065,51.25431832661347]]}},{"type":"Feature","properties":{"numer":"2311E,3500E","klasa":"droga zbiorcza","kat":"powiatowa"},"geometry":{"type":"LineString","coordinates":[[19.04253,51.22177],[19.04235,51.22178]]}},{"type":"Feature","properties":{"numer":"2311E","klasa":"droga zbiorcza","kat":"powiatowa"},"geometry":{"type":"LineString","coordinates":[[19.0422,51.22183],[19.04235,51.22178]]}},{"type":"Feature","properties":{"numer":"2311E,3500E","klasa":"droga zbiorcza","kat":"powiatowa"},"geometry":{"type":"LineString","coordinates":[[19.04235,51.22178],[19.04242,51.22188]]}},{"type":"Feature","properties":{"numer":"2311E","klasa":"droga zbiorcza","kat":"powiatowa"},"geometry":{"type":"LineString","coordinates":[[19.04192,51.22187],[19.0422,51.22183]]}},{"type":"Feature","properties":{"numer":"2311E","klasa":"droga zbiorcza","kat":"powiatowa"},"geometry":{"type":"LineString","coordinates":[[19.03319,51.22427],[19.03768,51.22307],[19.03923,51.22297],[19.03934,51.22286],[19.03938,51.22208],[19.03962,51.22194],[19.04006,51.22187],[19.04192,51.22187]]}},{"type":"Feature","properties":{"numer":"109103E","klasa":"","kat":"powiatowa"},"geometry":{"type":"LineString","coordinates":[[19.03322,51.2246],[19.03319,51.22427]]}},{"type":"Feature","properties":{"numer":"3500E","klasa":"droga zbiorcza","kat":"powiatowa"},"geometry":{"type":"LineString","coordinates":[[19.05673,51.2345],[19.05379,51.22481],[19.05364,51.22459],[19.05337,51.22445],[19.05297,51.2244],[19.04885,51.22484],[19.04814,51.22478],[19.04748,51.22453],[19.04516,51.22288],[19.04301,51.22214],[19.0427,51.22192],[19.04242,51.22188]]}},{"type":"Feature","properties":{"numer":"3500E","klasa":"droga zbiorcza","kat":"powiatowa"},"geometry":{"type":"LineString","coordinates":[[19.05674,51.23453],[19.05673,51.2345]]}},{"type":"Feature","properties":{"numer":"3500E","klasa":"droga zbiorcza","kat":"powiatowa"},"geometry":{"type":"LineString","coordinates":[[19.099006539542234,51.27516327079553],[19.0958,51.27557]]}},{"type":"Feature","properties":{"numer":"3500E","klasa":"droga zbiorcza","kat":"powiatowa"},"geometry":{"type":"LineString","coordinates":[[19.0958,51.27557],[19.09557,51.2756]]}},{"type":"Feature","properties":{"numer":"3500E","klasa":"droga zbiorcza","kat":"powiatowa"},"geometry":{"type":"LineString","coordinates":[[19.09557,51.2756],[19.09476,51.27571]]}},{"type":"Feature","properties":{"numer":"3500E","klasa":"droga zbiorcza","kat":"powiatowa"},"geometry":{"type":"LineString","coordinates":[[19.09476,51.27571],[19.09462,51.27572]]}},{"type":"Feature","properties":{"numer":"1929E","klasa":"droga zbiorcza","kat":"powiatowa"},"geometry":{"type":"LineString","coordinates":[[18.98346,51.24565],[18.98378,51.2458]]}},{"type":"Feature","properties":{"numer":"1929E","klasa":"droga zbiorcza","kat":"powiatowa"},"geometry":{"type":"LineString","coordinates":[[18.98378,51.2458],[18.98556,51.24744]]}},{"type":"Feature","properties":{"numer":"109103E,1929E","klasa":"droga zbiorcza","kat":"powiatowa"},"geometry":{"type":"LineString","coordinates":[[18.98658,51.24833],[18.98556,51.24744]]}},{"type":"Feature","properties":{"numer":"1929E","klasa":"droga zbiorcza","kat":"powiatowa"},"geometry":{"type":"LineString","coordinates":[[18.98658,51.24833],[19.0,51.26023],[19.00034,51.26071],[19.00044,51.26118]]}},{"type":"Feature","properties":{"numer":"109104E,1929E","klasa":"droga zbiorcza","kat":"powiatowa"},"geometry":{"type":"LineString","coordinates":[[19.00061,51.2627],[19.00044,51.26118]]}},{"type":"Feature","properties":{"numer":"1929E","klasa":"droga zbiorcza","kat":"powiatowa"},"geometry":{"type":"LineString","coordinates":[[19.00198,51.27518],[19.00061,51.2627]]}},{"type":"Feature","properties":{"numer":"1929E","klasa":"droga zbiorcza","kat":"powiatowa"},"geometry":{"type":"LineString","coordinates":[[19.003364208043248,51.28683124755828],[19.00198,51.27518]]}},{"type":"Feature","properties":{"numer":"491","klasa":"droga gĹ‚Ăłwna","kat":"wojewodzka"},"geometry":{"type":"LineString","coordinates":[[18.895880381856948,51.067497129288626],[18.89543,51.06799],[18.87964,51.08691],[18.87478,51.10592]]}},{"type":"Feature","properties":{"numer":"3502E","klasa":"droga zbiorcza","kat":"powiatowa"},"geometry":{"type":"LineString","coordinates":[[18.87478,51.10592],[18.87644,51.10597],[18.87715,51.10585],[18.88626,51.10262],[18.89157,51.10297],[18.89357,51.10282],[18.89849,51.10174],[18.90005,51.1017],[18.90158,51.10124],[18.90294,51.10032],[18.9034,51.10011],[18.91357,51.09722],[18.91687,51.0962]]}},{"type":"Feature","properties":{"numer":"42","klasa":"droga gĹ‚Ăłwna","kat":"krajowa"},"geometry":{"type":"LineString","coordinates":[[18.86571,51.11675],[18.86944,51.11643],[18.87662,51.11777],[18.88653,51.12004],[18.90564,51.12465]]}},{"type":"Feature","properties":{"numer":"42","klasa":"droga gĹ‚Ăłwna","kat":"krajowa"},"geometry":{"type":"LineString","coordinates":[[18.78032,51.06579],[18.78498,51.06907],[18.78789,51.07123],[18.78875,51.07166],[18.79266,51.073],[18.79626,51.0748],[18.79916,51.07673],[18.80127,51.07828],[18.81461,51.0871],[18.82042,51.08893],[18.83448,51.09283],[18.84605,51.09614],[18.85152,51.09729],[18.85472,51.09864],[18.85744,51.10008],[18.86075,51.1016],[18.86203,51.10193],[18.86709,51.10284],[18.86739,51.10311],[18.86817,51.10513],[18.86882,51.10574],[18.86975,51.10622],[18.87044,51.10648],[18.87442,51.10728]]}},{"type":"Feature","properties":{"numer":"491","klasa":"droga gĹ‚Ăłwna","kat":"wojewodzka"},"geometry":{"type":"LineString","coordinates":[[18.87478,51.10592],[18.87442,51.10728]]}},{"type":"Feature","properties":{"numer":"42","klasa":"droga gĹ‚Ăłwna","kat":"krajowa"},"geometry":{"type":"LineString","coordinates":[[18.87442,51.10728],[18.87366,51.11023]]}},{"type":"Feature","properties":{"numer":"42","klasa":"droga gĹ‚Ăłwna","kat":"krajowa"},"geometry":{"type":"LineString","coordinates":[[18.87366,51.11023],[18.87339,51.11132]]}},{"type":"Feature","properties":{"numer":"42","klasa":"droga gĹ‚Ăłwna","kat":"krajowa"},"geometry":{"type":"LineString","coordinates":[[18.87339,51.11132],[18.87258,51.11426],[18.8667,51.11616],[18.86526,51.11629],[18.86511,51.11648]]}},{"type":"Feature","properties":{"numer":"42","klasa":"droga gĹ‚Ăłwna","kat":"krajowa"},"geometry":{"type":"LineString","coordinates":[[18.86511,51.11648],[18.86514,51.11667]]}},{"type":"Feature","properties":{"numer":"42","klasa":"droga gĹ‚Ăłwna","kat":"krajowa"},"geometry":{"type":"LineString","coordinates":[[18.86514,51.11667],[18.86516,51.11679]]}},{"type":"Feature","properties":{"numer":"42","klasa":"droga gĹ‚Ăłwna","kat":"krajowa"},"geometry":{"type":"LineString","coordinates":[[18.86571,51.11675],[18.86535,51.11678]]}},{"type":"Feature","properties":{"numer":"42","klasa":"droga gĹ‚Ăłwna","kat":"krajowa"},"geometry":{"type":"LineString","coordinates":[[18.86535,51.11678],[18.86516,51.11679]]}},{"type":"Feature","properties":{"numer":"486","klasa":"droga gĹ‚Ăłwna","kat":"wojewodzka"},"geometry":{"type":"LineString","coordinates":[[18.86498,51.11681],[18.86516,51.11679]]}},{"type":"Feature","properties":{"numer":"2030S","klasa":"","kat":"powiatowa"},"geometry":{"type":"LineString","coordinates":[[18.916876943376217,51.09619882774168],[18.91687,51.0962]]}},{"type":"Feature","properties":{"numer":"4527E","klasa":"droga zbiorcza","kat":"powiatowa"},"geometry":{"type":"LineString","coordinates":[[18.90405,51.17299],[18.91027,51.17286],[18.9114,51.17266],[18.9182,51.17018],[18.93332,51.16576],[18.94455,51.16166],[18.94625,51.16123],[18.94747,51.16101],[18.95039,51.16067],[18.95354,51.15968],[18.96049,51.15678],[18.96112,51.15655],[18.96136,51.15655]]}},{"type":"Feature","properties":{"numer":"4536E","klasa":"droga zbiorcza","kat":"powiatowa"},"geometry":{"type":"LineString","coordinates":[[18.90168,51.2031],[18.9025,51.20227],[18.9028,51.2021],[18.91905,51.19709],[18.92407,51.19539],[18.93344,51.19067],[18.93403,51.18957],[18.93535,51.1889],[18.93578,51.18858],[18.93846,51.18509],[18.93944,51.18266],[18.94188,51.18047],[18.94438,51.1774],[18.94908,51.17432],[18.95725,51.16763],[18.95813,51.16682],[18.95851,51.16592],[18.96097,51.15729],[18.96136,51.15655]]}},{"type":"Feature","properties":{"numer":"3501E","klasa":"droga zbiorcza","kat":"powiatowa"},"geometry":{"type":"LineString","coordinates":[[18.95639,51.20437],[18.95617,51.20429],[18.95533,51.20429],[18.94874,51.20501],[18.94552,51.20525],[18.93665,51.2068],[18.93459,51.20735],[18.93335,51.20751],[18.9314,51.20756],[18.93089,51.20751],[18.9294,51.207],[18.92887,51.20691],[18.91311,51.20579],[18.90708,51.20529],[18.90622,51.20499],[18.90302,51.20334],[18.90268,51.20324],[18.90173,51.2032]]}},{"type":"Feature","properties":{"numer":"4526E","klasa":"droga zbiorcza","kat":"powiatowa"},"geometry":{"type":"LineString","coordinates":[[18.899579416058394,51.28056708029197],[18.89951,51.28022],[18.90001,51.27851],[18.90013,51.27844],[18.91627,51.27857],[18.9216,51.27799],[18.93589,51.27624],[18.94014,51.27602]]}},{"type":"Feature","properties":{"numer":"42","klasa":"droga gĹ‚Ăłwna","kat":"krajowa"},"geometry":{"type":"LineString","coordinates":[[18.90564,51.12465],[18.90625,51.1248]]}},{"type":"Feature","properties":{"numer":"3503E","klasa":"droga zbiorcza","kat":"powiatowa"},"geometry":{"type":"LineString","coordinates":[[18.90625,51.1248],[18.90644,51.12577],[18.90442,51.14799],[18.90429,51.15056],[18.90517,51.15282],[18.90557,51.15317],[18.90711,51.15408],[18.90859,51.15468],[18.90974,51.15505],[18.91175,51.15549],[18.91182,51.15557]]}},{"type":"Feature","properties":{"numer":"3503E","klasa":"droga zbiorcza","kat":"powiatowa"},"geometry":{"type":"LineString","coordinates":[[18.91182,51.15557],[18.91187,51.15564],[18.9117,51.1558],[18.90308,51.16212],[18.8978,51.16612],[18.89711,51.16651],[18.89479,51.16818],[18.89005,51.17136]]}},{"type":"Feature","properties":{"numer":"3503E","klasa":"droga zbiorcza","kat":"powiatowa"},"geometry":{"type":"LineString","coordinates":[[18.88728,51.17365],[18.88847,51.17245],[18.89005,51.17136]]}},{"type":"Feature","properties":{"numer":"4527E","klasa":"droga zbiorcza","kat":"powiatowa"},"geometry":{"type":"LineString","coordinates":[[18.88728,51.17365],[18.88856,51.17335],[18.89465,51.17332],[18.90405,51.17299]]}},{"type":"Feature","properties":{"numer":"4527E","klasa":"droga zbiorcza","kat":"powiatowa"},"geometry":{"type":"LineString","coordinates":[[18.88703,51.17372],[18.88728,51.17365]]}},{"type":"Feature","properties":{"numer":"3501E,4527E","klasa":"droga zbiorcza","kat":"powiatowa"},"geometry":{"type":"LineString","coordinates":[[18.88742,51.17448],[18.88703,51.17372]]}},{"type":"Feature","properties":{"numer":"3501E","klasa":"droga zbiorcza","kat":"powiatowa"},"geometry":{"type":"LineString","coordinates":[[18.901,51.20324],[18.90017,51.20308],[18.89963,51.20276],[18.89644,51.19892],[18.89475,51.19179],[18.88943,51.17647],[18.88894,51.17571],[18.88742,51.17448]]}},{"type":"Feature","properties":{"numer":"4536E","klasa":"droga zbiorcza","kat":"powiatowa"},"geometry":{"type":"LineString","coordinates":[[18.90138,51.20323],[18.90168,51.2031]]}},{"type":"Feature","properties":{"numer":"3501E","klasa":"droga zbiorcza","kat":"powiatowa"},"geometry":{"type":"LineString","coordinates":[[18.90173,51.2032],[18.90138,51.20323]]}},{"type":"Feature","properties":{"numer":"486","klasa":"droga gĹ‚Ăłwna","kat":"wojewodzka"},"geometry":{"type":"LineString","coordinates":[[18.86454,51.11684],[18.86498,51.11681]]}},{"type":"Feature","properties":{"numer":"3501E","klasa":"droga zbiorcza","kat":"powiatowa"},"geometry":{"type":"LineString","coordinates":[[18.86518,51.1169],[18.86516,51.11679]]}},{"type":"Feature","properties":{"numer":"3501E","klasa":"droga zbiorcza","kat":"powiatowa"},"geometry":{"type":"LineString","coordinates":[[18.86523,51.11709],[18.86518,51.1169]]}},{"type":"Feature","properties":{"numer":"486","klasa":"droga gĹ‚Ăłwna","kat":"wojewodzka"},"geometry":{"type":"LineString","coordinates":[[18.8135,51.15933],[18.82494,51.15351],[18.84006,51.14599],[18.84207,51.14548],[18.85119,51.14365],[18.85174,51.1434],[18.8519,51.14313],[18.85489,51.12379],[18.85525,51.12081],[18.85545,51.12001],[18.85574,51.11969],[18.85684,51.11906],[18.8584,51.11745],[18.85868,51.11727],[18.86454,51.11684]]}},{"type":"Feature","properties":{"numer":"3501E","klasa":"droga zbiorcza","kat":"powiatowa"},"geometry":{"type":"LineString","coordinates":[[18.88703,51.17372],[18.87695,51.15407],[18.87684,51.15366],[18.87661,51.14986],[18.87625,51.14781],[18.87422,51.13986],[18.87218,51.13475],[18.86845,51.12758],[18.86602,51.11954],[18.8655,51.11854],[18.86523,51.11709]]}},{"type":"Feature","properties":{"numer":"4527E","klasa":"droga zbiorcza","kat":"powiatowa"},"geometry":{"type":"LineString","coordinates":[[18.813298942990468,51.18346179346723],[18.82431,51.18567],[18.82629,51.18591],[18.82858,51.1857],[18.83658,51.18409],[18.84776,51.18212],[18.84865,51.1821],[18.85614,51.1825],[18.85711,51.18246],[18.87156,51.17975],[18.87907,51.17818],[18.88317,51.17674],[18.88742,51.17448]]}},{"type":"Feature","properties":{"numer":"4536E","klasa":"droga zbiorcza","kat":"powiatowa"},"geometry":{"type":"LineString","coordinates":[[18.86894,51.21389],[18.86889,51.21394]]}},{"type":"Feature","properties":{"numer":"4536E","klasa":"droga zbiorcza","kat":"powiatowa"},"geometry":{"type":"LineString","coordinates":[[18.86889,51.21394],[18.86813,51.21459],[18.86251,51.21854]]}},{"type":"Feature","properties":{"numer":"3504E","klasa":"droga zbiorcza","kat":"powiatowa"},"geometry":{"type":"LineString","coordinates":[[18.86251,51.21854],[18.87332,51.22458],[18.87581,51.22641],[18.87797,51.22818]]}},{"type":"Feature","properties":{"numer":"4536E","klasa":"droga zbiorcza","kat":"powiatowa"},"geometry":{"type":"LineString","coordinates":[[18.86251,51.21854],[18.85986,51.22043],[18.85943,51.22084],[18.85778,51.226],[18.85733,51.22666],[18.8485,51.2345],[18.84701,51.23553]]}},{"type":"Feature","properties":{"numer":"3508E","klasa":"droga zbiorcza","kat":"powiatowa"},"geometry":{"type":"LineString","coordinates":[[18.86037,51.23573],[18.86186,51.23586],[18.86246,51.23579],[18.87264,51.23115],[18.87797,51.22818]]}},{"type":"Feature","properties":{"numer":"3508E","klasa":"droga zbiorcza","kat":"powiatowa"},"geometry":{"type":"LineString","coordinates":[[18.84701,51.23553],[18.84793,51.23578],[18.84843,51.23582],[18.85538,51.23522],[18.85601,51.23526],[18.85799,51.23561],[18.85917,51.2356],[18.86026,51.23572]]}},{"type":"Feature","properties":{"numer":"4536E","klasa":"droga zbiorcza","kat":"powiatowa"},"geometry":{"type":"LineString","coordinates":[[18.84701,51.23553],[18.84645,51.23591]]}},{"type":"Feature","properties":{"numer":"3508E","klasa":"droga zbiorcza","kat":"powiatowa"},"geometry":{"type":"LineString","coordinates":[[18.86026,51.23572],[18.86037,51.23573]]}},{"type":"Feature","properties":{"numer":"4536E","klasa":"droga zbiorcza","kat":"powiatowa"},"geometry":{"type":"LineString","coordinates":[[18.84645,51.23591],[18.84638,51.23597]]}},{"type":"Feature","properties":{"numer":"4536E","klasa":"droga zbiorcza","kat":"powiatowa"},"geometry":{"type":"LineString","coordinates":[[18.84638,51.23597],[18.84521,51.23684],[18.83854,51.24619],[18.83851,51.24641],[18.83872,51.24662],[18.83951,51.24674],[18.83966,51.24684],[18.83989,51.24852],[18.83949,51.24871],[18.83421,51.24903],[18.83371,51.24914],[18.83332,51.24931]]}},{"type":"Feature","properties":{"numer":"3501E","klasa":"droga zbiorcza","kat":"powiatowa"},"geometry":{"type":"LineString","coordinates":[[18.90138,51.20323],[18.901,51.20324]]}},{"type":"Feature","properties":{"numer":"4536E","klasa":"droga zbiorcza","kat":"powiatowa"},"geometry":{"type":"LineString","coordinates":[[18.90113,51.2034],[18.90138,51.20323]]}},{"type":"Feature","properties":{"numer":"4536E","klasa":"droga zbiorcza","kat":"powiatowa"},"geometry":{"type":"LineString","coordinates":[[18.90113,51.2034],[18.90098,51.20369],[18.90075,51.20386]]}},{"type":"Feature","properties":{"numer":"4536E","klasa":"droga zbiorcza","kat":"powiatowa"},"geometry":{"type":"LineString","coordinates":[[18.90075,51.20386],[18.89961,51.20436],[18.89608,51.20534],[18.89518,51.20565],[18.89481,51.20594],[18.89462,51.20675],[18.89414,51.20719],[18.88782,51.21013],[18.8861,51.21046],[18.88097,51.21083],[18.87752,51.21062],[18.87466,51.21082],[18.8735,51.21116],[18.87042,51.21258],[18.86992,51.21292],[18.86894,51.21389]]}},{"type":"Feature","properties":{"numer":"3504E","klasa":"droga zbiorcza","kat":"powiatowa"},"geometry":{"type":"LineString","coordinates":[[18.87797,51.22818],[18.87872,51.22862],[18.87914,51.22877],[18.89098,51.2315],[18.89214,51.23165],[18.89708,51.2313],[18.90023,51.23088],[18.91139,51.23011],[18.91472,51.22967],[18.91736,51.22948],[18.91778,51.2295],[18.91907,51.22984],[18.91992,51.22987],[18.92674,51.22931],[18.93272,51.23037],[18.93454,51.23095],[18.93628,51.2313],[18.9382,51.23185],[18.94247,51.23262],[18.94501,51.23359],[18.95446,51.23433],[18.95626,51.23439],[18.95665,51.23434]]}},{"type":"Feature","properties":{"numer":"42","klasa":"droga gĹ‚Ăłwna","kat":"krajowa"},"geometry":{"type":"LineString","coordinates":[[18.78028715217154,51.06576681486338],[18.78032,51.06579]]}},{"type":"Feature","properties":{"numer":"4522E","klasa":"","kat":"powiatowa"},"geometry":{"type":"LineString","coordinates":[[18.758002566438872,51.09606361427487],[18.75804,51.09606]]}},{"type":"Feature","properties":{"numer":"4523E","klasa":"droga zbiorcza","kat":"powiatowa"},"geometry":{"type":"LineString","coordinates":[[18.77829,51.15523],[18.78345,51.15518],[18.78411,51.15509],[18.78593,51.15465],[18.78902,51.1547],[18.79446,51.15424],[18.8072,51.1541],[18.81186,51.15349],[18.8122,51.15366],[18.81235,51.154],[18.81333,51.15913],[18.8135,51.15933]]}},{"type":"Feature","properties":{"numer":"486","klasa":"droga gĹ‚Ăłwna","kat":"wojewodzka"},"geometry":{"type":"LineString","coordinates":[[18.793396183948833,51.16965963084526],[18.8135,51.15933]]}},{"type":"Feature","properties":{"numer":"3525E","klasa":"droga zbiorcza","kat":"powiatowa"},"geometry":{"type":"LineString","coordinates":[[18.79375,51.2128],[18.79457,51.21309],[18.79488,51.21332]]}},{"type":"Feature","properties":{"numer":"3525E","klasa":"droga zbiorcza","kat":"powiatowa"},"geometry":{"type":"LineString","coordinates":[[18.79488,51.21332],[18.7976,51.21826],[18.7991,51.22046],[18.79946,51.22082],[18.80068,51.22163],[18.80079,51.22179],[18.80134,51.22392],[18.80251,51.23023],[18.80344,51.23331],[18.83274,51.2479],[18.83324,51.24847],[18.83332,51.24931]]}},{"type":"Feature","properties":{"numer":"4536E","klasa":"droga zbiorcza","kat":"powiatowa"},"geometry":{"type":"LineString","coordinates":[[18.83332,51.24931],[18.83064,51.25124],[18.81554,51.26012]]}},{"type":"Feature","properties":{"numer":"4536E","klasa":"","kat":"powiatowa"},"geometry":{"type":"LineString","coordinates":[[18.815266777546768,51.2602331921592],[18.81554,51.26012]]}},{"type":"Feature","properties":{"numer":"4523E","klasa":"","kat":"powiatowa"},"geometry":{"type":"LineString","coordinates":[[18.776793699455826,51.155382792978145],[18.77682,51.15538]]}},{"type":"Feature","properties":{"numer":"4523E","klasa":"droga zbiorcza","kat":"powiatowa"},"geometry":{"type":"LineString","coordinates":[[18.77682,51.15538],[18.77829,51.15523]]}},{"type":"Feature","properties":{"numer":"3525E","klasa":"","kat":"powiatowa"},"geometry":{"type":"LineString","coordinates":[[18.79375,51.2128],[18.793731167002008,51.212790583501004]]}},{"type":"Feature","properties":{"numer":"2311E","klasa":"droga zbiorcza","kat":"powiatowa"},"geometry":{"type":"LineString","coordinates":[[18.934924164151145,51.28848178736858],[18.93528,51.28778],[18.93995,51.28176],[18.9401,51.28109],[18.94014,51.27602]]}}]}