{"type":"FeatureCollection","features":[{"type":"Feature","properties":{"numer":"1925W","klasa":"droga zbiorcza","kat":"powiatowa"},"geometry":{"type":"LineString","coordinates":[[21.46567,51.05159],[21.47302,51.05079],[21.4757,51.05059],[21.47918,51.05048],[21.48123,51.05032],[21.48191,51.05019],[21.48877,51.04748],[21.49515,51.04435],[21.49536,51.04419],[21.49537,51.04401],[21.49152,51.04094],[21.48757,51.03813],[21.48661,51.037],[21.48597,51.03542],[21.48575,51.03516],[21.47724,51.02774],[21.47553,51.02697],[21.47387,51.02659],[21.47354,51.02664],[21.47034,51.02799],[21.46928,51.02787],[21.46758,51.02736],[21.46705,51.02708],[21.45933,51.02174],[21.45533,51.01915],[21.45424,51.01849],[21.45309,51.01814]]}},{"type":"Feature","properties":{"numer":"1629T","klasa":"droga zbiorcza","kat":"powiatowa"},"geometry":{"type":"LineString","coordinates":[[21.50132,51.03841],[21.501345803652562,51.03831366636376]]}},{"type":"Feature","properties":{"numer":"3536W","klasa":"droga zbiorcza","kat":"powiatowa"},"geometry":{"type":"LineString","coordinates":[[21.46528,51.04957],[21.46567,51.05159]]}},{"type":"Feature","properties":{"numer":"190509W","klasa":"droga lokalna","kat":"powiatowa"},"geometry":{"type":"LineString","coordinates":[[21.51374,51.06036],[21.51469,51.05939],[21.51488,51.05902],[21.51507,51.05762],[21.515426109598526,51.05652199540454]]}},{"type":"Feature","properties":{"numer":"1926W","klasa":"droga zbiorcza","kat":"powiatowa"},"geometry":{"type":"LineString","coordinates":[[21.51374,51.06036],[21.52859,51.05894]]}},{"type":"Feature","properties":{"numer":"1926W","klasa":"droga zbiorcza","kat":"powiatowa"},"geometry":{"type":"LineString","coordinates":[[21.50833,51.0689],[21.50814,51.06782],[21.50819,51.06742],[21.5097,51.06514],[21.51032,51.06372],[21.51073,51.06232],[21.51256,51.06088],[21.51374,51.06036]]}},{"type":"Feature","properties":{"numer":"3536W","klasa":"droga zbiorcza","kat":"powiatowa"},"geometry":{"type":"LineString","coordinates":[[21.46567,51.05159],[21.47172,51.08228],[21.47213,51.0834],[21.47265,51.08403]]}},{"type":"Feature","properties":{"numer":"1926W","klasa":"droga zbiorcza","kat":"powiatowa"},"geometry":{"type":"LineString","coordinates":[[21.50791,51.06921],[21.50829,51.06902],[21.50833,51.0689]]}},{"type":"Feature","properties":{"numer":"1926W","klasa":"droga zbiorcza","kat":"powiatowa"},"geometry":{"type":"LineString","coordinates":[[21.50777,51.06927],[21.50791,51.06921]]}},{"type":"Feature","properties":{"numer":"1926W","klasa":"droga zbiorcza","kat":"powiatowa"},"geometry":{"type":"LineString","coordinates":[[21.47265,51.08403],[21.47539,51.08327],[21.47688,51.08247],[21.48032,51.08167],[21.48442,51.08037],[21.49176,51.07766],[21.49505,51.07635],[21.49835,51.07552],[21.50071,51.07473],[21.503,51.07286],[21.5057,51.07082],[21.50683,51.06974],[21.50777,51.06927]]}},{"type":"Feature","properties":{"numer":"3536W","klasa":"droga zbiorcza","kat":"powiatowa"},"geometry":{"type":"LineString","coordinates":[[21.47265,51.08403],[21.47275,51.08412]]}},{"type":"Feature","properties":{"numer":"3536W","klasa":"droga zbiorcza","kat":"powiatowa"},"geometry":{"type":"LineString","coordinates":[[21.47275,51.08412],[21.47284,51.08421]]}},{"type":"Feature","properties":{"numer":"1924W","klasa":"droga zbiorcza","kat":"powiatowa"},"geometry":{"type":"LineString","coordinates":[[21.46128,51.08422],[21.46129,51.08428]]}},{"type":"Feature","properties":{"numer":"1924W","klasa":"droga zbiorcza","kat":"powiatowa"},"geometry":{"type":"LineString","coordinates":[[21.46129,51.08428],[21.46128,51.08446]]}},{"type":"Feature","properties":{"numer":"3536W","klasa":"droga zbiorcza","kat":"powiatowa"},"geometry":{"type":"LineString","coordinates":[[21.47284,51.08421],[21.4733,51.08484]]}},{"type":"Feature","properties":{"numer":"3536W","klasa":"droga zbiorcza","kat":"powiatowa"},"geometry":{"type":"LineString","coordinates":[[21.4733,51.08484],[21.47339,51.08492]]}},{"type":"Feature","properties":{"numer":"79","klasa":"droga gĹ‚Ăłwna","kat":"krajowa"},"geometry":{"type":"LineString","coordinates":[[21.62906,51.09007],[21.63363,51.08581],[21.64458,51.07666],[21.65095,51.07012],[21.65119161876572,51.06996201849934]]}},{"type":"Feature","properties":{"numer":"79","klasa":"droga gĹ‚Ăłwna","kat":"krajowa"},"geometry":{"type":"LineString","coordinates":[[21.62906,51.09007],[21.62903,51.09029]]}},{"type":"Feature","properties":{"numer":"79","klasa":"droga gĹ‚Ăłwna","kat":"krajowa"},"geometry":{"type":"LineString","coordinates":[[21.62903,51.09029],[21.63303,51.09539],[21.63346,51.09616]]}},{"type":"Feature","properties":{"numer":"1932W","klasa":"droga zbiorcza","kat":"powiatowa"},"geometry":{"type":"LineString","coordinates":[[21.63346,51.09616],[21.63636,51.09707],[21.63896,51.09737],[21.64114,51.09726],[21.64333,51.09731],[21.64643,51.09623]]}},{"type":"Feature","properties":{"numer":"79","klasa":"droga gĹ‚Ăłwna","kat":"krajowa"},"geometry":{"type":"LineString","coordinates":[[21.63346,51.09616],[21.6324,51.11829],[21.6326,51.11886],[21.63291,51.11934],[21.63459,51.12101],[21.6351,51.12165],[21.64438,51.1372],[21.64461,51.13789],[21.64482,51.13999],[21.64459,51.14262]]}},{"type":"Feature","properties":{"numer":"190318W","klasa":"droga lokalna","kat":"powiatowa"},"geometry":{"type":"LineString","coordinates":[[21.59664,51.12072],[21.5977,51.12055],[21.60242,51.12064]]}},{"type":"Feature","properties":{"numer":"1631T","klasa":"droga zbiorcza","kat":"powiatowa"},"geometry":{"type":"LineString","coordinates":[[21.52859,51.05894],[21.528600482335527,51.05893580706579]]}},{"type":"Feature","properties":{"numer":"1927W","klasa":"droga zbiorcza","kat":"powiatowa"},"geometry":{"type":"LineString","coordinates":[[21.48187,51.08713],[21.48121,51.08579],[21.48573,51.08428],[21.4902,51.08219],[21.49314,51.08139],[21.49665,51.0802],[21.50249,51.07895],[21.50324,51.07895],[21.50993,51.07966],[21.52513,51.08061],[21.5357,51.08026],[21.53789,51.07998],[21.54023,51.0794],[21.54419,51.07827],[21.5508,51.07681],[21.55293,51.07653],[21.55374,51.0765],[21.55407,51.07655],[21.55527,51.07698],[21.55638,51.07753],[21.56007,51.07813],[21.56254,51.07838],[21.56358,51.07829],[21.56603,51.07831],[21.59883,51.07683],[21.60349,51.07762],[21.60664,51.07904],[21.61023,51.07985],[21.62906,51.09007]]}},{"type":"Feature","properties":{"numer":"1922W","klasa":"droga zbiorcza","kat":"powiatowa"},"geometry":{"type":"LineString","coordinates":[[21.52176,51.09112],[21.52301,51.09133],[21.5277,51.09186],[21.53863,51.0924],[21.55302,51.09517],[21.56175,51.09739],[21.5646,51.09833],[21.56596,51.09857],[21.56799,51.09906],[21.57338,51.09968],[21.58739,51.10213],[21.58899,51.10197],[21.59131,51.10205],[21.59508,51.10119],[21.60073,51.09906],[21.60254,51.09802],[21.60404,51.09735],[21.60481,51.09716],[21.6073,51.09681],[21.60972,51.09666],[21.61467,51.09665],[21.61759,51.09686],[21.61901,51.09704],[21.61944,51.09703],[21.62022,51.09654],[21.62875,51.09039],[21.62903,51.09029]]}},{"type":"Feature","properties":{"numer":"1920W","klasa":"droga zbiorcza","kat":"powiatowa"},"geometry":{"type":"LineString","coordinates":[[21.53969,51.12175],[21.52128,51.10449],[21.52088,51.09721],[21.52152,51.09332],[21.52148,51.09276],[21.52176,51.09112]]}},{"type":"Feature","properties":{"numer":"1920W","klasa":"droga zbiorcza","kat":"powiatowa"},"geometry":{"type":"LineString","coordinates":[[21.5685,51.13202],[21.56815,51.12719],[21.56804,51.12706],[21.56084,51.12719],[21.56029,51.12703],[21.55856,51.12627],[21.55774,51.1261],[21.54918,51.12709],[21.54521,51.12654],[21.54473,51.12641],[21.5443,51.12612],[21.53969,51.12175]]}},{"type":"Feature","properties":{"numer":"1921W","klasa":"droga zbiorcza","kat":"powiatowa"},"geometry":{"type":"LineString","coordinates":[[21.5685,51.13202],[21.56977,51.13194],[21.58171,51.13171],[21.58251,51.13035],[21.58448,51.1282],[21.5848,51.12765]]}},{"type":"Feature","properties":{"numer":"1920W","klasa":"droga zbiorcza","kat":"powiatowa"},"geometry":{"type":"LineString","coordinates":[[21.56042,51.15244],[21.56056,51.15219],[21.5625,51.15224],[21.56647,51.15202],[21.5685,51.15159],[21.56958,51.15129],[21.56983,51.15115],[21.5685,51.13202]]}},{"type":"Feature","properties":{"numer":"1920W","klasa":"droga zbiorcza","kat":"powiatowa"},"geometry":{"type":"LineString","coordinates":[[21.56034,51.15267],[21.56042,51.15244]]}},{"type":"Feature","properties":{"numer":"1920W","klasa":"droga zbiorcza","kat":"powiatowa"},"geometry":{"type":"LineString","coordinates":[[21.55991,51.15392],[21.56034,51.15267]]}},{"type":"Feature","properties":{"numer":"1934W","klasa":"droga zbiorcza","kat":"powiatowa"},"geometry":{"type":"LineString","coordinates":[[21.772446015976644,51.04885256477839],[21.76852,51.05138],[21.76441,51.0538],[21.76302,51.05502],[21.76195,51.05549],[21.76011,51.05576],[21.75968,51.05589]]}},{"type":"Feature","properties":{"numer":"1934W","klasa":"droga zbiorcza","kat":"powiatowa"},"geometry":{"type":"LineString","coordinates":[[21.75968,51.05589],[21.75849,51.05637]]}},{"type":"Feature","properties":{"numer":"1934W","klasa":"droga zbiorcza","kat":"powiatowa"},"geometry":{"type":"LineString","coordinates":[[21.75849,51.05637],[21.75783,51.05662],[21.7571,51.05678],[21.75607,51.05835],[21.74868,51.06488],[21.74644,51.06764]]}},{"type":"Feature","properties":{"numer":"754","klasa":"droga gĹ‚Ăłwna","kat":"wojewodzka"},"geometry":{"type":"LineString","coordinates":[[21.74657,51.07123],[21.74644,51.06764]]}},{"type":"Feature","properties":{"numer":"754","klasa":"droga gĹ‚Ăłwna","kat":"wojewodzka"},"geometry":{"type":"LineString","coordinates":[[21.74657,51.07128],[21.74657,51.07123]]}},{"type":"Feature","properties":{"numer":"754","klasa":"droga gĹ‚Ăłwna","kat":"wojewodzka"},"geometry":{"type":"LineString","coordinates":[[21.74644,51.06764],[21.74494,51.06359],[21.74348,51.06018],[21.74017,51.05479],[21.73955,51.05417],[21.73875,51.05368],[21.73757,51.05331],[21.73326,51.05245],[21.73097,51.05219],[21.7281,51.05166],[21.72595,51.05105],[21.72273,51.05038],[21.72114,51.04988],[21.71866,51.04972],[21.71611,51.04904],[21.71474,51.0484],[21.70983,51.04446],[21.70868,51.04377],[21.70765,51.04342],[21.70547,51.04291],[21.70519833963103,51.042812978439656]]}},{"type":"Feature","properties":{"numer":"1585T","klasa":"","kat":"powiatowa"},"geometry":{"type":"LineString","coordinates":[[21.776514662278096,51.04714715711334],[21.77786,51.04646],[21.77964,51.04578],[21.78025081361543,51.045637280419975]]}},{"type":"Feature","properties":{"numer":"","klasa":"droga wewnÄ™trzna","kat":"gminna"},"geometry":{"type":"LineString","coordinates":[[21.686301148825066,51.070014569190604],[21.68626,51.07003]]}},{"type":"Feature","properties":{"numer":"1932W","klasa":"droga zbiorcza","kat":"powiatowa"},"geometry":{"type":"LineString","coordinates":[[21.6867417003375,51.06989631221182],[21.69254,51.06861],[21.70657,51.07169]]}},{"type":"Feature","properties":{"numer":"1932W","klasa":"droga zbiorcza","kat":"powiatowa"},"geometry":{"type":"LineString","coordinates":[[21.70657,51.07169],[21.70842,51.07207],[21.71408,51.07266],[21.73497,51.07133],[21.73794,51.07139],[21.7426,51.07178],[21.74402,51.07165],[21.74657,51.07128]]}},{"type":"Feature","properties":{"numer":"1932W","klasa":"droga zbiorcza","kat":"powiatowa"},"geometry":{"type":"LineString","coordinates":[[21.67832,51.07864],[21.67911,51.07675],[21.68023,51.07555],[21.68326,51.07305],[21.684,51.07199],[21.68507,51.07097],[21.68626,51.07003]]}},{"type":"Feature","properties":{"numer":"1930W","klasa":"droga zbiorcza","kat":"powiatowa"},"geometry":{"type":"LineString","coordinates":[[21.70657,51.07169],[21.70631,51.0745],[21.70581,51.07599],[21.70641,51.07688],[21.70705,51.0776],[21.70712,51.0778],[21.70782,51.09428],[21.70827,51.0968]]}},{"type":"Feature","properties":{"numer":"1932W","klasa":"droga zbiorcza","kat":"powiatowa"},"geometry":{"type":"LineString","coordinates":[[21.64643,51.09623],[21.64748,51.09546],[21.64805,51.09517],[21.65053,51.09467],[21.65166,51.09427],[21.6543,51.0931],[21.65696,51.0923],[21.65766,51.09217],[21.65865,51.09159],[21.66045,51.0908],[21.66313,51.09008],[21.66462,51.08988],[21.66532,51.08971],[21.66619,51.0893],[21.66736,51.08891],[21.6701,51.08768],[21.67227,51.08699],[21.67384,51.08663],[21.67395,51.0855],[21.67346,51.08467],[21.67352,51.08422],[21.67377,51.08365],[21.67423,51.08314],[21.67582,51.0818],[21.67626,51.08081],[21.67713,51.08001],[21.6778,51.07953],[21.6782,51.07903],[21.67832,51.07864]]}},{"type":"Feature","properties":{"numer":"1931W","klasa":"droga zbiorcza","kat":"powiatowa"},"geometry":{"type":"LineString","coordinates":[[21.70827,51.0968],[21.74386,51.08803],[21.7471,51.08781]]}},{"type":"Feature","properties":{"numer":"1930W","klasa":"droga zbiorcza","kat":"powiatowa"},"geometry":{"type":"LineString","coordinates":[[21.70827,51.0968],[21.7083,51.09814],[21.70919,51.10364],[21.71171,51.11093]]}},{"type":"Feature","properties":{"numer":"1928W","klasa":"droga zbiorcza","kat":"powiatowa"},"geometry":{"type":"LineString","coordinates":[[21.68201,51.11379],[21.67626,51.09514],[21.67556,51.09523],[21.67415,51.09515],[21.67299,51.09518],[21.67006,51.09503],[21.66845,51.09484],[21.66691,51.09493],[21.66531,51.09469],[21.66332,51.09504],[21.66069,51.09523],[21.65896,51.09571],[21.65801,51.0963],[21.65758,51.0964],[21.65593,51.09642],[21.65003,51.09615],[21.64643,51.09623]]}},{"type":"Feature","properties":{"numer":"754","klasa":"droga gĹ‚Ăłwna","kat":"wojewodzka"},"geometry":{"type":"LineString","coordinates":[[21.7471,51.08781],[21.74706,51.08677],[21.74756,51.07969],[21.74657,51.07128]]}},{"type":"Feature","properties":{"numer":"1933W","klasa":"droga zbiorcza","kat":"powiatowa"},"geometry":{"type":"LineString","coordinates":[[21.74657,51.07123],[21.75036,51.06992],[21.75345,51.06948],[21.7553,51.06952],[21.75701,51.06995],[21.75767,51.07023],[21.75788,51.07039],[21.75794,51.07058],[21.75782,51.07147],[21.75636,51.07342],[21.75701,51.07481],[21.75976,51.07616],[21.7601,51.0764],[21.76917,51.08416],[21.77174,51.08694],[21.77195,51.08697],[21.7722,51.08689],[21.774,51.08581],[21.77411,51.08581],[21.77701,51.08782],[21.77717,51.08806],[21.77744,51.08933],[21.77783,51.09024],[21.77768,51.09043],[21.77504,51.09249],[21.76895,51.09417],[21.76898,51.09435],[21.77099,51.09616],[21.7737,51.09883],[21.77357,51.09898],[21.76923,51.10114],[21.76153,51.10302],[21.76125,51.10295],[21.75728,51.10122],[21.75668,51.1011],[21.75338,51.10057],[21.75019,51.10107]]}},{"type":"Feature","properties":{"numer":"754","klasa":"droga gĹ‚Ăłwna","kat":"wojewodzka"},"geometry":{"type":"LineString","coordinates":[[21.75019,51.10107],[21.74966,51.0991],[21.74826,51.09658],[21.74808,51.09605],[21.74781,51.09337],[21.74722,51.08986],[21.7471,51.08781]]}},{"type":"Feature","properties":{"numer":"754","klasa":"droga gĹ‚Ăłwna","kat":"wojewodzka"},"geometry":{"type":"LineString","coordinates":[[21.76068,51.12543],[21.75945,51.12285],[21.75892,51.12098],[21.75749,51.11742],[21.75664,51.11597],[21.75597,51.11368],[21.75478,51.11045],[21.75352,51.10805],[21.75309,51.10609],[21.75265,51.10532],[21.75122,51.10341],[21.75074,51.10194],[21.75019,51.10107]]}},{"type":"Feature","properties":{"numer":"747","klasa":"droga gĹ‚Ăłwna ruchu przyĹ›pieszonego","kat":"wojewodzka"},"geometry":{"type":"LineString","coordinates":[[21.77723,51.12516],[21.78114,51.12498],[21.78456,51.12501]]}},{"type":"Feature","properties":{"numer":"747","klasa":"droga gĹ‚Ăłwna ruchu przyĹ›pieszonego","kat":"wojewodzka"},"geometry":{"type":"LineString","coordinates":[[21.77713,51.12517],[21.77723,51.12516]]}},{"type":"Feature","properties":{"numer":"747","klasa":"droga gĹ‚Ăłwna ruchu przyĹ›pieszonego","kat":"wojewodzka"},"geometry":{"type":"LineString","coordinates":[[21.76209,51.12597],[21.77713,51.12517]]}},{"type":"Feature","properties":{"numer":"754","klasa":"droga gĹ‚Ăłwna","kat":"wojewodzka"},"geometry":{"type":"LineString","coordinates":[[21.7609,51.12587],[21.76068,51.12543]]}},{"type":"Feature","properties":{"numer":"754","klasa":"droga zbiorcza","kat":"wojewodzka"},"geometry":{"type":"LineString","coordinates":[[21.76098,51.12603],[21.7609,51.12587]]}},{"type":"Feature","properties":{"numer":"747","klasa":"droga gĹ‚Ăłwna ruchu przyĹ›pieszonego","kat":"wojewodzka"},"geometry":{"type":"LineString","coordinates":[[21.76124,51.12603],[21.76209,51.12597]]}},{"type":"Feature","properties":{"numer":"1929W","klasa":"droga zbiorcza","kat":"powiatowa"},"geometry":{"type":"LineString","coordinates":[[21.6821,51.11402],[21.6853,51.11397],[21.68743,51.11368],[21.68825,51.11349],[21.69353,51.11283],[21.69842,51.11285],[21.71171,51.11093]]}},{"type":"Feature","properties":{"numer":"1929W","klasa":"droga zbiorcza","kat":"powiatowa"},"geometry":{"type":"LineString","coordinates":[[21.68201,51.11379],[21.6821,51.11402]]}},{"type":"Feature","properties":{"numer":"1928W","klasa":"droga zbiorcza","kat":"powiatowa"},"geometry":{"type":"LineString","coordinates":[[21.68159,51.11404],[21.68201,51.11379]]}},{"type":"Feature","properties":{"numer":"1929W","klasa":"droga zbiorcza","kat":"powiatowa"},"geometry":{"type":"LineString","coordinates":[[21.68159,51.11404],[21.6821,51.11402]]}},{"type":"Feature","properties":{"numer":"1930W","klasa":"droga zbiorcza","kat":"powiatowa"},"geometry":{"type":"LineString","coordinates":[[21.71171,51.11093],[21.71879,51.12164],[21.71985,51.12211],[21.72442,51.12381],[21.72665,51.12424],[21.72735,51.12446],[21.72894,51.12528],[21.72962,51.12616],[21.72997,51.12642],[21.73218,51.1273],[21.73306,51.12758],[21.73539,51.12815],[21.73769,51.12837],[21.73807,51.12867]]}},{"type":"Feature","properties":{"numer":"1928W","klasa":"droga zbiorcza","kat":"powiatowa"},"geometry":{"type":"LineString","coordinates":[[21.69258,51.13312],[21.69205,51.13289],[21.69001,51.13296],[21.68951,51.13281],[21.68925,51.13261],[21.68769,51.12878],[21.67873,51.11738],[21.67802,51.11561],[21.67811,51.11535],[21.67836,51.11518],[21.68159,51.11404]]}},{"type":"Feature","properties":{"numer":"747","klasa":"droga gĹ‚Ăłwna ruchu przyĹ›pieszonego","kat":"wojewodzka"},"geometry":{"type":"LineString","coordinates":[[21.69625,51.13233],[21.69932,51.13171],[21.70296,51.13127],[21.73395,51.1292]]}},{"type":"Feature","properties":{"numer":"747","klasa":"droga gĹ‚Ăłwna ruchu przyĹ›pieszonego","kat":"wojewodzka"},"geometry":{"type":"LineString","coordinates":[[21.69278,51.1333],[21.69625,51.13233]]}},{"type":"Feature","properties":{"numer":"1928W","klasa":"droga zbiorcza","kat":"powiatowa"},"geometry":{"type":"LineString","coordinates":[[21.69278,51.1333],[21.69258,51.13312]]}},{"type":"Feature","properties":{"numer":"1928W","klasa":"droga zbiorcza","kat":"powiatowa"},"geometry":{"type":"LineString","coordinates":[[21.69307,51.13355],[21.69278,51.1333]]}},{"type":"Feature","properties":{"numer":"747","klasa":"droga gĹ‚Ăłwna ruchu przyĹ›pieszonego","kat":"wojewodzka"},"geometry":{"type":"LineString","coordinates":[[21.78456,51.12501],[21.78765,51.12507]]}},{"type":"Feature","properties":{"numer":"747","klasa":"droga gĹ‚Ăłwna ruchu przyĹ›pieszonego","kat":"wojewodzka"},"geometry":{"type":"LineString","coordinates":[[21.78765,51.12507],[21.78782,51.12507]]}},{"type":"Feature","properties":{"numer":"747","klasa":"droga gĹ‚Ăłwna ruchu przyĹ›pieszonego","kat":"wojewodzka"},"geometry":{"type":"LineString","coordinates":[[21.78782,51.12507],[21.79191,51.12517]]}},{"type":"Feature","properties":{"numer":"747","klasa":"droga gĹ‚Ăłwna ruchu przyĹ›pieszonego","kat":"wojewodzka"},"geometry":{"type":"LineString","coordinates":[[21.79191,51.12517],[21.79238083666464,51.12518155972925]]}},{"type":"Feature","properties":{"numer":"747","klasa":"droga gĹ‚Ăłwna","kat":"wojewodzka"},"geometry":{"type":"LineString","coordinates":[[21.76098,51.12603],[21.76124,51.12603]]}},{"type":"Feature","properties":{"numer":"747","klasa":"droga gĹ‚Ăłwna ruchu przyĹ›pieszonego","kat":"wojewodzka"},"geometry":{"type":"LineString","coordinates":[[21.76072,51.12605],[21.76098,51.12603]]}},{"type":"Feature","properties":{"numer":"747","klasa":"droga gĹ‚Ăłwna ruchu przyĹ›pieszonego","kat":"wojewodzka"},"geometry":{"type":"LineString","coordinates":[[21.75975,51.12614],[21.76072,51.12605]]}},{"type":"Feature","properties":{"numer":"754","klasa":"droga zbiorcza","kat":"wojewodzka"},"geometry":{"type":"LineString","coordinates":[[21.76098,51.12619],[21.76098,51.12603]]}},{"type":"Feature","properties":{"numer":"754","klasa":"droga zbiorcza","kat":"wojewodzka"},"geometry":{"type":"LineString","coordinates":[[21.7609,51.12647],[21.76098,51.12619]]}},{"type":"Feature","properties":{"numer":"754","klasa":"droga zbiorcza","kat":"wojewodzka"},"geometry":{"type":"LineString","coordinates":[[21.7563,51.12778],[21.7578,51.12696],[21.75847,51.1267],[21.75928,51.1266],[21.76049,51.1267],[21.76072,51.12663],[21.7609,51.12647]]}},{"type":"Feature","properties":{"numer":"747","klasa":"droga gĹ‚Ăłwna ruchu przyĹ›pieszonego","kat":"wojewodzka"},"geometry":{"type":"LineString","coordinates":[[21.74203,51.12867],[21.74669,51.12834],[21.74934,51.12803],[21.75182,51.12759],[21.75613,51.12665],[21.75975,51.12614]]}},{"type":"Feature","properties":{"numer":"754","klasa":"droga zbiorcza","kat":"wojewodzka"},"geometry":{"type":"LineString","coordinates":[[21.75609,51.12789],[21.7563,51.12778]]}},{"type":"Feature","properties":{"numer":"754","klasa":"droga zbiorcza","kat":"wojewodzka"},"geometry":{"type":"LineString","coordinates":[[21.75408,51.12967],[21.75494,51.12867],[21.75609,51.12789]]}},{"type":"Feature","properties":{"numer":"747","klasa":"droga gĹ‚Ăłwna ruchu przyĹ›pieszonego","kat":"wojewodzka"},"geometry":{"type":"LineString","coordinates":[[21.73816,51.12892],[21.74203,51.12867]]}},{"type":"Feature","properties":{"numer":"1930W","klasa":"droga zbiorcza","kat":"powiatowa"},"geometry":{"type":"LineString","coordinates":[[21.73816,51.12892],[21.73807,51.12867]]}},{"type":"Feature","properties":{"numer":"1930W","klasa":"droga zbiorcza","kat":"powiatowa"},"geometry":{"type":"LineString","coordinates":[[21.73825,51.12916],[21.73816,51.12892]]}},{"type":"Feature","properties":{"numer":"747","klasa":"droga gĹ‚Ăłwna ruchu przyĹ›pieszonego","kat":"wojewodzka"},"geometry":{"type":"LineString","coordinates":[[21.73395,51.1292],[21.73816,51.12892]]}},{"type":"Feature","properties":{"numer":"754","klasa":"droga zbiorcza","kat":"wojewodzka"},"geometry":{"type":"LineString","coordinates":[[21.75398,51.12984],[21.75408,51.12967]]}},{"type":"Feature","properties":{"numer":"1930W","klasa":"droga zbiorcza","kat":"powiatowa"},"geometry":{"type":"LineString","coordinates":[[21.75297,51.1316],[21.75068,51.13113],[21.7479,51.13103],[21.74342,51.13115],[21.74261,51.13109],[21.74082,51.13058],[21.73864,51.12949],[21.73825,51.12916]]}},{"type":"Feature","properties":{"numer":"754","klasa":"droga zbiorcza","kat":"wojewodzka"},"geometry":{"type":"LineString","coordinates":[[21.75297,51.1316],[21.75398,51.12984]]}},{"type":"Feature","properties":{"numer":"754","klasa":"droga zbiorcza","kat":"wojewodzka"},"geometry":{"type":"LineString","coordinates":[[21.75352,51.13163],[21.75297,51.1316]]}},{"type":"Feature","properties":{"numer":"754","klasa":"droga zbiorcza","kat":"wojewodzka"},"geometry":{"type":"LineString","coordinates":[[21.7536,51.13163],[21.75352,51.13163]]}},{"type":"Feature","properties":{"numer":"754","klasa":"droga zbiorcza","kat":"wojewodzka"},"geometry":{"type":"LineString","coordinates":[[21.75387,51.13165],[21.7536,51.13163]]}},{"type":"Feature","properties":{"numer":"754","klasa":"droga zbiorcza","kat":"wojewodzka"},"geometry":{"type":"LineString","coordinates":[[21.76402,51.15715],[21.76477,51.15517],[21.76476,51.15447],[21.76418,51.1521],[21.76274,51.14948],[21.76176,51.14382],[21.76207,51.14221],[21.76231,51.14153],[21.76265,51.14098],[21.76485,51.13828],[21.76511,51.13781],[21.76517,51.13753],[21.76493,51.13686],[21.76433,51.13605],[21.76364,51.13559],[21.76267,51.13563],[21.75935,51.13551],[21.7582,51.13522],[21.75735,51.13457],[21.75627,51.13283],[21.75557,51.13198],[21.75504,51.13174],[21.75387,51.13165]]}},{"type":"Feature","properties":{"numer":"747","klasa":"droga gĹ‚Ăłwna ruchu przyĹ›pieszonego","kat":"wojewodzka"},"geometry":{"type":"LineString","coordinates":[[21.64462,51.14382],[21.64517,51.14385]]}},{"type":"Feature","properties":{"numer":"747","klasa":"droga gĹ‚Ăłwna ruchu przyĹ›pieszonego","kat":"wojewodzka"},"geometry":{"type":"LineString","coordinates":[[21.64425,51.14398],[21.64406,51.14374]]}},{"type":"Feature","properties":{"numer":"747,79","klasa":"droga gĹ‚Ăłwna","kat":"gminna"},"geometry":{"type":"LineString","coordinates":[[21.64462,51.14382],[21.64463,51.14402]]}},{"type":"Feature","properties":{"numer":"79","klasa":"droga gĹ‚Ăłwna","kat":"krajowa"},"geometry":{"type":"LineString","coordinates":[[21.64354,51.14431],[21.64406,51.14374]]}},{"type":"Feature","properties":{"numer":"747,79","klasa":"droga gĹ‚Ăłwna","kat":"gminna"},"geometry":{"type":"LineString","coordinates":[[21.64463,51.14402],[21.64464,51.14451]]}},{"type":"Feature","properties":{"numer":"","klasa":"droga wewnÄ™trzna","kat":"gminna"},"geometry":{"type":"LineString","coordinates":[[21.64457,51.14437],[21.64464,51.14451]]}},{"type":"Feature","properties":{"numer":"747,79","klasa":"droga gĹ‚Ăłwna","kat":"gminna"},"geometry":{"type":"LineString","coordinates":[[21.64464,51.14451],[21.64439,51.14721]]}},{"type":"Feature","properties":{"numer":"79","klasa":"droga gĹ‚Ăłwna","kat":"krajowa"},"geometry":{"type":"LineString","coordinates":[[21.63572,51.15567],[21.63813,51.1511],[21.63887,51.14987],[21.64001,51.14842],[21.64198,51.14641],[21.64354,51.14431]]}},{"type":"Feature","properties":{"numer":"747,79","klasa":"droga gĹ‚Ăłwna","kat":"gminna"},"geometry":{"type":"LineString","coordinates":[[21.64439,51.14721],[21.64507,51.15115],[21.64435,51.1528],[21.64432,51.15326],[21.64512,51.15476],[21.64579,51.15536]]}},{"type":"Feature","properties":{"numer":"79","klasa":"droga gĹ‚Ăłwna","kat":"krajowa"},"geometry":{"type":"LineString","coordinates":[[21.65264,51.15415],[21.65309,51.15418]]}},{"type":"Feature","properties":{"numer":"79","klasa":"droga gĹ‚Ăłwna","kat":"krajowa"},"geometry":{"type":"LineString","coordinates":[[21.6462,51.15565],[21.64625,51.15571]]}},{"type":"Feature","properties":{"numer":"79","klasa":"droga gĹ‚Ăłwna","kat":"krajowa"},"geometry":{"type":"LineString","coordinates":[[21.64625,51.15571],[21.64635,51.15568]]}},{"type":"Feature","properties":{"numer":"747","klasa":"droga gĹ‚Ăłwna","kat":"wojewodzka"},"geometry":{"type":"LineString","coordinates":[[21.64614,51.15573],[21.64625,51.15571]]}},{"type":"Feature","properties":{"numer":"747","klasa":"droga gĹ‚Ăłwna","kat":"wojewodzka"},"geometry":{"type":"LineString","coordinates":[[21.64567,51.15583],[21.64614,51.15573]]}},{"type":"Feature","properties":{"numer":"79","klasa":"droga gĹ‚Ăłwna","kat":"krajowa"},"geometry":{"type":"LineString","coordinates":[[21.65327,51.15518],[21.6532,51.15646]]}},{"type":"Feature","properties":{"numer":"79","klasa":"droga gĹ‚Ăłwna","kat":"krajowa"},"geometry":{"type":"LineString","coordinates":[[21.63572,51.15567],[21.63558,51.156]]}},{"type":"Feature","properties":{"numer":"79","klasa":"droga gĹ‚Ăłwna","kat":"krajowa"},"geometry":{"type":"LineString","coordinates":[[21.63558,51.156],[21.63549,51.1562]]}},{"type":"Feature","properties":{"numer":"747","klasa":"droga gĹ‚Ăłwna","kat":"wojewodzka"},"geometry":{"type":"LineString","coordinates":[[21.63871,51.15686],[21.64357,51.15629],[21.64567,51.15583]]}},{"type":"Feature","properties":{"numer":"747","klasa":"droga gĹ‚Ăłwna","kat":"wojewodzka"},"geometry":{"type":"LineString","coordinates":[[21.63836,51.1569],[21.63871,51.15686]]}},{"type":"Feature","properties":{"numer":"747","klasa":"droga gĹ‚Ăłwna","kat":"wojewodzka"},"geometry":{"type":"LineString","coordinates":[[21.63299,51.15726],[21.63362,51.15735],[21.63423,51.15736],[21.63836,51.1569]]}},{"type":"Feature","properties":{"numer":"747","klasa":"droga gĹ‚Ăłwna ruchu przyĹ›pieszonego","kat":"wojewodzka"},"geometry":{"type":"LineString","coordinates":[[21.68921,51.1343],[21.69278,51.1333]]}},{"type":"Feature","properties":{"numer":"747","klasa":"droga gĹ‚Ăłwna ruchu przyĹ›pieszonego","kat":"wojewodzka"},"geometry":{"type":"LineString","coordinates":[[21.68187,51.13639],[21.68921,51.1343]]}},{"type":"Feature","properties":{"numer":"1938W","klasa":"droga zbiorcza","kat":"powiatowa"},"geometry":{"type":"LineString","coordinates":[[21.75297,51.1316],[21.75256,51.13225],[21.75216,51.13257],[21.7507,51.1332],[21.75,51.13337],[21.74813,51.13355],[21.74587,51.13357],[21.74396,51.13335],[21.74112,51.1332],[21.73905,51.13338],[21.73414,51.13406],[21.73029,51.13526],[21.7253,51.13605],[21.72272,51.13676],[21.72174,51.13722],[21.71816,51.13929],[21.71767,51.13951],[21.71712,51.13964],[21.71643,51.13964],[21.71573,51.13944],[21.714,51.13803],[21.71355,51.13779],[21.71276,51.13763],[21.71198,51.13768],[21.70915,51.13854],[21.70616,51.13989],[21.70399,51.14062],[21.70313,51.14109]]}},{"type":"Feature","properties":{"numer":"747","klasa":"droga gĹ‚Ăłwna ruchu przyĹ›pieszonego","kat":"wojewodzka"},"geometry":{"type":"LineString","coordinates":[[21.68005,51.13691],[21.68187,51.13639]]}},{"type":"Feature","properties":{"numer":"1928W","klasa":"droga zbiorcza","kat":"powiatowa"},"geometry":{"type":"LineString","coordinates":[[21.70313,51.14109],[21.70199,51.14029],[21.69821,51.13531],[21.69786,51.13513],[21.69307,51.13355]]}},{"type":"Feature","properties":{"numer":"747","klasa":"droga gĹ‚Ăłwna ruchu przyĹ›pieszonego","kat":"wojewodzka"},"geometry":{"type":"LineString","coordinates":[[21.64517,51.14385],[21.65094,51.14421],[21.65327,51.1441],[21.6556,51.14375],[21.65824,51.14309],[21.68005,51.13691]]}},{"type":"Feature","properties":{"numer":"1938W","klasa":"droga zbiorcza","kat":"powiatowa"},"geometry":{"type":"LineString","coordinates":[[21.70313,51.14109],[21.7009,51.14238],[21.70025,51.1429],[21.6991,51.14424],[21.69768,51.14669],[21.69589,51.14802],[21.6953,51.14834],[21.69369,51.14895],[21.68694,51.15197],[21.68583,51.15238],[21.68138,51.15331],[21.67835,51.15349],[21.67605,51.1533],[21.67481,51.15274],[21.67435,51.15264],[21.66734,51.15256],[21.66298,51.15324],[21.6589,51.15407],[21.65337,51.15416]]}},{"type":"Feature","properties":{"numer":"1916W","klasa":"droga zbiorcza","kat":"powiatowa"},"geometry":{"type":"LineString","coordinates":[[21.65182,51.16437],[21.65204,51.16445],[21.66099,51.17483],[21.6618,51.17536],[21.66702,51.17692],[21.66909,51.17781],[21.66985,51.17805],[21.67639,51.17962],[21.68021,51.18024],[21.70124,51.18747],[21.70507,51.18883],[21.70538,51.18905]]}},{"type":"Feature","properties":{"numer":"754","klasa":"droga zbiorcza","kat":"wojewodzka"},"geometry":{"type":"LineString","coordinates":[[21.70272,51.19224],[21.70529,51.18931],[21.70538,51.18905]]}},{"type":"Feature","properties":{"numer":"754","klasa":"droga zbiorcza","kat":"wojewodzka"},"geometry":{"type":"LineString","coordinates":[[21.63096,51.18917],[21.63168,51.1893],[21.63447,51.18941],[21.6355,51.19014],[21.63637,51.19038],[21.63807,51.1907],[21.63889,51.19102],[21.64146,51.19248],[21.64401,51.19406],[21.64448,51.19417],[21.64804,51.19429],[21.6484,51.19446],[21.65032,51.19592],[21.65084,51.19621],[21.65139,51.19638],[21.662,51.19537],[21.68901,51.19474],[21.69951,51.19591],[21.70272,51.19224]]}},{"type":"Feature","properties":{"numer":"79","klasa":"droga gĹ‚Ăłwna","kat":"krajowa"},"geometry":{"type":"LineString","coordinates":[[21.65171,51.15791],[21.6512,51.15696],[21.65187,51.15666],[21.6532,51.15646]]}},{"type":"Feature","properties":{"numer":"79","klasa":"droga gĹ‚Ăłwna","kat":"krajowa"},"geometry":{"type":"LineString","coordinates":[[21.6532,51.15646],[21.65343,51.15764],[21.65171,51.15791]]}},{"type":"Feature","properties":{"numer":"747","klasa":"droga gĹ‚Ăłwna","kat":"wojewodzka"},"geometry":{"type":"LineString","coordinates":[[21.63291,51.15724],[21.63299,51.15726]]}},{"type":"Feature","properties":{"numer":"79","klasa":"droga gĹ‚Ăłwna","kat":"krajowa"},"geometry":{"type":"LineString","coordinates":[[21.63512,51.15744],[21.63516,51.15728]]}},{"type":"Feature","properties":{"numer":"79","klasa":"droga gĹ‚Ăłwna","kat":"krajowa"},"geometry":{"type":"LineString","coordinates":[[21.63491,51.15889],[21.63512,51.15744]]}},{"type":"Feature","properties":{"numer":"79","klasa":"droga gĹ‚Ăłwna","kat":"krajowa"},"geometry":{"type":"LineString","coordinates":[[21.65171,51.15791],[21.64938,51.15837],[21.64909,51.15861],[21.6491,51.15896]]}},{"type":"Feature","properties":{"numer":"79","klasa":"droga gĹ‚Ăłwna","kat":"krajowa"},"geometry":{"type":"LineString","coordinates":[[21.63538,51.16196],[21.63499,51.16042],[21.63491,51.15889]]}},{"type":"Feature","properties":{"numer":"1905W","klasa":"droga zbiorcza","kat":"powiatowa"},"geometry":{"type":"LineString","coordinates":[[21.63538,51.16196],[21.64263,51.15997],[21.64605,51.15982],[21.64697,51.15964],[21.6491,51.15896]]}},{"type":"Feature","properties":{"numer":"79","klasa":"droga gĹ‚Ăłwna","kat":"krajowa"},"geometry":{"type":"LineString","coordinates":[[21.6491,51.15896],[21.65091,51.16239],[21.65182,51.16437]]}},{"type":"Feature","properties":{"numer":"79","klasa":"droga gĹ‚Ăłwna","kat":"krajowa"},"geometry":{"type":"LineString","coordinates":[[21.64126,51.17208],[21.63616,51.16365],[21.63538,51.16196]]}},{"type":"Feature","properties":{"numer":"1611T","klasa":"droga zbiorcza","kat":"powiatowa"},"geometry":{"type":"LineString","coordinates":[[21.447607528495034,51.020706692436974],[21.44761,51.02071]]}},{"type":"Feature","properties":{"numer":"3536W","klasa":"droga zbiorcza","kat":"powiatowa"},"geometry":{"type":"LineString","coordinates":[[21.44761,51.02071],[21.45378,51.02901],[21.4543,51.02958],[21.45762,51.03246],[21.46258,51.03775],[21.46318,51.03929],[21.46358,51.04074],[21.46528,51.04957]]}},{"type":"Feature","properties":{"numer":"190519W","klasa":"droga lokalna","kat":"powiatowa"},"geometry":{"type":"LineString","coordinates":[[21.45541,51.04704],[21.45611,51.04736]]}},{"type":"Feature","properties":{"numer":"190519W","klasa":"droga lokalna","kat":"powiatowa"},"geometry":{"type":"LineString","coordinates":[[21.45298,51.04794],[21.45419,51.04775],[21.45506,51.04718],[21.45541,51.04704]]}},{"type":"Feature","properties":{"numer":"190519W","klasa":"droga lokalna","kat":"powiatowa"},"geometry":{"type":"LineString","coordinates":[[21.44843,51.04824],[21.45298,51.04794]]}},{"type":"Feature","properties":{"numer":"190519W","klasa":"droga lokalna","kat":"powiatowa"},"geometry":{"type":"LineString","coordinates":[[21.44152,51.04863],[21.44843,51.04824]]}},{"type":"Feature","properties":{"numer":"190519W","klasa":"droga lokalna","kat":"powiatowa"},"geometry":{"type":"LineString","coordinates":[[21.45611,51.04736],[21.45683,51.04768],[21.45901,51.04823],[21.46079,51.04895],[21.46301,51.04965],[21.46373,51.04968],[21.46528,51.04957]]}},{"type":"Feature","properties":{"numer":"190519W","klasa":"droga lokalna","kat":"powiatowa"},"geometry":{"type":"LineString","coordinates":[[21.44066,51.04848],[21.44116,51.04858]]}},{"type":"Feature","properties":{"numer":"190519W","klasa":"droga lokalna","kat":"powiatowa"},"geometry":{"type":"LineString","coordinates":[[21.44116,51.04858],[21.44152,51.04863]]}},{"type":"Feature","properties":{"numer":"3550W","klasa":"droga zbiorcza","kat":"powiatowa"},"geometry":{"type":"LineString","coordinates":[[21.32211496546726,51.11524277942704],[21.32221,51.11522],[21.33528,51.11375]]}},{"type":"Feature","properties":{"numer":"1904W","klasa":"droga zbiorcza","kat":"powiatowa"},"geometry":{"type":"LineString","coordinates":[[21.34176,51.13205],[21.34216,51.125],[21.34162,51.12161],[21.33528,51.11375]]}},{"type":"Feature","properties":{"numer":"1902W","klasa":"droga zbiorcza","kat":"powiatowa"},"geometry":{"type":"LineString","coordinates":[[21.36958,51.0695],[21.37194,51.05876]]}},{"type":"Feature","properties":{"numer":"1902W","klasa":"droga zbiorcza","kat":"powiatowa"},"geometry":{"type":"LineString","coordinates":[[21.38983,51.09978],[21.38933,51.09898],[21.37137,51.08627],[21.37089,51.08561],[21.37008,51.08321],[21.36988,51.083],[21.36906,51.08253],[21.36793,51.08126],[21.36735,51.08037],[21.36726,51.08005],[21.36958,51.0695]]}},{"type":"Feature","properties":{"numer":"1902W","klasa":"droga zbiorcza","kat":"powiatowa"},"geometry":{"type":"LineString","coordinates":[[21.39045,51.10096],[21.38983,51.09978]]}},{"type":"Feature","properties":{"numer":"1902W","klasa":"droga zbiorcza","kat":"powiatowa"},"geometry":{"type":"LineString","coordinates":[[21.39045,51.10096],[21.39162,51.10073]]}},{"type":"Feature","properties":{"numer":"3550W","klasa":"droga zbiorcza","kat":"powiatowa"},"geometry":{"type":"LineString","coordinates":[[21.33528,51.11375],[21.34646,51.11249],[21.34862,51.10998],[21.34941,51.10925],[21.35159,51.1079],[21.35509,51.10612],[21.35708,51.10523],[21.36369,51.10462],[21.36703,51.10423],[21.3698,51.10292],[21.37277,51.10186],[21.37321,51.10177],[21.37766,51.1015],[21.3814,51.10064],[21.38298,51.10044],[21.3846,51.10042],[21.38671,51.10007],[21.38983,51.09978]]}},{"type":"Feature","properties":{"numer":"1902W","klasa":"droga zbiorcza","kat":"powiatowa"},"geometry":{"type":"LineString","coordinates":[[21.39162,51.10073],[21.392,51.10166],[21.39304,51.10171],[21.39397,51.10209],[21.40414,51.1085],[21.40662,51.11022],[21.42389,51.1228],[21.42429,51.12295],[21.42508,51.12296],[21.42602,51.12458],[21.426,51.12555]]}},{"type":"Feature","properties":{"numer":"1903W","klasa":"droga zbiorcza","kat":"powiatowa"},"geometry":{"type":"LineString","coordinates":[[21.39045,51.10096],[21.39067,51.10185],[21.39057,51.10213],[21.39081,51.10293],[21.39138,51.10351],[21.39134,51.104],[21.38811,51.10815],[21.38675,51.11084],[21.38086,51.12728],[21.38004,51.12986]]}},{"type":"Feature","properties":{"numer":"3549W","klasa":"droga zbiorcza","kat":"powiatowa"},"geometry":{"type":"LineString","coordinates":[[21.38004,51.12986],[21.38163,51.12964],[21.38311,51.12964],[21.38576,51.12878],[21.38752,51.12861],[21.38775,51.12869],[21.3925,51.13201],[21.39303,51.13204],[21.3971,51.13178],[21.40909,51.13011],[21.41336,51.12962],[21.41951,51.12903],[21.41975,51.12889],[21.41974,51.12821],[21.42076,51.12807],[21.4236,51.12726],[21.42575,51.12687],[21.42589,51.12675]]}},{"type":"Feature","properties":{"numer":"190519W","klasa":"droga lokalna","kat":"powiatowa"},"geometry":{"type":"LineString","coordinates":[[21.43643,51.04923],[21.43686,51.04908],[21.43776,51.04899],[21.44066,51.04848]]}},{"type":"Feature","properties":{"numer":"190519W","klasa":"droga lokalna","kat":"powiatowa"},"geometry":{"type":"LineString","coordinates":[[21.43466,51.0502],[21.43583,51.04965],[21.43643,51.04923]]}},{"type":"Feature","properties":{"numer":"190519W","klasa":"droga lokalna","kat":"powiatowa"},"geometry":{"type":"LineString","coordinates":[[21.43391,51.0508],[21.43416,51.05051],[21.43466,51.0502]]}},{"type":"Feature","properties":{"numer":"190519W","klasa":"droga lokalna","kat":"powiatowa"},"geometry":{"type":"LineString","coordinates":[[21.43221,51.05216],[21.43337,51.05132],[21.43391,51.0508]]}},{"type":"Feature","properties":{"numer":"190519W","klasa":"droga lokalna","kat":"powiatowa"},"geometry":{"type":"LineString","coordinates":[[21.43166,51.05276],[21.43221,51.05216]]}},{"type":"Feature","properties":{"numer":"1924W","klasa":"droga zbiorcza","kat":"powiatowa"},"geometry":{"type":"LineString","coordinates":[[21.43166,51.05276],[21.4315,51.05307],[21.4317,51.05361],[21.43195,51.05405],[21.43232,51.05441],[21.43476,51.05903],[21.43508,51.05929],[21.43726,51.06036],[21.43933,51.06156],[21.44253,51.06513],[21.44625,51.0687],[21.44876,51.07094],[21.44994,51.07188],[21.45233,51.07323],[21.45404,51.07446],[21.46044,51.08243],[21.46118,51.08362],[21.46128,51.08422]]}},{"type":"Feature","properties":{"numer":"1923W","klasa":"droga zbiorcza","kat":"powiatowa"},"geometry":{"type":"LineString","coordinates":[[21.39162,51.10073],[21.39333,51.10038],[21.39398,51.10012],[21.3954,51.09903],[21.3972,51.09818],[21.39752,51.09786],[21.398,51.09696],[21.39861,51.0951],[21.39885,51.09359],[21.39861,51.09094],[21.39785,51.08692],[21.3979,51.08679],[21.39811,51.08671],[21.39983,51.08642],[21.40408,51.08605],[21.40765,51.08637],[21.41082,51.08643],[21.41204,51.08632],[21.41471,51.08551],[21.41891,51.0846],[21.42111,51.08422],[21.42479,51.08373],[21.42992,51.08175],[21.43417,51.08129],[21.43727,51.08122],[21.43852,51.08138],[21.43887,51.08159],[21.44023,51.08327],[21.4405,51.08342],[21.44095,51.08351],[21.45348,51.0845],[21.45485,51.08473],[21.45627,51.08486],[21.45816,51.08473],[21.45956,51.08442],[21.46128,51.08446]]}},{"type":"Feature","properties":{"numer":"1902W","klasa":"droga zbiorcza","kat":"powiatowa"},"geometry":{"type":"LineString","coordinates":[[21.426,51.12555],[21.42599,51.12564]]}},{"type":"Feature","properties":{"numer":"1902W","klasa":"droga zbiorcza","kat":"powiatowa"},"geometry":{"type":"LineString","coordinates":[[21.42599,51.12564],[21.4259,51.12665]]}},{"type":"Feature","properties":{"numer":"1902W","klasa":"droga zbiorcza","kat":"powiatowa"},"geometry":{"type":"LineString","coordinates":[[21.4259,51.12665],[21.42594,51.1267]]}},{"type":"Feature","properties":{"numer":"3549W","klasa":"droga zbiorcza","kat":"powiatowa"},"geometry":{"type":"LineString","coordinates":[[21.42594,51.1267],[21.42604,51.12669]]}},{"type":"Feature","properties":{"numer":"3549W","klasa":"droga zbiorcza","kat":"powiatowa"},"geometry":{"type":"LineString","coordinates":[[21.44293,51.12674],[21.44346,51.12666],[21.44751,51.12674]]}},{"type":"Feature","properties":{"numer":"3549W","klasa":"droga zbiorcza","kat":"powiatowa"},"geometry":{"type":"LineString","coordinates":[[21.42589,51.12675],[21.42594,51.1267]]}},{"type":"Feature","properties":{"numer":"3549W","klasa":"droga zbiorcza","kat":"powiatowa"},"geometry":{"type":"LineString","coordinates":[[21.42604,51.12669],[21.42727,51.1267],[21.43196,51.12705],[21.43234,51.12692],[21.43277,51.12622],[21.43313,51.12612],[21.43837,51.12736],[21.44277,51.12681]]}},{"type":"Feature","properties":{"numer":"3549W","klasa":"droga zbiorcza","kat":"powiatowa"},"geometry":{"type":"LineString","coordinates":[[21.44277,51.12681],[21.44293,51.12674]]}},{"type":"Feature","properties":{"numer":"3536W","klasa":"droga zbiorcza","kat":"powiatowa"},"geometry":{"type":"LineString","coordinates":[[21.44748,51.12684],[21.44751,51.12674]]}},{"type":"Feature","properties":{"numer":"3536W","klasa":"droga zbiorcza","kat":"powiatowa"},"geometry":{"type":"LineString","coordinates":[[21.44554,51.1314],[21.44748,51.12684]]}},{"type":"Feature","properties":{"numer":"3536W","klasa":"droga zbiorcza","kat":"powiatowa"},"geometry":{"type":"LineString","coordinates":[[21.4455,51.1315],[21.44554,51.1314]]}},{"type":"Feature","properties":{"numer":"3536W","klasa":"droga zbiorcza","kat":"powiatowa"},"geometry":{"type":"LineString","coordinates":[[21.43913,51.1463],[21.4455,51.1315]]}},{"type":"Feature","properties":{"numer":"747","klasa":"droga gĹ‚Ăłwna","kat":"wojewodzka"},"geometry":{"type":"LineString","coordinates":[[21.40915,51.14628],[21.41926,51.14621],[21.43913,51.1463]]}},{"type":"Feature","properties":{"numer":"3536W","klasa":"droga zbiorcza","kat":"powiatowa"},"geometry":{"type":"LineString","coordinates":[[21.43441,51.15734],[21.43913,51.1463]]}},{"type":"Feature","properties":{"numer":"1911W","klasa":"droga zbiorcza","kat":"powiatowa"},"geometry":{"type":"LineString","coordinates":[[21.43441,51.15734],[21.42738,51.15744],[21.42669,51.15739],[21.42302,51.1552],[21.40874,51.14962],[21.40867,51.1495],[21.40915,51.14628]]}},{"type":"Feature","properties":{"numer":"3536W","klasa":"droga zbiorcza","kat":"powiatowa"},"geometry":{"type":"LineString","coordinates":[[21.43135,51.17584],[21.43158,51.17523],[21.43209,51.17104],[21.43187,51.16826],[21.43441,51.15734]]}},{"type":"Feature","properties":{"numer":"1904W","klasa":"droga zbiorcza","kat":"powiatowa"},"geometry":{"type":"LineString","coordinates":[[21.42107,51.17258],[21.425,51.17371],[21.43135,51.17584]]}},{"type":"Feature","properties":{"numer":"1904W","klasa":"droga zbiorcza","kat":"powiatowa"},"geometry":{"type":"LineString","coordinates":[[21.43135,51.17584],[21.4325,51.17628],[21.43952,51.18044]]}},{"type":"Feature","properties":{"numer":"3536W","klasa":"droga zbiorcza","kat":"powiatowa"},"geometry":{"type":"LineString","coordinates":[[21.42253,51.18755],[21.42682,51.18256],[21.42853,51.18003],[21.42979,51.17766],[21.43087,51.17672],[21.43135,51.17584]]}},{"type":"Feature","properties":{"numer":"190422W","klasa":"droga lokalna","kat":"powiatowa"},"geometry":{"type":"LineString","coordinates":[[21.43557,51.18315],[21.43952,51.18044]]}},{"type":"Feature","properties":{"numer":"190422W","klasa":"droga lokalna","kat":"powiatowa"},"geometry":{"type":"LineString","coordinates":[[21.43411,51.18542],[21.43507,51.18366],[21.43557,51.18315]]}},{"type":"Feature","properties":{"numer":"190204W","klasa":"droga lokalna","kat":"powiatowa"},"geometry":{"type":"LineString","coordinates":[[21.43216,51.18788],[21.43411,51.18542]]}},{"type":"Feature","properties":{"numer":"190204W","klasa":"droga lokalna","kat":"powiatowa"},"geometry":{"type":"LineString","coordinates":[[21.43199,51.18807],[21.43216,51.18788]]}},{"type":"Feature","properties":{"numer":"1923W","klasa":"droga zbiorcza","kat":"powiatowa"},"geometry":{"type":"LineString","coordinates":[[21.46128,51.08446],[21.46225,51.08453],[21.46461,51.08449],[21.46732,51.08486],[21.46998,51.08531],[21.47102,51.08525],[21.4733,51.08484]]}},{"type":"Feature","properties":{"numer":"3536W","klasa":"droga zbiorcza","kat":"powiatowa"},"geometry":{"type":"LineString","coordinates":[[21.47339,51.08492],[21.47355,51.08497]]}},{"type":"Feature","properties":{"numer":"3536W","klasa":"droga zbiorcza","kat":"powiatowa"},"geometry":{"type":"LineString","coordinates":[[21.47355,51.08497],[21.47418,51.08496],[21.47489,51.08547]]}},{"type":"Feature","properties":{"numer":"","klasa":"droga wewnÄ™trzna","kat":"gminna"},"geometry":{"type":"LineString","coordinates":[[21.4726,51.08529],[21.47184,51.08541],[21.47171,51.08514]]}},{"type":"Feature","properties":{"numer":"3536W","klasa":"droga zbiorcza","kat":"powiatowa"},"geometry":{"type":"LineString","coordinates":[[21.47489,51.08547],[21.47499,51.08555]]}},{"type":"Feature","properties":{"numer":"3536W","klasa":"droga zbiorcza","kat":"powiatowa"},"geometry":{"type":"LineString","coordinates":[[21.47499,51.08555],[21.4754,51.08593],[21.47655,51.08771]]}},{"type":"Feature","properties":{"numer":"1922W","klasa":"droga zbiorcza","kat":"powiatowa"},"geometry":{"type":"LineString","coordinates":[[21.47655,51.08771],[21.47928,51.08704],[21.4798,51.08701],[21.48187,51.08713]]}},{"type":"Feature","properties":{"numer":"3536W","klasa":"droga zbiorcza","kat":"powiatowa"},"geometry":{"type":"LineString","coordinates":[[21.47655,51.08771],[21.4766,51.08798]]}},{"type":"Feature","properties":{"numer":"1922W","klasa":"droga zbiorcza","kat":"powiatowa"},"geometry":{"type":"LineString","coordinates":[[21.48187,51.08713],[21.48492,51.0875],[21.49205,51.08867],[21.49776,51.08956],[21.49897,51.08969],[21.50182,51.08982],[21.50845,51.08971],[21.51337,51.08924],[21.51459,51.08924],[21.51637,51.08946],[21.51736,51.08967],[21.52176,51.09112]]}},{"type":"Feature","properties":{"numer":"3536W","klasa":"droga zbiorcza","kat":"powiatowa"},"geometry":{"type":"LineString","coordinates":[[21.44751,51.12674],[21.46494,51.09873],[21.46599,51.09754],[21.47458,51.08996],[21.4766,51.08798]]}},{"type":"Feature","properties":{"numer":"1919W","klasa":"droga zbiorcza","kat":"powiatowa"},"geometry":{"type":"LineString","coordinates":[[21.49388,51.12835],[21.4896,51.11354],[21.4766,51.08798]]}},{"type":"Feature","properties":{"numer":"3549W","klasa":"droga zbiorcza","kat":"powiatowa"},"geometry":{"type":"LineString","coordinates":[[21.49388,51.12835],[21.50253,51.12587],[21.50729,51.12402],[21.50778,51.12389],[21.50845,51.12402],[21.51116,51.12484],[21.51972,51.12756],[21.52223,51.12788],[21.53969,51.12175]]}},{"type":"Feature","properties":{"numer":"3549W","klasa":"droga zbiorcza","kat":"powiatowa"},"geometry":{"type":"LineString","coordinates":[[21.44748,51.12684],[21.46123,51.12861],[21.47255,51.12971],[21.47517,51.1295],[21.47636,51.1296],[21.48354,51.12771],[21.4927,51.12858],[21.49309,51.12857],[21.49388,51.12835]]}},{"type":"Feature","properties":{"numer":"1919W","klasa":"droga zbiorcza","kat":"powiatowa"},"geometry":{"type":"LineString","coordinates":[[21.49245,51.15166],[21.49322,51.14753],[21.49454,51.13143],[21.49454,51.1307],[21.49388,51.12835]]}},{"type":"Feature","properties":{"numer":"747","klasa":"droga gĹ‚Ăłwna","kat":"wojewodzka"},"geometry":{"type":"LineString","coordinates":[[21.43913,51.1463],[21.46383,51.14646],[21.46475,51.14667],[21.46912,51.14835],[21.47019,51.14866],[21.48459,51.15052],[21.48605,51.15065],[21.49236,51.15202]]}},{"type":"Feature","properties":{"numer":"1919W","klasa":"droga zbiorcza","kat":"powiatowa"},"geometry":{"type":"LineString","coordinates":[[21.49242,51.15179],[21.49245,51.15166]]}},{"type":"Feature","properties":{"numer":"1919W","klasa":"droga zbiorcza","kat":"powiatowa"},"geometry":{"type":"LineString","coordinates":[[21.49236,51.15202],[21.49242,51.15179]]}},{"type":"Feature","properties":{"numer":"747","klasa":"droga gĹ‚Ăłwna","kat":"wojewodzka"},"geometry":{"type":"LineString","coordinates":[[21.49236,51.15202],[21.49541,51.15266],[21.49626,51.15291],[21.49714,51.15332],[21.49913,51.15473],[21.50013,51.15516],[21.50303,51.156],[21.50451,51.15619]]}},{"type":"Feature","properties":{"numer":"1911W","klasa":"droga zbiorcza","kat":"powiatowa"},"geometry":{"type":"LineString","coordinates":[[21.43441,51.15734],[21.45226,51.15708],[21.46698,51.15834],[21.48882,51.15818],[21.48916,51.15808],[21.49175,51.15603],[21.492,51.15331],[21.49236,51.15202]]}},{"type":"Feature","properties":{"numer":"1910W","klasa":"droga zbiorcza","kat":"powiatowa"},"geometry":{"type":"LineString","coordinates":[[21.50001,51.16631],[21.50303,51.15809],[21.50451,51.15619]]}},{"type":"Feature","properties":{"numer":"190321W","klasa":"droga lokalna","kat":"powiatowa"},"geometry":{"type":"LineString","coordinates":[[21.60242,51.12064],[21.60239,51.12191]]}},{"type":"Feature","properties":{"numer":"1921W","klasa":"droga zbiorcza","kat":"powiatowa"},"geometry":{"type":"LineString","coordinates":[[21.5848,51.12765],[21.58668,51.12039],[21.5886,51.12031],[21.5915,51.12002],[21.59364,51.12051],[21.59609,51.12076],[21.59664,51.12072]]}},{"type":"Feature","properties":{"numer":"190321W","klasa":"droga lokalna","kat":"powiatowa"},"geometry":{"type":"LineString","coordinates":[[21.60239,51.12191],[21.60195,51.12823],[21.60096,51.12896]]}},{"type":"Feature","properties":{"numer":"190317W","klasa":"droga lokalna","kat":"powiatowa"},"geometry":{"type":"LineString","coordinates":[[21.5848,51.12765],[21.58587,51.12792],[21.58638,51.12795],[21.58922,51.12752],[21.59086,51.12742],[21.59269,51.12686],[21.594,51.12669],[21.59469,51.12668],[21.60084,51.12905],[21.60094,51.12898]]}},{"type":"Feature","properties":{"numer":"190317W","klasa":"droga lokalna","kat":"powiatowa"},"geometry":{"type":"LineString","coordinates":[[21.60094,51.12898],[21.60096,51.12896]]}},{"type":"Feature","properties":{"numer":"79","klasa":"droga gĹ‚Ăłwna","kat":"krajowa"},"geometry":{"type":"LineString","coordinates":[[21.64447,51.14306],[21.64459,51.14262]]}},{"type":"Feature","properties":{"numer":"79","klasa":"droga gĹ‚Ăłwna","kat":"krajowa"},"geometry":{"type":"LineString","coordinates":[[21.64459,51.14262],[21.64462,51.14382]]}},{"type":"Feature","properties":{"numer":"79","klasa":"droga gĹ‚Ăłwna","kat":"krajowa"},"geometry":{"type":"LineString","coordinates":[[21.6442,51.1435],[21.64447,51.14306]]}},{"type":"Feature","properties":{"numer":"","klasa":"droga gĹ‚Ăłwna","kat":"gminna"},"geometry":{"type":"LineString","coordinates":[[21.6442,51.1435],[21.64406,51.14374]]}},{"type":"Feature","properties":{"numer":"747","klasa":"droga gĹ‚Ăłwna ruchu przyĹ›pieszonego","kat":"wojewodzka"},"geometry":{"type":"LineString","coordinates":[[21.64406,51.14374],[21.64448,51.14377]]}},{"type":"Feature","properties":{"numer":"1938W","klasa":"droga zbiorcza","kat":"powiatowa"},"geometry":{"type":"LineString","coordinates":[[21.65322,51.15419],[21.65337,51.15416]]}},{"type":"Feature","properties":{"numer":"79","klasa":"droga gĹ‚Ăłwna","kat":"krajowa"},"geometry":{"type":"LineString","coordinates":[[21.65309,51.15418],[21.65322,51.15419]]}},{"type":"Feature","properties":{"numer":"79","klasa":"droga gĹ‚Ăłwna","kat":"krajowa"},"geometry":{"type":"LineString","coordinates":[[21.65322,51.15419],[21.65324,51.15428]]}},{"type":"Feature","properties":{"numer":"79","klasa":"droga gĹ‚Ăłwna","kat":"krajowa"},"geometry":{"type":"LineString","coordinates":[[21.65324,51.15428],[21.65329,51.15462]]}},{"type":"Feature","properties":{"numer":"747","klasa":"droga gĹ‚Ăłwna","kat":"wojewodzka"},"geometry":{"type":"LineString","coordinates":[[21.55999,51.15394],[21.56186,51.15448],[21.56262,51.15459],[21.56364,51.15461],[21.5887,51.15334],[21.59251,51.15291],[21.59505,51.15279],[21.59608,51.15287],[21.59751,51.15317],[21.59854,51.15319],[21.6001,51.15305],[21.60202,51.15264],[21.61049,51.15229],[21.6165,51.15296],[21.61869,51.1533],[21.62012,51.15362],[21.62418,51.15476],[21.62759,51.15551],[21.62972,51.15608],[21.63072,51.15638],[21.63291,51.15724]]}},{"type":"Feature","properties":{"numer":"79","klasa":"droga gĹ‚Ăłwna","kat":"krajowa"},"geometry":{"type":"LineString","coordinates":[[21.64706,51.15549],[21.65264,51.15415]]}},{"type":"Feature","properties":{"numer":"79","klasa":"droga gĹ‚Ăłwna","kat":"krajowa"},"geometry":{"type":"LineString","coordinates":[[21.65329,51.15462],[21.65327,51.15504]]}},{"type":"Feature","properties":{"numer":"79","klasa":"droga gĹ‚Ăłwna","kat":"krajowa"},"geometry":{"type":"LineString","coordinates":[[21.65327,51.15504],[21.65327,51.15518]]}},{"type":"Feature","properties":{"numer":"747,79","klasa":"droga gĹ‚Ăłwna","kat":"gminna"},"geometry":{"type":"LineString","coordinates":[[21.64579,51.15536],[21.6462,51.15565]]}},{"type":"Feature","properties":{"numer":"79","klasa":"droga gĹ‚Ăłwna","kat":"krajowa"},"geometry":{"type":"LineString","coordinates":[[21.64635,51.15568],[21.64706,51.15549]]}},{"type":"Feature","properties":{"numer":"","klasa":"droga wewnÄ™trzna","kat":"gminna"},"geometry":{"type":"LineString","coordinates":[[21.64184,51.17305],[21.64193,51.17322]]}},{"type":"Feature","properties":{"numer":"79","klasa":"droga gĹ‚Ăłwna","kat":"krajowa"},"geometry":{"type":"LineString","coordinates":[[21.64229,51.17409],[21.64193,51.17322]]}},{"type":"Feature","properties":{"numer":"79","klasa":"droga gĹ‚Ăłwna","kat":"krajowa"},"geometry":{"type":"LineString","coordinates":[[21.64571,51.17203],[21.64424,51.17333],[21.64291,51.17507],[21.64267,51.17572],[21.64217,51.1782],[21.64193,51.17885]]}},{"type":"Feature","properties":{"numer":"79","klasa":"droga gĹ‚Ăłwna","kat":"krajowa"},"geometry":{"type":"LineString","coordinates":[[21.64229,51.17409],[21.64248,51.17498],[21.64245,51.17616],[21.64204,51.17749],[21.64165,51.17819],[21.64099,51.17905],[21.64028,51.17973],[21.63811,51.18136],[21.63723,51.18219]]}},{"type":"Feature","properties":{"numer":"79","klasa":"droga gĹ‚Ăłwna","kat":"krajowa"},"geometry":{"type":"LineString","coordinates":[[21.64193,51.17885],[21.64143,51.17934],[21.6395,51.18055],[21.63723,51.18219]]}},{"type":"Feature","properties":{"numer":"79","klasa":"droga gĹ‚Ăłwna","kat":"krajowa"},"geometry":{"type":"LineString","coordinates":[[21.63723,51.18219],[21.63675,51.18268]]}},{"type":"Feature","properties":{"numer":"79","klasa":"droga gĹ‚Ăłwna","kat":"krajowa"},"geometry":{"type":"LineString","coordinates":[[21.63723,51.18219],[21.63647,51.18318]]}},{"type":"Feature","properties":{"numer":"79","klasa":"droga gĹ‚Ăłwna","kat":"krajowa"},"geometry":{"type":"LineString","coordinates":[[21.63675,51.18268],[21.63647,51.18318]]}},{"type":"Feature","properties":{"numer":"79","klasa":"droga gĹ‚Ăłwna","kat":"krajowa"},"geometry":{"type":"LineString","coordinates":[[21.63647,51.18318],[21.63539,51.1852],[21.63476,51.18609],[21.63362,51.18721],[21.63219,51.18824]]}},{"type":"Feature","properties":{"numer":"79","klasa":"droga gĹ‚Ăłwna","kat":"krajowa"},"geometry":{"type":"LineString","coordinates":[[21.63647,51.18318],[21.63525,51.18643],[21.63492,51.18694],[21.63433,51.18741],[21.63096,51.18917]]}},{"type":"Feature","properties":{"numer":"747","klasa":"droga gĹ‚Ăłwna","kat":"wojewodzka"},"geometry":{"type":"LineString","coordinates":[[21.55991,51.15392],[21.55999,51.15394]]}},{"type":"Feature","properties":{"numer":"747","klasa":"droga gĹ‚Ăłwna","kat":"wojewodzka"},"geometry":{"type":"LineString","coordinates":[[21.50451,51.15619],[21.50963,51.15659],[21.52075,51.15801],[21.52165,51.15807],[21.52249,51.15795],[21.52871,51.15671],[21.53435,51.15481],[21.53561,51.1545],[21.53672,51.15434],[21.54293,51.15386],[21.54809,51.15387],[21.5559,51.15399],[21.5589,51.15384],[21.55991,51.15392]]}},{"type":"Feature","properties":{"numer":"1912W","klasa":"droga zbiorcza","kat":"powiatowa"},"geometry":{"type":"LineString","coordinates":[[21.53218,51.18754],[21.5321,51.1873],[21.53218,51.18708],[21.53295,51.18548],[21.53329,51.1852],[21.53543,51.184],[21.53584,51.18356],[21.53691,51.17601],[21.53718,51.17505],[21.53798,51.17426],[21.54335,51.17128],[21.55012,51.16433],[21.55967,51.15663],[21.55991,51.15564],[21.55999,51.15394]]}},{"type":"Feature","properties":{"numer":"1905W","klasa":"droga zbiorcza","kat":"powiatowa"},"geometry":{"type":"LineString","coordinates":[[21.53218,51.18754],[21.53513,51.18664],[21.53731,51.18585],[21.53866,51.18563],[21.53947,51.1856],[21.54862,51.18647],[21.55714,51.18714],[21.55732,51.18722],[21.55729,51.18762],[21.55744,51.18769],[21.56277,51.18956],[21.56378,51.18975],[21.56476,51.1897],[21.56919,51.18895],[21.57449,51.18857],[21.57985,51.1883],[21.5802,51.18809],[21.58202,51.18423],[21.58254,51.18123],[21.58277,51.18065],[21.5834,51.1796],[21.58431,51.17845],[21.5877,51.17486],[21.58797,51.17432],[21.58888,51.17083],[21.58913,51.17079],[21.59081,51.17104],[21.5916,51.17123],[21.59198,51.17142],[21.59526,51.17355],[21.59575,51.17425],[21.59639,51.17476],[21.59645,51.17504],[21.60463,51.1753],[21.60487,51.17521],[21.60619,51.17382],[21.60729,51.17295],[21.60742,51.17269],[21.60776,51.17245],[21.61514,51.17306],[21.61602,51.17306],[21.61633,51.17298],[21.62315,51.16634],[21.62548,51.16469],[21.62647,51.16428],[21.63538,51.16196]]}},{"type":"Feature","properties":{"numer":"1909W","klasa":"droga zbiorcza","kat":"powiatowa"},"geometry":{"type":"LineString","coordinates":[[21.54668,51.20214],[21.5461,51.20219],[21.54575,51.2021],[21.54471,51.20096],[21.5442,51.20063],[21.54147,51.19933],[21.54085,51.19915],[21.53822,51.19803],[21.53551,51.197],[21.52768,51.19433],[21.52525,51.1936],[21.52141,51.19216],[21.52,51.1911],[21.51949,51.1905],[21.51936,51.19046],[21.51878,51.18959]]}},{"type":"Feature","properties":{"numer":"1908W","klasa":"droga zbiorcza","kat":"powiatowa"},"geometry":{"type":"LineString","coordinates":[[21.59803,51.19122],[21.59251,51.19206],[21.591,51.19247],[21.58908,51.19364],[21.58819,51.19489],[21.58682,51.19578],[21.5804,51.19827],[21.57747,51.19908],[21.57588,51.19939],[21.57368,51.19967],[21.57167,51.19973],[21.56908,51.1994],[21.56574,51.19952],[21.56384,51.19995],[21.56269,51.20042],[21.56064,51.20075],[21.55939,51.20112],[21.55838,51.20159],[21.55732,51.20238],[21.55627,51.20285],[21.55563,51.20326],[21.55469,51.20354],[21.55259,51.20398],[21.54974,51.20423],[21.54822,51.20415],[21.54711,51.20393]]}},{"type":"Feature","properties":{"numer":"190325W,1909W","klasa":"droga zbiorcza","kat":"powiatowa"},"geometry":{"type":"LineString","coordinates":[[21.54668,51.20214],[21.54703,51.20372]]}},{"type":"Feature","properties":{"numer":"1908W,1909W","klasa":"droga zbiorcza","kat":"powiatowa"},"geometry":{"type":"LineString","coordinates":[[21.54703,51.20372],[21.54711,51.20393]]}},{"type":"Feature","properties":{"numer":"1909W","klasa":"droga zbiorcza","kat":"powiatowa"},"geometry":{"type":"LineString","coordinates":[[21.54711,51.20393],[21.5476,51.20461],[21.55622,51.21278],[21.55912,51.21711],[21.56152,51.22307],[21.56367,51.22881],[21.56552,51.23776],[21.57298,51.2462],[21.57436,51.24755],[21.57454,51.24763]]}},{"type":"Feature","properties":{"numer":"1906W","klasa":"droga zbiorcza","kat":"powiatowa"},"geometry":{"type":"LineString","coordinates":[[21.57454,51.24763],[21.57346,51.24797],[21.57291,51.24803],[21.5724,51.24818],[21.57127,51.24731],[21.56999,51.24689],[21.56681,51.24733],[21.56611,51.24733],[21.55208,51.24616],[21.52639,51.24435],[21.52114,51.24391],[21.52061,51.2438],[21.50931,51.24024],[21.50869,51.2401],[21.50311,51.24081],[21.5,51.24107],[21.49818,51.24136],[21.49714,51.24144],[21.49632,51.24142]]}},{"type":"Feature","properties":{"numer":"1910W","klasa":"droga zbiorcza","kat":"powiatowa"},"geometry":{"type":"LineString","coordinates":[[21.4994,51.16804],[21.50001,51.16631]]}},{"type":"Feature","properties":{"numer":"1910W","klasa":"droga zbiorcza","kat":"powiatowa"},"geometry":{"type":"LineString","coordinates":[[21.49125,51.18093],[21.49887,51.16933],[21.4994,51.16804]]}},{"type":"Feature","properties":{"numer":"1909W","klasa":"droga zbiorcza","kat":"powiatowa"},"geometry":{"type":"LineString","coordinates":[[21.51878,51.18959],[21.51767,51.18809],[21.51624,51.18672],[21.51494,51.18506],[21.51282,51.18286],[21.51219,51.18205],[21.51022,51.18033],[21.50935,51.17972],[21.50801,51.1778],[21.5054,51.17541],[21.50413,51.17443],[21.50296,51.17318],[21.50216,51.17215],[21.50087,51.17087],[21.50064,51.17031],[21.50018,51.16977],[21.4994,51.16804]]}},{"type":"Feature","properties":{"numer":"1905W","klasa":"droga zbiorcza","kat":"powiatowa"},"geometry":{"type":"LineString","coordinates":[[21.51878,51.18959],[21.53218,51.18754]]}},{"type":"Feature","properties":{"numer":"1910W","klasa":"droga zbiorcza","kat":"powiatowa"},"geometry":{"type":"LineString","coordinates":[[21.47149,51.21244],[21.47172,51.20908],[21.47293,51.20209],[21.47367,51.19704],[21.47454,51.19228],[21.47542,51.1907],[21.47552,51.18969],[21.48202,51.1883],[21.48222,51.18747],[21.48605,51.18454],[21.48656,51.18425],[21.48896,51.18328],[21.48991,51.18269],[21.49028,51.18237],[21.49125,51.18093]]}},{"type":"Feature","properties":{"numer":"1908W","klasa":"droga zbiorcza","kat":"powiatowa"},"geometry":{"type":"LineString","coordinates":[[21.54703,51.20372],[21.54526,51.20408],[21.54091,51.20462],[21.53364,51.20727],[21.53275,51.20751],[21.53146,51.20758],[21.51644,51.20759],[21.51624,51.20764],[21.51067,51.21286],[21.50762,51.2155],[21.50515,51.21815],[21.50257,51.22063],[21.50144,51.22207],[21.50139,51.22234],[21.50167,51.22384],[21.50148,51.22546],[21.50166,51.2279],[21.50153,51.23097],[21.49632,51.24142]]}},{"type":"Feature","properties":{"numer":"1906W","klasa":"droga zbiorcza","kat":"powiatowa"},"geometry":{"type":"LineString","coordinates":[[21.49084,51.24014],[21.48086,51.22764],[21.48046,51.22685],[21.4794,51.22538],[21.47774,51.221],[21.47756,51.2201],[21.47751,51.21887],[21.47578,51.21578],[21.47539,51.21285],[21.47441,51.21268],[21.47275,51.21264],[21.47149,51.21244]]}},{"type":"Feature","properties":{"numer":"1906W","klasa":"droga zbiorcza","kat":"powiatowa"},"geometry":{"type":"LineString","coordinates":[[21.4909,51.24021],[21.49084,51.24014]]}},{"type":"Feature","properties":{"numer":"1906W","klasa":"droga zbiorcza","kat":"powiatowa"},"geometry":{"type":"LineString","coordinates":[[21.49332,51.2413],[21.49215,51.24111],[21.49155,51.24092],[21.4909,51.24021]]}},{"type":"Feature","properties":{"numer":"1906W","klasa":"droga zbiorcza","kat":"powiatowa"},"geometry":{"type":"LineString","coordinates":[[21.49632,51.24142],[21.49456,51.24125],[21.49332,51.2413]]}},{"type":"Feature","properties":{"numer":"79","klasa":"droga gĹ‚Ăłwna","kat":"krajowa"},"geometry":{"type":"LineString","coordinates":[[21.63115,51.18903],[21.63219,51.18824]]}},{"type":"Feature","properties":{"numer":"79","klasa":"droga gĹ‚Ăłwna","kat":"krajowa"},"geometry":{"type":"LineString","coordinates":[[21.63096,51.18917],[21.63075,51.18929]]}},{"type":"Feature","properties":{"numer":"1908W","klasa":"droga zbiorcza","kat":"powiatowa"},"geometry":{"type":"LineString","coordinates":[[21.63075,51.18929],[21.61915,51.18886],[21.61884,51.18867],[21.61877,51.18773],[21.61863,51.18762],[21.61845,51.18762],[21.60791,51.18936],[21.60743,51.18934],[21.60649,51.18892],[21.60599,51.18893],[21.60458,51.18919],[21.60308,51.18957],[21.59955,51.19084]]}},{"type":"Feature","properties":{"numer":"1908W","klasa":"droga zbiorcza","kat":"powiatowa"},"geometry":{"type":"LineString","coordinates":[[21.59955,51.19084],[21.59803,51.19122]]}},{"type":"Feature","properties":{"numer":"79","klasa":"droga gĹ‚Ăłwna","kat":"krajowa"},"geometry":{"type":"LineString","coordinates":[[21.63075,51.18929],[21.63018,51.18974],[21.6299,51.19012],[21.6248,51.19876],[21.6224,51.20141],[21.62193,51.20207],[21.62158,51.20313],[21.62038,51.20809],[21.61995,51.20882],[21.61745,51.21107],[21.61348,51.21529],[21.61306,51.21561],[21.61233,51.2159],[21.60501,51.21811],[21.59789,51.22104],[21.59679,51.22174],[21.59606,51.22264],[21.59528,51.2243],[21.59451,51.22544],[21.5889,51.23075],[21.58617,51.23349],[21.57454,51.24763]]}},{"type":"Feature","properties":{"numer":"1914W","klasa":"droga zbiorcza","kat":"powiatowa"},"geometry":{"type":"LineString","coordinates":[[21.65355,51.2336],[21.65529,51.23736],[21.65644,51.23956]]}},{"type":"Feature","properties":{"numer":"1914W","klasa":"droga zbiorcza","kat":"powiatowa"},"geometry":{"type":"LineString","coordinates":[[21.57517,51.24846],[21.57756,51.2476],[21.58264,51.24557],[21.587,51.24446],[21.58831,51.24425],[21.59659,51.24332],[21.59762,51.24306],[21.59848,51.24272],[21.59912,51.24241],[21.60152,51.2407],[21.60347,51.23877],[21.60583,51.23673],[21.60772,51.2348],[21.61022,51.23363],[21.61227,51.23245],[21.61355,51.23197],[21.61409,51.23193],[21.61656,51.23219],[21.63527,51.23313],[21.64019,51.23383],[21.64717,51.23427],[21.64793,51.23424],[21.65355,51.2336]]}},{"type":"Feature","properties":{"numer":"1913W","klasa":"droga zbiorcza","kat":"powiatowa"},"geometry":{"type":"LineString","coordinates":[[21.58255,51.25446],[21.58256,51.25398],[21.58239,51.25368],[21.58251,51.25351],[21.58591,51.2522],[21.58687,51.25195],[21.59157,51.25177],[21.59425,51.25136],[21.59591,51.25135],[21.59782,51.25164],[21.60111,51.25181],[21.60621,51.25229],[21.61041,51.25325],[21.61411,51.25371],[21.61827,51.25515],[21.62084,51.25548],[21.62808,51.25784],[21.633,51.25861],[21.63592,51.25866],[21.63936,51.25905],[21.64015,51.2592],[21.64962,51.26162],[21.654,51.26284],[21.65449,51.26307],[21.65592,51.26441],[21.65629,51.26462],[21.65918,51.26521],[21.6606,51.26563],[21.66538,51.26633],[21.66652,51.26693],[21.667,51.26708],[21.66774,51.26716],[21.67173,51.26691],[21.67323,51.26696],[21.67371,51.26707],[21.67818,51.26874],[21.67942,51.26898],[21.68174,51.26925]]}},{"type":"Feature","properties":{"numer":"79","klasa":"droga gĹ‚Ăłwna","kat":"krajowa"},"geometry":{"type":"LineString","coordinates":[[21.5821,51.25475],[21.58484,51.25862],[21.58982,51.26692]]}},{"type":"Feature","properties":{"numer":"79","klasa":"droga gĹ‚Ăłwna","kat":"krajowa"},"geometry":{"type":"LineString","coordinates":[[21.599140668235048,51.28249994543892],[21.58982,51.26692]]}},{"type":"Feature","properties":{"numer":"4519W","klasa":"droga zbiorcza","kat":"powiatowa"},"geometry":{"type":"LineString","coordinates":[[21.48054,51.24963],[21.48314,51.24888],[21.4835,51.24871],[21.48889,51.2447],[21.48965,51.24382],[21.49291,51.24187],[21.49332,51.2413]]}},{"type":"Feature","properties":{"numer":"4519W","klasa":"droga zbiorcza","kat":"powiatowa"},"geometry":{"type":"LineString","coordinates":[[21.48042,51.24966],[21.48054,51.24963]]}},{"type":"Feature","properties":{"numer":"4519W","klasa":"droga zbiorcza","kat":"powiatowa"},"geometry":{"type":"LineString","coordinates":[[21.48042,51.24966],[21.47987,51.24988],[21.47934,51.25067],[21.47707,51.25286],[21.47525,51.25486],[21.47382,51.25605],[21.47376546777353,51.256118670211116]]}},{"type":"Feature","properties":{"numer":"79","klasa":"droga gĹ‚Ăłwna","kat":"krajowa"},"geometry":{"type":"LineString","coordinates":[[21.57517,51.24846],[21.57456,51.24779],[21.57454,51.24763]]}},{"type":"Feature","properties":{"numer":"79","klasa":"droga gĹ‚Ăłwna","kat":"krajowa"},"geometry":{"type":"LineString","coordinates":[[21.57517,51.24846],[21.57636,51.24974],[21.5769,51.25056],[21.57994,51.25231],[21.58063,51.25297]]}},{"type":"Feature","properties":{"numer":"79","klasa":"droga gĹ‚Ăłwna","kat":"krajowa"},"geometry":{"type":"LineString","coordinates":[[21.58063,51.25297],[21.58114,51.25359]]}},{"type":"Feature","properties":{"numer":"79","klasa":"droga gĹ‚Ăłwna","kat":"krajowa"},"geometry":{"type":"LineString","coordinates":[[21.58114,51.25359],[21.5821,51.25475]]}},{"type":"Feature","properties":{"numer":"1913W","klasa":"droga zbiorcza","kat":"powiatowa"},"geometry":{"type":"LineString","coordinates":[[21.5821,51.25475],[21.58245,51.25462],[21.58255,51.25446]]}},{"type":"Feature","properties":{"numer":"4520W","klasa":"droga zbiorcza","kat":"powiatowa"},"geometry":{"type":"LineString","coordinates":[[21.55379698396551,51.2773995911447],[21.5543,51.27732],[21.55628,51.27671],[21.56182,51.27466],[21.5627,51.27454],[21.56483,51.27449],[21.56714,51.27401],[21.57047,51.27329],[21.57776,51.27125],[21.57853,51.27086],[21.57999,51.26983],[21.58126,51.26909],[21.58982,51.26692]]}},{"type":"Feature","properties":{"numer":"3568W","klasa":"droga zbiorcza","kat":"powiatowa"},"geometry":{"type":"LineString","coordinates":[[21.325866515151517,51.13155622895623],[21.32601,51.13162],[21.34176,51.13205]]}},{"type":"Feature","properties":{"numer":"3568W","klasa":"droga zbiorcza","kat":"powiatowa"},"geometry":{"type":"LineString","coordinates":[[21.34176,51.13205],[21.3606,51.13255],[21.36067,51.13289],[21.36038,51.13634],[21.36047,51.13651]]}},{"type":"Feature","properties":{"numer":"1904W","klasa":"droga zbiorcza","kat":"powiatowa"},"geometry":{"type":"LineString","coordinates":[[21.34176,51.13205],[21.3411,51.14234]]}},{"type":"Feature","properties":{"numer":"3549W","klasa":"droga zbiorcza","kat":"powiatowa"},"geometry":{"type":"LineString","coordinates":[[21.3411,51.14234],[21.36047,51.13651]]}},{"type":"Feature","properties":{"numer":"1904W","klasa":"droga zbiorcza","kat":"powiatowa"},"geometry":{"type":"LineString","coordinates":[[21.3411,51.14234],[21.34943,51.15695]]}},{"type":"Feature","properties":{"numer":"3549W","klasa":"droga zbiorcza","kat":"powiatowa"},"geometry":{"type":"LineString","coordinates":[[21.335156963648625,51.14416195275006],[21.3411,51.14234]]}},{"type":"Feature","properties":{"numer":"747","klasa":"droga gĹ‚Ăłwna","kat":"wojewodzka"},"geometry":{"type":"LineString","coordinates":[[21.333945542267173,51.1583142559055],[21.34673,51.15725],[21.34943,51.15695]]}},{"type":"Feature","properties":{"numer":"3547W","klasa":"droga zbiorcza","kat":"powiatowa"},"geometry":{"type":"LineString","coordinates":[[21.4124,51.19887],[21.397128918252513,51.200986717496264]]}},{"type":"Feature","properties":{"numer":"3549W","klasa":"droga zbiorcza","kat":"powiatowa"},"geometry":{"type":"LineString","coordinates":[[21.36047,51.13651],[21.38004,51.12986]]}},{"type":"Feature","properties":{"numer":"747","klasa":"droga gĹ‚Ăłwna","kat":"wojewodzka"},"geometry":{"type":"LineString","coordinates":[[21.34943,51.15695],[21.35036,51.15674],[21.35485,51.15409],[21.35675,51.15327],[21.3825,51.14706],[21.38916,51.14637],[21.39836,51.14583],[21.40096,51.14592],[21.40391,51.1463],[21.40915,51.14628]]}},{"type":"Feature","properties":{"numer":"1904W","klasa":"droga zbiorcza","kat":"powiatowa"},"geometry":{"type":"LineString","coordinates":[[21.34943,51.15695],[21.35442,51.16546],[21.35477,51.16579],[21.356,51.16651],[21.36924,51.17175],[21.38377,51.17159]]}},{"type":"Feature","properties":{"numer":"1904W","klasa":"droga zbiorcza","kat":"powiatowa"},"geometry":{"type":"LineString","coordinates":[[21.38377,51.17159],[21.38719,51.17211],[21.38851,51.17221],[21.39,51.17219],[21.39186,51.17212],[21.39598,51.17147],[21.39735,51.17137],[21.40006,51.17154],[21.40192,51.17125],[21.40251,51.17124],[21.40568,51.17171],[21.40694,51.17179],[21.40889,51.1722],[21.41009,51.17223],[21.41255,51.17258],[21.4149,51.17251],[21.41571,51.17257],[21.41798,51.17196],[21.42107,51.17258]]}},{"type":"Feature","properties":{"numer":"3536W","klasa":"droga zbiorcza","kat":"powiatowa"},"geometry":{"type":"LineString","coordinates":[[21.4124,51.19887],[21.42253,51.18755]]}},{"type":"Feature","properties":{"numer":"3536W","klasa":"droga zbiorcza","kat":"powiatowa"},"geometry":{"type":"LineString","coordinates":[[21.40805911296808,51.20396102234187],[21.40806,51.20396],[21.41028,51.20192],[21.41069,51.20142],[21.41141,51.20013],[21.4124,51.19887]]}},{"type":"Feature","properties":{"numer":"190204W","klasa":"droga lokalna","kat":"powiatowa"},"geometry":{"type":"LineString","coordinates":[[21.43163,51.18851],[21.43199,51.18807]]}},{"type":"Feature","properties":{"numer":"190207W","klasa":"droga lokalna","kat":"powiatowa"},"geometry":{"type":"LineString","coordinates":[[21.42941,51.1891],[21.42253,51.18755]]}},{"type":"Feature","properties":{"numer":"190204W","klasa":"droga lokalna","kat":"powiatowa"},"geometry":{"type":"LineString","coordinates":[[21.43089,51.18942],[21.43163,51.18851]]}},{"type":"Feature","properties":{"numer":"190207W","klasa":"droga lokalna","kat":"powiatowa"},"geometry":{"type":"LineString","coordinates":[[21.43089,51.18942],[21.42941,51.1891]]}},{"type":"Feature","properties":{"numer":"1906W","klasa":"droga zbiorcza","kat":"powiatowa"},"geometry":{"type":"LineString","coordinates":[[21.47149,51.21244],[21.46773,51.21251],[21.46448,51.21211],[21.46431,51.21198],[21.46434,51.21046],[21.46423,51.21025],[21.45833,51.20931],[21.45356,51.20972],[21.43878,51.21058],[21.43794,51.21052],[21.43388,51.20912],[21.43318,51.20875],[21.42593,51.20108],[21.42538,51.20094],[21.4124,51.19887]]}},{"type":"Feature","properties":{"numer":"79","klasa":"droga gĹ‚Ăłwna","kat":"krajowa"},"geometry":{"type":"LineString","coordinates":[[21.65182,51.16437],[21.65161,51.1648],[21.64849,51.16827],[21.64651,51.17116],[21.64571,51.17203]]}},{"type":"Feature","properties":{"numer":"79","klasa":"droga gĹ‚Ăłwna","kat":"krajowa"},"geometry":{"type":"LineString","coordinates":[[21.64836,51.16844],[21.64651,51.17116],[21.64571,51.17203]]}},{"type":"Feature","properties":{"numer":"","klasa":"droga wewnÄ™trzna","kat":"gminna"},"geometry":{"type":"LineString","coordinates":[[21.64571,51.17203],[21.64611,51.17169],[21.64652,51.17114]]}},{"type":"Feature","properties":{"numer":"","klasa":"droga wewnÄ™trzna","kat":"gminna"},"geometry":{"type":"LineString","coordinates":[[21.64455,51.17246],[21.64571,51.17203]]}},{"type":"Feature","properties":{"numer":"79","klasa":"droga gĹ‚Ăłwna","kat":"krajowa"},"geometry":{"type":"LineString","coordinates":[[21.64126,51.17208],[21.64174,51.17287]]}},{"type":"Feature","properties":{"numer":"","klasa":"droga wewnÄ™trzna","kat":"gminna"},"geometry":{"type":"LineString","coordinates":[[21.64307,51.17278],[21.64455,51.17246]]}},{"type":"Feature","properties":{"numer":"","klasa":"droga wewnÄ™trzna","kat":"gminna"},"geometry":{"type":"LineString","coordinates":[[21.64211,51.17298],[21.64307,51.17278]]}},{"type":"Feature","properties":{"numer":"","klasa":"droga wewnÄ™trzna","kat":"gminna"},"geometry":{"type":"LineString","coordinates":[[21.64184,51.17305],[21.64174,51.17287]]}},{"type":"Feature","properties":{"numer":"","klasa":"droga wewnÄ™trzna","kat":"gminna"},"geometry":{"type":"LineString","coordinates":[[21.64184,51.17305],[21.64211,51.17298]]}},{"type":"Feature","properties":{"numer":"79","klasa":"droga gĹ‚Ăłwna","kat":"krajowa"},"geometry":{"type":"LineString","coordinates":[[21.64571,51.17203],[21.64441,51.17315],[21.64361,51.17412]]}},{"type":"Feature","properties":{"numer":"754","klasa":"droga zbiorcza","kat":"wojewodzka"},"geometry":{"type":"LineString","coordinates":[[21.76399,51.15725],[21.76402,51.15715]]}},{"type":"Feature","properties":{"numer":"754","klasa":"droga zbiorcza","kat":"wojewodzka"},"geometry":{"type":"LineString","coordinates":[[21.76349,51.16072],[21.7639,51.15958],[21.76399,51.15725]]}},{"type":"Feature","properties":{"numer":"754","klasa":"droga zbiorcza","kat":"wojewodzka"},"geometry":{"type":"LineString","coordinates":[[21.76087,51.17694],[21.76087,51.16966],[21.76124,51.1662],[21.76152,51.16521],[21.76349,51.16072]]}},{"type":"Feature","properties":{"numer":"754","klasa":"droga zbiorcza","kat":"wojewodzka"},"geometry":{"type":"LineString","coordinates":[[21.70538,51.18905],[21.70561,51.1889],[21.70738,51.18699],[21.7196,51.17749],[21.72125,51.17602],[21.72163,51.17603],[21.72521,51.17682],[21.72979,51.17963],[21.73062,51.17992],[21.73251,51.1803],[21.73309,51.18025],[21.73869,51.17876],[21.73937,51.17863],[21.76087,51.17694]]}},{"type":"Feature","properties":{"numer":"1918W","klasa":"droga zbiorcza","kat":"powiatowa"},"geometry":{"type":"LineString","coordinates":[[21.76233,51.21891],[21.76177,51.21368],[21.75852,51.19913],[21.75897,51.19201],[21.75901,51.18776],[21.76031,51.18501],[21.76037,51.1826],[21.76083,51.17858],[21.76087,51.17694]]}},{"type":"Feature","properties":{"numer":"1918W","klasa":"droga zbiorcza","kat":"powiatowa"},"geometry":{"type":"LineString","coordinates":[[21.77215,51.22338],[21.76947,51.22253],[21.76233,51.21891]]}},{"type":"Feature","properties":{"numer":"1918W","klasa":"droga zbiorcza","kat":"powiatowa"},"geometry":{"type":"LineString","coordinates":[[21.77337,51.22374],[21.77215,51.22338]]}},{"type":"Feature","properties":{"numer":"1918W","klasa":"droga zbiorcza","kat":"powiatowa"},"geometry":{"type":"LineString","coordinates":[[21.77334,51.24237],[21.77334,51.23978],[21.77322,51.23934],[21.77272,51.23847],[21.7728,51.23825],[21.782,51.23286],[21.78375,51.23122],[21.78358,51.23087],[21.77983,51.22637],[21.77931,51.22585],[21.77869,51.22556],[21.77557,51.22442],[21.77337,51.22374]]}},{"type":"Feature","properties":{"numer":"1913W","klasa":"droga zbiorcza","kat":"powiatowa"},"geometry":{"type":"LineString","coordinates":[[21.73156,51.24959],[21.76663,51.24262],[21.77033,51.24255],[21.77334,51.24237]]}},{"type":"Feature","properties":{"numer":"1937W","klasa":"droga zbiorcza","kat":"powiatowa"},"geometry":{"type":"LineString","coordinates":[[21.77334,51.24237],[21.77565,51.24227],[21.77742,51.24228],[21.77798,51.24294],[21.77906,51.24387],[21.77932,51.24419],[21.78121,51.2484],[21.78352,51.25269],[21.78394,51.25323],[21.78687,51.25609],[21.78755,51.25713],[21.7879,51.25945],[21.787850661613426,51.26217183432593]]}},{"type":"Feature","properties":{"numer":"1917W","klasa":"droga zbiorcza","kat":"powiatowa"},"geometry":{"type":"LineString","coordinates":[[21.70272,51.19224],[21.70895,51.19526],[21.71491,51.1972],[21.72713,51.20157],[21.7276,51.20194],[21.72882,51.20379],[21.72959,51.20462],[21.73031,51.2051],[21.73446,51.20741],[21.73744,51.20859],[21.74045,51.21003],[21.75711,51.21629],[21.76233,51.21891]]}},{"type":"Feature","properties":{"numer":"1914W","klasa":"droga zbiorcza","kat":"powiatowa"},"geometry":{"type":"LineString","coordinates":[[21.65644,51.23956],[21.6566,51.23983]]}},{"type":"Feature","properties":{"numer":"1914W","klasa":"droga zbiorcza","kat":"powiatowa"},"geometry":{"type":"LineString","coordinates":[[21.6566,51.23983],[21.6571,51.24157]]}},{"type":"Feature","properties":{"numer":"1914W","klasa":"droga zbiorcza","kat":"powiatowa"},"geometry":{"type":"LineString","coordinates":[[21.6571,51.24157],[21.6603,51.24144],[21.66782,51.24144],[21.66827,51.2415],[21.66857,51.24171],[21.67736,51.25224],[21.68212,51.2585],[21.68226,51.25905],[21.68234,51.26072],[21.68244,51.2668],[21.68273,51.26731]]}},{"type":"Feature","properties":{"numer":"1913W","klasa":"droga zbiorcza","kat":"powiatowa"},"geometry":{"type":"LineString","coordinates":[[21.68273,51.26731],[21.68285,51.26713],[21.68306,51.26705],[21.68871,51.26608],[21.69375,51.26565],[21.70265,51.26504],[21.70328,51.26492],[21.70483,51.26442],[21.70583,51.26396],[21.70675,51.26337],[21.70924,51.26123],[21.71028,51.26004],[21.71706,51.25591],[21.72064,51.25216],[21.72116,51.25176],[21.72179,51.25155],[21.73156,51.24959]]}},{"type":"Feature","properties":{"numer":"1913W","klasa":"droga zbiorcza","kat":"powiatowa"},"geometry":{"type":"LineString","coordinates":[[21.68206,51.26913],[21.68242,51.26846],[21.68273,51.26731]]}},{"type":"Feature","properties":{"numer":"1913W","klasa":"droga zbiorcza","kat":"powiatowa"},"geometry":{"type":"LineString","coordinates":[[21.68206,51.26913],[21.68174,51.26925]]}},{"type":"Feature","properties":{"numer":"4530W","klasa":"droga zbiorcza","kat":"powiatowa"},"geometry":{"type":"LineString","coordinates":[[21.68206,51.26913],[21.68207,51.26941]]}},{"type":"Feature","properties":{"numer":"1913W","klasa":"droga zbiorcza","kat":"powiatowa"},"geometry":{"type":"LineString","coordinates":[[21.68174,51.26925],[21.68207,51.26941]]}},{"type":"Feature","properties":{"numer":"4530W","klasa":"droga zbiorcza","kat":"powiatowa"},"geometry":{"type":"LineString","coordinates":[[21.68207,51.26941],[21.68209,51.27051],[21.68521,51.28152],[21.68618,51.29167],[21.68673,51.29815],[21.68647,51.29888],[21.686156895081314,51.29923956564855]]}},{"type":"Feature","properties":{"numer":"1915W","klasa":"droga zbiorcza","kat":"powiatowa"},"geometry":{"type":"LineString","coordinates":[[21.74133,51.26818],[21.74079,51.26182],[21.73527,51.25736],[21.73156,51.24959]]}},{"type":"Feature","properties":{"numer":"190102W,190114W","klasa":"droga lokalna","kat":"powiatowa"},"geometry":{"type":"LineString","coordinates":[[21.74137,51.26875],[21.74133,51.26818]]}},{"type":"Feature","properties":{"numer":"190102W","klasa":"droga lokalna","kat":"powiatowa"},"geometry":{"type":"LineString","coordinates":[[21.74401,51.27326],[21.74341,51.27263],[21.7416,51.27137],[21.74137,51.26875]]}},{"type":"Feature","properties":{"numer":"190102W","klasa":"droga lokalna","kat":"powiatowa"},"geometry":{"type":"LineString","coordinates":[[21.74494,51.27425],[21.74421,51.27357],[21.74401,51.27326]]}},{"type":"Feature","properties":{"numer":"190102W","klasa":"droga lokalna","kat":"powiatowa"},"geometry":{"type":"LineString","coordinates":[[21.74509,51.27453],[21.74494,51.27425]]}},{"type":"Feature","properties":{"numer":"190102W","klasa":"droga lokalna","kat":"powiatowa"},"geometry":{"type":"LineString","coordinates":[[21.74554,51.27536],[21.74509,51.27453]]}},{"type":"Feature","properties":{"numer":"190102W","klasa":"droga lokalna","kat":"powiatowa"},"geometry":{"type":"LineString","coordinates":[[21.7456,51.27553],[21.74554,51.27536]]}},{"type":"Feature","properties":{"numer":"450325W","klasa":"droga lokalna","kat":"powiatowa"},"geometry":{"type":"LineString","coordinates":[[21.74565,51.27565],[21.7456,51.27553]]}},{"type":"Feature","properties":{"numer":"450325W","klasa":"droga lokalna","kat":"powiatowa"},"geometry":{"type":"LineString","coordinates":[[21.745651115731118,51.27565465696466],[21.74565,51.27565]]}}]}