{"type":"FeatureCollection","features":[{"type":"Feature","properties":{"numer":"A2,E30","klasa":"autostrada","kat":"krajowa"},"geometry":{"type":"LineString","coordinates":[[22.904906546320294,52.070587796305226],[22.89234,52.06976],[22.88792,52.06961],[22.88419,52.06961],[22.8797,52.06977],[22.87483,52.07014],[22.87008,52.07069],[22.866998199999998,52.07116872621359]]}},{"type":"Feature","properties":{"numer":"A2","klasa":"autostrada","kat":"krajowa"},"geometry":{"type":"LineString","coordinates":[[22.863982395209582,52.071699520958084],[22.86398,52.0717]]}},{"type":"Feature","properties":{"numer":"A2,E30","klasa":"autostrada","kat":"krajowa"},"geometry":{"type":"LineString","coordinates":[[22.839714256631204,52.07724300192781],[22.84652,52.07587],[22.85948,52.07269],[22.86398,52.0717]]}},{"type":"Feature","properties":{"numer":"2039W","klasa":"","kat":"powiatowa"},"geometry":{"type":"LineString","coordinates":[[22.864291033161958,52.071834145893504],[22.86507,52.07496],[22.86506,52.07528],[22.86455,52.07582],[22.86415,52.07611],[22.86366,52.0764],[22.86244,52.0769],[22.86164,52.07755]]}},{"type":"Feature","properties":{"numer":"1010L","klasa":"droga zbiorcza","kat":"powiatowa"},"geometry":{"type":"LineString","coordinates":[[22.81834,52.08043],[22.81858446343042,52.080353605178]]}},{"type":"Feature","properties":{"numer":"2034W","klasa":"droga zbiorcza","kat":"powiatowa"},"geometry":{"type":"LineString","coordinates":[[22.81615,52.08106],[22.817406125026984,52.08024495704356]]}},{"type":"Feature","properties":{"numer":"2034W","klasa":"droga zbiorcza","kat":"powiatowa"},"geometry":{"type":"LineString","coordinates":[[22.81615,52.08106],[22.81696,52.08074],[22.81834,52.08043]]}},{"type":"Feature","properties":{"numer":"2034W","klasa":"droga zbiorcza","kat":"powiatowa"},"geometry":{"type":"LineString","coordinates":[[22.81568,52.08136],[22.81615,52.08106]]}},{"type":"Feature","properties":{"numer":"2039W","klasa":"","kat":"powiatowa"},"geometry":{"type":"LineString","coordinates":[[22.86164,52.07755],[22.86511,52.07919],[22.86385,52.07988],[22.86201,52.0816],[22.86013,52.08547],[22.85816,52.1077]]}},{"type":"Feature","properties":{"numer":"2041W","klasa":"","kat":"powiatowa"},"geometry":{"type":"LineString","coordinates":[[22.83574,52.10829],[22.84268,52.1036],[22.84398,52.10392],[22.84427,52.10384],[22.84558,52.10243],[22.84771,52.09968],[22.84789,52.09935],[22.848,52.09869],[22.84919,52.0845],[22.84929,52.08364],[22.84957,52.08312],[22.85035,52.0824],[22.85127,52.08188],[22.86164,52.07755]]}},{"type":"Feature","properties":{"numer":"2034W","klasa":"droga zbiorcza","kat":"powiatowa"},"geometry":{"type":"LineString","coordinates":[[22.83574,52.10829],[22.83393,52.10383],[22.83318,52.10235],[22.82849,52.10117],[22.82795,52.10045],[22.82165,52.09813],[22.8081,52.09086],[22.80793,52.09053],[22.80772,52.08753],[22.80783,52.08699],[22.80824,52.08621]]}},{"type":"Feature","properties":{"numer":"1015L","klasa":"droga zbiorcza","kat":"powiatowa"},"geometry":{"type":"LineString","coordinates":[[22.8946,52.09854],[22.89459,52.09854]]}},{"type":"Feature","properties":{"numer":"2024W","klasa":"droga zbiorcza","kat":"powiatowa"},"geometry":{"type":"LineString","coordinates":[[22.89459,52.09854],[22.86555,52.10596],[22.86011,52.1073],[22.85816,52.1077]]}},{"type":"Feature","properties":{"numer":"2024W","klasa":"droga zbiorcza","kat":"powiatowa"},"geometry":{"type":"LineString","coordinates":[[22.85816,52.1077],[22.85326,52.1086],[22.85255,52.10882]]}},{"type":"Feature","properties":{"numer":"2024W","klasa":"droga zbiorcza","kat":"powiatowa"},"geometry":{"type":"LineString","coordinates":[[22.85255,52.10882],[22.85244,52.10886]]}},{"type":"Feature","properties":{"numer":"2034W","klasa":"droga zbiorcza","kat":"powiatowa"},"geometry":{"type":"LineString","coordinates":[[22.8408,52.11517],[22.83705,52.11145],[22.83574,52.10829]]}},{"type":"Feature","properties":{"numer":"2024W","klasa":"droga zbiorcza","kat":"powiatowa"},"geometry":{"type":"LineString","coordinates":[[22.85244,52.10886],[22.84133,52.11479],[22.8408,52.11517]]}},{"type":"Feature","properties":{"numer":"2034W","klasa":"droga zbiorcza","kat":"powiatowa"},"geometry":{"type":"LineString","coordinates":[[22.84001,52.13728],[22.84201,52.13569],[22.84216,52.13549],[22.84219,52.13289],[22.84338,52.12127],[22.84317,52.12004],[22.8408,52.11517]]}},{"type":"Feature","properties":{"numer":"2037W","klasa":"","kat":"powiatowa"},"geometry":{"type":"LineString","coordinates":[[22.84311,52.13867],[22.84662,52.13831],[22.85026,52.1375],[22.85665,52.13546],[22.86614,52.12934],[22.86792,52.12868],[22.8705,52.12793],[22.87726,52.12502],[22.88065,52.12339],[22.88503,52.12162],[22.88872,52.12035],[22.88928,52.12048],[22.88961,52.12068],[22.89099,52.12221],[22.89272,52.1245],[22.90327,52.1224],[22.91182,52.12054]]}},{"type":"Feature","properties":{"numer":"2033W","klasa":"droga zbiorcza","kat":"powiatowa"},"geometry":{"type":"LineString","coordinates":[[22.84001,52.13728],[22.82976,52.13923],[22.82908,52.13926],[22.82851,52.13904],[22.81828,52.13381]]}},{"type":"Feature","properties":{"numer":"2034W","klasa":"droga zbiorcza","kat":"powiatowa"},"geometry":{"type":"LineString","coordinates":[[22.84001,52.13728],[22.84181,52.1382]]}},{"type":"Feature","properties":{"numer":"2034W","klasa":"droga zbiorcza","kat":"powiatowa"},"geometry":{"type":"LineString","coordinates":[[22.84181,52.1382],[22.84186,52.13825]]}},{"type":"Feature","properties":{"numer":"2034W","klasa":"droga zbiorcza","kat":"powiatowa"},"geometry":{"type":"LineString","coordinates":[[22.84186,52.13825],[22.84218,52.13846],[22.84311,52.13867]]}},{"type":"Feature","properties":{"numer":"1015L","klasa":"droga zbiorcza","kat":"powiatowa"},"geometry":{"type":"LineString","coordinates":[[22.894718763228123,52.09850920953345],[22.8946,52.09854]]}},{"type":"Feature","properties":{"numer":"2037W","klasa":"","kat":"powiatowa"},"geometry":{"type":"LineString","coordinates":[[22.91182,52.12054],[22.91817,52.13129],[22.91894,52.13203],[22.92188,52.13345],[22.9226,52.13389],[22.92264,52.13534],[22.92294,52.13645],[22.9237,52.13818],[22.92476,52.13989]]}},{"type":"Feature","properties":{"numer":"1019L","klasa":"","kat":"powiatowa"},"geometry":{"type":"LineString","coordinates":[[22.93426,52.13795],[22.93443956803684,52.13793606799714]]}},{"type":"Feature","properties":{"numer":"2021W","klasa":"","kat":"powiatowa"},"geometry":{"type":"LineString","coordinates":[[22.92476,52.13989],[22.92666,52.13894],[22.92794,52.13849],[22.93426,52.13795]]}},{"type":"Feature","properties":{"numer":"2021W","klasa":"","kat":"powiatowa"},"geometry":{"type":"LineString","coordinates":[[22.92108,52.14235],[22.92317,52.14107],[22.92476,52.13989]]}},{"type":"Feature","properties":{"numer":"2021W","klasa":"","kat":"powiatowa"},"geometry":{"type":"LineString","coordinates":[[22.88227,52.16227],[22.89237,52.15933],[22.89307,52.15901],[22.92108,52.14235]]}},{"type":"Feature","properties":{"numer":"2022W","klasa":"","kat":"powiatowa"},"geometry":{"type":"LineString","coordinates":[[22.94808,52.17006],[22.92842,52.16281],[22.92786,52.16251],[22.9266,52.1616],[22.92179,52.15787],[22.92151,52.15736],[22.92112,52.1557],[22.92076,52.15525],[22.91989,52.15449],[22.91944,52.15383],[22.91932,52.15328],[22.91959,52.15184],[22.91945,52.14862],[22.92072,52.14315],[22.92108,52.14235]]}},{"type":"Feature","properties":{"numer":"2019W","klasa":"droga zbiorcza","kat":"powiatowa"},"geometry":{"type":"LineString","coordinates":[[22.94808,52.17006],[22.95539,52.16464],[22.96959954386526,52.15356711087725]]}},{"type":"Feature","properties":{"numer":"3666W","klasa":"droga zbiorcza","kat":"powiatowa"},"geometry":{"type":"LineString","coordinates":[[22.60014264309985,52.12605874887772],[22.60374,52.1251],[22.60492,52.12503],[22.60782,52.12514],[22.60935,52.12614],[22.62369,52.13625]]}},{"type":"Feature","properties":{"numer":"3667W","klasa":"","kat":"powiatowa"},"geometry":{"type":"LineString","coordinates":[[22.597591119896727,52.13372334839438],[22.59959,52.13715],[22.59968,52.13754],[22.59884,52.13889],[22.59582,52.14066],[22.59577,52.14076],[22.59457,52.15125],[22.5947,52.15175],[22.59821,52.15855],[22.59831,52.15893]]}},{"type":"Feature","properties":{"numer":"3665W","klasa":"","kat":"powiatowa"},"geometry":{"type":"LineString","coordinates":[[22.59831,52.15893],[22.60021,52.1575],[22.6012,52.15688],[22.60526,52.15502],[22.60988,52.15197],[22.61302,52.14938],[22.61677,52.14717],[22.61717,52.14686],[22.62369,52.13625]]}},{"type":"Feature","properties":{"numer":"3665W","klasa":"","kat":"powiatowa"},"geometry":{"type":"LineString","coordinates":[[22.58554,52.1648],[22.58733,52.16427],[22.58975,52.16406],[22.59196,52.16365],[22.59289,52.16184],[22.59342,52.16127],[22.59424,52.16081],[22.59792,52.15919],[22.59831,52.15893]]}},{"type":"Feature","properties":{"numer":"3665W","klasa":"droga zbiorcza","kat":"powiatowa"},"geometry":{"type":"LineString","coordinates":[[22.58554,52.1648],[22.585536294950952,52.16480128030609]]}},{"type":"Feature","properties":{"numer":"A2,E30","klasa":"autostrada","kat":"krajowa"},"geometry":{"type":"LineString","coordinates":[[22.774847828239068,52.07611979903783],[22.78813,52.07806],[22.79624,52.079],[22.80239,52.07945],[22.80687,52.07966],[22.81144,52.07972],[22.81168007827005,52.07971698961417]]}},{"type":"Feature","properties":{"numer":"2034W","klasa":"droga zbiorcza","kat":"powiatowa"},"geometry":{"type":"LineString","coordinates":[[22.80883,52.08582],[22.80963,52.08538],[22.81568,52.08136]]}},{"type":"Feature","properties":{"numer":"2038W","klasa":"","kat":"powiatowa"},"geometry":{"type":"LineString","coordinates":[[22.80611,52.0854],[22.80623,52.08543]]}},{"type":"Feature","properties":{"numer":"2038W","klasa":"","kat":"powiatowa"},"geometry":{"type":"LineString","coordinates":[[22.80623,52.08543],[22.80788,52.08579]]}},{"type":"Feature","properties":{"numer":"2038W","klasa":"","kat":"powiatowa"},"geometry":{"type":"LineString","coordinates":[[22.80788,52.08579],[22.80835,52.08585],[22.80883,52.08582]]}},{"type":"Feature","properties":{"numer":"19","klasa":"droga gĹ‚Ăłwna ruchu przyĹ›pieszonego","kat":"krajowa"},"geometry":{"type":"LineString","coordinates":[[22.74258,52.09636],[22.74239,52.09623],[22.742260638839632,52.09608791479107]]}},{"type":"Feature","properties":{"numer":"2033W","klasa":"droga zbiorcza","kat":"powiatowa"},"geometry":{"type":"LineString","coordinates":[[22.720015451846354,52.101497043978476],[22.72066,52.10147],[22.72126,52.10157],[22.72172,52.1018],[22.72327,52.10288],[22.72897,52.10508],[22.72976,52.10524],[22.73457,52.1053],[22.73586,52.1051],[22.7382,52.10509],[22.74001,52.10447],[22.74362,52.10404],[22.74623,52.10351]]}},{"type":"Feature","properties":{"numer":"1006L","klasa":"","kat":"powiatowa"},"geometry":{"type":"LineString","coordinates":[[22.691458413619166,52.113885240857506],[22.69147,52.11392],[22.69183,52.11428]]}},{"type":"Feature","properties":{"numer":"2038W","klasa":"","kat":"powiatowa"},"geometry":{"type":"LineString","coordinates":[[22.80824,52.08621],[22.80819,52.08595],[22.80788,52.08579]]}},{"type":"Feature","properties":{"numer":"2034W","klasa":"droga zbiorcza","kat":"powiatowa"},"geometry":{"type":"LineString","coordinates":[[22.80824,52.08621],[22.80883,52.08582]]}},{"type":"Feature","properties":{"numer":"2038W","klasa":"","kat":"powiatowa"},"geometry":{"type":"LineString","coordinates":[[22.79514,52.08799],[22.79948,52.08695],[22.79986,52.08666],[22.80182,52.08451],[22.802,52.08441],[22.80239,52.08441],[22.80611,52.0854]]}},{"type":"Feature","properties":{"numer":"2038W","klasa":"","kat":"powiatowa"},"geometry":{"type":"LineString","coordinates":[[22.77198,52.09694],[22.77707,52.09548],[22.7781,52.09506],[22.78107,52.09327],[22.78457,52.09062],[22.78528,52.09027],[22.79514,52.08799]]}},{"type":"Feature","properties":{"numer":"19","klasa":"droga gĹ‚Ăłwna ruchu przyĹ›pieszonego","kat":"krajowa"},"geometry":{"type":"LineString","coordinates":[[22.74639,52.10293],[22.74682,52.10089],[22.74671,52.10007],[22.7464,52.09936],[22.74584,52.0987],[22.7453,52.09824],[22.74258,52.09636]]}},{"type":"Feature","properties":{"numer":"2038W","klasa":"","kat":"powiatowa"},"geometry":{"type":"LineString","coordinates":[[22.75788,52.10268],[22.75984,52.10139],[22.76376,52.09932],[22.77198,52.09694]]}},{"type":"Feature","properties":{"numer":"2033W","klasa":"droga zbiorcza","kat":"powiatowa"},"geometry":{"type":"LineString","coordinates":[[22.74639,52.10293],[22.7574,52.10262],[22.75788,52.10268]]}},{"type":"Feature","properties":{"numer":"19","klasa":"droga gĹ‚Ăłwna ruchu przyĹ›pieszonego","kat":"krajowa"},"geometry":{"type":"LineString","coordinates":[[22.74623,52.10351],[22.74639,52.10293]]}},{"type":"Feature","properties":{"numer":"19","klasa":"droga gĹ‚Ăłwna ruchu przyĹ›pieszonego","kat":"krajowa"},"geometry":{"type":"LineString","coordinates":[[22.75626,52.11779],[22.75596,52.11726],[22.75487,52.1162],[22.75341,52.11451],[22.74777,52.10754],[22.74632,52.10487],[22.74616,52.10421],[22.74623,52.10351]]}},{"type":"Feature","properties":{"numer":"2033W","klasa":"droga zbiorcza","kat":"powiatowa"},"geometry":{"type":"LineString","coordinates":[[22.81828,52.13381],[22.81056,52.13138],[22.80888,52.13106],[22.80761,52.13068],[22.80342,52.12845],[22.80041,52.12707],[22.8004,52.12681],[22.80111,52.12628],[22.80506,52.1242],[22.80736,52.12095],[22.80753,52.12044],[22.80556,52.11799],[22.80405,52.11749],[22.80266,52.11687],[22.80161,52.11609],[22.79516,52.11046],[22.79485,52.11037],[22.78576,52.10997],[22.78458,52.10979],[22.76309,52.10518],[22.7583,52.10371],[22.75788,52.10268]]}},{"type":"Feature","properties":{"numer":"2050W","klasa":"droga zbiorcza","kat":"powiatowa"},"geometry":{"type":"LineString","coordinates":[[22.648236435562804,52.09090764274062],[22.6493,52.09233],[22.66049,52.10587]]}},{"type":"Feature","properties":{"numer":"2033W","klasa":"droga zbiorcza","kat":"powiatowa"},"geometry":{"type":"LineString","coordinates":[[22.66049,52.10587],[22.66441,52.1034],[22.666886431226768,52.1034]]}},{"type":"Feature","properties":{"numer":"2050W","klasa":"droga zbiorcza","kat":"powiatowa"},"geometry":{"type":"LineString","coordinates":[[22.66049,52.10587],[22.6487,52.11353]]}},{"type":"Feature","properties":{"numer":"3665W","klasa":"","kat":"powiatowa"},"geometry":{"type":"LineString","coordinates":[[22.62369,52.13625],[22.63028,52.12542],[22.6487,52.11353]]}},{"type":"Feature","properties":{"numer":"2050W","klasa":"droga zbiorcza","kat":"powiatowa"},"geometry":{"type":"LineString","coordinates":[[22.6487,52.11353],[22.6491,52.114],[22.64934,52.11456],[22.65554,52.13184],[22.66863,52.14633]]}},{"type":"Feature","properties":{"numer":"2032W","klasa":"","kat":"powiatowa"},"geometry":{"type":"LineString","coordinates":[[22.66863,52.14633],[22.6746,52.14473],[22.67656,52.14404],[22.67787,52.14267],[22.684,52.13752],[22.6923,52.13167],[22.69535,52.12968],[22.69578,52.12954],[22.69613,52.12952],[22.6991,52.12987]]}},{"type":"Feature","properties":{"numer":"2032W","klasa":"","kat":"powiatowa"},"geometry":{"type":"LineString","coordinates":[[22.69183,52.11428],[22.69181,52.11448],[22.68935,52.11562],[22.688,52.11638],[22.69254,52.11954],[22.69435,52.12062],[22.69525,52.12135],[22.69688,52.12289]]}},{"type":"Feature","properties":{"numer":"2032W","klasa":"","kat":"powiatowa"},"geometry":{"type":"LineString","coordinates":[[22.69688,52.12289],[22.69699,52.12297],[22.6991,52.12987]]}},{"type":"Feature","properties":{"numer":"2031W","klasa":"","kat":"powiatowa"},"geometry":{"type":"LineString","coordinates":[[22.6991,52.12987],[22.70128,52.1347],[22.7015,52.13481],[22.70315,52.13502],[22.70355,52.13523],[22.70372,52.13546],[22.70379,52.13593],[22.70352,52.1374],[22.7036,52.13939],[22.74578,52.14457],[22.74795,52.1445]]}},{"type":"Feature","properties":{"numer":"2030W","klasa":"","kat":"powiatowa"},"geometry":{"type":"LineString","coordinates":[[22.68988,52.17639],[22.69217,52.17679],[22.70056,52.17651],[22.70068,52.1763],[22.69983,52.17421],[22.69984,52.17391],[22.70576,52.17107],[22.7138,52.16837],[22.72443,52.16577],[22.73758,52.16114],[22.74266,52.16019],[22.74561,52.15912],[22.74643,52.15891],[22.74681,52.15889]]}},{"type":"Feature","properties":{"numer":"2050W","klasa":"droga zbiorcza","kat":"powiatowa"},"geometry":{"type":"LineString","coordinates":[[22.68698,52.17197],[22.68704,52.17202]]}},{"type":"Feature","properties":{"numer":"2050W","klasa":"droga zbiorcza","kat":"powiatowa"},"geometry":{"type":"LineString","coordinates":[[22.68704,52.17202],[22.68842,52.17324],[22.68959,52.17444],[22.68975,52.17493],[22.68988,52.17639]]}},{"type":"Feature","properties":{"numer":"2029W","klasa":"","kat":"powiatowa"},"geometry":{"type":"LineString","coordinates":[[22.69406,52.18558],[22.70784,52.18137],[22.71023,52.18093],[22.71296,52.18072],[22.74205,52.16983]]}},{"type":"Feature","properties":{"numer":"2050W","klasa":"droga zbiorcza","kat":"powiatowa"},"geometry":{"type":"LineString","coordinates":[[22.68988,52.17639],[22.68997,52.17778],[22.68955,52.17952],[22.69062,52.18257],[22.69102,52.18304],[22.69406,52.18558]]}},{"type":"Feature","properties":{"numer":"19","klasa":"droga gĹ‚Ăłwna ruchu przyĹ›pieszonego","kat":"krajowa"},"geometry":{"type":"LineString","coordinates":[[22.72697,52.19779],[22.72717,52.19682],[22.72762,52.19587],[22.74128,52.17219],[22.74164,52.17137],[22.74205,52.16983]]}},{"type":"Feature","properties":{"numer":"2035W","klasa":"","kat":"powiatowa"},"geometry":{"type":"LineString","coordinates":[[22.81828,52.13381],[22.8125,52.13482],[22.80787,52.13553],[22.78399,52.13545],[22.78352,52.13538],[22.7816,52.13457],[22.77805,52.13233],[22.77434,52.1296],[22.76201,52.1209],[22.76206,52.12036],[22.76195,52.12025],[22.76001,52.11927],[22.75748,52.11849],[22.75664,52.11783],[22.75626,52.11779]]}},{"type":"Feature","properties":{"numer":"19","klasa":"droga gĹ‚Ăłwna ruchu przyĹ›pieszonego","kat":"krajowa"},"geometry":{"type":"LineString","coordinates":[[22.74795,52.1445],[22.75628,52.11874],[22.75635,52.11827],[22.75626,52.11779]]}},{"type":"Feature","properties":{"numer":"19","klasa":"droga gĹ‚Ăłwna ruchu przyĹ›pieszonego","kat":"krajowa"},"geometry":{"type":"LineString","coordinates":[[22.74681,52.15889],[22.74876,52.15542],[22.74904,52.1545],[22.749,52.15374],[22.74878,52.15307],[22.7472,52.15016],[22.74697,52.14944],[22.74727,52.14668],[22.74795,52.1445]]}},{"type":"Feature","properties":{"numer":"19","klasa":"droga gĹ‚Ăłwna ruchu przyĹ›pieszonego","kat":"krajowa"},"geometry":{"type":"LineString","coordinates":[[22.74205,52.16983],[22.74305,52.16579],[22.74344,52.16464],[22.74681,52.15889]]}},{"type":"Feature","properties":{"numer":"2040W","klasa":"","kat":"powiatowa"},"geometry":{"type":"LineString","coordinates":[[22.78517,52.18724],[22.77955,52.1744],[22.77932,52.17418],[22.7788,52.17417],[22.77864,52.17408],[22.77725,52.17088],[22.78992,52.16902],[22.79121,52.16912],[22.79491,52.17019],[22.79567,52.17023],[22.79705,52.16956],[22.79771,52.16912],[22.80521,52.17502],[22.80688,52.17644],[22.80746,52.17715]]}},{"type":"Feature","properties":{"numer":"698","klasa":"droga gĹ‚Ăłwna","kat":"wojewodzka"},"geometry":{"type":"LineString","coordinates":[[22.78779,52.19314],[22.81434,52.18717]]}},{"type":"Feature","properties":{"numer":"2040W","klasa":"","kat":"powiatowa"},"geometry":{"type":"LineString","coordinates":[[22.78517,52.18724],[22.78779,52.19314]]}},{"type":"Feature","properties":{"numer":"698","klasa":"droga gĹ‚Ăłwna","kat":"wojewodzka"},"geometry":{"type":"LineString","coordinates":[[22.77608,52.19666],[22.77916,52.19505],[22.78779,52.19314]]}},{"type":"Feature","properties":{"numer":"698","klasa":"droga gĹ‚Ăłwna","kat":"wojewodzka"},"geometry":{"type":"LineString","coordinates":[[22.73115,52.21062],[22.7335,52.21051],[22.73995,52.20999],[22.74898,52.20753],[22.76064,52.20421],[22.76171,52.20376],[22.77608,52.19666]]}},{"type":"Feature","properties":{"numer":"2026W","klasa":"","kat":"powiatowa"},"geometry":{"type":"LineString","coordinates":[[22.79507,52.22575],[22.7934,52.22408],[22.79289,52.2241],[22.79274,52.22402],[22.7862,52.21452],[22.78476,52.21265],[22.77865,52.20122],[22.77608,52.19666]]}},{"type":"Feature","properties":{"numer":"3666W","klasa":"droga zbiorcza","kat":"powiatowa"},"geometry":{"type":"LineString","coordinates":[[22.62369,52.13625],[22.64719,52.15279],[22.65368,52.1504],[22.66863,52.14633]]}},{"type":"Feature","properties":{"numer":"2050W","klasa":"droga zbiorcza","kat":"powiatowa"},"geometry":{"type":"LineString","coordinates":[[22.66863,52.14633],[22.67244,52.15073],[22.67767,52.1583],[22.67772,52.15873],[22.67695,52.16206],[22.67731,52.16423]]}},{"type":"Feature","properties":{"numer":"2050W","klasa":"droga zbiorcza","kat":"powiatowa"},"geometry":{"type":"LineString","coordinates":[[22.67731,52.16423],[22.67731,52.16426]]}},{"type":"Feature","properties":{"numer":"2050W","klasa":"droga zbiorcza","kat":"powiatowa"},"geometry":{"type":"LineString","coordinates":[[22.67731,52.16426],[22.67574,52.16811],[22.67564,52.16862]]}},{"type":"Feature","properties":{"numer":"2050W","klasa":"droga zbiorcza","kat":"powiatowa"},"geometry":{"type":"LineString","coordinates":[[22.67564,52.16862],[22.6803,52.16957],[22.68564,52.17123],[22.68634,52.17155],[22.68698,52.17197]]}},{"type":"Feature","properties":{"numer":"2028W","klasa":"","kat":"powiatowa"},"geometry":{"type":"LineString","coordinates":[[22.67564,52.16862],[22.6757,52.16986],[22.67659,52.17227],[22.6764,52.17441],[22.67643,52.17713],[22.67301,52.18769]]}},{"type":"Feature","properties":{"numer":"2042W","klasa":"","kat":"powiatowa"},"geometry":{"type":"LineString","coordinates":[[22.628741089112637,52.19904425049842],[22.6296,52.19451],[22.63093,52.18966],[22.64974,52.18949],[22.65167,52.18918],[22.65765,52.18849],[22.66789,52.18743],[22.67301,52.18769]]}},{"type":"Feature","properties":{"numer":"698","klasa":"droga gĹ‚Ăłwna","kat":"wojewodzka"},"geometry":{"type":"LineString","coordinates":[[22.64479900335453,52.21326123651388],[22.6556,52.21327],[22.65641,52.21321],[22.66335,52.21228],[22.67509,52.21213]]}},{"type":"Feature","properties":{"numer":"2025W","klasa":"","kat":"powiatowa"},"geometry":{"type":"LineString","coordinates":[[22.68364,52.22956],[22.68268,52.22896],[22.68156,52.22872],[22.67807,52.22917],[22.67508,52.22892],[22.67485,52.22882],[22.67524,52.22133],[22.67503,52.21399],[22.67509,52.21213]]}},{"type":"Feature","properties":{"numer":"2025W","klasa":"","kat":"powiatowa"},"geometry":{"type":"LineString","coordinates":[[22.6837,52.2296],[22.68364,52.22956]]}},{"type":"Feature","properties":{"numer":"1025L","klasa":"","kat":"powiatowa"},"geometry":{"type":"LineString","coordinates":[[23.023844881527104,52.17415119622662],[23.02385,52.17416]]}},{"type":"Feature","properties":{"numer":"1024L","klasa":"","kat":"powiatowa"},"geometry":{"type":"LineString","coordinates":[[22.9927,52.17362],[22.992704784633293,52.1736152153667]]}},{"type":"Feature","properties":{"numer":"2020W","klasa":"","kat":"powiatowa"},"geometry":{"type":"LineString","coordinates":[[23.02386,52.17417],[23.02385,52.17416]]}},{"type":"Feature","properties":{"numer":"2034W","klasa":"droga zbiorcza","kat":"powiatowa"},"geometry":{"type":"LineString","coordinates":[[22.83161,52.17054],[22.83203,52.17031],[22.83424,52.16564],[22.83947,52.15152],[22.8433,52.14218],[22.84341,52.13995],[22.84327,52.13894],[22.84311,52.13867]]}},{"type":"Feature","properties":{"numer":"2021W","klasa":"","kat":"powiatowa"},"geometry":{"type":"LineString","coordinates":[[22.88553,52.16735],[22.88227,52.16227]]}},{"type":"Feature","properties":{"numer":"2036W","klasa":"","kat":"powiatowa"},"geometry":{"type":"LineString","coordinates":[[22.83161,52.17054],[22.8321,52.17063],[22.84495,52.17096],[22.84596,52.17092],[22.85122,52.1698],[22.85406,52.16811],[22.85468,52.16786],[22.85552,52.16775],[22.86311,52.16758],[22.86454,52.16739],[22.88227,52.16227]]}},{"type":"Feature","properties":{"numer":"2021W","klasa":"","kat":"powiatowa"},"geometry":{"type":"LineString","coordinates":[[22.88553,52.16735],[22.88556,52.16739]]}},{"type":"Feature","properties":{"numer":"2034W","klasa":"droga zbiorcza","kat":"powiatowa"},"geometry":{"type":"LineString","coordinates":[[22.83016,52.17069],[22.83161,52.17054]]}},{"type":"Feature","properties":{"numer":"2021W","klasa":"","kat":"powiatowa"},"geometry":{"type":"LineString","coordinates":[[22.88556,52.16739],[22.88582,52.16781],[22.88708,52.17154],[22.88712,52.17194],[22.88689,52.17218],[22.88511,52.1732],[22.88234,52.17463],[22.88144,52.17835]]}},{"type":"Feature","properties":{"numer":"2040W","klasa":"","kat":"powiatowa"},"geometry":{"type":"LineString","coordinates":[[22.80746,52.17715],[22.80936,52.17633],[22.81569,52.1733],[22.81739,52.17298],[22.82314,52.17072],[22.82437,52.17045],[22.82522,52.17038],[22.82899,52.17053],[22.83016,52.17069]]}},{"type":"Feature","properties":{"numer":"2034W","klasa":"droga zbiorcza","kat":"powiatowa"},"geometry":{"type":"LineString","coordinates":[[22.81434,52.18717],[22.81446,52.18681],[22.81933,52.17974],[22.82416,52.17295],[22.82488,52.1726],[22.83016,52.17069]]}},{"type":"Feature","properties":{"numer":"698","klasa":"droga gĹ‚Ăłwna","kat":"wojewodzka"},"geometry":{"type":"LineString","coordinates":[[22.85667,52.1827],[22.87013,52.18359],[22.87554,52.1836],[22.87954,52.1827],[22.88017,52.18239],[22.88049,52.18184],[22.88144,52.17835]]}},{"type":"Feature","properties":{"numer":"698","klasa":"droga gĹ‚Ăłwna","kat":"wojewodzka"},"geometry":{"type":"LineString","coordinates":[[22.81434,52.18717],[22.83936,52.18159],[22.83994,52.18157],[22.84249,52.18182],[22.84383,52.18178],[22.84712,52.18207],[22.85667,52.1827]]}},{"type":"Feature","properties":{"numer":"2019W","klasa":"droga zbiorcza","kat":"powiatowa"},"geometry":{"type":"LineString","coordinates":[[22.93738,52.1815],[22.9414,52.17711],[22.94502,52.17286],[22.94808,52.17006]]}},{"type":"Feature","properties":{"numer":"698","klasa":"droga gĹ‚Ăłwna","kat":"wojewodzka"},"geometry":{"type":"LineString","coordinates":[[22.88144,52.17835],[22.88166,52.17815],[22.88211,52.17813],[22.90114,52.18023],[22.91207,52.18156],[22.92993,52.18543]]}},{"type":"Feature","properties":{"numer":"698","klasa":"droga gĹ‚Ăłwna","kat":"wojewodzka"},"geometry":{"type":"LineString","coordinates":[[22.93335,52.18591],[22.93546,52.18372],[22.93738,52.1815]]}},{"type":"Feature","properties":{"numer":"698","klasa":"droga gĹ‚Ăłwna","kat":"wojewodzka"},"geometry":{"type":"LineString","coordinates":[[22.93738,52.1815],[22.93877,52.18185],[22.94594,52.18304],[22.97992,52.18674],[22.99265,52.18665]]}},{"type":"Feature","properties":{"numer":"698","klasa":"droga gĹ‚Ăłwna","kat":"wojewodzka"},"geometry":{"type":"LineString","coordinates":[[22.92993,52.18543],[22.93261,52.18598]]}},{"type":"Feature","properties":{"numer":"698","klasa":"droga gĹ‚Ăłwna","kat":"wojewodzka"},"geometry":{"type":"LineString","coordinates":[[22.93261,52.18598],[22.933,52.18601],[22.93335,52.18591]]}},{"type":"Feature","properties":{"numer":"698","klasa":"droga gĹ‚Ăłwna","kat":"wojewodzka"},"geometry":{"type":"LineString","coordinates":[[22.93315,52.18614],[22.93335,52.18591]]}},{"type":"Feature","properties":{"numer":"698","klasa":"droga gĹ‚Ăłwna","kat":"wojewodzka"},"geometry":{"type":"LineString","coordinates":[[22.93261,52.18598],[22.93315,52.18614]]}},{"type":"Feature","properties":{"numer":"2013W","klasa":"droga zbiorcza","kat":"powiatowa"},"geometry":{"type":"LineString","coordinates":[[22.93301,52.1864],[22.93315,52.18614]]}},{"type":"Feature","properties":{"numer":"2015W","klasa":"","kat":"powiatowa"},"geometry":{"type":"LineString","coordinates":[[22.89212,52.20284],[22.89365,52.19569],[22.89381,52.19549],[22.90836,52.19507],[22.90863,52.19488],[22.91075,52.19174],[22.91104,52.19137],[22.91132,52.19119],[22.92993,52.18543]]}},{"type":"Feature","properties":{"numer":"2047W","klasa":"","kat":"powiatowa"},"geometry":{"type":"LineString","coordinates":[[22.99265,52.18665],[22.99236,52.18524],[22.99262,52.17372],[22.9927,52.17362]]}},{"type":"Feature","properties":{"numer":"2020W","klasa":"","kat":"powiatowa"},"geometry":{"type":"LineString","coordinates":[[23.03712,52.18795],[23.0371,52.1878],[23.02386,52.17417]]}},{"type":"Feature","properties":{"numer":"698","klasa":"droga gĹ‚Ăłwna","kat":"wojewodzka"},"geometry":{"type":"LineString","coordinates":[[22.99265,52.18665],[22.99493,52.18685],[23.02743,52.18769]]}},{"type":"Feature","properties":{"numer":"698","klasa":"droga gĹ‚Ăłwna","kat":"wojewodzka"},"geometry":{"type":"LineString","coordinates":[[23.02743,52.18769],[23.03712,52.18795]]}},{"type":"Feature","properties":{"numer":"698","klasa":"droga gĹ‚Ăłwna","kat":"wojewodzka"},"geometry":{"type":"LineString","coordinates":[[23.03712,52.18795],[23.03822142094773,52.18801704301421]]}},{"type":"Feature","properties":{"numer":"2017W","klasa":"","kat":"powiatowa"},"geometry":{"type":"LineString","coordinates":[[23.02743,52.18769],[23.02723,52.18932],[23.02741,52.19085],[23.02736,52.19146],[23.02356,52.20296],[23.02337,52.20338],[23.01685,52.21347]]}},{"type":"Feature","properties":{"numer":"2014W","klasa":"","kat":"powiatowa"},"geometry":{"type":"LineString","coordinates":[[22.81896,52.19149],[22.8178,52.19061],[22.81434,52.18717]]}},{"type":"Feature","properties":{"numer":"2014W","klasa":"","kat":"powiatowa"},"geometry":{"type":"LineString","coordinates":[[22.82155,52.19349],[22.81896,52.19149]]}},{"type":"Feature","properties":{"numer":"2046W","klasa":"","kat":"powiatowa"},"geometry":{"type":"LineString","coordinates":[[22.85667,52.1827],[22.85112,52.19524],[22.84995,52.19744],[22.84849,52.19872],[22.84807,52.19935],[22.85159,52.20614],[22.85209,52.20896],[22.85292,52.20963]]}},{"type":"Feature","properties":{"numer":"2014W","klasa":"","kat":"powiatowa"},"geometry":{"type":"LineString","coordinates":[[22.82155,52.19349],[22.82462,52.19591],[22.8272,52.19822],[22.82938,52.2006],[22.83068,52.20243],[22.83274,52.20681],[22.83574,52.21426]]}},{"type":"Feature","properties":{"numer":"2015W","klasa":"","kat":"powiatowa"},"geometry":{"type":"LineString","coordinates":[[22.89212,52.20284],[22.89175,52.20446],[22.8791,52.20603],[22.87695,52.20623],[22.87226,52.20647],[22.87062,52.20666],[22.86253,52.20904],[22.85883,52.21026],[22.85696,52.21096],[22.85596,52.21082],[22.85473,52.21052],[22.85292,52.20963]]}},{"type":"Feature","properties":{"numer":"2046W","klasa":"","kat":"powiatowa"},"geometry":{"type":"LineString","coordinates":[[22.85292,52.20963],[22.84647,52.21389],[22.83779,52.22006]]}},{"type":"Feature","properties":{"numer":"2014W","klasa":"","kat":"powiatowa"},"geometry":{"type":"LineString","coordinates":[[22.83574,52.21426],[22.83766,52.22005]]}},{"type":"Feature","properties":{"numer":"200411W","klasa":"droga lokalna","kat":"powiatowa"},"geometry":{"type":"LineString","coordinates":[[22.82683,52.21846],[22.8367,52.21992]]}},{"type":"Feature","properties":{"numer":"200411W","klasa":"droga lokalna","kat":"powiatowa"},"geometry":{"type":"LineString","coordinates":[[22.8367,52.21992],[22.83766,52.22005]]}},{"type":"Feature","properties":{"numer":"200437W","klasa":"droga dojazdowa","kat":"powiatowa"},"geometry":{"type":"LineString","coordinates":[[22.82683,52.21846],[22.82706,52.21937],[22.82801,52.22156]]}},{"type":"Feature","properties":{"numer":"200411W","klasa":"droga lokalna","kat":"powiatowa"},"geometry":{"type":"LineString","coordinates":[[22.83766,52.22005],[22.83779,52.22006]]}},{"type":"Feature","properties":{"numer":"200436W","klasa":"droga lokalna","kat":"powiatowa"},"geometry":{"type":"LineString","coordinates":[[22.83671,52.22021],[22.83766,52.22005]]}},{"type":"Feature","properties":{"numer":"200436W","klasa":"droga lokalna","kat":"powiatowa"},"geometry":{"type":"LineString","coordinates":[[22.8361,52.22032],[22.83671,52.22021]]}},{"type":"Feature","properties":{"numer":"2046W","klasa":"","kat":"powiatowa"},"geometry":{"type":"LineString","coordinates":[[22.83779,52.22006],[22.83912,52.2209]]}},{"type":"Feature","properties":{"numer":"2046W","klasa":"","kat":"powiatowa"},"geometry":{"type":"LineString","coordinates":[[22.83912,52.2209],[22.83918,52.22094]]}},{"type":"Feature","properties":{"numer":"200436W","klasa":"droga lokalna","kat":"powiatowa"},"geometry":{"type":"LineString","coordinates":[[22.82842,52.22235],[22.82939,52.22225],[22.83197,52.22178],[22.83526,52.22051],[22.8361,52.22032]]}},{"type":"Feature","properties":{"numer":"200437W","klasa":"droga dojazdowa","kat":"powiatowa"},"geometry":{"type":"LineString","coordinates":[[22.82801,52.22156],[22.82842,52.22235]]}},{"type":"Feature","properties":{"numer":"2046W","klasa":"","kat":"powiatowa"},"geometry":{"type":"LineString","coordinates":[[22.83918,52.22094],[22.84007,52.22142],[22.84183,52.22204],[22.84268,52.22249],[22.84245,52.22301],[22.84096,52.22501],[22.84534,52.22914],[22.84754,52.2313],[22.84774,52.23161],[22.84644,52.23908],[22.84659,52.23947],[22.8481,52.24106],[22.84782,52.24416],[22.848,52.24437]]}},{"type":"Feature","properties":{"numer":"2013W","klasa":"droga zbiorcza","kat":"powiatowa"},"geometry":{"type":"LineString","coordinates":[[22.848,52.24437],[22.84837,52.24413],[22.84883,52.24397],[22.86882,52.23939],[22.87423,52.23826],[22.87934,52.23736],[22.88746,52.23566],[22.90072,52.2337],[22.90758,52.23161]]}},{"type":"Feature","properties":{"numer":"2027W","klasa":"","kat":"powiatowa"},"geometry":{"type":"LineString","coordinates":[[22.80427,52.23493],[22.81395,52.24248],[22.81463,52.24286],[22.82475,52.24318],[22.8259,52.24329],[22.83459,52.24568],[22.84183,52.24595],[22.84796,52.24567]]}},{"type":"Feature","properties":{"numer":"2012W","klasa":"","kat":"powiatowa"},"geometry":{"type":"LineString","coordinates":[[22.93301,52.1864],[22.93514,52.1871],[22.94305,52.19016],[22.94376,52.19074],[22.94593,52.19323],[22.94629,52.19377],[22.95134,52.20659],[22.95146,52.22137]]}},{"type":"Feature","properties":{"numer":"2013W","klasa":"droga zbiorcza","kat":"powiatowa"},"geometry":{"type":"LineString","coordinates":[[22.90758,52.23161],[22.90786,52.23141],[22.90865,52.23013],[22.92095,52.20919],[22.93301,52.1864]]}},{"type":"Feature","properties":{"numer":"2012W","klasa":"","kat":"powiatowa"},"geometry":{"type":"LineString","coordinates":[[22.95146,52.22137],[22.95146,52.22229],[22.95134,52.22272],[22.94901,52.22626]]}},{"type":"Feature","properties":{"numer":"2016W","klasa":"","kat":"powiatowa"},"geometry":{"type":"LineString","coordinates":[[22.90758,52.23161],[22.94293,52.22113],[22.94359,52.22104],[22.94443,52.22103],[22.95146,52.22137]]}},{"type":"Feature","properties":{"numer":"2047W","klasa":"","kat":"powiatowa"},"geometry":{"type":"LineString","coordinates":[[22.94901,52.22626],[22.95193,52.22642],[22.95281,52.22658],[22.95913,52.22806],[22.96235,52.22888],[22.96345,52.22936],[22.96456,52.22966],[22.97204,52.23108],[22.97285,52.23116],[22.97443,52.23107],[22.97843,52.23155]]}},{"type":"Feature","properties":{"numer":"2012W","klasa":"","kat":"powiatowa"},"geometry":{"type":"LineString","coordinates":[[22.94901,52.22626],[22.94122,52.238],[22.94059,52.23903],[22.94051,52.23966],[22.94116,52.24201],[22.94139,52.2424],[22.94196,52.24288],[22.94339,52.24358],[22.94412,52.24406],[22.94469,52.24462],[22.945,52.24507],[22.94523,52.24576],[22.94534,52.24769],[22.94624,52.25061],[22.94765,52.25208],[22.94868,52.25288],[22.95282,52.25737],[22.95293,52.25766],[22.93341,52.2621],[22.9217,52.26505],[22.91682,52.26636]]}},{"type":"Feature","properties":{"numer":"2008W","klasa":"droga zbiorcza","kat":"powiatowa"},"geometry":{"type":"LineString","coordinates":[[22.91682,52.26636],[22.91519,52.26439],[22.91347,52.26287],[22.91173,52.26162],[22.91118,52.2613],[22.91076,52.26118],[22.90867,52.26106],[22.87715,52.25996]]}},{"type":"Feature","properties":{"numer":"2008W,2012W","klasa":"droga zbiorcza","kat":"powiatowa"},"geometry":{"type":"LineString","coordinates":[[22.91682,52.26636],[22.91727,52.26677]]}},{"type":"Feature","properties":{"numer":"2008W","klasa":"droga zbiorcza","kat":"powiatowa"},"geometry":{"type":"LineString","coordinates":[[22.91727,52.26677],[22.94027,52.2751],[22.94594,52.27653],[22.94774,52.27743],[22.94937,52.27812],[22.95102,52.27898],[22.95207,52.27936],[22.95466,52.27963],[22.95814,52.27947],[22.95978,52.27948],[22.96142,52.27971],[22.96313,52.28021],[22.9695,52.28257],[22.9797,52.28757]]}},{"type":"Feature","properties":{"numer":"2012W","klasa":"","kat":"powiatowa"},"geometry":{"type":"LineString","coordinates":[[22.91186,52.30367],[22.91193,52.30344],[22.91169,52.30161],[22.91171,52.29932],[22.91296,52.29615],[22.91325,52.29484],[22.91331,52.29401],[22.91387,52.29196],[22.91468,52.28773],[22.91718,52.27921],[22.91745,52.27785],[22.91753,52.27677],[22.91784,52.27557],[22.91846,52.26893],[22.91836,52.26848],[22.91727,52.26677]]}},{"type":"Feature","properties":{"numer":"2047W","klasa":"","kat":"powiatowa"},"geometry":{"type":"LineString","coordinates":[[22.97843,52.23155],[22.98693,52.2236],[22.98812,52.22221],[22.98895,52.21989],[22.98921,52.2184],[22.98919,52.21798],[22.98843,52.21641],[22.98678,52.21453],[22.98665,52.21417],[22.99413,52.20369],[22.9966,52.19392],[22.99445,52.19178],[22.99393,52.1902],[22.99321,52.18857],[22.99265,52.18665]]}},{"type":"Feature","properties":{"numer":"811","klasa":"droga gĹ‚Ăłwna","kat":"wojewodzka"},"geometry":{"type":"LineString","coordinates":[[23.04690501431818,52.22572907895925],[23.04677,52.22596]]}},{"type":"Feature","properties":{"numer":"2017W","klasa":"","kat":"powiatowa"},"geometry":{"type":"LineString","coordinates":[[23.01685,52.21347],[23.01531,52.21587],[23.01597,52.21973],[23.01745,52.21995],[23.01822,52.22021],[23.02252,52.22172],[23.02555,52.22308],[23.03782,52.22494]]}},{"type":"Feature","properties":{"numer":"2017W","klasa":"","kat":"powiatowa"},"geometry":{"type":"LineString","coordinates":[[23.03782,52.22494],[23.03777,52.22532],[23.03723,52.22613],[23.03356,52.2307],[23.03281,52.23202],[23.03027,52.23523],[23.02456,52.24295],[23.02516,52.24319],[23.02787,52.24363],[23.02829,52.24388],[23.02896,52.24475],[23.03044,52.24552]]}},{"type":"Feature","properties":{"numer":"811","klasa":"droga gĹ‚Ăłwna","kat":"wojewodzka"},"geometry":{"type":"LineString","coordinates":[[23.03044,52.24552],[23.03386,52.24286],[23.03883,52.23854],[23.04676,52.22598],[23.04677,52.22596]]}},{"type":"Feature","properties":{"numer":"811","klasa":"droga gĹ‚Ăłwna","kat":"wojewodzka"},"geometry":{"type":"LineString","coordinates":[[23.02823,52.2472],[23.03044,52.24552]]}},{"type":"Feature","properties":{"numer":"2018W","klasa":"","kat":"powiatowa"},"geometry":{"type":"LineString","coordinates":[[23.02823,52.2472],[23.03099,52.25118],[23.03242,52.25364],[23.03427,52.25618],[23.04085,52.2664],[23.04135,52.26685],[23.05182,52.27409],[23.05213,52.27467],[23.05245,52.27578],[23.05115,52.27725],[23.05264,52.27794]]}},{"type":"Feature","properties":{"numer":"811","klasa":"droga gĹ‚Ăłwna","kat":"wojewodzka"},"geometry":{"type":"LineString","coordinates":[[22.9797,52.28757],[22.99035,52.28438],[22.99141,52.28384],[22.99207,52.28318],[23.01581,52.25582],[23.02246,52.25096],[23.02823,52.2472]]}},{"type":"Feature","properties":{"numer":"2007W","klasa":"droga zbiorcza","kat":"powiatowa"},"geometry":{"type":"LineString","coordinates":[[23.03325,52.30705],[23.03821,52.30558],[23.04195,52.30226],[23.04413,52.29995],[23.04576,52.29274],[23.04523,52.29068],[23.04579,52.28764],[23.04673,52.28683],[23.04804,52.28541],[23.04821,52.28434],[23.04888,52.28319],[23.04933,52.28165],[23.04964,52.28108],[23.05264,52.27794]]}},{"type":"Feature","properties":{"numer":"2013W","klasa":"droga zbiorcza","kat":"powiatowa"},"geometry":{"type":"LineString","coordinates":[[22.84796,52.24567],[22.84783,52.24469],[22.848,52.24437]]}},{"type":"Feature","properties":{"numer":"2013W","klasa":"droga zbiorcza","kat":"powiatowa"},"geometry":{"type":"LineString","coordinates":[[22.84809,52.24653],[22.84796,52.24567]]}},{"type":"Feature","properties":{"numer":"2013W","klasa":"droga zbiorcza","kat":"powiatowa"},"geometry":{"type":"LineString","coordinates":[[22.8481,52.24657],[22.84809,52.24653]]}},{"type":"Feature","properties":{"numer":"2013W","klasa":"droga zbiorcza","kat":"powiatowa"},"geometry":{"type":"LineString","coordinates":[[22.84341,52.25346],[22.84838,52.24887],[22.8481,52.24657]]}},{"type":"Feature","properties":{"numer":"2008W","klasa":"droga zbiorcza","kat":"powiatowa"},"geometry":{"type":"LineString","coordinates":[[22.84341,52.25346],[22.83205,52.25109],[22.82718,52.24998],[22.82646,52.2499],[22.82623,52.25],[22.82617,52.25056],[22.82595,52.25079],[22.82168,52.25323],[22.81572,52.25498],[22.80621,52.25884],[22.8056,52.25886],[22.80354,52.25871]]}},{"type":"Feature","properties":{"numer":"2008W","klasa":"droga zbiorcza","kat":"powiatowa"},"geometry":{"type":"LineString","coordinates":[[22.87715,52.25996],[22.85561,52.25596],[22.84341,52.25346]]}},{"type":"Feature","properties":{"numer":"2013W","klasa":"droga zbiorcza","kat":"powiatowa"},"geometry":{"type":"LineString","coordinates":[[22.8353,52.26421],[22.83516,52.26132],[22.83529,52.26088],[22.84341,52.25346]]}},{"type":"Feature","properties":{"numer":"19","klasa":"droga gĹ‚Ăłwna ruchu przyĹ›pieszonego","kat":"krajowa"},"geometry":{"type":"LineString","coordinates":[[22.8353,52.26421],[22.8218,52.26413],[22.82007,52.26397],[22.80824,52.26117],[22.80685,52.26057],[22.80354,52.25871]]}},{"type":"Feature","properties":{"numer":"2023W","klasa":"","kat":"powiatowa"},"geometry":{"type":"LineString","coordinates":[[22.87715,52.25996],[22.87524,52.26218],[22.8752,52.2642],[22.86365,52.26631],[22.8494,52.2702],[22.84897,52.27022],[22.83558,52.2695]]}},{"type":"Feature","properties":{"numer":"19","klasa":"droga gĹ‚Ăłwna ruchu przyĹ›pieszonego","kat":"krajowa"},"geometry":{"type":"LineString","coordinates":[[22.83544,52.26717],[22.8353,52.26421]]}},{"type":"Feature","properties":{"numer":"19","klasa":"droga gĹ‚Ăłwna ruchu przyĹ›pieszonego","kat":"krajowa"},"geometry":{"type":"LineString","coordinates":[[22.83545,52.26723],[22.83544,52.26717]]}},{"type":"Feature","properties":{"numer":"19","klasa":"droga gĹ‚Ăłwna ruchu przyĹ›pieszonego","kat":"krajowa"},"geometry":{"type":"LineString","coordinates":[[22.83558,52.2695],[22.83545,52.26723]]}},{"type":"Feature","properties":{"numer":"19","klasa":"droga gĹ‚Ăłwna ruchu przyĹ›pieszonego","kat":"krajowa"},"geometry":{"type":"LineString","coordinates":[[22.82834,52.30157],[22.82345,52.29748],[22.82298,52.2966],[22.82293,52.29578],[22.82348,52.29464],[22.82694,52.28949],[22.82734,52.28873],[22.8354,52.27191],[22.8356,52.27122],[22.83558,52.2695]]}},{"type":"Feature","properties":{"numer":"2043W","klasa":"droga zbiorcza","kat":"powiatowa"},"geometry":{"type":"LineString","coordinates":[[22.81891,52.30168],[22.82191,52.30228],[22.8235,52.30221],[22.82505,52.30253],[22.82619,52.30286],[22.82695,52.30298],[22.82719,52.30296],[22.82749,52.30283],[22.82834,52.30157]]}},{"type":"Feature","properties":{"numer":"19","klasa":"droga gĹ‚Ăłwna ruchu przyĹ›pieszonego","kat":"krajowa"},"geometry":{"type":"LineString","coordinates":[[22.84359,52.30905],[22.84219,52.30906],[22.84126,52.30898],[22.8403,52.30875],[22.83953,52.30842],[22.83053,52.30328],[22.82834,52.30157]]}},{"type":"Feature","properties":{"numer":"2010W","klasa":"","kat":"powiatowa"},"geometry":{"type":"LineString","coordinates":[[22.84359,52.30905],[22.84328,52.30482],[22.84218,52.3024],[22.84351,52.30219],[22.84502,52.30207],[22.8472,52.30224],[22.84868,52.30226],[22.85451,52.30271],[22.86046,52.30281],[22.8632,52.30241],[22.86756,52.30165],[22.8729,52.3005],[22.87322,52.30063],[22.87539,52.30226],[22.88647,52.31072],[22.8894,52.31257],[22.89015,52.31314]]}},{"type":"Feature","properties":{"numer":"19","klasa":"droga gĹ‚Ăłwna ruchu przyĹ›pieszonego","kat":"krajowa"},"geometry":{"type":"LineString","coordinates":[[22.88938,52.31479],[22.88902,52.31465],[22.88856,52.31461],[22.88619,52.31469],[22.88472,52.31437],[22.88428,52.31418],[22.88322,52.31345],[22.87901,52.31106],[22.87853,52.31086],[22.87805,52.31077],[22.87547,52.31078],[22.87068,52.30999],[22.86392,52.30956],[22.85852,52.30892],[22.84359,52.30905]]}},{"type":"Feature","properties":{"numer":"2010W","klasa":"","kat":"powiatowa"},"geometry":{"type":"LineString","coordinates":[[22.89028,52.31324],[22.89076,52.31354],[22.89146,52.31376]]}},{"type":"Feature","properties":{"numer":"200533W","klasa":"droga dojazdowa","kat":"powiatowa"},"geometry":{"type":"LineString","coordinates":[[22.88986,52.31395],[22.89015,52.31314]]}},{"type":"Feature","properties":{"numer":"200533W","klasa":"droga dojazdowa","kat":"powiatowa"},"geometry":{"type":"LineString","coordinates":[[22.88983,52.31396],[22.88986,52.31395]]}},{"type":"Feature","properties":{"numer":"811","klasa":"droga gĹ‚Ăłwna","kat":"wojewodzka"},"geometry":{"type":"LineString","coordinates":[[22.9797,52.28757],[22.97794,52.28809],[22.97705,52.28849],[22.95676,52.30024],[22.95625,52.30087],[22.95515,52.30349],[22.95468,52.30508],[22.95359,52.30723],[22.95306,52.3086]]}},{"type":"Feature","properties":{"numer":"2012W","klasa":"","kat":"powiatowa"},"geometry":{"type":"LineString","coordinates":[[22.90877,52.30656],[22.91186,52.30367]]}},{"type":"Feature","properties":{"numer":"811","klasa":"droga gĹ‚Ăłwna","kat":"wojewodzka"},"geometry":{"type":"LineString","coordinates":[[22.94748,52.30807],[22.94743,52.30804]]}},{"type":"Feature","properties":{"numer":"811","klasa":"droga gĹ‚Ăłwna","kat":"wojewodzka"},"geometry":{"type":"LineString","coordinates":[[22.95306,52.3086],[22.95255,52.30903],[22.95205,52.30925],[22.95132,52.3094],[22.95076,52.3094],[22.94975,52.30916],[22.94748,52.30807]]}},{"type":"Feature","properties":{"numer":"2012W","klasa":"","kat":"powiatowa"},"geometry":{"type":"LineString","coordinates":[[22.90566,52.31176],[22.90579,52.31113],[22.90567,52.31022],[22.90574,52.30993],[22.90643,52.30888],[22.90877,52.30656]]}},{"type":"Feature","properties":{"numer":"811","klasa":"droga gĹ‚Ăłwna","kat":"wojewodzka"},"geometry":{"type":"LineString","coordinates":[[22.90566,52.31176],[22.90773,52.31137],[22.92831,52.30851],[22.94313,52.30707],[22.94419,52.30701],[22.94523,52.30714],[22.94616,52.30744],[22.94743,52.30804]]}},{"type":"Feature","properties":{"numer":"2011W","klasa":"","kat":"powiatowa"},"geometry":{"type":"LineString","coordinates":[[22.95306,52.3086],[22.95122,52.31381]]}},{"type":"Feature","properties":{"numer":"811","klasa":"droga gĹ‚Ăłwna","kat":"wojewodzka"},"geometry":{"type":"LineString","coordinates":[[22.89146,52.31376],[22.89227,52.31313],[22.89257,52.31302],[22.89947,52.31156],[22.90083,52.31114],[22.90129,52.31116],[22.90422,52.31185],[22.90503,52.31189],[22.90566,52.31176]]}},{"type":"Feature","properties":{"numer":"2011W","klasa":"","kat":"powiatowa"},"geometry":{"type":"LineString","coordinates":[[22.92338,52.32866],[22.92672,52.32586],[22.92937,52.32372],[22.9299,52.3234],[22.9502,52.31439],[22.95091,52.31405],[22.95122,52.31381]]}},{"type":"Feature","properties":{"numer":"2009W","klasa":"","kat":"powiatowa"},"geometry":{"type":"LineString","coordinates":[[22.89069,52.31507],[22.89177,52.31548],[22.91351,52.32535],[22.91455,52.32596],[22.91681,52.3277],[22.91717,52.32778],[22.91751,52.32778],[22.91921,52.32743],[22.91991,52.32744],[22.92255,52.32818],[22.92338,52.32866]]}},{"type":"Feature","properties":{"numer":"2050W","klasa":"droga zbiorcza","kat":"powiatowa"},"geometry":{"type":"LineString","coordinates":[[22.69406,52.18558],[22.69716,52.18818],[22.70277,52.19342]]}},{"type":"Feature","properties":{"numer":"2050W","klasa":"droga zbiorcza","kat":"powiatowa"},"geometry":{"type":"LineString","coordinates":[[22.70277,52.19342],[22.70281,52.19345]]}},{"type":"Feature","properties":{"numer":"200739W","klasa":"droga dojazdowa","kat":"powiatowa"},"geometry":{"type":"LineString","coordinates":[[22.72697,52.19779],[22.72665,52.19783]]}},{"type":"Feature","properties":{"numer":"200739W","klasa":"droga dojazdowa","kat":"powiatowa"},"geometry":{"type":"LineString","coordinates":[[22.72665,52.19783],[22.72647,52.19795]]}},{"type":"Feature","properties":{"numer":"200739W","klasa":"droga dojazdowa","kat":"powiatowa"},"geometry":{"type":"LineString","coordinates":[[22.72647,52.19795],[22.72624,52.19819]]}},{"type":"Feature","properties":{"numer":"200739W","klasa":"droga dojazdowa","kat":"powiatowa"},"geometry":{"type":"LineString","coordinates":[[22.72624,52.19819],[22.72587,52.19859]]}},{"type":"Feature","properties":{"numer":"19","klasa":"droga gĹ‚Ăłwna ruchu przyĹ›pieszonego","kat":"krajowa"},"geometry":{"type":"LineString","coordinates":[[22.72733,52.20004],[22.727,52.19884],[22.72697,52.19779]]}},{"type":"Feature","properties":{"numer":"200739W","klasa":"droga dojazdowa","kat":"powiatowa"},"geometry":{"type":"LineString","coordinates":[[22.72587,52.19859],[22.72496,52.19952]]}},{"type":"Feature","properties":{"numer":"2050W","klasa":"droga zbiorcza","kat":"powiatowa"},"geometry":{"type":"LineString","coordinates":[[22.70281,52.19345],[22.71512,52.20497]]}},{"type":"Feature","properties":{"numer":"2028W","klasa":"","kat":"powiatowa"},"geometry":{"type":"LineString","coordinates":[[22.67301,52.18769],[22.67232,52.18982],[22.6723,52.19085],[22.67244,52.19129],[22.67323,52.19269],[22.67498,52.19758],[22.67539,52.19815],[22.67644,52.19861],[22.69056,52.20235],[22.69436,52.20385],[22.69694,52.20527],[22.6996,52.20644],[22.70455,52.21161]]}},{"type":"Feature","properties":{"numer":"200739W","klasa":"droga dojazdowa","kat":"powiatowa"},"geometry":{"type":"LineString","coordinates":[[22.72496,52.19952],[22.72423,52.20027]]}},{"type":"Feature","properties":{"numer":"200739W","klasa":"droga dojazdowa","kat":"powiatowa"},"geometry":{"type":"LineString","coordinates":[[22.72423,52.20027],[22.72398,52.20052]]}},{"type":"Feature","properties":{"numer":"2055W","klasa":"","kat":"powiatowa"},"geometry":{"type":"LineString","coordinates":[[22.72733,52.20004],[22.72358,52.20158],[22.72261,52.20184]]}},{"type":"Feature","properties":{"numer":"200739W","klasa":"droga dojazdowa","kat":"powiatowa"},"geometry":{"type":"LineString","coordinates":[[22.72398,52.20052],[22.72261,52.20184]]}},{"type":"Feature","properties":{"numer":"2055W","klasa":"","kat":"powiatowa"},"geometry":{"type":"LineString","coordinates":[[22.72261,52.20184],[22.72068,52.20265]]}},{"type":"Feature","properties":{"numer":"2062W","klasa":"","kat":"powiatowa"},"geometry":{"type":"LineString","coordinates":[[22.72068,52.20265],[22.72033,52.20312]]}},{"type":"Feature","properties":{"numer":"2062W","klasa":"","kat":"powiatowa"},"geometry":{"type":"LineString","coordinates":[[22.72033,52.20312],[22.72014,52.20336],[22.71967,52.20365],[22.71795,52.20446]]}},{"type":"Feature","properties":{"numer":"2062W","klasa":"","kat":"powiatowa"},"geometry":{"type":"LineString","coordinates":[[22.71795,52.20446],[22.71557,52.20542]]}},{"type":"Feature","properties":{"numer":"2050W","klasa":"droga zbiorcza","kat":"powiatowa"},"geometry":{"type":"LineString","coordinates":[[22.71512,52.20497],[22.71519,52.20503]]}},{"type":"Feature","properties":{"numer":"2050W","klasa":"droga zbiorcza","kat":"powiatowa"},"geometry":{"type":"LineString","coordinates":[[22.71519,52.20503],[22.71557,52.20542]]}},{"type":"Feature","properties":{"numer":"19","klasa":"droga gĹ‚Ăłwna ruchu przyĹ›pieszonego","kat":"krajowa"},"geometry":{"type":"LineString","coordinates":[[22.73115,52.21062],[22.72733,52.20004]]}},{"type":"Feature","properties":{"numer":"2059W","klasa":"","kat":"powiatowa"},"geometry":{"type":"LineString","coordinates":[[22.72033,52.20312],[22.72378,52.20763]]}},{"type":"Feature","properties":{"numer":"2050W","klasa":"droga zbiorcza","kat":"powiatowa"},"geometry":{"type":"LineString","coordinates":[[22.71557,52.20542],[22.71615,52.20681],[22.71731,52.2102],[22.7177,52.21079]]}},{"type":"Feature","properties":{"numer":"2060W","klasa":"","kat":"powiatowa"},"geometry":{"type":"LineString","coordinates":[[22.72378,52.20763],[22.72253,52.20919],[22.72177,52.20954],[22.72061,52.20989]]}},{"type":"Feature","properties":{"numer":"19,698","klasa":"droga gĹ‚Ăłwna","kat":"gminna"},"geometry":{"type":"LineString","coordinates":[[22.73115,52.21062],[22.72624,52.21081]]}},{"type":"Feature","properties":{"numer":"698","klasa":"droga gĹ‚Ăłwna","kat":"wojewodzka"},"geometry":{"type":"LineString","coordinates":[[22.72624,52.21081],[22.72613,52.21081]]}},{"type":"Feature","properties":{"numer":"2050W","klasa":"droga zbiorcza","kat":"powiatowa"},"geometry":{"type":"LineString","coordinates":[[22.7177,52.21079],[22.71773,52.21095]]}},{"type":"Feature","properties":{"numer":"698","klasa":"droga gĹ‚Ăłwna","kat":"wojewodzka"},"geometry":{"type":"LineString","coordinates":[[22.72613,52.21081],[22.72412,52.2109],[22.72315,52.21108]]}},{"type":"Feature","properties":{"numer":"698","klasa":"droga gĹ‚Ăłwna","kat":"wojewodzka"},"geometry":{"type":"LineString","coordinates":[[22.72315,52.21108],[22.72133,52.21129]]}},{"type":"Feature","properties":{"numer":"698","klasa":"droga gĹ‚Ăłwna","kat":"wojewodzka"},"geometry":{"type":"LineString","coordinates":[[22.71635,52.21149],[22.71773,52.21095]]}},{"type":"Feature","properties":{"numer":"698","klasa":"droga gĹ‚Ăłwna","kat":"wojewodzka"},"geometry":{"type":"LineString","coordinates":[[22.71773,52.21095],[22.71834,52.21161]]}},{"type":"Feature","properties":{"numer":"698","klasa":"droga gĹ‚Ăłwna","kat":"wojewodzka"},"geometry":{"type":"LineString","coordinates":[[22.72133,52.21129],[22.71887,52.21153]]}},{"type":"Feature","properties":{"numer":"698","klasa":"droga gĹ‚Ăłwna","kat":"wojewodzka"},"geometry":{"type":"LineString","coordinates":[[22.71887,52.21153],[22.71834,52.21161]]}},{"type":"Feature","properties":{"numer":"698","klasa":"droga gĹ‚Ăłwna","kat":"wojewodzka"},"geometry":{"type":"LineString","coordinates":[[22.71635,52.21149],[22.71463,52.21182]]}},{"type":"Feature","properties":{"numer":"698","klasa":"droga gĹ‚Ăłwna","kat":"wojewodzka"},"geometry":{"type":"LineString","coordinates":[[22.71834,52.21161],[22.71699,52.21201],[22.71635,52.21149]]}},{"type":"Feature","properties":{"numer":"698","klasa":"droga gĹ‚Ăłwna","kat":"wojewodzka"},"geometry":{"type":"LineString","coordinates":[[22.67509,52.21213],[22.69336,52.21193],[22.70138,52.2116],[22.70455,52.21161]]}},{"type":"Feature","properties":{"numer":"698","klasa":"droga gĹ‚Ăłwna","kat":"wojewodzka"},"geometry":{"type":"LineString","coordinates":[[22.71463,52.21182],[22.7138,52.212],[22.71184,52.21259]]}},{"type":"Feature","properties":{"numer":"698","klasa":"droga gĹ‚Ăłwna","kat":"wojewodzka"},"geometry":{"type":"LineString","coordinates":[[22.70996,52.21283],[22.70588,52.21181],[22.70455,52.21161]]}},{"type":"Feature","properties":{"numer":"200741W","klasa":"droga zbiorcza","kat":"powiatowa"},"geometry":{"type":"LineString","coordinates":[[22.70614,52.21331],[22.70455,52.21161]]}},{"type":"Feature","properties":{"numer":"698","klasa":"droga gĹ‚Ăłwna","kat":"wojewodzka"},"geometry":{"type":"LineString","coordinates":[[22.71184,52.21259],[22.71158,52.21267]]}},{"type":"Feature","properties":{"numer":"698","klasa":"droga gĹ‚Ăłwna","kat":"wojewodzka"},"geometry":{"type":"LineString","coordinates":[[22.71158,52.21267],[22.71133,52.21275]]}},{"type":"Feature","properties":{"numer":"698","klasa":"droga gĹ‚Ăłwna","kat":"wojewodzka"},"geometry":{"type":"LineString","coordinates":[[22.71133,52.21275],[22.71054,52.21299]]}},{"type":"Feature","properties":{"numer":"698","klasa":"droga gĹ‚Ăłwna","kat":"wojewodzka"},"geometry":{"type":"LineString","coordinates":[[22.71054,52.21299],[22.70996,52.21283]]}},{"type":"Feature","properties":{"numer":"2044W","klasa":"droga zbiorcza","kat":"powiatowa"},"geometry":{"type":"LineString","coordinates":[[22.71054,52.21299],[22.71038,52.21342]]}},{"type":"Feature","properties":{"numer":"200741W","klasa":"droga zbiorcza","kat":"powiatowa"},"geometry":{"type":"LineString","coordinates":[[22.70694,52.21412],[22.70614,52.21331]]}},{"type":"Feature","properties":{"numer":"2044W","klasa":"droga zbiorcza","kat":"powiatowa"},"geometry":{"type":"LineString","coordinates":[[22.71038,52.21342],[22.71009,52.21413],[22.71005,52.21457]]}},{"type":"Feature","properties":{"numer":"200757W","klasa":"droga lokalna","kat":"powiatowa"},"geometry":{"type":"LineString","coordinates":[[22.70694,52.21412],[22.70672,52.21439]]}},{"type":"Feature","properties":{"numer":"200741W","klasa":"droga zbiorcza","kat":"powiatowa"},"geometry":{"type":"LineString","coordinates":[[22.71005,52.21457],[22.70746,52.21425],[22.70694,52.21412]]}},{"type":"Feature","properties":{"numer":"200757W","klasa":"droga lokalna","kat":"powiatowa"},"geometry":{"type":"LineString","coordinates":[[22.70672,52.21439],[22.70628,52.21501]]}},{"type":"Feature","properties":{"numer":"2044W","klasa":"droga zbiorcza","kat":"powiatowa"},"geometry":{"type":"LineString","coordinates":[[22.71005,52.21457],[22.71021,52.21532]]}},{"type":"Feature","properties":{"numer":"200757W","klasa":"droga lokalna","kat":"powiatowa"},"geometry":{"type":"LineString","coordinates":[[22.70628,52.21501],[22.70604,52.21536]]}},{"type":"Feature","properties":{"numer":"200757W","klasa":"droga lokalna","kat":"powiatowa"},"geometry":{"type":"LineString","coordinates":[[22.70604,52.21536],[22.70587,52.21559]]}},{"type":"Feature","properties":{"numer":"200757W","klasa":"droga lokalna","kat":"powiatowa"},"geometry":{"type":"LineString","coordinates":[[22.70587,52.21559],[22.70537,52.21626]]}},{"type":"Feature","properties":{"numer":"200757W","klasa":"droga lokalna","kat":"powiatowa"},"geometry":{"type":"LineString","coordinates":[[22.70537,52.21626],[22.70449,52.21747]]}},{"type":"Feature","properties":{"numer":"200757W","klasa":"droga lokalna","kat":"powiatowa"},"geometry":{"type":"LineString","coordinates":[[22.70449,52.21747],[22.70378,52.21844]]}},{"type":"Feature","properties":{"numer":"200757W","klasa":"droga lokalna","kat":"powiatowa"},"geometry":{"type":"LineString","coordinates":[[22.70378,52.21844],[22.70331,52.21909]]}},{"type":"Feature","properties":{"numer":"200757W","klasa":"droga lokalna","kat":"powiatowa"},"geometry":{"type":"LineString","coordinates":[[22.70331,52.21909],[22.70277,52.21965]]}},{"type":"Feature","properties":{"numer":"2044W","klasa":"droga zbiorcza","kat":"powiatowa"},"geometry":{"type":"LineString","coordinates":[[22.71021,52.21532],[22.71102,52.22154],[22.71001,52.22492]]}},{"type":"Feature","properties":{"numer":"200757W","klasa":"droga lokalna","kat":"powiatowa"},"geometry":{"type":"LineString","coordinates":[[22.70277,52.21965],[22.70086,52.2216],[22.70097,52.22172]]}},{"type":"Feature","properties":{"numer":"200756W","klasa":"droga lokalna","kat":"powiatowa"},"geometry":{"type":"LineString","coordinates":[[22.70314,52.22264],[22.7012,52.22199],[22.70097,52.22172]]}},{"type":"Feature","properties":{"numer":"200756W","klasa":"droga lokalna","kat":"powiatowa"},"geometry":{"type":"LineString","coordinates":[[22.70552,52.22344],[22.70314,52.22264]]}},{"type":"Feature","properties":{"numer":"200756W","klasa":"droga lokalna","kat":"powiatowa"},"geometry":{"type":"LineString","coordinates":[[22.70558,52.22346],[22.70552,52.22344]]}},{"type":"Feature","properties":{"numer":"200756W","klasa":"droga lokalna","kat":"powiatowa"},"geometry":{"type":"LineString","coordinates":[[22.7083,52.22438],[22.70558,52.22346]]}},{"type":"Feature","properties":{"numer":"200756W","klasa":"droga lokalna","kat":"powiatowa"},"geometry":{"type":"LineString","coordinates":[[22.71001,52.22492],[22.7083,52.22438]]}},{"type":"Feature","properties":{"numer":"2044W","klasa":"droga zbiorcza","kat":"powiatowa"},"geometry":{"type":"LineString","coordinates":[[22.71001,52.22492],[22.70751,52.23242],[22.70708,52.23304],[22.70624,52.23385]]}},{"type":"Feature","properties":{"numer":"2025W","klasa":"","kat":"powiatowa"},"geometry":{"type":"LineString","coordinates":[[22.70624,52.23385],[22.69994,52.23304],[22.69784,52.23288],[22.69753,52.23297],[22.69734,52.23358],[22.69707,52.23368],[22.69427,52.23325],[22.68918,52.23271],[22.68835,52.23241],[22.6837,52.2296]]}},{"type":"Feature","properties":{"numer":"2044W","klasa":"droga zbiorcza","kat":"powiatowa"},"geometry":{"type":"LineString","coordinates":[[22.70526,52.23493],[22.70553,52.23453],[22.70624,52.23385]]}},{"type":"Feature","properties":{"numer":"2044W","klasa":"droga zbiorcza","kat":"powiatowa"},"geometry":{"type":"LineString","coordinates":[[22.70513,52.23542],[22.70526,52.23493]]}},{"type":"Feature","properties":{"numer":"3664W","klasa":"","kat":"powiatowa"},"geometry":{"type":"LineString","coordinates":[[22.69123,52.2387],[22.69159,52.23686],[22.69186,52.23622],[22.69245,52.2356],[22.69353,52.23511],[22.69453,52.2349],[22.69529,52.23487],[22.70526,52.23493]]}},{"type":"Feature","properties":{"numer":"3664W","klasa":"","kat":"powiatowa"},"geometry":{"type":"LineString","coordinates":[[22.69123,52.2387],[22.69107,52.2396]]}},{"type":"Feature","properties":{"numer":"19","klasa":"droga gĹ‚Ăłwna ruchu przyĹ›pieszonego","kat":"krajowa"},"geometry":{"type":"LineString","coordinates":[[22.76147,52.23237],[22.74034,52.22332],[22.73949,52.22267],[22.72943,52.21384],[22.72624,52.21081]]}},{"type":"Feature","properties":{"numer":"2026W","klasa":"","kat":"powiatowa"},"geometry":{"type":"LineString","coordinates":[[22.79515,52.22583],[22.79507,52.22575]]}},{"type":"Feature","properties":{"numer":"2026W","klasa":"","kat":"powiatowa"},"geometry":{"type":"LineString","coordinates":[[22.80427,52.23493],[22.80664,52.23385],[22.80656,52.23373],[22.80138,52.22967],[22.79646,52.22711],[22.79515,52.22583]]}},{"type":"Feature","properties":{"numer":"2049W","klasa":"","kat":"powiatowa"},"geometry":{"type":"LineString","coordinates":[[22.76096,52.24357],[22.76081,52.24277],[22.7602,52.24173],[22.75923,52.23908],[22.76147,52.23237]]}},{"type":"Feature","properties":{"numer":"19","klasa":"droga gĹ‚Ăłwna ruchu przyĹ›pieszonego","kat":"krajowa"},"geometry":{"type":"LineString","coordinates":[[22.77956,52.24414],[22.77752,52.2433],[22.7748,52.24161],[22.77439,52.24101],[22.77358,52.2385],[22.77035,52.2362],[22.76972,52.23585],[22.76147,52.23237]]}},{"type":"Feature","properties":{"numer":"2026W","klasa":"","kat":"powiatowa"},"geometry":{"type":"LineString","coordinates":[[22.78207,52.24536],[22.78402,52.24387],[22.78456,52.24329],[22.78773,52.24173],[22.79778,52.23785],[22.80427,52.23493]]}},{"type":"Feature","properties":{"numer":"2049W","klasa":"","kat":"powiatowa"},"geometry":{"type":"LineString","coordinates":[[22.76096,52.24366],[22.76096,52.24357]]}},{"type":"Feature","properties":{"numer":"19","klasa":"droga gĹ‚Ăłwna ruchu przyĹ›pieszonego","kat":"krajowa"},"geometry":{"type":"LineString","coordinates":[[22.77965,52.24418],[22.77956,52.24414]]}},{"type":"Feature","properties":{"numer":"19","klasa":"droga gĹ‚Ăłwna ruchu przyĹ›pieszonego","kat":"krajowa"},"geometry":{"type":"LineString","coordinates":[[22.78207,52.24536],[22.77965,52.24418]]}},{"type":"Feature","properties":{"numer":"2049W","klasa":"","kat":"powiatowa"},"geometry":{"type":"LineString","coordinates":[[22.75951,52.25319],[22.75885,52.2511],[22.76017,52.24743],[22.76029,52.24606],[22.76096,52.24366]]}},{"type":"Feature","properties":{"numer":"19","klasa":"droga gĹ‚Ăłwna ruchu przyĹ›pieszonego","kat":"krajowa"},"geometry":{"type":"LineString","coordinates":[[22.79256,52.25173],[22.79167,52.25084],[22.78942,52.24914],[22.78207,52.24536]]}},{"type":"Feature","properties":{"numer":"19","klasa":"droga gĹ‚Ăłwna ruchu przyĹ›pieszonego","kat":"krajowa"},"geometry":{"type":"LineString","coordinates":[[22.79261,52.25178],[22.79256,52.25173]]}},{"type":"Feature","properties":{"numer":"2049W","klasa":"","kat":"powiatowa"},"geometry":{"type":"LineString","coordinates":[[22.74234,52.25153],[22.74939,52.2517],[22.75468,52.25313],[22.75526,52.25319],[22.75951,52.25319]]}},{"type":"Feature","properties":{"numer":"2003W","klasa":"","kat":"powiatowa"},"geometry":{"type":"LineString","coordinates":[[22.75951,52.25319],[22.76032,52.25578],[22.7599,52.25622]]}},{"type":"Feature","properties":{"numer":"19","klasa":"droga gĹ‚Ăłwna ruchu przyĹ›pieszonego","kat":"krajowa"},"geometry":{"type":"LineString","coordinates":[[22.80354,52.25871],[22.79903,52.25583],[22.79595,52.25449],[22.79494,52.25396],[22.79395,52.25318],[22.79261,52.25178]]}},{"type":"Feature","properties":{"numer":"2001W","klasa":"","kat":"powiatowa"},"geometry":{"type":"LineString","coordinates":[[22.79909,52.26118],[22.80082,52.25972],[22.80136,52.25866],[22.80174,52.25861],[22.80354,52.25871]]}},{"type":"Feature","properties":{"numer":"2001W","klasa":"","kat":"powiatowa"},"geometry":{"type":"LineString","coordinates":[[22.79902,52.26124],[22.79909,52.26118]]}},{"type":"Feature","properties":{"numer":"2003W","klasa":"","kat":"powiatowa"},"geometry":{"type":"LineString","coordinates":[[22.7599,52.25622],[22.75817,52.26305],[22.75805,52.26313],[22.7526,52.26359],[22.74771,52.26309],[22.74746,52.26322],[22.7458,52.27013]]}},{"type":"Feature","properties":{"numer":"2003W","klasa":"","kat":"powiatowa"},"geometry":{"type":"LineString","coordinates":[[22.74533,52.27108],[22.7458,52.27013]]}},{"type":"Feature","properties":{"numer":"2001W","klasa":"","kat":"powiatowa"},"geometry":{"type":"LineString","coordinates":[[22.79304,52.28107],[22.79382,52.28087],[22.79402,52.28069],[22.79422,52.27876],[22.79682,52.26368],[22.79782,52.26232],[22.79902,52.26124]]}},{"type":"Feature","properties":{"numer":"2002W","klasa":"","kat":"powiatowa"},"geometry":{"type":"LineString","coordinates":[[22.70513,52.23542],[22.71818,52.23701],[22.71873,52.23721],[22.72296,52.23928],[22.72555,52.23965],[22.7315,52.24088],[22.73245,52.2409],[22.73319,52.24102],[22.73746,52.24209],[22.7384,52.24253],[22.73875,52.24302],[22.73919,52.24322],[22.74349,52.24383],[22.74344,52.24427],[22.74239,52.24743],[22.74234,52.25153]]}},{"type":"Feature","properties":{"numer":"2044W","klasa":"droga zbiorcza","kat":"powiatowa"},"geometry":{"type":"LineString","coordinates":[[22.70021,52.25614],[22.70429,52.23929],[22.70513,52.23542]]}},{"type":"Feature","properties":{"numer":"2049W","klasa":"","kat":"powiatowa"},"geometry":{"type":"LineString","coordinates":[[22.74234,52.25153],[22.73531,52.2524],[22.7158,52.25691],[22.70617,52.25644]]}},{"type":"Feature","properties":{"numer":"2049W","klasa":"","kat":"powiatowa"},"geometry":{"type":"LineString","coordinates":[[22.70617,52.25644],[22.70021,52.25614]]}},{"type":"Feature","properties":{"numer":"2044W","klasa":"droga zbiorcza","kat":"powiatowa"},"geometry":{"type":"LineString","coordinates":[[22.69826,52.26416],[22.70021,52.25614]]}},{"type":"Feature","properties":{"numer":"2044W","klasa":"droga zbiorcza","kat":"powiatowa"},"geometry":{"type":"LineString","coordinates":[[22.69822,52.2643],[22.69826,52.26416]]}},{"type":"Feature","properties":{"numer":"2044W","klasa":"droga zbiorcza","kat":"powiatowa"},"geometry":{"type":"LineString","coordinates":[[22.69822,52.2643],[22.69764,52.2663]]}},{"type":"Feature","properties":{"numer":"2048W","klasa":"","kat":"powiatowa"},"geometry":{"type":"LineString","coordinates":[[22.69764,52.2663],[22.69985,52.2664],[22.70147,52.26686],[22.71779,52.27048],[22.71845,52.2705],[22.71918,52.27039],[22.72185,52.26934],[22.72435,52.27037],[22.7304,52.27235],[22.73882,52.27278]]}},{"type":"Feature","properties":{"numer":"2003W","klasa":"","kat":"powiatowa"},"geometry":{"type":"LineString","coordinates":[[22.74533,52.27108],[22.74515,52.27298],[22.73882,52.27278]]}},{"type":"Feature","properties":{"numer":"2044W","klasa":"droga zbiorcza","kat":"powiatowa"},"geometry":{"type":"LineString","coordinates":[[22.69764,52.2663],[22.69605,52.27287],[22.69596713659685,52.27449043988383]]}},{"type":"Feature","properties":{"numer":"2007W","klasa":"droga zbiorcza","kat":"powiatowa"},"geometry":{"type":"LineString","coordinates":[[23.05264,52.27794],[23.05855,52.27253],[23.05894,52.27232],[23.06457,52.27132],[23.0667,52.27063],[23.06964,52.26995],[23.07226,52.26897],[23.0743,52.26882],[23.09165,52.26537],[23.10935,52.28418],[23.11189,52.28699],[23.11219,52.28699],[23.1162,52.2854],[23.11718,52.28513],[23.11811,52.28503],[23.1249,52.28471]]}},{"type":"Feature","properties":{"numer":"1027L","klasa":"droga zbiorcza","kat":"powiatowa"},"geometry":{"type":"LineString","coordinates":[[23.1249,52.28471],[23.12513760288701,52.284697312467195]]}},{"type":"Feature","properties":{"numer":"811","klasa":"droga gĹ‚Ăłwna","kat":"wojewodzka"},"geometry":{"type":"LineString","coordinates":[[22.88986,52.31395],[22.89005,52.31401]]}},{"type":"Feature","properties":{"numer":"811","klasa":"droga gĹ‚Ăłwna","kat":"wojewodzka"},"geometry":{"type":"LineString","coordinates":[[22.89146,52.31376],[22.89105,52.31425]]}},{"type":"Feature","properties":{"numer":"811","klasa":"droga gĹ‚Ăłwna","kat":"wojewodzka"},"geometry":{"type":"LineString","coordinates":[[22.88969,52.31413],[22.88983,52.31396]]}},{"type":"Feature","properties":{"numer":"811","klasa":"droga gĹ‚Ăłwna","kat":"wojewodzka"},"geometry":{"type":"LineString","coordinates":[[22.88969,52.31413],[22.89005,52.31401]]}},{"type":"Feature","properties":{"numer":"811","klasa":"droga gĹ‚Ăłwna","kat":"wojewodzka"},"geometry":{"type":"LineString","coordinates":[[22.89005,52.31401],[22.89076,52.31415]]}},{"type":"Feature","properties":{"numer":"811","klasa":"droga gĹ‚Ăłwna","kat":"wojewodzka"},"geometry":{"type":"LineString","coordinates":[[22.89076,52.31415],[22.89105,52.31425]]}},{"type":"Feature","properties":{"numer":"811","klasa":"droga gĹ‚Ăłwna","kat":"wojewodzka"},"geometry":{"type":"LineString","coordinates":[[22.88951,52.31453],[22.88969,52.31413]]}},{"type":"Feature","properties":{"numer":"811","klasa":"droga gĹ‚Ăłwna","kat":"wojewodzka"},"geometry":{"type":"LineString","coordinates":[[22.89105,52.31425],[22.89076,52.31477]]}},{"type":"Feature","properties":{"numer":"811","klasa":"droga gĹ‚Ăłwna","kat":"wojewodzka"},"geometry":{"type":"LineString","coordinates":[[22.88938,52.31479],[22.88951,52.31453]]}},{"type":"Feature","properties":{"numer":"811","klasa":"droga gĹ‚Ăłwna","kat":"wojewodzka"},"geometry":{"type":"LineString","coordinates":[[22.88951,52.31453],[22.88981,52.31484]]}},{"type":"Feature","properties":{"numer":"2008W","klasa":"droga zbiorcza","kat":"powiatowa"},"geometry":{"type":"LineString","coordinates":[[22.9797,52.28757],[23.00715,52.30082],[23.0089,52.30116],[23.01481,52.30207],[23.01741,52.30228],[23.01878,52.30254],[23.02371,52.30316],[23.02632,52.30359],[23.02781,52.30374],[23.02889,52.30428],[23.03056,52.30541],[23.03325,52.30705]]}},{"type":"Feature","properties":{"numer":"2008W","klasa":"droga zbiorcza","kat":"powiatowa"},"geometry":{"type":"LineString","coordinates":[[23.03325,52.30705],[23.04291,52.31263],[23.04822,52.31556]]}},{"type":"Feature","properties":{"numer":"2007W","klasa":"droga zbiorcza","kat":"powiatowa"},"geometry":{"type":"LineString","coordinates":[[23.01205,52.3228],[23.01274,52.32229],[23.01424,52.32078],[23.01455,52.31853],[23.01568,52.31612],[23.0169,52.31489],[23.019,52.31305],[23.02276,52.31064],[23.02545,52.30939],[23.02705,52.30884],[23.03325,52.30705]]}},{"type":"Feature","properties":{"numer":"200507W","klasa":"droga dojazdowa","kat":"powiatowa"},"geometry":{"type":"LineString","coordinates":[[23.04822,52.31556],[23.04822,52.31577],[23.04724,52.31654]]}},{"type":"Feature","properties":{"numer":"200507W","klasa":"droga dojazdowa","kat":"powiatowa"},"geometry":{"type":"LineString","coordinates":[[23.04724,52.31654],[23.04645,52.317],[23.04032,52.31922],[23.03744,52.31976],[23.02411,52.32215],[23.02373,52.32215],[23.02184,52.32186],[23.02037,52.32212],[23.01687,52.32247],[23.01469,52.32259]]}},{"type":"Feature","properties":{"numer":"200507W","klasa":"droga dojazdowa","kat":"powiatowa"},"geometry":{"type":"LineString","coordinates":[[23.01469,52.32259],[23.01205,52.3228]]}},{"type":"Feature","properties":{"numer":"2007W","klasa":"droga zbiorcza","kat":"powiatowa"},"geometry":{"type":"LineString","coordinates":[[22.9662,52.3509],[22.97425,52.34421],[22.97584,52.34306],[22.9767,52.34213],[22.97956,52.34029],[22.98282,52.33862],[22.98416,52.33743],[22.98519,52.33627],[22.98732,52.33487],[22.99033,52.33314],[22.99191,52.33236],[22.99537,52.33041],[22.99721,52.33001],[22.99786,52.3298],[23.00824,52.32517],[23.00907,52.32472],[23.01205,52.3228]]}},{"type":"Feature","properties":{"numer":"811","klasa":"droga gĹ‚Ăłwna","kat":"wojewodzka"},"geometry":{"type":"LineString","coordinates":[[22.88938,52.31479],[22.88981,52.31484]]}},{"type":"Feature","properties":{"numer":"811","klasa":"droga gĹ‚Ăłwna","kat":"wojewodzka"},"geometry":{"type":"LineString","coordinates":[[22.89076,52.31477],[22.89052,52.31502]]}},{"type":"Feature","properties":{"numer":"811","klasa":"droga gĹ‚Ăłwna","kat":"wojewodzka"},"geometry":{"type":"LineString","coordinates":[[22.88981,52.31484],[22.89052,52.31502]]}},{"type":"Feature","properties":{"numer":"811","klasa":"droga gĹ‚Ăłwna","kat":"wojewodzka"},"geometry":{"type":"LineString","coordinates":[[22.89052,52.31502],[22.89069,52.31507]]}},{"type":"Feature","properties":{"numer":"19","klasa":"droga gĹ‚Ăłwna ruchu przyĹ›pieszonego","kat":"krajowa"},"geometry":{"type":"LineString","coordinates":[[22.87845,52.32492],[22.88073,52.32173],[22.88841,52.31629],[22.8887,52.31598],[22.88938,52.31479]]}},{"type":"Feature","properties":{"numer":"2005W","klasa":"","kat":"powiatowa"},"geometry":{"type":"LineString","coordinates":[[22.84522,52.33692],[22.82765,52.33493],[22.82435,52.33445],[22.82365,52.33444],[22.82344,52.33313],[22.82124,52.33088],[22.81292,52.32465],[22.80769,52.32083],[22.80544,52.31933],[22.804,52.31814]]}},{"type":"Feature","properties":{"numer":"2006W","klasa":"droga zbiorcza","kat":"powiatowa"},"geometry":{"type":"LineString","coordinates":[[22.84522,52.33692],[22.87007,52.32675],[22.87845,52.32492]]}},{"type":"Feature","properties":{"numer":"19","klasa":"droga gĹ‚Ăłwna ruchu przyĹ›pieszonego","kat":"krajowa"},"geometry":{"type":"LineString","coordinates":[[22.87597,52.34054],[22.87845,52.32492]]}},{"type":"Feature","properties":{"numer":"19","klasa":"droga gĹ‚Ăłwna ruchu przyĹ›pieszonego","kat":"krajowa"},"geometry":{"type":"LineString","coordinates":[[22.87657,52.34347],[22.87694,52.34324],[22.87717,52.34266],[22.87716,52.3424],[22.87698,52.34201],[22.87605,52.34087],[22.87597,52.34054]]}},{"type":"Feature","properties":{"numer":"19","klasa":"droga gĹ‚Ăłwna ruchu przyĹ›pieszonego","kat":"krajowa"},"geometry":{"type":"LineString","coordinates":[[22.87211,52.35774],[22.87268,52.35736],[22.87314,52.35689],[22.87354,52.35605],[22.87597,52.34054]]}},{"type":"Feature","properties":{"numer":"2006W","klasa":"droga zbiorcza","kat":"powiatowa"},"geometry":{"type":"LineString","coordinates":[[22.82006,52.3622],[22.82029,52.36177],[22.82037,52.3607],[22.82056,52.36026],[22.82473,52.35265],[22.82753,52.34784],[22.82803,52.34742],[22.82987,52.34628],[22.84522,52.33692]]}},{"type":"Feature","properties":{"numer":"19","klasa":"droga gĹ‚Ăłwna ruchu przyĹ›pieszonego","kat":"krajowa"},"geometry":{"type":"LineString","coordinates":[[22.88035,52.3579],[22.88033,52.35525],[22.87978,52.35142],[22.87857,52.34746],[22.87657,52.34347]]}},{"type":"Feature","properties":{"numer":"2007W","klasa":"droga zbiorcza","kat":"powiatowa"},"geometry":{"type":"LineString","coordinates":[[22.88035,52.3579],[22.89256,52.35706],[22.89574,52.35728]]}},{"type":"Feature","properties":{"numer":"2007W","klasa":"droga zbiorcza","kat":"powiatowa"},"geometry":{"type":"LineString","coordinates":[[22.87211,52.35774],[22.87296,52.35813],[22.87343,52.35823],[22.88035,52.3579]]}},{"type":"Feature","properties":{"numer":"2045W","klasa":"droga zbiorcza","kat":"powiatowa"},"geometry":{"type":"LineString","coordinates":[[22.87211,52.35774],[22.86811,52.35599],[22.86627,52.35534],[22.86206,52.35357],[22.86163,52.35346],[22.85952,52.35337],[22.85861,52.35356],[22.8542,52.35483],[22.8376,52.35813],[22.82833,52.3612],[22.82141,52.36321],[22.82112,52.36322],[22.82103,52.36316],[22.82006,52.3622]]}},{"type":"Feature","properties":{"numer":"19","klasa":"droga gĹ‚Ăłwna ruchu przyĹ›pieszonego","kat":"krajowa"},"geometry":{"type":"LineString","coordinates":[[22.86994,52.36144],[22.86941,52.3602],[22.86949,52.35945],[22.86975,52.35908],[22.87018,52.35872],[22.87211,52.35774]]}},{"type":"Feature","properties":{"numer":"19","klasa":"droga gĹ‚Ăłwna ruchu przyĹ›pieszonego","kat":"krajowa"},"geometry":{"type":"LineString","coordinates":[[22.87968,52.36296],[22.87996,52.36188],[22.88035,52.3579]]}},{"type":"Feature","properties":{"numer":"19","klasa":"droga gĹ‚Ăłwna ruchu przyĹ›pieszonego","kat":"krajowa"},"geometry":{"type":"LineString","coordinates":[[22.86994,52.36144],[22.87029,52.36223]]}},{"type":"Feature","properties":{"numer":"19","klasa":"droga gĹ‚Ăłwna ruchu przyĹ›pieszonego","kat":"krajowa"},"geometry":{"type":"LineString","coordinates":[[22.870313345225963,52.362282975705064],[22.87029,52.36223]]}},{"type":"Feature","properties":{"numer":"2009W","klasa":"","kat":"powiatowa"},"geometry":{"type":"LineString","coordinates":[[22.92338,52.32866],[22.92946,52.33334],[22.9347,52.33811],[22.9662,52.3509]]}},{"type":"Feature","properties":{"numer":"2007W","klasa":"droga zbiorcza","kat":"powiatowa"},"geometry":{"type":"LineString","coordinates":[[22.89598,52.35727],[22.89886,52.35709],[22.90193,52.35732],[22.91003,52.35711],[22.91925,52.35637],[22.92173,52.35653],[22.92407,52.35697],[22.92552,52.35671],[22.92874,52.35718],[22.93255,52.35732],[22.93332,52.35729],[22.93585,52.35692],[22.94065,52.35657],[22.94398,52.35656],[22.94607,52.35679],[22.94779,52.35671],[22.95483,52.35539],[22.95728,52.35476],[22.96178,52.3541],[22.96209,52.35395],[22.96508,52.35181],[22.9662,52.3509]]}},{"type":"Feature","properties":{"numer":"2007W","klasa":"droga zbiorcza","kat":"powiatowa"},"geometry":{"type":"LineString","coordinates":[[22.89574,52.35728],[22.89598,52.35727]]}},{"type":"Feature","properties":{"numer":"2048W","klasa":"","kat":"powiatowa"},"geometry":{"type":"LineString","coordinates":[[22.73882,52.27278],[22.73858,52.27399],[22.7377,52.27594],[22.73768,52.27629],[22.73785,52.27661],[22.73888,52.2774],[22.7394,52.27802],[22.73987,52.28122],[22.73852,52.28519],[22.74467,52.28657]]}},{"type":"Feature","properties":{"numer":"2001W","klasa":"","kat":"powiatowa"},"geometry":{"type":"LineString","coordinates":[[22.72038,52.32057],[22.72301,52.32068],[22.72732,52.32043],[22.72859,52.31895],[22.73057,52.31497],[22.73188,52.3131],[22.73365,52.31152],[22.73506,52.30982],[22.73567,52.30925],[22.73628,52.30882],[22.7375,52.30823],[22.73823,52.30774],[22.74159,52.3047],[22.743,52.30307],[22.74385,52.30154],[22.74409,52.30025],[22.74513,52.29703],[22.74539,52.29662],[22.74579,52.29631],[22.74716,52.29555],[22.74816,52.29525],[22.75045,52.29494],[22.75141,52.29471],[22.75312,52.29387],[22.75626,52.29258],[22.75559,52.29149],[22.75448,52.28827],[22.7541,52.28672],[22.75421,52.2862],[22.75445,52.28579]]}},{"type":"Feature","properties":{"numer":"3663W","klasa":"droga zbiorcza","kat":"powiatowa"},"geometry":{"type":"LineString","coordinates":[[22.71313986607374,52.30716213144423],[22.71318,52.30729]]}},{"type":"Feature","properties":{"numer":"3663W","klasa":"","kat":"powiatowa"},"geometry":{"type":"LineString","coordinates":[[22.71317,52.30778],[22.71318,52.30729]]}},{"type":"Feature","properties":{"numer":"3663W","klasa":"","kat":"powiatowa"},"geometry":{"type":"LineString","coordinates":[[22.71549,52.32011],[22.71562,52.31972],[22.71568,52.31859],[22.71463,52.31721],[22.71424,52.3161],[22.71265,52.31383],[22.71231,52.313],[22.71228,52.31238],[22.713,52.31027],[22.71317,52.30778]]}},{"type":"Feature","properties":{"numer":"3663W","klasa":"","kat":"powiatowa"},"geometry":{"type":"LineString","coordinates":[[22.71554,52.32028],[22.71549,52.32011]]}},{"type":"Feature","properties":{"numer":"2001W","klasa":"","kat":"powiatowa"},"geometry":{"type":"LineString","coordinates":[[22.71542,52.32029],[22.71554,52.32028]]}},{"type":"Feature","properties":{"numer":"2001W","klasa":"","kat":"powiatowa"},"geometry":{"type":"LineString","coordinates":[[22.71554,52.32028],[22.71743,52.3202],[22.72004,52.32055]]}},{"type":"Feature","properties":{"numer":"3664W","klasa":"droga zbiorcza","kat":"powiatowa"},"geometry":{"type":"LineString","coordinates":[[22.69107,52.2396],[22.691037593651146,52.239736359182196]]}},{"type":"Feature","properties":{"numer":"2001W","klasa":"","kat":"powiatowa"},"geometry":{"type":"LineString","coordinates":[[22.75445,52.28579],[22.75684,52.28387],[22.75731,52.28363],[22.75829,52.2834],[22.76081,52.28316],[22.76456,52.28208],[22.76812,52.28139],[22.76891,52.28132],[22.76996,52.28136],[22.77278,52.28234],[22.77397,52.28259],[22.77447,52.28254],[22.77571,52.28211],[22.77775,52.28156],[22.7794,52.28134],[22.78669,52.28101],[22.79304,52.28107]]}},{"type":"Feature","properties":{"numer":"2048W","klasa":"","kat":"powiatowa"},"geometry":{"type":"LineString","coordinates":[[22.74483,52.2866],[22.74594,52.2868],[22.74657,52.28682],[22.75064,52.28619],[22.75445,52.28579]]}},{"type":"Feature","properties":{"numer":"2048W","klasa":"","kat":"powiatowa"},"geometry":{"type":"LineString","coordinates":[[22.74467,52.28657],[22.74483,52.2866]]}},{"type":"Feature","properties":{"numer":"2004W","klasa":"","kat":"powiatowa"},"geometry":{"type":"LineString","coordinates":[[22.81891,52.30168],[22.81218,52.29987],[22.80724,52.29876],[22.80568,52.29831],[22.80682,52.29678],[22.80698,52.29605],[22.80402,52.28416],[22.80352,52.28397],[22.80033,52.28386],[22.79929,52.28368],[22.79803,52.28328],[22.79469,52.28195],[22.79304,52.28107]]}},{"type":"Feature","properties":{"numer":"2043W","klasa":"droga zbiorcza","kat":"powiatowa"},"geometry":{"type":"LineString","coordinates":[[22.804,52.31814],[22.8096,52.31233],[22.81724,52.30407],[22.81891,52.30168]]}},{"type":"Feature","properties":{"numer":"2043W","klasa":"droga zbiorcza","kat":"powiatowa"},"geometry":{"type":"LineString","coordinates":[[22.77435,52.36844],[22.77607,52.35462],[22.77691,52.34667],[22.77704,52.34053],[22.77721,52.33762],[22.77976,52.33501],[22.78144,52.33394],[22.78217,52.33353],[22.78476,52.33238],[22.79533,52.32674],[22.79785,52.3244],[22.804,52.31814]]}},{"type":"Feature","properties":{"numer":"2045W","klasa":"droga zbiorcza","kat":"powiatowa"},"geometry":{"type":"LineString","coordinates":[[22.82006,52.3622],[22.81936,52.36257],[22.81545,52.36411],[22.81038,52.36662],[22.8088,52.36772],[22.80803,52.36809],[22.80675,52.36851],[22.80447,52.36892],[22.80255,52.36914],[22.80158,52.36918],[22.79289,52.36919],[22.78992,52.36937],[22.78724,52.36923],[22.78473,52.36925],[22.78079,52.36937],[22.7766,52.36916],[22.77435,52.36844]]}},{"type":"Feature","properties":{"numer":"2001W","klasa":"","kat":"powiatowa"},"geometry":{"type":"LineString","coordinates":[[22.72004,52.32055],[22.72038,52.32057]]}},{"type":"Feature","properties":{"numer":"3663W","klasa":"","kat":"powiatowa"},"geometry":{"type":"LineString","coordinates":[[22.713764193628588,52.324101129748726],[22.71542,52.32029]]}}]}