{"type":"FeatureCollection","features":[{"type":"Feature","properties":{"numer":"1148B","klasa":"droga zbiorcza","kat":"powiatowa"},"geometry":{"type":"LineString","coordinates":[[22.93460541088224,54.04050344346508],[22.90903,54.04654],[22.89884,54.0494]]}},{"type":"Feature","properties":{"numer":"1148B","klasa":"droga zbiorcza","kat":"powiatowa"},"geometry":{"type":"LineString","coordinates":[[22.89884,54.0494],[22.89854,54.04902]]}},{"type":"Feature","properties":{"numer":"1148B","klasa":"droga zbiorcza","kat":"powiatowa"},"geometry":{"type":"LineString","coordinates":[[22.89884,54.0494],[22.8972,54.05018]]}},{"type":"Feature","properties":{"numer":"8,E67","klasa":"droga gĹ‚Ăłwna ruchu przyĹ›pieszonego","kat":"gminna"},"geometry":{"type":"LineString","coordinates":[[22.89584657760813,54.051184936386775],[22.8972,54.05018]]}},{"type":"Feature","properties":{"numer":"662","klasa":"droga gĹ‚Ăłwna","kat":"wojewodzka"},"geometry":{"type":"LineString","coordinates":[[22.93696,54.05222],[22.93728991077705,54.05058044341102]]}},{"type":"Feature","properties":{"numer":"1149B","klasa":"droga zbiorcza","kat":"powiatowa"},"geometry":{"type":"LineString","coordinates":[[22.9511,54.07911],[22.95389,54.07379],[22.95773,54.06868],[22.95824,54.06783],[22.95933,54.06472],[22.95882,54.05922],[22.959,54.05818],[22.9599,54.05652],[22.96152193759934,54.054519941978725]]}},{"type":"Feature","properties":{"numer":"662","klasa":"droga gĹ‚Ăłwna","kat":"wojewodzka"},"geometry":{"type":"LineString","coordinates":[[22.93335,54.06954],[22.93696,54.05222]]}},{"type":"Feature","properties":{"numer":"655","klasa":"droga gĹ‚Ăłwna","kat":"wojewodzka"},"geometry":{"type":"LineString","coordinates":[[22.91245,54.07179],[22.91113,54.0711],[22.91032,54.07051],[22.894323195156815,54.0524336105272]]}},{"type":"Feature","properties":{"numer":"662","klasa":"droga gĹ‚Ăłwna","kat":"wojewodzka"},"geometry":{"type":"LineString","coordinates":[[22.93333,54.06993],[22.93335,54.06954]]}},{"type":"Feature","properties":{"numer":"101255B","klasa":"droga zbiorcza","kat":"powiatowa"},"geometry":{"type":"LineString","coordinates":[[22.93324,54.06991],[22.93271,54.06981]]}},{"type":"Feature","properties":{"numer":"101255B","klasa":"droga zbiorcza","kat":"powiatowa"},"geometry":{"type":"LineString","coordinates":[[22.93333,54.06993],[22.93324,54.06991]]}},{"type":"Feature","properties":{"numer":"101255B","klasa":"droga zbiorcza","kat":"powiatowa"},"geometry":{"type":"LineString","coordinates":[[22.9334,54.06994],[22.93333,54.06993]]}},{"type":"Feature","properties":{"numer":"662","klasa":"droga gĹ‚Ăłwna","kat":"wojewodzka"},"geometry":{"type":"LineString","coordinates":[[22.93336,54.07056],[22.93333,54.06993]]}},{"type":"Feature","properties":{"numer":"662","klasa":"droga gĹ‚Ăłwna","kat":"wojewodzka"},"geometry":{"type":"LineString","coordinates":[[22.93336,54.07056],[22.93337,54.07072]]}},{"type":"Feature","properties":{"numer":"662","klasa":"droga gĹ‚Ăłwna","kat":"wojewodzka"},"geometry":{"type":"LineString","coordinates":[[22.93337,54.07072],[22.93356,54.07085]]}},{"type":"Feature","properties":{"numer":"101408B","klasa":"droga zbiorcza","kat":"powiatowa"},"geometry":{"type":"LineString","coordinates":[[22.93324,54.07087],[22.93337,54.07072]]}},{"type":"Feature","properties":{"numer":"101408B","klasa":"droga zbiorcza","kat":"powiatowa"},"geometry":{"type":"LineString","coordinates":[[22.93307,54.07109],[22.93324,54.07087]]}},{"type":"Feature","properties":{"numer":"662","klasa":"droga gĹ‚Ăłwna","kat":"wojewodzka"},"geometry":{"type":"LineString","coordinates":[[22.93356,54.07085],[22.93397,54.07111]]}},{"type":"Feature","properties":{"numer":"101408B","klasa":"droga zbiorcza","kat":"powiatowa"},"geometry":{"type":"LineString","coordinates":[[22.93294,54.07141],[22.93307,54.07109]]}},{"type":"Feature","properties":{"numer":"101408B","klasa":"droga zbiorcza","kat":"powiatowa"},"geometry":{"type":"LineString","coordinates":[[22.9328,54.07214],[22.93294,54.07141]]}},{"type":"Feature","properties":{"numer":"101408B","klasa":"droga zbiorcza","kat":"powiatowa"},"geometry":{"type":"LineString","coordinates":[[22.93277,54.07229],[22.9328,54.07214]]}},{"type":"Feature","properties":{"numer":"655","klasa":"droga gĹ‚Ăłwna","kat":"wojewodzka"},"geometry":{"type":"LineString","coordinates":[[22.91585,54.07297],[22.9137,54.07233],[22.91245,54.07179]]}},{"type":"Feature","properties":{"numer":"101408B","klasa":"droga zbiorcza","kat":"powiatowa"},"geometry":{"type":"LineString","coordinates":[[22.93268,54.07271],[22.93277,54.07229]]}},{"type":"Feature","properties":{"numer":"1151B","klasa":"droga zbiorcza","kat":"powiatowa"},"geometry":{"type":"LineString","coordinates":[[22.968500765352196,54.075347495860925],[22.96797,54.07563],[22.96384,54.07731],[22.95898,54.07946],[22.95849,54.07956],[22.95783,54.07958],[22.9511,54.07911]]}},{"type":"Feature","properties":{"numer":"101408B","klasa":"droga zbiorcza","kat":"powiatowa"},"geometry":{"type":"LineString","coordinates":[[22.93262,54.07299],[22.93268,54.07271]]}},{"type":"Feature","properties":{"numer":"655","klasa":"droga gĹ‚Ăłwna","kat":"wojewodzka"},"geometry":{"type":"LineString","coordinates":[[22.91622,54.07308],[22.91585,54.07297]]}},{"type":"Feature","properties":{"numer":"655","klasa":"droga gĹ‚Ăłwna","kat":"wojewodzka"},"geometry":{"type":"LineString","coordinates":[[22.91657,54.07315],[22.91622,54.07308]]}},{"type":"Feature","properties":{"numer":"101408B","klasa":"droga zbiorcza","kat":"powiatowa"},"geometry":{"type":"LineString","coordinates":[[22.93257,54.07324],[22.93262,54.07299]]}},{"type":"Feature","properties":{"numer":"655","klasa":"droga gĹ‚Ăłwna","kat":"wojewodzka"},"geometry":{"type":"LineString","coordinates":[[22.91687,54.07322],[22.91657,54.07315]]}},{"type":"Feature","properties":{"numer":"2451B","klasa":"droga zbiorcza","kat":"powiatowa"},"geometry":{"type":"LineString","coordinates":[[22.91645,54.07332],[22.91657,54.07315]]}},{"type":"Feature","properties":{"numer":"662","klasa":"droga gĹ‚Ăłwna","kat":"wojewodzka"},"geometry":{"type":"LineString","coordinates":[[22.93397,54.07111],[22.9348,54.0716],[22.9375,54.07284],[22.93809,54.07324],[22.93873,54.07403],[22.93913,54.0754]]}},{"type":"Feature","properties":{"numer":"655","klasa":"droga gĹ‚Ăłwna","kat":"wojewodzka"},"geometry":{"type":"LineString","coordinates":[[22.91754,54.07336],[22.91687,54.07322]]}},{"type":"Feature","properties":{"numer":"2494B","klasa":"","kat":"powiatowa"},"geometry":{"type":"LineString","coordinates":[[22.91419,54.07485],[22.91201,54.07242],[22.91201,54.07217],[22.91245,54.07179]]}},{"type":"Feature","properties":{"numer":"101408B","klasa":"droga zbiorcza","kat":"powiatowa"},"geometry":{"type":"LineString","coordinates":[[22.93245,54.07381],[22.93257,54.07324]]}},{"type":"Feature","properties":{"numer":"2451B","klasa":"droga zbiorcza","kat":"powiatowa"},"geometry":{"type":"LineString","coordinates":[[22.91617,54.07375],[22.91645,54.07332]]}},{"type":"Feature","properties":{"numer":"655","klasa":"droga gĹ‚Ăłwna","kat":"wojewodzka"},"geometry":{"type":"LineString","coordinates":[[22.9218,54.07413],[22.91754,54.07336]]}},{"type":"Feature","properties":{"numer":"2451B","klasa":"droga zbiorcza","kat":"powiatowa"},"geometry":{"type":"LineString","coordinates":[[22.91541,54.0747],[22.91617,54.07375]]}},{"type":"Feature","properties":{"numer":"101408B","klasa":"droga zbiorcza","kat":"powiatowa"},"geometry":{"type":"LineString","coordinates":[[22.93231,54.07446],[22.93237,54.07417]]}},{"type":"Feature","properties":{"numer":"101408B","klasa":"droga zbiorcza","kat":"powiatowa"},"geometry":{"type":"LineString","coordinates":[[22.93226,54.07472],[22.93231,54.07446]]}},{"type":"Feature","properties":{"numer":"2451B","klasa":"droga zbiorcza","kat":"powiatowa"},"geometry":{"type":"LineString","coordinates":[[22.91505,54.07504],[22.91541,54.0747]]}},{"type":"Feature","properties":{"numer":"2494B","klasa":"","kat":"powiatowa"},"geometry":{"type":"LineString","coordinates":[[22.91459,54.07506],[22.91419,54.07485]]}},{"type":"Feature","properties":{"numer":"655","klasa":"droga gĹ‚Ăłwna","kat":"wojewodzka"},"geometry":{"type":"LineString","coordinates":[[22.93204,54.07578],[22.92492,54.07451],[22.9218,54.07413]]}},{"type":"Feature","properties":{"numer":"2451B","klasa":"droga zbiorcza","kat":"powiatowa"},"geometry":{"type":"LineString","coordinates":[[22.91485,54.07522],[22.91505,54.07504]]}},{"type":"Feature","properties":{"numer":"2494B","klasa":"","kat":"powiatowa"},"geometry":{"type":"LineString","coordinates":[[22.91485,54.07522],[22.91459,54.07506]]}},{"type":"Feature","properties":{"numer":"101408B","klasa":"droga zbiorcza","kat":"powiatowa"},"geometry":{"type":"LineString","coordinates":[[22.93205,54.07572],[22.93226,54.07472]]}},{"type":"Feature","properties":{"numer":"2494B","klasa":"","kat":"powiatowa"},"geometry":{"type":"LineString","coordinates":[[22.91481,54.07539],[22.91485,54.07522]]}},{"type":"Feature","properties":{"numer":"2494B","klasa":"","kat":"powiatowa"},"geometry":{"type":"LineString","coordinates":[[22.91489,54.07568],[22.91481,54.07539]]}},{"type":"Feature","properties":{"numer":"662","klasa":"droga gĹ‚Ăłwna","kat":"wojewodzka"},"geometry":{"type":"LineString","coordinates":[[22.93913,54.0754],[22.93917,54.07606]]}},{"type":"Feature","properties":{"numer":"101408B","klasa":"droga zbiorcza","kat":"powiatowa"},"geometry":{"type":"LineString","coordinates":[[22.93204,54.07578],[22.93205,54.07572]]}},{"type":"Feature","properties":{"numer":"101408B","klasa":"droga zbiorcza","kat":"powiatowa"},"geometry":{"type":"LineString","coordinates":[[22.93202,54.07584],[22.93204,54.07578]]}},{"type":"Feature","properties":{"numer":"655","klasa":"droga gĹ‚Ăłwna","kat":"wojewodzka"},"geometry":{"type":"LineString","coordinates":[[22.93883,54.07623],[22.93311,54.0759],[22.93204,54.07578]]}},{"type":"Feature","properties":{"numer":"662","klasa":"droga gĹ‚Ăłwna","kat":"wojewodzka"},"geometry":{"type":"LineString","coordinates":[[22.93917,54.07606],[22.93917,54.07626]]}},{"type":"Feature","properties":{"numer":"101408B","klasa":"droga zbiorcza","kat":"powiatowa"},"geometry":{"type":"LineString","coordinates":[[22.93186,54.07662],[22.93202,54.07584]]}},{"type":"Feature","properties":{"numer":"655","klasa":"droga gĹ‚Ăłwna","kat":"wojewodzka"},"geometry":{"type":"LineString","coordinates":[[22.93917,54.07626],[22.93883,54.07623]]}},{"type":"Feature","properties":{"numer":"655,662","klasa":"droga gĹ‚Ăłwna","kat":"gminna"},"geometry":{"type":"LineString","coordinates":[[22.93917,54.07626],[22.93925,54.07641]]}},{"type":"Feature","properties":{"numer":"101408B","klasa":"droga zbiorcza","kat":"powiatowa"},"geometry":{"type":"LineString","coordinates":[[22.93163,54.07773],[22.93186,54.07662]]}},{"type":"Feature","properties":{"numer":"655,662","klasa":"droga gĹ‚Ăłwna","kat":"gminna"},"geometry":{"type":"LineString","coordinates":[[22.93925,54.07641],[22.94019,54.07919]]}},{"type":"Feature","properties":{"numer":"2494B","klasa":"","kat":"powiatowa"},"geometry":{"type":"LineString","coordinates":[[22.91871,54.07995],[22.91489,54.07568]]}},{"type":"Feature","properties":{"numer":"101408B","klasa":"droga zbiorcza","kat":"powiatowa"},"geometry":{"type":"LineString","coordinates":[[22.93149,54.07837],[22.93163,54.07773]]}},{"type":"Feature","properties":{"numer":"101408B","klasa":"droga zbiorcza","kat":"powiatowa"},"geometry":{"type":"LineString","coordinates":[[22.93137,54.07896],[22.93149,54.07837]]}},{"type":"Feature","properties":{"numer":"101408B","klasa":"droga zbiorcza","kat":"powiatowa"},"geometry":{"type":"LineString","coordinates":[[22.93127,54.0794],[22.93137,54.07896]]}},{"type":"Feature","properties":{"numer":"101263B","klasa":"droga zbiorcza","kat":"powiatowa"},"geometry":{"type":"LineString","coordinates":[[22.93978,54.07953],[22.93834,54.07944]]}},{"type":"Feature","properties":{"numer":"101264B","klasa":"droga zbiorcza","kat":"powiatowa"},"geometry":{"type":"LineString","coordinates":[[22.92072,54.07944],[22.92211,54.07939],[22.92389,54.07959]]}},{"type":"Feature","properties":{"numer":"101408B","klasa":"droga zbiorcza","kat":"powiatowa"},"geometry":{"type":"LineString","coordinates":[[22.93123,54.0796],[22.93127,54.0794]]}},{"type":"Feature","properties":{"numer":"101264B","klasa":"droga zbiorcza","kat":"powiatowa"},"geometry":{"type":"LineString","coordinates":[[22.92528,54.07951],[22.9255,54.07949]]}},{"type":"Feature","properties":{"numer":"101264B","klasa":"droga zbiorcza","kat":"powiatowa"},"geometry":{"type":"LineString","coordinates":[[22.9255,54.07949],[22.92624,54.07957]]}},{"type":"Feature","properties":{"numer":"101264B","klasa":"droga zbiorcza","kat":"powiatowa"},"geometry":{"type":"LineString","coordinates":[[22.9245,54.07957],[22.92528,54.07951]]}},{"type":"Feature","properties":{"numer":"101264B","klasa":"droga zbiorcza","kat":"powiatowa"},"geometry":{"type":"LineString","coordinates":[[22.92896,54.07958],[22.92979,54.07951],[22.93123,54.0796]]}},{"type":"Feature","properties":{"numer":"101264B","klasa":"droga zbiorcza","kat":"powiatowa"},"geometry":{"type":"LineString","coordinates":[[22.91963,54.07968],[22.92072,54.07944]]}},{"type":"Feature","properties":{"numer":"101264B","klasa":"droga zbiorcza","kat":"powiatowa"},"geometry":{"type":"LineString","coordinates":[[22.92389,54.07959],[22.9245,54.07957]]}},{"type":"Feature","properties":{"numer":"101264B","klasa":"droga zbiorcza","kat":"powiatowa"},"geometry":{"type":"LineString","coordinates":[[22.92624,54.07957],[22.9265,54.07961]]}},{"type":"Feature","properties":{"numer":"101264B","klasa":"droga zbiorcza","kat":"powiatowa"},"geometry":{"type":"LineString","coordinates":[[22.9265,54.07961],[22.92714,54.07969]]}},{"type":"Feature","properties":{"numer":"101264B","klasa":"droga zbiorcza","kat":"powiatowa"},"geometry":{"type":"LineString","coordinates":[[22.92814,54.07977],[22.92896,54.07958]]}},{"type":"Feature","properties":{"numer":"101264B","klasa":"droga zbiorcza","kat":"powiatowa"},"geometry":{"type":"LineString","coordinates":[[22.91951,54.07971],[22.91963,54.07968]]}},{"type":"Feature","properties":{"numer":"101264B","klasa":"droga zbiorcza","kat":"powiatowa"},"geometry":{"type":"LineString","coordinates":[[22.92714,54.07969],[22.9274,54.07972]]}},{"type":"Feature","properties":{"numer":"101264B","klasa":"droga zbiorcza","kat":"powiatowa"},"geometry":{"type":"LineString","coordinates":[[22.9274,54.07972],[22.92814,54.07977]]}},{"type":"Feature","properties":{"numer":"101264B","klasa":"droga zbiorcza","kat":"powiatowa"},"geometry":{"type":"LineString","coordinates":[[22.91871,54.07995],[22.91951,54.07971]]}},{"type":"Feature","properties":{"numer":"101408B","klasa":"droga zbiorcza","kat":"powiatowa"},"geometry":{"type":"LineString","coordinates":[[22.93111,54.08015],[22.93123,54.0796]]}},{"type":"Feature","properties":{"numer":"101263B","klasa":"droga zbiorcza","kat":"powiatowa"},"geometry":{"type":"LineString","coordinates":[[22.93823,54.08063],[22.93812,54.08031],[22.93834,54.07944]]}},{"type":"Feature","properties":{"numer":"101408B","klasa":"droga zbiorcza","kat":"powiatowa"},"geometry":{"type":"LineString","coordinates":[[22.93098,54.08081],[22.93111,54.08015]]}},{"type":"Feature","properties":{"numer":"101263B","klasa":"droga zbiorcza","kat":"powiatowa"},"geometry":{"type":"LineString","coordinates":[[22.93819,54.08065],[22.93823,54.08063]]}},{"type":"Feature","properties":{"numer":"101263B","klasa":"droga zbiorcza","kat":"powiatowa"},"geometry":{"type":"LineString","coordinates":[[22.93736,54.08079],[22.93819,54.08065]]}},{"type":"Feature","properties":{"numer":"101408B","klasa":"droga zbiorcza","kat":"powiatowa"},"geometry":{"type":"LineString","coordinates":[[22.9308,54.08166],[22.93098,54.08081]]}},{"type":"Feature","properties":{"numer":"2494B","klasa":"","kat":"powiatowa"},"geometry":{"type":"LineString","coordinates":[[22.92114,54.08274],[22.91871,54.07995]]}},{"type":"Feature","properties":{"numer":"101408B","klasa":"droga zbiorcza","kat":"powiatowa"},"geometry":{"type":"LineString","coordinates":[[22.93049,54.08308],[22.9308,54.08166]]}},{"type":"Feature","properties":{"numer":"101263B","klasa":"droga zbiorcza","kat":"powiatowa"},"geometry":{"type":"LineString","coordinates":[[22.93642,54.08408],[22.9371,54.08102],[22.93736,54.08079]]}},{"type":"Feature","properties":{"numer":"2494B","klasa":"","kat":"powiatowa"},"geometry":{"type":"LineString","coordinates":[[22.92139,54.08301],[22.92114,54.08274]]}},{"type":"Feature","properties":{"numer":"101252B","klasa":"droga lokalna","kat":"powiatowa"},"geometry":{"type":"LineString","coordinates":[[22.92236,54.08292],[22.92215,54.08298]]}},{"type":"Feature","properties":{"numer":"101252B","klasa":"","kat":"powiatowa"},"geometry":{"type":"LineString","coordinates":[[22.92215,54.08298],[22.92171,54.08307]]}},{"type":"Feature","properties":{"numer":"2494B","klasa":"","kat":"powiatowa"},"geometry":{"type":"LineString","coordinates":[[22.92151,54.08311],[22.92139,54.08301]]}},{"type":"Feature","properties":{"numer":"","klasa":"droga zbiorcza","kat":"powiatowa"},"geometry":{"type":"LineString","coordinates":[[22.92171,54.08307],[22.92151,54.08311]]}},{"type":"Feature","properties":{"numer":"101368B","klasa":"droga lokalna","kat":"powiatowa"},"geometry":{"type":"LineString","coordinates":[[22.92236,54.08292],[22.92267,54.08326]]}},{"type":"Feature","properties":{"numer":"2474B","klasa":"droga zbiorcza","kat":"powiatowa"},"geometry":{"type":"LineString","coordinates":[[22.92151,54.08311],[22.92133,54.08318]]}},{"type":"Feature","properties":{"numer":"2494B","klasa":"droga zbiorcza","kat":"powiatowa"},"geometry":{"type":"LineString","coordinates":[[22.9216,54.08323],[22.92151,54.08311]]}},{"type":"Feature","properties":{"numer":"101408B","klasa":"droga zbiorcza","kat":"powiatowa"},"geometry":{"type":"LineString","coordinates":[[22.93045,54.08328],[22.93049,54.08308]]}},{"type":"Feature","properties":{"numer":"2474B","klasa":"droga zbiorcza","kat":"powiatowa"},"geometry":{"type":"LineString","coordinates":[[22.92133,54.08318],[22.92101,54.08331]]}},{"type":"Feature","properties":{"numer":"2494B","klasa":"droga zbiorcza","kat":"powiatowa"},"geometry":{"type":"LineString","coordinates":[[22.92177,54.08343],[22.9216,54.08323]]}},{"type":"Feature","properties":{"numer":"1149B","klasa":"droga zbiorcza","kat":"powiatowa"},"geometry":{"type":"LineString","coordinates":[[22.94673,54.08768],[22.9511,54.07911]]}},{"type":"Feature","properties":{"numer":"101368B","klasa":"droga lokalna","kat":"powiatowa"},"geometry":{"type":"LineString","coordinates":[[22.92267,54.08326],[22.92313,54.08376]]}},{"type":"Feature","properties":{"numer":"655,662","klasa":"droga gĹ‚Ăłwna","kat":"gminna"},"geometry":{"type":"LineString","coordinates":[[22.94019,54.07919],[22.94176,54.08488],[22.94367,54.0883]]}},{"type":"Feature","properties":{"numer":"101368B","klasa":"droga lokalna","kat":"powiatowa"},"geometry":{"type":"LineString","coordinates":[[22.92313,54.08376],[22.92365,54.08431]]}},{"type":"Feature","properties":{"numer":"101408B","klasa":"droga zbiorcza","kat":"powiatowa"},"geometry":{"type":"LineString","coordinates":[[22.93012,54.08496],[22.93045,54.08328]]}},{"type":"Feature","properties":{"numer":"101263B","klasa":"droga zbiorcza","kat":"powiatowa"},"geometry":{"type":"LineString","coordinates":[[22.93629,54.08469],[22.93642,54.08408]]}},{"type":"Feature","properties":{"numer":"101368B","klasa":"droga lokalna","kat":"powiatowa"},"geometry":{"type":"LineString","coordinates":[[22.92365,54.08431],[22.9244,54.08512]]}},{"type":"Feature","properties":{"numer":"101263B","klasa":"droga zbiorcza","kat":"powiatowa"},"geometry":{"type":"LineString","coordinates":[[22.93615,54.0853],[22.93629,54.08469]]}},{"type":"Feature","properties":{"numer":"2494B","klasa":"droga zbiorcza","kat":"powiatowa"},"geometry":{"type":"LineString","coordinates":[[22.92478,54.08677],[22.92177,54.08343]]}},{"type":"Feature","properties":{"numer":"101408B","klasa":"droga zbiorcza","kat":"powiatowa"},"geometry":{"type":"LineString","coordinates":[[22.93003,54.08541],[22.93012,54.08496]]}},{"type":"Feature","properties":{"numer":"101368B","klasa":"droga lokalna","kat":"powiatowa"},"geometry":{"type":"LineString","coordinates":[[22.9244,54.08512],[22.92478,54.08555],[22.92499,54.08566]]}},{"type":"Feature","properties":{"numer":"101263B","klasa":"droga zbiorcza","kat":"powiatowa"},"geometry":{"type":"LineString","coordinates":[[22.9361,54.08555],[22.93615,54.0853]]}},{"type":"Feature","properties":{"numer":"101408B","klasa":"droga zbiorcza","kat":"powiatowa"},"geometry":{"type":"LineString","coordinates":[[22.92996,54.08572],[22.93003,54.08541]]}},{"type":"Feature","properties":{"numer":"101368B","klasa":"droga lokalna","kat":"powiatowa"},"geometry":{"type":"LineString","coordinates":[[22.92558,54.08555],[22.92645,54.08565]]}},{"type":"Feature","properties":{"numer":"101368B","klasa":"droga lokalna","kat":"powiatowa"},"geometry":{"type":"LineString","coordinates":[[22.92499,54.08566],[22.92558,54.08555]]}},{"type":"Feature","properties":{"numer":"101263B","klasa":"droga zbiorcza","kat":"powiatowa"},"geometry":{"type":"LineString","coordinates":[[22.93606,54.08569],[22.9361,54.08555]]}},{"type":"Feature","properties":{"numer":"101408B","klasa":"droga zbiorcza","kat":"powiatowa"},"geometry":{"type":"LineString","coordinates":[[22.92993,54.08585],[22.92996,54.08572]]}},{"type":"Feature","properties":{"numer":"101342B","klasa":"droga lokalna","kat":"powiatowa"},"geometry":{"type":"LineString","coordinates":[[22.92624,54.08617],[22.92645,54.08565]]}},{"type":"Feature","properties":{"numer":"101408B","klasa":"droga zbiorcza","kat":"powiatowa"},"geometry":{"type":"LineString","coordinates":[[22.92981,54.08644],[22.92993,54.08585]]}},{"type":"Feature","properties":{"numer":"101263B","klasa":"droga zbiorcza","kat":"powiatowa"},"geometry":{"type":"LineString","coordinates":[[22.93541,54.08724],[22.93585,54.08662],[22.93606,54.08569]]}},{"type":"Feature","properties":{"numer":"101342B","klasa":"droga lokalna","kat":"powiatowa"},"geometry":{"type":"LineString","coordinates":[[22.92478,54.08677],[22.92598,54.08638],[22.92624,54.08617]]}},{"type":"Feature","properties":{"numer":"101408B","klasa":"droga zbiorcza","kat":"powiatowa"},"geometry":{"type":"LineString","coordinates":[[22.92969,54.08702],[22.92981,54.08644]]}},{"type":"Feature","properties":{"numer":"2474B","klasa":"droga zbiorcza","kat":"powiatowa"},"geometry":{"type":"LineString","coordinates":[[22.91729,54.09052],[22.91767,54.08963],[22.91907,54.08713],[22.92045,54.08374],[22.92067,54.08349],[22.92101,54.08331]]}},{"type":"Feature","properties":{"numer":"101408B","klasa":"droga zbiorcza","kat":"powiatowa"},"geometry":{"type":"LineString","coordinates":[[22.92952,54.08775],[22.92969,54.08702]]}},{"type":"Feature","properties":{"numer":"2414B","klasa":"droga zbiorcza","kat":"powiatowa"},"geometry":{"type":"LineString","coordinates":[[22.91729,54.09052],[22.8895,54.0851],[22.8881,54.08481],[22.886960545856898,54.0844301819523]]}},{"type":"Feature","properties":{"numer":"2494B","klasa":"droga zbiorcza","kat":"powiatowa"},"geometry":{"type":"LineString","coordinates":[[22.92603,54.08823],[22.92478,54.08677]]}},{"type":"Feature","properties":{"numer":"101263B","klasa":"droga zbiorcza","kat":"powiatowa"},"geometry":{"type":"LineString","coordinates":[[22.93408,54.08858],[22.93541,54.08724]]}},{"type":"Feature","properties":{"numer":"101408B","klasa":"droga zbiorcza","kat":"powiatowa"},"geometry":{"type":"LineString","coordinates":[[22.92939,54.08847],[22.92952,54.08775]]}},{"type":"Feature","properties":{"numer":"2494B","klasa":"droga zbiorcza","kat":"powiatowa"},"geometry":{"type":"LineString","coordinates":[[22.92624,54.08851],[22.92603,54.08823]]}},{"type":"Feature","properties":{"numer":"2495B","klasa":"droga zbiorcza","kat":"powiatowa"},"geometry":{"type":"LineString","coordinates":[[22.9265,54.08857],[22.92701,54.08845]]}},{"type":"Feature","properties":{"numer":"2494B","klasa":"droga zbiorcza","kat":"powiatowa"},"geometry":{"type":"LineString","coordinates":[[22.92632,54.08863],[22.92624,54.08851]]}},{"type":"Feature","properties":{"numer":"2495B","klasa":"droga zbiorcza","kat":"powiatowa"},"geometry":{"type":"LineString","coordinates":[[22.92701,54.08845],[22.92879,54.08875]]}},{"type":"Feature","properties":{"numer":"2495B","klasa":"droga zbiorcza","kat":"powiatowa"},"geometry":{"type":"LineString","coordinates":[[22.92632,54.08863],[22.9265,54.08857]]}},{"type":"Feature","properties":{"numer":"101408B","klasa":"droga zbiorcza","kat":"powiatowa"},"geometry":{"type":"LineString","coordinates":[[22.92935,54.0888],[22.92939,54.08847]]}},{"type":"Feature","properties":{"numer":"","klasa":"droga zbiorcza","kat":"powiatowa"},"geometry":{"type":"LineString","coordinates":[[22.92632,54.08863],[22.92617,54.08872]]}},{"type":"Feature","properties":{"numer":"","klasa":"droga zbiorcza","kat":"powiatowa"},"geometry":{"type":"LineString","coordinates":[[22.92643,54.08874],[22.92632,54.08863]]}},{"type":"Feature","properties":{"numer":"101263B","klasa":"droga zbiorcza","kat":"powiatowa"},"geometry":{"type":"LineString","coordinates":[[22.93395,54.08891],[22.93408,54.08858]]}},{"type":"Feature","properties":{"numer":"2495B","klasa":"droga zbiorcza","kat":"powiatowa"},"geometry":{"type":"LineString","coordinates":[[22.92935,54.0888],[22.92879,54.08875]]}},{"type":"Feature","properties":{"numer":"101263B","klasa":"droga zbiorcza","kat":"powiatowa"},"geometry":{"type":"LineString","coordinates":[[22.92935,54.0888],[22.9299,54.08882]]}},{"type":"Feature","properties":{"numer":"101481B","klasa":"","kat":"powiatowa"},"geometry":{"type":"LineString","coordinates":[[22.92617,54.08872],[22.92589,54.08894]]}},{"type":"Feature","properties":{"numer":"101263B","klasa":"droga zbiorcza","kat":"powiatowa"},"geometry":{"type":"LineString","coordinates":[[22.9299,54.08882],[22.93092,54.0889]]}},{"type":"Feature","properties":{"numer":"101263B","klasa":"droga zbiorcza","kat":"powiatowa"},"geometry":{"type":"LineString","coordinates":[[22.93092,54.0889],[22.9319,54.08896]]}},{"type":"Feature","properties":{"numer":"101263B","klasa":"droga zbiorcza","kat":"powiatowa"},"geometry":{"type":"LineString","coordinates":[[22.9339,54.08904],[22.93395,54.08891]]}},{"type":"Feature","properties":{"numer":"101263B","klasa":"droga zbiorcza","kat":"powiatowa"},"geometry":{"type":"LineString","coordinates":[[22.9319,54.08896],[22.93296,54.08904]]}},{"type":"Feature","properties":{"numer":"2496B","klasa":"droga zbiorcza","kat":"powiatowa"},"geometry":{"type":"LineString","coordinates":[[22.92932,54.08922],[22.92935,54.0888]]}},{"type":"Feature","properties":{"numer":"101263B","klasa":"droga zbiorcza","kat":"powiatowa"},"geometry":{"type":"LineString","coordinates":[[22.93367,54.08906],[22.9339,54.08904]]}},{"type":"Feature","properties":{"numer":"101263B","klasa":"droga zbiorcza","kat":"powiatowa"},"geometry":{"type":"LineString","coordinates":[[22.93296,54.08904],[22.93367,54.08906]]}},{"type":"Feature","properties":{"numer":"101481B","klasa":"droga lokalna","kat":"powiatowa"},"geometry":{"type":"LineString","coordinates":[[22.92589,54.08894],[22.92496,54.0896]]}},{"type":"Feature","properties":{"numer":"655,662","klasa":"droga gĹ‚Ăłwna","kat":"gminna"},"geometry":{"type":"LineString","coordinates":[[22.94367,54.0883],[22.94424,54.08935],[22.94454,54.0903]]}},{"type":"Feature","properties":{"numer":"120002B","klasa":"droga lokalna","kat":"powiatowa"},"geometry":{"type":"LineString","coordinates":[[22.93463,54.08929],[22.93579,54.08967],[22.93654,54.08983],[22.93738,54.08989],[22.93862,54.0898]]}},{"type":"Feature","properties":{"numer":"655","klasa":"droga gĹ‚Ăłwna","kat":"wojewodzka"},"geometry":{"type":"LineString","coordinates":[[22.94964,54.08997],[22.94974,54.08997]]}},{"type":"Feature","properties":{"numer":"655","klasa":"droga gĹ‚Ăłwna","kat":"wojewodzka"},"geometry":{"type":"LineString","coordinates":[[22.94843,54.0901],[22.94964,54.08997]]}},{"type":"Feature","properties":{"numer":"120002B","klasa":"droga lokalna","kat":"powiatowa"},"geometry":{"type":"LineString","coordinates":[[22.93862,54.0898],[22.93971,54.08969],[22.94077,54.08976],[22.94302,54.09037],[22.94359,54.09046]]}},{"type":"Feature","properties":{"numer":"2414B","klasa":"","kat":"powiatowa"},"geometry":{"type":"LineString","coordinates":[[22.92496,54.0896],[22.92399,54.0899],[22.91988,54.09052],[22.91863,54.09061],[22.91729,54.09052]]}},{"type":"Feature","properties":{"numer":"655","klasa":"droga gĹ‚Ăłwna","kat":"wojewodzka"},"geometry":{"type":"LineString","coordinates":[[22.94717,54.09026],[22.94843,54.0901]]}},{"type":"Feature","properties":{"numer":"655","klasa":"droga gĹ‚Ăłwna","kat":"wojewodzka"},"geometry":{"type":"LineString","coordinates":[[22.94717,54.09026],[22.94679,54.0903]]}},{"type":"Feature","properties":{"numer":"655","klasa":"droga gĹ‚Ăłwna","kat":"wojewodzka"},"geometry":{"type":"LineString","coordinates":[[22.94555,54.09042],[22.94679,54.0903]]}},{"type":"Feature","properties":{"numer":"655,662","klasa":"droga gĹ‚Ăłwna","kat":"gminna"},"geometry":{"type":"LineString","coordinates":[[22.94454,54.0903],[22.94457,54.09048]]}},{"type":"Feature","properties":{"numer":"655","klasa":"droga gĹ‚Ăłwna","kat":"wojewodzka"},"geometry":{"type":"LineString","coordinates":[[22.94487,54.09047],[22.94555,54.09042]]}},{"type":"Feature","properties":{"numer":"655","klasa":"droga gĹ‚Ăłwna","kat":"wojewodzka"},"geometry":{"type":"LineString","coordinates":[[22.94457,54.09048],[22.94487,54.09047]]}},{"type":"Feature","properties":{"numer":"2496B","klasa":"droga zbiorcza","kat":"powiatowa"},"geometry":{"type":"LineString","coordinates":[[22.92909,54.09181],[22.92932,54.08922]]}},{"type":"Feature","properties":{"numer":"662","klasa":"droga gĹ‚Ăłwna","kat":"wojewodzka"},"geometry":{"type":"LineString","coordinates":[[22.94457,54.09048],[22.94459,54.09066]]}},{"type":"Feature","properties":{"numer":"2414B","klasa":"","kat":"powiatowa"},"geometry":{"type":"LineString","coordinates":[[22.92891,54.09214],[22.92726,54.09193],[22.92695,54.09149],[22.92714,54.09095],[22.92703,54.09068],[22.92496,54.0896]]}},{"type":"Feature","properties":{"numer":"2474B","klasa":"droga zbiorcza","kat":"powiatowa"},"geometry":{"type":"LineString","coordinates":[[22.91685,54.09217],[22.91687,54.09175],[22.91729,54.09052]]}},{"type":"Feature","properties":{"numer":"","klasa":"droga lokalna","kat":"gminna"},"geometry":{"type":"LineString","coordinates":[[22.93541,54.09156],[22.93478,54.09157],[22.93337,54.09174]]}},{"type":"Feature","properties":{"numer":"662","klasa":"droga gĹ‚Ăłwna","kat":"wojewodzka"},"geometry":{"type":"LineString","coordinates":[[22.94415,54.09275],[22.94462,54.09151],[22.94459,54.09066]]}},{"type":"Feature","properties":{"numer":"","klasa":"droga lokalna","kat":"gminna"},"geometry":{"type":"LineString","coordinates":[[22.93815,54.09193],[22.93541,54.09156]]}},{"type":"Feature","properties":{"numer":"2496B","klasa":"droga zbiorcza","kat":"powiatowa"},"geometry":{"type":"LineString","coordinates":[[22.92909,54.09204],[22.92909,54.09181]]}},{"type":"Feature","properties":{"numer":"2496B","klasa":"droga zbiorcza","kat":"powiatowa"},"geometry":{"type":"LineString","coordinates":[[22.92911,54.09214],[22.92909,54.09204]]}},{"type":"Feature","properties":{"numer":"","klasa":"droga lokalna","kat":"gminna"},"geometry":{"type":"LineString","coordinates":[[22.93065,54.0921],[22.92998,54.09212]]}},{"type":"Feature","properties":{"numer":"","klasa":"droga lokalna","kat":"gminna"},"geometry":{"type":"LineString","coordinates":[[22.92998,54.09212],[22.92972,54.09212]]}},{"type":"Feature","properties":{"numer":"","klasa":"","kat":"gminna"},"geometry":{"type":"LineString","coordinates":[[22.92972,54.09212],[22.92924,54.09213]]}},{"type":"Feature","properties":{"numer":"","klasa":"droga lokalna","kat":"gminna"},"geometry":{"type":"LineString","coordinates":[[22.94117,54.09233],[22.93815,54.09193]]}},{"type":"Feature","properties":{"numer":"","klasa":"droga lokalna","kat":"gminna"},"geometry":{"type":"LineString","coordinates":[[22.92924,54.09213],[22.92911,54.09214]]}},{"type":"Feature","properties":{"numer":"2414B","klasa":"","kat":"powiatowa"},"geometry":{"type":"LineString","coordinates":[[22.92911,54.09214],[22.92891,54.09214]]}},{"type":"Feature","properties":{"numer":"2496B","klasa":"droga zbiorcza","kat":"powiatowa"},"geometry":{"type":"LineString","coordinates":[[22.92907,54.09223],[22.92911,54.09214]]}},{"type":"Feature","properties":{"numer":"2474B","klasa":"droga zbiorcza","kat":"powiatowa"},"geometry":{"type":"LineString","coordinates":[[22.91682,54.09245],[22.91685,54.09217]]}},{"type":"Feature","properties":{"numer":"2496B","klasa":"droga zbiorcza","kat":"powiatowa"},"geometry":{"type":"LineString","coordinates":[[22.92907,54.09223],[22.92905,54.09245]]}},{"type":"Feature","properties":{"numer":"","klasa":"droga dojazdowa","kat":"gminna"},"geometry":{"type":"LineString","coordinates":[[22.93065,54.0921],[22.93076,54.09225],[22.93248,54.09254],[22.93317,54.09279],[22.93456,54.09292]]}},{"type":"Feature","properties":{"numer":"2474B","klasa":"droga zbiorcza","kat":"powiatowa"},"geometry":{"type":"LineString","coordinates":[[22.91681,54.09257],[22.91682,54.09245]]}},{"type":"Feature","properties":{"numer":"653","klasa":"droga zbiorcza","kat":"wojewodzka"},"geometry":{"type":"LineString","coordinates":[[22.91681,54.09257],[22.91661,54.09259]]}},{"type":"Feature","properties":{"numer":"655","klasa":"droga gĹ‚Ăłwna","kat":"wojewodzka"},"geometry":{"type":"LineString","coordinates":[[22.94974,54.08997],[22.9513,54.09002],[22.95224,54.09022],[22.95356,54.09071],[22.955,54.09145],[22.9561,54.09242],[22.95836,54.09524]]}},{"type":"Feature","properties":{"numer":"653","klasa":"droga zbiorcza","kat":"wojewodzka"},"geometry":{"type":"LineString","coordinates":[[22.91695,54.09264],[22.91681,54.09257]]}},{"type":"Feature","properties":{"numer":"653","klasa":"droga zbiorcza","kat":"wojewodzka"},"geometry":{"type":"LineString","coordinates":[[22.91661,54.09259],[22.91617,54.09265]]}},{"type":"Feature","properties":{"numer":"653","klasa":"droga zbiorcza","kat":"wojewodzka"},"geometry":{"type":"LineString","coordinates":[[22.91731,54.09282],[22.91695,54.09264]]}},{"type":"Feature","properties":{"numer":"662","klasa":"droga gĹ‚Ăłwna","kat":"wojewodzka"},"geometry":{"type":"LineString","coordinates":[[22.94406,54.09273],[22.94415,54.09275]]}},{"type":"Feature","properties":{"numer":"662","klasa":"droga gĹ‚Ăłwna","kat":"wojewodzka"},"geometry":{"type":"LineString","coordinates":[[22.94415,54.09275],[22.94425,54.09276]]}},{"type":"Feature","properties":{"numer":"653","klasa":"droga gĹ‚Ăłwna","kat":"wojewodzka"},"geometry":{"type":"LineString","coordinates":[[22.96651,54.09689],[22.98147803984604,54.09160058435026]]}},{"type":"Feature","properties":{"numer":"1152B","klasa":"","kat":"powiatowa"},"geometry":{"type":"LineString","coordinates":[[22.96677,54.09738],[22.96631,54.09834],[22.9664,54.09862],[22.96682,54.099],[22.96741,54.09921],[22.97028,54.09977],[22.97143,54.09991],[22.97699,54.10038],[22.977083566273524,54.10037806535901]]}},{"type":"Feature","properties":{"numer":"101477B","klasa":"droga lokalna","kat":"powiatowa"},"geometry":{"type":"LineString","coordinates":[[22.94425,54.09276],[22.94502,54.09286],[22.94528,54.09297]]}},{"type":"Feature","properties":{"numer":"","klasa":"droga dojazdowa","kat":"gminna"},"geometry":{"type":"LineString","coordinates":[[22.93456,54.09292],[22.93668,54.09296]]}},{"type":"Feature","properties":{"numer":"2496B","klasa":"droga zbiorcza","kat":"powiatowa"},"geometry":{"type":"LineString","coordinates":[[22.92905,54.09245],[22.92898,54.09344]]}},{"type":"Feature","properties":{"numer":"101456B","klasa":"droga dojazdowa","kat":"powiatowa"},"geometry":{"type":"LineString","coordinates":[[22.94493,54.09376],[22.94528,54.09297]]}},{"type":"Feature","properties":{"numer":"2497B","klasa":"","kat":"powiatowa"},"geometry":{"type":"LineString","coordinates":[[22.92897,54.09359],[22.92898,54.09344]]}},{"type":"Feature","properties":{"numer":"662","klasa":"droga gĹ‚Ăłwna","kat":"wojewodzka"},"geometry":{"type":"LineString","coordinates":[[22.94311,54.09433],[22.94379,54.09347],[22.94415,54.09275]]}},{"type":"Feature","properties":{"numer":"","klasa":"droga dojazdowa","kat":"gminna"},"geometry":{"type":"LineString","coordinates":[[22.93668,54.09296],[22.94005,54.09357],[22.94304,54.09431]]}},{"type":"Feature","properties":{"numer":"653","klasa":"droga zbiorcza","kat":"wojewodzka"},"geometry":{"type":"LineString","coordinates":[[22.92517,54.09506],[22.92001,54.09418],[22.91931,54.09389],[22.91731,54.09282]]}},{"type":"Feature","properties":{"numer":"101456B","klasa":"droga dojazdowa","kat":"powiatowa"},"geometry":{"type":"LineString","coordinates":[[22.94545,54.09417],[22.94488,54.09391],[22.94493,54.09376]]}},{"type":"Feature","properties":{"numer":"2497B","klasa":"","kat":"powiatowa"},"geometry":{"type":"LineString","coordinates":[[22.92897,54.09359],[22.92883,54.09503]]}},{"type":"Feature","properties":{"numer":"662","klasa":"droga gĹ‚Ăłwna","kat":"wojewodzka"},"geometry":{"type":"LineString","coordinates":[[22.94304,54.09431],[22.94311,54.09433]]}},{"type":"Feature","properties":{"numer":"662","klasa":"droga gĹ‚Ăłwna","kat":"wojewodzka"},"geometry":{"type":"LineString","coordinates":[[22.94291,54.09456],[22.94311,54.09433]]}},{"type":"Feature","properties":{"numer":"101333B","klasa":"droga dojazdowa","kat":"powiatowa"},"geometry":{"type":"LineString","coordinates":[[22.94491,54.09486],[22.94514,54.09478],[22.94545,54.09417]]}},{"type":"Feature","properties":{"numer":"662","klasa":"droga gĹ‚Ăłwna","kat":"wojewodzka"},"geometry":{"type":"LineString","coordinates":[[22.94301,54.09459],[22.94291,54.09456]]}},{"type":"Feature","properties":{"numer":"101458B","klasa":"droga lokalna","kat":"powiatowa"},"geometry":{"type":"LineString","coordinates":[[22.94321,54.09464],[22.94301,54.09459]]}},{"type":"Feature","properties":{"numer":"653","klasa":"droga zbiorcza","kat":"wojewodzka"},"geometry":{"type":"LineString","coordinates":[[22.91617,54.09265],[22.9149,54.09282],[22.9141,54.09306],[22.91078,54.09475],[22.91,54.09537],[22.9091,54.09658]]}},{"type":"Feature","properties":{"numer":"101458B","klasa":"droga lokalna","kat":"powiatowa"},"geometry":{"type":"LineString","coordinates":[[22.94491,54.09486],[22.9447,54.09494],[22.94321,54.09464]]}},{"type":"Feature","properties":{"numer":"653","klasa":"droga zbiorcza","kat":"wojewodzka"},"geometry":{"type":"LineString","coordinates":[[22.89569,54.09483],[22.89697,54.09505]]}},{"type":"Feature","properties":{"numer":"653","klasa":"droga zbiorcza","kat":"wojewodzka"},"geometry":{"type":"LineString","coordinates":[[22.92569,54.09515],[22.92517,54.09506]]}},{"type":"Feature","properties":{"numer":"2497B","klasa":"","kat":"powiatowa"},"geometry":{"type":"LineString","coordinates":[[22.92883,54.09503],[22.92882,54.09533]]}},{"type":"Feature","properties":{"numer":"E67,S61","klasa":"droga ekspresowa","kat":"krajowa"},"geometry":{"type":"LineString","coordinates":[[22.86899,54.09417],[22.86912,54.09302],[22.869534966930498,54.091211929802824]]}},{"type":"Feature","properties":{"numer":"653","klasa":"droga zbiorcza","kat":"wojewodzka"},"geometry":{"type":"LineString","coordinates":[[22.882116038246338,54.09243106714221],[22.89569,54.09483]]}},{"type":"Feature","properties":{"numer":"S61","klasa":"droga ekspresowa","kat":"krajowa"},"geometry":{"type":"LineString","coordinates":[[22.86899,54.09417],[22.868989457478005,54.09419170087977]]}},{"type":"Feature","properties":{"numer":"E67,S61","klasa":"droga ekspresowa","kat":"krajowa"},"geometry":{"type":"LineString","coordinates":[[22.86913,54.09663],[22.86899421708647,54.09476524798754]]}},{"type":"Feature","properties":{"numer":"S61","klasa":"droga ekspresowa","kat":"krajowa"},"geometry":{"type":"LineString","coordinates":[[22.86913,54.09663],[22.869131814861028,54.09663743394998]]}},{"type":"Feature","properties":{"numer":"653","klasa":"droga zbiorcza","kat":"wojewodzka"},"geometry":{"type":"LineString","coordinates":[[22.92882,54.09533],[22.92665,54.09527],[22.92569,54.09515]]}},{"type":"Feature","properties":{"numer":"662","klasa":"droga gĹ‚Ăłwna","kat":"wojewodzka"},"geometry":{"type":"LineString","coordinates":[[22.94178,54.09596],[22.94291,54.09456]]}},{"type":"Feature","properties":{"numer":"655","klasa":"droga gĹ‚Ăłwna","kat":"wojewodzka"},"geometry":{"type":"LineString","coordinates":[[22.95859,54.09553],[22.95836,54.09524]]}},{"type":"Feature","properties":{"numer":"653","klasa":"droga zbiorcza","kat":"wojewodzka"},"geometry":{"type":"LineString","coordinates":[[22.94178,54.09596],[22.94134,54.09586],[22.93243,54.09562],[22.92882,54.09533]]}},{"type":"Feature","properties":{"numer":"653","klasa":"droga zbiorcza","kat":"wojewodzka"},"geometry":{"type":"LineString","coordinates":[[22.89697,54.09505],[22.90806,54.09702]]}},{"type":"Feature","properties":{"numer":"653,662","klasa":"droga gĹ‚Ăłwna","kat":"gminna"},"geometry":{"type":"LineString","coordinates":[[22.94147,54.09636],[22.94178,54.09596]]}},{"type":"Feature","properties":{"numer":"653,662","klasa":"droga zbiorcza","kat":"powiatowa"},"geometry":{"type":"LineString","coordinates":[[22.94147,54.09636],[22.94155,54.09639]]}},{"type":"Feature","properties":{"numer":"655","klasa":"droga gĹ‚Ăłwna","kat":"wojewodzka"},"geometry":{"type":"LineString","coordinates":[[22.95859,54.09553],[22.95976,54.09699],[22.96048,54.09763]]}},{"type":"Feature","properties":{"numer":"653","klasa":"droga zbiorcza","kat":"wojewodzka"},"geometry":{"type":"LineString","coordinates":[[22.90882,54.09705],[22.9091,54.09658]]}},{"type":"Feature","properties":{"numer":"653,662","klasa":"droga gĹ‚Ăłwna","kat":"gminna"},"geometry":{"type":"LineString","coordinates":[[22.94079,54.0976],[22.94147,54.09636]]}},{"type":"Feature","properties":{"numer":"653","klasa":"droga zbiorcza","kat":"wojewodzka"},"geometry":{"type":"LineString","coordinates":[[22.90854,54.09713],[22.90806,54.09702]]}},{"type":"Feature","properties":{"numer":"653","klasa":"droga zbiorcza","kat":"wojewodzka"},"geometry":{"type":"LineString","coordinates":[[22.90875,54.09717],[22.90882,54.09705]]}},{"type":"Feature","properties":{"numer":"1152B","klasa":"","kat":"powiatowa"},"geometry":{"type":"LineString","coordinates":[[22.96651,54.09689],[22.96674,54.09714],[22.96677,54.09738]]}},{"type":"Feature","properties":{"numer":"653","klasa":"droga zbiorcza","kat":"wojewodzka"},"geometry":{"type":"LineString","coordinates":[[22.90854,54.09713],[22.90875,54.09717]]}},{"type":"Feature","properties":{"numer":"2413B","klasa":"droga zbiorcza","kat":"powiatowa"},"geometry":{"type":"LineString","coordinates":[[22.90875,54.09717],[22.90894,54.09719]]}},{"type":"Feature","properties":{"numer":"2413B","klasa":"droga zbiorcza","kat":"powiatowa"},"geometry":{"type":"LineString","coordinates":[[22.90894,54.09719],[22.90937,54.09725]]}},{"type":"Feature","properties":{"numer":"101395B","klasa":"droga zbiorcza","kat":"powiatowa"},"geometry":{"type":"LineString","coordinates":[[22.90867,54.09728],[22.90875,54.09717]]}},{"type":"Feature","properties":{"numer":"101395B","klasa":"droga zbiorcza","kat":"powiatowa"},"geometry":{"type":"LineString","coordinates":[[22.90867,54.09728],[22.90849,54.09752]]}},{"type":"Feature","properties":{"numer":"653","klasa":"droga gĹ‚Ăłwna","kat":"wojewodzka"},"geometry":{"type":"LineString","coordinates":[[22.96651,54.09689],[22.96516,54.09734],[22.96156,54.09796]]}},{"type":"Feature","properties":{"numer":"101395B","klasa":"droga zbiorcza","kat":"powiatowa"},"geometry":{"type":"LineString","coordinates":[[22.90844,54.09759],[22.90849,54.09752]]}},{"type":"Feature","properties":{"numer":"653,662","klasa":"droga zbiorcza","kat":"powiatowa"},"geometry":{"type":"LineString","coordinates":[[22.94087,54.0976],[22.94079,54.0976]]}},{"type":"Feature","properties":{"numer":"653,662","klasa":"droga gĹ‚Ăłwna","kat":"gminna"},"geometry":{"type":"LineString","coordinates":[[22.9407,54.09787],[22.94079,54.0976]]}},{"type":"Feature","properties":{"numer":"655","klasa":"droga gĹ‚Ăłwna","kat":"wojewodzka"},"geometry":{"type":"LineString","coordinates":[[22.96048,54.09763],[22.96076,54.09795]]}},{"type":"Feature","properties":{"numer":"653,662","klasa":"droga zbiorcza","kat":"powiatowa"},"geometry":{"type":"LineString","coordinates":[[22.94064,54.09786],[22.9407,54.09787]]}},{"type":"Feature","properties":{"numer":"101395B","klasa":"droga zbiorcza","kat":"powiatowa"},"geometry":{"type":"LineString","coordinates":[[22.90803,54.09815],[22.90844,54.09759]]}},{"type":"Feature","properties":{"numer":"653,662","klasa":"droga zbiorcza","kat":"powiatowa"},"geometry":{"type":"LineString","coordinates":[[22.94077,54.0979],[22.9407,54.09787]]}},{"type":"Feature","properties":{"numer":"2413B","klasa":"droga zbiorcza","kat":"powiatowa"},"geometry":{"type":"LineString","coordinates":[[22.91728,54.09874],[22.91452,54.09814],[22.90937,54.09725]]}},{"type":"Feature","properties":{"numer":"653","klasa":"droga gĹ‚Ăłwna","kat":"wojewodzka"},"geometry":{"type":"LineString","coordinates":[[22.96156,54.09796],[22.96105,54.09803]]}},{"type":"Feature","properties":{"numer":"655","klasa":"droga gĹ‚Ăłwna","kat":"wojewodzka"},"geometry":{"type":"LineString","coordinates":[[22.96084,54.09807],[22.96076,54.09795]]}},{"type":"Feature","properties":{"numer":"653","klasa":"droga gĹ‚Ăłwna","kat":"wojewodzka"},"geometry":{"type":"LineString","coordinates":[[22.96105,54.09803],[22.96084,54.09807]]}},{"type":"Feature","properties":{"numer":"653,655","klasa":"droga zbiorcza","kat":"powiatowa"},"geometry":{"type":"LineString","coordinates":[[22.96084,54.09807],[22.96063,54.0981]]}},{"type":"Feature","properties":{"numer":"","klasa":"droga gĹ‚Ăłwna","kat":"gminna"},"geometry":{"type":"LineString","coordinates":[[22.96084,54.09807],[22.9609,54.09819]]}},{"type":"Feature","properties":{"numer":"653,655","klasa":"droga zbiorcza","kat":"powiatowa"},"geometry":{"type":"LineString","coordinates":[[22.96063,54.0981],[22.96012,54.09818]]}},{"type":"Feature","properties":{"numer":"101395B","klasa":"droga zbiorcza","kat":"powiatowa"},"geometry":{"type":"LineString","coordinates":[[22.9077,54.09855],[22.90803,54.09815]]}},{"type":"Feature","properties":{"numer":"","klasa":"droga gĹ‚Ăłwna","kat":"gminna"},"geometry":{"type":"LineString","coordinates":[[22.9609,54.09819],[22.96106,54.09851]]}},{"type":"Feature","properties":{"numer":"2413B","klasa":"droga zbiorcza","kat":"powiatowa"},"geometry":{"type":"LineString","coordinates":[[22.91745,54.09887],[22.91728,54.09874]]}},{"type":"Feature","properties":{"numer":"653,655","klasa":"droga zbiorcza","kat":"powiatowa"},"geometry":{"type":"LineString","coordinates":[[22.96012,54.09818],[22.9519,54.09954]]}},{"type":"Feature","properties":{"numer":"101265B","klasa":"droga lokalna","kat":"powiatowa"},"geometry":{"type":"LineString","coordinates":[[22.92849,54.09887],[22.92958,54.0989]]}},{"type":"Feature","properties":{"numer":"101265B","klasa":"droga lokalna","kat":"powiatowa"},"geometry":{"type":"LineString","coordinates":[[22.92958,54.0989],[22.92964,54.0989]]}},{"type":"Feature","properties":{"numer":"101265B","klasa":"droga lokalna","kat":"powiatowa"},"geometry":{"type":"LineString","coordinates":[[22.92964,54.0989],[22.92971,54.09891]]}},{"type":"Feature","properties":{"numer":"2416B","klasa":"","kat":"powiatowa"},"geometry":{"type":"LineString","coordinates":[[22.92849,54.09887],[22.92848,54.09894],[22.92747,54.09891]]}},{"type":"Feature","properties":{"numer":"101265B","klasa":"droga lokalna","kat":"powiatowa"},"geometry":{"type":"LineString","coordinates":[[22.92971,54.09891],[22.93065,54.09894]]}},{"type":"Feature","properties":{"numer":"2413B","klasa":"droga zbiorcza","kat":"powiatowa"},"geometry":{"type":"LineString","coordinates":[[22.91745,54.09887],[22.91758,54.09899],[22.91779,54.09899]]}},{"type":"Feature","properties":{"numer":"101265B","klasa":"droga lokalna","kat":"powiatowa"},"geometry":{"type":"LineString","coordinates":[[22.93065,54.09894],[22.93215,54.09898]]}},{"type":"Feature","properties":{"numer":"101425B","klasa":"droga lokalna","kat":"powiatowa"},"geometry":{"type":"LineString","coordinates":[[22.92619,54.09888],[22.92616,54.09905]]}},{"type":"Feature","properties":{"numer":"101395B","klasa":"droga zbiorcza","kat":"powiatowa"},"geometry":{"type":"LineString","coordinates":[[22.90674,54.09939],[22.9077,54.09855]]}},{"type":"Feature","properties":{"numer":"101265B","klasa":"droga lokalna","kat":"powiatowa"},"geometry":{"type":"LineString","coordinates":[[22.93215,54.09898],[22.93392,54.09903]]}},{"type":"Feature","properties":{"numer":"2413B","klasa":"droga zbiorcza","kat":"powiatowa"},"geometry":{"type":"LineString","coordinates":[[22.91779,54.09899],[22.91816,54.09905]]}},{"type":"Feature","properties":{"numer":"101265B","klasa":"droga lokalna","kat":"powiatowa"},"geometry":{"type":"LineString","coordinates":[[22.93392,54.09903],[22.93502,54.09906]]}},{"type":"Feature","properties":{"numer":"101265B","klasa":"droga lokalna","kat":"powiatowa"},"geometry":{"type":"LineString","coordinates":[[22.93502,54.09906],[22.93554,54.09908]]}},{"type":"Feature","properties":{"numer":"101265B","klasa":"droga lokalna","kat":"powiatowa"},"geometry":{"type":"LineString","coordinates":[[22.93554,54.09908],[22.93636,54.0991]]}},{"type":"Feature","properties":{"numer":"101425B","klasa":"droga lokalna","kat":"powiatowa"},"geometry":{"type":"LineString","coordinates":[[22.92616,54.09905],[22.92612,54.09915]]}},{"type":"Feature","properties":{"numer":"101265B","klasa":"droga lokalna","kat":"powiatowa"},"geometry":{"type":"LineString","coordinates":[[22.93636,54.0991],[22.9372,54.09913]]}},{"type":"Feature","properties":{"numer":"101265B","klasa":"droga lokalna","kat":"powiatowa"},"geometry":{"type":"LineString","coordinates":[[22.9372,54.09913],[22.93924,54.09918]]}},{"type":"Feature","properties":{"numer":"101265B","klasa":"droga lokalna","kat":"powiatowa"},"geometry":{"type":"LineString","coordinates":[[22.93924,54.09918],[22.94017,54.09922]]}},{"type":"Feature","properties":{"numer":"101425B","klasa":"droga lokalna","kat":"powiatowa"},"geometry":{"type":"LineString","coordinates":[[22.92612,54.09915],[22.92607,54.09937],[22.92593,54.09939]]}},{"type":"Feature","properties":{"numer":"2413B","klasa":"droga zbiorcza","kat":"powiatowa"},"geometry":{"type":"LineString","coordinates":[[22.91994,54.09958],[22.91816,54.09905]]}},{"type":"Feature","properties":{"numer":"101260B","klasa":"droga gĹ‚Ăłwna","kat":"powiatowa"},"geometry":{"type":"LineString","coordinates":[[22.96106,54.09851],[22.96121,54.09902],[22.96102,54.10034]]}},{"type":"Feature","properties":{"numer":"653,662","klasa":"droga gĹ‚Ăłwna","kat":"gminna"},"geometry":{"type":"LineString","coordinates":[[22.93943,54.10103],[22.94011,54.09963],[22.9407,54.09787]]}},{"type":"Feature","properties":{"numer":"653,655","klasa":"droga zbiorcza","kat":"powiatowa"},"geometry":{"type":"LineString","coordinates":[[22.9519,54.09954],[22.95102,54.09968]]}},{"type":"Feature","properties":{"numer":"2413B","klasa":"droga zbiorcza","kat":"powiatowa"},"geometry":{"type":"LineString","coordinates":[[22.92023,54.09966],[22.91994,54.09958]]}},{"type":"Feature","properties":{"numer":"2413B","klasa":"droga zbiorcza","kat":"powiatowa"},"geometry":{"type":"LineString","coordinates":[[22.92148,54.09973],[22.9208,54.09976],[22.92023,54.09966]]}},{"type":"Feature","properties":{"numer":"101254B","klasa":"droga lokalna","kat":"powiatowa"},"geometry":{"type":"LineString","coordinates":[[22.92593,54.09939],[22.92535,54.09949],[22.92446,54.09943],[22.92377,54.09951],[22.92201,54.10016]]}},{"type":"Feature","properties":{"numer":"2476B","klasa":"droga zbiorcza","kat":"powiatowa"},"geometry":{"type":"LineString","coordinates":[[22.95106,54.10004],[22.95102,54.09968]]}},{"type":"Feature","properties":{"numer":"101254B","klasa":"","kat":"powiatowa"},"geometry":{"type":"LineString","coordinates":[[22.92148,54.09973],[22.92155,54.10015]]}},{"type":"Feature","properties":{"numer":"101395B","klasa":"droga zbiorcza","kat":"powiatowa"},"geometry":{"type":"LineString","coordinates":[[22.9061,54.10094],[22.90595,54.1005],[22.90601,54.10019],[22.90624,54.09985],[22.90674,54.09939]]}},{"type":"Feature","properties":{"numer":"101254B","klasa":"droga lokalna","kat":"powiatowa"},"geometry":{"type":"LineString","coordinates":[[22.92155,54.10015],[22.9215,54.10029]]}},{"type":"Feature","properties":{"numer":"101254B","klasa":"droga lokalna","kat":"powiatowa"},"geometry":{"type":"LineString","coordinates":[[22.92201,54.10016],[22.92166,54.10031],[22.9215,54.10029]]}},{"type":"Feature","properties":{"numer":"653,655","klasa":"droga zbiorcza","kat":"powiatowa"},"geometry":{"type":"LineString","coordinates":[[22.95102,54.09968],[22.9401,54.10148]]}},{"type":"Feature","properties":{"numer":"101260B","klasa":"droga gĹ‚Ăłwna","kat":"powiatowa"},"geometry":{"type":"LineString","coordinates":[[22.96102,54.10034],[22.96091,54.101]]}},{"type":"Feature","properties":{"numer":"653,662","klasa":"droga zbiorcza","kat":"powiatowa"},"geometry":{"type":"LineString","coordinates":[[22.93938,54.10103],[22.93943,54.10103]]}},{"type":"Feature","properties":{"numer":"101395B","klasa":"droga zbiorcza","kat":"powiatowa"},"geometry":{"type":"LineString","coordinates":[[22.9061,54.10094],[22.90624,54.10121]]}},{"type":"Feature","properties":{"numer":"101254B","klasa":"droga lokalna","kat":"powiatowa"},"geometry":{"type":"LineString","coordinates":[[22.92115,54.10071],[22.9211,54.10162]]}},{"type":"Feature","properties":{"numer":"101395B","klasa":"droga zbiorcza","kat":"powiatowa"},"geometry":{"type":"LineString","coordinates":[[22.90624,54.10121],[22.9063,54.10133]]}},{"type":"Feature","properties":{"numer":"653,662","klasa":"droga gĹ‚Ăłwna","kat":"gminna"},"geometry":{"type":"LineString","coordinates":[[22.93916,54.1016],[22.93943,54.10103]]}},{"type":"Feature","properties":{"numer":"101395B","klasa":"droga zbiorcza","kat":"powiatowa"},"geometry":{"type":"LineString","coordinates":[[22.9063,54.10133],[22.90636,54.10144]]}},{"type":"Feature","properties":{"numer":"101260B","klasa":"droga gĹ‚Ăłwna","kat":"powiatowa"},"geometry":{"type":"LineString","coordinates":[[22.96091,54.101],[22.96081,54.10177]]}},{"type":"Feature","properties":{"numer":"653,655","klasa":"droga zbiorcza","kat":"powiatowa"},"geometry":{"type":"LineString","coordinates":[[22.93916,54.1016],[22.9401,54.10148]]}},{"type":"Feature","properties":{"numer":"101395B","klasa":"droga zbiorcza","kat":"powiatowa"},"geometry":{"type":"LineString","coordinates":[[22.90635,54.10203],[22.90636,54.10144]]}},{"type":"Feature","properties":{"numer":"101260B","klasa":"droga gĹ‚Ăłwna","kat":"powiatowa"},"geometry":{"type":"LineString","coordinates":[[22.96081,54.10177],[22.96086,54.10198]]}},{"type":"Feature","properties":{"numer":"101260B","klasa":"droga gĹ‚Ăłwna","kat":"powiatowa"},"geometry":{"type":"LineString","coordinates":[[22.96086,54.10198],[22.96109,54.10217]]}},{"type":"Feature","properties":{"numer":"2476B","klasa":"droga zbiorcza","kat":"powiatowa"},"geometry":{"type":"LineString","coordinates":[[22.93914,54.10407],[22.94704,54.10415],[22.94781,54.10402],[22.94911,54.10321],[22.94953,54.10285],[22.95106,54.10004]]}},{"type":"Feature","properties":{"numer":"101395B","klasa":"droga zbiorcza","kat":"powiatowa"},"geometry":{"type":"LineString","coordinates":[[22.90594,54.10276],[22.90635,54.10203]]}},{"type":"Feature","properties":{"numer":"655,662","klasa":"droga gĹ‚Ăłwna","kat":"gminna"},"geometry":{"type":"LineString","coordinates":[[22.93837,54.10333],[22.93916,54.1016]]}},{"type":"Feature","properties":{"numer":"101395B","klasa":"droga zbiorcza","kat":"powiatowa"},"geometry":{"type":"LineString","coordinates":[[22.9057,54.10317],[22.90594,54.10276]]}},{"type":"Feature","properties":{"numer":"101254B","klasa":"droga lokalna","kat":"powiatowa"},"geometry":{"type":"LineString","coordinates":[[22.9211,54.10162],[22.92109,54.10445]]}},{"type":"Feature","properties":{"numer":"655,662","klasa":"droga gĹ‚Ăłwna","kat":"gminna"},"geometry":{"type":"LineString","coordinates":[[22.9383,54.10333],[22.93837,54.10333]]}},{"type":"Feature","properties":{"numer":"101395B","klasa":"droga zbiorcza","kat":"powiatowa"},"geometry":{"type":"LineString","coordinates":[[22.9055,54.10351],[22.9057,54.10317]]}},{"type":"Feature","properties":{"numer":"655,662","klasa":"droga gĹ‚Ăłwna","kat":"gminna"},"geometry":{"type":"LineString","coordinates":[[22.93824,54.10365],[22.93837,54.10333]]}},{"type":"Feature","properties":{"numer":"101395B","klasa":"droga zbiorcza","kat":"powiatowa"},"geometry":{"type":"LineString","coordinates":[[22.90536,54.10378],[22.9055,54.10351]]}},{"type":"Feature","properties":{"numer":"655,662","klasa":"droga gĹ‚Ăłwna","kat":"gminna"},"geometry":{"type":"LineString","coordinates":[[22.93824,54.10365],[22.93817,54.10364]]}},{"type":"Feature","properties":{"numer":"652","klasa":"droga gĹ‚Ăłwna","kat":"wojewodzka"},"geometry":{"type":"LineString","coordinates":[[22.90509,54.10386],[22.90456,54.10378]]}},{"type":"Feature","properties":{"numer":"101395B","klasa":"droga zbiorcza","kat":"powiatowa"},"geometry":{"type":"LineString","coordinates":[[22.9053,54.1039],[22.90536,54.10378]]}},{"type":"Feature","properties":{"numer":"655,662","klasa":"droga gĹ‚Ăłwna","kat":"gminna"},"geometry":{"type":"LineString","coordinates":[[22.93807,54.10405],[22.93824,54.10365]]}},{"type":"Feature","properties":{"numer":"652","klasa":"droga gĹ‚Ăłwna","kat":"wojewodzka"},"geometry":{"type":"LineString","coordinates":[[22.90509,54.10386],[22.9053,54.1039]]}},{"type":"Feature","properties":{"numer":"652","klasa":"droga gĹ‚Ăłwna","kat":"wojewodzka"},"geometry":{"type":"LineString","coordinates":[[22.9053,54.1039],[22.90548,54.10392]]}},{"type":"Feature","properties":{"numer":"652","klasa":"droga gĹ‚Ăłwna","kat":"wojewodzka"},"geometry":{"type":"LineString","coordinates":[[22.90548,54.10392],[22.90597,54.10398]]}},{"type":"Feature","properties":{"numer":"2449B","klasa":"droga zbiorcza","kat":"powiatowa"},"geometry":{"type":"LineString","coordinates":[[22.9052,54.10401],[22.9053,54.1039]]}},{"type":"Feature","properties":{"numer":"2476B","klasa":"droga zbiorcza","kat":"powiatowa"},"geometry":{"type":"LineString","coordinates":[[22.93807,54.10405],[22.93914,54.10407]]}},{"type":"Feature","properties":{"numer":"2449B","klasa":"droga zbiorcza","kat":"powiatowa"},"geometry":{"type":"LineString","coordinates":[[22.90502,54.1043],[22.9052,54.10401]]}},{"type":"Feature","properties":{"numer":"E67,S61","klasa":"droga ekspresowa","kat":"krajowa"},"geometry":{"type":"LineString","coordinates":[[22.86986,54.09935],[22.86965094371924,54.09876265140167]]}},{"type":"Feature","properties":{"numer":"S61","klasa":"droga ekspresowa","kat":"krajowa"},"geometry":{"type":"LineString","coordinates":[[22.86986,54.09935],[22.86986162944853,54.099353287994354]]}},{"type":"Feature","properties":{"numer":"S61","klasa":"droga ekspresowa","kat":"krajowa"},"geometry":{"type":"LineString","coordinates":[[22.874026025036148,54.10633383554786],[22.87403,54.10634]]}},{"type":"Feature","properties":{"numer":"652","klasa":"droga gĹ‚Ăłwna","kat":"wojewodzka"},"geometry":{"type":"LineString","coordinates":[[22.8799,54.10764],[22.88479,54.1059],[22.89454,54.10384],[22.8972,54.10352],[22.89923,54.10344],[22.90109,54.10345],[22.90456,54.10378]]}},{"type":"Feature","properties":{"numer":"652","klasa":"droga gĹ‚Ăłwna","kat":"wojewodzka"},"geometry":{"type":"LineString","coordinates":[[22.87945,54.10774],[22.8799,54.10764]]}},{"type":"Feature","properties":{"numer":"E67,S61","klasa":"droga ekspresowa","kat":"krajowa"},"geometry":{"type":"LineString","coordinates":[[22.87588,54.10919],[22.87403,54.10634]]}},{"type":"Feature","properties":{"numer":"652","klasa":"droga gĹ‚Ăłwna","kat":"wojewodzka"},"geometry":{"type":"LineString","coordinates":[[22.87885,54.10791],[22.87945,54.10774]]}},{"type":"Feature","properties":{"numer":"652","klasa":"droga gĹ‚Ăłwna","kat":"wojewodzka"},"geometry":{"type":"LineString","coordinates":[[22.87841,54.10809],[22.87885,54.10791]]}},{"type":"Feature","properties":{"numer":"652","klasa":"droga gĹ‚Ăłwna","kat":"wojewodzka"},"geometry":{"type":"LineString","coordinates":[[22.87841,54.10809],[22.87615,54.10909]]}},{"type":"Feature","properties":{"numer":"652","klasa":"droga gĹ‚Ăłwna","kat":"wojewodzka"},"geometry":{"type":"LineString","coordinates":[[22.87588,54.10919],[22.87615,54.10909]]}},{"type":"Feature","properties":{"numer":"652","klasa":"droga gĹ‚Ăłwna","kat":"wojewodzka"},"geometry":{"type":"LineString","coordinates":[[22.8756,54.10929],[22.87588,54.10919]]}},{"type":"Feature","properties":{"numer":"101251B","klasa":"droga gĹ‚Ăłwna","kat":"powiatowa"},"geometry":{"type":"LineString","coordinates":[[22.95878,54.1049],[22.95882,54.10474]]}},{"type":"Feature","properties":{"numer":"101251B","klasa":"droga gĹ‚Ăłwna","kat":"powiatowa"},"geometry":{"type":"LineString","coordinates":[[22.95868,54.10507],[22.95878,54.1049]]}},{"type":"Feature","properties":{"numer":"652","klasa":"droga gĹ‚Ăłwna","kat":"wojewodzka"},"geometry":{"type":"LineString","coordinates":[[22.90597,54.10398],[22.91934,54.10615]]}},{"type":"Feature","properties":{"numer":"101254B","klasa":"droga lokalna","kat":"powiatowa"},"geometry":{"type":"LineString","coordinates":[[22.92109,54.10445],[22.9211,54.10577],[22.92126,54.10643]]}},{"type":"Feature","properties":{"numer":"655,662","klasa":"droga gĹ‚Ăłwna","kat":"gminna"},"geometry":{"type":"LineString","coordinates":[[22.93613,54.10754],[22.93807,54.10405]]}},{"type":"Feature","properties":{"numer":"652","klasa":"droga gĹ‚Ăłwna","kat":"wojewodzka"},"geometry":{"type":"LineString","coordinates":[[22.91966,54.10621],[22.91934,54.10615]]}},{"type":"Feature","properties":{"numer":"652","klasa":"droga gĹ‚Ăłwna","kat":"wojewodzka"},"geometry":{"type":"LineString","coordinates":[[22.91966,54.10621],[22.92031,54.10632]]}},{"type":"Feature","properties":{"numer":"652","klasa":"droga gĹ‚Ăłwna","kat":"wojewodzka"},"geometry":{"type":"LineString","coordinates":[[22.92031,54.10632],[22.92127,54.10646]]}},{"type":"Feature","properties":{"numer":"652","klasa":"droga gĹ‚Ăłwna","kat":"wojewodzka"},"geometry":{"type":"LineString","coordinates":[[22.92127,54.10646],[22.92268,54.1065]]}},{"type":"Feature","properties":{"numer":"652","klasa":"droga gĹ‚Ăłwna","kat":"wojewodzka"},"geometry":{"type":"LineString","coordinates":[[22.92437,54.10648],[22.92459,54.10648]]}},{"type":"Feature","properties":{"numer":"652","klasa":"droga gĹ‚Ăłwna","kat":"wojewodzka"},"geometry":{"type":"LineString","coordinates":[[22.92385,54.10649],[22.92437,54.10648]]}},{"type":"Feature","properties":{"numer":"2412B","klasa":"droga zbiorcza","kat":"powiatowa"},"geometry":{"type":"LineString","coordinates":[[22.92459,54.10648],[22.92478,54.10649]]}},{"type":"Feature","properties":{"numer":"2412B","klasa":"droga zbiorcza","kat":"powiatowa"},"geometry":{"type":"LineString","coordinates":[[22.92536,54.10649],[22.92783,54.10649]]}},{"type":"Feature","properties":{"numer":"2412B","klasa":"droga zbiorcza","kat":"powiatowa"},"geometry":{"type":"LineString","coordinates":[[22.92478,54.10649],[22.92536,54.10649]]}},{"type":"Feature","properties":{"numer":"652","klasa":"droga gĹ‚Ăłwna","kat":"wojewodzka"},"geometry":{"type":"LineString","coordinates":[[22.92268,54.1065],[22.92385,54.10649]]}},{"type":"Feature","properties":{"numer":"652","klasa":"droga gĹ‚Ăłwna","kat":"wojewodzka"},"geometry":{"type":"LineString","coordinates":[[22.92459,54.10648],[22.92458,54.10659]]}},{"type":"Feature","properties":{"numer":"2412B","klasa":"droga zbiorcza","kat":"powiatowa"},"geometry":{"type":"LineString","coordinates":[[22.93482,54.10719],[22.9334,54.1068],[22.93232,54.10663],[22.92783,54.10649]]}},{"type":"Feature","properties":{"numer":"101251B","klasa":"droga gĹ‚Ăłwna","kat":"powiatowa"},"geometry":{"type":"LineString","coordinates":[[22.9556,54.10963],[22.95868,54.10507]]}},{"type":"Feature","properties":{"numer":"2497B","klasa":"droga zbiorcza","kat":"powiatowa"},"geometry":{"type":"LineString","coordinates":[[22.92767,54.10822],[22.92783,54.10649]]}},{"type":"Feature","properties":{"numer":"2412B","klasa":"droga zbiorcza","kat":"powiatowa"},"geometry":{"type":"LineString","coordinates":[[22.93482,54.10719],[22.93613,54.10754]]}},{"type":"Feature","properties":{"numer":"655","klasa":"droga zbiorcza","kat":"wojewodzka"},"geometry":{"type":"LineString","coordinates":[[22.94401,54.10743],[22.94195,54.10766],[22.93925,54.10763],[22.93811,54.10776]]}},{"type":"Feature","properties":{"numer":"655","klasa":"droga zbiorcza","kat":"wojewodzka"},"geometry":{"type":"LineString","coordinates":[[22.93613,54.10754],[22.93716,54.10777],[22.93811,54.10776]]}},{"type":"Feature","properties":{"numer":"652","klasa":"droga gĹ‚Ăłwna","kat":"wojewodzka"},"geometry":{"type":"LineString","coordinates":[[22.92528,54.10901],[22.92487,54.10856],[22.9246,54.10802],[22.92458,54.10659]]}},{"type":"Feature","properties":{"numer":"655","klasa":"droga zbiorcza","kat":"wojewodzka"},"geometry":{"type":"LineString","coordinates":[[22.95401,54.10946],[22.95113,54.108],[22.9476,54.10645],[22.94727,54.10645],[22.94592,54.10695],[22.94401,54.10743]]}},{"type":"Feature","properties":{"numer":"662","klasa":"droga gĹ‚Ăłwna","kat":"wojewodzka"},"geometry":{"type":"LineString","coordinates":[[22.93547,54.1089],[22.93613,54.10754]]}},{"type":"Feature","properties":{"numer":"2497B","klasa":"droga zbiorcza","kat":"powiatowa"},"geometry":{"type":"LineString","coordinates":[[22.92778,54.10887],[22.92767,54.10822]]}},{"type":"Feature","properties":{"numer":"662","klasa":"droga gĹ‚Ăłwna","kat":"wojewodzka"},"geometry":{"type":"LineString","coordinates":[[22.93553,54.10894],[22.93547,54.1089]]}},{"type":"Feature","properties":{"numer":"2497B","klasa":"droga zbiorcza","kat":"powiatowa"},"geometry":{"type":"LineString","coordinates":[[22.92785,54.10909],[22.92778,54.10887]]}},{"type":"Feature","properties":{"numer":"662","klasa":"droga gĹ‚Ăłwna","kat":"wojewodzka"},"geometry":{"type":"LineString","coordinates":[[22.93533,54.10912],[22.93547,54.1089]]}},{"type":"Feature","properties":{"numer":"662","klasa":"droga gĹ‚Ăłwna","kat":"wojewodzka"},"geometry":{"type":"LineString","coordinates":[[22.93533,54.10912],[22.93524,54.10912]]}},{"type":"Feature","properties":{"numer":"101401B","klasa":"droga dojazdowa","kat":"powiatowa"},"geometry":{"type":"LineString","coordinates":[[22.92762,54.10927],[22.92785,54.10909]]}},{"type":"Feature","properties":{"numer":"652","klasa":"droga gĹ‚Ăłwna","kat":"wojewodzka"},"geometry":{"type":"LineString","coordinates":[[22.92528,54.10901],[22.92567,54.10936]]}},{"type":"Feature","properties":{"numer":"2498B","klasa":"droga zbiorcza","kat":"powiatowa"},"geometry":{"type":"LineString","coordinates":[[22.92785,54.10909],[22.92785,54.10934]]}},{"type":"Feature","properties":{"numer":"101401B","klasa":"droga dojazdowa","kat":"powiatowa"},"geometry":{"type":"LineString","coordinates":[[22.92567,54.10936],[22.926,54.10924]]}},{"type":"Feature","properties":{"numer":"662","klasa":"droga gĹ‚Ăłwna","kat":"wojewodzka"},"geometry":{"type":"LineString","coordinates":[[22.93503,54.10949],[22.93533,54.10912]]}},{"type":"Feature","properties":{"numer":"101401B","klasa":"droga dojazdowa","kat":"powiatowa"},"geometry":{"type":"LineString","coordinates":[[22.926,54.10924],[22.92735,54.10938]]}},{"type":"Feature","properties":{"numer":"101401B","klasa":"","kat":"powiatowa"},"geometry":{"type":"LineString","coordinates":[[22.92762,54.10927],[22.92735,54.10938]]}},{"type":"Feature","properties":{"numer":"2498B","klasa":"droga zbiorcza","kat":"powiatowa"},"geometry":{"type":"LineString","coordinates":[[22.92785,54.10934],[22.92789,54.10953]]}},{"type":"Feature","properties":{"numer":"101256B","klasa":"","kat":"powiatowa"},"geometry":{"type":"LineString","coordinates":[[22.93556,54.10974],[22.93503,54.10949]]}},{"type":"Feature","properties":{"numer":"655","klasa":"droga zbiorcza","kat":"wojewodzka"},"geometry":{"type":"LineString","coordinates":[[22.955,54.10998],[22.95401,54.10946]]}},{"type":"Feature","properties":{"numer":"101251B","klasa":"droga gĹ‚Ăłwna","kat":"powiatowa"},"geometry":{"type":"LineString","coordinates":[[22.95538,54.10994],[22.9556,54.10963]]}},{"type":"Feature","properties":{"numer":"101256B","klasa":"droga lokalna","kat":"powiatowa"},"geometry":{"type":"LineString","coordinates":[[22.936,54.10997],[22.93556,54.10974]]}},{"type":"Feature","properties":{"numer":"101251B","klasa":"droga gĹ‚Ăłwna","kat":"powiatowa"},"geometry":{"type":"LineString","coordinates":[[22.95525,54.11011],[22.95538,54.10994]]}},{"type":"Feature","properties":{"numer":"655","klasa":"droga zbiorcza","kat":"wojewodzka"},"geometry":{"type":"LineString","coordinates":[[22.95525,54.11011],[22.955,54.10998]]}},{"type":"Feature","properties":{"numer":"101256B","klasa":"","kat":"powiatowa"},"geometry":{"type":"LineString","coordinates":[[22.93626,54.11013],[22.936,54.10997]]}},{"type":"Feature","properties":{"numer":"652","klasa":"droga gĹ‚Ăłwna","kat":"wojewodzka"},"geometry":{"type":"LineString","coordinates":[[22.92567,54.10936],[22.92723,54.11074]]}},{"type":"Feature","properties":{"numer":"2498B","klasa":"droga zbiorcza","kat":"powiatowa"},"geometry":{"type":"LineString","coordinates":[[22.92789,54.10953],[22.92802,54.11068]]}},{"type":"Feature","properties":{"numer":"662","klasa":"droga gĹ‚Ăłwna","kat":"wojewodzka"},"geometry":{"type":"LineString","coordinates":[[22.93181,54.11081],[22.93428,54.10995],[22.93503,54.10949]]}},{"type":"Feature","properties":{"numer":"101256B","klasa":"droga lokalna","kat":"powiatowa"},"geometry":{"type":"LineString","coordinates":[[22.93626,54.11013],[22.93636,54.11018]]}},{"type":"Feature","properties":{"numer":"1153B","klasa":"droga zbiorcza","kat":"powiatowa"},"geometry":{"type":"LineString","coordinates":[[22.95547,54.11025],[22.95525,54.11011]]}},{"type":"Feature","properties":{"numer":"655","klasa":"droga gĹ‚Ăłwna","kat":"wojewodzka"},"geometry":{"type":"LineString","coordinates":[[22.95508,54.11028],[22.95525,54.11011]]}},{"type":"Feature","properties":{"numer":"101256B","klasa":"droga lokalna","kat":"powiatowa"},"geometry":{"type":"LineString","coordinates":[[22.93636,54.11018],[22.93645,54.11023]]}},{"type":"Feature","properties":{"numer":"2449B","klasa":"droga zbiorcza","kat":"powiatowa"},"geometry":{"type":"LineString","coordinates":[[22.89749,54.11612],[22.89761,54.11568],[22.89835,54.11459],[22.89868,54.11431],[22.90003,54.11354],[22.90043,54.11309],[22.90502,54.1043]]}},{"type":"Feature","properties":{"numer":"101256B","klasa":"","kat":"powiatowa"},"geometry":{"type":"LineString","coordinates":[[22.93668,54.11035],[22.93645,54.11023]]}},{"type":"Feature","properties":{"numer":"1153B","klasa":"droga zbiorcza","kat":"powiatowa"},"geometry":{"type":"LineString","coordinates":[[22.95589,54.1105],[22.95547,54.11025]]}},{"type":"Feature","properties":{"numer":"655","klasa":"droga gĹ‚Ăłwna","kat":"wojewodzka"},"geometry":{"type":"LineString","coordinates":[[22.95484,54.11058],[22.95508,54.11028]]}},{"type":"Feature","properties":{"numer":"101256B","klasa":"droga lokalna","kat":"powiatowa"},"geometry":{"type":"LineString","coordinates":[[22.93703,54.11066],[22.93668,54.11035]]}},{"type":"Feature","properties":{"numer":"101256B","klasa":"droga lokalna","kat":"powiatowa"},"geometry":{"type":"LineString","coordinates":[[22.93695,54.11094],[22.93712,54.11074],[22.93703,54.11066]]}},{"type":"Feature","properties":{"numer":"662","klasa":"droga gĹ‚Ăłwna","kat":"wojewodzka"},"geometry":{"type":"LineString","coordinates":[[22.93185,54.11085],[22.93181,54.11081]]}},{"type":"Feature","properties":{"numer":"2498B","klasa":"droga zbiorcza","kat":"powiatowa"},"geometry":{"type":"LineString","coordinates":[[22.92802,54.11068],[22.92792,54.11098]]}},{"type":"Feature","properties":{"numer":"2487B","klasa":"droga zbiorcza","kat":"powiatowa"},"geometry":{"type":"LineString","coordinates":[[22.94401,54.10743],[22.94507,54.1116],[22.94498,54.11222],[22.94452,54.11277],[22.94386,54.11315],[22.94074,54.11429]]}},{"type":"Feature","properties":{"numer":"652","klasa":"droga gĹ‚Ăłwna","kat":"wojewodzka"},"geometry":{"type":"LineString","coordinates":[[22.92723,54.11074],[22.9276,54.111]]}},{"type":"Feature","properties":{"numer":"662","klasa":"droga gĹ‚Ăłwna","kat":"wojewodzka"},"geometry":{"type":"LineString","coordinates":[[22.93067,54.11125],[22.93181,54.11081]]}},{"type":"Feature","properties":{"numer":"2498B","klasa":"droga zbiorcza","kat":"powiatowa"},"geometry":{"type":"LineString","coordinates":[[22.92792,54.11098],[22.92778,54.11109]]}},{"type":"Feature","properties":{"numer":"652","klasa":"droga gĹ‚Ăłwna","kat":"wojewodzka"},"geometry":{"type":"LineString","coordinates":[[22.9276,54.111],[22.92778,54.11109]]}},{"type":"Feature","properties":{"numer":"652","klasa":"droga gĹ‚Ăłwna","kat":"wojewodzka"},"geometry":{"type":"LineString","coordinates":[[22.92778,54.11109],[22.928,54.11116]]}},{"type":"Feature","properties":{"numer":"2498B","klasa":"droga zbiorcza","kat":"powiatowa"},"geometry":{"type":"LineString","coordinates":[[22.92787,54.11122],[22.92778,54.11109]]}},{"type":"Feature","properties":{"numer":"101284B","klasa":"droga lokalna","kat":"powiatowa"},"geometry":{"type":"LineString","coordinates":[[22.93632,54.1115],[22.93657,54.11142],[22.93695,54.11094]]}},{"type":"Feature","properties":{"numer":"652","klasa":"droga gĹ‚Ăłwna","kat":"wojewodzka"},"geometry":{"type":"LineString","coordinates":[[22.93024,54.11132],[22.92858,54.11128],[22.928,54.11116]]}},{"type":"Feature","properties":{"numer":"662","klasa":"droga gĹ‚Ăłwna","kat":"wojewodzka"},"geometry":{"type":"LineString","coordinates":[[22.93052,54.11139],[22.93067,54.11125]]}},{"type":"Feature","properties":{"numer":"652","klasa":"droga gĹ‚Ăłwna","kat":"wojewodzka"},"geometry":{"type":"LineString","coordinates":[[22.93052,54.11139],[22.93024,54.11132]]}},{"type":"Feature","properties":{"numer":"662","klasa":"droga gĹ‚Ăłwna","kat":"wojewodzka"},"geometry":{"type":"LineString","coordinates":[[22.93056,54.11156],[22.93052,54.11139]]}},{"type":"Feature","properties":{"numer":"101284B","klasa":"droga lokalna","kat":"powiatowa"},"geometry":{"type":"LineString","coordinates":[[22.93537,54.11183],[22.93632,54.1115]]}},{"type":"Feature","properties":{"numer":"101284B","klasa":"droga lokalna","kat":"powiatowa"},"geometry":{"type":"LineString","coordinates":[[22.93478,54.11204],[22.93537,54.11183]]}},{"type":"Feature","properties":{"numer":"101284B","klasa":"droga lokalna","kat":"powiatowa"},"geometry":{"type":"LineString","coordinates":[[22.93471,54.11206],[22.93478,54.11204]]}},{"type":"Feature","properties":{"numer":"101284B","klasa":"droga lokalna","kat":"powiatowa"},"geometry":{"type":"LineString","coordinates":[[22.93403,54.1123],[22.93471,54.11206]]}},{"type":"Feature","properties":{"numer":"662","klasa":"droga gĹ‚Ăłwna","kat":"wojewodzka"},"geometry":{"type":"LineString","coordinates":[[22.93198,54.11292],[22.93056,54.11156]]}},{"type":"Feature","properties":{"numer":"101284B","klasa":"droga lokalna","kat":"powiatowa"},"geometry":{"type":"LineString","coordinates":[[22.93315,54.1126],[22.93403,54.1123]]}},{"type":"Feature","properties":{"numer":"1153B","klasa":"droga zbiorcza","kat":"powiatowa"},"geometry":{"type":"LineString","coordinates":[[22.96981126506024,54.11426662650602],[22.96946,54.11441],[22.96867,54.11443],[22.96196,54.11372],[22.96068,54.1135],[22.95957,54.11313],[22.95853,54.11259],[22.95589,54.1105]]}},{"type":"Feature","properties":{"numer":"2498B","klasa":"droga zbiorcza","kat":"powiatowa"},"geometry":{"type":"LineString","coordinates":[[22.92848,54.1138],[22.92824,54.11177],[22.92787,54.11122]]}},{"type":"Feature","properties":{"numer":"101284B","klasa":"droga lokalna","kat":"powiatowa"},"geometry":{"type":"LineString","coordinates":[[22.93274,54.11274],[22.93315,54.1126]]}},{"type":"Feature","properties":{"numer":"101284B","klasa":"droga lokalna","kat":"powiatowa"},"geometry":{"type":"LineString","coordinates":[[22.93208,54.11288],[22.93274,54.11274]]}},{"type":"Feature","properties":{"numer":"662","klasa":"droga gĹ‚Ăłwna","kat":"wojewodzka"},"geometry":{"type":"LineString","coordinates":[[22.93198,54.11292],[22.93208,54.11288]]}},{"type":"Feature","properties":{"numer":"662","klasa":"droga gĹ‚Ăłwna","kat":"wojewodzka"},"geometry":{"type":"LineString","coordinates":[[22.93275,54.11367],[22.93198,54.11292]]}},{"type":"Feature","properties":{"numer":"662","klasa":"droga gĹ‚Ăłwna","kat":"wojewodzka"},"geometry":{"type":"LineString","coordinates":[[22.93279,54.11371],[22.93275,54.11367]]}},{"type":"Feature","properties":{"numer":"662","klasa":"droga gĹ‚Ăłwna","kat":"wojewodzka"},"geometry":{"type":"LineString","coordinates":[[22.93279,54.11371],[22.93289,54.11368]]}},{"type":"Feature","properties":{"numer":"2498B","klasa":"droga zbiorcza","kat":"powiatowa"},"geometry":{"type":"LineString","coordinates":[[22.9286,54.11484],[22.92848,54.1138]]}},{"type":"Feature","properties":{"numer":"2487B","klasa":"droga zbiorcza","kat":"powiatowa"},"geometry":{"type":"LineString","coordinates":[[22.94074,54.11429],[22.94044,54.11438]]}},{"type":"Feature","properties":{"numer":"2487B","klasa":"droga zbiorcza","kat":"powiatowa"},"geometry":{"type":"LineString","coordinates":[[22.94044,54.11438],[22.94021,54.11446]]}},{"type":"Feature","properties":{"numer":"2487B","klasa":"droga zbiorcza","kat":"powiatowa"},"geometry":{"type":"LineString","coordinates":[[22.93996,54.11456],[22.94021,54.11446]]}},{"type":"Feature","properties":{"numer":"662","klasa":"droga gĹ‚Ăłwna","kat":"wojewodzka"},"geometry":{"type":"LineString","coordinates":[[22.93467,54.11556],[22.93279,54.11371]]}},{"type":"Feature","properties":{"numer":"2498B","klasa":"droga zbiorcza","kat":"powiatowa"},"geometry":{"type":"LineString","coordinates":[[22.92861,54.11489],[22.9286,54.11484]]}},{"type":"Feature","properties":{"numer":"2487B","klasa":"droga zbiorcza","kat":"powiatowa"},"geometry":{"type":"LineString","coordinates":[[22.93532,54.11621],[22.93996,54.11456]]}},{"type":"Feature","properties":{"numer":"655","klasa":"droga gĹ‚Ăłwna","kat":"wojewodzka"},"geometry":{"type":"LineString","coordinates":[[22.95286,54.1202],[22.95348,54.11881],[22.95393,54.11725],[22.95415,54.11561],[22.95442,54.11144],[22.95484,54.11058]]}},{"type":"Feature","properties":{"numer":"662","klasa":"droga gĹ‚Ăłwna","kat":"wojewodzka"},"geometry":{"type":"LineString","coordinates":[[22.93467,54.11556],[22.93478,54.11552]]}},{"type":"Feature","properties":{"numer":"662","klasa":"droga gĹ‚Ăłwna","kat":"wojewodzka"},"geometry":{"type":"LineString","coordinates":[[22.93487,54.11573],[22.93467,54.11556]]}},{"type":"Feature","properties":{"numer":"662","klasa":"droga gĹ‚Ăłwna","kat":"wojewodzka"},"geometry":{"type":"LineString","coordinates":[[22.93487,54.11573],[22.93476,54.11577]]}},{"type":"Feature","properties":{"numer":"2498B","klasa":"droga zbiorcza","kat":"powiatowa"},"geometry":{"type":"LineString","coordinates":[[22.92882,54.11672],[22.92861,54.11489]]}},{"type":"Feature","properties":{"numer":"662","klasa":"droga gĹ‚Ăłwna","kat":"wojewodzka"},"geometry":{"type":"LineString","coordinates":[[22.93532,54.11621],[22.93487,54.11573]]}},{"type":"Feature","properties":{"numer":"2487B","klasa":"droga zbiorcza","kat":"powiatowa"},"geometry":{"type":"LineString","coordinates":[[22.93525,54.11624],[22.93532,54.11621]]}},{"type":"Feature","properties":{"numer":"2487B","klasa":"droga zbiorcza","kat":"powiatowa"},"geometry":{"type":"LineString","coordinates":[[22.93399,54.11667],[22.93525,54.11624]]}},{"type":"Feature","properties":{"numer":"","klasa":"","kat":"gminna"},"geometry":{"type":"LineString","coordinates":[[22.9255,54.11643],[22.9256,54.11672]]}},{"type":"Feature","properties":{"numer":"2487B","klasa":"droga zbiorcza","kat":"powiatowa"},"geometry":{"type":"LineString","coordinates":[[22.92882,54.11672],[22.92977,54.11669]]}},{"type":"Feature","properties":{"numer":"1134B","klasa":"droga zbiorcza","kat":"powiatowa"},"geometry":{"type":"LineString","coordinates":[[22.92567,54.1167],[22.9256,54.11672]]}},{"type":"Feature","properties":{"numer":"","klasa":"droga zbiorcza","kat":"powiatowa"},"geometry":{"type":"LineString","coordinates":[[22.92785,54.11676],[22.92567,54.1167]]}},{"type":"Feature","properties":{"numer":"1134B","klasa":"droga zbiorcza","kat":"powiatowa"},"geometry":{"type":"LineString","coordinates":[[22.9256,54.11672],[22.92551,54.11675]]}},{"type":"Feature","properties":{"numer":"","klasa":"droga zbiorcza","kat":"powiatowa"},"geometry":{"type":"LineString","coordinates":[[22.92882,54.11672],[22.92785,54.11676]]}},{"type":"Feature","properties":{"numer":"2487B","klasa":"droga zbiorcza","kat":"powiatowa"},"geometry":{"type":"LineString","coordinates":[[22.92977,54.11669],[22.93079,54.11669],[22.93271,54.11683],[22.93399,54.11667]]}},{"type":"Feature","properties":{"numer":"1134B","klasa":"droga zbiorcza","kat":"powiatowa"},"geometry":{"type":"LineString","coordinates":[[22.92551,54.11675],[22.92522,54.11695]]}},{"type":"Feature","properties":{"numer":"2498B","klasa":"droga zbiorcza","kat":"powiatowa"},"geometry":{"type":"LineString","coordinates":[[22.92905,54.11861],[22.92882,54.11672]]}},{"type":"Feature","properties":{"numer":"662","klasa":"droga gĹ‚Ăłwna","kat":"wojewodzka"},"geometry":{"type":"LineString","coordinates":[[22.94126,54.12202],[22.93532,54.11621]]}},{"type":"Feature","properties":{"numer":"1134B","klasa":"droga zbiorcza","kat":"powiatowa"},"geometry":{"type":"LineString","coordinates":[[22.92522,54.11695],[22.9247,54.11765],[22.92255,54.12246],[22.92141,54.12366],[22.92081,54.12398],[22.91975,54.12427],[22.91864,54.12432],[22.91179,54.12355],[22.90942,54.12397]]}},{"type":"Feature","properties":{"numer":"655","klasa":"droga gĹ‚Ăłwna","kat":"wojewodzka"},"geometry":{"type":"LineString","coordinates":[[22.95228,54.12136],[22.95286,54.1202]]}},{"type":"Feature","properties":{"numer":"","klasa":"","kat":"gminna"},"geometry":{"type":"LineString","coordinates":[[22.9516,54.12126],[22.95228,54.12136]]}},{"type":"Feature","properties":{"numer":"655","klasa":"droga gĹ‚Ăłwna","kat":"wojewodzka"},"geometry":{"type":"LineString","coordinates":[[22.95191,54.12205],[22.95228,54.12136]]}},{"type":"Feature","properties":{"numer":"662","klasa":"droga gĹ‚Ăłwna","kat":"wojewodzka"},"geometry":{"type":"LineString","coordinates":[[22.94126,54.12202],[22.94136,54.12198]]}},{"type":"Feature","properties":{"numer":"2498B","klasa":"droga zbiorcza","kat":"powiatowa"},"geometry":{"type":"LineString","coordinates":[[22.92985,54.1255],[22.92905,54.11861]]}},{"type":"Feature","properties":{"numer":"655","klasa":"droga gĹ‚Ăłwna","kat":"wojewodzka"},"geometry":{"type":"LineString","coordinates":[[22.95102,54.12328],[22.95191,54.12205]]}},{"type":"Feature","properties":{"numer":"655","klasa":"droga gĹ‚Ăłwna","kat":"wojewodzka"},"geometry":{"type":"LineString","coordinates":[[22.9508,54.12355],[22.95102,54.12328]]}},{"type":"Feature","properties":{"numer":"655","klasa":"droga gĹ‚Ăłwna","kat":"wojewodzka"},"geometry":{"type":"LineString","coordinates":[[22.95071,54.12369],[22.9508,54.12355]]}},{"type":"Feature","properties":{"numer":"655","klasa":"droga gĹ‚Ăłwna","kat":"wojewodzka"},"geometry":{"type":"LineString","coordinates":[[22.95053,54.12378],[22.95071,54.12369]]}},{"type":"Feature","properties":{"numer":"662","klasa":"droga gĹ‚Ăłwna","kat":"wojewodzka"},"geometry":{"type":"LineString","coordinates":[[22.94502,54.12567],[22.94126,54.12202]]}},{"type":"Feature","properties":{"numer":"655","klasa":"droga gĹ‚Ăłwna","kat":"wojewodzka"},"geometry":{"type":"LineString","coordinates":[[22.94899,54.12457],[22.95053,54.12378]]}},{"type":"Feature","properties":{"numer":"655","klasa":"droga gĹ‚Ăłwna","kat":"wojewodzka"},"geometry":{"type":"LineString","coordinates":[[22.94783,54.125],[22.94899,54.12457]]}},{"type":"Feature","properties":{"numer":"655","klasa":"droga gĹ‚Ăłwna","kat":"wojewodzka"},"geometry":{"type":"LineString","coordinates":[[22.94548,54.12576],[22.94783,54.125]]}},{"type":"Feature","properties":{"numer":"1134B","klasa":"droga zbiorcza","kat":"powiatowa"},"geometry":{"type":"LineString","coordinates":[[22.88544,54.12727],[22.88727,54.12693],[22.8892,54.12678],[22.89434,54.12617],[22.89735,54.12564],[22.9023,54.12494],[22.90575,54.12466],[22.90942,54.12397]]}},{"type":"Feature","properties":{"numer":"2498B","klasa":"droga zbiorcza","kat":"powiatowa"},"geometry":{"type":"LineString","coordinates":[[22.92989,54.12576],[22.92985,54.1255]]}},{"type":"Feature","properties":{"numer":"662","klasa":"droga gĹ‚Ăłwna","kat":"wojewodzka"},"geometry":{"type":"LineString","coordinates":[[22.94521,54.12585],[22.94502,54.12567]]}},{"type":"Feature","properties":{"numer":"655","klasa":"droga gĹ‚Ăłwna","kat":"wojewodzka"},"geometry":{"type":"LineString","coordinates":[[22.94521,54.12585],[22.94548,54.12576]]}},{"type":"Feature","properties":{"numer":"655","klasa":"droga gĹ‚Ăłwna","kat":"wojewodzka"},"geometry":{"type":"LineString","coordinates":[[22.94521,54.12585],[22.94491,54.12596]]}},{"type":"Feature","properties":{"numer":"652","klasa":"droga gĹ‚Ăłwna","kat":"wojewodzka"},"geometry":{"type":"LineString","coordinates":[[22.871278286675924,54.110993683620045],[22.87161,54.11079],[22.8756,54.10929]]}},{"type":"Feature","properties":{"numer":"E67,S61","klasa":"droga ekspresowa","kat":"krajowa"},"geometry":{"type":"LineString","coordinates":[[22.88544,54.12727],[22.88348,54.12534],[22.88252,54.12409],[22.88173,54.12276],[22.8807,54.12039],[22.87934,54.11589],[22.87867,54.11419],[22.87765,54.11208],[22.87588,54.10919]]}},{"type":"Feature","properties":{"numer":"1134B","klasa":"droga zbiorcza","kat":"powiatowa"},"geometry":{"type":"LineString","coordinates":[[22.88479,54.12736],[22.88544,54.12727]]}},{"type":"Feature","properties":{"numer":"E67,S61","klasa":"droga ekspresowa","kat":"krajowa"},"geometry":{"type":"LineString","coordinates":[[22.90517,54.13418],[22.90231,54.1339],[22.89895,54.13335],[22.89639,54.13274],[22.89381,54.13192],[22.89118,54.13086],[22.88925,54.12989],[22.887,54.12849],[22.88544,54.12727]]}},{"type":"Feature","properties":{"numer":"1134B","klasa":"droga gĹ‚Ăłwna","kat":"powiatowa"},"geometry":{"type":"LineString","coordinates":[[22.88479,54.12736],[22.88478326613762,54.127361068867046]]}},{"type":"Feature","properties":{"numer":"662","klasa":"droga gĹ‚Ăłwna","kat":"wojewodzka"},"geometry":{"type":"LineString","coordinates":[[22.9454,54.12603],[22.94521,54.12585]]}},{"type":"Feature","properties":{"numer":"662","klasa":"droga gĹ‚Ăłwna","kat":"wojewodzka"},"geometry":{"type":"LineString","coordinates":[[22.94644,54.12698],[22.9454,54.12603]]}},{"type":"Feature","properties":{"numer":"2498B","klasa":"droga zbiorcza","kat":"powiatowa"},"geometry":{"type":"LineString","coordinates":[[22.93028,54.12851],[22.92989,54.12576]]}},{"type":"Feature","properties":{"numer":"655","klasa":"droga gĹ‚Ăłwna","kat":"wojewodzka"},"geometry":{"type":"LineString","coordinates":[[22.93349,54.12854],[22.93657,54.1285],[22.93796,54.12832],[22.93935,54.12795],[22.94491,54.12596]]}},{"type":"Feature","properties":{"numer":"655","klasa":"droga gĹ‚Ăłwna","kat":"wojewodzka"},"geometry":{"type":"LineString","coordinates":[[22.93188,54.12859],[22.93349,54.12854]]}},{"type":"Feature","properties":{"numer":"2498B","klasa":"droga zbiorcza","kat":"powiatowa"},"geometry":{"type":"LineString","coordinates":[[22.93033,54.1287],[22.93028,54.12851]]}},{"type":"Feature","properties":{"numer":"655","klasa":"droga gĹ‚Ăłwna","kat":"wojewodzka"},"geometry":{"type":"LineString","coordinates":[[22.93064,54.12868],[22.93188,54.12859]]}},{"type":"Feature","properties":{"numer":"655","klasa":"droga gĹ‚Ăłwna","kat":"wojewodzka"},"geometry":{"type":"LineString","coordinates":[[22.93033,54.1287],[22.93064,54.12868]]}},{"type":"Feature","properties":{"numer":"655","klasa":"droga zbiorcza","kat":"wojewodzka"},"geometry":{"type":"LineString","coordinates":[[22.93033,54.1287],[22.93031,54.12888]]}},{"type":"Feature","properties":{"numer":"1142B","klasa":"droga zbiorcza","kat":"powiatowa"},"geometry":{"type":"LineString","coordinates":[[22.90942,54.12397],[22.90886,54.12593],[22.90769,54.12732],[22.9074,54.12783],[22.90608,54.13123],[22.90517,54.13418]]}},{"type":"Feature","properties":{"numer":"662","klasa":"droga gĹ‚Ăłwna","kat":"wojewodzka"},"geometry":{"type":"LineString","coordinates":[[22.95106,54.13143],[22.94644,54.12698]]}},{"type":"Feature","properties":{"numer":"655","klasa":"droga zbiorcza","kat":"wojewodzka"},"geometry":{"type":"LineString","coordinates":[[22.93031,54.12888],[22.9302,54.12977]]}},{"type":"Feature","properties":{"numer":"662","klasa":"droga gĹ‚Ăłwna","kat":"wojewodzka"},"geometry":{"type":"LineString","coordinates":[[22.95147,54.13184],[22.95106,54.13143]]}},{"type":"Feature","properties":{"numer":"655","klasa":"droga zbiorcza","kat":"wojewodzka"},"geometry":{"type":"LineString","coordinates":[[22.9302,54.12977],[22.93063,54.13374]]}},{"type":"Feature","properties":{"numer":"662","klasa":"droga gĹ‚Ăłwna","kat":"wojewodzka"},"geometry":{"type":"LineString","coordinates":[[22.95179,54.13218],[22.95147,54.13184]]}},{"type":"Feature","properties":{"numer":"662","klasa":"droga gĹ‚Ăłwna","kat":"wojewodzka"},"geometry":{"type":"LineString","coordinates":[[22.95325,54.1336],[22.95179,54.13218]]}},{"type":"Feature","properties":{"numer":"E67,S61","klasa":"droga ekspresowa","kat":"krajowa"},"geometry":{"type":"LineString","coordinates":[[22.95325,54.1336],[22.94998,54.13351],[22.93065,54.13392]]}},{"type":"Feature","properties":{"numer":"655","klasa":"droga zbiorcza","kat":"wojewodzka"},"geometry":{"type":"LineString","coordinates":[[22.93063,54.13374],[22.93065,54.13392]]}},{"type":"Feature","properties":{"numer":"655","klasa":"droga zbiorcza","kat":"wojewodzka"},"geometry":{"type":"LineString","coordinates":[[22.93065,54.13392],[22.93067,54.1341]]}},{"type":"Feature","properties":{"numer":"662","klasa":"droga gĹ‚Ăłwna","kat":"wojewodzka"},"geometry":{"type":"LineString","coordinates":[[22.95429,54.13463],[22.95325,54.1336]]}},{"type":"Feature","properties":{"numer":"S61","klasa":"droga ekspresowa","kat":"krajowa"},"geometry":{"type":"LineString","coordinates":[[22.9703,54.13897],[22.970320599418475,54.13898647953478]]}},{"type":"Feature","properties":{"numer":"8,E67","klasa":"droga gĹ‚Ăłwna ruchu przyĹ›pieszonego","kat":"gminna"},"geometry":{"type":"LineString","coordinates":[[22.972930758722754,54.15411568341178],[22.97287,54.15406]]}},{"type":"Feature","properties":{"numer":"E67,S61","klasa":"droga ekspresowa","kat":"krajowa"},"geometry":{"type":"LineString","coordinates":[[22.93065,54.13392],[22.91235,54.13431],[22.90778,54.1343],[22.90517,54.13418]]}},{"type":"Feature","properties":{"numer":"662","klasa":"droga gĹ‚Ăłwna","kat":"wojewodzka"},"geometry":{"type":"LineString","coordinates":[[22.95463,54.13496],[22.95429,54.13463]]}},{"type":"Feature","properties":{"numer":"662","klasa":"droga gĹ‚Ăłwna","kat":"wojewodzka"},"geometry":{"type":"LineString","coordinates":[[22.95488,54.13522],[22.95463,54.13496]]}},{"type":"Feature","properties":{"numer":"E67,S61","klasa":"droga ekspresowa","kat":"krajowa"},"geometry":{"type":"LineString","coordinates":[[22.9703,54.13897],[22.96933,54.13831],[22.96736,54.13721],[22.96468,54.13603],[22.96269,54.13533],[22.96053,54.13472],[22.95844,54.13425],[22.95615,54.13389],[22.95325,54.1336]]}},{"type":"Feature","properties":{"numer":"662","klasa":"droga gĹ‚Ăłwna","kat":"wojewodzka"},"geometry":{"type":"LineString","coordinates":[[22.97287,54.15406],[22.96907,54.15113],[22.96862,54.15069],[22.96842,54.15018],[22.96851,54.14936],[22.96844,54.14891],[22.96783,54.14798],[22.96738,54.14688],[22.9671,54.14648],[22.96466,54.14477],[22.95488,54.13522]]}},{"type":"Feature","properties":{"numer":"655","klasa":"droga zbiorcza","kat":"wojewodzka"},"geometry":{"type":"LineString","coordinates":[[22.93067,54.1341],[22.931,54.13707],[22.93206,54.15629],[22.93201,54.15738]]}},{"type":"Feature","properties":{"numer":"655","klasa":"droga gĹ‚Ăłwna","kat":"wojewodzka"},"geometry":{"type":"LineString","coordinates":[[22.93201,54.15738],[22.93200814711348,54.15740332784128]]}},{"type":"Feature","properties":{"numer":"1142B","klasa":"droga zbiorcza","kat":"powiatowa"},"geometry":{"type":"LineString","coordinates":[[22.90517,54.13418],[22.90466541719496,54.13574321731758]]}}]}