{"type":"FeatureCollection","features":[{"type":"Feature","properties":{"numer":"216","klasa":"droga gĹ‚Ăłwna","kat":"wojewodzka"},"geometry":{"type":"LineString","coordinates":[[18.68667,54.69531],[18.68786,54.69504],[18.69211,54.69333],[18.69599,54.69248],[18.69772,54.69195],[18.70011,54.69072],[18.70362,54.68925],[18.7059,54.68872],[18.70662,54.68844],[18.70917,54.68651],[18.71333,54.68421],[18.71849,54.6805],[18.72001,54.67979],[18.72106,54.67909],[18.72482,54.67711],[18.72601,54.67559],[18.72702,54.6747],[18.7309,54.67275],[18.73291,54.67161],[18.73539,54.67085],[18.73654,54.67067],[18.73861,54.66991],[18.7397,54.66939],[18.74232,54.66781],[18.74528,54.66496],[18.74666,54.6626],[18.74783,54.66126],[18.74819,54.66104],[18.74954,54.66052],[18.74982,54.66028],[18.75017,54.65945],[18.75053,54.65904],[18.75294,54.65782],[18.75538,54.65602],[18.75785,54.65444],[18.75805,54.65413],[18.75852,54.65201],[18.75875,54.6515],[18.75908,54.65117],[18.76023,54.65053],[18.76225,54.64986],[18.76358,54.64927],[18.76635,54.64861],[18.76783,54.64841],[18.76846,54.64814],[18.76889,54.64761],[18.76985,54.645],[18.77016,54.64451],[18.77129,54.6436],[18.77271,54.64293],[18.77304,54.64268],[18.77345,54.64179],[18.77411,54.6409],[18.77454,54.63992],[18.77697,54.63747],[18.77841,54.63641],[18.78224,54.63442],[18.7859,54.63149],[18.78977,54.62859],[18.7904,54.62829],[18.7929,54.62743],[18.79371,54.62697],[18.79435,54.62632],[18.79476,54.62494],[18.7963,54.62326],[18.79848,54.62119],[18.80068,54.61988],[18.80339,54.61743],[18.80358,54.61702],[18.80357,54.61665],[18.80114,54.60939],[18.80108,54.6089]]}},{"type":"Feature","properties":{"numer":"1535G","klasa":"droga zbiorcza","kat":"powiatowa"},"geometry":{"type":"LineString","coordinates":[[18.68666,54.6955],[18.68667,54.69531]]}},{"type":"Feature","properties":{"numer":"1535G","klasa":"droga zbiorcza","kat":"powiatowa"},"geometry":{"type":"LineString","coordinates":[[18.68666,54.6955],[18.68727,54.69531]]}},{"type":"Feature","properties":{"numer":"216","klasa":"droga gĹ‚Ăłwna","kat":"wojewodzka"},"geometry":{"type":"LineString","coordinates":[[18.68667,54.69531],[18.68226,54.69556],[18.68087,54.69557]]}},{"type":"Feature","properties":{"numer":"216","klasa":"droga gĹ‚Ăłwna","kat":"wojewodzka"},"geometry":{"type":"LineString","coordinates":[[18.66692,54.70248],[18.6662,54.70281],[18.66557,54.70299],[18.66194,54.70354],[18.66124,54.70373],[18.6602,54.70429],[18.65837,54.70582]]}},{"type":"Feature","properties":{"numer":"216","klasa":"droga gĹ‚Ăłwna","kat":"wojewodzka"},"geometry":{"type":"LineString","coordinates":[[18.65797,54.70598],[18.65837,54.70582]]}},{"type":"Feature","properties":{"numer":"216","klasa":"droga gĹ‚Ăłwna","kat":"wojewodzka"},"geometry":{"type":"LineString","coordinates":[[18.65766,54.70615],[18.65797,54.70598]]}},{"type":"Feature","properties":{"numer":"216","klasa":"droga gĹ‚Ăłwna","kat":"wojewodzka"},"geometry":{"type":"LineString","coordinates":[[18.65742,54.70635],[18.65766,54.70615]]}},{"type":"Feature","properties":{"numer":"1536G","klasa":"droga zbiorcza","kat":"powiatowa"},"geometry":{"type":"LineString","coordinates":[[18.6733,54.69579],[18.67333,54.69524],[18.6735,54.69517],[18.67361,54.69524],[18.67357,54.69587]]}},{"type":"Feature","properties":{"numer":"216","klasa":"droga gĹ‚Ăłwna","kat":"wojewodzka"},"geometry":{"type":"LineString","coordinates":[[18.68015,54.69554],[18.68087,54.69557]]}},{"type":"Feature","properties":{"numer":"216","klasa":"droga gĹ‚Ăłwna","kat":"wojewodzka"},"geometry":{"type":"LineString","coordinates":[[18.6797,54.69561],[18.68015,54.69554]]}},{"type":"Feature","properties":{"numer":"216","klasa":"droga gĹ‚Ăłwna","kat":"wojewodzka"},"geometry":{"type":"LineString","coordinates":[[18.67925,54.69575],[18.6797,54.69561]]}},{"type":"Feature","properties":{"numer":"112022G","klasa":"droga lokalna","kat":"powiatowa"},"geometry":{"type":"LineString","coordinates":[[18.67357,54.69587],[18.6733,54.69579]]}},{"type":"Feature","properties":{"numer":"216","klasa":"droga gĹ‚Ăłwna","kat":"wojewodzka"},"geometry":{"type":"LineString","coordinates":[[18.67925,54.69575],[18.67779,54.69627],[18.67496,54.69786]]}},{"type":"Feature","properties":{"numer":"1536G","klasa":"droga zbiorcza","kat":"powiatowa"},"geometry":{"type":"LineString","coordinates":[[18.67357,54.69587],[18.67496,54.69786]]}},{"type":"Feature","properties":{"numer":"1535G","klasa":"droga zbiorcza","kat":"powiatowa"},"geometry":{"type":"LineString","coordinates":[[18.67737,54.70029],[18.6795,54.69932],[18.68199,54.69796],[18.68391,54.69719],[18.68666,54.6955]]}},{"type":"Feature","properties":{"numer":"1536G","klasa":"droga zbiorcza","kat":"powiatowa"},"geometry":{"type":"LineString","coordinates":[[18.67496,54.69786],[18.67737,54.70029]]}},{"type":"Feature","properties":{"numer":"216","klasa":"droga gĹ‚Ăłwna","kat":"wojewodzka"},"geometry":{"type":"LineString","coordinates":[[18.67496,54.69786],[18.66692,54.70248]]}},{"type":"Feature","properties":{"numer":"112018G","klasa":"droga lokalna","kat":"powiatowa"},"geometry":{"type":"LineString","coordinates":[[18.67692,54.70123],[18.67773,54.70063],[18.67737,54.70029]]}},{"type":"Feature","properties":{"numer":"1535G","klasa":"droga zbiorcza","kat":"powiatowa"},"geometry":{"type":"LineString","coordinates":[[18.67327,54.70199],[18.67737,54.70029]]}},{"type":"Feature","properties":{"numer":"112018G","klasa":"droga lokalna","kat":"powiatowa"},"geometry":{"type":"LineString","coordinates":[[18.67559,54.70194],[18.67692,54.70123]]}},{"type":"Feature","properties":{"numer":"112016G","klasa":"droga lokalna","kat":"powiatowa"},"geometry":{"type":"LineString","coordinates":[[18.67327,54.70199],[18.67353,54.70241],[18.6737,54.70245]]}},{"type":"Feature","properties":{"numer":"112018G","klasa":"droga lokalna","kat":"powiatowa"},"geometry":{"type":"LineString","coordinates":[[18.67389,54.7025],[18.67559,54.70194]]}},{"type":"Feature","properties":{"numer":"1535G","klasa":"droga zbiorcza","kat":"powiatowa"},"geometry":{"type":"LineString","coordinates":[[18.66692,54.70248],[18.66743,54.70268],[18.66775,54.70269],[18.66934,54.70239],[18.67245,54.70214],[18.67327,54.70199]]}},{"type":"Feature","properties":{"numer":"112018G","klasa":"droga lokalna","kat":"powiatowa"},"geometry":{"type":"LineString","coordinates":[[18.6737,54.70245],[18.67389,54.7025]]}},{"type":"Feature","properties":{"numer":"134102G","klasa":"droga lokalna","kat":"powiatowa"},"geometry":{"type":"LineString","coordinates":[[18.42746,54.57279],[18.42714,54.57276]]}},{"type":"Feature","properties":{"numer":"134102G","klasa":"droga lokalna","kat":"powiatowa"},"geometry":{"type":"LineString","coordinates":[[18.42762,54.57279],[18.42751,54.57279]]}},{"type":"Feature","properties":{"numer":"134102G","klasa":"droga lokalna","kat":"powiatowa"},"geometry":{"type":"LineString","coordinates":[[18.42751,54.57279],[18.42746,54.57279]]}},{"type":"Feature","properties":{"numer":"134102G","klasa":"droga lokalna","kat":"powiatowa"},"geometry":{"type":"LineString","coordinates":[[18.42956,54.57288],[18.42762,54.57279]]}},{"type":"Feature","properties":{"numer":"134102G","klasa":"droga lokalna","kat":"powiatowa"},"geometry":{"type":"LineString","coordinates":[[18.4312,54.57297],[18.42956,54.57288]]}},{"type":"Feature","properties":{"numer":"134102G","klasa":"droga lokalna","kat":"powiatowa"},"geometry":{"type":"LineString","coordinates":[[18.43207,54.57302],[18.4312,54.57297]]}},{"type":"Feature","properties":{"numer":"134102G","klasa":"droga lokalna","kat":"powiatowa"},"geometry":{"type":"LineString","coordinates":[[18.43346,54.57309],[18.43207,54.57302]]}},{"type":"Feature","properties":{"numer":"134102G","klasa":"droga lokalna","kat":"powiatowa"},"geometry":{"type":"LineString","coordinates":[[18.43477,54.57317],[18.43346,54.57309]]}},{"type":"Feature","properties":{"numer":"1472G","klasa":"droga zbiorcza","kat":"powiatowa"},"geometry":{"type":"LineString","coordinates":[[18.42653443781042,54.57274042622143],[18.42654,54.57274],[18.42703,54.57276]]}},{"type":"Feature","properties":{"numer":"134102G","klasa":"droga lokalna","kat":"powiatowa"},"geometry":{"type":"LineString","coordinates":[[18.43514,54.57319],[18.43477,54.57317]]}},{"type":"Feature","properties":{"numer":"134102G","klasa":"droga lokalna","kat":"powiatowa"},"geometry":{"type":"LineString","coordinates":[[18.43531,54.5732],[18.43514,54.57319]]}},{"type":"Feature","properties":{"numer":"134102G","klasa":"droga lokalna","kat":"powiatowa"},"geometry":{"type":"LineString","coordinates":[[18.43586,54.57323],[18.43531,54.5732]]}},{"type":"Feature","properties":{"numer":"134102G","klasa":"droga lokalna","kat":"powiatowa"},"geometry":{"type":"LineString","coordinates":[[18.43638,54.57326],[18.43586,54.57323]]}},{"type":"Feature","properties":{"numer":"134003G","klasa":"droga dojazdowa","kat":"powiatowa"},"geometry":{"type":"LineString","coordinates":[[18.43956,54.57351],[18.43921,54.57341],[18.43638,54.57326]]}},{"type":"Feature","properties":{"numer":"134003G","klasa":"droga dojazdowa","kat":"powiatowa"},"geometry":{"type":"LineString","coordinates":[[18.44008,54.57399],[18.43956,54.57351]]}},{"type":"Feature","properties":{"numer":"134003G","klasa":"droga dojazdowa","kat":"powiatowa"},"geometry":{"type":"LineString","coordinates":[[18.44012,54.57515],[18.44008,54.57399]]}},{"type":"Feature","properties":{"numer":"134003G","klasa":"droga dojazdowa","kat":"powiatowa"},"geometry":{"type":"LineString","coordinates":[[18.44108,54.57958],[18.4407,54.57732],[18.44012,54.57515]]}},{"type":"Feature","properties":{"numer":"134003G","klasa":"droga dojazdowa","kat":"powiatowa"},"geometry":{"type":"LineString","coordinates":[[18.44112,54.57977],[18.44108,54.57958]]}},{"type":"Feature","properties":{"numer":"134003G","klasa":"droga dojazdowa","kat":"powiatowa"},"geometry":{"type":"LineString","coordinates":[[18.44133,54.58056],[18.44112,54.57977]]}},{"type":"Feature","properties":{"numer":"134003G","klasa":"droga dojazdowa","kat":"powiatowa"},"geometry":{"type":"LineString","coordinates":[[18.44162,54.58163],[18.44133,54.58056]]}},{"type":"Feature","properties":{"numer":"134003G","klasa":"droga dojazdowa","kat":"powiatowa"},"geometry":{"type":"LineString","coordinates":[[18.44175,54.58204],[18.44162,54.58163]]}},{"type":"Feature","properties":{"numer":"1446G","klasa":"droga zbiorcza","kat":"powiatowa"},"geometry":{"type":"LineString","coordinates":[[17.9987,54.7711],[18.00794,54.77182],[18.00931,54.77214],[18.01089,54.77294],[18.01161,54.77308],[18.01369,54.77262],[18.01541,54.7724],[18.01601,54.77224],[18.01684,54.7718],[18.01881,54.77021],[18.01956,54.76992],[18.0204,54.76988],[18.02185,54.7702],[18.02335,54.77088],[18.0242,54.77107],[18.0253,54.77099],[18.02639,54.77055],[18.03252,54.76564],[18.03638,54.76055],[18.03792,54.7594],[18.03972,54.75854],[18.040151977320456,54.75819868458631]]}},{"type":"Feature","properties":{"numer":"1528G","klasa":"","kat":"powiatowa"},"geometry":{"type":"LineString","coordinates":[[17.98934,54.77174],[17.99431,54.77081],[17.99512,54.77081],[17.9987,54.7711]]}},{"type":"Feature","properties":{"numer":"1526G","klasa":"droga zbiorcza","kat":"powiatowa"},"geometry":{"type":"LineString","coordinates":[[18.09748,54.74095],[18.09735,54.74105]]}},{"type":"Feature","properties":{"numer":"1526G","klasa":"droga zbiorcza","kat":"powiatowa"},"geometry":{"type":"LineString","coordinates":[[18.09735,54.74105],[18.09088,54.74639],[18.08756,54.74875],[18.08299,54.75258],[18.08118,54.75487],[18.0791,54.75706],[18.07738,54.76085],[18.07667,54.76182],[18.07521,54.76303],[18.07396,54.76471],[18.0729,54.76632],[18.0693,54.77244],[18.06765,54.77672],[18.0668,54.77762],[18.06664,54.77803],[18.06737,54.78342],[18.06816,54.78606],[18.07001,54.79074]]}},{"type":"Feature","properties":{"numer":"1447G","klasa":"","kat":"powiatowa"},"geometry":{"type":"LineString","coordinates":[[17.98441533960515,54.757811108379784],[17.9845,54.7582],[17.98934,54.77174]]}},{"type":"Feature","properties":{"numer":"1447G","klasa":"","kat":"powiatowa"},"geometry":{"type":"LineString","coordinates":[[17.9906,54.77395],[17.97452,54.7762],[17.96617,54.77647],[17.965,54.77681],[17.9639,54.77725]]}},{"type":"Feature","properties":{"numer":"1447G","klasa":"","kat":"powiatowa"},"geometry":{"type":"LineString","coordinates":[[17.96385,54.77728],[17.9639,54.77725]]}},{"type":"Feature","properties":{"numer":"1447G","klasa":"","kat":"powiatowa"},"geometry":{"type":"LineString","coordinates":[[17.96385,54.77728],[17.96267,54.77788],[17.9621680854906,54.77795381095727]]}},{"type":"Feature","properties":{"numer":"213","klasa":"droga zbiorcza","kat":"wojewodzka"},"geometry":{"type":"LineString","coordinates":[[17.961405197274882,54.778126798660345],[17.96607,54.78042],[17.96642,54.7809],[17.96688,54.78399],[17.96706,54.78428],[17.97298,54.78874],[17.97379,54.78912],[17.9819,54.79044],[17.98878,54.79059],[17.98981,54.79042],[17.99471,54.78881],[17.99587,54.78863]]}},{"type":"Feature","properties":{"numer":"1447G","klasa":"","kat":"powiatowa"},"geometry":{"type":"LineString","coordinates":[[17.98934,54.77174],[17.9906,54.77395]]}},{"type":"Feature","properties":{"numer":"1446G","klasa":"droga zbiorcza","kat":"powiatowa"},"geometry":{"type":"LineString","coordinates":[[17.99519,54.7759],[17.99523,54.77541],[17.99542,54.77496],[17.99682,54.77365],[17.9987,54.7711]]}},{"type":"Feature","properties":{"numer":"1527G","klasa":"","kat":"powiatowa"},"geometry":{"type":"LineString","coordinates":[[17.9906,54.77395],[17.99123,54.7745],[17.99168,54.77469],[17.99383,54.77508],[17.9945,54.77529],[17.99519,54.7759]]}},{"type":"Feature","properties":{"numer":"1446G","klasa":"droga zbiorcza","kat":"powiatowa"},"geometry":{"type":"LineString","coordinates":[[17.99813,54.78652],[17.998,54.78623],[17.99844,54.78578],[18.00017,54.78503],[17.99652,54.77926],[17.99519,54.7759]]}},{"type":"Feature","properties":{"numer":"1446G","klasa":"droga zbiorcza","kat":"powiatowa"},"geometry":{"type":"LineString","coordinates":[[17.99822,54.7866],[17.99813,54.78652]]}},{"type":"Feature","properties":{"numer":"1446G","klasa":"droga zbiorcza","kat":"powiatowa"},"geometry":{"type":"LineString","coordinates":[[17.99587,54.78863],[17.99582,54.7882],[17.99596,54.78803],[17.9977,54.78749],[17.99857,54.78703],[17.99864,54.78689],[17.99822,54.7866]]}},{"type":"Feature","properties":{"numer":"213","klasa":"droga zbiorcza","kat":"wojewodzka"},"geometry":{"type":"LineString","coordinates":[[17.99587,54.78863],[17.99721,54.78842],[18.00104,54.78738],[18.00147,54.78732],[18.00214,54.78735],[18.04567,54.79727],[18.04639,54.79731],[18.04793,54.79713],[18.05157,54.79662],[18.05261,54.79632]]}},{"type":"Feature","properties":{"numer":"218","klasa":"droga zbiorcza","kat":"wojewodzka"},"geometry":{"type":"LineString","coordinates":[[18.194088012991614,54.68088110499587],[18.19358,54.68149]]}},{"type":"Feature","properties":{"numer":"1440G","klasa":"droga zbiorcza","kat":"powiatowa"},"geometry":{"type":"LineString","coordinates":[[18.19358,54.68149],[18.19414,54.6817],[18.1945,54.68198],[18.19671,54.68431],[18.19759,54.68486],[18.19819,54.6851],[18.1993,54.68534],[18.19995,54.68539],[18.20283,54.68531],[18.20919,54.68675],[18.21019,54.68709],[18.21157,54.68797],[18.21204,54.68818],[18.21451,54.68859],[18.21672,54.68951],[18.22009,54.69049],[18.23003,54.69254],[18.23085,54.69291],[18.23372,54.6945],[18.23498,54.69523],[18.23562,54.69572]]}},{"type":"Feature","properties":{"numer":"218","klasa":"droga zbiorcza","kat":"wojewodzka"},"geometry":{"type":"LineString","coordinates":[[18.19358,54.68149],[18.18979,54.68619],[18.18958,54.68679],[18.18973,54.68869],[18.18953,54.68917],[18.18914,54.68965],[18.1856287742926,54.69260771118554]]}},{"type":"Feature","properties":{"numer":"218","klasa":"droga zbiorcza","kat":"wojewodzka"},"geometry":{"type":"LineString","coordinates":[[18.178807287092354,54.69835384962136],[18.17252,54.70365],[18.17164,54.70416],[18.16913,54.70487],[18.16846,54.70515],[18.16678,54.70683],[18.16598,54.70724],[18.1653,54.70734],[18.16456,54.70728],[18.16408,54.70715],[18.1631,54.70668],[18.16227,54.70653],[18.16176,54.70655],[18.16072,54.70679],[18.16011,54.70713]]}},{"type":"Feature","properties":{"numer":"218","klasa":"droga zbiorcza","kat":"wojewodzka"},"geometry":{"type":"LineString","coordinates":[[18.1668,54.73181],[18.16946,54.72991],[18.16965,54.72962],[18.17062,54.72384],[18.17084,54.72344],[18.17159,54.72274],[18.17179,54.72241],[18.17201,54.71979],[18.17175,54.71931],[18.17135,54.71904],[18.17091,54.71888],[18.16953,54.71864],[18.1688,54.71833],[18.16556,54.71517],[18.16538,54.71483],[18.1653,54.71388],[18.16429,54.71195],[18.16369,54.71135],[18.15996,54.70849],[18.1598,54.7081],[18.15979,54.70766],[18.15986,54.70741],[18.16011,54.70713]]}},{"type":"Feature","properties":{"numer":"218","klasa":"droga zbiorcza","kat":"wojewodzka"},"geometry":{"type":"LineString","coordinates":[[18.17429,54.75242],[18.17431,54.75177],[18.17361,54.75082],[18.17335,54.74857],[18.17326,54.74821],[18.17304,54.74795],[18.17207,54.7473],[18.17063,54.7467],[18.17029,54.74646],[18.16924,54.74527],[18.16748,54.74387],[18.16708,54.74323],[18.16669,54.74289],[18.16445,54.74182],[18.16234,54.74161],[18.16183,54.74147],[18.16075,54.74095],[18.16034,54.74061],[18.16009,54.74012],[18.15947,54.73613]]}},{"type":"Feature","properties":{"numer":"1522G","klasa":"","kat":"powiatowa"},"geometry":{"type":"LineString","coordinates":[[18.24334,54.76123],[18.24222,54.75956],[18.23948,54.75783],[18.23648,54.75614],[18.22954,54.75315],[18.22908,54.75298],[18.22827,54.75287],[18.22282,54.7532],[18.22208,54.7531],[18.22128,54.75281],[18.22031,54.75206],[18.21988,54.75185],[18.21796,54.75118],[18.21648,54.75045],[18.21622,54.75018],[18.21601,54.74944],[18.21635,54.74806],[18.21632,54.74774],[18.21467,54.74526],[18.2132,54.74272],[18.2128,54.74141],[18.21247,54.74083],[18.21085,54.73954],[18.20584,54.73711],[18.20463,54.73683],[18.2007,54.73667],[18.19631,54.73573],[18.19091,54.73552],[18.18612,54.73491],[18.18487,54.73495],[18.18106,54.73524],[18.17446,54.736],[18.17096,54.73617],[18.16882,54.73607],[18.16721,54.73567],[18.16674,54.73543],[18.16653,54.73521],[18.16648,54.73449],[18.16727,54.73266],[18.16715,54.73217],[18.1668,54.73181]]}},{"type":"Feature","properties":{"numer":"1440G","klasa":"droga zbiorcza","kat":"powiatowa"},"geometry":{"type":"LineString","coordinates":[[18.23562,54.69572],[18.23655,54.69638],[18.23736,54.69673],[18.23999,54.69734],[18.24147,54.69758],[18.2431,54.69755],[18.24655,54.69691]]}},{"type":"Feature","properties":{"numer":"1440G","klasa":"droga zbiorcza","kat":"powiatowa"},"geometry":{"type":"LineString","coordinates":[[18.24721,54.69679],[18.24765,54.6967]]}},{"type":"Feature","properties":{"numer":"1440G","klasa":"droga zbiorcza","kat":"powiatowa"},"geometry":{"type":"LineString","coordinates":[[18.24684,54.69686],[18.24721,54.69679]]}},{"type":"Feature","properties":{"numer":"1440G","klasa":"droga zbiorcza","kat":"powiatowa"},"geometry":{"type":"LineString","coordinates":[[18.24655,54.69691],[18.24684,54.69686]]}},{"type":"Feature","properties":{"numer":"1508G","klasa":"","kat":"powiatowa"},"geometry":{"type":"LineString","coordinates":[[18.23562,54.69572],[18.23489,54.69616],[18.23452,54.6965],[18.23235,54.69933],[18.23193,54.70009],[18.23133,54.70186],[18.23075,54.7025],[18.22575,54.7048],[18.22457,54.70524],[18.22305,54.70566],[18.22125,54.70559],[18.22092,54.70563],[18.2208,54.70571],[18.22098,54.70619],[18.22194,54.70725],[18.22204,54.70768],[18.22195,54.70811],[18.22248,54.70876],[18.22324,54.71066],[18.22367,54.71124],[18.2249,54.71238],[18.22514,54.71273],[18.2252,54.71359],[18.22502,54.71594],[18.22541,54.71674],[18.22635,54.71751]]}},{"type":"Feature","properties":{"numer":"1508G","klasa":"","kat":"powiatowa"},"geometry":{"type":"LineString","coordinates":[[18.22635,54.71751],[18.22746,54.71845],[18.22816,54.71884],[18.22881,54.71952],[18.23075,54.72031],[18.23095,54.72049],[18.23115,54.72096],[18.23119,54.72209],[18.23093,54.72308],[18.23099,54.7235],[18.23133,54.72415],[18.23255,54.72489],[18.2326,54.72508],[18.23239,54.72572],[18.23252,54.72606],[18.23295,54.72628],[18.23388,54.72653],[18.23532,54.72757],[18.23758,54.72859],[18.23874,54.72943],[18.24018,54.73015],[18.24065,54.73102],[18.24159,54.73152],[18.24236,54.73227],[18.24386,54.73453],[18.24393,54.73535],[18.24406,54.73563],[18.24512,54.73677],[18.24583,54.7372],[18.24826,54.73904],[18.25029,54.7403],[18.25113,54.74118],[18.25367,54.74297],[18.25456,54.74382]]}},{"type":"Feature","properties":{"numer":"1508G","klasa":"","kat":"powiatowa"},"geometry":{"type":"LineString","coordinates":[[18.25456,54.74382],[18.25704,54.74696],[18.25914,54.75012],[18.26158,54.75239],[18.26256,54.75385],[18.2625,54.75459],[18.26266,54.75537]]}},{"type":"Feature","properties":{"numer":"213","klasa":"droga zbiorcza","kat":"wojewodzka"},"geometry":{"type":"LineString","coordinates":[[18.25192,54.75729],[18.25592,54.75545],[18.25697,54.75513],[18.25776,54.75508],[18.26122,54.75517],[18.26173,54.75525],[18.26219,54.7555]]}},{"type":"Feature","properties":{"numer":"213","klasa":"droga zbiorcza","kat":"wojewodzka"},"geometry":{"type":"LineString","coordinates":[[18.24334,54.76123],[18.25192,54.75729]]}},{"type":"Feature","properties":{"numer":"213","klasa":"droga zbiorcza","kat":"wojewodzka"},"geometry":{"type":"LineString","coordinates":[[18.23193,54.76546],[18.24179,54.76188],[18.24334,54.76123]]}},{"type":"Feature","properties":{"numer":"1445G","klasa":"","kat":"powiatowa"},"geometry":{"type":"LineString","coordinates":[[18.102001425368627,54.71562386479262],[18.10241,54.71572],[18.104,54.71576],[18.10445,54.71583],[18.11054,54.7178],[18.11254,54.71818],[18.11927,54.72043]]}},{"type":"Feature","properties":{"numer":"1526G","klasa":"droga zbiorcza","kat":"powiatowa"},"geometry":{"type":"LineString","coordinates":[[18.11927,54.72043],[18.11831,54.72081],[18.11757,54.72131],[18.1161,54.72303],[18.11461,54.72427],[18.11367,54.72528],[18.11337,54.72593],[18.11329,54.72646],[18.11344,54.72852],[18.11339,54.72916],[18.1128,54.73033],[18.11161,54.73133],[18.10852,54.73314],[18.10564,54.73551],[18.1048,54.73607]]}},{"type":"Feature","properties":{"numer":"218","klasa":"droga zbiorcza","kat":"wojewodzka"},"geometry":{"type":"LineString","coordinates":[[18.15947,54.73613],[18.1596,54.73584],[18.15993,54.73553],[18.16116,54.73474],[18.16473,54.73323],[18.1668,54.73181]]}},{"type":"Feature","properties":{"numer":"1526G","klasa":"droga zbiorcza","kat":"powiatowa"},"geometry":{"type":"LineString","coordinates":[[18.1048,54.73607],[18.10162,54.73756],[18.09748,54.74095]]}},{"type":"Feature","properties":{"numer":"1525G","klasa":"","kat":"powiatowa"},"geometry":{"type":"LineString","coordinates":[[18.15947,54.73613],[18.15796,54.73631],[18.15649,54.73682],[18.15506,54.73705],[18.15148,54.73693],[18.15081,54.7368],[18.1503,54.73661],[18.14902,54.73749],[18.14837,54.7377],[18.14787,54.73796],[18.14766,54.73854],[18.14736,54.73885],[18.14122,54.74275],[18.13703,54.74558],[18.13538,54.74631],[18.13121,54.74759],[18.12999,54.74775],[18.12998,54.74846]]}},{"type":"Feature","properties":{"numer":"1524G","klasa":"","kat":"powiatowa"},"geometry":{"type":"LineString","coordinates":[[18.1048,54.73607],[18.10534,54.73651],[18.1061,54.7379],[18.10629,54.73844],[18.10647,54.73993],[18.107,54.74076],[18.1078,54.74136],[18.10878,54.74178],[18.10994,54.74204],[18.11272,54.74235],[18.11337,54.74256],[18.11364,54.74292],[18.11351,54.74392],[18.11363,54.7446],[18.11467,54.74638],[18.11508,54.74669],[18.11582,54.74692],[18.11796,54.74729],[18.1188,54.74751],[18.11949,54.74778],[18.12118,54.7487],[18.12248,54.74902],[18.12643,54.74909],[18.12716,54.749],[18.12922,54.74853],[18.12998,54.74846]]}},{"type":"Feature","properties":{"numer":"1524G","klasa":"","kat":"powiatowa"},"geometry":{"type":"LineString","coordinates":[[18.12998,54.74846],[18.13102,54.74852],[18.13188,54.7487],[18.1356,54.74997],[18.13622,54.75036],[18.13735,54.75144],[18.139,54.75273],[18.13954,54.75347],[18.13965,54.75412],[18.13983,54.76235],[18.14006,54.76412],[18.13921,54.76946],[18.1393,54.76971],[18.14179,54.77038],[18.14587,54.77101],[18.15561,54.77348],[18.16049,54.77547]]}},{"type":"Feature","properties":{"numer":"218","klasa":"droga zbiorcza","kat":"wojewodzka"},"geometry":{"type":"LineString","coordinates":[[18.16375,54.77873],[18.16362,54.77847],[18.16327,54.77815],[18.16226,54.7777],[18.1617,54.77732],[18.16049,54.77547]]}},{"type":"Feature","properties":{"numer":"218","klasa":"droga zbiorcza","kat":"wojewodzka"},"geometry":{"type":"LineString","coordinates":[[18.16373,54.779],[18.16375,54.77873]]}},{"type":"Feature","properties":{"numer":"218","klasa":"droga zbiorcza","kat":"wojewodzka"},"geometry":{"type":"LineString","coordinates":[[18.16373,54.7791],[18.16373,54.779]]}},{"type":"Feature","properties":{"numer":"218","klasa":"droga zbiorcza","kat":"wojewodzka"},"geometry":{"type":"LineString","coordinates":[[18.16049,54.77547],[18.16219,54.77247],[18.1633,54.76903],[18.16434,54.76794],[18.16459,54.76753],[18.16477,54.7649],[18.16981,54.75791],[18.17345,54.75441],[18.17384,54.75382],[18.17429,54.75242]]}},{"type":"Feature","properties":{"numer":"1523G","klasa":"","kat":"powiatowa"},"geometry":{"type":"LineString","coordinates":[[18.17655,54.78135],[18.17569,54.77902],[18.17566,54.77604],[18.17604,54.77537],[18.17732,54.77433],[18.17762,54.77383],[18.17883,54.77007],[18.18101,54.76487],[18.18468,54.75525],[18.18471,54.75487],[18.18452,54.75416],[18.18411,54.75355],[18.18295,54.75228],[18.18253,54.75204],[18.18023,54.75202],[18.17901,54.75175],[18.17841,54.75172],[18.17757,54.75183],[18.17569,54.75225],[18.17429,54.75242]]}},{"type":"Feature","properties":{"numer":"213","klasa":"droga zbiorcza","kat":"wojewodzka"},"geometry":{"type":"LineString","coordinates":[[18.17655,54.78135],[18.18212,54.78057],[18.18557,54.77914],[18.20271,54.77394],[18.2054,54.77327],[18.20998,54.77258]]}},{"type":"Feature","properties":{"numer":"215","klasa":"droga zbiorcza","kat":"wojewodzka"},"geometry":{"type":"LineString","coordinates":[[18.20998,54.77258],[18.21,54.77496],[18.2098,54.77533],[18.20452,54.77892],[18.19925,54.78373],[18.19876,54.78484]]}},{"type":"Feature","properties":{"numer":"213","klasa":"droga zbiorcza","kat":"wojewodzka"},"geometry":{"type":"LineString","coordinates":[[18.16469,54.77909],[18.16594,54.77923],[18.16752,54.77983],[18.16818,54.78027],[18.16922,54.78143],[18.16959,54.78168]]}},{"type":"Feature","properties":{"numer":"213","klasa":"droga zbiorcza","kat":"wojewodzka"},"geometry":{"type":"LineString","coordinates":[[18.17614,54.78142],[18.17655,54.78135]]}},{"type":"Feature","properties":{"numer":"213","klasa":"droga zbiorcza","kat":"wojewodzka"},"geometry":{"type":"LineString","coordinates":[[18.16959,54.78168],[18.16982,54.7818]]}},{"type":"Feature","properties":{"numer":"213","klasa":"droga zbiorcza","kat":"wojewodzka"},"geometry":{"type":"LineString","coordinates":[[18.17084,54.78225],[18.17169,54.78252],[18.17266,54.78253],[18.17352,54.78244],[18.17433,54.78224],[18.17526,54.78164],[18.17614,54.78142]]}},{"type":"Feature","properties":{"numer":"213","klasa":"droga zbiorcza","kat":"wojewodzka"},"geometry":{"type":"LineString","coordinates":[[18.16982,54.7818],[18.17084,54.78225]]}},{"type":"Feature","properties":{"numer":"1505G","klasa":"","kat":"powiatowa"},"geometry":{"type":"LineString","coordinates":[[18.17614,54.78142],[18.17642,54.7815],[18.17877,54.78168],[18.1827,54.7821],[18.1875,54.78308],[18.19078,54.78436],[18.19211,54.78503],[18.19271,54.78524],[18.19305,54.78526],[18.19519,54.78481],[18.19757,54.78493],[18.19876,54.78484]]}},{"type":"Feature","properties":{"numer":"213","klasa":"droga zbiorcza","kat":"wojewodzka"},"geometry":{"type":"LineString","coordinates":[[18.23186,54.76549],[18.23193,54.76546]]}},{"type":"Feature","properties":{"numer":"213","klasa":"droga zbiorcza","kat":"wojewodzka"},"geometry":{"type":"LineString","coordinates":[[18.22725,54.76716],[18.23186,54.76549]]}},{"type":"Feature","properties":{"numer":"213","klasa":"droga zbiorcza","kat":"wojewodzka"},"geometry":{"type":"LineString","coordinates":[[18.22713,54.76721],[18.22725,54.76716]]}},{"type":"Feature","properties":{"numer":"213","klasa":"droga zbiorcza","kat":"wojewodzka"},"geometry":{"type":"LineString","coordinates":[[18.20998,54.77258],[18.2124,54.77227],[18.21523,54.77231],[18.21711,54.77199],[18.21963,54.77074],[18.22032,54.76988],[18.22081,54.76954],[18.22713,54.76721]]}},{"type":"Feature","properties":{"numer":"215,1501G","klasa":"droga zbiorcza","kat":"powiatowa"},"geometry":{"type":"LineString","coordinates":[[18.20993,54.83078],[18.2101,54.8308],[18.21169,54.83048],[18.21488,54.83044],[18.22954,54.83069],[18.23128,54.83085]]}},{"type":"Feature","properties":{"numer":"215","klasa":"droga zbiorcza","kat":"wojewodzka"},"geometry":{"type":"LineString","coordinates":[[18.23128,54.83085],[18.2346,54.83117]]}},{"type":"Feature","properties":{"numer":"215","klasa":"droga zbiorcza","kat":"wojewodzka"},"geometry":{"type":"LineString","coordinates":[[18.2346,54.83117],[18.23478,54.8312]]}},{"type":"Feature","properties":{"numer":"213","klasa":"droga zbiorcza","kat":"wojewodzka"},"geometry":{"type":"LineString","coordinates":[[18.16389,54.7791],[18.16469,54.77909]]}},{"type":"Feature","properties":{"numer":"213","klasa":"droga zbiorcza","kat":"wojewodzka"},"geometry":{"type":"LineString","coordinates":[[18.16356,54.7791],[18.16373,54.7791]]}},{"type":"Feature","properties":{"numer":"213","klasa":"droga zbiorcza","kat":"wojewodzka"},"geometry":{"type":"LineString","coordinates":[[18.16373,54.7791],[18.16389,54.7791]]}},{"type":"Feature","properties":{"numer":"213","klasa":"droga zbiorcza","kat":"wojewodzka"},"geometry":{"type":"LineString","coordinates":[[18.16271,54.77913],[18.16356,54.7791]]}},{"type":"Feature","properties":{"numer":"213","klasa":"droga zbiorcza","kat":"wojewodzka"},"geometry":{"type":"LineString","coordinates":[[18.15105,54.78308],[18.1603,54.77946],[18.16146,54.7792],[18.16271,54.77913]]}},{"type":"Feature","properties":{"numer":"213","klasa":"droga zbiorcza","kat":"wojewodzka"},"geometry":{"type":"LineString","coordinates":[[18.11751,54.78625],[18.1284,54.78515],[18.13622,54.78488],[18.14211,54.78389],[18.14689,54.78348],[18.14969,54.78334],[18.15105,54.78308]]}},{"type":"Feature","properties":{"numer":"1502G","klasa":"","kat":"powiatowa"},"geometry":{"type":"LineString","coordinates":[[18.11751,54.78625],[18.11791,54.78778],[18.11774,54.78979],[18.11733,54.79151],[18.11663,54.79332],[18.11663,54.79452],[18.11586,54.79586],[18.11496,54.79661],[18.1122,54.79771],[18.11174,54.79799],[18.1109,54.79878],[18.10921,54.80135],[18.10821,54.80238],[18.10761,54.80278],[18.10651,54.80303],[18.1012,54.80365],[18.10052,54.80381],[18.10016,54.804],[18.09982,54.80436],[18.09866,54.80657],[18.09673,54.80933],[18.09624,54.80982],[18.08863,54.81318],[18.08815,54.81349],[18.08778,54.81408],[18.08686,54.82034]]}},{"type":"Feature","properties":{"numer":"1504G","klasa":"","kat":"powiatowa"},"geometry":{"type":"LineString","coordinates":[[18.17084,54.78225],[18.17031,54.78298],[18.16863,54.78644],[18.16649,54.79261],[18.16653,54.79319],[18.1672,54.79493],[18.16864,54.79726],[18.16923,54.79774],[18.1713,54.79912],[18.17232,54.80003],[18.17821,54.80768],[18.185,54.80851],[18.18782,54.80898],[18.19187,54.80931],[18.19356,54.80961],[18.1958,54.81017]]}},{"type":"Feature","properties":{"numer":"215","klasa":"droga zbiorcza","kat":"wojewodzka"},"geometry":{"type":"LineString","coordinates":[[18.19876,54.78484],[18.19726,54.78638],[18.1971,54.7871],[18.19871,54.79319],[18.1987,54.79421],[18.19837,54.79564],[18.19805,54.80109],[18.19958,54.80649],[18.19961,54.80812],[18.19973,54.80865],[18.20034,54.80978],[18.20121,54.81049]]}},{"type":"Feature","properties":{"numer":"1503G","klasa":"","kat":"powiatowa"},"geometry":{"type":"LineString","coordinates":[[18.15105,54.78308],[18.15142,54.7844],[18.15258,54.78597],[18.15311,54.78729],[18.15339,54.78862],[18.15392,54.78982],[18.15392,54.79121],[18.15185,54.79458],[18.14967,54.79951],[18.14725,54.80263],[18.147,54.80288],[18.14479,54.80428],[18.144,54.80493],[18.14178,54.80602],[18.14149,54.8064],[18.1415,54.80666],[18.14168,54.80691],[18.14421,54.8091],[18.14444,54.80996],[18.14473,54.81235],[18.14496,54.81719],[18.14381,54.82191],[18.16662,54.82204],[18.19572,54.82204],[18.1959,54.82196],[18.19594,54.82185],[18.19591,54.81114]]}},{"type":"Feature","properties":{"numer":"1504G","klasa":"","kat":"powiatowa"},"geometry":{"type":"LineString","coordinates":[[18.1958,54.81017],[18.19976,54.81046],[18.20121,54.81049]]}},{"type":"Feature","properties":{"numer":"1503G","klasa":"","kat":"powiatowa"},"geometry":{"type":"LineString","coordinates":[[18.1959,54.81109],[18.1958,54.81017]]}},{"type":"Feature","properties":{"numer":"1503G","klasa":"","kat":"powiatowa"},"geometry":{"type":"LineString","coordinates":[[18.19591,54.81114],[18.1959,54.81109]]}},{"type":"Feature","properties":{"numer":"215","klasa":"droga zbiorcza","kat":"wojewodzka"},"geometry":{"type":"LineString","coordinates":[[18.20121,54.81049],[18.20431,54.81145],[18.20724,54.81276],[18.21315,54.81479],[18.21347,54.81497],[18.21363,54.81521],[18.21353,54.81656],[18.21337,54.81697],[18.21195,54.81817],[18.21157,54.81864],[18.21051,54.82547],[18.20993,54.83078]]}},{"type":"Feature","properties":{"numer":"213","klasa":"droga zbiorcza","kat":"wojewodzka"},"geometry":{"type":"LineString","coordinates":[[18.07001,54.79074],[18.07668,54.78858],[18.07965,54.78709],[18.08022,54.78703],[18.0814,54.78717],[18.08261,54.78713],[18.08329,54.78737],[18.08407,54.78718],[18.08446,54.78716],[18.08583,54.78747],[18.08726,54.78735],[18.08876,54.78687],[18.08971,54.78624],[18.09111,54.7857],[18.0917,54.78558],[18.10018,54.78518],[18.10126,54.78538],[18.10366,54.7863],[18.10743,54.7868],[18.1139,54.78662],[18.11751,54.78625]]}},{"type":"Feature","properties":{"numer":"213","klasa":"droga zbiorcza","kat":"wojewodzka"},"geometry":{"type":"LineString","coordinates":[[18.05282,54.79626],[18.07001,54.79074]]}},{"type":"Feature","properties":{"numer":"213","klasa":"droga zbiorcza","kat":"wojewodzka"},"geometry":{"type":"LineString","coordinates":[[18.05261,54.79632],[18.05282,54.79626]]}},{"type":"Feature","properties":{"numer":"1502G","klasa":"","kat":"powiatowa"},"geometry":{"type":"LineString","coordinates":[[18.08686,54.82034],[18.08686,54.82039]]}},{"type":"Feature","properties":{"numer":"1502G","klasa":"","kat":"powiatowa"},"geometry":{"type":"LineString","coordinates":[[18.08686,54.82039],[18.08719,54.82712]]}},{"type":"Feature","properties":{"numer":"1502G","klasa":"","kat":"powiatowa"},"geometry":{"type":"LineString","coordinates":[[18.08719,54.82712],[18.08719,54.82718]]}},{"type":"Feature","properties":{"numer":"1502G","klasa":"","kat":"powiatowa"},"geometry":{"type":"LineString","coordinates":[[18.08719,54.82718],[18.08732,54.82948]]}},{"type":"Feature","properties":{"numer":"134003G","klasa":"droga dojazdowa","kat":"powiatowa"},"geometry":{"type":"LineString","coordinates":[[18.44247,54.5832],[18.44192,54.58246],[18.44175,54.58204]]}},{"type":"Feature","properties":{"numer":"134003G","klasa":"droga dojazdowa","kat":"powiatowa"},"geometry":{"type":"LineString","coordinates":[[18.43727,54.58781],[18.44247,54.5832]]}},{"type":"Feature","properties":{"numer":"134003G","klasa":"droga dojazdowa","kat":"powiatowa"},"geometry":{"type":"LineString","coordinates":[[18.43639,54.58833],[18.43727,54.58781]]}},{"type":"Feature","properties":{"numer":"1519G","klasa":"","kat":"powiatowa"},"geometry":{"type":"LineString","coordinates":[[18.43639,54.58833],[18.43795,54.58872],[18.44056,54.58967],[18.44253,54.59025],[18.44651,54.59043],[18.44721,54.59038],[18.44867,54.59011],[18.45048,54.59015],[18.45126,54.59025],[18.45311,54.59073],[18.4548,54.591],[18.46125,54.59129],[18.46283,54.59151],[18.46408,54.59143],[18.46459,54.59128]]}},{"type":"Feature","properties":{"numer":"1519G","klasa":"","kat":"powiatowa"},"geometry":{"type":"LineString","coordinates":[[18.41904,54.6012],[18.42443,54.59909],[18.42529,54.59869],[18.42619,54.59812],[18.4282,54.59659],[18.42893,54.5959],[18.4348,54.58811],[18.43514,54.58801],[18.43639,54.58833]]}},{"type":"Feature","properties":{"numer":"1490G","klasa":"droga zbiorcza","kat":"powiatowa"},"geometry":{"type":"LineString","coordinates":[[18.41490688419377,54.600524866377434],[18.41492,54.60054]]}},{"type":"Feature","properties":{"numer":"1490G","klasa":"droga zbiorcza","kat":"powiatowa"},"geometry":{"type":"LineString","coordinates":[[18.41492,54.60054],[18.41502,54.60064]]}},{"type":"Feature","properties":{"numer":"1519G","klasa":"","kat":"powiatowa"},"geometry":{"type":"LineString","coordinates":[[18.41904,54.6012],[18.41894,54.60124]]}},{"type":"Feature","properties":{"numer":"1490G","klasa":"droga zbiorcza","kat":"powiatowa"},"geometry":{"type":"LineString","coordinates":[[18.41502,54.60064],[18.41653,54.60215]]}},{"type":"Feature","properties":{"numer":"1519G","klasa":"","kat":"powiatowa"},"geometry":{"type":"LineString","coordinates":[[18.41894,54.60124],[18.41653,54.60215]]}},{"type":"Feature","properties":{"numer":"1490G","klasa":"droga zbiorcza","kat":"powiatowa"},"geometry":{"type":"LineString","coordinates":[[18.41653,54.60215],[18.41783,54.60338],[18.4192,54.60419],[18.42082,54.60476],[18.42186,54.60498],[18.42308,54.60512],[18.4256,54.60514],[18.45331,54.60468]]}},{"type":"Feature","properties":{"numer":"1514G","klasa":"droga zbiorcza","kat":"powiatowa"},"geometry":{"type":"LineString","coordinates":[[18.45227,54.60782],[18.4532,54.60608],[18.45331,54.60468]]}},{"type":"Feature","properties":{"numer":"1514G","klasa":"droga zbiorcza","kat":"powiatowa"},"geometry":{"type":"LineString","coordinates":[[18.45222,54.6079],[18.45227,54.60782]]}},{"type":"Feature","properties":{"numer":"1514G","klasa":"droga zbiorcza","kat":"powiatowa"},"geometry":{"type":"LineString","coordinates":[[18.45041,54.61115],[18.45222,54.6079]]}},{"type":"Feature","properties":{"numer":"1514G","klasa":"droga zbiorcza","kat":"powiatowa"},"geometry":{"type":"LineString","coordinates":[[18.45038,54.6112],[18.45041,54.61115]]}},{"type":"Feature","properties":{"numer":"1514G","klasa":"droga zbiorcza","kat":"powiatowa"},"geometry":{"type":"LineString","coordinates":[[18.44505,54.62086],[18.45038,54.6112]]}},{"type":"Feature","properties":{"numer":"1514G","klasa":"droga zbiorcza","kat":"powiatowa"},"geometry":{"type":"LineString","coordinates":[[18.44501,54.62092],[18.44505,54.62086]]}},{"type":"Feature","properties":{"numer":"1514G","klasa":"droga zbiorcza","kat":"powiatowa"},"geometry":{"type":"LineString","coordinates":[[18.43824,54.62447],[18.4393,54.623],[18.43986,54.62255],[18.44072,54.62225],[18.44392,54.62197],[18.4446,54.62159],[18.44501,54.62092]]}},{"type":"Feature","properties":{"numer":"1514G","klasa":"droga zbiorcza","kat":"powiatowa"},"geometry":{"type":"LineString","coordinates":[[18.43818,54.62455],[18.43824,54.62447]]}},{"type":"Feature","properties":{"numer":"1514G","klasa":"droga zbiorcza","kat":"powiatowa"},"geometry":{"type":"LineString","coordinates":[[18.4398,54.63695],[18.43877,54.63407],[18.43882,54.63379],[18.43977,54.63268],[18.43976,54.63182],[18.43956,54.63068],[18.43872,54.6288],[18.43775,54.62761],[18.437,54.62641],[18.43716,54.62597],[18.43818,54.62455]]}},{"type":"Feature","properties":{"numer":"1514G","klasa":"droga zbiorcza","kat":"powiatowa"},"geometry":{"type":"LineString","coordinates":[[18.43983,54.63713],[18.4398,54.63695]]}},{"type":"Feature","properties":{"numer":"1514G","klasa":"droga zbiorcza","kat":"powiatowa"},"geometry":{"type":"LineString","coordinates":[[18.43925,54.63834],[18.4398,54.63764],[18.43983,54.63713]]}},{"type":"Feature","properties":{"numer":"1514G","klasa":"droga zbiorcza","kat":"powiatowa"},"geometry":{"type":"LineString","coordinates":[[18.43922,54.63838],[18.43925,54.63834]]}},{"type":"Feature","properties":{"numer":"1514G","klasa":"droga zbiorcza","kat":"powiatowa"},"geometry":{"type":"LineString","coordinates":[[18.43514,54.64762],[18.43556,54.64679],[18.43629,54.64592],[18.4365,54.64547],[18.43659,54.64316],[18.43878,54.63901],[18.43922,54.63838]]}},{"type":"Feature","properties":{"numer":"1514G","klasa":"droga zbiorcza","kat":"powiatowa"},"geometry":{"type":"LineString","coordinates":[[18.43512,54.64767],[18.43514,54.64762]]}},{"type":"Feature","properties":{"numer":"1514G","klasa":"droga zbiorcza","kat":"powiatowa"},"geometry":{"type":"LineString","coordinates":[[18.4291,54.65264],[18.43154,54.65164],[18.43235,54.65052],[18.43288,54.64948],[18.4334,54.64908],[18.43425,54.64877],[18.43474,54.64846],[18.43499,54.64815],[18.43512,54.64767]]}},{"type":"Feature","properties":{"numer":"1515G","klasa":"","kat":"powiatowa"},"geometry":{"type":"LineString","coordinates":[[18.42812,54.65248],[18.42685,54.65225],[18.42598,54.65218],[18.41205,54.65208]]}},{"type":"Feature","properties":{"numer":"1515G","klasa":"","kat":"powiatowa"},"geometry":{"type":"LineString","coordinates":[[18.42812,54.65248],[18.42847,54.65262]]}},{"type":"Feature","properties":{"numer":"1441G","klasa":"","kat":"powiatowa"},"geometry":{"type":"LineString","coordinates":[[18.372279601557896,54.63878113639275],[18.37235,54.63887],[18.37244,54.6393],[18.37187,54.64149],[18.37225,54.64216],[18.37282,54.64281],[18.37297,54.6432],[18.37265,54.64357],[18.37121,54.64437],[18.37078,54.64502],[18.37069,54.64555],[18.371,54.64626],[18.37231,54.64825]]}},{"type":"Feature","properties":{"numer":"216","klasa":"droga gĹ‚Ăłwna","kat":"wojewodzka"},"geometry":{"type":"LineString","coordinates":[[18.36277,54.65517],[18.3625,54.65457],[18.36202,54.65406],[18.34903,54.64311],[18.34703,54.64139],[18.34651,54.64072],[18.34516,54.63586],[18.344851244561315,54.633771360267744]]}},{"type":"Feature","properties":{"numer":"110032G","klasa":"droga dojazdowa","kat":"powiatowa"},"geometry":{"type":"LineString","coordinates":[[18.37242,54.64827],[18.37231,54.64825]]}},{"type":"Feature","properties":{"numer":"1515G","klasa":"","kat":"powiatowa"},"geometry":{"type":"LineString","coordinates":[[18.41205,54.65208],[18.39572,54.65127],[18.38132,54.64892],[18.37912,54.64877],[18.37679,54.64885],[18.37242,54.64827]]}},{"type":"Feature","properties":{"numer":"1515G","klasa":"","kat":"powiatowa"},"geometry":{"type":"LineString","coordinates":[[18.37242,54.64827],[18.36633,54.65171],[18.36408,54.65483],[18.36373,54.65507],[18.36277,54.65517]]}},{"type":"Feature","properties":{"numer":"216","klasa":"droga gĹ‚Ăłwna","kat":"wojewodzka"},"geometry":{"type":"LineString","coordinates":[[18.36308,54.66236],[18.36219,54.66136],[18.362,54.66084],[18.36192,54.66005],[18.36192,54.6584],[18.36278,54.65598],[18.36277,54.65517]]}},{"type":"Feature","properties":{"numer":"216","klasa":"droga gĹ‚Ăłwna","kat":"wojewodzka"},"geometry":{"type":"LineString","coordinates":[[18.37297,54.67051],[18.37244,54.67003],[18.36723,54.6664],[18.36555,54.66465],[18.36308,54.66236]]}},{"type":"Feature","properties":{"numer":"1440G","klasa":"droga zbiorcza","kat":"powiatowa"},"geometry":{"type":"LineString","coordinates":[[18.190994972273128,54.68180856394485],[18.19187,54.68152],[18.19276,54.6814],[18.19358,54.68149]]}},{"type":"Feature","properties":{"numer":"1526G","klasa":"droga zbiorcza","kat":"powiatowa"},"geometry":{"type":"LineString","coordinates":[[18.16011,54.70713],[18.15441,54.70429],[18.15176,54.70327],[18.15061,54.70298],[18.14725,54.70245],[18.14257,54.70214],[18.14097,54.70227],[18.13778,54.70293],[18.13653,54.70344],[18.13517,54.70422],[18.13477,54.70455],[18.13425,54.70523],[18.1337,54.70674],[18.13304,54.70747],[18.13212,54.70795],[18.1293,54.70889],[18.12832,54.70954],[18.12696,54.71172],[18.12554,54.71275],[18.1252,54.71318],[18.12451,54.71733],[18.12427,54.71801],[18.12392,54.71845],[18.12354,54.71875],[18.12283,54.71911],[18.11927,54.72043]]}},{"type":"Feature","properties":{"numer":"1605G","klasa":"droga zbiorcza","kat":"powiatowa"},"geometry":{"type":"LineString","coordinates":[[18.475758632598843,54.56294728238788],[18.47575,54.56323],[18.47585,54.56344],[18.47616,54.56361],[18.476275973721254,54.563613221492254]]}},{"type":"Feature","properties":{"numer":"1605G","klasa":"droga zbiorcza","kat":"powiatowa"},"geometry":{"type":"LineString","coordinates":[[18.47881143354614,54.56352993615786],[18.47907,54.56344],[18.47912,54.5632]]}},{"type":"Feature","properties":{"numer":"1606G","klasa":"droga zbiorcza","kat":"powiatowa"},"geometry":{"type":"LineString","coordinates":[[18.50535404541059,54.56364586736814],[18.50571,54.56368],[18.506015980795556,54.563674631915866]]}},{"type":"Feature","properties":{"numer":"1517G","klasa":"droga zbiorcza","kat":"powiatowa"},"geometry":{"type":"LineString","coordinates":[[18.48244,54.56451],[18.482434897448726,54.56449554277139]]}},{"type":"Feature","properties":{"numer":"1517G","klasa":"droga zbiorcza","kat":"powiatowa"},"geometry":{"type":"LineString","coordinates":[[18.4825,54.56462],[18.48244,54.56451]]}},{"type":"Feature","properties":{"numer":"1517G","klasa":"droga zbiorcza","kat":"powiatowa"},"geometry":{"type":"LineString","coordinates":[[18.48197,54.56454],[18.4825,54.56462]]}},{"type":"Feature","properties":{"numer":"1517G","klasa":"droga zbiorcza","kat":"powiatowa"},"geometry":{"type":"LineString","coordinates":[[18.49376,54.58335],[18.49265,54.58136],[18.49114,54.57691],[18.48919,54.57276],[18.4825,54.56462]]}},{"type":"Feature","properties":{"numer":"1518G","klasa":"","kat":"powiatowa"},"geometry":{"type":"LineString","coordinates":[[18.46989,54.57504],[18.4699,54.57482]]}},{"type":"Feature","properties":{"numer":"1518G","klasa":"","kat":"powiatowa"},"geometry":{"type":"LineString","coordinates":[[18.4699,54.57514],[18.46989,54.57504]]}},{"type":"Feature","properties":{"numer":"134029G","klasa":"droga dojazdowa","kat":"powiatowa"},"geometry":{"type":"LineString","coordinates":[[18.46996,54.57524],[18.4699,54.57514]]}},{"type":"Feature","properties":{"numer":"134029G","klasa":"","kat":"powiatowa"},"geometry":{"type":"LineString","coordinates":[[18.47009,54.57545],[18.46996,54.57524]]}},{"type":"Feature","properties":{"numer":"134029G","klasa":"droga dojazdowa","kat":"powiatowa"},"geometry":{"type":"LineString","coordinates":[[18.47051,54.57793],[18.47065,54.57663],[18.47009,54.57545]]}},{"type":"Feature","properties":{"numer":"134029G","klasa":"droga dojazdowa","kat":"powiatowa"},"geometry":{"type":"LineString","coordinates":[[18.47039,54.5785],[18.47051,54.57793]]}},{"type":"Feature","properties":{"numer":"134029G","klasa":"droga dojazdowa","kat":"powiatowa"},"geometry":{"type":"LineString","coordinates":[[18.4693,54.58184],[18.4696,54.58122],[18.47038,54.57853]]}},{"type":"Feature","properties":{"numer":"134029G","klasa":"droga dojazdowa","kat":"powiatowa"},"geometry":{"type":"LineString","coordinates":[[18.46889,54.5825],[18.4693,54.58184]]}},{"type":"Feature","properties":{"numer":"1517G","klasa":"droga zbiorcza","kat":"powiatowa"},"geometry":{"type":"LineString","coordinates":[[18.49395,54.58345],[18.49376,54.58335]]}},{"type":"Feature","properties":{"numer":"1517G","klasa":"droga zbiorcza","kat":"powiatowa"},"geometry":{"type":"LineString","coordinates":[[18.49407,54.58361],[18.49395,54.58345]]}},{"type":"Feature","properties":{"numer":"1517G","klasa":"droga zbiorcza","kat":"powiatowa"},"geometry":{"type":"LineString","coordinates":[[18.49407,54.58361],[18.49406,54.5839]]}},{"type":"Feature","properties":{"numer":"134029G","klasa":"droga dojazdowa","kat":"powiatowa"},"geometry":{"type":"LineString","coordinates":[[18.467,54.58502],[18.46841,54.58334],[18.46889,54.5825]]}},{"type":"Feature","properties":{"numer":"134029G","klasa":"droga dojazdowa","kat":"powiatowa"},"geometry":{"type":"LineString","coordinates":[[18.46635,54.5858],[18.467,54.58502]]}},{"type":"Feature","properties":{"numer":"134029G","klasa":"droga dojazdowa","kat":"powiatowa"},"geometry":{"type":"LineString","coordinates":[[18.46615,54.58604],[18.46635,54.5858]]}},{"type":"Feature","properties":{"numer":"1517G","klasa":"droga zbiorcza","kat":"powiatowa"},"geometry":{"type":"LineString","coordinates":[[18.49406,54.5839],[18.49352,54.5861],[18.49319,54.58819]]}},{"type":"Feature","properties":{"numer":"134029G","klasa":"droga dojazdowa","kat":"powiatowa"},"geometry":{"type":"LineString","coordinates":[[18.46559,54.58673],[18.46615,54.58604]]}},{"type":"Feature","properties":{"numer":"134029G","klasa":"droga dojazdowa","kat":"powiatowa"},"geometry":{"type":"LineString","coordinates":[[18.46533,54.58722],[18.46559,54.58673]]}},{"type":"Feature","properties":{"numer":"134029G","klasa":"droga dojazdowa","kat":"powiatowa"},"geometry":{"type":"LineString","coordinates":[[18.46491,54.58884],[18.46533,54.58722]]}},{"type":"Feature","properties":{"numer":"1517G","klasa":"droga zbiorcza","kat":"powiatowa"},"geometry":{"type":"LineString","coordinates":[[18.49319,54.58819],[18.49305,54.58877]]}},{"type":"Feature","properties":{"numer":"1517G","klasa":"droga zbiorcza","kat":"powiatowa"},"geometry":{"type":"LineString","coordinates":[[18.49305,54.58877],[18.49302,54.58885]]}},{"type":"Feature","properties":{"numer":"1519G","klasa":"","kat":"powiatowa"},"geometry":{"type":"LineString","coordinates":[[18.49302,54.58885],[18.49288,54.58887]]}},{"type":"Feature","properties":{"numer":"1517G","klasa":"droga zbiorcza","kat":"powiatowa"},"geometry":{"type":"LineString","coordinates":[[18.49302,54.58885],[18.49311,54.58892]]}},{"type":"Feature","properties":{"numer":"1519G","klasa":"","kat":"powiatowa"},"geometry":{"type":"LineString","coordinates":[[18.49288,54.58887],[18.49232,54.58892]]}},{"type":"Feature","properties":{"numer":"1517G","klasa":"droga zbiorcza","kat":"powiatowa"},"geometry":{"type":"LineString","coordinates":[[18.49311,54.58892],[18.49353,54.58918]]}},{"type":"Feature","properties":{"numer":"134029G","klasa":"droga dojazdowa","kat":"powiatowa"},"geometry":{"type":"LineString","coordinates":[[18.46472,54.58955],[18.46491,54.58884]]}},{"type":"Feature","properties":{"numer":"134029G","klasa":"droga dojazdowa","kat":"powiatowa"},"geometry":{"type":"LineString","coordinates":[[18.46465,54.58978],[18.46472,54.58955]]}},{"type":"Feature","properties":{"numer":"1519G","klasa":"","kat":"powiatowa"},"geometry":{"type":"LineString","coordinates":[[18.46865,54.59062],[18.47088,54.59068],[18.47482,54.59041],[18.47598,54.59025],[18.47816,54.58965],[18.48238,54.58924],[18.4886,54.58897],[18.49232,54.58892]]}},{"type":"Feature","properties":{"numer":"134029G","klasa":"droga dojazdowa","kat":"powiatowa"},"geometry":{"type":"LineString","coordinates":[[18.46456,54.59072],[18.46465,54.58978]]}},{"type":"Feature","properties":{"numer":"1519G","klasa":"","kat":"powiatowa"},"geometry":{"type":"LineString","coordinates":[[18.46792,54.59054],[18.46827,54.59055]]}},{"type":"Feature","properties":{"numer":"1519G","klasa":"","kat":"powiatowa"},"geometry":{"type":"LineString","coordinates":[[18.46755,54.59058],[18.46792,54.59054]]}},{"type":"Feature","properties":{"numer":"1519G","klasa":"","kat":"powiatowa"},"geometry":{"type":"LineString","coordinates":[[18.46827,54.59055],[18.46865,54.59062]]}},{"type":"Feature","properties":{"numer":"1519G","klasa":"","kat":"powiatowa"},"geometry":{"type":"LineString","coordinates":[[18.46459,54.59128],[18.46668,54.59072],[18.46755,54.59058]]}},{"type":"Feature","properties":{"numer":"134029G","klasa":"droga dojazdowa","kat":"powiatowa"},"geometry":{"type":"LineString","coordinates":[[18.46459,54.59128],[18.46456,54.59072]]}},{"type":"Feature","properties":{"numer":"1517G","klasa":"droga zbiorcza","kat":"powiatowa"},"geometry":{"type":"LineString","coordinates":[[18.49353,54.58918],[18.50052,54.59303],[18.5005,54.59456],[18.49987,54.59664]]}},{"type":"Feature","properties":{"numer":"1490G","klasa":"droga zbiorcza","kat":"powiatowa"},"geometry":{"type":"LineString","coordinates":[[18.49944,54.59673],[18.49987,54.59664]]}},{"type":"Feature","properties":{"numer":"1490G","klasa":"droga zbiorcza","kat":"powiatowa"},"geometry":{"type":"LineString","coordinates":[[18.45331,54.60468],[18.46424,54.6045],[18.47374,54.60476],[18.47557,54.60453],[18.47803,54.604],[18.48268,54.60344],[18.48315,54.60327],[18.48456,54.60218],[18.48633,54.60003],[18.48653,54.59925],[18.48688,54.59896],[18.48852,54.59854],[18.49121,54.59817],[18.4942,54.59791],[18.49591,54.59697],[18.4963,54.59692],[18.49873,54.5971],[18.49944,54.59673]]}},{"type":"Feature","properties":{"numer":"1517G","klasa":"droga zbiorcza","kat":"powiatowa"},"geometry":{"type":"LineString","coordinates":[[18.49987,54.59664],[18.4969,54.60522],[18.49622,54.60839]]}},{"type":"Feature","properties":{"numer":"1517G","klasa":"droga zbiorcza","kat":"powiatowa"},"geometry":{"type":"LineString","coordinates":[[18.49622,54.60839],[18.49571,54.6109],[18.49575,54.61126],[18.49597,54.61164]]}},{"type":"Feature","properties":{"numer":"1517G","klasa":"droga zbiorcza","kat":"powiatowa"},"geometry":{"type":"LineString","coordinates":[[18.49597,54.61164],[18.49601,54.61169]]}},{"type":"Feature","properties":{"numer":"1517G","klasa":"droga zbiorcza","kat":"powiatowa"},"geometry":{"type":"LineString","coordinates":[[18.49601,54.61169],[18.4962,54.61206],[18.49598,54.61332],[18.4969,54.63164],[18.49725,54.63182],[18.49831,54.63204],[18.50128,54.63214],[18.50785,54.63262],[18.50829,54.63262],[18.51054,54.63226]]}},{"type":"Feature","properties":{"numer":"134809G","klasa":"droga dojazdowa","kat":"powiatowa"},"geometry":{"type":"LineString","coordinates":[[18.51054,54.63226],[18.51053,54.63243]]}},{"type":"Feature","properties":{"numer":"1513G","klasa":"","kat":"powiatowa"},"geometry":{"type":"LineString","coordinates":[[18.46234,54.68601],[18.46298,54.68596],[18.46309,54.68587]]}},{"type":"Feature","properties":{"numer":"1608G","klasa":"droga zbiorcza","kat":"powiatowa"},"geometry":{"type":"LineString","coordinates":[[18.53502,54.58248],[18.535103926754832,54.58231214649034]]}},{"type":"Feature","properties":{"numer":"1517G","klasa":"droga zbiorcza","kat":"powiatowa"},"geometry":{"type":"LineString","coordinates":[[18.51054,54.63226],[18.51123,54.63217],[18.51196,54.63221]]}},{"type":"Feature","properties":{"numer":"1517G","klasa":"droga zbiorcza","kat":"powiatowa"},"geometry":{"type":"LineString","coordinates":[[18.51196,54.63221],[18.51264,54.63228]]}},{"type":"Feature","properties":{"numer":"134813G","klasa":"droga dojazdowa","kat":"powiatowa"},"geometry":{"type":"LineString","coordinates":[[18.51264,54.63228],[18.51253,54.63265]]}},{"type":"Feature","properties":{"numer":"134815G","klasa":"droga dojazdowa","kat":"powiatowa"},"geometry":{"type":"LineString","coordinates":[[18.51253,54.63265],[18.51212,54.63265],[18.51163,54.63253],[18.51053,54.63243]]}},{"type":"Feature","properties":{"numer":"216","klasa":"droga gĹ‚Ăłwna","kat":"wojewodzka"},"geometry":{"type":"LineString","coordinates":[[18.40978,54.79011],[18.41161,54.78967],[18.41332,54.7894],[18.41654,54.79005],[18.42173,54.79045],[18.42284,54.79035],[18.42411,54.78994],[18.4429,54.78247],[18.44475,54.78191],[18.45063,54.78041],[18.45878,54.7765],[18.45991,54.77604],[18.46591,54.77402],[18.46777,54.77358],[18.47138,54.77296],[18.47314,54.77243],[18.47835,54.77024],[18.49177,54.76481],[18.49448,54.76383],[18.50048,54.76174],[18.50321,54.7609],[18.51457,54.75746],[18.51535,54.75729],[18.51688,54.75712],[18.51762,54.75694],[18.52485,54.75452],[18.54515,54.74668],[18.55989,54.74082],[18.5724,54.73727],[18.57629,54.73603],[18.5831,54.7349],[18.58369,54.73464],[18.5851,54.73351],[18.58693,54.73232],[18.59402,54.7294],[18.59936,54.72772],[18.60304,54.72704],[18.60419,54.72676],[18.60927,54.7251],[18.61684,54.72297],[18.61787,54.72255],[18.62153,54.72079],[18.62967,54.71772],[18.6322,54.71632],[18.63862,54.71353],[18.64788,54.71017],[18.64971,54.70932],[18.65703,54.70662],[18.65742,54.70635]]}},{"type":"Feature","properties":{"numer":"1515G","klasa":"","kat":"powiatowa"},"geometry":{"type":"LineString","coordinates":[[18.42847,54.65262],[18.42861,54.6527]]}},{"type":"Feature","properties":{"numer":"1514G","klasa":"droga zbiorcza","kat":"powiatowa"},"geometry":{"type":"LineString","coordinates":[[18.4288,54.65269],[18.4291,54.65264]]}},{"type":"Feature","properties":{"numer":"1514G","klasa":"droga zbiorcza","kat":"powiatowa"},"geometry":{"type":"LineString","coordinates":[[18.42861,54.6527],[18.4288,54.65269]]}},{"type":"Feature","properties":{"numer":"1514G","klasa":"droga zbiorcza","kat":"powiatowa"},"geometry":{"type":"LineString","coordinates":[[18.42854,54.65281],[18.42861,54.6527]]}},{"type":"Feature","properties":{"numer":"1514G","klasa":"droga zbiorcza","kat":"powiatowa"},"geometry":{"type":"LineString","coordinates":[[18.42834,54.65301],[18.42854,54.65281]]}},{"type":"Feature","properties":{"numer":"1529G","klasa":"","kat":"powiatowa"},"geometry":{"type":"LineString","coordinates":[[18.41205,54.65208],[18.41245,54.65347],[18.41217,54.65527],[18.41183,54.6563]]}},{"type":"Feature","properties":{"numer":"001529G","klasa":"droga lokalna","kat":"powiatowa"},"geometry":{"type":"LineString","coordinates":[[18.41183,54.6563],[18.4118,54.65636]]}},{"type":"Feature","properties":{"numer":"1514G","klasa":"droga zbiorcza","kat":"powiatowa"},"geometry":{"type":"LineString","coordinates":[[18.41018,54.65989],[18.41559,54.65962],[18.41881,54.65908],[18.42596,54.65558],[18.42622,54.65532],[18.42647,54.65428],[18.42757,54.6537],[18.42834,54.65301]]}},{"type":"Feature","properties":{"numer":"1529G","klasa":"","kat":"powiatowa"},"geometry":{"type":"LineString","coordinates":[[18.4118,54.65636],[18.41079,54.65878]]}},{"type":"Feature","properties":{"numer":"1529G","klasa":"","kat":"powiatowa"},"geometry":{"type":"LineString","coordinates":[[18.41079,54.65878],[18.41018,54.65989]]}},{"type":"Feature","properties":{"numer":"1442G","klasa":"","kat":"powiatowa"},"geometry":{"type":"LineString","coordinates":[[18.293735000000005,54.65119521582734],[18.29419,54.65148],[18.294637523882304,54.65226655712647]]}},{"type":"Feature","properties":{"numer":"1442G","klasa":"","kat":"powiatowa"},"geometry":{"type":"LineString","coordinates":[[18.294779842519684,54.65376141732283],[18.2949,54.65377],[18.29555,54.6542],[18.29698,54.65454],[18.29778,54.65482],[18.29887,54.6556],[18.29998,54.65617],[18.30206,54.65742],[18.30393,54.65913],[18.30522,54.65986],[18.30602,54.66073],[18.30655,54.66172],[18.31334,54.66579],[18.31376,54.66595],[18.3255,54.66841]]}},{"type":"Feature","properties":{"numer":"1440G","klasa":"droga zbiorcza","kat":"powiatowa"},"geometry":{"type":"LineString","coordinates":[[18.24765,54.6967],[18.2493,54.69639],[18.25035,54.69632],[18.25227,54.69633],[18.2542,54.69662],[18.25506,54.69665],[18.25954,54.69626],[18.26152,54.69594],[18.26201,54.69597],[18.26373,54.69631],[18.26656,54.69645],[18.27265,54.6957],[18.27348,54.69568],[18.27598,54.69587],[18.27762,54.69605],[18.28324,54.69705],[18.28824,54.69694],[18.28894,54.69699],[18.28946,54.69713],[18.29137,54.69798],[18.29297,54.69841],[18.29399,54.6986],[18.29642,54.69873],[18.29742,54.69887],[18.30246,54.70054],[18.30898,54.70192],[18.31138,54.70203],[18.31306,54.70223],[18.31391,54.70208]]}},{"type":"Feature","properties":{"numer":"1440G","klasa":"droga zbiorcza","kat":"powiatowa"},"geometry":{"type":"LineString","coordinates":[[18.31391,54.70208],[18.31396,54.70206]]}},{"type":"Feature","properties":{"numer":"1510G","klasa":"","kat":"powiatowa"},"geometry":{"type":"LineString","coordinates":[[18.3206,54.70668],[18.31928,54.70749],[18.31876,54.70839],[18.31819,54.70875],[18.31639,54.70889],[18.31454,54.70894],[18.31391,54.70903],[18.31333,54.70921],[18.31216,54.70996],[18.30965,54.71113],[18.30924,54.71124],[18.30836,54.71129],[18.30746,54.71155],[18.3051,54.71189]]}},{"type":"Feature","properties":{"numer":"1510G","klasa":"","kat":"powiatowa"},"geometry":{"type":"LineString","coordinates":[[18.3051,54.71189],[18.29973,54.7124],[18.29715,54.7131],[18.29367,54.71336],[18.29251,54.71321]]}},{"type":"Feature","properties":{"numer":"1510G","klasa":"","kat":"powiatowa"},"geometry":{"type":"LineString","coordinates":[[18.29251,54.71321],[18.29031,54.71301]]}},{"type":"Feature","properties":{"numer":"1510G","klasa":"","kat":"powiatowa"},"geometry":{"type":"LineString","coordinates":[[18.29031,54.71301],[18.28754,54.71367],[18.28699,54.7137],[18.28379,54.71377],[18.28245,54.71356],[18.27869,54.71338],[18.27717,54.71354],[18.27463,54.71351],[18.27031,54.71405],[18.26854,54.71452],[18.26651,54.71491]]}},{"type":"Feature","properties":{"numer":"1510G","klasa":"","kat":"powiatowa"},"geometry":{"type":"LineString","coordinates":[[18.26651,54.71491],[18.26627,54.71514],[18.26614,54.71511],[18.26608,54.71501],[18.26651,54.71491]]}},{"type":"Feature","properties":{"numer":"1520G","klasa":"","kat":"powiatowa"},"geometry":{"type":"LineString","coordinates":[[18.36308,54.66236],[18.35701,54.66305],[18.35541,54.66354],[18.35129,54.66399],[18.35034,54.66417],[18.35011,54.66434],[18.34959,54.66533],[18.34869,54.66602],[18.34381,54.66895],[18.34352,54.6692],[18.34327,54.66962],[18.34329,54.67037],[18.34378,54.67107]]}},{"type":"Feature","properties":{"numer":"1442G","klasa":"","kat":"powiatowa"},"geometry":{"type":"LineString","coordinates":[[18.32879,54.66911],[18.3255,54.66841]]}},{"type":"Feature","properties":{"numer":"1442G","klasa":"","kat":"powiatowa"},"geometry":{"type":"LineString","coordinates":[[18.33531,54.67158],[18.33252,54.67],[18.32879,54.66911]]}},{"type":"Feature","properties":{"numer":"1520G","klasa":"","kat":"powiatowa"},"geometry":{"type":"LineString","coordinates":[[18.34378,54.67107],[18.34414,54.67121],[18.34436,54.67153],[18.34467,54.67264],[18.34481,54.67383],[18.34491,54.67391]]}},{"type":"Feature","properties":{"numer":"1513G","klasa":"","kat":"powiatowa"},"geometry":{"type":"LineString","coordinates":[[18.37297,54.67051],[18.37342,54.67048],[18.37702,54.67178],[18.38317,54.67375],[18.38805,54.67349],[18.39306,54.67338],[18.41132,54.67495]]}},{"type":"Feature","properties":{"numer":"1442G","klasa":"","kat":"powiatowa"},"geometry":{"type":"LineString","coordinates":[[18.34491,54.67391],[18.34292,54.67342],[18.33869,54.673],[18.33531,54.67158]]}},{"type":"Feature","properties":{"numer":"216","klasa":"droga gĹ‚Ăłwna","kat":"wojewodzka"},"geometry":{"type":"LineString","coordinates":[[18.36952,54.68573],[18.37292,54.68029],[18.37545,54.67583],[18.37552,54.67468],[18.37515,54.67372],[18.37449,54.67251],[18.37297,54.67051]]}},{"type":"Feature","properties":{"numer":"1442G","klasa":"","kat":"powiatowa"},"geometry":{"type":"LineString","coordinates":[[18.3589,54.68371],[18.35821,54.68349],[18.35748,54.68306],[18.34943,54.67632],[18.34744,54.67552],[18.34584,54.6744],[18.34491,54.67391]]}},{"type":"Feature","properties":{"numer":"1442G","klasa":"","kat":"powiatowa"},"geometry":{"type":"LineString","coordinates":[[18.36952,54.68573],[18.36551,54.68504],[18.3589,54.68371]]}},{"type":"Feature","properties":{"numer":"216","klasa":"droga gĹ‚Ăłwna","kat":"wojewodzka"},"geometry":{"type":"LineString","coordinates":[[18.36952,54.68573],[18.36871,54.68718],[18.36871,54.68791]]}},{"type":"Feature","properties":{"numer":"1514G","klasa":"droga zbiorcza","kat":"powiatowa"},"geometry":{"type":"LineString","coordinates":[[18.40985,54.66371],[18.40899,54.66254],[18.4089,54.66189],[18.40951,54.6603],[18.4098,54.66001],[18.41018,54.65989]]}},{"type":"Feature","properties":{"numer":"1514G","klasa":"droga zbiorcza","kat":"powiatowa"},"geometry":{"type":"LineString","coordinates":[[18.40989,54.66376],[18.40985,54.66371]]}},{"type":"Feature","properties":{"numer":"1514G","klasa":"droga zbiorcza","kat":"powiatowa"},"geometry":{"type":"LineString","coordinates":[[18.41132,54.67495],[18.41023,54.6708],[18.41042,54.66938],[18.41028,54.66877],[18.40999,54.66819],[18.40993,54.66738],[18.41011,54.66638],[18.40999,54.66575],[18.41034,54.66461],[18.41029,54.66431],[18.40989,54.66376]]}},{"type":"Feature","properties":{"numer":"1513G","klasa":"","kat":"powiatowa"},"geometry":{"type":"LineString","coordinates":[[18.41132,54.67495],[18.41846,54.67558],[18.4204,54.67592]]}},{"type":"Feature","properties":{"numer":"1513G","klasa":"","kat":"powiatowa"},"geometry":{"type":"LineString","coordinates":[[18.4204,54.67592],[18.42094,54.67598]]}},{"type":"Feature","properties":{"numer":"1511G","klasa":"droga zbiorcza","kat":"powiatowa"},"geometry":{"type":"LineString","coordinates":[[18.42058,54.6762],[18.4204,54.67592]]}},{"type":"Feature","properties":{"numer":"1511G","klasa":"droga zbiorcza","kat":"powiatowa"},"geometry":{"type":"LineString","coordinates":[[18.42094,54.67598],[18.42058,54.6762]]}},{"type":"Feature","properties":{"numer":"1513G","klasa":"","kat":"powiatowa"},"geometry":{"type":"LineString","coordinates":[[18.42094,54.67598],[18.42372,54.67624],[18.42451,54.67613],[18.43485,54.6719],[18.43608,54.67156],[18.45141,54.66928],[18.45656,54.6688],[18.45674,54.66892],[18.45717,54.67003],[18.46017,54.68009],[18.46309,54.68587]]}},{"type":"Feature","properties":{"numer":"1511G","klasa":"droga zbiorcza","kat":"powiatowa"},"geometry":{"type":"LineString","coordinates":[[18.41482,54.69024],[18.4148,54.68322],[18.41575,54.68022],[18.41642,54.67941],[18.417,54.67902],[18.4181,54.67849],[18.41967,54.67729],[18.42012,54.67689],[18.42058,54.6762]]}},{"type":"Feature","properties":{"numer":"1513G","klasa":"","kat":"powiatowa"},"geometry":{"type":"LineString","coordinates":[[18.41672,54.69074],[18.41731,54.6907],[18.42488,54.68943],[18.42733,54.68863],[18.43,54.68819],[18.46234,54.68601]]}},{"type":"Feature","properties":{"numer":"213","klasa":"droga zbiorcza","kat":"wojewodzka"},"geometry":{"type":"LineString","coordinates":[[18.36821,54.68808],[18.36871,54.68791]]}},{"type":"Feature","properties":{"numer":"216","klasa":"droga gĹ‚Ăłwna","kat":"wojewodzka"},"geometry":{"type":"LineString","coordinates":[[18.36871,54.68791],[18.36903,54.68852],[18.36954,54.68899],[18.37817,54.69595],[18.39222,54.70748],[18.39331,54.70852]]}},{"type":"Feature","properties":{"numer":"213","klasa":"droga zbiorcza","kat":"wojewodzka"},"geometry":{"type":"LineString","coordinates":[[18.35491,54.7088],[18.35642,54.70813],[18.35663,54.70789],[18.3564,54.70468],[18.3567,54.70271],[18.36198,54.69871],[18.36787,54.68843],[18.36821,54.68808]]}},{"type":"Feature","properties":{"numer":"1440G","klasa":"droga zbiorcza","kat":"powiatowa"},"geometry":{"type":"LineString","coordinates":[[18.31396,54.70206],[18.31528,54.70148],[18.31618,54.70142],[18.32241,54.70277],[18.32343,54.7031]]}},{"type":"Feature","properties":{"numer":"1510G","klasa":"","kat":"powiatowa"},"geometry":{"type":"LineString","coordinates":[[18.3206,54.70668],[18.32153,54.70597],[18.32205,54.7054],[18.32254,54.70459],[18.32299,54.70348],[18.32343,54.7031]]}},{"type":"Feature","properties":{"numer":"1440G","klasa":"droga zbiorcza","kat":"powiatowa"},"geometry":{"type":"LineString","coordinates":[[18.32343,54.7031],[18.32555,54.70381],[18.33122,54.70457],[18.33336,54.70471],[18.34112,54.70604],[18.34825,54.70766],[18.35419,54.70912]]}},{"type":"Feature","properties":{"numer":"216","klasa":"droga gĹ‚Ăłwna","kat":"wojewodzka"},"geometry":{"type":"LineString","coordinates":[[18.39331,54.70852],[18.39361,54.70894]]}},{"type":"Feature","properties":{"numer":"213","klasa":"droga zbiorcza","kat":"wojewodzka"},"geometry":{"type":"LineString","coordinates":[[18.35419,54.70912],[18.35491,54.7088]]}},{"type":"Feature","properties":{"numer":"216","klasa":"droga gĹ‚Ăłwna","kat":"wojewodzka"},"geometry":{"type":"LineString","coordinates":[[18.39391,54.70966],[18.39402,54.71052],[18.39394,54.71104],[18.39267,54.71548]]}},{"type":"Feature","properties":{"numer":"213","klasa":"droga zbiorcza","kat":"wojewodzka"},"geometry":{"type":"LineString","coordinates":[[18.33231,54.71624],[18.3328,54.71602],[18.33454,54.7155],[18.33591,54.71459],[18.33793,54.71387],[18.3429,54.7113],[18.35009,54.7104],[18.35249,54.70974],[18.35419,54.70912]]}},{"type":"Feature","properties":{"numer":"1513G","klasa":"","kat":"powiatowa"},"geometry":{"type":"LineString","coordinates":[[18.41482,54.69024],[18.41672,54.69074]]}},{"type":"Feature","properties":{"numer":"1512G","klasa":"","kat":"powiatowa"},"geometry":{"type":"LineString","coordinates":[[18.42692,54.69667],[18.42294,54.69516],[18.42173,54.69457],[18.41835,54.69189],[18.41672,54.69074]]}},{"type":"Feature","properties":{"numer":"1511G","klasa":"droga zbiorcza","kat":"powiatowa"},"geometry":{"type":"LineString","coordinates":[[18.41482,54.69024],[18.4149,54.69164],[18.41478,54.69231],[18.41223,54.69623],[18.41119,54.69842],[18.41165,54.70924],[18.41151,54.71052],[18.41106,54.71147],[18.41107,54.71248],[18.41111,54.71335],[18.41175,54.71706]]}},{"type":"Feature","properties":{"numer":"1512G","klasa":"","kat":"powiatowa"},"geometry":{"type":"LineString","coordinates":[[18.41175,54.71706],[18.41446,54.71686],[18.41622,54.71648],[18.41614,54.71619],[18.41689,54.71597],[18.42142,54.71148],[18.42497,54.70834],[18.42744,54.70568],[18.42933,54.70431],[18.432,54.70198],[18.43292,54.70105],[18.43322,54.70034],[18.43321,54.69979],[18.43229,54.69802],[18.43151,54.69803],[18.43076,54.69818],[18.42896,54.69827],[18.4287,54.6981],[18.4279,54.69718],[18.42692,54.69667]]}},{"type":"Feature","properties":{"numer":"216","klasa":"droga gĹ‚Ăłwna","kat":"wojewodzka"},"geometry":{"type":"LineString","coordinates":[[18.39361,54.70894],[18.3937,54.70909]]}},{"type":"Feature","properties":{"numer":"1537G","klasa":"droga zbiorcza","kat":"powiatowa"},"geometry":{"type":"LineString","coordinates":[[18.39398,54.70908],[18.3937,54.70909]]}},{"type":"Feature","properties":{"numer":"1537G","klasa":"droga zbiorcza","kat":"powiatowa"},"geometry":{"type":"LineString","coordinates":[[18.39485,54.70922],[18.39443,54.70909],[18.39398,54.70908]]}},{"type":"Feature","properties":{"numer":"216","klasa":"droga gĹ‚Ăłwna","kat":"wojewodzka"},"geometry":{"type":"LineString","coordinates":[[18.3937,54.70909],[18.39377,54.70924]]}},{"type":"Feature","properties":{"numer":"216","klasa":"droga gĹ‚Ăłwna","kat":"wojewodzka"},"geometry":{"type":"LineString","coordinates":[[18.39377,54.70924],[18.39391,54.70966]]}},{"type":"Feature","properties":{"numer":"1537G,109087G","klasa":"droga zbiorcza","kat":"powiatowa"},"geometry":{"type":"LineString","coordinates":[[18.408,54.71747],[18.39485,54.70922]]}},{"type":"Feature","properties":{"numer":"1511G","klasa":"droga zbiorcza","kat":"powiatowa"},"geometry":{"type":"LineString","coordinates":[[18.41175,54.71706],[18.41149,54.71769]]}},{"type":"Feature","properties":{"numer":"1537G","klasa":"droga zbiorcza","kat":"powiatowa"},"geometry":{"type":"LineString","coordinates":[[18.4084,54.71778],[18.408,54.71747]]}},{"type":"Feature","properties":{"numer":"1537G","klasa":"droga zbiorcza","kat":"powiatowa"},"geometry":{"type":"LineString","coordinates":[[18.40845,54.71785],[18.4084,54.71778]]}},{"type":"Feature","properties":{"numer":"1511G","klasa":"droga zbiorcza","kat":"powiatowa"},"geometry":{"type":"LineString","coordinates":[[18.41149,54.71769],[18.41128,54.71801]]}},{"type":"Feature","properties":{"numer":"109054G","klasa":"droga lokalna","kat":"powiatowa"},"geometry":{"type":"LineString","coordinates":[[18.40857,54.7179],[18.40845,54.71785]]}},{"type":"Feature","properties":{"numer":"109054G","klasa":"","kat":"powiatowa"},"geometry":{"type":"LineString","coordinates":[[18.41003,54.71804],[18.40913,54.71803],[18.40857,54.7179]]}},{"type":"Feature","properties":{"numer":"109054G","klasa":"droga lokalna","kat":"powiatowa"},"geometry":{"type":"LineString","coordinates":[[18.41031,54.71804],[18.41003,54.71804]]}},{"type":"Feature","properties":{"numer":"1511G","klasa":"droga zbiorcza","kat":"powiatowa"},"geometry":{"type":"LineString","coordinates":[[18.41128,54.71801],[18.41123,54.71808]]}},{"type":"Feature","properties":{"numer":"109054G","klasa":"","kat":"powiatowa"},"geometry":{"type":"LineString","coordinates":[[18.41107,54.71807],[18.41031,54.71804]]}},{"type":"Feature","properties":{"numer":"109054G","klasa":"droga lokalna","kat":"powiatowa"},"geometry":{"type":"LineString","coordinates":[[18.41123,54.71808],[18.41107,54.71807]]}},{"type":"Feature","properties":{"numer":"109003G","klasa":"droga lokalna","kat":"powiatowa"},"geometry":{"type":"LineString","coordinates":[[18.41123,54.71808],[18.41119,54.71817]]}},{"type":"Feature","properties":{"numer":"109003G","klasa":"","kat":"powiatowa"},"geometry":{"type":"LineString","coordinates":[[18.41119,54.71817],[18.41115,54.71857]]}},{"type":"Feature","properties":{"numer":"1440G","klasa":"droga zbiorcza","kat":"powiatowa"},"geometry":{"type":"LineString","coordinates":[[18.39522,54.71865],[18.39233,54.71828]]}},{"type":"Feature","properties":{"numer":"109003G","klasa":"droga lokalna","kat":"powiatowa"},"geometry":{"type":"LineString","coordinates":[[18.41115,54.71857],[18.41115,54.71866]]}},{"type":"Feature","properties":{"numer":"109003G","klasa":"droga lokalna","kat":"powiatowa"},"geometry":{"type":"LineString","coordinates":[[18.41115,54.71866],[18.41115,54.71911]]}},{"type":"Feature","properties":{"numer":"1440G","klasa":"droga zbiorcza","kat":"powiatowa"},"geometry":{"type":"LineString","coordinates":[[18.40845,54.71785],[18.4083,54.71797],[18.40758,54.72007],[18.4074,54.72024]]}},{"type":"Feature","properties":{"numer":"109017G","klasa":"droga lokalna","kat":"powiatowa"},"geometry":{"type":"LineString","coordinates":[[18.41115,54.71911],[18.41104,54.71913]]}},{"type":"Feature","properties":{"numer":"109078G","klasa":"droga lokalna","kat":"powiatowa"},"geometry":{"type":"LineString","coordinates":[[18.40987,54.71913],[18.40942,54.71913]]}},{"type":"Feature","properties":{"numer":"109078G","klasa":"droga lokalna","kat":"powiatowa"},"geometry":{"type":"LineString","coordinates":[[18.41104,54.71913],[18.40987,54.71913]]}},{"type":"Feature","properties":{"numer":"1440G","klasa":"droga zbiorcza","kat":"powiatowa"},"geometry":{"type":"LineString","coordinates":[[18.4074,54.72024],[18.40695,54.72029],[18.39522,54.71865]]}},{"type":"Feature","properties":{"numer":"1440G","klasa":"droga zbiorcza","kat":"powiatowa"},"geometry":{"type":"LineString","coordinates":[[18.35491,54.7088],[18.35901,54.70931],[18.35954,54.70944],[18.35994,54.70969],[18.3605,54.71036],[18.36108,54.71071],[18.36708,54.71349],[18.37126,54.71563],[18.37223,54.71598],[18.37448,54.71637],[18.38619,54.71743],[18.39191,54.71822]]}},{"type":"Feature","properties":{"numer":"213","klasa":"droga zbiorcza","kat":"wojewodzka"},"geometry":{"type":"LineString","coordinates":[[18.33226,54.71627],[18.33231,54.71624]]}},{"type":"Feature","properties":{"numer":"216","klasa":"droga gĹ‚Ăłwna","kat":"wojewodzka"},"geometry":{"type":"LineString","coordinates":[[18.39267,54.71548],[18.39191,54.71822]]}},{"type":"Feature","properties":{"numer":"213","klasa":"droga zbiorcza","kat":"wojewodzka"},"geometry":{"type":"LineString","coordinates":[[18.32738,54.71937],[18.33074,54.7178],[18.33226,54.71627]]}},{"type":"Feature","properties":{"numer":"1440G","klasa":"droga zbiorcza","kat":"powiatowa"},"geometry":{"type":"LineString","coordinates":[[18.39233,54.71828],[18.39191,54.71822]]}},{"type":"Feature","properties":{"numer":"216","klasa":"droga gĹ‚Ăłwna","kat":"wojewodzka"},"geometry":{"type":"LineString","coordinates":[[18.39191,54.71822],[18.3918,54.71884],[18.39217,54.72005]]}},{"type":"Feature","properties":{"numer":"213","klasa":"droga zbiorcza","kat":"wojewodzka"},"geometry":{"type":"LineString","coordinates":[[18.32725,54.71943],[18.32738,54.71937]]}},{"type":"Feature","properties":{"numer":"216","klasa":"droga gĹ‚Ăłwna","kat":"wojewodzka"},"geometry":{"type":"LineString","coordinates":[[18.39217,54.72005],[18.393,54.72203],[18.39297,54.7276]]}},{"type":"Feature","properties":{"numer":"216","klasa":"droga gĹ‚Ăłwna","kat":"wojewodzka"},"geometry":{"type":"LineString","coordinates":[[18.39297,54.7276],[18.393,54.72791]]}},{"type":"Feature","properties":{"numer":"216","klasa":"droga gĹ‚Ăłwna","kat":"wojewodzka"},"geometry":{"type":"LineString","coordinates":[[18.393,54.72791],[18.39344,54.73177],[18.394,54.73402],[18.39374,54.73511],[18.39237,54.73739]]}},{"type":"Feature","properties":{"numer":"1506G","klasa":"droga zbiorcza","kat":"powiatowa"},"geometry":{"type":"LineString","coordinates":[[18.39237,54.73739],[18.39102,54.738],[18.38382,54.74],[18.38134,54.74092],[18.38082,54.74118],[18.38039,54.74171],[18.38034,54.74282],[18.37946,54.74393],[18.37908,54.74602]]}},{"type":"Feature","properties":{"numer":"216","klasa":"droga gĹ‚Ăłwna","kat":"wojewodzka"},"geometry":{"type":"LineString","coordinates":[[18.39237,54.73739],[18.39155,54.73862],[18.3897,54.74058],[18.38882,54.74179],[18.38539,54.75123],[18.38534,54.75181]]}},{"type":"Feature","properties":{"numer":"1506G","klasa":"droga zbiorcza","kat":"powiatowa"},"geometry":{"type":"LineString","coordinates":[[18.37908,54.74602],[18.37905,54.74618]]}},{"type":"Feature","properties":{"numer":"1506G","klasa":"droga zbiorcza","kat":"powiatowa"},"geometry":{"type":"LineString","coordinates":[[18.37832,54.74621],[18.37908,54.74602]]}},{"type":"Feature","properties":{"numer":"1506G","klasa":"droga zbiorcza","kat":"powiatowa"},"geometry":{"type":"LineString","coordinates":[[18.37905,54.74618],[18.37832,54.74621]]}},{"type":"Feature","properties":{"numer":"1507G","klasa":"","kat":"powiatowa"},"geometry":{"type":"LineString","coordinates":[[18.37905,54.74618],[18.37883,54.74769],[18.37888,54.74797],[18.38082,54.75046],[18.38144,54.75101],[18.38377,54.75228],[18.38434,54.75243]]}},{"type":"Feature","properties":{"numer":"216","klasa":"droga gĹ‚Ăłwna","kat":"wojewodzka"},"geometry":{"type":"LineString","coordinates":[[18.38534,54.75181],[18.38546,54.7522]]}},{"type":"Feature","properties":{"numer":"216","klasa":"droga gĹ‚Ăłwna","kat":"wojewodzka"},"geometry":{"type":"LineString","coordinates":[[18.38546,54.7522],[18.38551,54.75235]]}},{"type":"Feature","properties":{"numer":"1507G","klasa":"","kat":"powiatowa"},"geometry":{"type":"LineString","coordinates":[[18.38527,54.75238],[18.38551,54.75235]]}},{"type":"Feature","properties":{"numer":"1507G","klasa":"","kat":"powiatowa"},"geometry":{"type":"LineString","coordinates":[[18.38456,54.75245],[18.38527,54.75238]]}},{"type":"Feature","properties":{"numer":"213","klasa":"droga zbiorcza","kat":"wojewodzka"},"geometry":{"type":"LineString","coordinates":[[18.26871,54.75574],[18.27496,54.75319],[18.27871,54.75186],[18.28933,54.74978],[18.29234,54.74934],[18.29734,54.74771],[18.29857,54.74719],[18.29906,54.74682],[18.29941,54.74639],[18.30426,54.7383],[18.30445,54.73658],[18.30396,54.73489],[18.30444,54.73325],[18.30423,54.7304],[18.30436,54.7299],[18.30798,54.72577],[18.30902,54.72509],[18.31528,54.72245],[18.31602,54.72226],[18.32023,54.72153],[18.32309,54.72125],[18.32725,54.71943]]}},{"type":"Feature","properties":{"numer":"1508G","klasa":"","kat":"powiatowa"},"geometry":{"type":"LineString","coordinates":[[18.26219,54.7555],[18.26266,54.75537]]}},{"type":"Feature","properties":{"numer":"1508G","klasa":"","kat":"powiatowa"},"geometry":{"type":"LineString","coordinates":[[18.26266,54.75537],[18.2628,54.75584]]}},{"type":"Feature","properties":{"numer":"213","klasa":"droga zbiorcza","kat":"wojewodzka"},"geometry":{"type":"LineString","coordinates":[[18.26219,54.7555],[18.2628,54.75584]]}},{"type":"Feature","properties":{"numer":"213","klasa":"droga zbiorcza","kat":"wojewodzka"},"geometry":{"type":"LineString","coordinates":[[18.26775,54.75595],[18.26871,54.75574]]}},{"type":"Feature","properties":{"numer":"1509G","klasa":"","kat":"powiatowa"},"geometry":{"type":"LineString","coordinates":[[18.26886,54.75599],[18.26871,54.75574]]}},{"type":"Feature","properties":{"numer":"213","klasa":"droga zbiorcza","kat":"wojewodzka"},"geometry":{"type":"LineString","coordinates":[[18.2628,54.75584],[18.26311,54.7559],[18.26775,54.75595]]}},{"type":"Feature","properties":{"numer":"1509G","klasa":"","kat":"powiatowa"},"geometry":{"type":"LineString","coordinates":[[18.26886,54.75599],[18.26775,54.75595]]}},{"type":"Feature","properties":{"numer":"1509G","klasa":"","kat":"powiatowa"},"geometry":{"type":"LineString","coordinates":[[18.3355,54.7679],[18.33401,54.76723],[18.33247,54.76762],[18.33166,54.76807],[18.33078,54.76842],[18.32996,54.76909],[18.32719,54.77074],[18.32677,54.7709],[18.32546,54.77078],[18.32449,54.77056],[18.32379,54.77017],[18.32297,54.7694],[18.32251,54.76927],[18.322,54.7693],[18.32162,54.76952],[18.31991,54.77122],[18.31879,54.77257],[18.31846,54.77274],[18.31812,54.77275],[18.31777,54.77261],[18.31662,54.77161],[18.30794,54.76616],[18.30763,54.76569],[18.30598,54.76491],[18.29688,54.76209],[18.29507,54.7612],[18.29319,54.76075],[18.27735,54.75653],[18.27554,54.75626],[18.26886,54.75599]]}},{"type":"Feature","properties":{"numer":"1508G","klasa":"","kat":"powiatowa"},"geometry":{"type":"LineString","coordinates":[[18.2628,54.75584],[18.263,54.75657],[18.26302,54.75857],[18.26315,54.7589],[18.26348,54.75904],[18.26421,54.75914],[18.26516,54.75948],[18.26613,54.76002],[18.27206,54.76358],[18.27353,54.7647],[18.27385,54.76514],[18.27238,54.77257],[18.2721,54.77267],[18.27072,54.77252],[18.27043,54.77259],[18.26719,54.77989]]}},{"type":"Feature","properties":{"numer":"109050G","klasa":"droga lokalna","kat":"powiatowa"},"geometry":{"type":"LineString","coordinates":[[18.40942,54.71913],[18.40932,54.71988]]}},{"type":"Feature","properties":{"numer":"109050G","klasa":"droga lokalna","kat":"powiatowa"},"geometry":{"type":"LineString","coordinates":[[18.40932,54.71988],[18.40924,54.72051]]}},{"type":"Feature","properties":{"numer":"109036G","klasa":"droga lokalna","kat":"powiatowa"},"geometry":{"type":"LineString","coordinates":[[18.4074,54.72024],[18.40772,54.72041],[18.40924,54.72051]]}},{"type":"Feature","properties":{"numer":"216","klasa":"droga gĹ‚Ăłwna","kat":"wojewodzka"},"geometry":{"type":"LineString","coordinates":[[18.40693,54.78332],[18.40691,54.78209],[18.40634,54.77801],[18.40327,54.77355],[18.40178,54.77093],[18.39791,54.76242],[18.39639,54.75844],[18.39612,54.75811],[18.39546,54.75767],[18.39231,54.75637],[18.38656,54.75367],[18.38604,54.75336],[18.38571,54.75292]]}},{"type":"Feature","properties":{"numer":"216","klasa":"droga gĹ‚Ăłwna","kat":"wojewodzka"},"geometry":{"type":"LineString","coordinates":[[18.40754,54.7879],[18.40719,54.78619],[18.40693,54.78332]]}},{"type":"Feature","properties":{"numer":"1530G,111101G","klasa":"droga zbiorcza","kat":"powiatowa"},"geometry":{"type":"LineString","coordinates":[[18.40693,54.78332],[18.39102,54.78667],[18.39063,54.7869],[18.38899,54.78895],[18.3864,54.79029],[18.38593,54.79047],[18.38512,54.79057]]}},{"type":"Feature","properties":{"numer":"111050G","klasa":"droga dojazdowa","kat":"powiatowa"},"geometry":{"type":"LineString","coordinates":[[18.40339,54.78764],[18.40275,54.7876],[18.40271,54.78765]]}},{"type":"Feature","properties":{"numer":"111049G","klasa":"droga dojazdowa","kat":"powiatowa"},"geometry":{"type":"LineString","coordinates":[[18.40411,54.78767],[18.40339,54.78764]]}},{"type":"Feature","properties":{"numer":"111049G","klasa":"droga dojazdowa","kat":"powiatowa"},"geometry":{"type":"LineString","coordinates":[[18.40553,54.78777],[18.40411,54.78767]]}},{"type":"Feature","properties":{"numer":"111049G","klasa":"droga dojazdowa","kat":"powiatowa"},"geometry":{"type":"LineString","coordinates":[[18.40559,54.78778],[18.40553,54.78777]]}},{"type":"Feature","properties":{"numer":"216","klasa":"droga gĹ‚Ăłwna","kat":"wojewodzka"},"geometry":{"type":"LineString","coordinates":[[18.38551,54.75235],[18.38556,54.7525]]}},{"type":"Feature","properties":{"numer":"1507G","klasa":"","kat":"powiatowa"},"geometry":{"type":"LineString","coordinates":[[18.38434,54.75243],[18.38456,54.75245]]}},{"type":"Feature","properties":{"numer":"216","klasa":"droga gĹ‚Ăłwna","kat":"wojewodzka"},"geometry":{"type":"LineString","coordinates":[[18.38556,54.7525],[18.38571,54.75292]]}},{"type":"Feature","properties":{"numer":"1507G","klasa":"","kat":"powiatowa"},"geometry":{"type":"LineString","coordinates":[[18.38434,54.75243],[18.38433,54.75258],[18.38548,54.75319]]}},{"type":"Feature","properties":{"numer":"1506G","klasa":"droga zbiorcza","kat":"powiatowa"},"geometry":{"type":"LineString","coordinates":[[18.3355,54.7679],[18.34042,54.76457],[18.36347,54.75192],[18.37132,54.74875],[18.37567,54.74647],[18.37607,54.74636],[18.37832,54.74621]]}},{"type":"Feature","properties":{"numer":"1509G","klasa":"","kat":"powiatowa"},"geometry":{"type":"LineString","coordinates":[[18.38333,54.79099],[18.38252,54.79073],[18.37733,54.78814],[18.36767,54.78306],[18.35872,54.7772],[18.35379,54.77486],[18.35057,54.77405],[18.34983,54.7738],[18.34074,54.77032],[18.3355,54.7679]]}},{"type":"Feature","properties":{"numer":"1506G","klasa":"droga zbiorcza","kat":"powiatowa"},"geometry":{"type":"LineString","coordinates":[[18.31324,54.79995],[18.31295,54.79871],[18.31241,54.79727],[18.31248,54.79684],[18.31758,54.79091],[18.32176,54.78735],[18.32426,54.78578],[18.32457,54.7855],[18.32468,54.78519],[18.32459,54.78349],[18.3248,54.78295],[18.3258,54.7818],[18.32781,54.77833],[18.32986,54.77512],[18.33296,54.77099],[18.3355,54.7679]]}},{"type":"Feature","properties":{"numer":"1530G","klasa":"droga zbiorcza","kat":"powiatowa"},"geometry":{"type":"LineString","coordinates":[[18.38512,54.79057],[18.38458,54.79069],[18.38433,54.79086]]}},{"type":"Feature","properties":{"numer":"1530G","klasa":"droga zbiorcza","kat":"powiatowa"},"geometry":{"type":"LineString","coordinates":[[18.38433,54.79086],[18.38426,54.791]]}},{"type":"Feature","properties":{"numer":"1509G","klasa":"","kat":"powiatowa"},"geometry":{"type":"LineString","coordinates":[[18.39749,54.79083],[18.38677,54.79103]]}},{"type":"Feature","properties":{"numer":"111049G","klasa":"droga dojazdowa","kat":"powiatowa"},"geometry":{"type":"LineString","coordinates":[[18.40754,54.7879],[18.40559,54.78778]]}},{"type":"Feature","properties":{"numer":"111051G","klasa":"droga dojazdowa","kat":"powiatowa"},"geometry":{"type":"LineString","coordinates":[[18.40271,54.78765],[18.40247,54.78789],[18.40251,54.7883]]}},{"type":"Feature","properties":{"numer":"111051G","klasa":"droga dojazdowa","kat":"powiatowa"},"geometry":{"type":"LineString","coordinates":[[18.40251,54.7883],[18.4025,54.78853]]}},{"type":"Feature","properties":{"numer":"111051G","klasa":"droga dojazdowa","kat":"powiatowa"},"geometry":{"type":"LineString","coordinates":[[18.40149,54.78889],[18.40246,54.78889],[18.4025,54.78853]]}},{"type":"Feature","properties":{"numer":"216","klasa":"droga gĹ‚Ăłwna","kat":"wojewodzka"},"geometry":{"type":"LineString","coordinates":[[18.40821,54.78959],[18.40786,54.78905],[18.40754,54.7879]]}},{"type":"Feature","properties":{"numer":"216","klasa":"droga gĹ‚Ăłwna","kat":"wojewodzka"},"geometry":{"type":"LineString","coordinates":[[18.40862,54.79],[18.40821,54.78959]]}},{"type":"Feature","properties":{"numer":"111052G","klasa":"droga dojazdowa","kat":"powiatowa"},"geometry":{"type":"LineString","coordinates":[[18.40055,54.7908],[18.40128,54.79072],[18.40155,54.79048],[18.40149,54.78889]]}},{"type":"Feature","properties":{"numer":"216","klasa":"droga gĹ‚Ăłwna","kat":"wojewodzka"},"geometry":{"type":"LineString","coordinates":[[18.40873,54.79013],[18.40862,54.79]]}},{"type":"Feature","properties":{"numer":"216","klasa":"droga gĹ‚Ăłwna","kat":"wojewodzka"},"geometry":{"type":"LineString","coordinates":[[18.40896,54.79015],[18.40978,54.79011]]}},{"type":"Feature","properties":{"numer":"216","klasa":"droga gĹ‚Ăłwna","kat":"wojewodzka"},"geometry":{"type":"LineString","coordinates":[[18.40873,54.79013],[18.40896,54.79015]]}},{"type":"Feature","properties":{"numer":"1509G","klasa":"","kat":"powiatowa"},"geometry":{"type":"LineString","coordinates":[[18.38333,54.79099],[18.38401,54.79102]]}},{"type":"Feature","properties":{"numer":"1509G","klasa":"","kat":"powiatowa"},"geometry":{"type":"LineString","coordinates":[[18.38401,54.79102],[18.38426,54.791]]}},{"type":"Feature","properties":{"numer":"1509G","klasa":"","kat":"powiatowa"},"geometry":{"type":"LineString","coordinates":[[18.38451,54.79102],[18.38426,54.791]]}},{"type":"Feature","properties":{"numer":"1509G","klasa":"","kat":"powiatowa"},"geometry":{"type":"LineString","coordinates":[[18.38534,54.79106],[18.38451,54.79102]]}},{"type":"Feature","properties":{"numer":"1509G","klasa":"","kat":"powiatowa"},"geometry":{"type":"LineString","coordinates":[[18.38677,54.79103],[18.38534,54.79106]]}},{"type":"Feature","properties":{"numer":"1530G","klasa":"droga zbiorcza","kat":"powiatowa"},"geometry":{"type":"LineString","coordinates":[[18.38426,54.791],[18.38429,54.79114]]}},{"type":"Feature","properties":{"numer":"1530G","klasa":"droga zbiorcza","kat":"powiatowa"},"geometry":{"type":"LineString","coordinates":[[18.38429,54.79114],[18.38394,54.79156]]}},{"type":"Feature","properties":{"numer":"1530G,111101G","klasa":"droga zbiorcza","kat":"powiatowa"},"geometry":{"type":"LineString","coordinates":[[18.38394,54.79156],[18.38311,54.79208],[18.37966,54.79492]]}},{"type":"Feature","properties":{"numer":"1530G,111101G","klasa":"droga zbiorcza","kat":"powiatowa"},"geometry":{"type":"LineString","coordinates":[[18.37966,54.79492],[18.37817,54.79601],[18.37582,54.79888],[18.37576,54.79921],[18.37617,54.79993],[18.37631,54.80105]]}},{"type":"Feature","properties":{"numer":"1530G,111101G","klasa":"droga zbiorcza","kat":"powiatowa"},"geometry":{"type":"LineString","coordinates":[[18.37631,54.80105],[18.37615,54.80136],[18.3757,54.80177],[18.37517,54.80209],[18.37439,54.80238],[18.37342,54.80339]]}},{"type":"Feature","properties":{"numer":"215","klasa":"droga zbiorcza","kat":"wojewodzka"},"geometry":{"type":"LineString","coordinates":[[18.40856,54.79022],[18.40873,54.79013]]}},{"type":"Feature","properties":{"numer":"215","klasa":"droga zbiorcza","kat":"wojewodzka"},"geometry":{"type":"LineString","coordinates":[[18.40799,54.79033],[18.40856,54.79022]]}},{"type":"Feature","properties":{"numer":"215","klasa":"droga zbiorcza","kat":"wojewodzka"},"geometry":{"type":"LineString","coordinates":[[18.40103,54.79111],[18.40129,54.79094],[18.40176,54.7908],[18.40799,54.79033]]}},{"type":"Feature","properties":{"numer":"1509G","klasa":"","kat":"powiatowa"},"geometry":{"type":"LineString","coordinates":[[18.40055,54.7908],[18.40035,54.79079]]}},{"type":"Feature","properties":{"numer":"1509G","klasa":"","kat":"powiatowa"},"geometry":{"type":"LineString","coordinates":[[18.40035,54.79079],[18.39749,54.79083]]}},{"type":"Feature","properties":{"numer":"1509G","klasa":"","kat":"powiatowa"},"geometry":{"type":"LineString","coordinates":[[18.40103,54.79111],[18.40035,54.79079]]}},{"type":"Feature","properties":{"numer":"215","klasa":"droga zbiorcza","kat":"wojewodzka"},"geometry":{"type":"LineString","coordinates":[[18.3872,54.80444],[18.38947,54.80377],[18.39026,54.80329],[18.40018,54.79148],[18.40103,54.79111]]}},{"type":"Feature","properties":{"numer":"1508G","klasa":"","kat":"powiatowa"},"geometry":{"type":"LineString","coordinates":[[18.26719,54.77989],[18.26949,54.78169],[18.27016,54.78211],[18.27067,54.78221],[18.2732,54.7821],[18.27342,54.78218],[18.27659,54.78793],[18.27788,54.78988],[18.28393,54.79222],[18.28861,54.79376],[18.29474,54.79564]]}},{"type":"Feature","properties":{"numer":"1508G","klasa":"","kat":"powiatowa"},"geometry":{"type":"LineString","coordinates":[[18.29474,54.79564],[18.29694,54.79632],[18.29823,54.79661],[18.29949,54.79762],[18.30002,54.79789],[18.30186,54.79854],[18.30321,54.79954],[18.30375,54.79976],[18.30529,54.79998],[18.30687,54.79999],[18.30843,54.79967],[18.30966,54.79958],[18.31233,54.79976],[18.31324,54.79995]]}},{"type":"Feature","properties":{"numer":"1506G","klasa":"droga zbiorcza","kat":"powiatowa"},"geometry":{"type":"LineString","coordinates":[[18.3,54.83028],[18.30044,54.82926],[18.30078,54.82895],[18.30132,54.82865],[18.3031,54.82813],[18.30554,54.82752],[18.30628,54.82738],[18.30811,54.82721],[18.3091,54.82697],[18.31003,54.82655],[18.31106,54.82596],[18.3126,54.82489],[18.3129,54.82448],[18.31385,54.8219],[18.31443,54.82082],[18.31448,54.82039],[18.31334,54.81842],[18.30983,54.81368],[18.30957,54.81269],[18.31338,54.80118],[18.31342,54.80081],[18.31324,54.79995]]}},{"type":"Feature","properties":{"numer":"1506G","klasa":"droga zbiorcza","kat":"powiatowa"},"geometry":{"type":"LineString","coordinates":[[18.29989,54.83066],[18.3,54.83028]]}},{"type":"Feature","properties":{"numer":"1506G","klasa":"droga zbiorcza","kat":"powiatowa"},"geometry":{"type":"LineString","coordinates":[[18.29922,54.83297],[18.29989,54.83066]]}},{"type":"Feature","properties":{"numer":"215","klasa":"droga zbiorcza","kat":"wojewodzka"},"geometry":{"type":"LineString","coordinates":[[18.23478,54.8312],[18.23879,54.83157],[18.24488,54.83081],[18.24572,54.83082],[18.27951,54.83312],[18.28654,54.83293],[18.28753,54.83264],[18.29082,54.831],[18.29119,54.83091],[18.29162,54.8309],[18.2946,54.83142],[18.29746,54.83251],[18.29869,54.83288],[18.29922,54.83297]]}},{"type":"Feature","properties":{"numer":"215","klasa":"droga zbiorcza","kat":"wojewodzka"},"geometry":{"type":"LineString","coordinates":[[18.29922,54.83297],[18.30608,54.83367],[18.31525,54.83337]]}},{"type":"Feature","properties":{"numer":"1530G","klasa":"droga zbiorcza","kat":"powiatowa"},"geometry":{"type":"LineString","coordinates":[[18.37342,54.80339],[18.37381,54.80368],[18.37483,54.80384],[18.37602,54.80425],[18.37757,54.80466],[18.38076,54.80517],[18.38203,54.80526],[18.38368,54.80519],[18.38411,54.80531]]}},{"type":"Feature","properties":{"numer":"215","klasa":"droga zbiorcza","kat":"wojewodzka"},"geometry":{"type":"LineString","coordinates":[[18.38411,54.80531],[18.3872,54.80444]]}},{"type":"Feature","properties":{"numer":"215","klasa":"droga zbiorcza","kat":"wojewodzka"},"geometry":{"type":"LineString","coordinates":[[18.37073,54.80878],[18.37439,54.80807],[18.38411,54.80531]]}},{"type":"Feature","properties":{"numer":"215","klasa":"droga zbiorcza","kat":"wojewodzka"},"geometry":{"type":"LineString","coordinates":[[18.36291,54.8104],[18.36381,54.8101],[18.37073,54.80878]]}},{"type":"Feature","properties":{"numer":"215","klasa":"droga zbiorcza","kat":"wojewodzka"},"geometry":{"type":"LineString","coordinates":[[18.34713,54.81969],[18.35018,54.8173],[18.36291,54.8104]]}},{"type":"Feature","properties":{"numer":"215","klasa":"droga zbiorcza","kat":"wojewodzka"},"geometry":{"type":"LineString","coordinates":[[18.33724,54.8274],[18.33799,54.827],[18.34713,54.81969]]}},{"type":"Feature","properties":{"numer":"215","klasa":"droga zbiorcza","kat":"wojewodzka"},"geometry":{"type":"LineString","coordinates":[[18.31525,54.83337],[18.31812,54.83326],[18.31915,54.83311],[18.32858,54.83051],[18.33724,54.8274]]}}]}