{"type":"FeatureCollection","features":[{"type":"Feature","properties":{"numer":"3210S","klasa":"","kat":"powiatowa"},"geometry":{"type":"LineString","coordinates":[[19.09234,50.5094],[19.09219,50.50932]]}},{"type":"Feature","properties":{"numer":"3210S","klasa":"droga zbiorcza","kat":"powiatowa"},"geometry":{"type":"LineString","coordinates":[[19.11327,50.53326],[19.1127,50.52859],[19.11256,50.52815],[19.11033,50.52453],[19.10929,50.52319],[19.10192,50.51557],[19.09616,50.51273],[19.09234,50.5094]]}},{"type":"Feature","properties":{"numer":"3210S","klasa":"","kat":"powiatowa"},"geometry":{"type":"LineString","coordinates":[[19.08971,50.50906],[19.089670570417034,50.50880134193576]]}},{"type":"Feature","properties":{"numer":"3210S","klasa":"droga zbiorcza","kat":"powiatowa"},"geometry":{"type":"LineString","coordinates":[[19.11329,50.53333],[19.11327,50.53326]]}},{"type":"Feature","properties":{"numer":"3210S","klasa":"droga zbiorcza","kat":"powiatowa"},"geometry":{"type":"LineString","coordinates":[[19.11786,50.55207],[19.1156,50.5511],[19.11535,50.55093],[19.11522,50.55067],[19.11364,50.53782],[19.11329,50.53333]]}},{"type":"Feature","properties":{"numer":"2312S","klasa":"droga zbiorcza","kat":"powiatowa"},"geometry":{"type":"LineString","coordinates":[[19.11786,50.55207],[19.09024,50.55972],[19.08992,50.55988],[19.08905,50.56063]]}},{"type":"Feature","properties":{"numer":"789","klasa":"droga gĹ‚Ăłwna","kat":"wojewodzka"},"geometry":{"type":"LineString","coordinates":[[19.11059,50.59596],[19.1033,50.59361],[19.09903,50.59087],[19.098712149414375,50.590716201329535]]}},{"type":"Feature","properties":{"numer":"2311S","klasa":"","kat":"powiatowa"},"geometry":{"type":"LineString","coordinates":[[19.11059,50.59596],[19.11065,50.59816],[19.11028,50.60031],[19.10952,50.60197],[19.10807,50.6057],[19.10749,50.60673],[19.10639,50.60828],[19.10579,50.6087],[19.10285,50.60989],[19.09928,50.61228],[19.09672,50.61329],[19.09545,50.61446],[19.09525,50.61455]]}},{"type":"Feature","properties":{"numer":"595020S","klasa":"droga lokalna","kat":"powiatowa"},"geometry":{"type":"LineString","coordinates":[[19.09109,50.61408],[19.09461,50.61437],[19.09525,50.61455]]}},{"type":"Feature","properties":{"numer":"595020S","klasa":"droga lokalna","kat":"powiatowa"},"geometry":{"type":"LineString","coordinates":[[19.09109,50.61408],[19.09104,50.61477],[19.09121,50.61526]]}},{"type":"Feature","properties":{"numer":"595020S","klasa":"droga lokalna","kat":"powiatowa"},"geometry":{"type":"LineString","coordinates":[[19.09121,50.61526],[19.09102,50.61534],[19.09067,50.61533]]}},{"type":"Feature","properties":{"numer":"2311S","klasa":"","kat":"powiatowa"},"geometry":{"type":"LineString","coordinates":[[19.09525,50.61455],[19.09531,50.6147],[19.09509,50.61533],[19.09507,50.61643],[19.09534,50.61673],[19.09613,50.61729]]}},{"type":"Feature","properties":{"numer":"2311S","klasa":"","kat":"powiatowa"},"geometry":{"type":"LineString","coordinates":[[19.09613,50.61729],[19.09569,50.61874]]}},{"type":"Feature","properties":{"numer":"91","klasa":"droga gĹ‚Ăłwna ruchu przyĹ›pieszonego","kat":"krajowa"},"geometry":{"type":"LineString","coordinates":[[19.190381299350882,50.532103865617486],[19.19037,50.53214]]}},{"type":"Feature","properties":{"numer":"595041S","klasa":"droga lokalna","kat":"powiatowa"},"geometry":{"type":"LineString","coordinates":[[19.21839,50.52632],[19.21841,50.52509],[19.217350400892762,50.521958932367795]]}},{"type":"Feature","properties":{"numer":"595041S","klasa":"droga lokalna","kat":"powiatowa"},"geometry":{"type":"LineString","coordinates":[[19.21835,50.52717],[19.21839,50.52632]]}},{"type":"Feature","properties":{"numer":"595041S","klasa":"droga lokalna","kat":"powiatowa"},"geometry":{"type":"LineString","coordinates":[[19.21832,50.52831],[19.21835,50.52717]]}},{"type":"Feature","properties":{"numer":"595041S","klasa":"droga lokalna","kat":"powiatowa"},"geometry":{"type":"LineString","coordinates":[[19.21912,50.53189],[19.21833,50.52922],[19.21832,50.52831]]}},{"type":"Feature","properties":{"numer":"91,E75","klasa":"droga gĹ‚Ăłwna ruchu przyĹ›pieszonego","kat":"gminna"},"geometry":{"type":"LineString","coordinates":[[19.19009,50.53282],[19.19037,50.53214]]}},{"type":"Feature","properties":{"numer":"595041S","klasa":"droga lokalna","kat":"powiatowa"},"geometry":{"type":"LineString","coordinates":[[19.21982,50.53508],[19.21912,50.53189]]}},{"type":"Feature","properties":{"numer":"91,E75","klasa":"droga gĹ‚Ăłwna ruchu przyĹ›pieszonego","kat":"gminna"},"geometry":{"type":"LineString","coordinates":[[19.18802,50.53625],[19.19009,50.53282]]}},{"type":"Feature","properties":{"numer":"3210S","klasa":"droga zbiorcza","kat":"powiatowa"},"geometry":{"type":"LineString","coordinates":[[19.14757,50.58671],[19.14354,50.58479],[19.13705,50.58134],[19.125,50.57004],[19.12187,50.56546],[19.11981,50.56212],[19.1185,50.5603],[19.11808,50.55889],[19.11791,50.55787],[19.11823,50.55672],[19.11838,50.55389],[19.11817,50.55247],[19.118,50.55215],[19.11786,50.55207]]}},{"type":"Feature","properties":{"numer":"3210S","klasa":"droga zbiorcza","kat":"powiatowa"},"geometry":{"type":"LineString","coordinates":[[19.14757,50.58671],[19.14765,50.58675]]}},{"type":"Feature","properties":{"numer":"789","klasa":"droga gĹ‚Ăłwna","kat":"wojewodzka"},"geometry":{"type":"LineString","coordinates":[[19.14955,50.59823],[19.13423,50.59962],[19.11137,50.59614],[19.11059,50.59596]]}},{"type":"Feature","properties":{"numer":"4739S","klasa":"","kat":"powiatowa"},"geometry":{"type":"LineString","coordinates":[[19.16791,50.53143],[19.168111861311466,50.531249387247634]]}},{"type":"Feature","properties":{"numer":"91,E75","klasa":"droga gĹ‚Ăłwna ruchu przyĹ›pieszonego","kat":"gminna"},"geometry":{"type":"LineString","coordinates":[[19.18129,50.5408],[19.18173,50.54027],[19.18263,50.53949],[19.18688,50.53723],[19.18794,50.53634]]}},{"type":"Feature","properties":{"numer":"2312S","klasa":"droga zbiorcza","kat":"powiatowa"},"geometry":{"type":"LineString","coordinates":[[19.18129,50.5408],[19.18039,50.5407],[19.1799,50.54072],[19.14563,50.54431],[19.11786,50.55207]]}},{"type":"Feature","properties":{"numer":"91,E75","klasa":"droga gĹ‚Ăłwna ruchu przyĹ›pieszonego","kat":"gminna"},"geometry":{"type":"LineString","coordinates":[[19.16182,50.58817],[19.16248,50.5871],[19.16371,50.5843],[19.16409,50.58289],[19.16401,50.58197],[19.16294,50.57712],[19.16297,50.57627],[19.16313,50.57577],[19.16637,50.57013],[19.16688,50.56939],[19.17413,50.56282],[19.17466,50.56225],[19.17512,50.5615],[19.18057,50.54716],[19.18069,50.54628],[19.18069,50.54226],[19.18088,50.5415],[19.18129,50.5408]]}},{"type":"Feature","properties":{"numer":"595056S","klasa":"droga lokalna","kat":"powiatowa"},"geometry":{"type":"LineString","coordinates":[[19.16182,50.58817],[19.16186,50.58825]]}},{"type":"Feature","properties":{"numer":"3210S","klasa":"droga zbiorcza","kat":"powiatowa"},"geometry":{"type":"LineString","coordinates":[[19.14765,50.58675],[19.14949,50.58752],[19.15862,50.59068]]}},{"type":"Feature","properties":{"numer":"595087S","klasa":"droga lokalna","kat":"powiatowa"},"geometry":{"type":"LineString","coordinates":[[19.16186,50.58825],[19.16162,50.58894],[19.1613,50.58944]]}},{"type":"Feature","properties":{"numer":"91,E75","klasa":"droga gĹ‚Ăłwna ruchu przyĹ›pieszonego","kat":"gminna"},"geometry":{"type":"LineString","coordinates":[[19.15862,50.59068],[19.15957,50.59016],[19.16047,50.58953],[19.16182,50.58817]]}},{"type":"Feature","properties":{"numer":"595087S","klasa":"droga lokalna","kat":"powiatowa"},"geometry":{"type":"LineString","coordinates":[[19.1613,50.58944],[19.15974,50.59107]]}},{"type":"Feature","properties":{"numer":"3804S","klasa":"droga zbiorcza","kat":"powiatowa"},"geometry":{"type":"LineString","coordinates":[[19.19009,50.53282],[19.19322,50.53347],[19.19378,50.53352],[19.2037,50.533],[19.20421,50.53303],[19.20493,50.53329],[19.2085,50.53592],[19.21478,50.53871],[19.21532,50.53875],[19.22055,50.53822]]}},{"type":"Feature","properties":{"numer":"91,E75","klasa":"droga gĹ‚Ăłwna ruchu przyĹ›pieszonego","kat":"gminna"},"geometry":{"type":"LineString","coordinates":[[19.18794,50.53634],[19.18802,50.53625]]}},{"type":"Feature","properties":{"numer":"595041S","klasa":"droga lokalna","kat":"powiatowa"},"geometry":{"type":"LineString","coordinates":[[19.22055,50.53822],[19.21982,50.53508]]}},{"type":"Feature","properties":{"numer":"3801S","klasa":"droga zbiorcza","kat":"powiatowa"},"geometry":{"type":"LineString","coordinates":[[19.22554,50.57311],[19.21828,50.57452],[19.21359,50.57503],[19.21161,50.57501],[19.21002,50.57529],[19.20929,50.57535],[19.20485,50.57494],[19.20402,50.57499],[19.20348,50.57515],[19.20213,50.57578],[19.19897,50.57747],[19.19685,50.57993],[19.18826,50.58447],[19.18704,50.58534],[19.186,50.58583],[19.18601,50.58599],[19.18486,50.58765],[19.18294,50.59815],[19.1825,50.59937]]}},{"type":"Feature","properties":{"numer":"789","klasa":"droga gĹ‚Ăłwna","kat":"wojewodzka"},"geometry":{"type":"LineString","coordinates":[[19.22293,50.60564],[19.22069,50.60576],[19.20869,50.60515],[19.18837,50.59929],[19.18568,50.59895],[19.1825,50.59937]]}},{"type":"Feature","properties":{"numer":"3800S","klasa":"","kat":"powiatowa"},"geometry":{"type":"LineString","coordinates":[[19.21622,50.62071],[19.2161,50.62071]]}},{"type":"Feature","properties":{"numer":"3800S","klasa":"","kat":"powiatowa"},"geometry":{"type":"LineString","coordinates":[[19.2161,50.62071],[19.21586,50.62083],[19.21513,50.6217],[19.21445,50.62217]]}},{"type":"Feature","properties":{"numer":"","klasa":"droga wewnÄ™trzna","kat":"gminna"},"geometry":{"type":"LineString","coordinates":[[19.21499,50.62275],[19.21445,50.62217]]}},{"type":"Feature","properties":{"numer":"","klasa":"droga wewnÄ™trzna","kat":"gminna"},"geometry":{"type":"LineString","coordinates":[[19.21579,50.62363],[19.21499,50.62275]]}},{"type":"Feature","properties":{"numer":"1012S","klasa":"droga zbiorcza","kat":"powiatowa"},"geometry":{"type":"LineString","coordinates":[[19.19901,50.62383],[19.19885,50.62361]]}},{"type":"Feature","properties":{"numer":"","klasa":"droga wewnÄ™trzna","kat":"gminna"},"geometry":{"type":"LineString","coordinates":[[19.15974,50.59107],[19.15862,50.59068]]}},{"type":"Feature","properties":{"numer":"","klasa":"droga wewnÄ™trzna","kat":"gminna"},"geometry":{"type":"LineString","coordinates":[[19.1617,50.59175],[19.15974,50.59107]]}},{"type":"Feature","properties":{"numer":"91,E75","klasa":"droga gĹ‚Ăłwna ruchu przyĹ›pieszonego","kat":"gminna"},"geometry":{"type":"LineString","coordinates":[[19.15432,50.59262],[19.15862,50.59068]]}},{"type":"Feature","properties":{"numer":"595056S","klasa":"droga lokalna","kat":"powiatowa"},"geometry":{"type":"LineString","coordinates":[[19.16176,50.59225],[19.1617,50.59175]]}},{"type":"Feature","properties":{"numer":"595087S","klasa":"droga lokalna","kat":"powiatowa"},"geometry":{"type":"LineString","coordinates":[[19.15974,50.59107],[19.15752,50.59327]]}},{"type":"Feature","properties":{"numer":"91,E75","klasa":"droga gĹ‚Ăłwna ruchu przyĹ›pieszonego","kat":"gminna"},"geometry":{"type":"LineString","coordinates":[[19.15409,50.59273],[19.15432,50.59262]]}},{"type":"Feature","properties":{"numer":"595087S","klasa":"droga lokalna","kat":"powiatowa"},"geometry":{"type":"LineString","coordinates":[[19.15752,50.59327],[19.15691,50.59387]]}},{"type":"Feature","properties":{"numer":"595056S","klasa":"droga lokalna","kat":"powiatowa"},"geometry":{"type":"LineString","coordinates":[[19.16183,50.59499],[19.16198,50.59392],[19.16176,50.59225]]}},{"type":"Feature","properties":{"numer":"595087S","klasa":"droga lokalna","kat":"powiatowa"},"geometry":{"type":"LineString","coordinates":[[19.15691,50.59387],[19.15674,50.59404]]}},{"type":"Feature","properties":{"numer":"595087S","klasa":"droga lokalna","kat":"powiatowa"},"geometry":{"type":"LineString","coordinates":[[19.15674,50.59404],[19.15542,50.59534]]}},{"type":"Feature","properties":{"numer":"595056S","klasa":"droga lokalna","kat":"powiatowa"},"geometry":{"type":"LineString","coordinates":[[19.16185,50.59516],[19.16183,50.59499]]}},{"type":"Feature","properties":{"numer":"595087S","klasa":"droga lokalna","kat":"powiatowa"},"geometry":{"type":"LineString","coordinates":[[19.15542,50.59534],[19.15528,50.59549]]}},{"type":"Feature","properties":{"numer":"595056S","klasa":"droga lokalna","kat":"powiatowa"},"geometry":{"type":"LineString","coordinates":[[19.16195,50.59572],[19.16185,50.59516]]}},{"type":"Feature","properties":{"numer":"91,E75","klasa":"droga gĹ‚Ăłwna ruchu przyĹ›pieszonego","kat":"gminna"},"geometry":{"type":"LineString","coordinates":[[19.14955,50.59823],[19.14955,50.59746],[19.14972,50.59661],[19.15008,50.59582],[19.15064,50.59503],[19.15136,50.5943],[19.15213,50.59373],[19.15409,50.59273]]}},{"type":"Feature","properties":{"numer":"595056S","klasa":"droga lokalna","kat":"powiatowa"},"geometry":{"type":"LineString","coordinates":[[19.16202,50.59616],[19.16195,50.59572]]}},{"type":"Feature","properties":{"numer":"595056S","klasa":"droga lokalna","kat":"powiatowa"},"geometry":{"type":"LineString","coordinates":[[19.16204,50.59629],[19.16202,50.59616]]}},{"type":"Feature","properties":{"numer":"595056S","klasa":"droga lokalna","kat":"powiatowa"},"geometry":{"type":"LineString","coordinates":[[19.1621,50.59661],[19.16204,50.59629]]}},{"type":"Feature","properties":{"numer":"595056S","klasa":"droga lokalna","kat":"powiatowa"},"geometry":{"type":"LineString","coordinates":[[19.16215,50.59703],[19.1621,50.59661]]}},{"type":"Feature","properties":{"numer":"595087S","klasa":"droga lokalna","kat":"powiatowa"},"geometry":{"type":"LineString","coordinates":[[19.15528,50.59549],[19.15349,50.59731],[19.15321,50.59786],[19.15311,50.59838]]}},{"type":"Feature","properties":{"numer":"595056S","klasa":"droga lokalna","kat":"powiatowa"},"geometry":{"type":"LineString","coordinates":[[19.16223,50.59745],[19.16215,50.59703]]}},{"type":"Feature","properties":{"numer":"595068S","klasa":"droga lokalna","kat":"powiatowa"},"geometry":{"type":"LineString","coordinates":[[19.16223,50.59745],[19.1617,50.59748]]}},{"type":"Feature","properties":{"numer":"789","klasa":"droga gĹ‚Ăłwna","kat":"wojewodzka"},"geometry":{"type":"LineString","coordinates":[[19.1617,50.59748],[19.16092,50.5975]]}},{"type":"Feature","properties":{"numer":"595056S","klasa":"droga lokalna","kat":"powiatowa"},"geometry":{"type":"LineString","coordinates":[[19.16232,50.59776],[19.16223,50.59745]]}},{"type":"Feature","properties":{"numer":"789","klasa":"droga gĹ‚Ăłwna","kat":"wojewodzka"},"geometry":{"type":"LineString","coordinates":[[19.16232,50.59776],[19.16201,50.59755],[19.1617,50.59748]]}},{"type":"Feature","properties":{"numer":"789","klasa":"droga gĹ‚Ăłwna","kat":"wojewodzka"},"geometry":{"type":"LineString","coordinates":[[19.16092,50.5975],[19.15463,50.59838],[19.15311,50.59838]]}},{"type":"Feature","properties":{"numer":"789","klasa":"droga gĹ‚Ăłwna","kat":"wojewodzka"},"geometry":{"type":"LineString","coordinates":[[19.15311,50.59838],[19.14955,50.59823]]}},{"type":"Feature","properties":{"numer":"789","klasa":"droga gĹ‚Ăłwna","kat":"wojewodzka"},"geometry":{"type":"LineString","coordinates":[[19.16267,50.59887],[19.16232,50.59776]]}},{"type":"Feature","properties":{"numer":"789","klasa":"droga gĹ‚Ăłwna","kat":"wojewodzka"},"geometry":{"type":"LineString","coordinates":[[19.16269,50.59893],[19.16267,50.59887]]}},{"type":"Feature","properties":{"numer":"789","klasa":"droga gĹ‚Ăłwna","kat":"wojewodzka"},"geometry":{"type":"LineString","coordinates":[[19.17982,50.59956],[19.17324,50.59841],[19.17251,50.59841],[19.16893,50.59867],[19.16779,50.59886]]}},{"type":"Feature","properties":{"numer":"595087S","klasa":"droga lokalna","kat":"powiatowa"},"geometry":{"type":"LineString","coordinates":[[19.15311,50.59838],[19.15325,50.59907],[19.1537,50.59982]]}},{"type":"Feature","properties":{"numer":"789","klasa":"droga gĹ‚Ăłwna","kat":"wojewodzka"},"geometry":{"type":"LineString","coordinates":[[19.16779,50.59886],[19.16409,50.59971]]}},{"type":"Feature","properties":{"numer":"91,E75","klasa":"droga gĹ‚Ăłwna ruchu przyĹ›pieszonego","kat":"gminna"},"geometry":{"type":"LineString","coordinates":[[19.15057,50.60054],[19.14987,50.59939],[19.14955,50.59823]]}},{"type":"Feature","properties":{"numer":"789","klasa":"droga gĹ‚Ăłwna","kat":"wojewodzka"},"geometry":{"type":"LineString","coordinates":[[19.16304,50.59992],[19.16269,50.59893]]}},{"type":"Feature","properties":{"numer":"789","klasa":"droga gĹ‚Ăłwna","kat":"wojewodzka"},"geometry":{"type":"LineString","coordinates":[[19.1825,50.59937],[19.18098,50.59958],[19.18025,50.5996]]}},{"type":"Feature","properties":{"numer":"789","klasa":"droga gĹ‚Ăłwna","kat":"wojewodzka"},"geometry":{"type":"LineString","coordinates":[[19.18025,50.5996],[19.17982,50.59956]]}},{"type":"Feature","properties":{"numer":"789","klasa":"droga gĹ‚Ăłwna","kat":"wojewodzka"},"geometry":{"type":"LineString","coordinates":[[19.16409,50.59971],[19.16304,50.59992]]}},{"type":"Feature","properties":{"numer":"595087S","klasa":"droga lokalna","kat":"powiatowa"},"geometry":{"type":"LineString","coordinates":[[19.1537,50.59982],[19.15384,50.59999]]}},{"type":"Feature","properties":{"numer":"595055S","klasa":"droga lokalna","kat":"powiatowa"},"geometry":{"type":"LineString","coordinates":[[19.16304,50.59992],[19.16241,50.60003]]}},{"type":"Feature","properties":{"numer":"595055S","klasa":"droga lokalna","kat":"powiatowa"},"geometry":{"type":"LineString","coordinates":[[19.16241,50.60003],[19.16113,50.60014]]}},{"type":"Feature","properties":{"numer":"595055S","klasa":"droga lokalna","kat":"powiatowa"},"geometry":{"type":"LineString","coordinates":[[19.16113,50.60014],[19.16026,50.60032],[19.16,50.60046]]}},{"type":"Feature","properties":{"numer":"595087S","klasa":"droga lokalna","kat":"powiatowa"},"geometry":{"type":"LineString","coordinates":[[19.15384,50.59999],[19.15463,50.60098]]}},{"type":"Feature","properties":{"numer":"91,E75","klasa":"droga gĹ‚Ăłwna ruchu przyĹ›pieszonego","kat":"gminna"},"geometry":{"type":"LineString","coordinates":[[19.15065,50.60065],[19.15057,50.60054]]}},{"type":"Feature","properties":{"numer":"595087S","klasa":"droga lokalna","kat":"powiatowa"},"geometry":{"type":"LineString","coordinates":[[19.15465,50.60101],[19.1549,50.60131]]}},{"type":"Feature","properties":{"numer":"595055S","klasa":"droga lokalna","kat":"powiatowa"},"geometry":{"type":"LineString","coordinates":[[19.16,50.60046],[19.1586,50.6019]]}},{"type":"Feature","properties":{"numer":"595087S","klasa":"droga lokalna","kat":"powiatowa"},"geometry":{"type":"LineString","coordinates":[[19.1549,50.60131],[19.15523,50.60172]]}},{"type":"Feature","properties":{"numer":"595087S","klasa":"droga lokalna","kat":"powiatowa"},"geometry":{"type":"LineString","coordinates":[[19.15523,50.60172],[19.15562,50.60221]]}},{"type":"Feature","properties":{"numer":"595087S","klasa":"droga lokalna","kat":"powiatowa"},"geometry":{"type":"LineString","coordinates":[[19.15562,50.60221],[19.15597,50.60269]]}},{"type":"Feature","properties":{"numer":"595055S","klasa":"droga lokalna","kat":"powiatowa"},"geometry":{"type":"LineString","coordinates":[[19.1586,50.6019],[19.15697,50.60355]]}},{"type":"Feature","properties":{"numer":"595087S","klasa":"droga lokalna","kat":"powiatowa"},"geometry":{"type":"LineString","coordinates":[[19.15597,50.60269],[19.15631,50.60337]]}},{"type":"Feature","properties":{"numer":"595087S","klasa":"droga lokalna","kat":"powiatowa"},"geometry":{"type":"LineString","coordinates":[[19.15631,50.60337],[19.1565,50.6037]]}},{"type":"Feature","properties":{"numer":"595055S","klasa":"droga lokalna","kat":"powiatowa"},"geometry":{"type":"LineString","coordinates":[[19.15697,50.60355],[19.15687,50.60365]]}},{"type":"Feature","properties":{"numer":"595055S","klasa":"droga lokalna","kat":"powiatowa"},"geometry":{"type":"LineString","coordinates":[[19.15687,50.60365],[19.15676,50.60372]]}},{"type":"Feature","properties":{"numer":"595087S","klasa":"droga lokalna","kat":"powiatowa"},"geometry":{"type":"LineString","coordinates":[[19.1565,50.6037],[19.15663,50.60371]]}},{"type":"Feature","properties":{"numer":"595055S","klasa":"droga lokalna","kat":"powiatowa"},"geometry":{"type":"LineString","coordinates":[[19.15676,50.60372],[19.15663,50.60371]]}},{"type":"Feature","properties":{"numer":"595055S","klasa":"droga lokalna","kat":"powiatowa"},"geometry":{"type":"LineString","coordinates":[[19.15661,50.60395],[19.15657,50.60431]]}},{"type":"Feature","properties":{"numer":"595055S","klasa":"droga lokalna","kat":"powiatowa"},"geometry":{"type":"LineString","coordinates":[[19.15657,50.60431],[19.15642,50.60463]]}},{"type":"Feature","properties":{"numer":"91,E75","klasa":"droga gĹ‚Ăłwna ruchu przyĹ›pieszonego","kat":"gminna"},"geometry":{"type":"LineString","coordinates":[[19.15065,50.60065],[19.15428,50.60587],[19.15466,50.60711],[19.15461,50.60835]]}},{"type":"Feature","properties":{"numer":"595055S","klasa":"droga lokalna","kat":"powiatowa"},"geometry":{"type":"LineString","coordinates":[[19.15642,50.60463],[19.15623,50.60503]]}},{"type":"Feature","properties":{"numer":"595022S","klasa":"droga lokalna","kat":"powiatowa"},"geometry":{"type":"LineString","coordinates":[[19.15584,50.60527],[19.15623,50.60503]]}},{"type":"Feature","properties":{"numer":"595022S","klasa":"droga lokalna","kat":"powiatowa"},"geometry":{"type":"LineString","coordinates":[[19.15472,50.60586],[19.15584,50.60527]]}},{"type":"Feature","properties":{"numer":"595019S","klasa":"droga lokalna","kat":"powiatowa"},"geometry":{"type":"LineString","coordinates":[[19.07709,50.61536],[19.07572,50.6154]]}},{"type":"Feature","properties":{"numer":"595088S","klasa":"droga lokalna","kat":"powiatowa"},"geometry":{"type":"LineString","coordinates":[[19.07709,50.61536],[19.07905,50.61549]]}},{"type":"Feature","properties":{"numer":"595019S","klasa":"droga lokalna","kat":"powiatowa"},"geometry":{"type":"LineString","coordinates":[[19.07572,50.6154],[19.07354007632249,50.61555926383032]]}},{"type":"Feature","properties":{"numer":"595088S","klasa":"droga lokalna","kat":"powiatowa"},"geometry":{"type":"LineString","coordinates":[[19.07905,50.61549],[19.08192,50.61566]]}},{"type":"Feature","properties":{"numer":"595088S","klasa":"droga lokalna","kat":"powiatowa"},"geometry":{"type":"LineString","coordinates":[[19.08858,50.61583],[19.08911,50.61584],[19.09067,50.61533]]}},{"type":"Feature","properties":{"numer":"595088S","klasa":"droga lokalna","kat":"powiatowa"},"geometry":{"type":"LineString","coordinates":[[19.08192,50.61566],[19.08416,50.61578]]}},{"type":"Feature","properties":{"numer":"595088S","klasa":"droga lokalna","kat":"powiatowa"},"geometry":{"type":"LineString","coordinates":[[19.08774,50.61584],[19.0882,50.61578],[19.08858,50.61583]]}},{"type":"Feature","properties":{"numer":"595088S","klasa":"droga lokalna","kat":"powiatowa"},"geometry":{"type":"LineString","coordinates":[[19.08416,50.61578],[19.0869,50.61592],[19.08774,50.61584]]}},{"type":"Feature","properties":{"numer":"595055S","klasa":"droga lokalna","kat":"powiatowa"},"geometry":{"type":"LineString","coordinates":[[19.15584,50.60527],[19.15603,50.60547],[19.1556,50.60636]]}},{"type":"Feature","properties":{"numer":"595022S","klasa":"droga lokalna","kat":"powiatowa"},"geometry":{"type":"LineString","coordinates":[[19.15443,50.60601],[19.15472,50.60586]]}},{"type":"Feature","properties":{"numer":"595055S","klasa":"droga lokalna","kat":"powiatowa"},"geometry":{"type":"LineString","coordinates":[[19.1556,50.60636],[19.15521,50.60718]]}},{"type":"Feature","properties":{"numer":"595055S","klasa":"droga lokalna","kat":"powiatowa"},"geometry":{"type":"LineString","coordinates":[[19.15521,50.60718],[19.155,50.60762]]}},{"type":"Feature","properties":{"numer":"595055S","klasa":"droga lokalna","kat":"powiatowa"},"geometry":{"type":"LineString","coordinates":[[19.155,50.60762],[19.1547,50.60831]]}},{"type":"Feature","properties":{"numer":"595055S","klasa":"droga lokalna","kat":"powiatowa"},"geometry":{"type":"LineString","coordinates":[[19.1547,50.60831],[19.15461,50.60835]]}},{"type":"Feature","properties":{"numer":"1012S","klasa":"droga zbiorcza","kat":"powiatowa"},"geometry":{"type":"LineString","coordinates":[[19.19885,50.62361],[19.19831,50.62297],[19.19731,50.62219],[19.18794,50.61682],[19.17804,50.60973],[19.17082,50.60598],[19.16516,50.60084],[19.16409,50.59971]]}},{"type":"Feature","properties":{"numer":"2310S","klasa":"droga zbiorcza","kat":"powiatowa"},"geometry":{"type":"LineString","coordinates":[[19.18356,50.62541],[19.18354,50.62546]]}},{"type":"Feature","properties":{"numer":"2310S","klasa":"droga zbiorcza","kat":"powiatowa"},"geometry":{"type":"LineString","coordinates":[[19.18354,50.62546],[19.18294,50.62609],[19.18267,50.62659],[19.18231,50.62682],[19.18184,50.62702],[19.18042,50.6274],[19.17799,50.62858],[19.17656,50.62906],[19.17495,50.62973],[19.17248,50.62965],[19.17137,50.62931],[19.17059,50.6292],[19.16894,50.62929],[19.16711,50.62915],[19.16644,50.62888],[19.16484,50.62786],[19.16299,50.62749],[19.14002,50.62904]]}},{"type":"Feature","properties":{"numer":"791","klasa":"droga gĹ‚Ăłwna","kat":"wojewodzka"},"geometry":{"type":"LineString","coordinates":[[19.195562305025994,50.690196464471406],[19.19575,50.69018]]}},{"type":"Feature","properties":{"numer":"3800S","klasa":"","kat":"powiatowa"},"geometry":{"type":"LineString","coordinates":[[19.19885,50.62361],[19.19912,50.62364],[19.20003,50.62443],[19.2013,50.62478],[19.20226,50.6249],[19.20368,50.62536],[19.20572,50.62512],[19.20567,50.62439],[19.20549,50.62393],[19.2051,50.62337],[19.20722,50.62253],[19.20793,50.62236],[19.20988,50.62236],[19.21055,50.62256],[19.21151,50.62316],[19.21171,50.62337],[19.2125,50.62331],[19.2126,50.62311],[19.21318,50.62287],[19.21309,50.62269],[19.21321,50.62258],[19.21445,50.62217]]}},{"type":"Feature","properties":{"numer":"","klasa":"droga wewnÄ™trzna","kat":"gminna"},"geometry":{"type":"LineString","coordinates":[[19.21704,50.62528],[19.2165,50.62437],[19.21579,50.62363]]}},{"type":"Feature","properties":{"numer":"2310S","klasa":"droga zbiorcza","kat":"powiatowa"},"geometry":{"type":"LineString","coordinates":[[19.19901,50.62383],[19.1957,50.62545],[19.1929,50.62504],[19.19154,50.62504],[19.19068,50.62496],[19.18981,50.62506],[19.1885,50.62541],[19.18651,50.6257],[19.18554,50.62561],[19.18385,50.62516],[19.18359,50.62529],[19.18356,50.62541]]}},{"type":"Feature","properties":{"numer":"","klasa":"droga wewnÄ™trzna","kat":"gminna"},"geometry":{"type":"LineString","coordinates":[[19.21733,50.62598],[19.21704,50.62528]]}},{"type":"Feature","properties":{"numer":"","klasa":"droga wewnÄ™trzna","kat":"gminna"},"geometry":{"type":"LineString","coordinates":[[19.21739,50.62611],[19.21733,50.62598]]}},{"type":"Feature","properties":{"numer":"","klasa":"droga wewnÄ™trzna","kat":"gminna"},"geometry":{"type":"LineString","coordinates":[[19.21854,50.62864],[19.21806,50.62737],[19.21739,50.62611]]}},{"type":"Feature","properties":{"numer":"1012S","klasa":"droga zbiorcza","kat":"powiatowa"},"geometry":{"type":"LineString","coordinates":[[19.20295,50.63169],[19.19901,50.62383]]}},{"type":"Feature","properties":{"numer":"","klasa":"droga wewnÄ™trzna","kat":"gminna"},"geometry":{"type":"LineString","coordinates":[[19.21872,50.62921],[19.21854,50.62864]]}},{"type":"Feature","properties":{"numer":"1012S","klasa":"droga zbiorcza","kat":"powiatowa"},"geometry":{"type":"LineString","coordinates":[[19.20297,50.63174],[19.20295,50.63169]]}},{"type":"Feature","properties":{"numer":"1012S","klasa":"droga zbiorcza","kat":"powiatowa"},"geometry":{"type":"LineString","coordinates":[[19.20297,50.63174],[19.21171,50.64904],[19.21079,50.64946],[19.20989,50.65014],[19.19958,50.66184],[19.19917,50.66252],[19.19909,50.6635],[19.19944,50.67032],[19.19958,50.6708],[19.20019,50.67153],[19.20075,50.6719],[19.2017,50.67226],[19.20382,50.67283]]}},{"type":"Feature","properties":{"numer":"91,E75","klasa":"droga gĹ‚Ăłwna ruchu przyĹ›pieszonego","kat":"gminna"},"geometry":{"type":"LineString","coordinates":[[19.15461,50.60835],[19.15422,50.60938],[19.15242,50.61303],[19.15176,50.6141],[19.14117,50.62768],[19.14002,50.62904]]}},{"type":"Feature","properties":{"numer":"91,E75","klasa":"droga gĹ‚Ăłwna ruchu przyĹ›pieszonego","kat":"gminna"},"geometry":{"type":"LineString","coordinates":[[19.14002,50.62904],[19.13673,50.63283],[19.13637,50.63338],[19.13601,50.63427],[19.1359,50.63499],[19.1358,50.63829],[19.13589,50.64124],[19.13588092047299,50.64129447716207]]}},{"type":"Feature","properties":{"numer":"1012S","klasa":"droga zbiorcza","kat":"powiatowa"},"geometry":{"type":"LineString","coordinates":[[19.20382,50.67283],[19.20422,50.67294]]}},{"type":"Feature","properties":{"numer":"1012S","klasa":"droga zbiorcza","kat":"powiatowa"},"geometry":{"type":"LineString","coordinates":[[19.20422,50.67294],[19.20552,50.6733],[19.20704,50.67384],[19.20801,50.67406],[19.21369,50.67438],[19.21412,50.67484],[19.21396,50.67528],[19.21336,50.6762],[19.21404,50.67656],[19.21558,50.67653]]}},{"type":"Feature","properties":{"numer":"1012S,791","klasa":"droga gĹ‚Ăłwna","kat":"powiatowa"},"geometry":{"type":"LineString","coordinates":[[19.21558,50.67653],[19.21497,50.67796]]}},{"type":"Feature","properties":{"numer":"1012S","klasa":"droga zbiorcza","kat":"powiatowa"},"geometry":{"type":"LineString","coordinates":[[19.21538,50.67804],[19.21497,50.67796]]}},{"type":"Feature","properties":{"numer":"1012S","klasa":"droga zbiorcza","kat":"powiatowa"},"geometry":{"type":"LineString","coordinates":[[19.21559,50.67811],[19.21538,50.67804]]}},{"type":"Feature","properties":{"numer":"791","klasa":"droga gĹ‚Ăłwna","kat":"wojewodzka"},"geometry":{"type":"LineString","coordinates":[[19.19575,50.69018],[19.19851,50.68991],[19.19963,50.68952],[19.20034,50.68888],[19.20342,50.68385],[19.20395,50.68325],[19.2044,50.68298],[19.20617,50.68227],[19.20779,50.68089],[19.20993,50.68009],[19.21304,50.67864],[19.21497,50.67796]]}},{"type":"Feature","properties":{"numer":"1011S","klasa":"","kat":"powiatowa"},"geometry":{"type":"LineString","coordinates":[[19.19575,50.69018],[19.196,50.69101],[19.19608328519856,50.691148808664266]]}},{"type":"Feature","properties":{"numer":"1011S","klasa":"","kat":"powiatowa"},"geometry":{"type":"LineString","coordinates":[[19.197359576158913,50.69215895364236],[19.19782,50.69246]]}},{"type":"Feature","properties":{"numer":"1011S","klasa":"","kat":"powiatowa"},"geometry":{"type":"LineString","coordinates":[[19.19782,50.69246],[19.19805,50.69259]]}},{"type":"Feature","properties":{"numer":"1011S","klasa":"droga zbiorcza","kat":"powiatowa"},"geometry":{"type":"LineString","coordinates":[[19.19805,50.69259],[19.198059252049177,50.69259638831967]]}},{"type":"Feature","properties":{"numer":"2310S","klasa":"droga zbiorcza","kat":"powiatowa"},"geometry":{"type":"LineString","coordinates":[[19.14002,50.62904],[19.09925,50.63182],[19.09902,50.63176],[19.09866,50.63077],[19.098611565217393,50.63024690434782]]}},{"type":"Feature","properties":{"numer":"793","klasa":"droga gĹ‚Ăłwna","kat":"wojewodzka"},"geometry":{"type":"LineString","coordinates":[[19.35504,50.5955],[19.35505,50.59543]]}},{"type":"Feature","properties":{"numer":"793","klasa":"droga gĹ‚Ăłwna","kat":"wojewodzka"},"geometry":{"type":"LineString","coordinates":[[19.36394,50.62371],[19.3614,50.61957],[19.35482,50.60416],[19.35461,50.60281],[19.35504,50.5955]]}},{"type":"Feature","properties":{"numer":"789","klasa":"droga gĹ‚Ăłwna","kat":"wojewodzka"},"geometry":{"type":"LineString","coordinates":[[19.29766,50.60605],[19.30625,50.60937],[19.31889,50.61356],[19.34033,50.62023],[19.35553,50.62547]]}},{"type":"Feature","properties":{"numer":"789,793","klasa":"droga gĹ‚Ăłwna","kat":"gminna"},"geometry":{"type":"LineString","coordinates":[[19.36394,50.62371],[19.36407,50.62414],[19.36394,50.62442]]}},{"type":"Feature","properties":{"numer":"789,793","klasa":"droga gĹ‚Ăłwna","kat":"gminna"},"geometry":{"type":"LineString","coordinates":[[19.36394,50.62442],[19.36335,50.62506]]}},{"type":"Feature","properties":{"numer":"789","klasa":"droga gĹ‚Ăłwna","kat":"wojewodzka"},"geometry":{"type":"LineString","coordinates":[[19.36277,50.62516],[19.36335,50.62506]]}},{"type":"Feature","properties":{"numer":"789","klasa":"droga gĹ‚Ăłwna","kat":"wojewodzka"},"geometry":{"type":"LineString","coordinates":[[19.35553,50.62547],[19.35568,50.62552]]}},{"type":"Feature","properties":{"numer":"789","klasa":"droga gĹ‚Ăłwna","kat":"wojewodzka"},"geometry":{"type":"LineString","coordinates":[[19.35568,50.62552],[19.35687,50.6259],[19.3575,50.62594],[19.36277,50.62516]]}},{"type":"Feature","properties":{"numer":"793","klasa":"droga gĹ‚Ăłwna","kat":"wojewodzka"},"geometry":{"type":"LineString","coordinates":[[19.36335,50.62506],[19.36348,50.6258],[19.364,50.62652]]}},{"type":"Feature","properties":{"numer":"3809S","klasa":"droga zbiorcza","kat":"powiatowa"},"geometry":{"type":"LineString","coordinates":[[19.36287,50.62657],[19.364,50.62652]]}},{"type":"Feature","properties":{"numer":"789","klasa":"droga gĹ‚Ăłwna","kat":"wojewodzka"},"geometry":{"type":"LineString","coordinates":[[19.27482,50.6045],[19.27619,50.60437],[19.28403,50.60302],[19.28541,50.60288]]}},{"type":"Feature","properties":{"numer":"789","klasa":"droga gĹ‚Ăłwna","kat":"wojewodzka"},"geometry":{"type":"LineString","coordinates":[[19.28629,50.60287],[19.28716,50.60294],[19.28833,50.60314],[19.29331,50.60438],[19.29766,50.60605]]}},{"type":"Feature","properties":{"numer":"789,791","klasa":"droga gĹ‚Ăłwna","kat":"gminna"},"geometry":{"type":"LineString","coordinates":[[19.27174,50.60474],[19.27482,50.6045]]}},{"type":"Feature","properties":{"numer":"789,791","klasa":"droga gĹ‚Ăłwna","kat":"gminna"},"geometry":{"type":"LineString","coordinates":[[19.27117,50.60479],[19.27174,50.60474]]}},{"type":"Feature","properties":{"numer":"791","klasa":"droga gĹ‚Ăłwna","kat":"wojewodzka"},"geometry":{"type":"LineString","coordinates":[[19.27482,50.6045],[19.27497,50.60495],[19.27492,50.61029],[19.27485,50.61086],[19.27468,50.61126],[19.27158,50.61473],[19.26597,50.61941],[19.2655,50.61992]]}},{"type":"Feature","properties":{"numer":"791","klasa":"droga gĹ‚Ăłwna","kat":"wojewodzka"},"geometry":{"type":"LineString","coordinates":[[19.2655,50.61992],[19.26547,50.61998]]}},{"type":"Feature","properties":{"numer":"3805S","klasa":"droga zbiorcza","kat":"powiatowa"},"geometry":{"type":"LineString","coordinates":[[19.31969,50.65009],[19.29189,50.64944],[19.28728,50.64856],[19.28482,50.648],[19.28064,50.64791],[19.27814,50.64756],[19.27765,50.64739],[19.27626,50.64646],[19.27595,50.64635],[19.27197,50.64642],[19.26477,50.64495],[19.26427,50.64475],[19.26362,50.64427],[19.26285,50.64311],[19.26257,50.64286],[19.26088,50.64235],[19.25999,50.64218],[19.25566,50.64219],[19.25476,50.64225],[19.25152,50.64268],[19.24967,50.64327],[19.24798,50.64362]]}},{"type":"Feature","properties":{"numer":"3809S","klasa":"droga zbiorcza","kat":"powiatowa"},"geometry":{"type":"LineString","coordinates":[[19.31521,50.65609],[19.31969,50.65009]]}},{"type":"Feature","properties":{"numer":"1013S","klasa":"droga zbiorcza","kat":"powiatowa"},"geometry":{"type":"LineString","coordinates":[[19.31521,50.65625],[19.31521,50.65609]]}},{"type":"Feature","properties":{"numer":"3809S","klasa":"droga zbiorcza","kat":"powiatowa"},"geometry":{"type":"LineString","coordinates":[[19.31481,50.65636],[19.31521,50.65625]]}},{"type":"Feature","properties":{"numer":"3809S","klasa":"droga zbiorcza","kat":"powiatowa"},"geometry":{"type":"LineString","coordinates":[[19.36282,50.62657],[19.36287,50.62657]]}},{"type":"Feature","properties":{"numer":"3809S","klasa":"droga zbiorcza","kat":"powiatowa"},"geometry":{"type":"LineString","coordinates":[[19.35669,50.62802],[19.35989,50.62701],[19.36282,50.62657]]}},{"type":"Feature","properties":{"numer":"3809S","klasa":"droga zbiorcza","kat":"powiatowa"},"geometry":{"type":"LineString","coordinates":[[19.35656,50.62807],[19.35669,50.62802]]}},{"type":"Feature","properties":{"numer":"3809S","klasa":"droga zbiorcza","kat":"powiatowa"},"geometry":{"type":"LineString","coordinates":[[19.31998,50.64971],[19.32374,50.64471],[19.3263,50.64268],[19.33087,50.63847],[19.336,50.63616],[19.34734,50.6314],[19.35656,50.62807]]}},{"type":"Feature","properties":{"numer":"3809S","klasa":"droga zbiorcza","kat":"powiatowa"},"geometry":{"type":"LineString","coordinates":[[19.31995,50.64975],[19.31998,50.64971]]}},{"type":"Feature","properties":{"numer":"3809S","klasa":"droga zbiorcza","kat":"powiatowa"},"geometry":{"type":"LineString","coordinates":[[19.31969,50.65009],[19.31995,50.64975]]}},{"type":"Feature","properties":{"numer":"791","klasa":"droga gĹ‚Ăłwna","kat":"wojewodzka"},"geometry":{"type":"LineString","coordinates":[[19.24798,50.64362],[19.24785,50.64447]]}},{"type":"Feature","properties":{"numer":"791","klasa":"droga gĹ‚Ăłwna","kat":"wojewodzka"},"geometry":{"type":"LineString","coordinates":[[19.24783,50.64457],[19.24785,50.64447]]}},{"type":"Feature","properties":{"numer":"791","klasa":"droga gĹ‚Ăłwna","kat":"wojewodzka"},"geometry":{"type":"LineString","coordinates":[[19.24624,50.65157],[19.24721,50.6484],[19.24783,50.64457]]}},{"type":"Feature","properties":{"numer":"791","klasa":"droga gĹ‚Ăłwna","kat":"wojewodzka"},"geometry":{"type":"LineString","coordinates":[[19.24619,50.65173],[19.24624,50.65157]]}},{"type":"Feature","properties":{"numer":"791","klasa":"droga gĹ‚Ăłwna","kat":"wojewodzka"},"geometry":{"type":"LineString","coordinates":[[19.24619,50.65173],[19.24485,50.65609],[19.24456,50.65667],[19.24392,50.65733],[19.23361,50.66516],[19.23242,50.6659],[19.23164,50.66619],[19.23082,50.66639],[19.22346,50.66741],[19.2225,50.66772],[19.22163,50.66818],[19.22074,50.66898],[19.21558,50.67653]]}},{"type":"Feature","properties":{"numer":"1012S","klasa":"droga zbiorcza","kat":"powiatowa"},"geometry":{"type":"LineString","coordinates":[[19.21559,50.67811],[19.21668,50.67847],[19.21744,50.67882],[19.21857,50.67917],[19.21985,50.67938],[19.22177,50.68014],[19.22224,50.68014],[19.22467,50.67964],[19.22521,50.67961],[19.23107,50.68094],[19.234,50.68102],[19.2347,50.68113],[19.23636,50.6815],[19.23869,50.68238],[19.23978,50.68258],[19.24207,50.68253],[19.24625,50.68196],[19.25023,50.68243],[19.25319,50.68252],[19.25693,50.68184],[19.25919,50.68129],[19.26154,50.68061],[19.26178,50.68072],[19.26205,50.68122],[19.26234,50.68222]]}},{"type":"Feature","properties":{"numer":"1012S","klasa":"droga zbiorcza","kat":"powiatowa"},"geometry":{"type":"LineString","coordinates":[[19.26234,50.68222],[19.26266,50.68319],[19.2637,50.684],[19.26466,50.68495]]}},{"type":"Feature","properties":{"numer":"1010S","klasa":"droga zbiorcza","kat":"powiatowa"},"geometry":{"type":"LineString","coordinates":[[19.238262440440913,50.70334448085813],[19.23848,50.70311],[19.24497,50.69749],[19.24933,50.69415],[19.25053,50.69333],[19.25144,50.6925],[19.26466,50.68495]]}},{"type":"Feature","properties":{"numer":"1013S","klasa":"droga zbiorcza","kat":"powiatowa"},"geometry":{"type":"LineString","coordinates":[[19.3193,50.67008],[19.31904,50.66818],[19.31847,50.65716],[19.31826,50.657],[19.31544,50.65637],[19.31521,50.65625]]}},{"type":"Feature","properties":{"numer":"3809S","klasa":"droga zbiorcza","kat":"powiatowa"},"geometry":{"type":"LineString","coordinates":[[19.31481,50.65636],[19.31405,50.65681],[19.31277,50.65713],[19.31238,50.65743],[19.31223,50.6578],[19.31238,50.65869],[19.31233,50.65886],[19.30977,50.66206],[19.30725,50.66305],[19.30199,50.66456],[19.30141,50.66481],[19.29969,50.66612],[19.29075,50.6724],[19.28561,50.67559],[19.28388,50.67652],[19.28225,50.67764],[19.27946,50.6787],[19.27529,50.68055],[19.26918,50.68135],[19.26396,50.68213],[19.26234,50.68222]]}},{"type":"Feature","properties":{"numer":"1013S","klasa":"droga zbiorcza","kat":"powiatowa"},"geometry":{"type":"LineString","coordinates":[[19.3193,50.67008],[19.31931,50.67011]]}},{"type":"Feature","properties":{"numer":"1013S","klasa":"droga zbiorcza","kat":"powiatowa"},"geometry":{"type":"LineString","coordinates":[[19.290950446676973,50.682571006800615],[19.29163,50.68106],[19.29201,50.68096],[19.29357,50.68124],[19.297909564752057,50.681373232251154]]}},{"type":"Feature","properties":{"numer":"1013S","klasa":"droga zbiorcza","kat":"powiatowa"},"geometry":{"type":"LineString","coordinates":[[19.303307454436574,50.68191912577258],[19.3061,50.68038],[19.31259,50.67737],[19.315,50.67682],[19.32024,50.67651],[19.32045,50.67636],[19.32049,50.67617],[19.32027,50.67456],[19.31985,50.67223],[19.31931,50.67011]]}},{"type":"Feature","properties":{"numer":"1012S","klasa":"droga zbiorcza","kat":"powiatowa"},"geometry":{"type":"LineString","coordinates":[[19.26466,50.68495],[19.26573,50.68587],[19.26732,50.68651],[19.26802,50.68693],[19.27186,50.68975],[19.27331,50.69121],[19.27744,50.69466],[19.27776980496596,50.69485142785426]]}},{"type":"Feature","properties":{"numer":"1791S","klasa":"droga gĹ‚Ăłwna","kat":"powiatowa"},"geometry":{"type":"LineString","coordinates":[[19.62448,50.65353],[19.62456561135371,50.65353335730799]]}},{"type":"Feature","properties":{"numer":"791","klasa":"droga gĹ‚Ăłwna","kat":"wojewodzka"},"geometry":{"type":"LineString","coordinates":[[19.35615,50.5331],[19.35637,50.53305]]}},{"type":"Feature","properties":{"numer":"791","klasa":"droga gĹ‚Ăłwna","kat":"wojewodzka"},"geometry":{"type":"LineString","coordinates":[[19.35637,50.53305],[19.35761,50.53277],[19.35878,50.53261],[19.361,50.53254],[19.36324,50.53275],[19.36931,50.53363]]}},{"type":"Feature","properties":{"numer":"793","klasa":"droga gĹ‚Ăłwna","kat":"wojewodzka"},"geometry":{"type":"LineString","coordinates":[[19.29484,50.53061],[19.29545,50.52969],[19.29558,50.52926],[19.295604760036206,50.52904403746199]]}},{"type":"Feature","properties":{"numer":"793","klasa":"droga gĹ‚Ăłwna","kat":"wojewodzka"},"geometry":{"type":"LineString","coordinates":[[19.29484,50.53061],[19.29482,50.53064]]}},{"type":"Feature","properties":{"numer":"4751S","klasa":"","kat":"powiatowa"},"geometry":{"type":"LineString","coordinates":[[19.275936847206385,50.53346952109464],[19.27601,50.53379]]}},{"type":"Feature","properties":{"numer":"791","klasa":"droga gĹ‚Ăłwna","kat":"wojewodzka"},"geometry":{"type":"LineString","coordinates":[[19.376488835680753,50.51964395305164],[19.37631,50.52051],[19.37608,50.52118],[19.37425,50.52414],[19.37141,50.52923],[19.36931,50.53363]]}},{"type":"Feature","properties":{"numer":"1715S","klasa":"","kat":"powiatowa"},"geometry":{"type":"LineString","coordinates":[[19.37381,50.53449],[19.37312,50.53448],[19.36931,50.53363]]}},{"type":"Feature","properties":{"numer":"1715S","klasa":"","kat":"powiatowa"},"geometry":{"type":"LineString","coordinates":[[19.37399,50.53448],[19.37381,50.53449]]}},{"type":"Feature","properties":{"numer":"1715S","klasa":"","kat":"powiatowa"},"geometry":{"type":"LineString","coordinates":[[19.38013,50.53679],[19.37895,50.53655],[19.3783,50.53631],[19.37515,50.53462],[19.37458,50.53448],[19.37399,50.53448]]}},{"type":"Feature","properties":{"numer":"1715S","klasa":"","kat":"powiatowa"},"geometry":{"type":"LineString","coordinates":[[19.38082,50.53692],[19.38013,50.53679]]}},{"type":"Feature","properties":{"numer":"1711S","klasa":"droga gĹ‚Ăłwna","kat":"powiatowa"},"geometry":{"type":"LineString","coordinates":[[19.53829,50.6133],[19.53817891221957,50.61317119269631]]}},{"type":"Feature","properties":{"numer":"1017S","klasa":"droga gĹ‚Ăłwna","kat":"powiatowa"},"geometry":{"type":"LineString","coordinates":[[19.585296134165375,50.62413054914197],[19.58539,50.62417]]}},{"type":"Feature","properties":{"numer":"1017S","klasa":"droga zbiorcza","kat":"powiatowa"},"geometry":{"type":"LineString","coordinates":[[19.59126,50.62762],[19.59012,50.62551],[19.58986,50.62527],[19.58917,50.62502],[19.58539,50.62417]]}},{"type":"Feature","properties":{"numer":"1710S","klasa":"droga zbiorcza","kat":"powiatowa"},"geometry":{"type":"LineString","coordinates":[[19.59126,50.62762],[19.59648,50.62764],[19.59676,50.62756],[19.59747,50.62713],[19.59778,50.62706],[19.60383,50.62646],[19.60676,50.62633],[19.60817,50.62612],[19.60876,50.62614],[19.60895,50.62623],[19.60909,50.62643],[19.61045,50.62998],[19.61084,50.63005],[19.61306,50.63012],[19.614222684684915,50.6299385405405]]}},{"type":"Feature","properties":{"numer":"1017S","klasa":"droga zbiorcza","kat":"powiatowa"},"geometry":{"type":"LineString","coordinates":[[19.59754,50.63978],[19.59576,50.63692],[19.59126,50.62762]]}},{"type":"Feature","properties":{"numer":"794","klasa":"droga gĹ‚Ăłwna","kat":"wojewodzka"},"geometry":{"type":"LineString","coordinates":[[19.623363298734176,50.6480571721519],[19.62335,50.64795],[19.62342,50.64693],[19.62365,50.64618],[19.624155947141197,50.64518083394758]]}},{"type":"Feature","properties":{"numer":"794","klasa":"droga gĹ‚Ăłwna","kat":"wojewodzka"},"geometry":{"type":"LineString","coordinates":[[19.627629778102182,50.64045937518249],[19.628034252153483,50.63986229444009]]}},{"type":"Feature","properties":{"numer":"1017S","klasa":"droga zbiorcza","kat":"powiatowa"},"geometry":{"type":"LineString","coordinates":[[19.5987,50.64166],[19.59754,50.63978]]}},{"type":"Feature","properties":{"numer":"791","klasa":"droga gĹ‚Ăłwna","kat":"wojewodzka"},"geometry":{"type":"LineString","coordinates":[[19.35084,50.53528],[19.35447,50.53369],[19.35615,50.5331]]}},{"type":"Feature","properties":{"numer":"791","klasa":"droga gĹ‚Ăłwna","kat":"wojewodzka"},"geometry":{"type":"LineString","coordinates":[[19.35012,50.5356],[19.35084,50.53528]]}},{"type":"Feature","properties":{"numer":"791","klasa":"droga gĹ‚Ăłwna","kat":"wojewodzka"},"geometry":{"type":"LineString","coordinates":[[19.34805,50.53652],[19.35012,50.5356]]}},{"type":"Feature","properties":{"numer":"791","klasa":"droga gĹ‚Ăłwna","kat":"wojewodzka"},"geometry":{"type":"LineString","coordinates":[[19.34787,50.5366],[19.34805,50.53652]]}},{"type":"Feature","properties":{"numer":"3811S","klasa":"droga zbiorcza","kat":"powiatowa"},"geometry":{"type":"LineString","coordinates":[[19.35164,50.55003],[19.3579,50.54846],[19.3604,50.54804],[19.36099,50.54779],[19.36232,50.54683],[19.36258,50.54653],[19.36362,50.54458],[19.36424,50.54275],[19.36404,50.54255],[19.36329,50.54239],[19.36308,50.54224],[19.363,50.54192],[19.36311,50.54118],[19.36293,50.54069],[19.36597,50.54021],[19.36626,50.5401],[19.36633,50.5382],[19.36854,50.53529],[19.36931,50.53363]]}},{"type":"Feature","properties":{"numer":"791","klasa":"droga gĹ‚Ăłwna","kat":"wojewodzka"},"geometry":{"type":"LineString","coordinates":[[19.32434,50.54929],[19.32548,50.54693],[19.32632,50.54569],[19.32759,50.54449],[19.32912,50.54352],[19.33115,50.54265],[19.34574,50.53746],[19.34787,50.5366]]}},{"type":"Feature","properties":{"numer":"791","klasa":"droga gĹ‚Ăłwna","kat":"wojewodzka"},"geometry":{"type":"LineString","coordinates":[[19.32426,50.54944],[19.32434,50.54929]]}},{"type":"Feature","properties":{"numer":"3811S","klasa":"droga zbiorcza","kat":"powiatowa"},"geometry":{"type":"LineString","coordinates":[[19.35158,50.55005],[19.35164,50.55003]]}},{"type":"Feature","properties":{"numer":"791","klasa":"droga gĹ‚Ăłwna","kat":"wojewodzka"},"geometry":{"type":"LineString","coordinates":[[19.32208,50.5519],[19.32328,50.5508],[19.32426,50.54944]]}},{"type":"Feature","properties":{"numer":"791","klasa":"droga gĹ‚Ăłwna","kat":"wojewodzka"},"geometry":{"type":"LineString","coordinates":[[19.31887,50.55358],[19.32076,50.55275],[19.32208,50.5519]]}},{"type":"Feature","properties":{"numer":"793","klasa":"droga gĹ‚Ăłwna","kat":"wojewodzka"},"geometry":{"type":"LineString","coordinates":[[19.29482,50.53064],[19.29064,50.53695],[19.29234,50.548]]}},{"type":"Feature","properties":{"numer":"3804S","klasa":"droga zbiorcza","kat":"powiatowa"},"geometry":{"type":"LineString","coordinates":[[19.26715,50.54696],[19.26892,50.54658],[19.26951,50.54654],[19.29108,50.54858],[19.29157,50.54848],[19.29234,50.548]]}},{"type":"Feature","properties":{"numer":"791","klasa":"droga gĹ‚Ăłwna","kat":"wojewodzka"},"geometry":{"type":"LineString","coordinates":[[19.31524,50.55482],[19.31887,50.55358]]}},{"type":"Feature","properties":{"numer":"793","klasa":"droga gĹ‚Ăłwna","kat":"wojewodzka"},"geometry":{"type":"LineString","coordinates":[[19.29234,50.548],[19.29255,50.5487],[19.29356,50.54986],[19.29421,50.55114],[19.30154,50.55812],[19.30311,50.5599],[19.3038,50.56043]]}},{"type":"Feature","properties":{"numer":"791","klasa":"droga gĹ‚Ăłwna","kat":"wojewodzka"},"geometry":{"type":"LineString","coordinates":[[19.3038,50.56043],[19.30591,50.55857],[19.30768,50.55749],[19.30909,50.5569],[19.31524,50.55482]]}},{"type":"Feature","properties":{"numer":"793","klasa":"droga gĹ‚Ăłwna","kat":"wojewodzka"},"geometry":{"type":"LineString","coordinates":[[19.3038,50.56043],[19.30498,50.56149]]}},{"type":"Feature","properties":{"numer":"791","klasa":"droga gĹ‚Ăłwna","kat":"wojewodzka"},"geometry":{"type":"LineString","coordinates":[[19.30258,50.56363],[19.30309,50.56139],[19.30333,50.56094],[19.3038,50.56043]]}},{"type":"Feature","properties":{"numer":"793","klasa":"droga gĹ‚Ăłwna","kat":"wojewodzka"},"geometry":{"type":"LineString","coordinates":[[19.30498,50.56149],[19.31366,50.56984]]}},{"type":"Feature","properties":{"numer":"791","klasa":"droga gĹ‚Ăłwna","kat":"wojewodzka"},"geometry":{"type":"LineString","coordinates":[[19.30258,50.56363],[19.30189,50.5651],[19.30109,50.56611],[19.29994,50.56707],[19.29866,50.56792]]}},{"type":"Feature","properties":{"numer":"791","klasa":"droga gĹ‚Ăłwna","kat":"wojewodzka"},"geometry":{"type":"LineString","coordinates":[[19.29866,50.56792],[19.298,50.56837]]}},{"type":"Feature","properties":{"numer":"3803S","klasa":"droga zbiorcza","kat":"powiatowa"},"geometry":{"type":"LineString","coordinates":[[19.22991,50.53706],[19.22863,50.53219],[19.22947,50.52781],[19.23083,50.52538],[19.231103295905587,50.52138792766484]]}},{"type":"Feature","properties":{"numer":"4738S","klasa":"","kat":"powiatowa"},"geometry":{"type":"LineString","coordinates":[[19.26172,50.53358],[19.261929782383422,50.53348260103627]]}},{"type":"Feature","properties":{"numer":"3803S,3804S","klasa":"droga zbiorcza","kat":"powiatowa"},"geometry":{"type":"LineString","coordinates":[[19.22859,50.53727],[19.22991,50.53706]]}},{"type":"Feature","properties":{"numer":"3804S","klasa":"droga zbiorcza","kat":"powiatowa"},"geometry":{"type":"LineString","coordinates":[[19.22055,50.53822],[19.22605,50.53767],[19.22859,50.53727]]}},{"type":"Feature","properties":{"numer":"3804S","klasa":"droga zbiorcza","kat":"powiatowa"},"geometry":{"type":"LineString","coordinates":[[19.22991,50.53706],[19.23218,50.53677],[19.23826,50.53632],[19.24085,50.53682],[19.25207,50.53842],[19.25234,50.53862],[19.25383,50.54134],[19.25605,50.54312],[19.25755,50.54374],[19.25974,50.54429],[19.2657,50.54701],[19.26637,50.5471],[19.26715,50.54696]]}},{"type":"Feature","properties":{"numer":"3803S","klasa":"droga zbiorcza","kat":"powiatowa"},"geometry":{"type":"LineString","coordinates":[[19.22859,50.53727],[19.22862,50.53818],[19.22917,50.53984],[19.22916,50.54047],[19.22893,50.54131],[19.22901,50.54216],[19.22936,50.54309],[19.22995,50.5464],[19.22783,50.55667],[19.22786,50.5572],[19.22831,50.55764],[19.22833,50.55799],[19.22495,50.57015],[19.2251,50.57036],[19.22669,50.57066],[19.22686,50.57078],[19.22586,50.57217],[19.22548,50.57291]]}},{"type":"Feature","properties":{"numer":"3802S","klasa":"droga zbiorcza","kat":"powiatowa"},"geometry":{"type":"LineString","coordinates":[[19.23999,50.57581],[19.2431,50.56718],[19.24359,50.56347],[19.24905,50.5601],[19.251,50.55779],[19.25314,50.55548],[19.26688,50.54738],[19.26709,50.54718],[19.26715,50.54696]]}},{"type":"Feature","properties":{"numer":"3803S","klasa":"droga zbiorcza","kat":"powiatowa"},"geometry":{"type":"LineString","coordinates":[[19.22548,50.57291],[19.22554,50.57311]]}},{"type":"Feature","properties":{"numer":"3801S","klasa":"droga zbiorcza","kat":"powiatowa"},"geometry":{"type":"LineString","coordinates":[[19.23999,50.57581],[19.23824,50.57572],[19.23768,50.57562],[19.2307,50.57314],[19.23004,50.57306],[19.22646,50.57298],[19.22554,50.57311]]}},{"type":"Feature","properties":{"numer":"3801S","klasa":"droga zbiorcza","kat":"powiatowa"},"geometry":{"type":"LineString","coordinates":[[19.28453,50.58628],[19.2708,50.58176],[19.26298,50.57837],[19.26218,50.57811],[19.26081,50.57801],[19.25274,50.5788],[19.25158,50.5788],[19.25096,50.5787],[19.25016,50.57845],[19.24472,50.57606],[19.23999,50.57581]]}},{"type":"Feature","properties":{"numer":"3811S","klasa":"droga zbiorcza","kat":"powiatowa"},"geometry":{"type":"LineString","coordinates":[[19.32854,50.5593],[19.32883,50.55885],[19.333,50.55484],[19.33368,50.55441],[19.33749,50.55293],[19.33799,50.55286],[19.34018,50.55291],[19.34085,50.55284],[19.35158,50.55005]]}},{"type":"Feature","properties":{"numer":"3811S","klasa":"droga zbiorcza","kat":"powiatowa"},"geometry":{"type":"LineString","coordinates":[[19.32853,50.55934],[19.32854,50.5593]]}},{"type":"Feature","properties":{"numer":"3811S","klasa":"droga zbiorcza","kat":"powiatowa"},"geometry":{"type":"LineString","coordinates":[[19.31469,50.57051],[19.32427,50.56655],[19.32516,50.56605],[19.32805,50.56244],[19.32819,50.562],[19.32853,50.55934]]}},{"type":"Feature","properties":{"numer":"1714S","klasa":"droga zbiorcza","kat":"powiatowa"},"geometry":{"type":"LineString","coordinates":[[19.35198,50.5721],[19.35435,50.57184],[19.35627,50.57134]]}},{"type":"Feature","properties":{"numer":"1714S","klasa":"droga zbiorcza","kat":"powiatowa"},"geometry":{"type":"LineString","coordinates":[[19.34779,50.572],[19.34802,50.57202]]}},{"type":"Feature","properties":{"numer":"1714S","klasa":"droga zbiorcza","kat":"powiatowa"},"geometry":{"type":"LineString","coordinates":[[19.35185,50.57211],[19.35198,50.5721]]}},{"type":"Feature","properties":{"numer":"1714S","klasa":"droga zbiorcza","kat":"powiatowa"},"geometry":{"type":"LineString","coordinates":[[19.34802,50.57202],[19.35029,50.57223],[19.35185,50.57211]]}},{"type":"Feature","properties":{"numer":"793","klasa":"droga gĹ‚Ăłwna","kat":"wojewodzka"},"geometry":{"type":"LineString","coordinates":[[19.31879,50.57283],[19.31954,50.57316],[19.32155,50.57367]]}},{"type":"Feature","properties":{"numer":"793","klasa":"droga gĹ‚Ăłwna","kat":"wojewodzka"},"geometry":{"type":"LineString","coordinates":[[19.32155,50.57367],[19.32165,50.57369]]}},{"type":"Feature","properties":{"numer":"793","klasa":"droga gĹ‚Ăłwna","kat":"wojewodzka"},"geometry":{"type":"LineString","coordinates":[[19.32165,50.57369],[19.32361,50.57413]]}},{"type":"Feature","properties":{"numer":"791","klasa":"droga gĹ‚Ăłwna","kat":"wojewodzka"},"geometry":{"type":"LineString","coordinates":[[19.298,50.56837],[19.29669,50.5694],[19.29575,50.5704]]}},{"type":"Feature","properties":{"numer":"793","klasa":"droga gĹ‚Ăłwna","kat":"wojewodzka"},"geometry":{"type":"LineString","coordinates":[[19.31366,50.56984],[19.31444,50.57059]]}},{"type":"Feature","properties":{"numer":"3811S","klasa":"droga zbiorcza","kat":"powiatowa"},"geometry":{"type":"LineString","coordinates":[[19.31444,50.57059],[19.31469,50.57051]]}},{"type":"Feature","properties":{"numer":"793","klasa":"droga gĹ‚Ăłwna","kat":"wojewodzka"},"geometry":{"type":"LineString","coordinates":[[19.31444,50.57059],[19.31503,50.57146]]}},{"type":"Feature","properties":{"numer":"793","klasa":"droga gĹ‚Ăłwna","kat":"wojewodzka"},"geometry":{"type":"LineString","coordinates":[[19.31503,50.57146],[19.3151,50.57159]]}},{"type":"Feature","properties":{"numer":"791","klasa":"droga gĹ‚Ăłwna","kat":"wojewodzka"},"geometry":{"type":"LineString","coordinates":[[19.29575,50.5704],[19.2935,50.57286]]}},{"type":"Feature","properties":{"numer":"793","klasa":"droga gĹ‚Ăłwna","kat":"wojewodzka"},"geometry":{"type":"LineString","coordinates":[[19.3151,50.57159],[19.31541,50.57185],[19.31654,50.57235],[19.31869,50.57279]]}},{"type":"Feature","properties":{"numer":"793","klasa":"droga gĹ‚Ăłwna","kat":"wojewodzka"},"geometry":{"type":"LineString","coordinates":[[19.31869,50.57279],[19.31879,50.57283]]}},{"type":"Feature","properties":{"numer":"3811S","klasa":"droga zbiorcza","kat":"powiatowa"},"geometry":{"type":"LineString","coordinates":[[19.29591,50.57752],[19.31366,50.56984]]}},{"type":"Feature","properties":{"numer":"791","klasa":"droga gĹ‚Ăłwna","kat":"wojewodzka"},"geometry":{"type":"LineString","coordinates":[[19.2935,50.57286],[19.29211,50.57444],[19.29156,50.57527],[19.29123,50.57597]]}},{"type":"Feature","properties":{"numer":"793","klasa":"droga gĹ‚Ăłwna","kat":"wojewodzka"},"geometry":{"type":"LineString","coordinates":[[19.32361,50.57413],[19.32397,50.57423]]}},{"type":"Feature","properties":{"numer":"793","klasa":"droga gĹ‚Ăłwna","kat":"wojewodzka"},"geometry":{"type":"LineString","coordinates":[[19.32397,50.57423],[19.32477,50.57463]]}},{"type":"Feature","properties":{"numer":"410060S","klasa":"droga lokalna","kat":"powiatowa"},"geometry":{"type":"LineString","coordinates":[[19.32826,50.57505],[19.32815,50.57494]]}},{"type":"Feature","properties":{"numer":"410060S","klasa":"droga lokalna","kat":"powiatowa"},"geometry":{"type":"LineString","coordinates":[[19.32815,50.57494],[19.32761,50.5751],[19.32707,50.5751]]}},{"type":"Feature","properties":{"numer":"793","klasa":"droga gĹ‚Ăłwna","kat":"wojewodzka"},"geometry":{"type":"LineString","coordinates":[[19.32477,50.57463],[19.32596,50.57541]]}},{"type":"Feature","properties":{"numer":"410060S","klasa":"droga lokalna","kat":"powiatowa"},"geometry":{"type":"LineString","coordinates":[[19.32826,50.57505],[19.32769,50.57527]]}},{"type":"Feature","properties":{"numer":"3810S","klasa":"droga zbiorcza","kat":"powiatowa"},"geometry":{"type":"LineString","coordinates":[[19.32707,50.5751],[19.32596,50.57541]]}},{"type":"Feature","properties":{"numer":"793","klasa":"droga gĹ‚Ăłwna","kat":"wojewodzka"},"geometry":{"type":"LineString","coordinates":[[19.32596,50.57541],[19.3262,50.57557]]}},{"type":"Feature","properties":{"numer":"3810S","klasa":"droga zbiorcza","kat":"powiatowa"},"geometry":{"type":"LineString","coordinates":[[19.32596,50.57541],[19.325,50.57568]]}},{"type":"Feature","properties":{"numer":"410060S","klasa":"droga lokalna","kat":"powiatowa"},"geometry":{"type":"LineString","coordinates":[[19.32769,50.57527],[19.32773,50.57543],[19.32905,50.57622]]}},{"type":"Feature","properties":{"numer":"793","klasa":"droga gĹ‚Ăłwna","kat":"wojewodzka"},"geometry":{"type":"LineString","coordinates":[[19.3262,50.57557],[19.32699,50.57601],[19.32818,50.57634]]}},{"type":"Feature","properties":{"numer":"410008S","klasa":"droga lokalna","kat":"powiatowa"},"geometry":{"type":"LineString","coordinates":[[19.325,50.57568],[19.32565,50.57638],[19.3262,50.5766]]}},{"type":"Feature","properties":{"numer":"1714S","klasa":"droga zbiorcza","kat":"powiatowa"},"geometry":{"type":"LineString","coordinates":[[19.33614,50.58048],[19.34293,50.57614],[19.34258,50.57325],[19.343,50.57315],[19.34411,50.57267],[19.34695,50.57203],[19.34779,50.572]]}},{"type":"Feature","properties":{"numer":"410060S","klasa":"","kat":"powiatowa"},"geometry":{"type":"LineString","coordinates":[[19.32924,50.57647],[19.32905,50.57622]]}},{"type":"Feature","properties":{"numer":"793","klasa":"droga gĹ‚Ăłwna","kat":"wojewodzka"},"geometry":{"type":"LineString","coordinates":[[19.32818,50.57634],[19.32924,50.57647]]}},{"type":"Feature","properties":{"numer":"793","klasa":"droga gĹ‚Ăłwna","kat":"wojewodzka"},"geometry":{"type":"LineString","coordinates":[[19.32985,50.57662],[19.32924,50.57647]]}},{"type":"Feature","properties":{"numer":"410001S","klasa":"droga lokalna","kat":"powiatowa"},"geometry":{"type":"LineString","coordinates":[[19.32972,50.57667],[19.32985,50.57662]]}},{"type":"Feature","properties":{"numer":"410008S","klasa":"droga lokalna","kat":"powiatowa"},"geometry":{"type":"LineString","coordinates":[[19.3262,50.5766],[19.3276,50.57699]]}},{"type":"Feature","properties":{"numer":"410009S","klasa":"droga lokalna","kat":"powiatowa"},"geometry":{"type":"LineString","coordinates":[[19.32972,50.57667],[19.32913,50.57693]]}},{"type":"Feature","properties":{"numer":"793","klasa":"droga gĹ‚Ăłwna","kat":"wojewodzka"},"geometry":{"type":"LineString","coordinates":[[19.33082,50.57727],[19.32985,50.57662]]}},{"type":"Feature","properties":{"numer":"410009S","klasa":"droga lokalna","kat":"powiatowa"},"geometry":{"type":"LineString","coordinates":[[19.32808,50.57734],[19.32913,50.57693]]}},{"type":"Feature","properties":{"numer":"410008S","klasa":"droga lokalna","kat":"powiatowa"},"geometry":{"type":"LineString","coordinates":[[19.3276,50.57699],[19.32808,50.57734]]}},{"type":"Feature","properties":{"numer":"793","klasa":"droga gĹ‚Ăłwna","kat":"wojewodzka"},"geometry":{"type":"LineString","coordinates":[[19.33614,50.58048],[19.33082,50.57727]]}},{"type":"Feature","properties":{"numer":"793","klasa":"droga gĹ‚Ăłwna","kat":"wojewodzka"},"geometry":{"type":"LineString","coordinates":[[19.35353,50.59059],[19.3474,50.58769],[19.3468,50.58718],[19.3461,50.58609],[19.34536,50.58548],[19.3428,50.58397],[19.33997,50.58272],[19.33614,50.58048]]}},{"type":"Feature","properties":{"numer":"793","klasa":"droga gĹ‚Ăłwna","kat":"wojewodzka"},"geometry":{"type":"LineString","coordinates":[[19.3537,50.59067],[19.35353,50.59059]]}},{"type":"Feature","properties":{"numer":"793","klasa":"droga gĹ‚Ăłwna","kat":"wojewodzka"},"geometry":{"type":"LineString","coordinates":[[19.35447,50.59112],[19.3537,50.59067]]}},{"type":"Feature","properties":{"numer":"3808S","klasa":"","kat":"powiatowa"},"geometry":{"type":"LineString","coordinates":[[19.3564,50.59111],[19.35531,50.59095],[19.3549,50.59096]]}},{"type":"Feature","properties":{"numer":"3808S","klasa":"","kat":"powiatowa"},"geometry":{"type":"LineString","coordinates":[[19.3549,50.59096],[19.35447,50.59112]]}},{"type":"Feature","properties":{"numer":"3808S","klasa":"","kat":"powiatowa"},"geometry":{"type":"LineString","coordinates":[[19.35657,50.59114],[19.3564,50.59111]]}},{"type":"Feature","properties":{"numer":"793","klasa":"droga gĹ‚Ăłwna","kat":"wojewodzka"},"geometry":{"type":"LineString","coordinates":[[19.35505,50.59543],[19.35519,50.59218],[19.35496,50.59162],[19.35447,50.59112]]}},{"type":"Feature","properties":{"numer":"791","klasa":"droga gĹ‚Ăłwna","kat":"wojewodzka"},"geometry":{"type":"LineString","coordinates":[[19.29123,50.57597],[19.29118,50.57611]]}},{"type":"Feature","properties":{"numer":"3811S","klasa":"droga zbiorcza","kat":"powiatowa"},"geometry":{"type":"LineString","coordinates":[[19.29583,50.57756],[19.29591,50.57752]]}},{"type":"Feature","properties":{"numer":"791","klasa":"droga gĹ‚Ăłwna","kat":"wojewodzka"},"geometry":{"type":"LineString","coordinates":[[19.29145,50.58062],[19.29103,50.57984],[19.29092,50.57856],[19.29092,50.57718],[19.29118,50.57611]]}},{"type":"Feature","properties":{"numer":"3811S","klasa":"droga zbiorcza","kat":"powiatowa"},"geometry":{"type":"LineString","coordinates":[[19.29145,50.58062],[19.29206,50.58027],[19.29492,50.57802],[19.29583,50.57756]]}},{"type":"Feature","properties":{"numer":"791","klasa":"droga gĹ‚Ăłwna","kat":"wojewodzka"},"geometry":{"type":"LineString","coordinates":[[19.28453,50.58628],[19.28557,50.5854],[19.28668,50.58374],[19.28695,50.58348],[19.28753,50.5831],[19.29032,50.58164],[19.29145,50.58062]]}},{"type":"Feature","properties":{"numer":"3810S","klasa":"droga zbiorcza","kat":"powiatowa"},"geometry":{"type":"LineString","coordinates":[[19.325,50.57568],[19.32383,50.57609],[19.3232,50.57644],[19.3228,50.57684],[19.32148,50.58007],[19.32113,50.58149],[19.3214,50.58264],[19.32153,50.58519],[19.32055,50.5879],[19.32002,50.58858],[19.31805,50.59013],[19.31743,50.59081],[19.31587,50.59141],[19.31374,50.59254],[19.31361,50.59278],[19.31354,50.59331],[19.31324,50.59367],[19.31034,50.59596],[19.3051,50.59983],[19.30443,50.60054],[19.30386,50.60083],[19.30246,50.60123],[19.30184,50.6021],[19.30087,50.60249],[19.29858,50.60381],[19.29838,50.60413],[19.29766,50.60605]]}},{"type":"Feature","properties":{"numer":"791","klasa":"droga gĹ‚Ăłwna","kat":"wojewodzka"},"geometry":{"type":"LineString","coordinates":[[19.27347,50.59576],[19.27841,50.59114],[19.28453,50.58628]]}},{"type":"Feature","properties":{"numer":"791","klasa":"droga gĹ‚Ăłwna","kat":"wojewodzka"},"geometry":{"type":"LineString","coordinates":[[19.27337,50.59584],[19.27347,50.59576]]}},{"type":"Feature","properties":{"numer":"791","klasa":"droga gĹ‚Ăłwna","kat":"wojewodzka"},"geometry":{"type":"LineString","coordinates":[[19.26238,50.60238],[19.27337,50.59584]]}},{"type":"Feature","properties":{"numer":"789","klasa":"droga gĹ‚Ăłwna","kat":"wojewodzka"},"geometry":{"type":"LineString","coordinates":[[19.28541,50.60288],[19.28629,50.60287]]}},{"type":"Feature","properties":{"numer":"3802S","klasa":"droga zbiorcza","kat":"powiatowa"},"geometry":{"type":"LineString","coordinates":[[19.26238,50.60238],[19.26191,50.60218],[19.24319,50.6007],[19.24251,50.59251],[19.24278,50.58917],[19.24267,50.58912],[19.23704,50.58889],[19.23772,50.58212],[19.23999,50.57581]]}},{"type":"Feature","properties":{"numer":"791","klasa":"droga gĹ‚Ăłwna","kat":"wojewodzka"},"geometry":{"type":"LineString","coordinates":[[19.25678,50.60565],[19.25807,50.60466],[19.26238,50.60238]]}},{"type":"Feature","properties":{"numer":"789,791","klasa":"droga gĹ‚Ăłwna","kat":"gminna"},"geometry":{"type":"LineString","coordinates":[[19.25678,50.60565],[19.26187,50.60588],[19.27117,50.60479]]}},{"type":"Feature","properties":{"numer":"789","klasa":"droga gĹ‚Ăłwna","kat":"wojewodzka"},"geometry":{"type":"LineString","coordinates":[[19.2373,50.60535],[19.23101,50.60509],[19.22306,50.60563]]}},{"type":"Feature","properties":{"numer":"789","klasa":"droga gĹ‚Ăłwna","kat":"wojewodzka"},"geometry":{"type":"LineString","coordinates":[[19.24114,50.60552],[19.2373,50.60535]]}},{"type":"Feature","properties":{"numer":"789","klasa":"droga gĹ‚Ăłwna","kat":"wojewodzka"},"geometry":{"type":"LineString","coordinates":[[19.25678,50.60565],[19.25144,50.60537],[19.24356,50.60561],[19.24122,50.60552]]}},{"type":"Feature","properties":{"numer":"789","klasa":"droga gĹ‚Ăłwna","kat":"wojewodzka"},"geometry":{"type":"LineString","coordinates":[[19.24122,50.60552],[19.24114,50.60552]]}},{"type":"Feature","properties":{"numer":"789","klasa":"droga gĹ‚Ăłwna","kat":"wojewodzka"},"geometry":{"type":"LineString","coordinates":[[19.22306,50.60563],[19.22293,50.60564]]}},{"type":"Feature","properties":{"numer":"3800S","klasa":"","kat":"powiatowa"},"geometry":{"type":"LineString","coordinates":[[19.21622,50.62071],[19.2167,50.62073],[19.21747,50.62111],[19.23014,50.62054],[19.2359,50.62093],[19.23616,50.6209],[19.23638,50.62077],[19.23703,50.6201],[19.23812,50.61854],[19.23822,50.61816],[19.2373,50.60535]]}},{"type":"Feature","properties":{"numer":"791","klasa":"droga gĹ‚Ăłwna","kat":"wojewodzka"},"geometry":{"type":"LineString","coordinates":[[19.26547,50.61998],[19.25624,50.63497],[19.25575,50.63535],[19.24916,50.63924],[19.24875,50.63962],[19.24855,50.6401],[19.24798,50.64362]]}},{"type":"Feature","properties":{"numer":"792","klasa":"droga gĹ‚Ăłwna","kat":"wojewodzka"},"geometry":{"type":"LineString","coordinates":[[19.484658458065436,50.586487293115816],[19.45374,50.59596],[19.45249,50.59628]]}},{"type":"Feature","properties":{"numer":"1713S","klasa":"droga zbiorcza","kat":"powiatowa"},"geometry":{"type":"LineString","coordinates":[[19.45249,50.59628],[19.45285,50.59903],[19.45378,50.60115],[19.46331,50.61059],[19.46741,50.61369],[19.4686,50.6157],[19.4697,50.61665],[19.46993,50.61695],[19.47093,50.62075],[19.47079,50.62456],[19.47034,50.62743],[19.47061,50.62806],[19.47139,50.62893],[19.47189,50.62973],[19.47245,50.63144],[19.47325,50.63283],[19.47423,50.63516],[19.47534,50.63996],[19.47535,50.64033]]}},{"type":"Feature","properties":{"numer":"1712S","klasa":"","kat":"powiatowa"},"geometry":{"type":"LineString","coordinates":[[19.48231,50.64134],[19.4841,50.63997],[19.48584,50.63932],[19.48647,50.63894],[19.49112,50.63474],[19.49308,50.63326],[19.49529,50.63213],[19.50078,50.63055],[19.5037,50.62894],[19.5074,50.62481],[19.50942,50.62341],[19.5101,50.62257],[19.51063,50.62137],[19.51065,50.6192],[19.51197,50.61581],[19.51224,50.61536],[19.51305,50.61476],[19.513650554161238,50.61457707258307]]}},{"type":"Feature","properties":{"numer":"1712S","klasa":"","kat":"powiatowa"},"geometry":{"type":"LineString","coordinates":[[19.51691269450115,50.61398332112934],[19.518116310263917,50.6139078001403]]}},{"type":"Feature","properties":{"numer":"789","klasa":"droga gĹ‚Ăłwna","kat":"wojewodzka"},"geometry":{"type":"LineString","coordinates":[[19.47535,50.64033],[19.47358,50.63974],[19.47299,50.63965],[19.46401,50.63996],[19.46311,50.63991],[19.46247,50.63977],[19.45594,50.63756],[19.45122,50.63693]]}},{"type":"Feature","properties":{"numer":"789","klasa":"droga gĹ‚Ăłwna","kat":"wojewodzka"},"geometry":{"type":"LineString","coordinates":[[19.49305,50.64011],[19.49162,50.64021],[19.48624,50.64087],[19.48251,50.64155]]}},{"type":"Feature","properties":{"numer":"789","klasa":"droga gĹ‚Ăłwna","kat":"wojewodzka"},"geometry":{"type":"LineString","coordinates":[[19.4803,50.64179],[19.47964,50.64128],[19.47729,50.64087],[19.47535,50.64033]]}},{"type":"Feature","properties":{"numer":"1712S","klasa":"","kat":"powiatowa"},"geometry":{"type":"LineString","coordinates":[[19.48231,50.64134],[19.48251,50.64155]]}},{"type":"Feature","properties":{"numer":"1712S","klasa":"","kat":"powiatowa"},"geometry":{"type":"LineString","coordinates":[[19.48196,50.64164],[19.48231,50.64134]]}},{"type":"Feature","properties":{"numer":"789","klasa":"droga gĹ‚Ăłwna","kat":"wojewodzka"},"geometry":{"type":"LineString","coordinates":[[19.48251,50.64155],[19.48196,50.64164]]}},{"type":"Feature","properties":{"numer":"789","klasa":"droga gĹ‚Ăłwna","kat":"wojewodzka"},"geometry":{"type":"LineString","coordinates":[[19.48196,50.64164],[19.48067,50.64186],[19.4803,50.64179]]}},{"type":"Feature","properties":{"numer":"3807S","klasa":"droga zbiorcza","kat":"powiatowa"},"geometry":{"type":"LineString","coordinates":[[19.56133,50.64187],[19.57054,50.64036],[19.58892,50.64002],[19.59574,50.63997],[19.59754,50.63978]]}},{"type":"Feature","properties":{"numer":"1017S","klasa":"droga zbiorcza","kat":"powiatowa"},"geometry":{"type":"LineString","coordinates":[[19.59874,50.64172],[19.5987,50.64166]]}},{"type":"Feature","properties":{"numer":"1017S","klasa":"droga zbiorcza","kat":"powiatowa"},"geometry":{"type":"LineString","coordinates":[[19.611088146911523,50.656715409015035],[19.6107,50.65572],[19.60962,50.65161],[19.60945,50.6513],[19.60754,50.65005],[19.60147,50.6456],[19.60058,50.64468],[19.59874,50.64172]]}},{"type":"Feature","properties":{"numer":"794","klasa":"droga gĹ‚Ăłwna","kat":"wojewodzka"},"geometry":{"type":"LineString","coordinates":[[19.623515767349645,50.64933714738931],[19.6245,50.65152],[19.62455,50.65224],[19.62437,50.65353]]}},{"type":"Feature","properties":{"numer":"1791S","klasa":"droga zbiorcza","kat":"powiatowa"},"geometry":{"type":"LineString","coordinates":[[19.62437,50.65353],[19.62448,50.65353]]}},{"type":"Feature","properties":{"numer":"794","klasa":"droga gĹ‚Ăłwna","kat":"wojewodzka"},"geometry":{"type":"LineString","coordinates":[[19.62437,50.65353],[19.624093768079486,50.655209788705825]]}},{"type":"Feature","properties":{"numer":"794","klasa":"droga gĹ‚Ăłwna","kat":"wojewodzka"},"geometry":{"type":"LineString","coordinates":[[19.623594909208812,50.65698220492868],[19.62338,50.65762],[19.623202028655115,50.65800651926445]]}},{"type":"Feature","properties":{"numer":"789","klasa":"droga gĹ‚Ăłwna","kat":"wojewodzka"},"geometry":{"type":"LineString","coordinates":[[19.57049485205235,50.65736096652126],[19.56647,50.65512]]}},{"type":"Feature","properties":{"numer":"1711S","klasa":"droga zbiorcza","kat":"powiatowa"},"geometry":{"type":"LineString","coordinates":[[19.56133,50.64187],[19.55592,50.62862],[19.55485,50.62627],[19.5408,50.6164],[19.53997,50.61499],[19.53829,50.6133]]}},{"type":"Feature","properties":{"numer":"789","klasa":"droga gĹ‚Ăłwna","kat":"wojewodzka"},"geometry":{"type":"LineString","coordinates":[[19.56647,50.65512],[19.55987,50.65005],[19.55937,50.64978],[19.55768,50.64924],[19.55723,50.64902],[19.55532,50.64721],[19.5546,50.64681],[19.55378,50.64663],[19.5481,50.6457],[19.54507,50.64462],[19.5427,50.6439],[19.53767,50.64352],[19.52343,50.64218],[19.52314,50.64206],[19.52297,50.64188],[19.52271,50.64072],[19.52214,50.63959],[19.52198,50.63941],[19.52167,50.63929],[19.50528,50.63964],[19.49305,50.64011]]}},{"type":"Feature","properties":{"numer":"1711S","klasa":"droga zbiorcza","kat":"powiatowa"},"geometry":{"type":"LineString","coordinates":[[19.56647,50.65512],[19.5667,50.65494],[19.56667,50.65475],[19.56133,50.64187]]}},{"type":"Feature","properties":{"numer":"1015S","klasa":"droga zbiorcza","kat":"powiatowa"},"geometry":{"type":"LineString","coordinates":[[19.55925372565988,50.66479646473388],[19.55828,50.66497],[19.54538,50.66577],[19.53525,50.66807],[19.52948,50.66802],[19.52812,50.66791],[19.52696,50.66757],[19.52497,50.66667],[19.52325,50.66565],[19.52248,50.66541],[19.5133,50.66509],[19.51193,50.66493],[19.50892,50.66442]]}},{"type":"Feature","properties":{"numer":"1016S","klasa":"","kat":"powiatowa"},"geometry":{"type":"LineString","coordinates":[[19.510623294920148,50.673434392745875],[19.50772,50.67221],[19.50629,50.67134],[19.50664,50.66848],[19.50762,50.66457],[19.50775,50.66447],[19.50892,50.66442]]}},{"type":"Feature","properties":{"numer":"1016S","klasa":"","kat":"powiatowa"},"geometry":{"type":"LineString","coordinates":[[19.49305,50.64011],[19.49329,50.64096],[19.5003,50.65],[19.50072,50.65029],[19.5013,50.65049],[19.50358,50.65068],[19.50423,50.65082],[19.50494,50.65127],[19.50572,50.6522],[19.5058,50.65262],[19.50561,50.65301],[19.50398,50.65432],[19.5033,50.65468],[19.50171,50.65517],[19.50111,50.65561],[19.50076,50.65639],[19.50032,50.65848],[19.50078,50.65901],[19.50239,50.65956],[19.50269,50.65975],[19.50387,50.66124],[19.50427,50.66156],[19.50573,50.66227],[19.50646,50.66254],[19.50731,50.66277],[19.50903,50.66297],[19.50909,50.66309],[19.50892,50.66442]]}},{"type":"Feature","properties":{"numer":"1014S","klasa":"droga zbiorcza","kat":"powiatowa"},"geometry":{"type":"LineString","coordinates":[[19.4803,50.64179],[19.48006,50.64196],[19.48108,50.64596],[19.48175,50.64981],[19.48091,50.65248],[19.47981,50.65402],[19.47962,50.6552],[19.47856,50.65746],[19.47859,50.65945],[19.47539,50.6596],[19.4727,50.65921],[19.47204,50.65922],[19.46612,50.66109],[19.46393,50.66169],[19.46359,50.66184],[19.46346,50.66205],[19.46355,50.6623],[19.4639,50.66258],[19.47117,50.66692],[19.47143,50.66721],[19.47178,50.66823],[19.47207,50.66862],[19.47469,50.67051],[19.47507,50.67089],[19.47519,50.67124],[19.47517,50.67279],[19.47487,50.67471],[19.47443,50.67596],[19.47357,50.67719],[19.47313,50.67839]]}},{"type":"Feature","properties":{"numer":"1713S","klasa":"droga zbiorcza","kat":"powiatowa"},"geometry":{"type":"LineString","coordinates":[[19.449191521739127,50.586002173913045],[19.44971,50.58655]]}},{"type":"Feature","properties":{"numer":"792","klasa":"droga gĹ‚Ăłwna","kat":"wojewodzka"},"geometry":{"type":"LineString","coordinates":[[19.41651,50.60317],[19.41637,50.60326]]}},{"type":"Feature","properties":{"numer":"792","klasa":"droga gĹ‚Ăłwna","kat":"wojewodzka"},"geometry":{"type":"LineString","coordinates":[[19.41637,50.60326],[19.40939,50.60759],[19.40782,50.60848]]}},{"type":"Feature","properties":{"numer":"792","klasa":"droga gĹ‚Ăłwna","kat":"wojewodzka"},"geometry":{"type":"LineString","coordinates":[[19.40284,50.60832],[19.40268,50.60833]]}},{"type":"Feature","properties":{"numer":"792","klasa":"droga gĹ‚Ăłwna","kat":"wojewodzka"},"geometry":{"type":"LineString","coordinates":[[19.40268,50.60833],[19.39972,50.60848]]}},{"type":"Feature","properties":{"numer":"792","klasa":"droga gĹ‚Ăłwna","kat":"wojewodzka"},"geometry":{"type":"LineString","coordinates":[[19.40782,50.60848],[19.40692,50.60861],[19.40413,50.60836],[19.40284,50.60832]]}},{"type":"Feature","properties":{"numer":"792","klasa":"droga gĹ‚Ăłwna","kat":"wojewodzka"},"geometry":{"type":"LineString","coordinates":[[19.40783,50.60863],[19.40782,50.60848]]}},{"type":"Feature","properties":{"numer":"651001S","klasa":"droga lokalna","kat":"powiatowa"},"geometry":{"type":"LineString","coordinates":[[19.40745,50.6087],[19.40783,50.60863]]}},{"type":"Feature","properties":{"numer":"651001S","klasa":"droga lokalna","kat":"powiatowa"},"geometry":{"type":"LineString","coordinates":[[19.40691,50.60877],[19.40745,50.6087]]}},{"type":"Feature","properties":{"numer":"1715S","klasa":"","kat":"powiatowa"},"geometry":{"type":"LineString","coordinates":[[19.384686043696387,50.537640622754495],[19.38082,50.53692]]}},{"type":"Feature","properties":{"numer":"1714S","klasa":"droga zbiorcza","kat":"powiatowa"},"geometry":{"type":"LineString","coordinates":[[19.35627,50.57134],[19.36366,50.56933],[19.36637,50.57322],[19.36677,50.57352],[19.37127,50.57201],[19.37332,50.57165],[19.37758,50.5715],[19.37977,50.5716],[19.38228,50.57191],[19.384535152440527,50.57150173964438]]}},{"type":"Feature","properties":{"numer":"3808S","klasa":"","kat":"powiatowa"},"geometry":{"type":"LineString","coordinates":[[19.39972,50.60848],[19.39914,50.60605],[19.39899,50.60579],[19.38945,50.60032],[19.36017,50.59266],[19.35703,50.59126],[19.35657,50.59114]]}},{"type":"Feature","properties":{"numer":"792","klasa":"droga gĹ‚Ăłwna","kat":"wojewodzka"},"geometry":{"type":"LineString","coordinates":[[19.39972,50.60848],[19.38964,50.60894],[19.38855,50.6092],[19.38664,50.61071],[19.38576,50.61164],[19.38341,50.6138],[19.3811,50.61632],[19.37934,50.61774]]}},{"type":"Feature","properties":{"numer":"651001S","klasa":"droga lokalna","kat":"powiatowa"},"geometry":{"type":"LineString","coordinates":[[19.38782,50.61625],[19.395,50.61491],[19.3972,50.61425],[19.39972,50.61319],[19.40087,50.61211],[19.40233,50.61102],[19.4036,50.6102]]}},{"type":"Feature","properties":{"numer":"651001S","klasa":"droga lokalna","kat":"powiatowa"},"geometry":{"type":"LineString","coordinates":[[19.37934,50.61774],[19.38156,50.61745],[19.38782,50.61625]]}},{"type":"Feature","properties":{"numer":"792","klasa":"droga gĹ‚Ăłwna","kat":"wojewodzka"},"geometry":{"type":"LineString","coordinates":[[19.37934,50.61774],[19.37836,50.61841],[19.37247,50.62194],[19.37196,50.62223],[19.37128,50.62242]]}},{"type":"Feature","properties":{"numer":"789","klasa":"droga gĹ‚Ăłwna","kat":"wojewodzka"},"geometry":{"type":"LineString","coordinates":[[19.37133,50.62254],[19.37128,50.62242]]}},{"type":"Feature","properties":{"numer":"789","klasa":"droga gĹ‚Ăłwna","kat":"wojewodzka"},"geometry":{"type":"LineString","coordinates":[[19.37128,50.62242],[19.36394,50.62371]]}},{"type":"Feature","properties":{"numer":"789","klasa":"droga gĹ‚Ăłwna","kat":"wojewodzka"},"geometry":{"type":"LineString","coordinates":[[19.37046,50.62437],[19.37077,50.6236],[19.37139,50.62264],[19.37133,50.62254]]}},{"type":"Feature","properties":{"numer":"789","klasa":"droga gĹ‚Ăłwna","kat":"wojewodzka"},"geometry":{"type":"LineString","coordinates":[[19.37046,50.62437],[19.37016,50.62399],[19.36976,50.62368],[19.36977,50.62359],[19.37117,50.62272],[19.37133,50.62254]]}},{"type":"Feature","properties":{"numer":"793","klasa":"droga gĹ‚Ăłwna","kat":"wojewodzka"},"geometry":{"type":"LineString","coordinates":[[19.364,50.62652],[19.36423,50.627]]}},{"type":"Feature","properties":{"numer":"793","klasa":"droga gĹ‚Ăłwna","kat":"wojewodzka"},"geometry":{"type":"LineString","coordinates":[[19.36423,50.627],[19.36426,50.62706]]}},{"type":"Feature","properties":{"numer":"793","klasa":"droga gĹ‚Ăłwna","kat":"wojewodzka"},"geometry":{"type":"LineString","coordinates":[[19.36426,50.62706],[19.36442,50.6276],[19.36436,50.62809],[19.35882,50.63946],[19.35863,50.63988],[19.35864,50.64021],[19.35912,50.64077],[19.3638,50.64474],[19.36596,50.64612],[19.36978,50.64783],[19.37146,50.64896]]}},{"type":"Feature","properties":{"numer":"793","klasa":"droga gĹ‚Ăłwna","kat":"wojewodzka"},"geometry":{"type":"LineString","coordinates":[[19.37146,50.64896],[19.37154,50.64899]]}},{"type":"Feature","properties":{"numer":"793","klasa":"droga gĹ‚Ăłwna","kat":"wojewodzka"},"geometry":{"type":"LineString","coordinates":[[19.37154,50.64899],[19.3734,50.64952],[19.37528,50.65079],[19.37574,50.65125],[19.37597,50.65164],[19.37617,50.65268],[19.37629,50.65518],[19.37642,50.65584],[19.37677,50.65616],[19.37804,50.65701],[19.38081,50.65935],[19.38117,50.65953],[19.38232,50.65979],[19.38251,50.65991],[19.3825,50.66169],[19.38283,50.66261],[19.38312234584395,50.662946609475256]]}},{"type":"Feature","properties":{"numer":"1713S","klasa":"droga zbiorcza","kat":"powiatowa"},"geometry":{"type":"LineString","coordinates":[[19.44971,50.58655],[19.45104,50.58794],[19.45142,50.5886],[19.45192,50.59319],[19.45228,50.59422],[19.45249,50.59628]]}},{"type":"Feature","properties":{"numer":"792","klasa":"droga gĹ‚Ăłwna","kat":"wojewodzka"},"geometry":{"type":"LineString","coordinates":[[19.45249,50.59628],[19.45061,50.59659],[19.44959,50.59663],[19.43226,50.59531],[19.43122,50.59532],[19.43034,50.59544],[19.42959,50.59563],[19.42873,50.596],[19.41651,50.60317]]}},{"type":"Feature","properties":{"numer":"3806S","klasa":"droga zbiorcza","kat":"powiatowa"},"geometry":{"type":"LineString","coordinates":[[19.45122,50.63693],[19.45256,50.64175],[19.45355,50.64309],[19.45349,50.64359],[19.45329,50.64407],[19.45309,50.64409],[19.45232,50.64391],[19.44948,50.64378],[19.4443,50.6432],[19.44341,50.64313],[19.44284,50.64317],[19.44215,50.64339],[19.44067,50.64421],[19.43918,50.64569],[19.43877,50.64627],[19.43867,50.64696],[19.43927,50.65708],[19.43904,50.65756],[19.43588,50.66093],[19.43601,50.66271],[19.43403,50.66641],[19.43405,50.66784],[19.43561,50.66941],[19.43571,50.66965],[19.43512,50.67112],[19.43415,50.673],[19.43458,50.67522],[19.43585,50.67778],[19.43593,50.67834],[19.43578,50.67916],[19.43499,50.68008],[19.43379,50.68107],[19.43376,50.6812],[19.43411914247431,50.68136959505731]]}},{"type":"Feature","properties":{"numer":"3806S","klasa":"droga zbiorcza","kat":"powiatowa"},"geometry":{"type":"LineString","coordinates":[[19.43945329832623,50.68166195930423],[19.43975,50.68167],[19.44098,50.68248],[19.441906256481495,50.68339726370012]]}},{"type":"Feature","properties":{"numer":"3806S","klasa":"droga zbiorcza","kat":"powiatowa"},"geometry":{"type":"LineString","coordinates":[[19.44205159894612,50.68350611749208],[19.44235,50.68355],[19.44251,50.68339],[19.44548,50.67653],[19.45194,50.67824],[19.45479,50.67887],[19.45808,50.67881],[19.45926,50.67889],[19.46164,50.67845],[19.47313,50.67839]]}},{"type":"Feature","properties":{"numer":"1014S","klasa":"droga zbiorcza","kat":"powiatowa"},"geometry":{"type":"LineString","coordinates":[[19.46882714399299,50.68449588915853],[19.47313,50.67839]]}},{"type":"Feature","properties":{"numer":"651001S","klasa":"droga lokalna","kat":"powiatowa"},"geometry":{"type":"LineString","coordinates":[[19.40491,50.60953],[19.40593,50.60899],[19.40691,50.60877]]}},{"type":"Feature","properties":{"numer":"651001S","klasa":"droga lokalna","kat":"powiatowa"},"geometry":{"type":"LineString","coordinates":[[19.40396,50.61001],[19.40491,50.60953]]}},{"type":"Feature","properties":{"numer":"651001S","klasa":"droga lokalna","kat":"powiatowa"},"geometry":{"type":"LineString","coordinates":[[19.4036,50.6102],[19.40396,50.61001]]}},{"type":"Feature","properties":{"numer":"789","klasa":"droga gĹ‚Ăłwna","kat":"wojewodzka"},"geometry":{"type":"LineString","coordinates":[[19.45122,50.63693],[19.43535,50.63494],[19.43043,50.63464],[19.42779,50.63406],[19.41819,50.63377],[19.41377,50.63409],[19.40954,50.63363],[19.40888,50.6335],[19.40646,50.63272],[19.39472,50.63021],[19.39195,50.63021],[19.39016,50.63],[19.38958,50.63],[19.37922,50.63044],[19.37842,50.63051],[19.37728,50.63077],[19.3769,50.63074],[19.37637,50.63052],[19.37283,50.62758],[19.37046,50.62437]]}}]}