{"type":"FeatureCollection","features":[{"type":"Feature","properties":{"numer":"364002S","klasa":"droga lokalna","kat":"powiatowa"},"geometry":{"type":"LineString","coordinates":[[18.59852,50.15382],[18.60081,50.15293]]}},{"type":"Feature","properties":{"numer":"2907S","klasa":"droga zbiorcza","kat":"powiatowa"},"geometry":{"type":"LineString","coordinates":[[18.61233,50.17782],[18.61058,50.17507],[18.604,50.16736],[18.60385,50.16685],[18.60397,50.16646],[18.60413,50.16609],[18.6048,50.16538],[18.60488,50.16515],[18.60454,50.16443],[18.60465,50.16374],[18.60455,50.16321],[18.60398,50.16218],[18.60267,50.16101],[18.60166,50.15992],[18.60136,50.15973],[18.59981,50.15913],[18.59948,50.15892],[18.59908,50.15845],[18.599,50.15808],[18.59903,50.15642],[18.59872,50.15539],[18.59867,50.15437],[18.59852,50.15382]]}},{"type":"Feature","properties":{"numer":"5343S","klasa":"droga zbiorcza","kat":"powiatowa"},"geometry":{"type":"LineString","coordinates":[[18.74880945376106,50.166785462866635],[18.74859,50.16677],[18.7457,50.16598],[18.74496,50.16586],[18.73704,50.16564],[18.73491,50.16574],[18.73242,50.16557],[18.73046,50.16574],[18.72804,50.16613],[18.72468,50.16721]]}},{"type":"Feature","properties":{"numer":"5341S","klasa":"","kat":"powiatowa"},"geometry":{"type":"LineString","coordinates":[[18.73356545038893,50.18149709755953],[18.73114,50.17953],[18.72779,50.17651],[18.72571,50.17416],[18.72227,50.16793],[18.72417,50.16752],[18.72455,50.16735],[18.72468,50.16721]]}},{"type":"Feature","properties":{"numer":"A1","klasa":"autostrada","kat":"krajowa"},"geometry":{"type":"LineString","coordinates":[[18.71495,50.16816],[18.71537,50.17025],[18.71539,50.17197],[18.71501,50.17411],[18.7144,50.17572],[18.71372,50.17699],[18.71263,50.17861],[18.70981357148838,50.182211914855316]]}},{"type":"Feature","properties":{"numer":"5621S","klasa":"","kat":"powiatowa"},"geometry":{"type":"LineString","coordinates":[[18.66355,50.15891],[18.67165,50.16088],[18.67281,50.16143],[18.67526,50.16157],[18.67593,50.16835]]}},{"type":"Feature","properties":{"numer":"5621S","klasa":"","kat":"powiatowa"},"geometry":{"type":"LineString","coordinates":[[18.67594,50.16844],[18.67593,50.16835]]}},{"type":"Feature","properties":{"numer":"5621S","klasa":"","kat":"powiatowa"},"geometry":{"type":"LineString","coordinates":[[18.67594,50.16844],[18.676537512293248,50.1746502097364]]}},{"type":"Feature","properties":{"numer":"5621S","klasa":"","kat":"powiatowa"},"geometry":{"type":"LineString","coordinates":[[18.68385304561274,50.17403344346122],[18.70393,50.17005]]}},{"type":"Feature","properties":{"numer":"930","klasa":"droga gĹ‚Ăłwna","kat":"wojewodzka"},"geometry":{"type":"LineString","coordinates":[[18.57932,50.00265],[18.5797,50.00191],[18.57956,50.00115],[18.57841,49.99899],[18.57703,49.99723],[18.576841778670296,49.996898371942905]]}},{"type":"Feature","properties":{"numer":"A1","klasa":"autostrada","kat":"krajowa"},"geometry":{"type":"LineString","coordinates":[[18.57641,49.99934],[18.57783,50.00103],[18.57911,50.00294]]}},{"type":"Feature","properties":{"numer":"930","klasa":"droga gĹ‚Ăłwna","kat":"wojewodzka"},"geometry":{"type":"LineString","coordinates":[[18.57911,50.00294],[18.57932,50.00265]]}},{"type":"Feature","properties":{"numer":"930","klasa":"droga gĹ‚Ăłwna","kat":"wojewodzka"},"geometry":{"type":"LineString","coordinates":[[18.57891,50.0032],[18.57911,50.00294]]}},{"type":"Feature","properties":{"numer":"930","klasa":"droga gĹ‚Ăłwna","kat":"wojewodzka"},"geometry":{"type":"LineString","coordinates":[[18.57699,50.01843],[18.57712,50.01747],[18.57793,50.01593],[18.57891,50.01114],[18.57885,50.01059],[18.57806,50.00882],[18.57794,50.0081],[18.57859,50.00614],[18.57818,50.00479],[18.57817,50.00438],[18.57835,50.00395],[18.57891,50.0032]]}},{"type":"Feature","properties":{"numer":"932","klasa":"droga gĹ‚Ăłwna","kat":"wojewodzka"},"geometry":{"type":"LineString","coordinates":[[18.57699,50.01843],[18.57614,50.01805],[18.57545,50.01788],[18.57304,50.01799],[18.57219,50.01795],[18.56654,50.017],[18.56205,50.01646],[18.5614,50.01642],[18.55916,50.01652],[18.55845,50.01631],[18.55647,50.01501],[18.55567,50.01487],[18.555256890060026,50.01488435517166]]}},{"type":"Feature","properties":{"numer":"932","klasa":"droga gĹ‚Ăłwna","kat":"wojewodzka"},"geometry":{"type":"LineString","coordinates":[[18.58932,50.02708],[18.58831,50.02642],[18.58634,50.02469],[18.58377,50.02263],[18.57699,50.01843]]}},{"type":"Feature","properties":{"numer":"929","klasa":"droga gĹ‚Ăłwna","kat":"wojewodzka"},"geometry":{"type":"LineString","coordinates":[[18.57298,50.04318],[18.57787,50.03852],[18.58123,50.03397],[18.58193,50.0332],[18.5826,50.03268],[18.58889,50.02863]]}},{"type":"Feature","properties":{"numer":"5610S","klasa":"droga zbiorcza","kat":"powiatowa"},"geometry":{"type":"LineString","coordinates":[[18.57372,50.04322],[18.58023,50.04348],[18.58136,50.04336],[18.58499,50.04271]]}},{"type":"Feature","properties":{"numer":"5610S","klasa":"droga zbiorcza","kat":"powiatowa"},"geometry":{"type":"LineString","coordinates":[[18.57231,50.04315],[18.57298,50.04318]]}},{"type":"Feature","properties":{"numer":"5610S","klasa":"droga zbiorcza","kat":"powiatowa"},"geometry":{"type":"LineString","coordinates":[[18.57298,50.04318],[18.57372,50.04322]]}},{"type":"Feature","properties":{"numer":"5610S","klasa":"droga zbiorcza","kat":"powiatowa"},"geometry":{"type":"LineString","coordinates":[[18.531927479925663,50.046099963044554],[18.53664,50.04609],[18.55529,50.04244],[18.55654,50.04227],[18.56575,50.04285],[18.57231,50.04315]]}},{"type":"Feature","properties":{"numer":"929","klasa":"droga gĹ‚Ăłwna","kat":"wojewodzka"},"geometry":{"type":"LineString","coordinates":[[18.56709,50.04875],[18.57298,50.04318]]}},{"type":"Feature","properties":{"numer":"619058S","klasa":"droga lokalna","kat":"powiatowa"},"geometry":{"type":"LineString","coordinates":[[18.56754,50.0491],[18.56709,50.04875]]}},{"type":"Feature","properties":{"numer":"619058S","klasa":"droga lokalna","kat":"powiatowa"},"geometry":{"type":"LineString","coordinates":[[18.57036,50.05058],[18.56754,50.0491]]}},{"type":"Feature","properties":{"numer":"619058S","klasa":"droga lokalna","kat":"powiatowa"},"geometry":{"type":"LineString","coordinates":[[18.57182,50.05104],[18.57036,50.05058]]}},{"type":"Feature","properties":{"numer":"619058S","klasa":"droga lokalna","kat":"powiatowa"},"geometry":{"type":"LineString","coordinates":[[18.57257,50.05127],[18.57182,50.05104]]}},{"type":"Feature","properties":{"numer":"7026S","klasa":"","kat":"powiatowa"},"geometry":{"type":"LineString","coordinates":[[18.532731449748,50.046949181737325],[18.53273,50.04694],[18.532720118266745,50.04693028026237]]}},{"type":"Feature","properties":{"numer":"7026S","klasa":"droga zbiorcza","kat":"powiatowa"},"geometry":{"type":"LineString","coordinates":[[18.533738711326578,50.04862934420449],[18.53384,50.04871]]}},{"type":"Feature","properties":{"numer":"7026S","klasa":"","kat":"powiatowa"},"geometry":{"type":"LineString","coordinates":[[18.53432,50.04936],[18.5342,50.04909],[18.53384,50.04871]]}},{"type":"Feature","properties":{"numer":"7026S","klasa":"droga zbiorcza","kat":"powiatowa"},"geometry":{"type":"LineString","coordinates":[[18.53439585798108,50.049725497545204],[18.53432,50.04936]]}},{"type":"Feature","properties":{"numer":"7026S","klasa":"","kat":"powiatowa"},"geometry":{"type":"LineString","coordinates":[[18.534848364580327,50.0521901211422],[18.53499,50.05166],[18.53505227647432,50.05095716550411]]}},{"type":"Feature","properties":{"numer":"7026S","klasa":"droga zbiorcza","kat":"powiatowa"},"geometry":{"type":"LineString","coordinates":[[18.53488885106383,50.05194531914894],[18.53498,50.05157]]}},{"type":"Feature","properties":{"numer":"7806S","klasa":"droga zbiorcza","kat":"powiatowa"},"geometry":{"type":"LineString","coordinates":[[18.60541,50.01745],[18.6049,50.0173],[18.60438,50.01685],[18.60402,50.01622],[18.60386,50.01552],[18.60436,50.0121],[18.60484,50.01082],[18.60459,50.00848],[18.60468,50.00754],[18.60526,50.0033],[18.605523970318004,50.002406840156894]]}},{"type":"Feature","properties":{"numer":"A1","klasa":"autostrada","kat":"krajowa"},"geometry":{"type":"LineString","coordinates":[[18.57911,50.00294],[18.58069,50.00528],[18.58303,50.00838],[18.58428,50.0097],[18.58593,50.01119],[18.58902,50.01345],[18.59622,50.01805],[18.59831,50.01971]]}},{"type":"Feature","properties":{"numer":"7800S","klasa":"droga zbiorcza","kat":"powiatowa"},"geometry":{"type":"LineString","coordinates":[[18.61199,50.01563],[18.61206104731096,50.01560868580671]]}},{"type":"Feature","properties":{"numer":"5612S","klasa":"droga zbiorcza","kat":"powiatowa"},"geometry":{"type":"LineString","coordinates":[[18.60541,50.01745],[18.60619,50.01743],[18.60659,50.01735],[18.60929,50.0164],[18.61199,50.01563]]}},{"type":"Feature","properties":{"numer":"5612S","klasa":"droga zbiorcza","kat":"powiatowa"},"geometry":{"type":"LineString","coordinates":[[18.59869,50.01957],[18.60168,50.01846],[18.60416,50.01764],[18.60473,50.01749],[18.60541,50.01745]]}},{"type":"Feature","properties":{"numer":"5612S","klasa":"droga zbiorcza","kat":"powiatowa"},"geometry":{"type":"LineString","coordinates":[[18.59831,50.01971],[18.59869,50.01957]]}},{"type":"Feature","properties":{"numer":"5612S","klasa":"droga zbiorcza","kat":"powiatowa"},"geometry":{"type":"LineString","coordinates":[[18.59793,50.01984],[18.59831,50.01971]]}},{"type":"Feature","properties":{"numer":"A1","klasa":"autostrada","kat":"krajowa"},"geometry":{"type":"LineString","coordinates":[[18.59831,50.01971],[18.59962,50.02101],[18.60061,50.02232],[18.60156,50.02396],[18.60215,50.0256]]}},{"type":"Feature","properties":{"numer":"5612S","klasa":"droga zbiorcza","kat":"powiatowa"},"geometry":{"type":"LineString","coordinates":[[18.58932,50.02708],[18.59011,50.02669],[18.59222,50.02611],[18.59329,50.02549],[18.59456,50.02417],[18.5949,50.02239],[18.59608,50.0206],[18.59644,50.02034],[18.59793,50.01984]]}},{"type":"Feature","properties":{"numer":"A1","klasa":"autostrada","kat":"krajowa"},"geometry":{"type":"LineString","coordinates":[[18.60215,50.0256],[18.60335,50.02547],[18.60393,50.02548],[18.60451,50.02569],[18.6048,50.02607],[18.60476,50.02644],[18.60443,50.02676],[18.60255,50.02744]]}},{"type":"Feature","properties":{"numer":"A1","klasa":"autostrada","kat":"krajowa"},"geometry":{"type":"LineString","coordinates":[[18.60215,50.0256],[18.60255,50.02744]]}},{"type":"Feature","properties":{"numer":"932","klasa":"droga gĹ‚Ăłwna","kat":"wojewodzka"},"geometry":{"type":"LineString","coordinates":[[18.59046,50.02759],[18.58932,50.02708]]}},{"type":"Feature","properties":{"numer":"929","klasa":"droga gĹ‚Ăłwna","kat":"wojewodzka"},"geometry":{"type":"LineString","coordinates":[[18.58889,50.02863],[18.59046,50.02759]]}},{"type":"Feature","properties":{"numer":"A1","klasa":"autostrada","kat":"krajowa"},"geometry":{"type":"LineString","coordinates":[[18.60128,50.03075],[18.59901,50.02777],[18.59884,50.0274],[18.59883,50.02698],[18.59911,50.02646],[18.5995,50.02614],[18.59991,50.02595],[18.60041,50.02582],[18.60215,50.0256]]}},{"type":"Feature","properties":{"numer":"A1","klasa":"autostrada","kat":"krajowa"},"geometry":{"type":"LineString","coordinates":[[18.60255,50.02744],[18.60321,50.03082]]}},{"type":"Feature","properties":{"numer":"932","klasa":"droga gĹ‚Ăłwna","kat":"wojewodzka"},"geometry":{"type":"LineString","coordinates":[[18.60102,50.03073],[18.60018,50.03074],[18.59907,50.0306],[18.59551,50.0297],[18.59372,50.02908],[18.59046,50.02759]]}},{"type":"Feature","properties":{"numer":"932","klasa":"droga gĹ‚Ăłwna","kat":"wojewodzka"},"geometry":{"type":"LineString","coordinates":[[18.60128,50.03075],[18.60102,50.03073]]}},{"type":"Feature","properties":{"numer":"932","klasa":"droga gĹ‚Ăłwna","kat":"wojewodzka"},"geometry":{"type":"LineString","coordinates":[[18.60148,50.03086],[18.60128,50.03075]]}},{"type":"Feature","properties":{"numer":"932","klasa":"droga gĹ‚Ăłwna","kat":"wojewodzka"},"geometry":{"type":"LineString","coordinates":[[18.60148,50.03086],[18.60247147799048,50.03116111553785]]}},{"type":"Feature","properties":{"numer":"A1,E75","klasa":"autostrada","kat":"krajowa"},"geometry":{"type":"LineString","coordinates":[[18.60321,50.03082],[18.603224468356224,50.03089497239134]]}},{"type":"Feature","properties":{"numer":"5611S","klasa":"droga zbiorcza","kat":"powiatowa"},"geometry":{"type":"LineString","coordinates":[[18.590848042226487,50.03575114633662],[18.5889,50.0315],[18.58889,50.02863]]}},{"type":"Feature","properties":{"numer":"A1","klasa":"autostrada","kat":"krajowa"},"geometry":{"type":"LineString","coordinates":[[18.60363228964559,50.0327107886032],[18.60366,50.03282],[18.60438,50.03449],[18.60545,50.03611],[18.6061,50.03688],[18.60752,50.03829],[18.60913,50.03947],[18.61064,50.04038]]}},{"type":"Feature","properties":{"numer":"A1,E75","klasa":"autostrada","kat":"krajowa"},"geometry":{"type":"LineString","coordinates":[[18.61067,50.0404],[18.610674181818183,50.04040209090909]]}},{"type":"Feature","properties":{"numer":"9002S","klasa":"droga zbiorcza","kat":"powiatowa"},"geometry":{"type":"LineString","coordinates":[[18.6105,50.04064],[18.61064299526066,50.040466900473945]]}},{"type":"Feature","properties":{"numer":"9002S","klasa":"droga zbiorcza","kat":"powiatowa"},"geometry":{"type":"LineString","coordinates":[[18.609311939222753,50.04247483880393],[18.60942,50.04163],[18.6105,50.04064]]}},{"type":"Feature","properties":{"numer":"5610S","klasa":"droga zbiorcza","kat":"powiatowa"},"geometry":{"type":"LineString","coordinates":[[18.58573,50.04258],[18.587976941123394,50.04220428197609]]}},{"type":"Feature","properties":{"numer":"5610S","klasa":"droga zbiorcza","kat":"powiatowa"},"geometry":{"type":"LineString","coordinates":[[18.58499,50.04271],[18.58573,50.04258]]}},{"type":"Feature","properties":{"numer":"","klasa":"droga wewnÄ™trzna","kat":"gminna"},"geometry":{"type":"LineString","coordinates":[[18.58292,50.05471],[18.58301464048415,50.054691206144994]]}},{"type":"Feature","properties":{"numer":"7025S","klasa":"","kat":"powiatowa"},"geometry":{"type":"LineString","coordinates":[[18.5808,50.05605],[18.581083085115125,50.05627809735895]]}},{"type":"Feature","properties":{"numer":"5312S","klasa":"droga zbiorcza","kat":"powiatowa"},"geometry":{"type":"LineString","coordinates":[[18.72486,50.09906],[18.72559,50.09805],[18.72603,50.09543],[18.72708,50.0907],[18.72689,50.08991],[18.72709,50.08765],[18.727,50.08716],[18.72648,50.08509],[18.72632,50.08483],[18.72559,50.08436],[18.72569,50.08356],[18.72551,50.0831],[18.7259543324937,50.08291486146096]]}},{"type":"Feature","properties":{"numer":"368006S","klasa":"droga lokalna","kat":"powiatowa"},"geometry":{"type":"LineString","coordinates":[[18.73956,50.09808],[18.74017,50.09767]]}},{"type":"Feature","properties":{"numer":"5311S","klasa":"droga zbiorcza","kat":"powiatowa"},"geometry":{"type":"LineString","coordinates":[[18.72486,50.09906],[18.7237,50.0987],[18.71777,50.09904],[18.70389,50.09742],[18.70239,50.09756],[18.69925,50.09802],[18.69813,50.09807],[18.69435,50.09794],[18.69198,50.09768],[18.69004,50.09772],[18.68494,50.09763],[18.68427,50.09775],[18.68231,50.09842],[18.68114,50.09871]]}},{"type":"Feature","properties":{"numer":"368006S","klasa":"droga lokalna","kat":"powiatowa"},"geometry":{"type":"LineString","coordinates":[[18.73791,50.09902],[18.73855,50.09849],[18.73956,50.09808]]}},{"type":"Feature","properties":{"numer":"368006S","klasa":"droga lokalna","kat":"powiatowa"},"geometry":{"type":"LineString","coordinates":[[18.73712,50.09933],[18.73791,50.09902]]}},{"type":"Feature","properties":{"numer":"368006S","klasa":"droga lokalna","kat":"powiatowa"},"geometry":{"type":"LineString","coordinates":[[18.73498,50.09999],[18.73712,50.09933]]}},{"type":"Feature","properties":{"numer":"5311S","klasa":"droga zbiorcza","kat":"powiatowa"},"geometry":{"type":"LineString","coordinates":[[18.73064,50.10131],[18.72952,50.10102],[18.7291,50.10076],[18.7287,50.10034],[18.72757,50.09965],[18.72601,50.09937],[18.72486,50.09906]]}},{"type":"Feature","properties":{"numer":"5324S","klasa":"","kat":"powiatowa"},"geometry":{"type":"LineString","coordinates":[[18.743418152359336,50.09552167372636],[18.74316,50.09569]]}},{"type":"Feature","properties":{"numer":"368006S","klasa":"droga lokalna","kat":"powiatowa"},"geometry":{"type":"LineString","coordinates":[[18.74017,50.09767],[18.74316,50.09569]]}},{"type":"Feature","properties":{"numer":"368006S","klasa":"droga lokalna","kat":"powiatowa"},"geometry":{"type":"LineString","coordinates":[[18.7318,50.10088],[18.73498,50.09999]]}},{"type":"Feature","properties":{"numer":"368006S","klasa":"droga lokalna","kat":"powiatowa"},"geometry":{"type":"LineString","coordinates":[[18.73064,50.10131],[18.73076,50.10119],[18.7318,50.10088]]}},{"type":"Feature","properties":{"numer":"368004S","klasa":"droga lokalna","kat":"powiatowa"},"geometry":{"type":"LineString","coordinates":[[18.73016,50.10198],[18.73064,50.10131]]}},{"type":"Feature","properties":{"numer":"368004S","klasa":"droga lokalna","kat":"powiatowa"},"geometry":{"type":"LineString","coordinates":[[18.72996,50.1022],[18.73016,50.10198]]}},{"type":"Feature","properties":{"numer":"368004S","klasa":"droga lokalna","kat":"powiatowa"},"geometry":{"type":"LineString","coordinates":[[18.72965,50.1026],[18.72996,50.1022]]}},{"type":"Feature","properties":{"numer":"368004S","klasa":"droga lokalna","kat":"powiatowa"},"geometry":{"type":"LineString","coordinates":[[18.72885,50.10422],[18.72965,50.1026]]}},{"type":"Feature","properties":{"numer":"5311S","klasa":"droga zbiorcza","kat":"powiatowa"},"geometry":{"type":"LineString","coordinates":[[18.74482,50.10763],[18.73145,50.10149],[18.73064,50.10131]]}},{"type":"Feature","properties":{"numer":"368004S","klasa":"droga lokalna","kat":"powiatowa"},"geometry":{"type":"LineString","coordinates":[[18.72856,50.10474],[18.72885,50.10422]]}},{"type":"Feature","properties":{"numer":"368004S","klasa":"droga lokalna","kat":"powiatowa"},"geometry":{"type":"LineString","coordinates":[[18.72834,50.10526],[18.72856,50.10474]]}},{"type":"Feature","properties":{"numer":"368004S","klasa":"droga lokalna","kat":"powiatowa"},"geometry":{"type":"LineString","coordinates":[[18.72834,50.10526],[18.72853,50.10548],[18.73,50.10628]]}},{"type":"Feature","properties":{"numer":"368004S","klasa":"droga lokalna","kat":"powiatowa"},"geometry":{"type":"LineString","coordinates":[[18.73136,50.10703],[18.73,50.10628]]}},{"type":"Feature","properties":{"numer":"368004S","klasa":"droga lokalna","kat":"powiatowa"},"geometry":{"type":"LineString","coordinates":[[18.73271,50.1078],[18.73136,50.10703]]}},{"type":"Feature","properties":{"numer":"368004S","klasa":"droga lokalna","kat":"powiatowa"},"geometry":{"type":"LineString","coordinates":[[18.73286,50.10793],[18.73271,50.1078]]}},{"type":"Feature","properties":{"numer":"368004S","klasa":"droga lokalna","kat":"powiatowa"},"geometry":{"type":"LineString","coordinates":[[18.73315,50.10824],[18.73286,50.10793]]}},{"type":"Feature","properties":{"numer":"369005S","klasa":"droga lokalna","kat":"powiatowa"},"geometry":{"type":"LineString","coordinates":[[18.73502,50.11066],[18.73429,50.10955],[18.73315,50.10824]]}},{"type":"Feature","properties":{"numer":"369005S","klasa":"droga lokalna","kat":"powiatowa"},"geometry":{"type":"LineString","coordinates":[[18.73544,50.11147],[18.73502,50.11066]]}},{"type":"Feature","properties":{"numer":"369005S","klasa":"droga lokalna","kat":"powiatowa"},"geometry":{"type":"LineString","coordinates":[[18.73547,50.11152],[18.73544,50.11147]]}},{"type":"Feature","properties":{"numer":"369005S","klasa":"droga lokalna","kat":"powiatowa"},"geometry":{"type":"LineString","coordinates":[[18.7361,50.11258],[18.73547,50.11152]]}},{"type":"Feature","properties":{"numer":"369005S","klasa":"droga lokalna","kat":"powiatowa"},"geometry":{"type":"LineString","coordinates":[[18.73644,50.11312],[18.7361,50.11258]]}},{"type":"Feature","properties":{"numer":"369005S","klasa":"droga lokalna","kat":"powiatowa"},"geometry":{"type":"LineString","coordinates":[[18.73678,50.11362],[18.73644,50.11312]]}},{"type":"Feature","properties":{"numer":"924","klasa":"droga gĹ‚Ăłwna","kat":"wojewodzka"},"geometry":{"type":"LineString","coordinates":[[18.68357,50.11775],[18.68213,50.11469],[18.68202,50.1139],[18.68211,50.11333],[18.68318,50.11055],[18.68407,50.10911],[18.68434,50.10768],[18.68348,50.1044],[18.68293,50.10332],[18.68051,50.09948],[18.68055,50.09908],[18.68114,50.09871]]}},{"type":"Feature","properties":{"numer":"924","klasa":"droga gĹ‚Ăłwna","kat":"wojewodzka"},"geometry":{"type":"LineString","coordinates":[[18.68359,50.11833],[18.68357,50.11775]]}},{"type":"Feature","properties":{"numer":"924","klasa":"droga gĹ‚Ăłwna","kat":"wojewodzka"},"geometry":{"type":"LineString","coordinates":[[18.68317,50.11924],[18.68359,50.11833]]}},{"type":"Feature","properties":{"numer":"924","klasa":"droga gĹ‚Ăłwna","kat":"wojewodzka"},"geometry":{"type":"LineString","coordinates":[[18.67372,50.12934],[18.67638,50.12745],[18.67957,50.1222],[18.68033,50.12152],[18.6825,50.11991],[18.68317,50.11924]]}},{"type":"Feature","properties":{"numer":"A1","klasa":"autostrada","kat":"krajowa"},"geometry":{"type":"LineString","coordinates":[[18.68359,50.11833],[18.68561,50.12064],[18.68665,50.12197],[18.68834,50.12449],[18.68987,50.12743],[18.69112,50.13068]]}},{"type":"Feature","properties":{"numer":"924","klasa":"droga gĹ‚Ăłwna","kat":"wojewodzka"},"geometry":{"type":"LineString","coordinates":[[18.67342,50.12968],[18.67372,50.12934]]}},{"type":"Feature","properties":{"numer":"925","klasa":"droga gĹ‚Ăłwna","kat":"wojewodzka"},"geometry":{"type":"LineString","coordinates":[[18.67342,50.12968],[18.67273,50.12943]]}},{"type":"Feature","properties":{"numer":"925","klasa":"droga gĹ‚Ăłwna","kat":"wojewodzka"},"geometry":{"type":"LineString","coordinates":[[18.67402,50.12991],[18.67342,50.12968]]}},{"type":"Feature","properties":{"numer":"924","klasa":"droga gĹ‚Ăłwna","kat":"wojewodzka"},"geometry":{"type":"LineString","coordinates":[[18.67342,50.12968],[18.67314,50.13003]]}},{"type":"Feature","properties":{"numer":"925","klasa":"droga gĹ‚Ăłwna","kat":"wojewodzka"},"geometry":{"type":"LineString","coordinates":[[18.6824,50.13061],[18.67598,50.13048],[18.67521,50.13034],[18.67402,50.12991]]}},{"type":"Feature","properties":{"numer":"924","klasa":"droga gĹ‚Ăłwna","kat":"wojewodzka"},"geometry":{"type":"LineString","coordinates":[[18.68375,50.07636],[18.68413,50.07552],[18.68541,50.07376],[18.68582658535894,50.07288979947245]]}},{"type":"Feature","properties":{"numer":"924","klasa":"droga gĹ‚Ăłwna","kat":"wojewodzka"},"geometry":{"type":"LineString","coordinates":[[18.68364,50.07661],[18.68375,50.07636]]}},{"type":"Feature","properties":{"numer":"9014S","klasa":"droga zbiorcza","kat":"powiatowa"},"geometry":{"type":"LineString","coordinates":[[18.67081,50.0775],[18.67059540942928,50.07720322580645]]}},{"type":"Feature","properties":{"numer":"924","klasa":"droga gĹ‚Ăłwna","kat":"wojewodzka"},"geometry":{"type":"LineString","coordinates":[[18.68114,50.09871],[18.68141,50.09731],[18.68219,50.09496],[18.68316,50.0934],[18.68329,50.09303],[18.68263,50.08914],[18.68247,50.08744],[18.68215,50.08575],[18.68214,50.08507],[18.68224,50.08255],[18.68294,50.08035],[18.68307,50.07802],[18.68364,50.07661]]}},{"type":"Feature","properties":{"numer":"A1","klasa":"autostrada","kat":"krajowa"},"geometry":{"type":"LineString","coordinates":[[18.66332,50.08094],[18.66302,50.08986],[18.66313,50.09258],[18.66368,50.09544],[18.66443,50.09755],[18.66549,50.09969],[18.66686,50.10174],[18.6687,50.10391],[18.67171,50.10692],[18.68359,50.11833]]}},{"type":"Feature","properties":{"numer":"A1,E75","klasa":"autostrada","kat":"krajowa"},"geometry":{"type":"LineString","coordinates":[[18.66343,50.07797],[18.66343484355586,50.077707237094764]]}},{"type":"Feature","properties":{"numer":"A1","klasa":"autostrada","kat":"krajowa"},"geometry":{"type":"LineString","coordinates":[[18.66332,50.08094],[18.66343,50.07797]]}},{"type":"Feature","properties":{"numer":"925","klasa":"droga gĹ‚Ăłwna","kat":"wojewodzka"},"geometry":{"type":"LineString","coordinates":[[18.67273,50.12943],[18.67116,50.12887],[18.66845,50.12839],[18.6549,50.1253]]}},{"type":"Feature","properties":{"numer":"5613S","klasa":"droga zbiorcza","kat":"powiatowa"},"geometry":{"type":"LineString","coordinates":[[18.64,50.13898],[18.64122,50.13775],[18.6427,50.13596],[18.64441,50.1331],[18.64536,50.13209],[18.64588,50.13175],[18.64772,50.13088],[18.65146,50.12877],[18.6522,50.12767],[18.6549,50.1253]]}},{"type":"Feature","properties":{"numer":"5625S","klasa":"droga zbiorcza","kat":"powiatowa"},"geometry":{"type":"LineString","coordinates":[[18.67121,50.14558],[18.67084,50.14564],[18.66867,50.14545],[18.66034,50.1443],[18.65878,50.144],[18.65119,50.14213],[18.64425,50.14106],[18.64372,50.14093],[18.64284,50.14056],[18.64,50.13898]]}},{"type":"Feature","properties":{"numer":"924","klasa":"droga gĹ‚Ăłwna","kat":"wojewodzka"},"geometry":{"type":"LineString","coordinates":[[18.6628,50.1575],[18.66253,50.15676]]}},{"type":"Feature","properties":{"numer":"925","klasa":"droga gĹ‚Ăłwna","kat":"wojewodzka"},"geometry":{"type":"LineString","coordinates":[[18.6549,50.1253],[18.63805,50.12148],[18.63686,50.12136],[18.63465,50.12148],[18.63386,50.12145],[18.63297,50.12129],[18.63107,50.12073],[18.63033,50.1206],[18.62887,50.12059],[18.62675,50.12069],[18.62339,50.1216],[18.62237,50.12174],[18.61489,50.12119],[18.61405,50.121],[18.61375036106145,50.12090375521436]]}},{"type":"Feature","properties":{"numer":"5613S","klasa":"droga zbiorcza","kat":"powiatowa"},"geometry":{"type":"LineString","coordinates":[[18.63381,50.14219],[18.63506,50.14175],[18.63696,50.14152],[18.63753,50.14133],[18.63798,50.14098],[18.64,50.13898]]}},{"type":"Feature","properties":{"numer":"5613S","klasa":"droga zbiorcza","kat":"powiatowa"},"geometry":{"type":"LineString","coordinates":[[18.63358,50.14228],[18.63381,50.14219]]}},{"type":"Feature","properties":{"numer":"5613S","klasa":"droga zbiorcza","kat":"powiatowa"},"geometry":{"type":"LineString","coordinates":[[18.6194,50.14262],[18.61971,50.14253]]}},{"type":"Feature","properties":{"numer":"5613S","klasa":"droga zbiorcza","kat":"powiatowa"},"geometry":{"type":"LineString","coordinates":[[18.61971,50.14253],[18.62097,50.14216],[18.6214,50.14213],[18.6239,50.14255],[18.62617,50.14314],[18.63086,50.14305]]}},{"type":"Feature","properties":{"numer":"5613S","klasa":"droga zbiorcza","kat":"powiatowa"},"geometry":{"type":"LineString","coordinates":[[18.63086,50.14305],[18.6319,50.14296],[18.63358,50.14228]]}},{"type":"Feature","properties":{"numer":"5613S","klasa":"droga zbiorcza","kat":"powiatowa"},"geometry":{"type":"LineString","coordinates":[[18.61916,50.14271],[18.6194,50.14262]]}},{"type":"Feature","properties":{"numer":"7001S","klasa":"droga zbiorcza","kat":"powiatowa"},"geometry":{"type":"LineString","coordinates":[[18.59827,50.14628],[18.598377361315176,50.1460296387588]]}},{"type":"Feature","properties":{"numer":"364003S","klasa":"droga lokalna","kat":"powiatowa"},"geometry":{"type":"LineString","coordinates":[[18.60457,50.14971],[18.604680967283073,50.149395592697964]]}},{"type":"Feature","properties":{"numer":"364003S","klasa":"droga lokalna","kat":"powiatowa"},"geometry":{"type":"LineString","coordinates":[[18.60447,50.14998],[18.60457,50.14971]]}},{"type":"Feature","properties":{"numer":"2907S","klasa":"droga zbiorcza","kat":"powiatowa"},"geometry":{"type":"LineString","coordinates":[[18.59852,50.15382],[18.59764,50.15189],[18.59686,50.14969],[18.59827,50.14628]]}},{"type":"Feature","properties":{"numer":"364002S","klasa":"droga lokalna","kat":"powiatowa"},"geometry":{"type":"LineString","coordinates":[[18.60436,50.15022],[18.60447,50.14998]]}},{"type":"Feature","properties":{"numer":"364002S","klasa":"droga lokalna","kat":"powiatowa"},"geometry":{"type":"LineString","coordinates":[[18.60415,50.1507],[18.60436,50.15022]]}},{"type":"Feature","properties":{"numer":"364002S","klasa":"droga lokalna","kat":"powiatowa"},"geometry":{"type":"LineString","coordinates":[[18.60401,50.15101],[18.60415,50.1507]]}},{"type":"Feature","properties":{"numer":"364002S","klasa":"droga lokalna","kat":"powiatowa"},"geometry":{"type":"LineString","coordinates":[[18.60358,50.1519],[18.60401,50.15101]]}},{"type":"Feature","properties":{"numer":"364002S","klasa":"droga lokalna","kat":"powiatowa"},"geometry":{"type":"LineString","coordinates":[[18.6034,50.15207],[18.60358,50.1519]]}},{"type":"Feature","properties":{"numer":"364002S","klasa":"droga lokalna","kat":"powiatowa"},"geometry":{"type":"LineString","coordinates":[[18.60334,50.1521],[18.6034,50.15207]]}},{"type":"Feature","properties":{"numer":"364002S","klasa":"droga lokalna","kat":"powiatowa"},"geometry":{"type":"LineString","coordinates":[[18.60118,50.15285],[18.6022,50.15256],[18.60334,50.1521]]}},{"type":"Feature","properties":{"numer":"364002S","klasa":"droga lokalna","kat":"powiatowa"},"geometry":{"type":"LineString","coordinates":[[18.60081,50.15293],[18.60118,50.15285]]}},{"type":"Feature","properties":{"numer":"7005S","klasa":"droga zbiorcza","kat":"powiatowa"},"geometry":{"type":"LineString","coordinates":[[18.619547975919133,50.14311309186403],[18.61916,50.14271]]}},{"type":"Feature","properties":{"numer":"7005S","klasa":"droga zbiorcza","kat":"powiatowa"},"geometry":{"type":"LineString","coordinates":[[18.617648113130212,50.14182800245935],[18.61774,50.14183],[18.61916,50.14271]]}},{"type":"Feature","properties":{"numer":"5627S","klasa":"","kat":"powiatowa"},"geometry":{"type":"LineString","coordinates":[[18.62902,50.14942],[18.62936,50.14831],[18.62933,50.14765],[18.63012,50.1462],[18.63001,50.14601],[18.62979,50.14599],[18.62969,50.14591],[18.63086,50.14305]]}},{"type":"Feature","properties":{"numer":"5627S","klasa":"droga zbiorcza","kat":"powiatowa"},"geometry":{"type":"LineString","coordinates":[[18.62901531759338,50.149446923838056],[18.62902,50.14942]]}},{"type":"Feature","properties":{"numer":"2980S","klasa":"droga zbiorcza","kat":"powiatowa"},"geometry":{"type":"LineString","coordinates":[[18.612371252762088,50.177855765941516],[18.61233,50.17782]]}},{"type":"Feature","properties":{"numer":"5627S","klasa":"","kat":"powiatowa"},"geometry":{"type":"LineString","coordinates":[[18.65024,50.16529],[18.64608,50.16468],[18.64527,50.16418],[18.64449,50.16392],[18.64443,50.16338],[18.64462,50.16275],[18.64455,50.16241],[18.64386,50.16185],[18.64281,50.16047],[18.64104,50.15913],[18.63892,50.15631],[18.63817,50.15473],[18.63759,50.15414],[18.63717,50.15387],[18.63324,50.15216],[18.629315772249974,50.15117645937404]]}},{"type":"Feature","properties":{"numer":"5627S","klasa":"","kat":"powiatowa"},"geometry":{"type":"LineString","coordinates":[[18.629188080338267,50.15109023678647],[18.629078969072165,50.15100484536082]]}},{"type":"Feature","properties":{"numer":"5627S","klasa":"","kat":"powiatowa"},"geometry":{"type":"LineString","coordinates":[[18.628907478991596,50.15014739495798],[18.628914074941452,50.15009316159251]]}},{"type":"Feature","properties":{"numer":"924","klasa":"droga gĹ‚Ăłwna","kat":"wojewodzka"},"geometry":{"type":"LineString","coordinates":[[18.66355,50.15891],[18.66314,50.15828],[18.6628,50.1575]]}},{"type":"Feature","properties":{"numer":"924","klasa":"droga gĹ‚Ăłwna","kat":"wojewodzka"},"geometry":{"type":"LineString","coordinates":[[18.65355,50.16913],[18.6538,50.1689],[18.65603,50.1675],[18.65873,50.16691],[18.66006,50.16642],[18.66044,50.16617],[18.66142,50.16524],[18.66336,50.1642],[18.6636,50.16369],[18.66375,50.15992],[18.66355,50.15891]]}},{"type":"Feature","properties":{"numer":"5627S","klasa":"droga zbiorcza","kat":"powiatowa"},"geometry":{"type":"LineString","coordinates":[[18.65238,50.16849],[18.65164,50.16806],[18.65005,50.16767],[18.64965,50.16736],[18.64951,50.16704],[18.64956,50.16664],[18.65015,50.16565],[18.65024,50.16529]]}},{"type":"Feature","properties":{"numer":"5627S","klasa":"droga zbiorcza","kat":"powiatowa"},"geometry":{"type":"LineString","coordinates":[[18.6527,50.16867],[18.65238,50.16849]]}},{"type":"Feature","properties":{"numer":"5627S","klasa":"droga zbiorcza","kat":"powiatowa"},"geometry":{"type":"LineString","coordinates":[[18.65355,50.16913],[18.6527,50.16867]]}},{"type":"Feature","properties":{"numer":"924","klasa":"droga gĹ‚Ăłwna","kat":"wojewodzka"},"geometry":{"type":"LineString","coordinates":[[18.651081706411368,50.18258563177093],[18.65114,50.18229],[18.65107,50.18078],[18.65094,50.18042],[18.64938,50.17851],[18.64967,50.17663],[18.64989,50.17618],[18.65146,50.17426],[18.65237,50.17294],[18.65406,50.17099],[18.65425,50.17051],[18.65423,50.17018],[18.65357,50.1693],[18.65355,50.16913]]}},{"type":"Feature","properties":{"numer":"369005S","klasa":"droga lokalna","kat":"powiatowa"},"geometry":{"type":"LineString","coordinates":[[18.73712,50.11412],[18.73678,50.11362]]}},{"type":"Feature","properties":{"numer":"369005S","klasa":"droga lokalna","kat":"powiatowa"},"geometry":{"type":"LineString","coordinates":[[18.73728,50.11435],[18.73712,50.11412]]}},{"type":"Feature","properties":{"numer":"369005S","klasa":"droga lokalna","kat":"powiatowa"},"geometry":{"type":"LineString","coordinates":[[18.73731,50.1144],[18.73728,50.11435]]}},{"type":"Feature","properties":{"numer":"369005S","klasa":"droga lokalna","kat":"powiatowa"},"geometry":{"type":"LineString","coordinates":[[18.73779,50.11518],[18.73731,50.1144]]}},{"type":"Feature","properties":{"numer":"5312S","klasa":"droga zbiorcza","kat":"powiatowa"},"geometry":{"type":"LineString","coordinates":[[18.7104,50.13061],[18.70979,50.12906],[18.70946,50.12579],[18.70949,50.12495],[18.7099,50.123],[18.71078,50.12038],[18.71112,50.11973],[18.71161,50.11916],[18.71438,50.11672],[18.71548,50.11458],[18.71627,50.11199],[18.71668,50.10963],[18.71665,50.10806],[18.71719,50.10629],[18.71769,50.10567],[18.72402,50.10004],[18.72486,50.09906]]}},{"type":"Feature","properties":{"numer":"369005S","klasa":"droga lokalna","kat":"powiatowa"},"geometry":{"type":"LineString","coordinates":[[18.73784,50.11547],[18.73779,50.11518]]}},{"type":"Feature","properties":{"numer":"369005S","klasa":"droga lokalna","kat":"powiatowa"},"geometry":{"type":"LineString","coordinates":[[18.7379,50.11617],[18.73784,50.11547]]}},{"type":"Feature","properties":{"numer":"369005S","klasa":"droga lokalna","kat":"powiatowa"},"geometry":{"type":"LineString","coordinates":[[18.73799,50.11688],[18.7379,50.11617]]}},{"type":"Feature","properties":{"numer":"369005S","klasa":"droga lokalna","kat":"powiatowa"},"geometry":{"type":"LineString","coordinates":[[18.73805,50.1176],[18.73799,50.11688]]}},{"type":"Feature","properties":{"numer":"369005S","klasa":"droga lokalna","kat":"powiatowa"},"geometry":{"type":"LineString","coordinates":[[18.73777,50.11812],[18.73805,50.1176]]}},{"type":"Feature","properties":{"numer":"5311S","klasa":"droga zbiorcza","kat":"powiatowa"},"geometry":{"type":"LineString","coordinates":[[18.751491547952888,50.11009646662928],[18.7501,50.10983],[18.74909,50.10956],[18.74482,50.10763]]}},{"type":"Feature","properties":{"numer":"369005S","klasa":"droga lokalna","kat":"powiatowa"},"geometry":{"type":"LineString","coordinates":[[18.73709,50.11925],[18.73777,50.11812]]}},{"type":"Feature","properties":{"numer":"369005S","klasa":"droga lokalna","kat":"powiatowa"},"geometry":{"type":"LineString","coordinates":[[18.73685,50.1206],[18.73709,50.11925]]}},{"type":"Feature","properties":{"numer":"369005S","klasa":"droga lokalna","kat":"powiatowa"},"geometry":{"type":"LineString","coordinates":[[18.7371,50.12182],[18.73685,50.1206]]}},{"type":"Feature","properties":{"numer":"369005S","klasa":"droga lokalna","kat":"powiatowa"},"geometry":{"type":"LineString","coordinates":[[18.737208240534518,50.122192828507785],[18.7371,50.12182]]}},{"type":"Feature","properties":{"numer":"925","klasa":"droga gĹ‚Ăłwna","kat":"wojewodzka"},"geometry":{"type":"LineString","coordinates":[[18.7104,50.13061],[18.71472,50.13067],[18.71894,50.13014],[18.7213,50.13003],[18.72358,50.12983],[18.72623,50.12974],[18.72967,50.12923],[18.73182,50.12927],[18.73448,50.12921],[18.73795,50.12942],[18.738462885532073,50.12940885031452]]}},{"type":"Feature","properties":{"numer":"925","klasa":"droga gĹ‚Ăłwna","kat":"wojewodzka"},"geometry":{"type":"LineString","coordinates":[[18.6837,50.13063],[18.68952,50.13047],[18.69065,50.13057]]}},{"type":"Feature","properties":{"numer":"925","klasa":"droga gĹ‚Ăłwna","kat":"wojewodzka"},"geometry":{"type":"LineString","coordinates":[[18.6824,50.13061],[18.68301,50.13061]]}},{"type":"Feature","properties":{"numer":"925","klasa":"droga gĹ‚Ăłwna","kat":"wojewodzka"},"geometry":{"type":"LineString","coordinates":[[18.68301,50.13061],[18.6837,50.13063]]}},{"type":"Feature","properties":{"numer":"925","klasa":"droga gĹ‚Ăłwna","kat":"wojewodzka"},"geometry":{"type":"LineString","coordinates":[[18.69065,50.13057],[18.69112,50.13068]]}},{"type":"Feature","properties":{"numer":"925","klasa":"droga gĹ‚Ăłwna","kat":"wojewodzka"},"geometry":{"type":"LineString","coordinates":[[18.69112,50.13068],[18.69161,50.13084]]}},{"type":"Feature","properties":{"numer":"A1","klasa":"autostrada","kat":"krajowa"},"geometry":{"type":"LineString","coordinates":[[18.69112,50.13068],[18.69159,50.13213]]}},{"type":"Feature","properties":{"numer":"A1","klasa":"autostrada","kat":"krajowa"},"geometry":{"type":"LineString","coordinates":[[18.68301,50.13061],[18.68308,50.13167],[18.68346,50.13204],[18.68407,50.13225],[18.68688,50.13247],[18.68849,50.13248],[18.69159,50.13213]]}},{"type":"Feature","properties":{"numer":"A1","klasa":"autostrada","kat":"krajowa"},"geometry":{"type":"LineString","coordinates":[[18.69159,50.13213],[18.69373,50.13904]]}},{"type":"Feature","properties":{"numer":"924","klasa":"droga gĹ‚Ăłwna","kat":"wojewodzka"},"geometry":{"type":"LineString","coordinates":[[18.67121,50.14558],[18.67083,50.14511],[18.67016,50.14278],[18.66926,50.14092],[18.6692,50.13727],[18.66955,50.13536],[18.67067,50.13223],[18.67269,50.13057],[18.67314,50.13003]]}},{"type":"Feature","properties":{"numer":"5614S","klasa":"droga zbiorcza","kat":"powiatowa"},"geometry":{"type":"LineString","coordinates":[[18.69373,50.13904],[18.69472,50.1389],[18.69541,50.13871],[18.69601,50.13832],[18.69647,50.13777],[18.69693,50.1374],[18.69744,50.1372],[18.69883,50.13696]]}},{"type":"Feature","properties":{"numer":"925","klasa":"droga gĹ‚Ăłwna","kat":"wojewodzka"},"geometry":{"type":"LineString","coordinates":[[18.69161,50.13084],[18.69335,50.13161],[18.69417,50.13179],[18.69497,50.13183],[18.7055,50.13124],[18.70786,50.13078],[18.7104,50.13061]]}},{"type":"Feature","properties":{"numer":"5614S","klasa":"droga zbiorcza","kat":"powiatowa"},"geometry":{"type":"LineString","coordinates":[[18.71062,50.13238],[18.71065,50.13175],[18.7104,50.13061]]}},{"type":"Feature","properties":{"numer":"5614S","klasa":"droga zbiorcza","kat":"powiatowa"},"geometry":{"type":"LineString","coordinates":[[18.71058,50.13254],[18.71062,50.13238]]}},{"type":"Feature","properties":{"numer":"5614S","klasa":"droga zbiorcza","kat":"powiatowa"},"geometry":{"type":"LineString","coordinates":[[18.69883,50.13696],[18.70977,50.13519],[18.71016,50.13496],[18.71032,50.13468],[18.71038,50.13354],[18.71058,50.13254]]}},{"type":"Feature","properties":{"numer":"A1","klasa":"autostrada","kat":"krajowa"},"geometry":{"type":"LineString","coordinates":[[18.69373,50.13904],[18.69581,50.14542],[18.69702,50.14787],[18.69834,50.14992],[18.69986,50.15182],[18.70186,50.15388],[18.70951,50.16078],[18.71175,50.16294]]}},{"type":"Feature","properties":{"numer":"5628S","klasa":"","kat":"powiatowa"},"geometry":{"type":"LineString","coordinates":[[18.7192,50.16742],[18.71884,50.16695],[18.71089,50.15308],[18.70262,50.14638],[18.69883,50.13696]]}},{"type":"Feature","properties":{"numer":"5614S","klasa":"droga zbiorcza","kat":"powiatowa"},"geometry":{"type":"LineString","coordinates":[[18.67755,50.14882],[18.67846,50.14822],[18.68282,50.14446],[18.68552,50.14227],[18.68621,50.14125],[18.68876,50.13939],[18.6891,50.13928],[18.68976,50.1392],[18.69299,50.13912],[18.69373,50.13904]]}},{"type":"Feature","properties":{"numer":"924","klasa":"droga gĹ‚Ăłwna","kat":"wojewodzka"},"geometry":{"type":"LineString","coordinates":[[18.67233,50.14606],[18.67121,50.14558]]}},{"type":"Feature","properties":{"numer":"924","klasa":"droga gĹ‚Ăłwna","kat":"wojewodzka"},"geometry":{"type":"LineString","coordinates":[[18.67248,50.14612],[18.67233,50.14606]]}},{"type":"Feature","properties":{"numer":"924","klasa":"droga gĹ‚Ăłwna","kat":"wojewodzka"},"geometry":{"type":"LineString","coordinates":[[18.6772,50.14881],[18.67511,50.1472],[18.67248,50.14612]]}},{"type":"Feature","properties":{"numer":"924","klasa":"droga gĹ‚Ăłwna","kat":"wojewodzka"},"geometry":{"type":"LineString","coordinates":[[18.67736,50.14888],[18.6772,50.14881]]}},{"type":"Feature","properties":{"numer":"5614S","klasa":"droga zbiorcza","kat":"powiatowa"},"geometry":{"type":"LineString","coordinates":[[18.67755,50.14882],[18.67736,50.14888]]}},{"type":"Feature","properties":{"numer":"5343S","klasa":"droga zbiorcza","kat":"powiatowa"},"geometry":{"type":"LineString","coordinates":[[18.67753,50.14895],[18.67736,50.14888]]}},{"type":"Feature","properties":{"numer":"924","klasa":"droga gĹ‚Ăłwna","kat":"wojewodzka"},"geometry":{"type":"LineString","coordinates":[[18.67736,50.14888],[18.67727,50.14899]]}},{"type":"Feature","properties":{"numer":"924","klasa":"droga gĹ‚Ăłwna","kat":"wojewodzka"},"geometry":{"type":"LineString","coordinates":[[18.66253,50.15676],[18.66237,50.15617],[18.66248,50.15579],[18.6627,50.15554],[18.66358,50.15488],[18.66495,50.15415],[18.66564,50.15388],[18.66629,50.15374],[18.66704,50.15368],[18.67189,50.15396],[18.67254,50.15382],[18.67327,50.15356],[18.67484,50.1521],[18.6768,50.14971],[18.67727,50.14899]]}},{"type":"Feature","properties":{"numer":"5343S","klasa":"droga zbiorcza","kat":"powiatowa"},"geometry":{"type":"LineString","coordinates":[[18.67753,50.14895],[18.67893,50.14976],[18.67965,50.15095],[18.68173,50.15276],[18.68683,50.15467],[18.68725,50.15491],[18.68779,50.15546],[18.68862,50.15578],[18.68987,50.15595],[18.69213,50.15591],[18.69271,50.156],[18.69498,50.15751],[18.69597,50.15947],[18.70254,50.1659],[18.70275,50.16626],[18.70333,50.16819]]}},{"type":"Feature","properties":{"numer":"A1","klasa":"autostrada","kat":"krajowa"},"geometry":{"type":"LineString","coordinates":[[18.71175,50.16294],[18.71297,50.16438],[18.7138,50.16559],[18.71456,50.16711],[18.71495,50.16816]]}},{"type":"Feature","properties":{"numer":"A1","klasa":"autostrada","kat":"krajowa"},"geometry":{"type":"LineString","coordinates":[[18.71112,50.16876],[18.70993,50.16511],[18.7098,50.16445],[18.70994,50.16401],[18.71037,50.16355],[18.71175,50.16294]]}},{"type":"Feature","properties":{"numer":"5343S","klasa":"droga zbiorcza","kat":"powiatowa"},"geometry":{"type":"LineString","coordinates":[[18.72468,50.16721],[18.72416,50.16713],[18.72292,50.16675],[18.72238,50.1667],[18.7192,50.16742]]}},{"type":"Feature","properties":{"numer":"5343S","klasa":"droga zbiorcza","kat":"powiatowa"},"geometry":{"type":"LineString","coordinates":[[18.7192,50.16742],[18.71743,50.16781],[18.71617,50.16793],[18.71495,50.16816]]}},{"type":"Feature","properties":{"numer":"5343S","klasa":"droga zbiorcza","kat":"powiatowa"},"geometry":{"type":"LineString","coordinates":[[18.70335,50.1683],[18.70333,50.16819]]}},{"type":"Feature","properties":{"numer":"5343S","klasa":"droga zbiorcza","kat":"powiatowa"},"geometry":{"type":"LineString","coordinates":[[18.71495,50.16816],[18.71194,50.16864]]}},{"type":"Feature","properties":{"numer":"5343S","klasa":"droga zbiorcza","kat":"powiatowa"},"geometry":{"type":"LineString","coordinates":[[18.71194,50.16864],[18.71112,50.16876]]}},{"type":"Feature","properties":{"numer":"5343S","klasa":"droga zbiorcza","kat":"powiatowa"},"geometry":{"type":"LineString","coordinates":[[18.71112,50.16876],[18.71038,50.16886]]}},{"type":"Feature","properties":{"numer":"5343S","klasa":"droga zbiorcza","kat":"powiatowa"},"geometry":{"type":"LineString","coordinates":[[18.70335,50.1683],[18.70393,50.17005]]}},{"type":"Feature","properties":{"numer":"5343S","klasa":"droga zbiorcza","kat":"powiatowa"},"geometry":{"type":"LineString","coordinates":[[18.70393,50.17005],[18.7082,50.16919],[18.71038,50.16886]]}},{"type":"Feature","properties":{"numer":"619058S","klasa":"droga lokalna","kat":"powiatowa"},"geometry":{"type":"LineString","coordinates":[[18.57364,50.05173],[18.57257,50.05127]]}},{"type":"Feature","properties":{"numer":"619058S","klasa":"droga lokalna","kat":"powiatowa"},"geometry":{"type":"LineString","coordinates":[[18.57441,50.0521],[18.57364,50.05173]]}},{"type":"Feature","properties":{"numer":"619058S","klasa":"droga lokalna","kat":"powiatowa"},"geometry":{"type":"LineString","coordinates":[[18.57484,50.0523],[18.57441,50.0521]]}},{"type":"Feature","properties":{"numer":"619058S","klasa":"droga lokalna","kat":"powiatowa"},"geometry":{"type":"LineString","coordinates":[[18.57502,50.05238],[18.57484,50.0523]]}},{"type":"Feature","properties":{"numer":"619058S","klasa":"droga lokalna","kat":"powiatowa"},"geometry":{"type":"LineString","coordinates":[[18.57629,50.05299],[18.57502,50.05238]]}},{"type":"Feature","properties":{"numer":"929","klasa":"droga gĹ‚Ăłwna","kat":"wojewodzka"},"geometry":{"type":"LineString","coordinates":[[18.55795531938097,50.0568327227877],[18.55863,50.05504],[18.56054,50.05281],[18.56128,50.05236],[18.56331,50.0518],[18.56402,50.05144],[18.56486,50.05089],[18.56709,50.04875]]}},{"type":"Feature","properties":{"numer":"619058S","klasa":"droga lokalna","kat":"powiatowa"},"geometry":{"type":"LineString","coordinates":[[18.57653,50.05311],[18.57629,50.05299]]}},{"type":"Feature","properties":{"numer":"619058S","klasa":"droga lokalna","kat":"powiatowa"},"geometry":{"type":"LineString","coordinates":[[18.57839,50.05408],[18.57653,50.05311]]}},{"type":"Feature","properties":{"numer":"619058S","klasa":"droga lokalna","kat":"powiatowa"},"geometry":{"type":"LineString","coordinates":[[18.57961,50.05483],[18.57912,50.05445],[18.57839,50.05408]]}},{"type":"Feature","properties":{"numer":"619058S","klasa":"droga lokalna","kat":"powiatowa"},"geometry":{"type":"LineString","coordinates":[[18.5805,50.05568],[18.57961,50.05483]]}},{"type":"Feature","properties":{"numer":"619073S,7026S","klasa":"droga zbiorcza","kat":"powiatowa"},"geometry":{"type":"LineString","coordinates":[[18.53496,50.05414],[18.53466550530527,50.05329578187511]]}},{"type":"Feature","properties":{"numer":"7026S","klasa":"","kat":"powiatowa"},"geometry":{"type":"LineString","coordinates":[[18.5351,50.05446],[18.53496,50.05414]]}},{"type":"Feature","properties":{"numer":"7026S","klasa":"droga zbiorcza","kat":"powiatowa"},"geometry":{"type":"LineString","coordinates":[[18.53544742596811,50.055154851936216],[18.5351,50.05446]]}},{"type":"Feature","properties":{"numer":"619071S","klasa":"droga dojazdowa","kat":"powiatowa"},"geometry":{"type":"LineString","coordinates":[[18.54046,50.05632],[18.54058,50.05634]]}},{"type":"Feature","properties":{"numer":"619071S","klasa":"droga dojazdowa","kat":"powiatowa"},"geometry":{"type":"LineString","coordinates":[[18.5397,50.05717],[18.54046,50.05632]]}},{"type":"Feature","properties":{"numer":"619071S","klasa":"droga dojazdowa","kat":"powiatowa"},"geometry":{"type":"LineString","coordinates":[[18.5394,50.05734],[18.5397,50.05717]]}},{"type":"Feature","properties":{"numer":"7026S","klasa":"droga zbiorcza","kat":"powiatowa"},"geometry":{"type":"LineString","coordinates":[[18.54172,50.05869],[18.54131,50.05845],[18.54091,50.05799],[18.54072,50.05636],[18.54058,50.05634]]}},{"type":"Feature","properties":{"numer":"619058S","klasa":"droga lokalna","kat":"powiatowa"},"geometry":{"type":"LineString","coordinates":[[18.5808,50.05605],[18.5805,50.05568]]}},{"type":"Feature","properties":{"numer":"","klasa":"droga wewnÄ™trzna","kat":"gminna"},"geometry":{"type":"LineString","coordinates":[[18.57783,50.05704],[18.57739,50.0572]]}},{"type":"Feature","properties":{"numer":"929","klasa":"droga gĹ‚Ăłwna","kat":"wojewodzka"},"geometry":{"type":"LineString","coordinates":[[18.55712809421026,50.05786125825292],[18.557198358208954,50.05778537313433]]}},{"type":"Feature","properties":{"numer":"","klasa":"droga wewnÄ™trzna","kat":"gminna"},"geometry":{"type":"LineString","coordinates":[[18.57739,50.0572],[18.57633,50.05743],[18.57397,50.05762],[18.57309,50.0578],[18.57237,50.05812],[18.57172,50.05866]]}},{"type":"Feature","properties":{"numer":"180439S","klasa":"droga dojazdowa","kat":"powiatowa"},"geometry":{"type":"LineString","coordinates":[[18.571624963063602,50.05875938148207],[18.57172,50.05866]]}},{"type":"Feature","properties":{"numer":"7026S","klasa":"","kat":"powiatowa"},"geometry":{"type":"LineString","coordinates":[[18.541840239445875,50.05874965844629],[18.54172,50.05869]]}},{"type":"Feature","properties":{"numer":"619071S","klasa":"droga dojazdowa","kat":"powiatowa"},"geometry":{"type":"LineString","coordinates":[[18.53863,50.05776],[18.5394,50.05734]]}},{"type":"Feature","properties":{"numer":"619071S","klasa":"droga dojazdowa","kat":"powiatowa"},"geometry":{"type":"LineString","coordinates":[[18.538432088499473,50.05796690747782],[18.53863,50.05776]]}},{"type":"Feature","properties":{"numer":"7012S","klasa":"","kat":"powiatowa"},"geometry":{"type":"LineString","coordinates":[[18.4796,50.0929],[18.479624639722196,50.09281127712936]]}},{"type":"Feature","properties":{"numer":"7012S","klasa":"droga zbiorcza","kat":"powiatowa"},"geometry":{"type":"LineString","coordinates":[[18.47973,50.09481],[18.47957,50.09351],[18.4796,50.0929]]}},{"type":"Feature","properties":{"numer":"701021S","klasa":"droga dojazdowa","kat":"powiatowa"},"geometry":{"type":"LineString","coordinates":[[18.4699,50.09425],[18.47197,50.09414]]}},{"type":"Feature","properties":{"numer":"701021S","klasa":"droga dojazdowa","kat":"powiatowa"},"geometry":{"type":"LineString","coordinates":[[18.47197,50.09414],[18.4727,50.09416],[18.47428,50.09465],[18.47507,50.0948]]}},{"type":"Feature","properties":{"numer":"701021S","klasa":"droga dojazdowa","kat":"powiatowa"},"geometry":{"type":"LineString","coordinates":[[18.47753,50.09487],[18.47821,50.09492],[18.47973,50.09481]]}},{"type":"Feature","properties":{"numer":"5025S","klasa":"droga zbiorcza","kat":"powiatowa"},"geometry":{"type":"LineString","coordinates":[[18.39973,50.08006],[18.39947,50.07948],[18.39891,50.07632],[18.39896,50.07583],[18.39927,50.07525],[18.40226,50.0733],[18.40321,50.07305],[18.404800769132038,50.07276001604364]]}},{"type":"Feature","properties":{"numer":"5025S","klasa":"droga zbiorcza","kat":"powiatowa"},"geometry":{"type":"LineString","coordinates":[[18.40403,50.09915],[18.40309,50.09832],[18.40267,50.09779],[18.40211,50.09591],[18.4013,50.09487],[18.40092,50.09405],[18.40084,50.09337],[18.40028,50.09258],[18.40024,50.09134],[18.39996,50.09069],[18.4001,50.08947],[18.39945,50.08802],[18.39974,50.0873],[18.39989,50.08584],[18.40055,50.0849],[18.40022,50.08372],[18.39958,50.08217],[18.39988,50.08039],[18.39973,50.08006]]}},{"type":"Feature","properties":{"numer":"5026S","klasa":"droga zbiorcza","kat":"powiatowa"},"geometry":{"type":"LineString","coordinates":[[18.428004819469376,50.08644631557949],[18.42956,50.08781],[18.43167,50.09175],[18.43152,50.09235],[18.42947,50.0973],[18.43003,50.10694],[18.43047,50.10857]]}},{"type":"Feature","properties":{"numer":"5617S","klasa":"droga zbiorcza","kat":"powiatowa"},"geometry":{"type":"LineString","coordinates":[[18.4257,50.10794],[18.42509,50.10754],[18.4248,50.10696],[18.42449,50.1067],[18.41963,50.10537],[18.41805,50.10429],[18.41286,50.10239],[18.41245,50.10216],[18.4098,50.1],[18.40934,50.09973],[18.40881,50.09957],[18.40587,50.09902],[18.40522,50.09902],[18.40403,50.09915]]}},{"type":"Feature","properties":{"numer":"5025S","klasa":"droga zbiorcza","kat":"powiatowa"},"geometry":{"type":"LineString","coordinates":[[18.3935,50.11346],[18.39406,50.11252],[18.39556,50.11117],[18.39702,50.10962],[18.39835,50.10722],[18.39874,50.10671],[18.40155,50.10409],[18.40314,50.10245],[18.40418,50.09981],[18.4042,50.09944],[18.40403,50.09915]]}},{"type":"Feature","properties":{"numer":"923","klasa":"droga zbiorcza","kat":"wojewodzka"},"geometry":{"type":"LineString","coordinates":[[18.36218,50.08548],[18.36279,50.08493],[18.363345790977867,50.083641976463994]]}},{"type":"Feature","properties":{"numer":"5618S","klasa":"","kat":"powiatowa"},"geometry":{"type":"LineString","coordinates":[[18.36218,50.08548],[18.3654,50.08551],[18.36652,50.08514],[18.37061,50.08482],[18.37532,50.08529],[18.3768,50.08536],[18.37739,50.08531],[18.38364,50.08421],[18.38471,50.08371],[18.38644,50.08325],[18.3876,50.08321],[18.39364,50.07999],[18.39441,50.0792],[18.39518,50.07941],[18.39685,50.07951],[18.39973,50.08006]]}},{"type":"Feature","properties":{"numer":"3538S","klasa":"droga zbiorcza","kat":"powiatowa"},"geometry":{"type":"LineString","coordinates":[[18.34116841835489,50.08746572370027],[18.34118,50.08747]]}},{"type":"Feature","properties":{"numer":"923","klasa":"droga zbiorcza","kat":"wojewodzka"},"geometry":{"type":"LineString","coordinates":[[18.3559,50.08953],[18.35644,50.08918],[18.35717,50.0882],[18.35802,50.08746],[18.35879,50.08703],[18.3606,50.08647],[18.36218,50.08548]]}},{"type":"Feature","properties":{"numer":"3538S","klasa":"","kat":"powiatowa"},"geometry":{"type":"LineString","coordinates":[[18.3559,50.08953],[18.35514,50.08934],[18.35343,50.08914],[18.34958,50.08893],[18.34484,50.08808],[18.34203,50.08779],[18.34118,50.08747]]}},{"type":"Feature","properties":{"numer":"923","klasa":"droga zbiorcza","kat":"wojewodzka"},"geometry":{"type":"LineString","coordinates":[[18.35422,50.11589],[18.35373,50.11372],[18.35242,50.11021],[18.35216,50.10828],[18.35227,50.10787],[18.35326,50.10667],[18.3535,50.10605],[18.35387,50.10581],[18.35484,50.10543],[18.35511,50.10513],[18.35445,50.10403],[18.35432,50.10349],[18.35558,50.097],[18.35535,50.09361],[18.35518,50.09326],[18.35464,50.09268],[18.35453,50.0923],[18.35492,50.09124],[18.35563,50.08981],[18.3559,50.08953]]}},{"type":"Feature","properties":{"numer":"5025S","klasa":"droga zbiorcza","kat":"powiatowa"},"geometry":{"type":"LineString","coordinates":[[18.39344,50.11358],[18.3935,50.11346]]}},{"type":"Feature","properties":{"numer":"923","klasa":"droga zbiorcza","kat":"wojewodzka"},"geometry":{"type":"LineString","coordinates":[[18.3019,50.12114],[18.30208,50.121],[18.30294,50.11977],[18.3048,50.11857],[18.30632,50.1161],[18.30665,50.11572],[18.30817,50.11478],[18.30974,50.11347],[18.3127,50.11261],[18.31466,50.11168],[18.31618,50.11052],[18.31778,50.10842],[18.31813,50.10823],[18.31856,50.10834],[18.32083,50.10945],[18.32404,50.11046],[18.32891,50.11139],[18.33821,50.11248],[18.34655,50.11427],[18.35391,50.11607]]}},{"type":"Feature","properties":{"numer":"923","klasa":"droga zbiorcza","kat":"wojewodzka"},"geometry":{"type":"LineString","coordinates":[[18.35391,50.11607],[18.3541,50.11603],[18.35422,50.11589]]}},{"type":"Feature","properties":{"numer":"5608S","klasa":"droga zbiorcza","kat":"powiatowa"},"geometry":{"type":"LineString","coordinates":[[18.43051,50.10879],[18.43064,50.10895],[18.43091,50.10901],[18.43172,50.10885],[18.44163,50.10535],[18.44501,50.10522],[18.44944,50.10429],[18.45099,50.10428],[18.45184,50.10437],[18.46069,50.10713],[18.46229,50.10736],[18.4657,50.10745],[18.46635,50.10758],[18.46796,50.10822]]}},{"type":"Feature","properties":{"numer":"5608S","klasa":"droga zbiorcza","kat":"powiatowa"},"geometry":{"type":"LineString","coordinates":[[18.4257,50.10794],[18.42696,50.10815],[18.42937,50.10805],[18.42977,50.10818],[18.43027,50.10862]]}},{"type":"Feature","properties":{"numer":"5026S","klasa":"droga zbiorcza","kat":"powiatowa"},"geometry":{"type":"LineString","coordinates":[[18.43047,50.10857],[18.43044,50.10869]]}},{"type":"Feature","properties":{"numer":"5608S","klasa":"droga zbiorcza","kat":"powiatowa"},"geometry":{"type":"LineString","coordinates":[[18.43027,50.10862],[18.43044,50.10869]]}},{"type":"Feature","properties":{"numer":"5608S","klasa":"droga zbiorcza","kat":"powiatowa"},"geometry":{"type":"LineString","coordinates":[[18.43044,50.10869],[18.43051,50.10879]]}},{"type":"Feature","properties":{"numer":"5608S","klasa":"droga zbiorcza","kat":"powiatowa"},"geometry":{"type":"LineString","coordinates":[[18.41494,50.12077],[18.41469,50.11982],[18.41475,50.11858],[18.41517,50.11687],[18.41536,50.11645],[18.41563,50.11622],[18.41902,50.11426],[18.42015,50.11308],[18.42154,50.11027],[18.42185,50.11011],[18.42474,50.10915],[18.42497,50.10893],[18.42534,50.10814],[18.4257,50.10794]]}},{"type":"Feature","properties":{"numer":"5601S","klasa":"droga zbiorcza","kat":"powiatowa"},"geometry":{"type":"LineString","coordinates":[[18.41494,50.12077],[18.41718,50.12033],[18.46796,50.10822]]}},{"type":"Feature","properties":{"numer":"5601S","klasa":"droga zbiorcza","kat":"powiatowa"},"geometry":{"type":"LineString","coordinates":[[18.41413,50.12089],[18.41167,50.12119],[18.39439,50.12017],[18.39326,50.12006],[18.39062,50.1195]]}},{"type":"Feature","properties":{"numer":"5601S","klasa":"droga zbiorcza","kat":"powiatowa"},"geometry":{"type":"LineString","coordinates":[[18.41438,50.12086],[18.41494,50.12077]]}},{"type":"Feature","properties":{"numer":"5601S","klasa":"droga zbiorcza","kat":"powiatowa"},"geometry":{"type":"LineString","coordinates":[[18.41413,50.12089],[18.41438,50.12086]]}},{"type":"Feature","properties":{"numer":"923","klasa":"droga zbiorcza","kat":"wojewodzka"},"geometry":{"type":"LineString","coordinates":[[18.286155380710635,50.12024187817258],[18.28734,50.1209],[18.28995,50.12183],[18.29073,50.12203],[18.29403,50.12258],[18.29554,50.1227]]}},{"type":"Feature","properties":{"numer":"923","klasa":"droga zbiorcza","kat":"wojewodzka"},"geometry":{"type":"LineString","coordinates":[[18.29554,50.1227],[18.29651,50.12237],[18.29808,50.12137],[18.29898,50.12104],[18.29949,50.12101],[18.3019,50.12114]]}},{"type":"Feature","properties":{"numer":"5604S","klasa":"droga zbiorcza","kat":"powiatowa"},"geometry":{"type":"LineString","coordinates":[[18.3019,50.12114],[18.30523,50.12161],[18.31268,50.12403],[18.31385,50.12468],[18.3264,50.13247],[18.32704,50.13267],[18.32765,50.13265],[18.32815,50.13247],[18.32872,50.13215]]}},{"type":"Feature","properties":{"numer":"3546S","klasa":"","kat":"powiatowa"},"geometry":{"type":"LineString","coordinates":[[18.29820900249943,50.127475223812766],[18.29768,50.12674],[18.29684,50.1254],[18.2959,50.1242],[18.29554,50.1227]]}},{"type":"Feature","properties":{"numer":"701021S","klasa":"droga dojazdowa","kat":"powiatowa"},"geometry":{"type":"LineString","coordinates":[[18.47507,50.0948],[18.47624,50.09494],[18.47753,50.09487]]}},{"type":"Feature","properties":{"numer":"701021S","klasa":"droga dojazdowa","kat":"powiatowa"},"geometry":{"type":"LineString","coordinates":[[18.46904,50.09623],[18.46958,50.09536],[18.4699,50.09425]]}},{"type":"Feature","properties":{"numer":"701021S","klasa":"droga dojazdowa","kat":"powiatowa"},"geometry":{"type":"LineString","coordinates":[[18.46811,50.09699],[18.46904,50.09623]]}},{"type":"Feature","properties":{"numer":"701021S","klasa":"droga dojazdowa","kat":"powiatowa"},"geometry":{"type":"LineString","coordinates":[[18.46763,50.09697],[18.46811,50.09699]]}},{"type":"Feature","properties":{"numer":"701017S","klasa":"droga dojazdowa","kat":"powiatowa"},"geometry":{"type":"LineString","coordinates":[[18.46815,50.09899],[18.46798,50.09851],[18.46796,50.0978],[18.46763,50.09697]]}},{"type":"Feature","properties":{"numer":"5620S","klasa":"droga zbiorcza","kat":"powiatowa"},"geometry":{"type":"LineString","coordinates":[[18.48034,50.10335],[18.4795,50.10235],[18.47926,50.10167],[18.47957,50.10014],[18.47956,50.09861],[18.47995,50.09683],[18.47973,50.09481]]}},{"type":"Feature","properties":{"numer":"701017S","klasa":"droga dojazdowa","kat":"powiatowa"},"geometry":{"type":"LineString","coordinates":[[18.46834,50.09929],[18.46815,50.09899]]}},{"type":"Feature","properties":{"numer":"701017S","klasa":"droga dojazdowa","kat":"powiatowa"},"geometry":{"type":"LineString","coordinates":[[18.46913,50.10265],[18.46894,50.10224],[18.4687,50.09986],[18.46834,50.09929]]}},{"type":"Feature","properties":{"numer":"701017S","klasa":"droga dojazdowa","kat":"powiatowa"},"geometry":{"type":"LineString","coordinates":[[18.46973,50.10313],[18.46913,50.10265]]}},{"type":"Feature","properties":{"numer":"5601S","klasa":"droga zbiorcza","kat":"powiatowa"},"geometry":{"type":"LineString","coordinates":[[18.48034,50.10335],[18.48095,50.10313],[18.483261713638655,50.10271581797307]]}},{"type":"Feature","properties":{"numer":"5601S","klasa":"droga zbiorcza","kat":"powiatowa"},"geometry":{"type":"LineString","coordinates":[[18.48,50.10351],[18.48034,50.10335]]}},{"type":"Feature","properties":{"numer":"5601S","klasa":"droga zbiorcza","kat":"powiatowa"},"geometry":{"type":"LineString","coordinates":[[18.4799,50.10355],[18.48,50.10351]]}},{"type":"Feature","properties":{"numer":"701017S","klasa":"droga dojazdowa","kat":"powiatowa"},"geometry":{"type":"LineString","coordinates":[[18.47091,50.10453],[18.47071,50.10414],[18.46993,50.10374],[18.46973,50.10313]]}},{"type":"Feature","properties":{"numer":"5601S","klasa":"droga zbiorcza","kat":"powiatowa"},"geometry":{"type":"LineString","coordinates":[[18.47297,50.10579],[18.47399,50.10531],[18.47487,50.10504],[18.47847,50.10419],[18.4799,50.10355]]}},{"type":"Feature","properties":{"numer":"701019S","klasa":"droga dojazdowa","kat":"powiatowa"},"geometry":{"type":"LineString","coordinates":[[18.47297,50.10579],[18.47199,50.10498],[18.47091,50.10453]]}},{"type":"Feature","properties":{"numer":"5601S","klasa":"droga zbiorcza","kat":"powiatowa"},"geometry":{"type":"LineString","coordinates":[[18.46796,50.10822],[18.46857,50.10802],[18.47297,50.10579]]}},{"type":"Feature","properties":{"numer":"7001S","klasa":"droga zbiorcza","kat":"powiatowa"},"geometry":{"type":"LineString","coordinates":[[18.594660482836666,50.116785420596],[18.59464,50.11681]]}},{"type":"Feature","properties":{"numer":"7001S","klasa":"droga zbiorcza","kat":"powiatowa"},"geometry":{"type":"LineString","coordinates":[[18.59464,50.11681],[18.5941,50.11725]]}},{"type":"Feature","properties":{"numer":"7001S","klasa":"droga zbiorcza","kat":"powiatowa"},"geometry":{"type":"LineString","coordinates":[[18.591274934608627,50.12386365996487],[18.59123,50.12363],[18.59205,50.11919],[18.59258,50.11848],[18.5941,50.11725]]}},{"type":"Feature","properties":{"numer":"7023S","klasa":"","kat":"powiatowa"},"geometry":{"type":"LineString","coordinates":[[18.565521999999962,50.141506000000014],[18.56583,50.14138]]}},{"type":"Feature","properties":{"numer":"2906S","klasa":"","kat":"powiatowa"},"geometry":{"type":"LineString","coordinates":[[18.5649,50.16839],[18.56545,50.16844],[18.57289,50.1698],[18.57365,50.16981],[18.57534,50.16956],[18.57739,50.16843],[18.57781,50.16809],[18.57843,50.16738],[18.57901,50.1665],[18.57921,50.16593],[18.57925,50.16559],[18.57892,50.16496],[18.57927,50.16449],[18.57973,50.16414],[18.58192,50.16301],[18.58429,50.16162],[18.58487,50.1612],[18.58546,50.16059],[18.58686,50.15988],[18.59257,50.15522],[18.59286,50.15506],[18.59317,50.15501],[18.59431,50.15518],[18.5949,50.15513],[18.59852,50.15382]]}},{"type":"Feature","properties":{"numer":"7002S","klasa":"droga zbiorcza","kat":"powiatowa"},"geometry":{"type":"LineString","coordinates":[[18.46326,50.13862],[18.463735715402656,50.138180187646604]]}},{"type":"Feature","properties":{"numer":"7030S","klasa":"droga zbiorcza","kat":"powiatowa"},"geometry":{"type":"LineString","coordinates":[[18.5649,50.16839],[18.56480286573147,50.168390656312624]]}},{"type":"Feature","properties":{"numer":"5601S","klasa":"droga zbiorcza","kat":"powiatowa"},"geometry":{"type":"LineString","coordinates":[[18.35447,50.11622],[18.35422,50.11589]]}},{"type":"Feature","properties":{"numer":"5601S","klasa":"droga zbiorcza","kat":"powiatowa"},"geometry":{"type":"LineString","coordinates":[[18.35391,50.11607],[18.35447,50.11622]]}},{"type":"Feature","properties":{"numer":"5025S","klasa":"droga zbiorcza","kat":"powiatowa"},"geometry":{"type":"LineString","coordinates":[[18.39062,50.1195],[18.39074,50.1188],[18.39344,50.11358]]}},{"type":"Feature","properties":{"numer":"5601S","klasa":"droga zbiorcza","kat":"powiatowa"},"geometry":{"type":"LineString","coordinates":[[18.39062,50.1195],[18.38945,50.11917],[18.38704,50.11832],[18.38586,50.11772],[18.38555,50.11766],[18.38496,50.11775],[18.38337,50.11862],[18.38255,50.11896],[18.38066,50.11941],[18.37997,50.11946],[18.37471,50.11927],[18.37346,50.11914],[18.36341,50.11728],[18.35721,50.11709],[18.35683,50.11702],[18.35447,50.11622]]}},{"type":"Feature","properties":{"numer":"5025S","klasa":"droga zbiorcza","kat":"powiatowa"},"geometry":{"type":"LineString","coordinates":[[18.39677,50.13283],[18.39139,50.12931],[18.38955,50.12775],[18.38895,50.12689],[18.38881,50.12641],[18.38886,50.12616],[18.38991,50.12383],[18.38984,50.12147],[18.39062,50.1195]]}},{"type":"Feature","properties":{"numer":"5604S","klasa":"droga zbiorcza","kat":"powiatowa"},"geometry":{"type":"LineString","coordinates":[[18.32872,50.13215],[18.33054,50.13113],[18.33168,50.13027],[18.33317,50.12993],[18.33373,50.13004],[18.33636,50.13113],[18.33695,50.1313],[18.33768,50.13138],[18.34286,50.13106],[18.34377,50.13093],[18.34607,50.13034],[18.3468,50.13033],[18.35024,50.1312],[18.353,50.13214],[18.35493,50.13242],[18.35885,50.13381],[18.36206,50.13541],[18.36221,50.13557],[18.36239,50.13625],[18.36275,50.13656],[18.36316,50.13673],[18.36642,50.13701],[18.36816,50.13749],[18.37351,50.13812],[18.37421,50.13804],[18.3787,50.13635],[18.38505,50.13621],[18.38626,50.13607],[18.38902,50.13554],[18.39677,50.13283]]}},{"type":"Feature","properties":{"numer":"3537S","klasa":"","kat":"powiatowa"},"geometry":{"type":"LineString","coordinates":[[18.337724375252343,50.14401229283933],[18.3357,50.14264],[18.33474,50.14187],[18.33036,50.13621],[18.32885,50.1341],[18.32859,50.13276],[18.32872,50.13215]]}},{"type":"Feature","properties":{"numer":"3536S","klasa":"droga zbiorcza","kat":"powiatowa"},"geometry":{"type":"LineString","coordinates":[[18.395513142391344,50.13988288599059],[18.3998,50.13734],[18.40173,50.13607]]}},{"type":"Feature","properties":{"numer":"5025S","klasa":"droga zbiorcza","kat":"powiatowa"},"geometry":{"type":"LineString","coordinates":[[18.39961,50.13469],[18.39677,50.13283]]}},{"type":"Feature","properties":{"numer":"5025S","klasa":"droga zbiorcza","kat":"powiatowa"},"geometry":{"type":"LineString","coordinates":[[18.39983,50.13483],[18.39961,50.13469]]}},{"type":"Feature","properties":{"numer":"5025S","klasa":"droga zbiorcza","kat":"powiatowa"},"geometry":{"type":"LineString","coordinates":[[18.40173,50.13607],[18.39983,50.13483]]}},{"type":"Feature","properties":{"numer":"3536S","klasa":"droga zbiorcza","kat":"powiatowa"},"geometry":{"type":"LineString","coordinates":[[18.40173,50.13607],[18.40286,50.13545],[18.40631,50.13411],[18.40675,50.13374],[18.40734,50.13279],[18.40971,50.13225],[18.41031,50.1322],[18.41093,50.13257],[18.41118,50.13263],[18.41624,50.13324],[18.42223,50.13611],[18.42738,50.14029],[18.43135,50.14264],[18.43336,50.14437],[18.43381,50.14459],[18.43447,50.14478],[18.43518,50.14491],[18.43632,50.14501],[18.4391,50.14504],[18.44107,50.14481],[18.44141,50.14466],[18.44199,50.14411],[18.44253,50.14383],[18.4433,50.1437],[18.44416,50.1438],[18.44462,50.14377],[18.44946,50.1428],[18.45007,50.14257],[18.45228,50.14139],[18.45586,50.14069],[18.45842,50.13984],[18.46185,50.13924],[18.4626,50.13901],[18.463209677419357,50.138649736070384]]}},{"type":"Feature","properties":{"numer":"3536S","klasa":"droga zbiorcza","kat":"powiatowa"},"geometry":{"type":"LineString","coordinates":[[18.463211111111104,50.138648888888895],[18.46326,50.13862]]}}]}