{"type":"FeatureCollection","features":[{"type":"Feature","properties":{"numer":"12","klasa":"droga gĹ‚Ăłwna ruchu przyĹ›pieszonego","kat":"krajowa"},"geometry":{"type":"LineString","coordinates":[[15.9766,51.6313],[15.97647,51.63066],[15.97643,51.62649],[15.97677,51.62574],[15.97743,51.62478],[15.97785,51.62366],[15.97781,51.62301],[15.9765,51.62058],[15.97423,51.61921],[15.97276,51.61858],[15.97209,51.61798],[15.9709,51.61414],[15.968926098386468,51.610808439227895]]}},{"type":"Feature","properties":{"numer":"1158D","klasa":"droga zbiorcza","kat":"powiatowa"},"geometry":{"type":"LineString","coordinates":[[15.96793,51.63124],[15.96792728440367,51.63123955963302]]}},{"type":"Feature","properties":{"numer":"1058D","klasa":"droga zbiorcza","kat":"powiatowa"},"geometry":{"type":"LineString","coordinates":[[15.97532,51.63118],[15.97297,51.63106],[15.96917,51.6313],[15.96793,51.63124]]}},{"type":"Feature","properties":{"numer":"1058D","klasa":"droga zbiorcza","kat":"powiatowa"},"geometry":{"type":"LineString","coordinates":[[15.9766,51.6313],[15.9762,51.63135],[15.97532,51.63118]]}},{"type":"Feature","properties":{"numer":"1021D","klasa":"droga zbiorcza","kat":"powiatowa"},"geometry":{"type":"LineString","coordinates":[[15.97517,51.63145],[15.97532,51.63118]]}},{"type":"Feature","properties":{"numer":"12","klasa":"droga gĹ‚Ăłwna ruchu przyĹ›pieszonego","kat":"krajowa"},"geometry":{"type":"LineString","coordinates":[[15.99684,51.63569],[15.99425,51.63492],[15.99111,51.63423],[15.98956,51.6338],[15.98625,51.63275],[15.98523,51.63262],[15.98368,51.63276],[15.98238,51.63277],[15.97686,51.63147],[15.9766,51.6313]]}},{"type":"Feature","properties":{"numer":"12","klasa":"droga gĹ‚Ăłwna ruchu przyĹ›pieszonego","kat":"krajowa"},"geometry":{"type":"LineString","coordinates":[[15.99696,51.63572],[15.99684,51.63569]]}},{"type":"Feature","properties":{"numer":"12","klasa":"droga gĹ‚Ăłwna ruchu przyĹ›pieszonego","kat":"krajowa"},"geometry":{"type":"LineString","coordinates":[[15.99747,51.63582],[15.99696,51.63572]]}},{"type":"Feature","properties":{"numer":"100043D,12","klasa":"droga gĹ‚Ăłwna ruchu przyĹ›pieszonego","kat":"powiatowa"},"geometry":{"type":"LineString","coordinates":[[15.99952,51.63597],[15.99747,51.63582]]}},{"type":"Feature","properties":{"numer":"100043D,12","klasa":"droga gĹ‚Ăłwna ruchu przyĹ›pieszonego","kat":"powiatowa"},"geometry":{"type":"LineString","coordinates":[[15.99976,51.63598],[15.99952,51.63597]]}},{"type":"Feature","properties":{"numer":"1021D","klasa":"droga zbiorcza","kat":"powiatowa"},"geometry":{"type":"LineString","coordinates":[[15.97213,51.64917],[15.97153,51.64887],[15.97069,51.64768],[15.97055,51.64728],[15.97095,51.64311],[15.97085,51.64258],[15.97015,51.64174],[15.96952,51.6402],[15.96876,51.63943],[15.96859,51.6391],[15.96882,51.63884],[15.96966,51.6385],[15.96975,51.63839],[15.96971,51.63759],[15.96927,51.63674],[15.96939,51.63656],[15.97015,51.63604],[15.97034,51.63577],[15.97012,51.63493],[15.97031,51.63431],[15.97076,51.63399],[15.9722,51.63339],[15.97283,51.63303],[15.97517,51.63145]]}},{"type":"Feature","properties":{"numer":"1020D","klasa":"droga zbiorcza","kat":"powiatowa"},"geometry":{"type":"LineString","coordinates":[[16.00065,51.64805],[15.99872,51.64319],[15.99898,51.63978],[15.99952,51.63597]]}},{"type":"Feature","properties":{"numer":"12","klasa":"droga gĹ‚Ăłwna ruchu przyĹ›pieszonego","kat":"krajowa"},"geometry":{"type":"LineString","coordinates":[[16.015397296622016,51.64076238372381],[16.01454,51.64074],[16.01327,51.64053],[16.00769,51.63875],[16.00699,51.63839],[16.00544,51.63729],[16.00468,51.63695],[16.00105,51.63611],[15.99976,51.63598]]}},{"type":"Feature","properties":{"numer":"1019D","klasa":"","kat":"powiatowa"},"geometry":{"type":"LineString","coordinates":[[15.99038,51.64658],[15.99025,51.64657]]}},{"type":"Feature","properties":{"numer":"1019D","klasa":"","kat":"powiatowa"},"geometry":{"type":"LineString","coordinates":[[15.99058,51.64661],[15.99038,51.64658]]}},{"type":"Feature","properties":{"numer":"1019D","klasa":"","kat":"powiatowa"},"geometry":{"type":"LineString","coordinates":[[16.00065,51.64805],[15.99058,51.64661]]}},{"type":"Feature","properties":{"numer":"1019D","klasa":"","kat":"powiatowa"},"geometry":{"type":"LineString","coordinates":[[15.99025,51.64657],[15.98453,51.64659],[15.98133,51.64718],[15.97988,51.64727],[15.978,51.64715],[15.97747,51.64728],[15.97696,51.64757],[15.97487,51.64814],[15.97401,51.64834],[15.97327,51.64841],[15.97214,51.64907],[15.97213,51.64917]]}},{"type":"Feature","properties":{"numer":"1021D","klasa":"droga zbiorcza","kat":"powiatowa"},"geometry":{"type":"LineString","coordinates":[[15.95252,51.65946],[15.95253,51.65936]]}},{"type":"Feature","properties":{"numer":"100047D","klasa":"","kat":"powiatowa"},"geometry":{"type":"LineString","coordinates":[[15.95252,51.65946],[15.95223,51.65947]]}},{"type":"Feature","properties":{"numer":"1021D","klasa":"droga zbiorcza","kat":"powiatowa"},"geometry":{"type":"LineString","coordinates":[[15.95253,51.65954],[15.95252,51.65946]]}},{"type":"Feature","properties":{"numer":"100047D,1021D","klasa":"droga zbiorcza","kat":"powiatowa"},"geometry":{"type":"LineString","coordinates":[[15.95323,51.66011],[15.9531,51.65983],[15.95253,51.65954]]}},{"type":"Feature","properties":{"numer":"100047D,1021D","klasa":"droga zbiorcza","kat":"powiatowa"},"geometry":{"type":"LineString","coordinates":[[15.9532,51.66042],[15.95323,51.66011]]}},{"type":"Feature","properties":{"numer":"1021D","klasa":"droga zbiorcza","kat":"powiatowa"},"geometry":{"type":"LineString","coordinates":[[15.97213,51.64917],[15.97233,51.65045],[15.97022,51.65297],[15.9696,51.65343],[15.96713,51.65468],[15.96536,51.65639],[15.96456,51.65667],[15.96258,51.657],[15.96112,51.65709],[15.96,51.65697],[15.95718,51.65745],[15.95651,51.65767],[15.95436,51.65884],[15.95281,51.65918],[15.95253,51.65936]]}},{"type":"Feature","properties":{"numer":"1020D","klasa":"droga zbiorcza","kat":"powiatowa"},"geometry":{"type":"LineString","coordinates":[[15.98479,51.66474],[15.98545,51.66387],[15.98611,51.66339],[15.99313,51.65951],[15.99514,51.65847],[16.00014,51.65642],[16.00095,51.6559],[16.00117,51.6554],[16.00103,51.65],[16.00097,51.649],[16.00065,51.64805]]}},{"type":"Feature","properties":{"numer":"1020D","klasa":"droga zbiorcza","kat":"powiatowa"},"geometry":{"type":"LineString","coordinates":[[15.98461,51.66501],[15.98479,51.66474]]}},{"type":"Feature","properties":{"numer":"292","klasa":"droga gĹ‚Ăłwna","kat":"wojewodzka"},"geometry":{"type":"LineString","coordinates":[[15.99867,51.66719],[16.00485,51.66652],[16.00606,51.66651],[16.00856,51.66673],[16.00982,51.66673],[16.01235,51.66644],[16.01422,51.66604],[16.01747,51.6655],[16.021098589048425,51.66518153340799]]}},{"type":"Feature","properties":{"numer":"292","klasa":"droga gĹ‚Ăłwna","kat":"wojewodzka"},"geometry":{"type":"LineString","coordinates":[[16.02330408155292,51.66478023970818],[16.02421,51.66461],[16.027537615722018,51.66429164040928]]}},{"type":"Feature","properties":{"numer":"292","klasa":"droga gĹ‚Ăłwna","kat":"wojewodzka"},"geometry":{"type":"LineString","coordinates":[[16.02947775498231,51.6640677256741],[16.03262,51.66363],[16.0335374871647,51.663599185154816]]}},{"type":"Feature","properties":{"numer":"1021D","klasa":"droga zbiorcza","kat":"powiatowa"},"geometry":{"type":"LineString","coordinates":[[15.95155,51.67025],[15.95136,51.66985],[15.95132,51.66945],[15.95228,51.66195],[15.95243,51.66156],[15.9532,51.66042]]}},{"type":"Feature","properties":{"numer":"1018D","klasa":"","kat":"powiatowa"},"geometry":{"type":"LineString","coordinates":[[15.88373,51.67296],[15.88423,51.67218],[15.88552,51.66953],[15.885632127424437,51.66942806597779]]}},{"type":"Feature","properties":{"numer":"1022D","klasa":"","kat":"powiatowa"},"geometry":{"type":"LineString","coordinates":[[15.94536,51.67078],[15.94781,51.66991],[15.94942,51.67001],[15.95101,51.67028],[15.95155,51.67025]]}},{"type":"Feature","properties":{"numer":"1021D","klasa":"droga zbiorcza","kat":"powiatowa"},"geometry":{"type":"LineString","coordinates":[[15.95269,51.67141],[15.95249,51.67111],[15.95155,51.67025]]}},{"type":"Feature","properties":{"numer":"1022D","klasa":"","kat":"powiatowa"},"geometry":{"type":"LineString","coordinates":[[15.93001,51.67302],[15.93059,51.67292],[15.93893,51.67348],[15.94058,51.67282],[15.94117,51.67268],[15.94258,51.67195],[15.94536,51.67078]]}},{"type":"Feature","properties":{"numer":"1024D","klasa":"","kat":"powiatowa"},"geometry":{"type":"LineString","coordinates":[[15.912623466290627,51.67158824827648],[15.91727,51.67146],[15.91776,51.67155],[15.91966,51.67215],[15.92171,51.67249],[15.92301,51.67262],[15.9254,51.67311],[15.92654,51.6732],[15.92948,51.67308]]}},{"type":"Feature","properties":{"numer":"1022D","klasa":"","kat":"powiatowa"},"geometry":{"type":"LineString","coordinates":[[15.92976,51.67317],[15.93001,51.67302]]}},{"type":"Feature","properties":{"numer":"1020D","klasa":"droga zbiorcza","kat":"powiatowa"},"geometry":{"type":"LineString","coordinates":[[15.98471,51.66701],[15.98472,51.66659],[15.98434,51.66549],[15.98461,51.66501]]}},{"type":"Feature","properties":{"numer":"1023D","klasa":"","kat":"powiatowa"},"geometry":{"type":"LineString","coordinates":[[15.98471,51.66701],[15.98479,51.66701]]}},{"type":"Feature","properties":{"numer":"1020D","klasa":"","kat":"powiatowa"},"geometry":{"type":"LineString","coordinates":[[15.98479,51.66701],[15.99479,51.6673],[15.99867,51.66719]]}},{"type":"Feature","properties":{"numer":"1023D","klasa":"","kat":"powiatowa"},"geometry":{"type":"LineString","coordinates":[[15.98096,51.67111],[15.98124,51.67078],[15.98129,51.67031],[15.98183,51.67008],[15.98209,51.66977],[15.983,51.66715],[15.98344,51.66697],[15.98471,51.66701]]}},{"type":"Feature","properties":{"numer":"1024D","klasa":"droga zbiorcza","kat":"powiatowa"},"geometry":{"type":"LineString","coordinates":[[15.92948,51.67308],[15.92976,51.67317]]}},{"type":"Feature","properties":{"numer":"1153D","klasa":"droga zbiorcza","kat":"powiatowa"},"geometry":{"type":"LineString","coordinates":[[15.90552717014325,51.672119597888916],[15.90507,51.67268],[15.90446,51.67311],[15.90284,51.67374],[15.89872,51.67501],[15.89739,51.67602],[15.8961,51.67678],[15.89546,51.67694],[15.8921,51.67721],[15.89131,51.67741],[15.88804,51.67911],[15.88666,51.6797],[15.88564,51.68003],[15.88221,51.6808],[15.88108,51.68115]]}},{"type":"Feature","properties":{"numer":"1018D","klasa":"","kat":"powiatowa"},"geometry":{"type":"LineString","coordinates":[[15.88108,51.68115],[15.88194,51.67716],[15.88122,51.67544],[15.88166,51.67457],[15.88209,51.67425],[15.88305,51.6738],[15.88325,51.67321],[15.88373,51.67296]]}},{"type":"Feature","properties":{"numer":"1021D","klasa":"droga zbiorcza","kat":"powiatowa"},"geometry":{"type":"LineString","coordinates":[[15.95315,51.68409],[15.95318,51.68365],[15.95433,51.68118],[15.95448,51.68001],[15.95427,51.67908],[15.95226,51.67507],[15.95224,51.67409],[15.95286,51.67214],[15.95269,51.67141]]}},{"type":"Feature","properties":{"numer":"1024D","klasa":"droga zbiorcza","kat":"powiatowa"},"geometry":{"type":"LineString","coordinates":[[15.92976,51.67317],[15.92989,51.67337],[15.92953,51.6751],[15.92999,51.67542],[15.93114,51.67572],[15.93182,51.67612],[15.93459,51.67912],[15.93785,51.68184],[15.93928,51.68528],[15.94097,51.68764]]}},{"type":"Feature","properties":{"numer":"292","klasa":"droga gĹ‚Ăłwna","kat":"wojewodzka"},"geometry":{"type":"LineString","coordinates":[[15.95275,51.68419],[15.95315,51.68409]]}},{"type":"Feature","properties":{"numer":"1021D","klasa":"droga zbiorcza","kat":"powiatowa"},"geometry":{"type":"LineString","coordinates":[[15.95283,51.68438],[15.95275,51.68419]]}},{"type":"Feature","properties":{"numer":"1153D","klasa":"droga zbiorcza","kat":"powiatowa"},"geometry":{"type":"LineString","coordinates":[[15.86857,51.68852],[15.87319,51.68617],[15.87643,51.68275],[15.87717,51.68213],[15.87929,51.68174],[15.88108,51.68115]]}},{"type":"Feature","properties":{"numer":"1018D","klasa":"","kat":"powiatowa"},"geometry":{"type":"LineString","coordinates":[[15.92135,51.6892],[15.92038,51.68846],[15.91935,51.68813],[15.91613,51.68776],[15.91484,51.68754],[15.91019,51.68656],[15.90372,51.68466],[15.89865,51.68386],[15.89735,51.68371],[15.89591,51.68384],[15.89325,51.68483],[15.89209,51.68501],[15.89108,51.68496],[15.88523,51.68384],[15.88304,51.68337],[15.88215,51.68297],[15.88153,51.68246],[15.88122,51.68199],[15.88108,51.68115]]}},{"type":"Feature","properties":{"numer":"1021D","klasa":"droga zbiorcza","kat":"powiatowa"},"geometry":{"type":"LineString","coordinates":[[15.952211721644764,51.686364001104046],[15.95216,51.68591],[15.95283,51.68438]]}},{"type":"Feature","properties":{"numer":"1023D","klasa":"","kat":"powiatowa"},"geometry":{"type":"LineString","coordinates":[[15.98086,51.67121],[15.98096,51.67111]]}},{"type":"Feature","properties":{"numer":"292","klasa":"droga gĹ‚Ăłwna","kat":"wojewodzka"},"geometry":{"type":"LineString","coordinates":[[15.98318,51.67652],[15.98638,51.67567],[15.98813,51.67487],[15.98918,51.67415],[15.99579,51.66841],[15.9963,51.66806],[15.99716,51.66763],[15.99867,51.66719]]}},{"type":"Feature","properties":{"numer":"1023D","klasa":"","kat":"powiatowa"},"geometry":{"type":"LineString","coordinates":[[15.95269,51.67141],[15.95414,51.67182],[15.95655,51.67224],[15.96045,51.67279],[15.96192,51.67281],[15.97291,51.67269],[15.97335,51.67273],[15.97583,51.67242],[15.98043,51.67209],[15.98059,51.67197],[15.98063,51.67146],[15.98086,51.67121]]}},{"type":"Feature","properties":{"numer":"292","klasa":"droga gĹ‚Ăłwna","kat":"wojewodzka"},"geometry":{"type":"LineString","coordinates":[[15.9831,51.67654],[15.98318,51.67652]]}},{"type":"Feature","properties":{"numer":"292","klasa":"droga gĹ‚Ăłwna","kat":"wojewodzka"},"geometry":{"type":"LineString","coordinates":[[15.95315,51.68409],[15.95489,51.68366],[15.96222,51.68149],[15.97208,51.67998],[15.97339,51.67972],[15.97452,51.67939],[15.98087,51.67712],[15.9831,51.67654]]}},{"type":"Feature","properties":{"numer":"292","klasa":"droga gĹ‚Ăłwna","kat":"wojewodzka"},"geometry":{"type":"LineString","coordinates":[[15.94106,51.68781],[15.9423,51.68765],[15.94437,51.68766],[15.94558,51.68742],[15.94602,51.68725],[15.95027,51.68488],[15.95108,51.68458],[15.95275,51.68419]]}},{"type":"Feature","properties":{"numer":"1024D","klasa":"droga zbiorcza","kat":"powiatowa"},"geometry":{"type":"LineString","coordinates":[[15.94097,51.68764],[15.94106,51.68781]]}},{"type":"Feature","properties":{"numer":"292","klasa":"droga gĹ‚Ăłwna","kat":"wojewodzka"},"geometry":{"type":"LineString","coordinates":[[15.92135,51.6892],[15.92173,51.6889],[15.92232,51.68861],[15.92305,51.68848],[15.93094,51.68883],[15.93263,51.68885],[15.94106,51.68781]]}},{"type":"Feature","properties":{"numer":"1025D","klasa":"droga zbiorcza","kat":"powiatowa"},"geometry":{"type":"LineString","coordinates":[[15.86867,51.68889],[15.86857,51.68852]]}},{"type":"Feature","properties":{"numer":"1153D","klasa":"droga zbiorcza","kat":"powiatowa"},"geometry":{"type":"LineString","coordinates":[[15.864350097099065,51.69023923203466],[15.86446,51.68937],[15.86475,51.68915],[15.86638,51.68868],[15.8678,51.68866],[15.86857,51.68852]]}},{"type":"Feature","properties":{"numer":"1025D","klasa":"droga zbiorcza","kat":"powiatowa"},"geometry":{"type":"LineString","coordinates":[[15.86867,51.68889],[15.86881,51.69209],[15.86915,51.69288],[15.86954,51.69328],[15.87054,51.69386],[15.88676,51.70205],[15.88742,51.70245],[15.88514,51.70422],[15.8834,51.70681],[15.88367,51.70827],[15.88354,51.7084],[15.88314,51.7085],[15.883,51.70865],[15.88369,51.71008],[15.88359,51.71095],[15.88394,51.71207]]}},{"type":"Feature","properties":{"numer":"292","klasa":"droga gĹ‚Ăłwna","kat":"wojewodzka"},"geometry":{"type":"LineString","coordinates":[[15.88394,51.71207],[15.88534,51.71191],[15.8867,51.71161],[15.89361,51.71076],[15.89713,51.70952],[15.8983,51.70932],[15.90015,51.70921],[15.90162,51.70885],[15.90286,51.70841],[15.90401,51.70781],[15.90558,51.70678],[15.90738,51.70539],[15.90844,51.70471],[15.91042,51.70217],[15.91134,51.70049],[15.91434,51.69935],[15.91519,51.69882],[15.91525,51.69858],[15.91513,51.69795],[15.91581,51.69614],[15.91649,51.69476],[15.91696,51.69436],[15.91713,51.69363],[15.91765,51.6926],[15.92135,51.6892]]}},{"type":"Feature","properties":{"numer":"292","klasa":"droga gĹ‚Ăłwna","kat":"wojewodzka"},"geometry":{"type":"LineString","coordinates":[[15.8685,51.71633],[15.87203,51.7159],[15.8753,51.71565],[15.87608,51.7155],[15.87946,51.71415],[15.88225,51.71252],[15.88394,51.71207]]}},{"type":"Feature","properties":{"numer":"292","klasa":"droga zbiorcza","kat":"wojewodzka"},"geometry":{"type":"LineString","coordinates":[[15.8685,51.71633],[15.868455477306734,51.71633688428928]]}}]}