{"type":"FeatureCollection","features":[{"type":"Feature","properties":{"numer":"","klasa":"droga zbiorcza","kat":"powiatowa"},"geometry":{"type":"LineString","coordinates":[[16.39400738372212,51.61503600059432],[16.39269,51.61536],[16.37918,51.61832],[16.37789,51.61842]]}},{"type":"Feature","properties":{"numer":"1094D","klasa":"","kat":"powiatowa"},"geometry":{"type":"LineString","coordinates":[[16.3561,51.62296],[16.35786,51.62095],[16.35795,51.62071],[16.35793,51.61947],[16.3578,51.61871],[16.35793,51.61813],[16.35765,51.61772],[16.3579,51.61726],[16.35759,51.61668]]}},{"type":"Feature","properties":{"numer":"1093D","klasa":"","kat":"powiatowa"},"geometry":{"type":"LineString","coordinates":[[16.37708,51.64339],[16.37693,51.64325],[16.37482,51.63689],[16.37466,51.63661],[16.37383,51.63577],[16.37334,51.63532],[16.37062,51.63386],[16.36726,51.63254],[16.36377,51.63148],[16.3597,51.62555],[16.3561,51.62296]]}},{"type":"Feature","properties":{"numer":"1094D","klasa":"","kat":"powiatowa"},"geometry":{"type":"LineString","coordinates":[[16.35996,51.65065],[16.35854,51.65034],[16.35483,51.65028],[16.35401,51.65041],[16.35285,51.65048],[16.35225,51.65032],[16.34919,51.64856],[16.34864,51.64802],[16.34816,51.64678],[16.34795,51.64514],[16.3477,51.64476],[16.34696,51.64416],[16.34664,51.64401],[16.34496,51.64415],[16.34408,51.64301],[16.3438,51.64231],[16.34412,51.64107],[16.34462,51.64027],[16.34496,51.64006],[16.34633,51.63991],[16.34757,51.63897],[16.34844,51.63769],[16.34929,51.63676],[16.35002,51.6357],[16.35295,51.63049],[16.3545,51.62575],[16.3561,51.62296]]}},{"type":"Feature","properties":{"numer":"1095D","klasa":"","kat":"powiatowa"},"geometry":{"type":"LineString","coordinates":[[16.38138,51.64133],[16.38143,51.64131]]}},{"type":"Feature","properties":{"numer":"1095D","klasa":"","kat":"powiatowa"},"geometry":{"type":"LineString","coordinates":[[16.37708,51.64339],[16.38138,51.64133]]}},{"type":"Feature","properties":{"numer":"1093D,1095D","klasa":"","kat":"powiatowa"},"geometry":{"type":"LineString","coordinates":[[16.37704,51.64351],[16.37708,51.64339]]}},{"type":"Feature","properties":{"numer":"1095D","klasa":"","kat":"powiatowa"},"geometry":{"type":"LineString","coordinates":[[16.37679,51.64374],[16.37704,51.64351]]}},{"type":"Feature","properties":{"numer":"1093D","klasa":"","kat":"powiatowa"},"geometry":{"type":"LineString","coordinates":[[16.37715,51.64393],[16.37704,51.64351]]}},{"type":"Feature","properties":{"numer":"1093D","klasa":"","kat":"powiatowa"},"geometry":{"type":"LineString","coordinates":[[16.37679,51.64374],[16.37715,51.64393]]}},{"type":"Feature","properties":{"numer":"1096D","klasa":"","kat":"powiatowa"},"geometry":{"type":"LineString","coordinates":[[16.37789,51.61842],[16.37798,51.61855],[16.37826,51.61865],[16.39743,51.62335],[16.41065,51.62509],[16.41151,51.62601],[16.41214,51.62644]]}},{"type":"Feature","properties":{"numer":"1095D","klasa":"","kat":"powiatowa"},"geometry":{"type":"LineString","coordinates":[[16.41214,51.62644],[16.41393,51.62591],[16.41566,51.62614],[16.41668,51.62644],[16.41747,51.62643],[16.42052,51.6257],[16.420581515050912,51.62568311988049]]}},{"type":"Feature","properties":{"numer":"1095D","klasa":"","kat":"powiatowa"},"geometry":{"type":"LineString","coordinates":[[16.38143,51.64131],[16.38515,51.63957],[16.39003,51.6371],[16.39698,51.63171],[16.39766,51.63145],[16.40249,51.6302],[16.40522,51.62907],[16.40859,51.62743],[16.41009,51.62706],[16.41214,51.62644]]}},{"type":"Feature","properties":{"numer":"1092D","klasa":"","kat":"powiatowa"},"geometry":{"type":"LineString","coordinates":[[16.40395,51.67881],[16.40146,51.67627],[16.40075,51.67571],[16.39958,51.67504],[16.39802,51.67448],[16.39381,51.67326],[16.39224,51.67265],[16.39004,51.6716],[16.38718,51.67046],[16.38587,51.67006],[16.38466,51.66979],[16.37811,51.66783],[16.37408,51.6656],[16.37375,51.66506],[16.37343,51.66389],[16.37343,51.6624],[16.37453,51.66072],[16.37541,51.65891],[16.37537,51.65723],[16.37555,51.65687],[16.37585,51.65655],[16.37811,51.65553],[16.37901,51.65476],[16.38144,51.65303],[16.38313,51.651],[16.3833,51.65035],[16.38326,51.64944]]}},{"type":"Feature","properties":{"numer":"1093D","klasa":"","kat":"powiatowa"},"geometry":{"type":"LineString","coordinates":[[16.38326,51.64944],[16.38628,51.64945],[16.39195,51.65018],[16.39395,51.65063],[16.39729,51.65083],[16.40564,51.65172],[16.41222,51.65314],[16.41285,51.6534],[16.41547,51.65687],[16.41808,51.65929],[16.41912,51.66085],[16.42037,51.66208],[16.42103,51.66308],[16.42363,51.6657],[16.42627,51.66861],[16.4268,51.66907],[16.43023,51.67119],[16.43095,51.6719],[16.43159,51.67349],[16.43197,51.67501],[16.43294,51.68176]]}},{"type":"Feature","properties":{"numer":"324","klasa":"droga gĹ‚Ăłwna","kat":"wojewodzka"},"geometry":{"type":"LineString","coordinates":[[16.44025,51.68265],[16.44235,51.68252],[16.44337,51.68231],[16.44595,51.68119],[16.44954,51.68007],[16.462746954554923,51.678105472753785]]}},{"type":"Feature","properties":{"numer":"","klasa":"droga zbiorcza","kat":"powiatowa"},"geometry":{"type":"LineString","coordinates":[[16.35759,51.61668],[16.36103,51.61585],[16.36204,51.61585],[16.36525,51.61624],[16.36758,51.61705],[16.37067,51.61693],[16.37169,51.61697],[16.37434,51.61777],[16.37715,51.61835],[16.37789,51.61842]]}},{"type":"Feature","properties":{"numer":"","klasa":"droga zbiorcza","kat":"powiatowa"},"geometry":{"type":"LineString","coordinates":[[16.33577,51.61822],[16.34813,51.61774],[16.34988,51.61734],[16.35488,51.61682],[16.35576,51.61676],[16.35669,51.61684],[16.35759,51.61668]]}},{"type":"Feature","properties":{"numer":"1093D","klasa":"","kat":"powiatowa"},"geometry":{"type":"LineString","coordinates":[[16.37846,51.64556],[16.37715,51.64393]]}},{"type":"Feature","properties":{"numer":"1093D","klasa":"","kat":"powiatowa"},"geometry":{"type":"LineString","coordinates":[[16.37855,51.64571],[16.37846,51.64556]]}},{"type":"Feature","properties":{"numer":"1093D","klasa":"","kat":"powiatowa"},"geometry":{"type":"LineString","coordinates":[[16.38008,51.64848],[16.37978,51.64809],[16.3791,51.64659],[16.37855,51.64571]]}},{"type":"Feature","properties":{"numer":"1095D","klasa":"","kat":"powiatowa"},"geometry":{"type":"LineString","coordinates":[[16.35996,51.65065],[16.36447,51.64756],[16.36486,51.64747],[16.36617,51.64749],[16.36701,51.6473],[16.37382,51.6439],[16.37434,51.6438],[16.37679,51.64374]]}},{"type":"Feature","properties":{"numer":"1093D","klasa":"","kat":"powiatowa"},"geometry":{"type":"LineString","coordinates":[[16.38048,51.6489],[16.38008,51.64848]]}},{"type":"Feature","properties":{"numer":"1093D","klasa":"","kat":"powiatowa"},"geometry":{"type":"LineString","coordinates":[[16.38048,51.6489],[16.38115,51.64962],[16.38138,51.6497],[16.38245,51.64946],[16.38326,51.64944]]}},{"type":"Feature","properties":{"numer":"1095D","klasa":"","kat":"powiatowa"},"geometry":{"type":"LineString","coordinates":[[16.31943,51.66616],[16.32429,51.6658],[16.32574,51.66517],[16.32685,51.6649],[16.33266,51.6639],[16.35057,51.66123],[16.35115,51.66109],[16.35265,51.66025],[16.35409,51.65992],[16.35628,51.65849],[16.35697,51.65787],[16.35792,51.65762],[16.35829,51.65738],[16.35837,51.65707],[16.35808,51.65635],[16.35809,51.6559],[16.35866,51.65184],[16.35899,51.65135],[16.35996,51.65065]]}},{"type":"Feature","properties":{"numer":"1091D","klasa":"","kat":"powiatowa"},"geometry":{"type":"LineString","coordinates":[[16.31943,51.66616],[16.32528,51.67385],[16.32613,51.67672],[16.32587,51.67802],[16.32635,51.67913],[16.32638,51.67981],[16.32628,51.68018],[16.32637,51.68043],[16.32655,51.68051],[16.32779,51.68053],[16.32905,51.68041],[16.33209,51.68076],[16.33293,51.68072]]}},{"type":"Feature","properties":{"numer":"1091D","klasa":"","kat":"powiatowa"},"geometry":{"type":"LineString","coordinates":[[16.33293,51.68072],[16.33316,51.6807]]}},{"type":"Feature","properties":{"numer":"1091D","klasa":"","kat":"powiatowa"},"geometry":{"type":"LineString","coordinates":[[16.33316,51.6807],[16.33495,51.68053],[16.33537,51.68056],[16.33603,51.68071],[16.33666,51.68107]]}},{"type":"Feature","properties":{"numer":"1095D","klasa":"","kat":"powiatowa"},"geometry":{"type":"LineString","coordinates":[[16.268840603484175,51.683053375902276],[16.27117,51.6829],[16.27659,51.68281],[16.28077,51.68205],[16.28309,51.68057],[16.2839,51.67917],[16.28551,51.67817],[16.28564,51.67731],[16.28689,51.67724],[16.28745,51.67712],[16.28783,51.67678],[16.28983,51.6762],[16.29128,51.67543],[16.29627,51.6736],[16.29745,51.6734],[16.30134,51.67311],[16.30459,51.67232],[16.30687,51.6719],[16.3073,51.67169],[16.31169,51.6682],[16.31403,51.66728],[16.31465,51.66672],[16.31674,51.66637],[16.31943,51.66616]]}},{"type":"Feature","properties":{"numer":"1091D","klasa":"","kat":"powiatowa"},"geometry":{"type":"LineString","coordinates":[[16.33666,51.68107],[16.33712,51.6814]]}},{"type":"Feature","properties":{"numer":"1091D","klasa":"","kat":"powiatowa"},"geometry":{"type":"LineString","coordinates":[[16.36008,51.68904],[16.35903,51.68796],[16.35817,51.68754],[16.35714,51.68718],[16.35517,51.6857],[16.35453,51.68491],[16.35413,51.68413],[16.35409,51.68388],[16.3545,51.68302],[16.35435,51.68276],[16.35399,51.6826],[16.35202,51.68229],[16.35029,51.6823],[16.34816,51.68221],[16.34481,51.68239],[16.34409,51.68235],[16.33839,51.68193],[16.33769,51.68172],[16.33712,51.6814]]}},{"type":"Feature","properties":{"numer":"324","klasa":"droga gĹ‚Ăłwna","kat":"wojewodzka"},"geometry":{"type":"LineString","coordinates":[[16.37002,51.688],[16.37013,51.68796]]}},{"type":"Feature","properties":{"numer":"324","klasa":"droga gĹ‚Ăłwna","kat":"wojewodzka"},"geometry":{"type":"LineString","coordinates":[[16.36491,51.68896],[16.36799,51.68887],[16.36859,51.6887],[16.37002,51.688]]}},{"type":"Feature","properties":{"numer":"324","klasa":"droga gĹ‚Ăłwna","kat":"wojewodzka"},"geometry":{"type":"LineString","coordinates":[[16.36377,51.68897],[16.36491,51.68896]]}},{"type":"Feature","properties":{"numer":"324","klasa":"droga gĹ‚Ăłwna","kat":"wojewodzka"},"geometry":{"type":"LineString","coordinates":[[16.36008,51.68904],[16.36377,51.68897]]}},{"type":"Feature","properties":{"numer":"324","klasa":"droga gĹ‚Ăłwna","kat":"wojewodzka"},"geometry":{"type":"LineString","coordinates":[[16.326630827255276,51.70212311900192],[16.32837,51.70183],[16.32918,51.70155],[16.33021,51.70104],[16.33429,51.69883],[16.33752,51.69629],[16.34071,51.69403],[16.34226,51.69318],[16.3444,51.69258],[16.34748,51.69094],[16.34846,51.69069],[16.35161,51.69033],[16.36008,51.68904]]}},{"type":"Feature","properties":{"numer":"324","klasa":"droga gĹ‚Ăłwna","kat":"wojewodzka"},"geometry":{"type":"LineString","coordinates":[[16.40395,51.67881],[16.40897,51.67776],[16.40982,51.6777],[16.41088,51.67778],[16.41877,51.67866],[16.41939,51.6788],[16.42051,51.67924],[16.42126,51.67942],[16.4243,51.67953],[16.42862,51.67985],[16.42956,51.68011],[16.43294,51.68176]]}},{"type":"Feature","properties":{"numer":"324","klasa":"droga gĹ‚Ăłwna","kat":"wojewodzka"},"geometry":{"type":"LineString","coordinates":[[16.43294,51.68176],[16.43351,51.682],[16.43403,51.6821],[16.43896,51.68262],[16.44025,51.68265]]}},{"type":"Feature","properties":{"numer":"324","klasa":"droga gĹ‚Ăłwna","kat":"wojewodzka"},"geometry":{"type":"LineString","coordinates":[[16.37013,51.68796],[16.37084,51.68775],[16.37761,51.68635],[16.3824,51.68567],[16.38314,51.68541],[16.38377,51.68506],[16.38523,51.684],[16.38565,51.68383],[16.3876,51.68345],[16.38862,51.68316],[16.38924,51.68287],[16.3902,51.68216],[16.3906,51.68199],[16.39539,51.68078],[16.39678,51.68064],[16.39885,51.68066],[16.39997,51.68047],[16.40158,51.67989],[16.403,51.67908],[16.40395,51.67881]]}},{"type":"Feature","properties":{"numer":"305","klasa":"droga zbiorcza","kat":"wojewodzka"},"geometry":{"type":"LineString","coordinates":[[16.44025,51.68265],[16.44032,51.68285],[16.44105,51.68358],[16.44065,51.68429],[16.44038,51.68548],[16.44002,51.6859],[16.43829,51.68714],[16.43368,51.691],[16.43282,51.69156],[16.43252,51.69188],[16.43228,51.69268],[16.4307,51.69422],[16.42792,51.69613],[16.42571,51.69707],[16.4216,51.69921],[16.42101,51.69967],[16.42044,51.7004],[16.41928,51.70273],[16.41885,51.70456],[16.41873,51.70559],[16.42096,51.71343]]}},{"type":"Feature","properties":{"numer":"1090D","klasa":"","kat":"powiatowa"},"geometry":{"type":"LineString","coordinates":[[16.36377,51.68897],[16.36359,51.69024],[16.36363,51.6907],[16.3645,51.69204],[16.36477,51.69211],[16.36809,51.69152],[16.36829,51.69184],[16.36864,51.69309],[16.37021,51.69587],[16.37086,51.69671],[16.37187,51.69773],[16.37373,51.6993],[16.37532,51.69984],[16.37922,51.70347],[16.381,51.70458],[16.38437,51.70772],[16.3864,51.70872],[16.38761,51.7095],[16.38867,51.71002],[16.40627,51.71538],[16.40705,51.71555],[16.40856,51.7156],[16.40947,51.71556],[16.4126,51.71481],[16.41393,51.71473],[16.4151,51.71455],[16.41597,51.71429],[16.417,51.71388],[16.41805,51.71366],[16.4198,51.71347],[16.42096,51.71343]]}},{"type":"Feature","properties":{"numer":"1089D","klasa":"","kat":"powiatowa"},"geometry":{"type":"LineString","coordinates":[[16.42096,51.71343],[16.42423,51.71313],[16.42658,51.71257],[16.42995,51.71222],[16.4318,51.71193],[16.43984,51.71013],[16.4482,51.7085],[16.45478,51.70615],[16.45908,51.70322],[16.46062,51.70315],[16.46358,51.70269],[16.46405,51.70267],[16.46414636627907,51.702689273255814]]}},{"type":"Feature","properties":{"numer":"305","klasa":"droga zbiorcza","kat":"wojewodzka"},"geometry":{"type":"LineString","coordinates":[[16.42096,51.71343],[16.42149,51.71518],[16.42536,51.72348],[16.42628,51.72478],[16.42666,51.72607],[16.42768,51.72744]]}},{"type":"Feature","properties":{"numer":"1069D","klasa":"","kat":"powiatowa"},"geometry":{"type":"LineString","coordinates":[[16.45691,51.7264],[16.45913,51.72579],[16.46136,51.72466],[16.46233,51.72426],[16.46729,51.72323],[16.46771,51.72293],[16.46773,51.72246]]}},{"type":"Feature","properties":{"numer":"1069D","klasa":"","kat":"powiatowa"},"geometry":{"type":"LineString","coordinates":[[16.43214,51.72598],[16.43265,51.72589],[16.43325,51.7259],[16.43567,51.72636],[16.43855,51.72619],[16.44106,51.72643],[16.44622,51.72632],[16.45134,51.72706],[16.45391,51.7266],[16.45577,51.72665],[16.45691,51.7264]]}},{"type":"Feature","properties":{"numer":"1069D","klasa":"","kat":"powiatowa"},"geometry":{"type":"LineString","coordinates":[[16.42777,51.72756],[16.42938,51.72702],[16.43062,51.72637],[16.43214,51.72598]]}},{"type":"Feature","properties":{"numer":"1069D","klasa":"","kat":"powiatowa"},"geometry":{"type":"LineString","coordinates":[[16.47679024064899,51.71770140741547],[16.47473,51.71979],[16.46799,51.72208],[16.4678,51.72221],[16.46773,51.72246]]}},{"type":"Feature","properties":{"numer":"1070D","klasa":"","kat":"powiatowa"},"geometry":{"type":"LineString","coordinates":[[16.47578,51.74405],[16.47767170916681,51.74348116437641]]}},{"type":"Feature","properties":{"numer":"1068D","klasa":"droga zbiorcza","kat":"powiatowa"},"geometry":{"type":"LineString","coordinates":[[16.476203807426057,51.747425072372565],[16.47605,51.74736],[16.47578,51.74405]]}},{"type":"Feature","properties":{"numer":"305","klasa":"droga zbiorcza","kat":"wojewodzka"},"geometry":{"type":"LineString","coordinates":[[16.42768,51.72744],[16.42774,51.72752]]}},{"type":"Feature","properties":{"numer":"305","klasa":"droga zbiorcza","kat":"wojewodzka"},"geometry":{"type":"LineString","coordinates":[[16.42774,51.72752],[16.42777,51.72756]]}},{"type":"Feature","properties":{"numer":"305","klasa":"droga zbiorcza","kat":"wojewodzka"},"geometry":{"type":"LineString","coordinates":[[16.42777,51.72756],[16.42791,51.728],[16.42739,51.72889],[16.42757,51.72988]]}},{"type":"Feature","properties":{"numer":"1068D","klasa":"droga zbiorcza","kat":"powiatowa"},"geometry":{"type":"LineString","coordinates":[[16.45586,51.7449],[16.45503,51.74466],[16.45443,51.74431],[16.45177,51.74161],[16.45058,51.74093],[16.4334,51.73637],[16.43223,51.73591],[16.43036,51.73447],[16.42885,51.73222],[16.42782,51.73019],[16.42757,51.72988]]}},{"type":"Feature","properties":{"numer":"305","klasa":"droga zbiorcza","kat":"wojewodzka"},"geometry":{"type":"LineString","coordinates":[[16.42757,51.72988],[16.42745,51.73022],[16.42655,51.73123],[16.42572,51.73295],[16.42518,51.7336],[16.42422,51.73434],[16.42113,51.73549],[16.41907,51.73647],[16.41628,51.73915],[16.41606,51.73964],[16.41566,51.74272],[16.41545,51.74326],[16.41445,51.74485],[16.41397,51.74546],[16.413,51.74641],[16.40898,51.74951],[16.40839,51.7502],[16.40825,51.75092],[16.40873,51.75407],[16.40866,51.7546],[16.40823,51.75534],[16.40546,51.75849]]}},{"type":"Feature","properties":{"numer":"1068D","klasa":"droga zbiorcza","kat":"powiatowa"},"geometry":{"type":"LineString","coordinates":[[16.47578,51.74405],[16.47086,51.74549],[16.47054,51.74543],[16.4692,51.74473],[16.4674,51.74449],[16.46171,51.74499],[16.45626,51.74496],[16.45586,51.7449]]}},{"type":"Feature","properties":{"numer":"1088D","klasa":"","kat":"powiatowa"},"geometry":{"type":"LineString","coordinates":[[16.45586,51.7449],[16.45313,51.74717],[16.4529,51.74747],[16.45284,51.74795],[16.45324,51.75112],[16.45311,51.75136],[16.45287,51.75153],[16.45101,51.75179],[16.44412,51.75319],[16.44217,51.75349],[16.44074,51.75358],[16.43926,51.75357],[16.43633,51.75321]]}},{"type":"Feature","properties":{"numer":"1088D","klasa":"","kat":"powiatowa"},"geometry":{"type":"LineString","coordinates":[[16.43633,51.75321],[16.43627,51.75323]]}},{"type":"Feature","properties":{"numer":"1088D","klasa":"","kat":"powiatowa"},"geometry":{"type":"LineString","coordinates":[[16.43627,51.75323],[16.43593,51.75354],[16.4356,51.75459],[16.43513,51.75494],[16.43453,51.75519],[16.42879,51.75485]]}},{"type":"Feature","properties":{"numer":"1088D","klasa":"","kat":"powiatowa"},"geometry":{"type":"LineString","coordinates":[[16.42871,51.75485],[16.42879,51.75485]]}},{"type":"Feature","properties":{"numer":"1088D","klasa":"","kat":"powiatowa"},"geometry":{"type":"LineString","coordinates":[[16.40546,51.75849],[16.41153,51.75819],[16.41452,51.75784],[16.41859,51.75699],[16.42092,51.75632],[16.42177,51.75622],[16.42871,51.75485]]}},{"type":"Feature","properties":{"numer":"305","klasa":"droga zbiorcza","kat":"wojewodzka"},"geometry":{"type":"LineString","coordinates":[[16.40546,51.75849],[16.40337,51.76079]]}},{"type":"Feature","properties":{"numer":"305","klasa":"droga zbiorcza","kat":"wojewodzka"},"geometry":{"type":"LineString","coordinates":[[16.40337,51.76079],[16.40328,51.76089]]}},{"type":"Feature","properties":{"numer":"305","klasa":"droga zbiorcza","kat":"wojewodzka"},"geometry":{"type":"LineString","coordinates":[[16.39658,51.76844],[16.40328,51.76089]]}},{"type":"Feature","properties":{"numer":"305","klasa":"droga zbiorcza","kat":"wojewodzka"},"geometry":{"type":"LineString","coordinates":[[16.396442315485796,51.7685952536319],[16.39658,51.76844]]}}]}