{"type":"FeatureCollection","features":[{"type":"Feature","properties":{"numer":"","klasa":"droga zbiorcza","kat":"powiatowa"},"geometry":{"type":"LineString","coordinates":[[16.38826,51.06681],[16.38833,51.0668]]}},{"type":"Feature","properties":{"numer":"","klasa":"droga zbiorcza","kat":"powiatowa"},"geometry":{"type":"LineString","coordinates":[[16.38833,51.0668],[16.39047,51.06624],[16.39111,51.06615],[16.39148,51.06628],[16.39229,51.06712],[16.39253,51.06724],[16.39852,51.06746],[16.40081,51.06782],[16.40477,51.06817]]}},{"type":"Feature","properties":{"numer":"","klasa":"droga gĹ‚Ăłwna","kat":"gminna"},"geometry":{"type":"LineString","coordinates":[[16.40477,51.06817],[16.404795180765635,51.06817474183249]]}},{"type":"Feature","properties":{"numer":"345","klasa":"droga gĹ‚Ăłwna","kat":"wojewodzka"},"geometry":{"type":"LineString","coordinates":[[16.40838221906918,51.070816695287476],[16.40989,51.07427],[16.41094,51.0773],[16.41215,51.07862],[16.41277,51.07979],[16.41433,51.08099]]}},{"type":"Feature","properties":{"numer":"2790D","klasa":"droga zbiorcza","kat":"powiatowa"},"geometry":{"type":"LineString","coordinates":[[16.4162,51.08002],[16.41728,51.0797],[16.41777,51.07946],[16.423879682396798,51.07542042175647]]}},{"type":"Feature","properties":{"numer":"2790D","klasa":"droga zbiorcza","kat":"powiatowa"},"geometry":{"type":"LineString","coordinates":[[16.41433,51.08099],[16.41551,51.08025],[16.4162,51.08002]]}},{"type":"Feature","properties":{"numer":"2790D","klasa":"droga zbiorcza","kat":"powiatowa"},"geometry":{"type":"LineString","coordinates":[[16.41138,51.08091],[16.41433,51.08099]]}},{"type":"Feature","properties":{"numer":"2790D","klasa":"droga zbiorcza","kat":"powiatowa"},"geometry":{"type":"LineString","coordinates":[[16.39926,51.08174],[16.40029,51.08142],[16.40105,51.08133],[16.40598,51.0815],[16.40671,51.08141],[16.40889,51.08094],[16.41138,51.08091]]}},{"type":"Feature","properties":{"numer":"345","klasa":"droga gĹ‚Ăłwna","kat":"wojewodzka"},"geometry":{"type":"LineString","coordinates":[[16.41433,51.08099],[16.41484,51.08136],[16.41545,51.08214]]}},{"type":"Feature","properties":{"numer":"2790D","klasa":"droga zbiorcza","kat":"powiatowa"},"geometry":{"type":"LineString","coordinates":[[16.39921,51.08176],[16.39926,51.08174]]}},{"type":"Feature","properties":{"numer":"2790D","klasa":"droga zbiorcza","kat":"powiatowa"},"geometry":{"type":"LineString","coordinates":[[16.39915,51.08178],[16.39921,51.08176]]}},{"type":"Feature","properties":{"numer":"A4,E40","klasa":"autostrada","kat":"krajowa"},"geometry":{"type":"LineString","coordinates":[[16.41801,51.08656],[16.41912,51.08586],[16.42093,51.08491],[16.42284,51.08406],[16.42497,51.08327],[16.444736449131003,51.07756967552838]]}},{"type":"Feature","properties":{"numer":"2790D","klasa":"droga zbiorcza","kat":"powiatowa"},"geometry":{"type":"LineString","coordinates":[[16.39639,51.08251],[16.39793,51.08217],[16.39915,51.08178]]}},{"type":"Feature","properties":{"numer":"2799D","klasa":"","kat":"powiatowa"},"geometry":{"type":"LineString","coordinates":[[16.39639,51.08251],[16.39646,51.08276]]}},{"type":"Feature","properties":{"numer":"2790D","klasa":"droga zbiorcza","kat":"powiatowa"},"geometry":{"type":"LineString","coordinates":[[16.39639,51.08251],[16.38991,51.08315],[16.37943,51.08233]]}},{"type":"Feature","properties":{"numer":"345","klasa":"droga gĹ‚Ăłwna","kat":"wojewodzka"},"geometry":{"type":"LineString","coordinates":[[16.41545,51.08214],[16.41578,51.08414],[16.41603,51.08492],[16.41665,51.08567],[16.41772,51.08638]]}},{"type":"Feature","properties":{"numer":"345","klasa":"droga gĹ‚Ăłwna","kat":"wojewodzka"},"geometry":{"type":"LineString","coordinates":[[16.41772,51.08638],[16.41801,51.08656]]}},{"type":"Feature","properties":{"numer":"345","klasa":"droga gĹ‚Ăłwna","kat":"wojewodzka"},"geometry":{"type":"LineString","coordinates":[[16.41801,51.08656],[16.41833,51.08676]]}},{"type":"Feature","properties":{"numer":"345","klasa":"droga gĹ‚Ăłwna","kat":"wojewodzka"},"geometry":{"type":"LineString","coordinates":[[16.41833,51.08676],[16.41933,51.08733],[16.42331,51.08898],[16.42416,51.0891],[16.42559,51.08888],[16.4275,51.08918],[16.42853,51.08907]]}},{"type":"Feature","properties":{"numer":"345","klasa":"droga gĹ‚Ăłwna","kat":"wojewodzka"},"geometry":{"type":"LineString","coordinates":[[16.42853,51.08907],[16.42868,51.08903]]}},{"type":"Feature","properties":{"numer":"345","klasa":"droga gĹ‚Ăłwna","kat":"wojewodzka"},"geometry":{"type":"LineString","coordinates":[[16.42868,51.08903],[16.42903,51.08895],[16.42963,51.08918],[16.43017,51.08922],[16.43085,51.08937],[16.43231,51.08987],[16.43256,51.0901]]}},{"type":"Feature","properties":{"numer":"345","klasa":"droga gĹ‚Ăłwna","kat":"wojewodzka"},"geometry":{"type":"LineString","coordinates":[[16.43256,51.0901],[16.43259,51.0902]]}},{"type":"Feature","properties":{"numer":"345","klasa":"droga gĹ‚Ăłwna","kat":"wojewodzka"},"geometry":{"type":"LineString","coordinates":[[16.43259,51.0902],[16.43261,51.09034]]}},{"type":"Feature","properties":{"numer":"2797D","klasa":"","kat":"powiatowa"},"geometry":{"type":"LineString","coordinates":[[16.43609,51.09043],[16.43526,51.0905],[16.43301,51.09006],[16.43256,51.0901]]}},{"type":"Feature","properties":{"numer":"2799D","klasa":"","kat":"powiatowa"},"geometry":{"type":"LineString","coordinates":[[16.39865,51.09814],[16.39828,51.09768],[16.39834,51.09586],[16.39806,51.09533],[16.39786,51.0943],[16.39789,51.09409],[16.39856,51.09312],[16.39857,51.0929],[16.39606,51.08496],[16.39644,51.08337],[16.39646,51.08276]]}},{"type":"Feature","properties":{"numer":"2797D","klasa":"","kat":"powiatowa"},"geometry":{"type":"LineString","coordinates":[[16.43609,51.09043],[16.45234,51.09321],[16.45561,51.094],[16.45607,51.09421],[16.45695,51.09483],[16.4573,51.09495],[16.45993,51.09504],[16.46196,51.09559],[16.4621,51.09564],[16.46213,51.09607]]}},{"type":"Feature","properties":{"numer":"2797D","klasa":"","kat":"powiatowa"},"geometry":{"type":"LineString","coordinates":[[16.46214,51.09618],[16.46213,51.09607]]}},{"type":"Feature","properties":{"numer":"2797D","klasa":"","kat":"powiatowa"},"geometry":{"type":"LineString","coordinates":[[16.46217,51.09649],[16.46214,51.09618]]}},{"type":"Feature","properties":{"numer":"2177D","klasa":"droga zbiorcza","kat":"powiatowa"},"geometry":{"type":"LineString","coordinates":[[16.47164,51.09711],[16.46864,51.0967],[16.46622,51.09672],[16.46598,51.09664],[16.4655,51.09626],[16.46509,51.09616],[16.46217,51.09649]]}},{"type":"Feature","properties":{"numer":"345","klasa":"droga gĹ‚Ăłwna","kat":"wojewodzka"},"geometry":{"type":"LineString","coordinates":[[16.43859,51.1044],[16.43721,51.10022],[16.43622,51.09892],[16.43608,51.09859],[16.4337,51.09121],[16.43277,51.09062],[16.43261,51.09034]]}},{"type":"Feature","properties":{"numer":"2799D","klasa":"","kat":"powiatowa"},"geometry":{"type":"LineString","coordinates":[[16.40332,51.10198],[16.40245,51.10162],[16.40135,51.1006],[16.40001,51.09988],[16.39865,51.09814]]}},{"type":"Feature","properties":{"numer":"2177D","klasa":"droga zbiorcza","kat":"powiatowa"},"geometry":{"type":"LineString","coordinates":[[16.46217,51.09649],[16.4601,51.097],[16.45972,51.0973],[16.45944,51.09783],[16.45885,51.09819],[16.45797,51.09891],[16.45669,51.09959],[16.45586,51.09991],[16.44954,51.10176],[16.44725,51.10226],[16.43859,51.1044]]}},{"type":"Feature","properties":{"numer":"2799D","klasa":"","kat":"powiatowa"},"geometry":{"type":"LineString","coordinates":[[16.41763,51.10865],[16.41648,51.10819],[16.41468,51.10714],[16.41148,51.10558],[16.40712,51.10325],[16.40397,51.10218]]}},{"type":"Feature","properties":{"numer":"2177D","klasa":"droga zbiorcza","kat":"powiatowa"},"geometry":{"type":"LineString","coordinates":[[16.43859,51.1044],[16.43117,51.10614],[16.42896,51.10653],[16.4279,51.10684],[16.42277,51.10772],[16.42111,51.10822]]}},{"type":"Feature","properties":{"numer":"2177D","klasa":"","kat":"powiatowa"},"geometry":{"type":"LineString","coordinates":[[16.4717309625321,51.09712247486154],[16.47164,51.09711]]}},{"type":"Feature","properties":{"numer":"","klasa":"droga zbiorcza","kat":"powiatowa"},"geometry":{"type":"LineString","coordinates":[[16.374588553437174,51.067130619231165],[16.37871,51.06722],[16.38074,51.06743],[16.38261,51.06743],[16.38708,51.06701],[16.38826,51.06681]]}},{"type":"Feature","properties":{"numer":"2791D","klasa":"droga zbiorcza","kat":"powiatowa"},"geometry":{"type":"LineString","coordinates":[[16.358255391634977,51.07010151330799],[16.35792,51.07031]]}},{"type":"Feature","properties":{"numer":"2791D","klasa":"droga zbiorcza","kat":"powiatowa"},"geometry":{"type":"LineString","coordinates":[[16.35792,51.07031],[16.35652,51.07111]]}},{"type":"Feature","properties":{"numer":"2800D","klasa":"droga zbiorcza","kat":"powiatowa"},"geometry":{"type":"LineString","coordinates":[[16.30824,51.08927],[16.3062,51.08698],[16.30498,51.08593],[16.30308,51.08458],[16.30235,51.08376],[16.30105,51.08272],[16.29981,51.08054],[16.29958,51.07947],[16.29932,51.07922],[16.29804,51.07863],[16.29668,51.07749],[16.29617,51.07685],[16.29589,51.07615],[16.29594,51.07496],[16.29622,51.07378],[16.29605,51.07337],[16.29422,51.07072],[16.29377,51.07038],[16.293137182947127,51.070066820132]]}},{"type":"Feature","properties":{"numer":"2184D","klasa":"droga zbiorcza","kat":"powiatowa"},"geometry":{"type":"LineString","coordinates":[[16.292902205882356,51.08744036764706],[16.29362,51.08756],[16.30355,51.09111]]}},{"type":"Feature","properties":{"numer":"2791D","klasa":"","kat":"powiatowa"},"geometry":{"type":"LineString","coordinates":[[16.35651,51.07111],[16.35652,51.07111]]}},{"type":"Feature","properties":{"numer":"2791D","klasa":"droga zbiorcza","kat":"powiatowa"},"geometry":{"type":"LineString","coordinates":[[16.35652,51.07111],[16.35168,51.07592],[16.35128,51.07708]]}},{"type":"Feature","properties":{"numer":"2791D","klasa":"droga zbiorcza","kat":"powiatowa"},"geometry":{"type":"LineString","coordinates":[[16.35128,51.07708],[16.35127,51.07714]]}},{"type":"Feature","properties":{"numer":"2791D","klasa":"droga zbiorcza","kat":"powiatowa"},"geometry":{"type":"LineString","coordinates":[[16.35127,51.07714],[16.35121,51.07736]]}},{"type":"Feature","properties":{"numer":"2790D","klasa":"droga zbiorcza","kat":"powiatowa"},"geometry":{"type":"LineString","coordinates":[[16.35649,51.07869],[16.3555,51.07824],[16.35408,51.07799],[16.35283,51.07753],[16.35175,51.07757],[16.35121,51.07736]]}},{"type":"Feature","properties":{"numer":"2790D","klasa":"droga zbiorcza","kat":"powiatowa"},"geometry":{"type":"LineString","coordinates":[[16.35121,51.07736],[16.34993,51.07734],[16.34897,51.07718],[16.34389,51.07535],[16.34312,51.07531],[16.33805,51.07616],[16.32871,51.07912],[16.32713,51.07972],[16.32408,51.08107],[16.32098,51.08206]]}},{"type":"Feature","properties":{"numer":"2790D","klasa":"droga zbiorcza","kat":"powiatowa"},"geometry":{"type":"LineString","coordinates":[[16.35655,51.07875],[16.35649,51.07869]]}},{"type":"Feature","properties":{"numer":"2790D","klasa":"droga zbiorcza","kat":"powiatowa"},"geometry":{"type":"LineString","coordinates":[[16.37943,51.08233],[16.37412,51.08015],[16.36901,51.07837],[16.36818,51.07815],[16.3672,51.07808],[16.36251,51.07802],[16.36143,51.0781],[16.35763,51.07864],[16.35649,51.07869]]}},{"type":"Feature","properties":{"numer":"2790D","klasa":"droga zbiorcza","kat":"powiatowa"},"geometry":{"type":"LineString","coordinates":[[16.32098,51.08206],[16.32095,51.08207]]}},{"type":"Feature","properties":{"numer":"2185D","klasa":"droga zbiorcza","kat":"powiatowa"},"geometry":{"type":"LineString","coordinates":[[16.37943,51.08233],[16.37868,51.08252],[16.37412,51.08427],[16.3733,51.08443],[16.37265,51.08464],[16.37173,51.08515],[16.37143,51.08546]]}},{"type":"Feature","properties":{"numer":"2790D","klasa":"droga zbiorcza","kat":"powiatowa"},"geometry":{"type":"LineString","coordinates":[[16.32095,51.08207],[16.31894,51.08313],[16.31534,51.0846],[16.31163,51.08628],[16.30941,51.08787],[16.30929,51.08827],[16.30954,51.08882],[16.30946,51.08894],[16.30921,51.08904]]}},{"type":"Feature","properties":{"numer":"2185D","klasa":"droga zbiorcza","kat":"powiatowa"},"geometry":{"type":"LineString","coordinates":[[16.37143,51.08546],[16.37156,51.08584],[16.37143,51.08614],[16.36864,51.08786]]}},{"type":"Feature","properties":{"numer":"2790D","klasa":"droga zbiorcza","kat":"powiatowa"},"geometry":{"type":"LineString","coordinates":[[16.30921,51.08904],[16.30911,51.08906]]}},{"type":"Feature","properties":{"numer":"2790D","klasa":"droga zbiorcza","kat":"powiatowa"},"geometry":{"type":"LineString","coordinates":[[16.30911,51.08906],[16.30824,51.08927]]}},{"type":"Feature","properties":{"numer":"2800D","klasa":"droga zbiorcza","kat":"powiatowa"},"geometry":{"type":"LineString","coordinates":[[16.31147,51.09257],[16.31136,51.09227],[16.30981,51.09098],[16.30913,51.09004],[16.30824,51.08927]]}},{"type":"Feature","properties":{"numer":"2184D","klasa":"droga zbiorcza","kat":"powiatowa"},"geometry":{"type":"LineString","coordinates":[[16.31028,51.09299],[16.30761,51.09263],[16.30637,51.09233],[16.30355,51.09111]]}},{"type":"Feature","properties":{"numer":"2184D","klasa":"droga zbiorcza","kat":"powiatowa"},"geometry":{"type":"LineString","coordinates":[[16.31028,51.09299],[16.31147,51.09257]]}},{"type":"Feature","properties":{"numer":"2187D","klasa":"droga zbiorcza","kat":"powiatowa"},"geometry":{"type":"LineString","coordinates":[[16.30883,51.09384],[16.30925,51.09347],[16.31028,51.09299]]}},{"type":"Feature","properties":{"numer":"2187D","klasa":"droga zbiorcza","kat":"powiatowa"},"geometry":{"type":"LineString","coordinates":[[16.30693,51.0952],[16.30883,51.09384]]}},{"type":"Feature","properties":{"numer":"2184D","klasa":"droga zbiorcza","kat":"powiatowa"},"geometry":{"type":"LineString","coordinates":[[16.31147,51.09257],[16.31193,51.09308],[16.31306,51.09363],[16.31741,51.095],[16.31747,51.09519],[16.31702,51.09553],[16.31703,51.09574],[16.31968,51.10048]]}},{"type":"Feature","properties":{"numer":"2186D","klasa":"droga zbiorcza","kat":"powiatowa"},"geometry":{"type":"LineString","coordinates":[[16.2705,51.10465],[16.26973,51.104],[16.26666,51.10076],[16.26548,51.09949],[16.26483,51.09857],[16.263321108404106,51.093195737957835]]}},{"type":"Feature","properties":{"numer":"2187D","klasa":"droga zbiorcza","kat":"powiatowa"},"geometry":{"type":"LineString","coordinates":[[16.27673,51.10663],[16.27988,51.10534],[16.28524,51.10355],[16.28751,51.10246],[16.2894,51.10131],[16.29166,51.10081],[16.30076,51.09933],[16.30193,51.09843],[16.30432,51.09705],[16.30693,51.0952]]}},{"type":"Feature","properties":{"numer":"2186D","klasa":"droga zbiorcza","kat":"powiatowa"},"geometry":{"type":"LineString","coordinates":[[16.27417,51.10625],[16.27265,51.10597],[16.27154,51.10562],[16.2705,51.10465]]}},{"type":"Feature","properties":{"numer":"2186D","klasa":"droga zbiorcza","kat":"powiatowa"},"geometry":{"type":"LineString","coordinates":[[16.27417,51.10625],[16.27673,51.10663]]}},{"type":"Feature","properties":{"numer":"2186D","klasa":"droga zbiorcza","kat":"powiatowa"},"geometry":{"type":"LineString","coordinates":[[16.27673,51.10663],[16.27694,51.10676],[16.27872,51.10915]]}},{"type":"Feature","properties":{"numer":"2186D","klasa":"droga zbiorcza","kat":"powiatowa"},"geometry":{"type":"LineString","coordinates":[[16.27872,51.10915],[16.278730481099657,51.10916467353952]]}},{"type":"Feature","properties":{"numer":"2187D","klasa":"droga zbiorcza","kat":"powiatowa"},"geometry":{"type":"LineString","coordinates":[[16.27136590741531,51.10886920608436],[16.27192,51.10845],[16.27673,51.10663]]}},{"type":"Feature","properties":{"numer":"2185D","klasa":"droga zbiorcza","kat":"powiatowa"},"geometry":{"type":"LineString","coordinates":[[16.29501082211752,51.113422564253575],[16.30478,51.10925],[16.30653,51.10873],[16.30721,51.10864],[16.31066,51.1086],[16.31194,51.10874],[16.3127,51.10901],[16.31323,51.10908]]}},{"type":"Feature","properties":{"numer":"2184D","klasa":"droga zbiorcza","kat":"powiatowa"},"geometry":{"type":"LineString","coordinates":[[16.32839,51.11084],[16.32808,51.11148],[16.3281,51.11183],[16.32904,51.11283],[16.32933,51.11362],[16.33124,51.11575],[16.33231,51.11745],[16.33355,51.11912],[16.33493,51.12039],[16.33878,51.1243],[16.34054,51.12584]]}},{"type":"Feature","properties":{"numer":"A4,E40","klasa":"autostrada","kat":"krajowa"},"geometry":{"type":"LineString","coordinates":[[16.34118,51.12586],[16.34054,51.12584]]}},{"type":"Feature","properties":{"numer":"A4,E40","klasa":"autostrada","kat":"krajowa"},"geometry":{"type":"LineString","coordinates":[[16.34163,51.12785],[16.34139,51.12736],[16.34134,51.12646],[16.34144,51.12605],[16.34118,51.12586]]}},{"type":"Feature","properties":{"numer":"2184D","klasa":"droga zbiorcza","kat":"powiatowa"},"geometry":{"type":"LineString","coordinates":[[16.34054,51.12584],[16.34091,51.12647],[16.34126,51.12791]]}},{"type":"Feature","properties":{"numer":"A4,E40","klasa":"autostrada","kat":"krajowa"},"geometry":{"type":"LineString","coordinates":[[16.34163,51.12785],[16.34172,51.12807]]}},{"type":"Feature","properties":{"numer":"2184D","klasa":"droga zbiorcza","kat":"powiatowa"},"geometry":{"type":"LineString","coordinates":[[16.34126,51.12791],[16.34131,51.12814]]}},{"type":"Feature","properties":{"numer":"A4,E40","klasa":"autostrada","kat":"krajowa"},"geometry":{"type":"LineString","coordinates":[[16.34172,51.12807],[16.34173,51.12812]]}},{"type":"Feature","properties":{"numer":"A4,E40","klasa":"autostrada","kat":"krajowa"},"geometry":{"type":"LineString","coordinates":[[16.34131,51.12814],[16.34173,51.12812]]}},{"type":"Feature","properties":{"numer":"A4,E40","klasa":"autostrada","kat":"krajowa"},"geometry":{"type":"LineString","coordinates":[[16.34091,51.12817],[16.34131,51.12814]]}},{"type":"Feature","properties":{"numer":"2184D","klasa":"droga zbiorcza","kat":"powiatowa"},"geometry":{"type":"LineString","coordinates":[[16.34131,51.12814],[16.34137,51.12843]]}},{"type":"Feature","properties":{"numer":"A4,E40","klasa":"autostrada","kat":"krajowa"},"geometry":{"type":"LineString","coordinates":[[16.34094,51.12847],[16.34091,51.12817]]}},{"type":"Feature","properties":{"numer":"2177D","klasa":"droga zbiorcza","kat":"powiatowa"},"geometry":{"type":"LineString","coordinates":[[16.39316,51.1184],[16.39167,51.1183],[16.39041,51.11856],[16.3894,51.11861],[16.38834,51.11843],[16.38733,51.11854],[16.38521,51.1184],[16.3823,51.11869],[16.37157,51.12202],[16.37067,51.12257],[16.37013,51.12313],[16.36992,51.1235],[16.36869,51.12732],[16.36826,51.12797],[16.36051,51.13397],[16.35467,51.13668],[16.34426,51.13994]]}},{"type":"Feature","properties":{"numer":"2184D","klasa":"droga zbiorcza","kat":"powiatowa"},"geometry":{"type":"LineString","coordinates":[[16.34137,51.12843],[16.34183,51.13027]]}},{"type":"Feature","properties":{"numer":"A4,E40","klasa":"autostrada","kat":"krajowa"},"geometry":{"type":"LineString","coordinates":[[16.34094,51.12847],[16.34119,51.12884],[16.34135,51.12945],[16.34104,51.13015],[16.34127,51.13032],[16.34155,51.13031]]}},{"type":"Feature","properties":{"numer":"A4,E40","klasa":"autostrada","kat":"krajowa"},"geometry":{"type":"LineString","coordinates":[[16.34155,51.13031],[16.34183,51.13027]]}},{"type":"Feature","properties":{"numer":"2184D","klasa":"droga zbiorcza","kat":"powiatowa"},"geometry":{"type":"LineString","coordinates":[[16.34183,51.13027],[16.34248,51.13167],[16.34292,51.13482],[16.34426,51.13994]]}},{"type":"Feature","properties":{"numer":"A4,E40","klasa":"autostrada","kat":"krajowa"},"geometry":{"type":"LineString","coordinates":[[16.312147574641422,51.129774032899974],[16.31443,51.12953],[16.34091,51.12817]]}},{"type":"Feature","properties":{"numer":"2177D,2184D","klasa":"droga zbiorcza","kat":"powiatowa"},"geometry":{"type":"LineString","coordinates":[[16.34426,51.13994],[16.34457,51.14113]]}},{"type":"Feature","properties":{"numer":"2184D","klasa":"droga zbiorcza","kat":"powiatowa"},"geometry":{"type":"LineString","coordinates":[[16.34457,51.14113],[16.34468,51.14215],[16.3443547834904,51.14796464690445]]}},{"type":"Feature","properties":{"numer":"2177D","klasa":"droga zbiorcza","kat":"powiatowa"},"geometry":{"type":"LineString","coordinates":[[16.34457,51.14113],[16.34003,51.14133],[16.3384,51.14148],[16.33716,51.14177],[16.33412,51.14292],[16.33357,51.14306],[16.32693,51.14416],[16.326549004653447,51.1442411151383]]}},{"type":"Feature","properties":{"numer":"2185D","klasa":"droga zbiorcza","kat":"powiatowa"},"geometry":{"type":"LineString","coordinates":[[16.36864,51.08786],[16.36709,51.08915],[16.36582,51.09133],[16.36056,51.09383],[16.35925,51.09498],[16.3586,51.09609],[16.35707,51.09795],[16.35513,51.09922],[16.35433,51.09929],[16.34988,51.09889],[16.34858,51.10235],[16.34819,51.10269],[16.34206,51.10494],[16.33994,51.10601],[16.33639,51.10802],[16.33439,51.10873],[16.33286,51.1095],[16.33046,51.11032],[16.32999,51.11057],[16.32839,51.11084]]}},{"type":"Feature","properties":{"numer":"2184D","klasa":"droga zbiorcza","kat":"powiatowa"},"geometry":{"type":"LineString","coordinates":[[16.31968,51.10048],[16.31975,51.1006]]}},{"type":"Feature","properties":{"numer":"2184D","klasa":"droga zbiorcza","kat":"powiatowa"},"geometry":{"type":"LineString","coordinates":[[16.31975,51.1006],[16.32068,51.1028]]}},{"type":"Feature","properties":{"numer":"2184D","klasa":"droga zbiorcza","kat":"powiatowa"},"geometry":{"type":"LineString","coordinates":[[16.32068,51.1028],[16.3207,51.10282]]}},{"type":"Feature","properties":{"numer":"2184D","klasa":"droga zbiorcza","kat":"powiatowa"},"geometry":{"type":"LineString","coordinates":[[16.3207,51.10282],[16.32073,51.10287]]}},{"type":"Feature","properties":{"numer":"107387D","klasa":"droga zbiorcza","kat":"powiatowa"},"geometry":{"type":"LineString","coordinates":[[16.31323,51.10908],[16.31784,51.10592],[16.32073,51.10287]]}},{"type":"Feature","properties":{"numer":"2184D","klasa":"droga zbiorcza","kat":"powiatowa"},"geometry":{"type":"LineString","coordinates":[[16.32073,51.10287],[16.32277,51.10411],[16.32423,51.1054],[16.32617,51.10797],[16.32781,51.10954],[16.3282,51.11025]]}},{"type":"Feature","properties":{"numer":"A4,E40","klasa":"autostrada","kat":"krajowa"},"geometry":{"type":"LineString","coordinates":[[16.34173,51.12812],[16.3494,51.12773],[16.35265,51.12736],[16.35612,51.12668],[16.36381,51.12476],[16.3656,51.12423],[16.36752,51.12354],[16.36983,51.12252],[16.39181,51.11169],[16.39451,51.11027],[16.39638,51.10908],[16.3984,51.10751],[16.40314,51.10274],[16.40477,51.10055],[16.40785,51.09522],[16.40867,51.09411],[16.40964,51.09303],[16.41205,51.0909],[16.41801,51.08656]]}},{"type":"Feature","properties":{"numer":"2185D","klasa":"droga zbiorcza","kat":"powiatowa"},"geometry":{"type":"LineString","coordinates":[[16.31323,51.10908],[16.31809,51.10985],[16.32071,51.11055],[16.32306,51.11085],[16.32436,51.11081],[16.32681,51.11036],[16.3282,51.11025]]}},{"type":"Feature","properties":{"numer":"2184D,2185D","klasa":"droga zbiorcza","kat":"powiatowa"},"geometry":{"type":"LineString","coordinates":[[16.3282,51.11025],[16.32839,51.11084]]}},{"type":"Feature","properties":{"numer":"2177D","klasa":"droga zbiorcza","kat":"powiatowa"},"geometry":{"type":"LineString","coordinates":[[16.42111,51.10822],[16.41763,51.10865]]}},{"type":"Feature","properties":{"numer":"345","klasa":"droga gĹ‚Ăłwna","kat":"wojewodzka"},"geometry":{"type":"LineString","coordinates":[[16.44863,51.11513],[16.443,51.1114],[16.44104,51.11043],[16.44056,51.11011],[16.44029,51.10959],[16.43859,51.1044]]}},{"type":"Feature","properties":{"numer":"2177D","klasa":"droga zbiorcza","kat":"powiatowa"},"geometry":{"type":"LineString","coordinates":[[16.41763,51.10865],[16.41593,51.10886],[16.41476,51.10911],[16.40436,51.11231],[16.39573,51.1175],[16.39449,51.11803],[16.39316,51.1184]]}},{"type":"Feature","properties":{"numer":"2182D","klasa":"droga zbiorcza","kat":"powiatowa"},"geometry":{"type":"LineString","coordinates":[[16.41987,51.11888],[16.4201,51.11859],[16.42225,51.11282],[16.42232,51.11123],[16.42111,51.10822]]}},{"type":"Feature","properties":{"numer":"345","klasa":"droga gĹ‚Ăłwna","kat":"wojewodzka"},"geometry":{"type":"LineString","coordinates":[[16.45165812119941,51.11860356311596],[16.44928,51.11573],[16.44863,51.11513]]}},{"type":"Feature","properties":{"numer":"2798D","klasa":"droga zbiorcza","kat":"powiatowa"},"geometry":{"type":"LineString","coordinates":[[16.41987,51.11888],[16.42359,51.11913],[16.42802,51.11963],[16.43268,51.11981],[16.43316,51.12001],[16.43355,51.12093],[16.43622,51.12022],[16.43711,51.11992],[16.44011,51.11845],[16.44344,51.11705],[16.44863,51.11513]]}},{"type":"Feature","properties":{"numer":"2182D,2798D","klasa":"droga zbiorcza","kat":"powiatowa"},"geometry":{"type":"LineString","coordinates":[[16.41924,51.11915],[16.41944,51.119],[16.41987,51.11888]]}},{"type":"Feature","properties":{"numer":"2182D,2798D","klasa":"droga zbiorcza","kat":"powiatowa"},"geometry":{"type":"LineString","coordinates":[[16.41914,51.11923],[16.41924,51.11915]]}},{"type":"Feature","properties":{"numer":"2182D,2798D","klasa":"droga zbiorcza","kat":"powiatowa"},"geometry":{"type":"LineString","coordinates":[[16.41888,51.11945],[16.41914,51.11923]]}},{"type":"Feature","properties":{"numer":"2798D","klasa":"droga zbiorcza","kat":"powiatowa"},"geometry":{"type":"LineString","coordinates":[[16.39316,51.1184],[16.4102,51.12175],[16.41104,51.12182],[16.41232,51.12175]]}},{"type":"Feature","properties":{"numer":"2798D","klasa":"droga zbiorcza","kat":"powiatowa"},"geometry":{"type":"LineString","coordinates":[[16.41305,51.1215],[16.41357,51.12134],[16.41446,51.12129],[16.41575,51.12078],[16.41741,51.11996],[16.41888,51.11945]]}},{"type":"Feature","properties":{"numer":"2798D","klasa":"droga zbiorcza","kat":"powiatowa"},"geometry":{"type":"LineString","coordinates":[[16.41232,51.12175],[16.41305,51.1215]]}},{"type":"Feature","properties":{"numer":"2183D","klasa":"droga zbiorcza","kat":"powiatowa"},"geometry":{"type":"LineString","coordinates":[[16.41267,51.12245],[16.41294,51.12216],[16.41305,51.1215]]}},{"type":"Feature","properties":{"numer":"2182D","klasa":"droga zbiorcza","kat":"powiatowa"},"geometry":{"type":"LineString","coordinates":[[16.423370757252997,51.12929367731123],[16.42254,51.12755],[16.41966,51.12004],[16.41939,51.11969],[16.41888,51.11945]]}},{"type":"Feature","properties":{"numer":"2183D","klasa":"droga zbiorcza","kat":"powiatowa"},"geometry":{"type":"LineString","coordinates":[[16.41267,51.12245],[16.41159,51.12323],[16.41107,51.1239],[16.41004,51.12615],[16.40982,51.12753],[16.40889,51.12862],[16.40853,51.12933],[16.408543148788926,51.129403633218]]}}]}