{"type":"FeatureCollection","features":[{"type":"Feature","properties":{"numer":"110656D","klasa":"droga lokalna","kat":"powiatowa"},"geometry":{"type":"LineString","coordinates":[[16.26080977436581,51.003286972941765],[16.26053,51.00532]]}},{"type":"Feature","properties":{"numer":"110656D","klasa":"droga lokalna","kat":"powiatowa"},"geometry":{"type":"LineString","coordinates":[[16.26053,51.00532],[16.26042,51.00589],[16.25914,51.0081]]}},{"type":"Feature","properties":{"numer":"110657D","klasa":"droga lokalna","kat":"powiatowa"},"geometry":{"type":"LineString","coordinates":[[16.25914,51.0081],[16.25837,51.00868]]}},{"type":"Feature","properties":{"numer":"110657D","klasa":"droga lokalna","kat":"powiatowa"},"geometry":{"type":"LineString","coordinates":[[16.25837,51.00868],[16.25802,51.00892]]}},{"type":"Feature","properties":{"numer":"110657D","klasa":"droga lokalna","kat":"powiatowa"},"geometry":{"type":"LineString","coordinates":[[16.25802,51.00892],[16.25773,51.00918]]}},{"type":"Feature","properties":{"numer":"110657D","klasa":"droga lokalna","kat":"powiatowa"},"geometry":{"type":"LineString","coordinates":[[16.25773,51.00918],[16.25752,51.00985]]}},{"type":"Feature","properties":{"numer":"2805D","klasa":"","kat":"powiatowa"},"geometry":{"type":"LineString","coordinates":[[16.25752,51.00985],[16.25756,51.01037],[16.25817,51.0113],[16.25937,51.01595],[16.26449,51.01978]]}},{"type":"Feature","properties":{"numer":"2929D","klasa":"droga zbiorcza","kat":"powiatowa"},"geometry":{"type":"LineString","coordinates":[[16.319074160919538,51.01371885057471],[16.31879,51.01387]]}},{"type":"Feature","properties":{"numer":"2929D","klasa":"droga zbiorcza","kat":"powiatowa"},"geometry":{"type":"LineString","coordinates":[[16.31879,51.01387],[16.31788,51.01429],[16.31245824749002,51.01551560688923]]}},{"type":"Feature","properties":{"numer":"2929D","klasa":"droga zbiorcza","kat":"powiatowa"},"geometry":{"type":"LineString","coordinates":[[16.304585003895077,51.017653830173984],[16.3035,51.0181]]}},{"type":"Feature","properties":{"numer":"2929D","klasa":"droga zbiorcza","kat":"powiatowa"},"geometry":{"type":"LineString","coordinates":[[16.31879,51.01387],[16.31849,51.01517],[16.31776,51.01631],[16.31454,51.01963],[16.31282,51.02182],[16.30977,51.02505]]}},{"type":"Feature","properties":{"numer":"2792D","klasa":"droga zbiorcza","kat":"powiatowa"},"geometry":{"type":"LineString","coordinates":[[16.30977,51.02505],[16.30904,51.02346],[16.30831,51.02246],[16.3068,51.02086],[16.3056,51.01976],[16.30458,51.01886],[16.3035,51.0181]]}},{"type":"Feature","properties":{"numer":"2792D","klasa":"droga zbiorcza","kat":"powiatowa"},"geometry":{"type":"LineString","coordinates":[[16.30576,51.03011],[16.3059,51.02975],[16.30726,51.02859],[16.30832,51.02654],[16.30858,51.02627],[16.30934,51.02578],[16.30967,51.02535],[16.30977,51.02505]]}},{"type":"Feature","properties":{"numer":"2792D","klasa":"droga zbiorcza","kat":"powiatowa"},"geometry":{"type":"LineString","coordinates":[[16.30576,51.03011],[16.30578,51.03018]]}},{"type":"Feature","properties":{"numer":"2792D","klasa":"droga zbiorcza","kat":"powiatowa"},"geometry":{"type":"LineString","coordinates":[[16.30578,51.03018],[16.30601,51.03061],[16.30561,51.03094],[16.30553,51.03117]]}},{"type":"Feature","properties":{"numer":"382","klasa":"droga gĹ‚Ăłwna","kat":"wojewodzka"},"geometry":{"type":"LineString","coordinates":[[16.274189204509142,51.01405782730363],[16.26649,51.01843]]}},{"type":"Feature","properties":{"numer":"2792D","klasa":"droga zbiorcza","kat":"powiatowa"},"geometry":{"type":"LineString","coordinates":[[16.3035,51.0181],[16.303328458525158,51.01799508400869]]}},{"type":"Feature","properties":{"numer":"382","klasa":"droga gĹ‚Ăłwna","kat":"wojewodzka"},"geometry":{"type":"LineString","coordinates":[[16.26649,51.01843],[16.26639,51.0185]]}},{"type":"Feature","properties":{"numer":"382","klasa":"droga gĹ‚Ăłwna","kat":"wojewodzka"},"geometry":{"type":"LineString","coordinates":[[16.26639,51.0185],[16.26449,51.01978]]}},{"type":"Feature","properties":{"numer":"382","klasa":"droga gĹ‚Ăłwna","kat":"wojewodzka"},"geometry":{"type":"LineString","coordinates":[[16.26449,51.01978],[16.25963,51.02195],[16.25638,51.023],[16.25548,51.02323]]}},{"type":"Feature","properties":{"numer":"382","klasa":"droga gĹ‚Ăłwna","kat":"wojewodzka"},"geometry":{"type":"LineString","coordinates":[[16.25548,51.02323],[16.25037,51.02436],[16.24736,51.02513],[16.23951,51.02799],[16.23855,51.02826],[16.23731,51.0285]]}},{"type":"Feature","properties":{"numer":"382","klasa":"droga gĹ‚Ăłwna","kat":"wojewodzka"},"geometry":{"type":"LineString","coordinates":[[16.23731,51.0285],[16.23696,51.02855]]}},{"type":"Feature","properties":{"numer":"382","klasa":"droga gĹ‚Ăłwna","kat":"wojewodzka"},"geometry":{"type":"LineString","coordinates":[[16.226129886290675,51.032978708601725],[16.22622,51.03287],[16.22713,51.03214],[16.23132,51.0297],[16.23308,51.02913],[16.23696,51.02855]]}},{"type":"Feature","properties":{"numer":"2804D","klasa":"droga zbiorcza","kat":"powiatowa"},"geometry":{"type":"LineString","coordinates":[[16.25548,51.02323],[16.25647,51.02451],[16.25739,51.02551],[16.25939,51.02755],[16.26117,51.0291],[16.26147,51.02961],[16.26162,51.03018],[16.26172,51.03222],[16.26209,51.03501],[16.26257,51.03655],[16.26279,51.03779],[16.26299,51.03833],[16.26399,51.03987],[16.26438,51.04106]]}},{"type":"Feature","properties":{"numer":"382,E65,S3","klasa":"droga ekspresowa","kat":"krajowa"},"geometry":{"type":"LineString","coordinates":[[16.23136818313166,51.041928370959006],[16.23051,51.04019],[16.22921,51.03821],[16.229142092276977,51.03812581687229]]}},{"type":"Feature","properties":{"numer":"2792D","klasa":"droga zbiorcza","kat":"powiatowa"},"geometry":{"type":"LineString","coordinates":[[16.3014,51.03177],[16.29967,51.03228],[16.2978,51.03257],[16.29722,51.03275],[16.29497,51.0345],[16.29233,51.03627],[16.29069,51.03771],[16.28862,51.03932],[16.2871,51.04016],[16.28548,51.04135],[16.28331,51.04432],[16.28218,51.04545]]}},{"type":"Feature","properties":{"numer":"2801D","klasa":"droga zbiorcza","kat":"powiatowa"},"geometry":{"type":"LineString","coordinates":[[16.233645980655545,51.04166938850081],[16.23376,51.04163],[16.2349821448923,51.04151746845746]]}},{"type":"Feature","properties":{"numer":"2801D","klasa":"droga zbiorcza","kat":"powiatowa"},"geometry":{"type":"LineString","coordinates":[[16.238420193829754,51.0412009029236],[16.23843,51.0412],[16.26251,51.04154],[16.26295,51.04147],[16.26379,51.04116],[16.26438,51.04106]]}},{"type":"Feature","properties":{"numer":"2801D","klasa":"droga zbiorcza","kat":"powiatowa"},"geometry":{"type":"LineString","coordinates":[[16.26438,51.04106],[16.265,51.04107],[16.26891,51.04164],[16.27163,51.04231],[16.2729,51.0425],[16.27592,51.04314],[16.27777,51.04373],[16.27938,51.04463],[16.28044,51.04537],[16.28194,51.04608]]}},{"type":"Feature","properties":{"numer":"2792D","klasa":"droga zbiorcza","kat":"powiatowa"},"geometry":{"type":"LineString","coordinates":[[16.28214,51.04553],[16.28218,51.04545]]}},{"type":"Feature","properties":{"numer":"2792D","klasa":"droga zbiorcza","kat":"powiatowa"},"geometry":{"type":"LineString","coordinates":[[16.28214,51.04553],[16.28194,51.04608]]}},{"type":"Feature","properties":{"numer":"110655D,2803D","klasa":"droga zbiorcza","kat":"powiatowa"},"geometry":{"type":"LineString","coordinates":[[16.30553,51.03117],[16.30564,51.03128],[16.30636,51.03151]]}},{"type":"Feature","properties":{"numer":"110655D,2792D","klasa":"droga zbiorcza","kat":"powiatowa"},"geometry":{"type":"LineString","coordinates":[[16.30553,51.03117],[16.30394,51.03201],[16.30357,51.0321],[16.30292,51.03208]]}},{"type":"Feature","properties":{"numer":"110655D,2792D","klasa":"droga zbiorcza","kat":"powiatowa"},"geometry":{"type":"LineString","coordinates":[[16.30283,51.03207],[16.3014,51.03177]]}},{"type":"Feature","properties":{"numer":"110655D,2792D","klasa":"droga zbiorcza","kat":"powiatowa"},"geometry":{"type":"LineString","coordinates":[[16.30292,51.03208],[16.30283,51.03207]]}},{"type":"Feature","properties":{"numer":"2803D","klasa":"droga zbiorcza","kat":"powiatowa"},"geometry":{"type":"LineString","coordinates":[[16.30636,51.03151],[16.30556,51.03416],[16.30542,51.03511],[16.30571,51.03608],[16.30722,51.03822],[16.30857,51.04072],[16.30862,51.04118],[16.30849,51.0421]]}},{"type":"Feature","properties":{"numer":"2803D","klasa":"droga zbiorcza","kat":"powiatowa"},"geometry":{"type":"LineString","coordinates":[[16.30849,51.0421],[16.3088,51.04307],[16.30881,51.04498],[16.30906,51.04574],[16.30973,51.04976]]}},{"type":"Feature","properties":{"numer":"2803D","klasa":"droga zbiorcza","kat":"powiatowa"},"geometry":{"type":"LineString","coordinates":[[16.30973,51.04976],[16.31024,51.0548],[16.31046,51.05559],[16.31083,51.05633],[16.31214,51.0566],[16.31257,51.05687],[16.31287,51.05724],[16.31364,51.05865],[16.31356,51.06034]]}},{"type":"Feature","properties":{"numer":"","klasa":"droga zbiorcza","kat":"powiatowa"},"geometry":{"type":"LineString","coordinates":[[16.31345,51.0605],[16.3131,51.06032],[16.3125,51.06017],[16.30845,51.05987],[16.30564,51.05949],[16.3029,51.05941],[16.30021,51.05905],[16.29767,51.05885],[16.2963,51.0588],[16.29521,51.05921],[16.29411,51.05939]]}},{"type":"Feature","properties":{"numer":"382,E65,S3","klasa":"droga ekspresowa","kat":"krajowa"},"geometry":{"type":"LineString","coordinates":[[16.23231,51.05331],[16.232756453272255,51.05099940850324]]}},{"type":"Feature","properties":{"numer":"2801D","klasa":"droga zbiorcza","kat":"powiatowa"},"geometry":{"type":"LineString","coordinates":[[16.28194,51.04608],[16.28291,51.04651],[16.28411,51.04743],[16.28487,51.04875],[16.28592,51.05106],[16.28617,51.05214],[16.28597,51.05487],[16.28734,51.05605],[16.28754,51.05635],[16.28693,51.05874]]}},{"type":"Feature","properties":{"numer":"2792D","klasa":"droga zbiorcza","kat":"powiatowa"},"geometry":{"type":"LineString","coordinates":[[16.27182,51.05885],[16.27759,51.05166],[16.27929,51.04929],[16.28051,51.04807],[16.28194,51.04608]]}},{"type":"Feature","properties":{"numer":"","klasa":"droga zbiorcza","kat":"powiatowa"},"geometry":{"type":"LineString","coordinates":[[16.23198,51.05323],[16.22923,51.05269],[16.22661,51.05243],[16.222743439412486,51.05238606181151]]}},{"type":"Feature","properties":{"numer":"","klasa":"droga zbiorcza","kat":"powiatowa"},"geometry":{"type":"LineString","coordinates":[[16.23198,51.05323],[16.23231,51.05331]]}},{"type":"Feature","properties":{"numer":"","klasa":"droga zbiorcza","kat":"powiatowa"},"geometry":{"type":"LineString","coordinates":[[16.23231,51.05331],[16.23265,51.0534]]}},{"type":"Feature","properties":{"numer":"","klasa":"droga zbiorcza","kat":"powiatowa"},"geometry":{"type":"LineString","coordinates":[[16.27182,51.05885],[16.2704,51.05887],[16.26799,51.05867],[16.26214,51.05769],[16.25976,51.0572],[16.25749,51.05702],[16.25318,51.05622],[16.25199,51.05593],[16.24951,51.05514],[16.24645,51.05468],[16.24515,51.05455],[16.24333,51.05459],[16.24092,51.05454],[16.23714,51.05427],[16.23506,51.05395],[16.23265,51.0534]]}},{"type":"Feature","properties":{"numer":"","klasa":"droga zbiorcza","kat":"powiatowa"},"geometry":{"type":"LineString","coordinates":[[16.28693,51.05874],[16.28551,51.05859],[16.2832,51.05851],[16.28027,51.05884],[16.27741,51.05893],[16.27182,51.05885]]}},{"type":"Feature","properties":{"numer":"2803D","klasa":"droga zbiorcza","kat":"powiatowa"},"geometry":{"type":"LineString","coordinates":[[16.31356,51.06034],[16.31351,51.06041]]}},{"type":"Feature","properties":{"numer":"2803D","klasa":"droga zbiorcza","kat":"powiatowa"},"geometry":{"type":"LineString","coordinates":[[16.31351,51.06041],[16.31345,51.0605]]}},{"type":"Feature","properties":{"numer":"","klasa":"droga zbiorcza","kat":"powiatowa"},"geometry":{"type":"LineString","coordinates":[[16.3447,51.06476],[16.34173,51.06414],[16.34072,51.06375],[16.34017,51.06363],[16.3372,51.06304],[16.33088,51.06274],[16.32531,51.06229],[16.32456,51.06202],[16.32319,51.06117],[16.32249,51.061],[16.32106,51.06098],[16.31988,51.06144],[16.31729,51.06163],[16.31522,51.06198],[16.31345,51.0605]]}},{"type":"Feature","properties":{"numer":"","klasa":"droga gĹ‚Ăłwna","kat":"gminna"},"geometry":{"type":"LineString","coordinates":[[16.34470194624289,51.0647606592113],[16.3447,51.06476]]}},{"type":"Feature","properties":{"numer":"","klasa":"droga zbiorcza","kat":"powiatowa"},"geometry":{"type":"LineString","coordinates":[[16.28834,51.05884],[16.28693,51.05874]]}},{"type":"Feature","properties":{"numer":"","klasa":"droga zbiorcza","kat":"powiatowa"},"geometry":{"type":"LineString","coordinates":[[16.29383,51.05937],[16.29167,51.05924],[16.28955,51.05887],[16.28834,51.05884]]}},{"type":"Feature","properties":{"numer":"","klasa":"droga zbiorcza","kat":"powiatowa"},"geometry":{"type":"LineString","coordinates":[[16.29383,51.05937],[16.29411,51.05939]]}},{"type":"Feature","properties":{"numer":"382,E65,S3","klasa":"droga ekspresowa","kat":"krajowa"},"geometry":{"type":"LineString","coordinates":[[16.22215,51.06614],[16.22458,51.06427],[16.2261,51.06294],[16.22741,51.06164],[16.2287,51.06014],[16.22890085841088,51.05986444218011]]}},{"type":"Feature","properties":{"numer":"382,E65,S3","klasa":"droga ekspresowa","kat":"krajowa"},"geometry":{"type":"LineString","coordinates":[[16.22900411239149,51.05972278795878],[16.22991,51.05848],[16.23107,51.05647],[16.23187,51.05465],[16.23231,51.05331]]}},{"type":"Feature","properties":{"numer":"2184D","klasa":"droga zbiorcza","kat":"powiatowa"},"geometry":{"type":"LineString","coordinates":[[16.218318910157564,51.064379580685184],[16.21889,51.06478],[16.22188,51.06603]]}},{"type":"Feature","properties":{"numer":"2184D","klasa":"droga zbiorcza","kat":"powiatowa"},"geometry":{"type":"LineString","coordinates":[[16.22188,51.06603],[16.22215,51.06614]]}},{"type":"Feature","properties":{"numer":"2184D","klasa":"droga zbiorcza","kat":"powiatowa"},"geometry":{"type":"LineString","coordinates":[[16.22215,51.06614],[16.22241,51.06626]]}},{"type":"Feature","properties":{"numer":"2792D","klasa":"droga zbiorcza","kat":"powiatowa"},"geometry":{"type":"LineString","coordinates":[[16.25939,51.07698],[16.25981,51.07649],[16.26067,51.07575],[16.26176,51.07256],[16.26296,51.06964],[16.2642,51.06714],[16.26514,51.06566],[16.269,51.06241],[16.27182,51.05885]]}},{"type":"Feature","properties":{"numer":"2184D","klasa":"droga zbiorcza","kat":"powiatowa"},"geometry":{"type":"LineString","coordinates":[[16.22241,51.06626],[16.22634,51.06791],[16.22838,51.06886],[16.23428,51.06986],[16.23752,51.07061],[16.24036,51.07089],[16.24635,51.07228]]}},{"type":"Feature","properties":{"numer":"382,E65,S3","klasa":"droga ekspresowa","kat":"krajowa"},"geometry":{"type":"LineString","coordinates":[[16.20704,51.07772],[16.215581541530664,51.07117393441925]]}},{"type":"Feature","properties":{"numer":"382,E65,S3","klasa":"droga ekspresowa","kat":"krajowa"},"geometry":{"type":"LineString","coordinates":[[16.220663863525353,51.0672789450944],[16.22215,51.06614]]}},{"type":"Feature","properties":{"numer":"2176D","klasa":"droga zbiorcza","kat":"powiatowa"},"geometry":{"type":"LineString","coordinates":[[16.205839452739024,51.07506794017754],[16.20604,51.07568],[16.20694,51.07744]]}},{"type":"Feature","properties":{"numer":"2800D","klasa":"droga zbiorcza","kat":"powiatowa"},"geometry":{"type":"LineString","coordinates":[[16.293137182947127,51.070066820132],[16.29181,51.06941],[16.29113,51.0688],[16.28922,51.06582],[16.28878,51.06469],[16.28909,51.06365],[16.28914,51.06285],[16.289,51.06206],[16.28963,51.06125],[16.28976,51.06086],[16.28932,51.06012],[16.28837,51.05937],[16.28834,51.05884]]}},{"type":"Feature","properties":{"numer":"2184D","klasa":"droga zbiorcza","kat":"powiatowa"},"geometry":{"type":"LineString","coordinates":[[16.24635,51.07228],[16.24727,51.0724],[16.24805,51.0726],[16.24973,51.07324],[16.25325,51.07479],[16.25835,51.07654],[16.25939,51.07698]]}},{"type":"Feature","properties":{"numer":"2188D","klasa":"droga zbiorcza","kat":"powiatowa"},"geometry":{"type":"LineString","coordinates":[[16.25409,51.08448],[16.25371,51.0838],[16.253,51.08309],[16.25231,51.08203],[16.25237,51.08069],[16.25227,51.08013],[16.25098,51.07795],[16.25041,51.07729],[16.2487,51.07614],[16.24856,51.0751],[16.24635,51.07228]]}},{"type":"Feature","properties":{"numer":"2792D","klasa":"droga zbiorcza","kat":"powiatowa"},"geometry":{"type":"LineString","coordinates":[[16.25409,51.08448],[16.25436,51.08396],[16.25431,51.08324],[16.25443,51.08311],[16.2548,51.08288],[16.25732,51.08226],[16.25784,51.0803],[16.25886,51.0787],[16.25939,51.07698]]}},{"type":"Feature","properties":{"numer":"2184D","klasa":"droga zbiorcza","kat":"powiatowa"},"geometry":{"type":"LineString","coordinates":[[16.25939,51.07698],[16.26177,51.07809],[16.2649,51.07913],[16.26721,51.08028],[16.27362,51.08187],[16.27797,51.08236],[16.28985,51.08713],[16.29076,51.08734],[16.2929,51.08744],[16.292902205882356,51.08744036764706]]}},{"type":"Feature","properties":{"numer":"2188D,2792D","klasa":"droga zbiorcza","kat":"powiatowa"},"geometry":{"type":"LineString","coordinates":[[16.25395,51.08475],[16.25409,51.08448]]}},{"type":"Feature","properties":{"numer":"2792D","klasa":"droga zbiorcza","kat":"powiatowa"},"geometry":{"type":"LineString","coordinates":[[16.24069,51.08498],[16.25074,51.08508],[16.25272,51.08495],[16.25395,51.08475]]}},{"type":"Feature","properties":{"numer":"110658D,2792D","klasa":"droga zbiorcza","kat":"powiatowa"},"geometry":{"type":"LineString","coordinates":[[16.24015,51.08496],[16.24069,51.08498]]}},{"type":"Feature","properties":{"numer":"2792D","klasa":"droga zbiorcza","kat":"powiatowa"},"geometry":{"type":"LineString","coordinates":[[16.20703,51.0896],[16.20738,51.08946],[16.213,51.08808],[16.21934,51.08625],[16.21979,51.08605],[16.22145,51.08453],[16.22199,51.08432],[16.22858,51.08443],[16.24015,51.08496]]}},{"type":"Feature","properties":{"numer":"2188D","klasa":"droga zbiorcza","kat":"powiatowa"},"geometry":{"type":"LineString","coordinates":[[16.26019,51.0901],[16.26012,51.08946],[16.25987,51.08903],[16.25943,51.08857],[16.25898,51.0883],[16.25853,51.08759],[16.25773,51.08664],[16.25636,51.08569],[16.25564,51.08533],[16.25489,51.08514],[16.25395,51.08475]]}},{"type":"Feature","properties":{"numer":"2176D","klasa":"droga zbiorcza","kat":"powiatowa"},"geometry":{"type":"LineString","coordinates":[[16.20704,51.07772],[16.20694,51.07744]]}},{"type":"Feature","properties":{"numer":"2176D","klasa":"droga zbiorcza","kat":"powiatowa"},"geometry":{"type":"LineString","coordinates":[[16.20711,51.07802],[16.20704,51.07772]]}},{"type":"Feature","properties":{"numer":"382,E65,S3","klasa":"droga ekspresowa","kat":"krajowa"},"geometry":{"type":"LineString","coordinates":[[16.19931500300051,51.082490736278444],[16.2002,51.08207],[16.20251,51.08082],[16.2046,51.07951],[16.20704,51.07772]]}},{"type":"Feature","properties":{"numer":"2176D","klasa":"droga zbiorcza","kat":"powiatowa"},"geometry":{"type":"LineString","coordinates":[[16.20703,51.0896],[16.20587,51.08593],[16.20629,51.08364],[16.20618,51.08046],[16.207,51.079],[16.20711,51.07802]]}},{"type":"Feature","properties":{"numer":"2188D","klasa":"droga zbiorcza","kat":"powiatowa"},"geometry":{"type":"LineString","coordinates":[[16.24977,51.10014],[16.25,51.10006],[16.25091,51.09999],[16.25203,51.09864],[16.25359,51.0976],[16.25524,51.09597],[16.25563,51.09569],[16.25864,51.09202],[16.25918,51.09151],[16.26002,51.0911],[16.26018,51.09076],[16.26019,51.0901]]}},{"type":"Feature","properties":{"numer":"2186D","klasa":"droga zbiorcza","kat":"powiatowa"},"geometry":{"type":"LineString","coordinates":[[16.263321108404106,51.093195737957835],[16.26321,51.0928],[16.26334,51.09241],[16.26403,51.09155],[16.26401,51.09122],[16.26367,51.09062],[16.26328,51.09031],[16.26293,51.09025],[16.26019,51.0901]]}},{"type":"Feature","properties":{"numer":"2176D","klasa":"droga zbiorcza","kat":"powiatowa"},"geometry":{"type":"LineString","coordinates":[[16.228289187119337,51.10461254716095],[16.21606,51.10101],[16.2152,51.10069],[16.21428,51.10014],[16.21362,51.1],[16.2133,51.09984],[16.2124,51.09879],[16.2116,51.09741],[16.21233,51.09579],[16.21222,51.09538],[16.21121,51.09438],[16.21056,51.09351],[16.20911,51.09229],[16.20853,51.09153],[16.20731,51.09031],[16.20703,51.0896]]}},{"type":"Feature","properties":{"numer":"110658D,2188D","klasa":"droga zbiorcza","kat":"powiatowa"},"geometry":{"type":"LineString","coordinates":[[16.25053,51.10386],[16.25022,51.10254],[16.24962,51.10097],[16.24961,51.10046],[16.24977,51.10014]]}},{"type":"Feature","properties":{"numer":"2188D","klasa":"droga zbiorcza","kat":"powiatowa"},"geometry":{"type":"LineString","coordinates":[[16.24444,51.107],[16.24715,51.10575],[16.24847,51.10526],[16.24983,51.10451],[16.25042,51.10408],[16.25053,51.10386]]}},{"type":"Feature","properties":{"numer":"2188D","klasa":"droga zbiorcza","kat":"powiatowa"},"geometry":{"type":"LineString","coordinates":[[16.24442316873649,51.10700242444793],[16.24444,51.107]]}},{"type":"Feature","properties":{"numer":"2792D","klasa":"droga zbiorcza","kat":"powiatowa"},"geometry":{"type":"LineString","coordinates":[[16.20703,51.0896],[16.20659,51.08978],[16.20442,51.08993],[16.193,51.09046],[16.18992,51.09071],[16.18901,51.09069],[16.18411,51.09026],[16.18361,51.09033],[16.1828,51.09068],[16.1803,51.09297],[16.17833,51.09555],[16.178247147860894,51.09576444083062]]}}]}