{"type":"FeatureCollection","features":[{"type":"Feature","properties":{"numer":"115606D","klasa":"droga lokalna","kat":"powiatowa"},"geometry":{"type":"LineString","coordinates":[[15.77808,50.78544],[15.77741,50.78367],[15.77758,50.78302],[15.77755,50.78265]]}},{"type":"Feature","properties":{"numer":"115606D","klasa":"droga lokalna","kat":"powiatowa"},"geometry":{"type":"LineString","coordinates":[[15.77804,50.78695],[15.77829,50.78614],[15.77812,50.78551]]}},{"type":"Feature","properties":{"numer":"115606D","klasa":"droga lokalna","kat":"powiatowa"},"geometry":{"type":"LineString","coordinates":[[15.77804,50.7881],[15.77821,50.7877],[15.77804,50.78695]]}},{"type":"Feature","properties":{"numer":"2653D","klasa":"droga zbiorcza","kat":"powiatowa"},"geometry":{"type":"LineString","coordinates":[[15.765964915770246,50.7837470834179],[15.76666,50.78522],[15.76782,50.7869],[15.77066,50.78866],[15.77398,50.79047],[15.77681,50.79261],[15.77751,50.79278]]}},{"type":"Feature","properties":{"numer":"115606D","klasa":"droga lokalna","kat":"powiatowa"},"geometry":{"type":"LineString","coordinates":[[15.77809,50.7883],[15.77804,50.7881]]}},{"type":"Feature","properties":{"numer":"115606D","klasa":"droga lokalna","kat":"powiatowa"},"geometry":{"type":"LineString","coordinates":[[15.77832,50.7893],[15.77837,50.78888],[15.77809,50.7883]]}},{"type":"Feature","properties":{"numer":"115606D","klasa":"droga lokalna","kat":"powiatowa"},"geometry":{"type":"LineString","coordinates":[[15.77823,50.79047],[15.77842,50.79011],[15.77832,50.7893]]}},{"type":"Feature","properties":{"numer":"115606D","klasa":"droga lokalna","kat":"powiatowa"},"geometry":{"type":"LineString","coordinates":[[15.77815,50.7907],[15.77823,50.79047]]}},{"type":"Feature","properties":{"numer":"2741D","klasa":"droga gĹ‚Ăłwna","kat":"powiatowa"},"geometry":{"type":"LineString","coordinates":[[15.76297,50.79737],[15.76318,50.79626],[15.76281,50.79526],[15.76279,50.79428],[15.76248,50.79283],[15.76213,50.79227],[15.76084,50.79109],[15.76054,50.79065],[15.760533712121214,50.79062371212122]]}},{"type":"Feature","properties":{"numer":"115606D","klasa":"droga lokalna","kat":"powiatowa"},"geometry":{"type":"LineString","coordinates":[[15.77784,50.79141],[15.77815,50.7907]]}},{"type":"Feature","properties":{"numer":"115606D","klasa":"droga lokalna","kat":"powiatowa"},"geometry":{"type":"LineString","coordinates":[[15.77765,50.79207],[15.77784,50.79141]]}},{"type":"Feature","properties":{"numer":"366","klasa":"droga gĹ‚Ăłwna","kat":"wojewodzka"},"geometry":{"type":"LineString","coordinates":[[15.797560896942702,50.79282043733549],[15.796645066313008,50.792836392572944]]}},{"type":"Feature","properties":{"numer":"366","klasa":"droga gĹ‚Ăłwna","kat":"wojewodzka"},"geometry":{"type":"LineString","coordinates":[[15.796347514238827,50.792841576406985],[15.79529,50.79286],[15.79447,50.79281],[15.79329,50.79251],[15.7926,50.79241],[15.78891,50.79242],[15.7864,50.79231],[15.78106,50.79265],[15.77966,50.7928],[15.7777,50.79279]]}},{"type":"Feature","properties":{"numer":"2653D","klasa":"droga zbiorcza","kat":"powiatowa"},"geometry":{"type":"LineString","coordinates":[[15.77751,50.79278],[15.7777,50.79279]]}},{"type":"Feature","properties":{"numer":"115606D","klasa":"droga lokalna","kat":"powiatowa"},"geometry":{"type":"LineString","coordinates":[[15.77737,50.78256],[15.777392425550278,50.78244226586103]]}},{"type":"Feature","properties":{"numer":"115606D","klasa":"droga lokalna","kat":"powiatowa"},"geometry":{"type":"LineString","coordinates":[[15.77755,50.78265],[15.77737,50.78256]]}},{"type":"Feature","properties":{"numer":"2653D","klasa":"droga zbiorcza","kat":"powiatowa"},"geometry":{"type":"LineString","coordinates":[[15.70476,50.80471],[15.70605,50.80419],[15.70861,50.80389],[15.70965,50.8033],[15.71072,50.80293],[15.71162,50.80289],[15.71249,50.80309],[15.7128,50.80304],[15.71301,50.80287],[15.7131,50.8019],[15.71333,50.80133],[15.71464,50.80054],[15.71567,50.79961],[15.71648,50.7986],[15.71708,50.79821],[15.71703,50.79791],[15.71617,50.79637],[15.71589,50.79426],[15.71637,50.7924],[15.71716,50.7911],[15.71725,50.79063],[15.71685,50.79001],[15.71633,50.78974],[15.71609,50.78952],[15.71591,50.78863],[15.71591,50.78756],[15.71537,50.78692],[15.71474,50.78642],[15.71467,50.78616],[15.71502,50.78602],[15.71637,50.78616],[15.71878,50.78619],[15.719165680412372,50.78627765463918]]}},{"type":"Feature","properties":{"numer":"2720D","klasa":"droga gĹ‚Ăłwna","kat":"powiatowa"},"geometry":{"type":"LineString","coordinates":[[15.6799,50.81832],[15.68054,50.81758],[15.68102,50.81679],[15.68237,50.81581],[15.68263,50.81501],[15.68269,50.81331],[15.68006,50.81014],[15.68005,50.80983],[15.68034,50.80911],[15.68028,50.80746],[15.67966,50.8066],[15.67825,50.80618],[15.67814,50.80594],[15.67832,50.80583],[15.67947,50.80552],[15.68034,50.80515],[15.68211,50.80386],[15.6835,50.80233],[15.68406,50.8019],[15.68554,50.8011],[15.68705,50.80057],[15.6876,50.80027],[15.68807,50.79983],[15.68816,50.79943],[15.6875,50.79883],[15.68748,50.79858],[15.68764,50.79842],[15.68973,50.79759],[15.69007,50.79741],[15.69076,50.79678],[15.6926,50.79643],[15.69282,50.79632],[15.69349,50.79576],[15.69431,50.79477],[15.6949,50.79443],[15.69591,50.79413],[15.69762,50.79396],[15.69811,50.79418],[15.69882,50.7948],[15.69933,50.79504],[15.69999,50.79682],[15.6998,50.7981],[15.69991,50.79861],[15.70102,50.79972],[15.70115,50.80066],[15.70174,50.80159],[15.70476,50.80471]]}},{"type":"Feature","properties":{"numer":"115513D,2721D","klasa":"droga gĹ‚Ăłwna","kat":"powiatowa"},"geometry":{"type":"LineString","coordinates":[[15.65533,50.80184],[15.65536,50.80208],[15.65549,50.80219],[15.65735,50.80334],[15.65897,50.80491],[15.6604,50.80524],[15.66124,50.80558],[15.66245,50.80568],[15.66308,50.80593],[15.6634,50.80596],[15.66448,50.80572],[15.66484,50.80577],[15.66502,50.80587],[15.66541,50.80654],[15.66607,50.80701],[15.66621,50.80736],[15.66585,50.80756],[15.66506,50.80774],[15.66438,50.80839],[15.66361,50.80856],[15.66326,50.80837],[15.66294,50.80834],[15.66273,50.80846],[15.66268,50.80868],[15.66288,50.8088],[15.6635,50.80881],[15.664,50.80878],[15.66508,50.80857],[15.66639,50.80884],[15.66829,50.80877],[15.66846,50.80882],[15.66852,50.80895],[15.66841,50.80906],[15.66759,50.80929],[15.66617,50.81025],[15.66608,50.81098],[15.66618,50.81104],[15.66652,50.81112],[15.66709,50.81097],[15.66738,50.81096],[15.66752,50.81099],[15.66813,50.81161],[15.66829,50.81165],[15.66963,50.81167],[15.67053,50.81158],[15.67105,50.81173],[15.67112,50.81182]]}},{"type":"Feature","properties":{"numer":"2760D","klasa":"droga gĹ‚Ăłwna","kat":"powiatowa"},"geometry":{"type":"LineString","coordinates":[[15.65006,50.80925],[15.65126,50.80857],[15.65216,50.80929]]}},{"type":"Feature","properties":{"numer":"2760D","klasa":"droga gĹ‚Ăłwna","kat":"powiatowa"},"geometry":{"type":"LineString","coordinates":[[15.65216,50.80929],[15.65224,50.80937]]}},{"type":"Feature","properties":{"numer":"2760D","klasa":"droga gĹ‚Ăłwna","kat":"powiatowa"},"geometry":{"type":"LineString","coordinates":[[15.65224,50.80937],[15.65374,50.81052],[15.6565,50.81093],[15.65734,50.81128],[15.65848,50.81158],[15.66016,50.81161],[15.66044,50.81152],[15.66071,50.81124],[15.66114,50.81127],[15.66243,50.8118],[15.66302,50.81216],[15.66379,50.8124]]}},{"type":"Feature","properties":{"numer":"2760D","klasa":"droga gĹ‚Ăłwna","kat":"powiatowa"},"geometry":{"type":"LineString","coordinates":[[15.66379,50.8124],[15.6639,50.81243]]}},{"type":"Feature","properties":{"numer":"2721D","klasa":"droga gĹ‚Ăłwna","kat":"powiatowa"},"geometry":{"type":"LineString","coordinates":[[15.6748,50.81616],[15.67525,50.81574],[15.67532,50.81554],[15.67474,50.81413],[15.67563,50.81303],[15.67565,50.81282],[15.67553,50.81276],[15.67526,50.81278],[15.67485,50.81321],[15.67456,50.81327],[15.67345,50.81291],[15.67325,50.81271],[15.67332,50.81247],[15.67396,50.81212],[15.67406,50.81196],[15.67398,50.81171],[15.67373,50.81159],[15.67342,50.81155],[15.67256,50.81165],[15.67175,50.81203],[15.67148,50.81207],[15.67123,50.81199],[15.67112,50.81182]]}},{"type":"Feature","properties":{"numer":"2760D","klasa":"droga gĹ‚Ăłwna","kat":"powiatowa"},"geometry":{"type":"LineString","coordinates":[[15.6639,50.81243],[15.66508,50.81242],[15.66622,50.81262],[15.6678,50.81323],[15.66821,50.8133],[15.66923,50.81315],[15.67158,50.8132],[15.67214,50.81331],[15.67304,50.81388],[15.6736,50.81494],[15.67441,50.81598],[15.6746,50.81608]]}},{"type":"Feature","properties":{"numer":"2653D","klasa":"droga zbiorcza","kat":"powiatowa"},"geometry":{"type":"LineString","coordinates":[[15.72466,50.82572],[15.72365,50.82559],[15.72326,50.82545],[15.72266,50.82501],[15.7218,50.82467],[15.72117,50.82409],[15.72111,50.82351],[15.72083,50.82319],[15.72132,50.82267],[15.72115,50.82202],[15.72164,50.82],[15.72169,50.81961],[15.72156,50.819],[15.72175,50.81865],[15.7218,50.81793],[15.72197,50.81771],[15.72307,50.81695],[15.72324,50.81634],[15.7237,50.81586],[15.72395,50.8158],[15.7242,50.81582],[15.72438,50.8163],[15.72469,50.81639],[15.72617,50.81594],[15.72707,50.81592],[15.72785,50.81564],[15.72795,50.81543],[15.72786,50.81525],[15.7275,50.81496],[15.72706,50.81489],[15.72638,50.81491],[15.72618,50.81483],[15.72565,50.81372],[15.72501,50.81323],[15.72457,50.81273],[15.72402,50.81245],[15.72369,50.81217],[15.72246,50.81205],[15.72027,50.81141],[15.71881,50.81067],[15.71797,50.80998],[15.71774,50.80964],[15.71752,50.80889],[15.71703,50.80868],[15.71616,50.80866],[15.71588,50.80855],[15.71581,50.8084],[15.7159,50.80825],[15.71695,50.80766],[15.71788,50.80773],[15.71895,50.80758],[15.72025,50.80698],[15.72031,50.80671],[15.71999,50.80661],[15.71907,50.80686],[15.7176,50.80675],[15.71595,50.80618],[15.71433,50.80634],[15.71416,50.8063],[15.71319,50.8056],[15.7116,50.8054],[15.71074,50.80506],[15.70998,50.80512],[15.70912,50.80536],[15.70777,50.80534],[15.70678,50.80545],[15.70581,50.8054],[15.7051,50.80511],[15.70476,50.80471]]}},{"type":"Feature","properties":{"numer":"2741D","klasa":"droga gĹ‚Ăłwna","kat":"powiatowa"},"geometry":{"type":"LineString","coordinates":[[15.76696,50.80954],[15.76651,50.80864],[15.76631,50.80767],[15.76655,50.80451]]}},{"type":"Feature","properties":{"numer":"2753D","klasa":"droga gĹ‚Ăłwna","kat":"powiatowa"},"geometry":{"type":"LineString","coordinates":[[15.785562012413243,50.802406645766034],[15.78451,50.80239],[15.78185,50.80282],[15.78098,50.8028],[15.7806,50.80175],[15.78045,50.80089],[15.77938,50.79994],[15.77861,50.79951],[15.77799,50.79898],[15.77661,50.79828]]}},{"type":"Feature","properties":{"numer":"2741D","klasa":"droga gĹ‚Ăłwna","kat":"powiatowa"},"geometry":{"type":"LineString","coordinates":[[15.76749,50.81021],[15.76696,50.80954]]}},{"type":"Feature","properties":{"numer":"366","klasa":"droga gĹ‚Ăłwna","kat":"wojewodzka"},"geometry":{"type":"LineString","coordinates":[[15.76161,50.80949],[15.76194,50.81036],[15.76284,50.81207],[15.76238,50.81378]]}},{"type":"Feature","properties":{"numer":"366","klasa":"droga gĹ‚Ăłwna","kat":"wojewodzka"},"geometry":{"type":"LineString","coordinates":[[15.76238,50.81378],[15.762,50.81461],[15.76079,50.81501],[15.75869,50.81514],[15.75676,50.8151],[15.75563,50.81522]]}},{"type":"Feature","properties":{"numer":"2742D","klasa":"droga gĹ‚Ăłwna","kat":"powiatowa"},"geometry":{"type":"LineString","coordinates":[[15.77204,50.82087],[15.7717,50.81953],[15.77115,50.81875],[15.77092,50.81859],[15.77063,50.81853],[15.76785,50.81853],[15.76704,50.81847],[15.76518,50.81814],[15.764,50.81788],[15.76373,50.81775],[15.76338,50.81712],[15.76346,50.81589],[15.76337,50.81551],[15.76267,50.81464],[15.76238,50.81378]]}},{"type":"Feature","properties":{"numer":"2741D","klasa":"droga gĹ‚Ăłwna","kat":"powiatowa"},"geometry":{"type":"LineString","coordinates":[[15.777087770094091,50.82265711875586],[15.77482,50.82069],[15.76953,50.81248],[15.76855,50.81127],[15.76749,50.81021]]}},{"type":"Feature","properties":{"numer":"366","klasa":"droga gĹ‚Ăłwna","kat":"wojewodzka"},"geometry":{"type":"LineString","coordinates":[[15.75563,50.81522],[15.75399,50.81539],[15.75165,50.81505],[15.75092,50.815],[15.74803,50.81552],[15.7458,50.81613],[15.74337,50.81709],[15.74148,50.81794],[15.73958,50.81806],[15.73837,50.81793],[15.73789,50.818],[15.73553,50.8191],[15.73379,50.81967],[15.72936,50.82197],[15.72716,50.82344],[15.72471,50.82568]]}},{"type":"Feature","properties":{"numer":"2742D","klasa":"droga gĹ‚Ăłwna","kat":"powiatowa"},"geometry":{"type":"LineString","coordinates":[[15.77204,50.82095],[15.77204,50.82087]]}},{"type":"Feature","properties":{"numer":"2754D","klasa":"droga gĹ‚Ăłwna","kat":"powiatowa"},"geometry":{"type":"LineString","coordinates":[[15.75563,50.81522],[15.75562,50.81537],[15.75445,50.81692],[15.75353,50.81751],[15.75259,50.81791],[15.75209,50.81829],[15.75003,50.81887],[15.74902,50.81907],[15.74864,50.8193],[15.74759,50.82046],[15.74735,50.82095],[15.74732,50.8223],[15.74696,50.82284],[15.74705,50.82309],[15.7472,50.82319],[15.74699,50.82345],[15.74624,50.82398],[15.74507,50.82467],[15.74502,50.82486],[15.74549,50.82546],[15.74578,50.8267],[15.74625,50.82734],[15.7466,50.82843],[15.7471,50.82869],[15.74718,50.82916]]}},{"type":"Feature","properties":{"numer":"2742D","klasa":"droga gĹ‚Ăłwna","kat":"powiatowa"},"geometry":{"type":"LineString","coordinates":[[15.77302357594247,50.82372173240357],[15.77262,50.82329],[15.77205,50.8221],[15.77204,50.82095]]}},{"type":"Feature","properties":{"numer":"2760D","klasa":"droga gĹ‚Ăłwna","kat":"powiatowa"},"geometry":{"type":"LineString","coordinates":[[15.6746,50.81608],[15.67472,50.81612]]}},{"type":"Feature","properties":{"numer":"2760D","klasa":"droga gĹ‚Ăłwna","kat":"powiatowa"},"geometry":{"type":"LineString","coordinates":[[15.67472,50.81612],[15.6748,50.81616]]}},{"type":"Feature","properties":{"numer":"2721D","klasa":"droga gĹ‚Ăłwna","kat":"powiatowa"},"geometry":{"type":"LineString","coordinates":[[15.6778,50.81695],[15.67767,50.81673],[15.67743,50.8167],[15.67617,50.81705],[15.67544,50.81699],[15.67499,50.81673],[15.67483,50.81654],[15.6748,50.81616]]}},{"type":"Feature","properties":{"numer":"2721D","klasa":"droga gĹ‚Ăłwna","kat":"powiatowa"},"geometry":{"type":"LineString","coordinates":[[15.67784,50.81705],[15.6778,50.81695]]}},{"type":"Feature","properties":{"numer":"2721D","klasa":"droga gĹ‚Ăłwna","kat":"powiatowa"},"geometry":{"type":"LineString","coordinates":[[15.67974,50.81855],[15.67934,50.81804],[15.67824,50.81738],[15.67784,50.81705]]}},{"type":"Feature","properties":{"numer":"2720D","klasa":"droga gĹ‚Ăłwna","kat":"powiatowa"},"geometry":{"type":"LineString","coordinates":[[15.67976,50.81842],[15.6799,50.81832]]}},{"type":"Feature","properties":{"numer":"2720D","klasa":"droga gĹ‚Ăłwna","kat":"powiatowa"},"geometry":{"type":"LineString","coordinates":[[15.67974,50.81855],[15.67976,50.81842]]}},{"type":"Feature","properties":{"numer":"2721D","klasa":"droga gĹ‚Ăłwna","kat":"powiatowa"},"geometry":{"type":"LineString","coordinates":[[15.68619,50.82458],[15.68598,50.82441],[15.68567,50.82317],[15.68503,50.82251],[15.68462,50.8219],[15.68243,50.81997],[15.68059,50.81884],[15.67974,50.81855]]}},{"type":"Feature","properties":{"numer":"2760D","klasa":"droga gĹ‚Ăłwna","kat":"powiatowa"},"geometry":{"type":"LineString","coordinates":[[15.66294,50.83564],[15.66402,50.83465],[15.66471,50.8344],[15.66478,50.83418],[15.66453,50.83404],[15.66429,50.83404],[15.66212,50.8344],[15.66186,50.83435],[15.66178,50.83406],[15.66203,50.83395],[15.66317,50.83378],[15.66395,50.83358],[15.66461,50.83329],[15.6662,50.83236],[15.66631,50.83226],[15.6663,50.83197],[15.66615,50.83187],[15.66581,50.83187],[15.66541,50.83231],[15.66415,50.83273],[15.66363,50.83281],[15.66311,50.8328],[15.66258,50.83268],[15.66169,50.8323],[15.66121,50.83157],[15.66111,50.83117],[15.66121,50.83028],[15.66111,50.83013],[15.66062,50.83003],[15.6596,50.83015],[15.65763,50.8297],[15.65707,50.82945],[15.65711,50.82923],[15.65736,50.82916],[15.65843,50.82944],[15.65876,50.82945],[15.66069,50.82912],[15.66101,50.8289],[15.66138,50.8284],[15.66144,50.8281],[15.66124,50.82736],[15.66118,50.82555],[15.6602,50.82436],[15.65911,50.82384],[15.65814,50.82302],[15.65754,50.82281],[15.65553,50.82259],[15.65516,50.82244],[15.6552,50.82211],[15.65659,50.82159],[15.65696,50.82134],[15.6569,50.82083],[15.6565,50.82027],[15.65688,50.81981],[15.65666,50.81926],[15.65675,50.81885],[15.65636,50.81804],[15.65679,50.81721],[15.6563,50.81649],[15.65607,50.81633],[15.6551,50.81601],[15.65474,50.81577],[15.65429,50.81523],[15.65355,50.81402],[15.65254,50.81336],[15.65213,50.81329],[15.65113,50.81336],[15.65072,50.81332],[15.65049,50.81321],[15.64998,50.81265],[15.64967,50.81252],[15.64815,50.81225],[15.64806,50.8121],[15.64812,50.812],[15.64962,50.81183],[15.65011,50.81161],[15.65072,50.81116],[15.65074,50.81066],[15.65022,50.81014],[15.65,50.80971],[15.65006,50.80925]]}},{"type":"Feature","properties":{"numer":"2721D","klasa":"droga gĹ‚Ăłwna","kat":"powiatowa"},"geometry":{"type":"LineString","coordinates":[[15.68637,50.8247],[15.68619,50.82458]]}},{"type":"Feature","properties":{"numer":"2721D","klasa":"droga gĹ‚Ăłwna","kat":"powiatowa"},"geometry":{"type":"LineString","coordinates":[[15.68655,50.82482],[15.68637,50.8247]]}},{"type":"Feature","properties":{"numer":"2721D","klasa":"droga gĹ‚Ăłwna","kat":"powiatowa"},"geometry":{"type":"LineString","coordinates":[[15.68765,50.82545],[15.68732,50.82518],[15.68655,50.82482]]}},{"type":"Feature","properties":{"numer":"2758D","klasa":"droga gĹ‚Ăłwna","kat":"powiatowa"},"geometry":{"type":"LineString","coordinates":[[15.68765,50.82545],[15.6882,50.82543]]}},{"type":"Feature","properties":{"numer":"366","klasa":"droga gĹ‚Ăłwna","kat":"wojewodzka"},"geometry":{"type":"LineString","coordinates":[[15.72471,50.82568],[15.72466,50.82572]]}},{"type":"Feature","properties":{"numer":"2758D","klasa":"droga gĹ‚Ăłwna","kat":"powiatowa"},"geometry":{"type":"LineString","coordinates":[[15.69682,50.83013],[15.69688,50.82983],[15.69678,50.82962],[15.6946,50.82789],[15.69396,50.82759],[15.69254,50.82713],[15.69036,50.82604],[15.6882,50.82543]]}},{"type":"Feature","properties":{"numer":"2721D","klasa":"droga gĹ‚Ăłwna","kat":"powiatowa"},"geometry":{"type":"LineString","coordinates":[[15.68392,50.83346],[15.68393,50.83329],[15.68753,50.82607],[15.68767,50.82571],[15.68765,50.82545]]}},{"type":"Feature","properties":{"numer":"366","klasa":"droga gĹ‚Ăłwna","kat":"wojewodzka"},"geometry":{"type":"LineString","coordinates":[[15.72466,50.82572],[15.72203,50.82805],[15.72172,50.82857],[15.72114,50.83022],[15.72061,50.83088],[15.72003,50.83127],[15.71802,50.83219],[15.71748,50.83263],[15.71673,50.83363],[15.7163,50.83401],[15.7156,50.83443],[15.71453,50.83485]]}},{"type":"Feature","properties":{"numer":"2758D,366","klasa":"droga gĹ‚Ăłwna","kat":"powiatowa"},"geometry":{"type":"LineString","coordinates":[[15.69682,50.83013],[15.69781,50.83022],[15.6988,50.83048],[15.70203,50.83228]]}},{"type":"Feature","properties":{"numer":"366","klasa":"droga gĹ‚Ăłwna","kat":"wojewodzka"},"geometry":{"type":"LineString","coordinates":[[15.68392,50.83346],[15.6843,50.83331],[15.68723,50.8326],[15.68927,50.832],[15.69457,50.83024],[15.6957,50.83008],[15.69682,50.83013]]}},{"type":"Feature","properties":{"numer":"2653D","klasa":"droga zbiorcza","kat":"powiatowa"},"geometry":{"type":"LineString","coordinates":[[15.72471,50.82568],[15.7256,50.82594],[15.72626,50.82624],[15.72757,50.82729],[15.72791,50.82817],[15.72833,50.82872],[15.72898,50.82916],[15.73181,50.8316],[15.73258,50.83286],[15.73257,50.83319],[15.73216,50.83443],[15.7326,50.83487],[15.734,50.83588],[15.73461,50.83667],[15.73597,50.8372],[15.73938,50.83816],[15.7397,50.83838],[15.73979,50.83866]]}},{"type":"Feature","properties":{"numer":"2754D","klasa":"droga gĹ‚Ăłwna","kat":"powiatowa"},"geometry":{"type":"LineString","coordinates":[[15.74718,50.82916],[15.74697,50.82951],[15.74682,50.83036],[15.74723,50.83098],[15.74752,50.83258],[15.74713,50.83369],[15.74694,50.83382],[15.74551,50.83426],[15.7449,50.83453],[15.74411,50.83557],[15.7433,50.83595],[15.74236,50.83686],[15.74074,50.83752],[15.74022,50.838],[15.73979,50.83866]]}},{"type":"Feature","properties":{"numer":"366","klasa":"droga gĹ‚Ăłwna","kat":"wojewodzka"},"geometry":{"type":"LineString","coordinates":[[15.7777,50.79279],[15.77791,50.79347],[15.77789,50.79397],[15.77776,50.79451],[15.77749,50.79498],[15.77741,50.7965],[15.77686,50.7977]]}},{"type":"Feature","properties":{"numer":"2741D","klasa":"droga gĹ‚Ăłwna","kat":"powiatowa"},"geometry":{"type":"LineString","coordinates":[[15.76292,50.79757],[15.76297,50.79737]]}},{"type":"Feature","properties":{"numer":"366","klasa":"droga gĹ‚Ăłwna","kat":"wojewodzka"},"geometry":{"type":"LineString","coordinates":[[15.77686,50.7977],[15.77683,50.79779]]}},{"type":"Feature","properties":{"numer":"366","klasa":"droga gĹ‚Ăłwna","kat":"wojewodzka"},"geometry":{"type":"LineString","coordinates":[[15.77683,50.79779],[15.77661,50.79828]]}},{"type":"Feature","properties":{"numer":"366","klasa":"droga gĹ‚Ăłwna","kat":"wojewodzka"},"geometry":{"type":"LineString","coordinates":[[15.77661,50.79828],[15.77638,50.79854],[15.77579,50.79895],[15.77542,50.79962]]}},{"type":"Feature","properties":{"numer":"366","klasa":"droga gĹ‚Ăłwna","kat":"wojewodzka"},"geometry":{"type":"LineString","coordinates":[[15.77542,50.79962],[15.77536,50.79973]]}},{"type":"Feature","properties":{"numer":"2741D","klasa":"droga gĹ‚Ăłwna","kat":"powiatowa"},"geometry":{"type":"LineString","coordinates":[[15.76655,50.80451],[15.76622,50.80332],[15.76517,50.80112],[15.76464,50.80038],[15.76294,50.79858],[15.76284,50.79824],[15.76292,50.79757]]}},{"type":"Feature","properties":{"numer":"2755D","klasa":"droga gĹ‚Ăłwna","kat":"powiatowa"},"geometry":{"type":"LineString","coordinates":[[15.76161,50.80949],[15.7603,50.80921],[15.76003,50.80887],[15.75889,50.80832],[15.75785,50.80761],[15.75758,50.8073],[15.75736,50.80674],[15.75799,50.80551],[15.75818,50.80486],[15.75814,50.80417],[15.75718,50.80283],[15.7557,50.80127],[15.75561,50.80025],[15.75541,50.79993],[15.75514,50.79981],[15.75453,50.79973],[15.75387,50.79941],[15.75252,50.79901],[15.75207,50.79863],[15.75156,50.79843],[15.75098,50.79839],[15.75044,50.79819],[15.75009,50.7979],[15.74944,50.79755],[15.74881,50.7964],[15.74749,50.79538],[15.74576,50.79468],[15.74471,50.79416],[15.74416,50.79361],[15.74326,50.79333]]}},{"type":"Feature","properties":{"numer":"366","klasa":"droga gĹ‚Ăłwna","kat":"wojewodzka"},"geometry":{"type":"LineString","coordinates":[[15.77536,50.79973],[15.77448,50.80033],[15.77367,50.80122],[15.77248,50.80225],[15.76925,50.80394],[15.76731,50.80435]]}},{"type":"Feature","properties":{"numer":"366","klasa":"droga gĹ‚Ăłwna","kat":"wojewodzka"},"geometry":{"type":"LineString","coordinates":[[15.76731,50.80435],[15.76712,50.80439]]}},{"type":"Feature","properties":{"numer":"366","klasa":"droga gĹ‚Ăłwna","kat":"wojewodzka"},"geometry":{"type":"LineString","coordinates":[[15.76712,50.80439],[15.76655,50.80451]]}},{"type":"Feature","properties":{"numer":"366","klasa":"droga gĹ‚Ăłwna","kat":"wojewodzka"},"geometry":{"type":"LineString","coordinates":[[15.76655,50.80451],[15.76611,50.80463],[15.76586,50.80481],[15.76559,50.80576],[15.76452,50.80748],[15.76431,50.80766],[15.76393,50.80781],[15.76269,50.80798],[15.76237,50.80809],[15.76186,50.80928],[15.76161,50.80949]]}},{"type":"Feature","properties":{"numer":"366","klasa":"droga gĹ‚Ăłwna","kat":"wojewodzka"},"geometry":{"type":"LineString","coordinates":[[15.70203,50.83228],[15.70337,50.83284],[15.70463,50.83318]]}},{"type":"Feature","properties":{"numer":"366","klasa":"droga gĹ‚Ăłwna","kat":"wojewodzka"},"geometry":{"type":"LineString","coordinates":[[15.70463,50.83318],[15.70473,50.83321]]}},{"type":"Feature","properties":{"numer":"366","klasa":"droga gĹ‚Ăłwna","kat":"wojewodzka"},"geometry":{"type":"LineString","coordinates":[[15.71453,50.83485],[15.71304,50.83535],[15.71241,50.83541],[15.71157,50.83536],[15.71082,50.83518],[15.70781,50.83401],[15.70473,50.83321]]}},{"type":"Feature","properties":{"numer":"2758D","klasa":"droga gĹ‚Ăłwna","kat":"powiatowa"},"geometry":{"type":"LineString","coordinates":[[15.71216,50.83684],[15.71173,50.83654],[15.70954,50.83575],[15.70529,50.83461],[15.70397,50.8344],[15.70231,50.83349],[15.70201,50.8332],[15.70167,50.83273],[15.70203,50.83228]]}},{"type":"Feature","properties":{"numer":"366","klasa":"droga gĹ‚Ăłwna","kat":"wojewodzka"},"geometry":{"type":"LineString","coordinates":[[15.67932,50.83741],[15.67993,50.83665],[15.68307,50.83446],[15.68392,50.83346]]}},{"type":"Feature","properties":{"numer":"2760D","klasa":"droga gĹ‚Ăłwna","kat":"powiatowa"},"geometry":{"type":"LineString","coordinates":[[15.66294,50.83564],[15.66311,50.83582]]}},{"type":"Feature","properties":{"numer":"2760D","klasa":"droga gĹ‚Ăłwna","kat":"powiatowa"},"geometry":{"type":"LineString","coordinates":[[15.66274,50.83592],[15.66294,50.83564]]}},{"type":"Feature","properties":{"numer":"2651D","klasa":"droga zbiorcza","kat":"powiatowa"},"geometry":{"type":"LineString","coordinates":[[15.71453,50.83485],[15.71475,50.83513],[15.71354,50.83609],[15.71316,50.83656],[15.71216,50.83684]]}},{"type":"Feature","properties":{"numer":"366","klasa":"droga gĹ‚Ăłwna","kat":"wojewodzka"},"geometry":{"type":"LineString","coordinates":[[15.66311,50.83582],[15.66274,50.83592]]}},{"type":"Feature","properties":{"numer":"366","klasa":"droga gĹ‚Ăłwna","kat":"wojewodzka"},"geometry":{"type":"LineString","coordinates":[[15.66274,50.83592],[15.66208,50.83641],[15.66029,50.83724]]}},{"type":"Feature","properties":{"numer":"366","klasa":"droga gĹ‚Ăłwna","kat":"wojewodzka"},"geometry":{"type":"LineString","coordinates":[[15.67652,50.83822],[15.67569,50.83775],[15.67516,50.83727],[15.67482,50.83708],[15.66972,50.83567],[15.6649,50.83551],[15.66311,50.83582]]}},{"type":"Feature","properties":{"numer":"366","klasa":"droga gĹ‚Ăłwna","kat":"wojewodzka"},"geometry":{"type":"LineString","coordinates":[[15.66029,50.83724],[15.66028,50.83724]]}},{"type":"Feature","properties":{"numer":"366","klasa":"droga gĹ‚Ăłwna","kat":"wojewodzka"},"geometry":{"type":"LineString","coordinates":[[15.67841,50.8387],[15.67932,50.83741]]}},{"type":"Feature","properties":{"numer":"366","klasa":"droga gĹ‚Ăłwna","kat":"wojewodzka"},"geometry":{"type":"LineString","coordinates":[[15.67652,50.83822],[15.67671,50.83832]]}},{"type":"Feature","properties":{"numer":"366","klasa":"droga gĹ‚Ăłwna","kat":"wojewodzka"},"geometry":{"type":"LineString","coordinates":[[15.67671,50.83832],[15.67757,50.83881]]}},{"type":"Feature","properties":{"numer":"366","klasa":"droga gĹ‚Ăłwna","kat":"wojewodzka"},"geometry":{"type":"LineString","coordinates":[[15.67823,50.83896],[15.67841,50.8387]]}},{"type":"Feature","properties":{"numer":"366","klasa":"droga gĹ‚Ăłwna","kat":"wojewodzka"},"geometry":{"type":"LineString","coordinates":[[15.67757,50.83881],[15.67799,50.83899]]}},{"type":"Feature","properties":{"numer":"366","klasa":"droga gĹ‚Ăłwna","kat":"wojewodzka"},"geometry":{"type":"LineString","coordinates":[[15.67814,50.83905],[15.67823,50.83896]]}},{"type":"Feature","properties":{"numer":"2650D","klasa":"droga zbiorcza","kat":"powiatowa"},"geometry":{"type":"LineString","coordinates":[[15.67822,50.83915],[15.67814,50.83905]]}},{"type":"Feature","properties":{"numer":"2650D","klasa":"droga zbiorcza","kat":"powiatowa"},"geometry":{"type":"LineString","coordinates":[[15.67845,50.83934],[15.67822,50.83915]]}},{"type":"Feature","properties":{"numer":"","klasa":"droga zbiorcza","kat":"powiatowa"},"geometry":{"type":"LineString","coordinates":[[15.6601021709531,50.83740039334342],[15.66029,50.83724]]}},{"type":"Feature","properties":{"numer":"2651D","klasa":"droga zbiorcza","kat":"powiatowa"},"geometry":{"type":"LineString","coordinates":[[15.71216,50.83684],[15.71154,50.83715],[15.71129,50.8384],[15.7109,50.83908],[15.71064,50.84004],[15.71,50.84076],[15.70992,50.84102],[15.71006,50.84141],[15.71103,50.84267],[15.71063,50.84373],[15.70987,50.84444],[15.70914,50.84543],[15.70862,50.84593],[15.70724,50.84683]]}},{"type":"Feature","properties":{"numer":"2758D","klasa":"droga gĹ‚Ăłwna","kat":"powiatowa"},"geometry":{"type":"LineString","coordinates":[[15.73123,50.85049],[15.7296,50.84987],[15.72879,50.84892],[15.72671,50.84724],[15.72627,50.84647],[15.72446,50.84459],[15.72438,50.84429],[15.72457,50.84385],[15.7244,50.84364],[15.71994,50.8423],[15.71957,50.84205],[15.71721,50.84112],[15.71698,50.84097],[15.71649,50.84022],[15.71611,50.83933],[15.71554,50.83872],[15.71501,50.83835],[15.71322,50.83795],[15.71216,50.83684]]}},{"type":"Feature","properties":{"numer":"2650D","klasa":"droga zbiorcza","kat":"powiatowa"},"geometry":{"type":"LineString","coordinates":[[15.68671,50.84895],[15.68643,50.84872],[15.68468,50.84792],[15.68283,50.84517],[15.68251,50.84485],[15.68181,50.84445],[15.68174,50.84412],[15.68255,50.84257],[15.68253,50.84188],[15.68051,50.84025],[15.67845,50.83934]]}},{"type":"Feature","properties":{"numer":"2651D","klasa":"","kat":"powiatowa"},"geometry":{"type":"LineString","coordinates":[[15.70724,50.84683],[15.707238715131021,50.84683084530854]]}},{"type":"Feature","properties":{"numer":"2651D","klasa":"","kat":"powiatowa"},"geometry":{"type":"LineString","coordinates":[[15.706546198381119,50.84715404307861],[15.70597,50.84729],[15.705137788682714,50.847963005673975]]}},{"type":"Feature","properties":{"numer":"2650D","klasa":"droga zbiorcza","kat":"powiatowa"},"geometry":{"type":"LineString","coordinates":[[15.68677,50.84906],[15.68671,50.84895]]}},{"type":"Feature","properties":{"numer":"2758D","klasa":"droga gĹ‚Ăłwna","kat":"powiatowa"},"geometry":{"type":"LineString","coordinates":[[15.73116,50.85096],[15.73123,50.85049]]}},{"type":"Feature","properties":{"numer":"2650D","klasa":"droga zbiorcza","kat":"powiatowa"},"geometry":{"type":"LineString","coordinates":[[15.68677,50.84906],[15.68675,50.8493],[15.68615,50.85026923076923]]}},{"type":"Feature","properties":{"numer":"2652D","klasa":"droga zbiorcza","kat":"powiatowa"},"geometry":{"type":"LineString","coordinates":[[15.715684524822688,50.856546553191485],[15.71693,50.85659],[15.71794,50.85636],[15.71914,50.85624],[15.72097,50.85562],[15.72189,50.85547],[15.72415,50.85533],[15.72568,50.85501],[15.72766,50.85442],[15.72961,50.85341],[15.73069,50.85227],[15.73095,50.85117],[15.73116,50.85096]]}},{"type":"Feature","properties":{"numer":"2653D","klasa":"droga zbiorcza","kat":"powiatowa"},"geometry":{"type":"LineString","coordinates":[[15.73979,50.83866],[15.73971,50.83888],[15.73862,50.84023],[15.73852,50.84152],[15.73863,50.84186],[15.73877,50.84197],[15.7398,50.84219],[15.74073,50.84332],[15.74089,50.84395],[15.74082,50.84455],[15.73798,50.84611],[15.73761,50.84691],[15.7373,50.84727],[15.73761,50.84808],[15.73689,50.84886],[15.736,50.84938],[15.73565,50.84978],[15.73541,50.85038],[15.73457,50.8508],[15.73386,50.85096],[15.73335,50.85119],[15.73282,50.85234],[15.73291,50.85292],[15.73257,50.85436],[15.73175,50.85594],[15.73134,50.8564],[15.73124,50.85683],[15.73196,50.85833],[15.7321,50.85906],[15.73204,50.85991],[15.73309,50.86061],[15.73349,50.86176],[15.73315,50.86274],[15.73241,50.86348],[15.73268,50.86434],[15.73281,50.86571],[15.73273,50.86736],[15.73281,50.87006],[15.73315,50.87054],[15.73600471727756,50.8731999248045]]}}]}