{"type":"FeatureCollection","features":[{"type":"Feature","properties":{"numer":"389","klasa":"droga zbiorcza","kat":"wojewodzka"},"geometry":{"type":"LineString","coordinates":[[16.355206290223407,50.39194718384915],[16.35517,50.39203],[16.35495,50.39344],[16.35473,50.39415],[16.35438,50.39466],[16.35369,50.3953],[16.35343,50.39582],[16.35272,50.39661],[16.35262,50.39691]]}},{"type":"Feature","properties":{"numer":"3295D","klasa":"","kat":"powiatowa"},"geometry":{"type":"LineString","coordinates":[[16.30068,50.38678],[16.30074,50.38611],[16.30063,50.38573],[16.30065,50.38519],[16.30045,50.3845],[16.30066,50.38389],[16.30127,50.38333],[16.30252,50.38266],[16.30329,50.38237],[16.303326697888185,50.38232364477282]]}},{"type":"Feature","properties":{"numer":"3294D","klasa":"","kat":"powiatowa"},"geometry":{"type":"LineString","coordinates":[[16.32345,50.38673],[16.32514,50.38631],[16.32836,50.38613],[16.33081,50.38578],[16.33245,50.38573],[16.33374,50.386],[16.33455,50.38603]]}},{"type":"Feature","properties":{"numer":"3294D","klasa":"","kat":"powiatowa"},"geometry":{"type":"LineString","coordinates":[[16.32332,50.38676],[16.32345,50.38673]]}},{"type":"Feature","properties":{"numer":"3294D","klasa":"","kat":"powiatowa"},"geometry":{"type":"LineString","coordinates":[[16.3232,50.38681],[16.32332,50.38676]]}},{"type":"Feature","properties":{"numer":"3294D","klasa":"","kat":"powiatowa"},"geometry":{"type":"LineString","coordinates":[[16.31808,50.39073],[16.31845,50.39007],[16.3186,50.38948],[16.31905,50.38894],[16.32055,50.38818],[16.32234,50.38712],[16.3232,50.38681]]}},{"type":"Feature","properties":{"numer":"3294D","klasa":"","kat":"powiatowa"},"geometry":{"type":"LineString","coordinates":[[16.31804,50.3908],[16.31808,50.39073]]}},{"type":"Feature","properties":{"numer":"3294D","klasa":"","kat":"powiatowa"},"geometry":{"type":"LineString","coordinates":[[16.31365,50.39448],[16.31599,50.39326],[16.31692,50.39258],[16.3172,50.39226],[16.31804,50.3908]]}},{"type":"Feature","properties":{"numer":"3296D","klasa":"","kat":"powiatowa"},"geometry":{"type":"LineString","coordinates":[[16.29506,50.38604],[16.29425,50.38606],[16.29383,50.38595],[16.29206,50.38464],[16.29183,50.38435],[16.29176,50.38401],[16.2926,50.38282],[16.29256,50.38193],[16.29238,50.38157],[16.2911,50.38091],[16.2888,50.38023],[16.28848,50.37998],[16.2885,50.37958],[16.28921,50.37788],[16.28986,50.37677],[16.28985,50.37651],[16.28939,50.37623],[16.28624,50.37528],[16.28274,50.37553],[16.28239,50.3756],[16.28202,50.37577],[16.2813,50.37701],[16.28031,50.37754],[16.27977,50.37833],[16.27905,50.37878],[16.27859,50.37922],[16.2774,50.37976],[16.27636,50.38],[16.27565,50.38039],[16.27549,50.38088],[16.27584,50.38145],[16.27576,50.38167],[16.27472,50.38199],[16.27303,50.38227],[16.27179,50.38229],[16.27083,50.38222]]}},{"type":"Feature","properties":{"numer":"3296D","klasa":"","kat":"powiatowa"},"geometry":{"type":"LineString","coordinates":[[16.30023,50.38645],[16.29909,50.38559],[16.29817,50.38532],[16.29772,50.38537],[16.296,50.38589],[16.29512,50.38604]]}},{"type":"Feature","properties":{"numer":"3296D","klasa":"","kat":"powiatowa"},"geometry":{"type":"LineString","coordinates":[[16.29506,50.38604],[16.29512,50.38604]]}},{"type":"Feature","properties":{"numer":"3296D","klasa":"","kat":"powiatowa"},"geometry":{"type":"LineString","coordinates":[[16.30027,50.38647],[16.30023,50.38645]]}},{"type":"Feature","properties":{"numer":"3296D","klasa":"","kat":"powiatowa"},"geometry":{"type":"LineString","coordinates":[[16.30068,50.38678],[16.30027,50.38647]]}},{"type":"Feature","properties":{"numer":"3295D","klasa":"","kat":"powiatowa"},"geometry":{"type":"LineString","coordinates":[[16.29994,50.39656],[16.30061,50.39605],[16.30126,50.39516],[16.30117,50.39441],[16.30081,50.39341],[16.30114,50.39242],[16.30082,50.39184],[16.3002,50.38981],[16.3004,50.38898],[16.30041,50.38848],[16.3006,50.3879],[16.30068,50.38678]]}},{"type":"Feature","properties":{"numer":"3294D","klasa":"","kat":"powiatowa"},"geometry":{"type":"LineString","coordinates":[[16.29973,50.39669],[16.29994,50.39656]]}},{"type":"Feature","properties":{"numer":"3294D","klasa":"","kat":"powiatowa"},"geometry":{"type":"LineString","coordinates":[[16.29968,50.39673],[16.29973,50.39669]]}},{"type":"Feature","properties":{"numer":"3298D","klasa":"","kat":"powiatowa"},"geometry":{"type":"LineString","coordinates":[[16.2882,50.40422],[16.28837,50.40387],[16.28834,50.40344],[16.28793,50.40241],[16.28755,50.40028],[16.28689,50.39759],[16.28711,50.3969],[16.28699,50.39636],[16.28607,50.3954],[16.28388,50.39384],[16.28328,50.39321],[16.28258,50.39284],[16.28223,50.39253]]}},{"type":"Feature","properties":{"numer":"3297D","klasa":"","kat":"powiatowa"},"geometry":{"type":"LineString","coordinates":[[16.26459,50.40086],[16.26317,50.3999],[16.26048,50.39892]]}},{"type":"Feature","properties":{"numer":"3294D","klasa":"","kat":"powiatowa"},"geometry":{"type":"LineString","coordinates":[[16.2918,50.40547],[16.29253,50.40539],[16.29284,50.40486],[16.29274,50.40464],[16.29178,50.40435],[16.2914,50.40406],[16.29142,50.40389],[16.2923,50.40269],[16.2926,50.40246],[16.2934,50.40205],[16.29367,50.40157],[16.2963,50.39911],[16.29796,50.39719],[16.29847,50.39697],[16.29943,50.39683],[16.29968,50.39673]]}},{"type":"Feature","properties":{"numer":"3298D","klasa":"","kat":"powiatowa"},"geometry":{"type":"LineString","coordinates":[[16.28818,50.40427],[16.2882,50.40422]]}},{"type":"Feature","properties":{"numer":"3297D","klasa":"","kat":"powiatowa"},"geometry":{"type":"LineString","coordinates":[[16.2771,50.40796],[16.27688,50.40741],[16.27697,50.40616],[16.27689,50.40509],[16.27668,50.40479],[16.27362,50.40315],[16.27301,50.40294],[16.27144,50.40261],[16.26905,50.40271],[16.26724,50.40319],[16.26647,50.40327],[16.26597,50.4032],[16.26536,50.40282],[16.26504,50.40127],[16.26459,50.40086]]}},{"type":"Feature","properties":{"numer":"3298D","klasa":"","kat":"powiatowa"},"geometry":{"type":"LineString","coordinates":[[16.29018,50.40572],[16.28807,50.40574],[16.28784,50.40521],[16.28818,50.40427]]}},{"type":"Feature","properties":{"numer":"3294D","klasa":"","kat":"powiatowa"},"geometry":{"type":"LineString","coordinates":[[16.29085,50.40554],[16.2918,50.40547]]}},{"type":"Feature","properties":{"numer":"119306D,3294D","klasa":"","kat":"powiatowa"},"geometry":{"type":"LineString","coordinates":[[16.29079,50.40555],[16.29085,50.40554]]}},{"type":"Feature","properties":{"numer":"3294D","klasa":"","kat":"powiatowa"},"geometry":{"type":"LineString","coordinates":[[16.29018,50.40572],[16.29079,50.40555]]}},{"type":"Feature","properties":{"numer":"3298D","klasa":"","kat":"powiatowa"},"geometry":{"type":"LineString","coordinates":[[16.29018,50.40572],[16.29149,50.40597],[16.29188,50.40611],[16.29302,50.40705]]}},{"type":"Feature","properties":{"numer":"3298D","klasa":"","kat":"powiatowa"},"geometry":{"type":"LineString","coordinates":[[16.29302,50.40705],[16.2931,50.40711]]}},{"type":"Feature","properties":{"numer":"3298D","klasa":"","kat":"powiatowa"},"geometry":{"type":"LineString","coordinates":[[16.2931,50.40711],[16.294,50.40774],[16.29712,50.40829],[16.29756,50.40848]]}},{"type":"Feature","properties":{"numer":"3294D","klasa":"","kat":"powiatowa"},"geometry":{"type":"LineString","coordinates":[[16.31355,50.39452],[16.31365,50.39448]]}},{"type":"Feature","properties":{"numer":"3294D","klasa":"","kat":"powiatowa"},"geometry":{"type":"LineString","coordinates":[[16.31355,50.39452],[16.31073,50.39481],[16.30735,50.39476],[16.30602,50.39489],[16.30545,50.39501],[16.30404,50.39571]]}},{"type":"Feature","properties":{"numer":"3294D","klasa":"","kat":"powiatowa"},"geometry":{"type":"LineString","coordinates":[[16.30404,50.39571],[16.30401,50.39573]]}},{"type":"Feature","properties":{"numer":"3294D","klasa":"","kat":"powiatowa"},"geometry":{"type":"LineString","coordinates":[[16.30401,50.39573],[16.30316,50.3964],[16.30252,50.39661],[16.30212,50.39664],[16.30064,50.39648],[16.29994,50.39656]]}},{"type":"Feature","properties":{"numer":"8,E67","klasa":"droga gĹ‚Ăłwna ruchu przyĹ›pieszonego","kat":"gminna"},"geometry":{"type":"LineString","coordinates":[[16.364933954843405,50.39322703568827],[16.364860793166564,50.39322333129957]]}},{"type":"Feature","properties":{"numer":"8,E67","klasa":"droga gĹ‚Ăłwna ruchu przyĹ›pieszonego","kat":"gminna"},"geometry":{"type":"LineString","coordinates":[[16.360521922618588,50.39420681655676],[16.35904,50.39476],[16.357968672519835,50.3949749371747]]}},{"type":"Feature","properties":{"numer":"8,E67","klasa":"droga gĹ‚Ăłwna ruchu przyĹ›pieszonego","kat":"gminna"},"geometry":{"type":"LineString","coordinates":[[16.35734502960446,50.39510005675647],[16.35585,50.3954],[16.35262,50.39691]]}},{"type":"Feature","properties":{"numer":"8,E67","klasa":"droga gĹ‚Ăłwna ruchu przyĹ›pieszonego","kat":"gminna"},"geometry":{"type":"LineString","coordinates":[[16.30001,50.40786],[16.30321,50.40708],[16.30392,50.40701],[16.30457,50.40706],[16.3081,50.40807],[16.31088,50.40926],[16.31429,50.41013],[16.31695,50.41126],[16.31792,50.4114],[16.31997,50.41141],[16.32141,50.41129],[16.32211,50.41108],[16.3254,50.40967],[16.32667,50.40868],[16.32741,50.40825],[16.32996,50.40693],[16.33196,50.4062],[16.3341,50.40465],[16.33503,50.40333],[16.33563,50.40283],[16.33625,50.40255],[16.33799,50.40203],[16.33963,50.40107],[16.34109,50.40054],[16.34158,50.40023],[16.34236,50.39953],[16.3428,50.39928],[16.34383,50.39899],[16.34582,50.3989],[16.34775,50.39852],[16.35128,50.39744],[16.35262,50.39691]]}},{"type":"Feature","properties":{"numer":"8,E67","klasa":"droga gĹ‚Ăłwna ruchu przyĹ›pieszonego","kat":"gminna"},"geometry":{"type":"LineString","coordinates":[[16.2771,50.40796],[16.27907,50.40742],[16.28001,50.40724],[16.28521,50.40665],[16.28641,50.40658],[16.28803,50.40681],[16.28909,50.40713],[16.29157,50.40855],[16.29306,50.409],[16.29405,50.40911],[16.29511,50.40909],[16.29597,50.40896],[16.29702,50.40865]]}},{"type":"Feature","properties":{"numer":"8,E67","klasa":"droga gĹ‚Ăłwna ruchu przyĹ›pieszonego","kat":"gminna"},"geometry":{"type":"LineString","coordinates":[[16.29988,50.40789],[16.30001,50.40786]]}},{"type":"Feature","properties":{"numer":"8,E67","klasa":"droga gĹ‚Ăłwna ruchu przyĹ›pieszonego","kat":"gminna"},"geometry":{"type":"LineString","coordinates":[[16.29756,50.40848],[16.29988,50.40789]]}},{"type":"Feature","properties":{"numer":"8,E67","klasa":"droga gĹ‚Ăłwna ruchu przyĹ›pieszonego","kat":"gminna"},"geometry":{"type":"LineString","coordinates":[[16.2754,50.40856],[16.2759,50.40832],[16.2771,50.40796]]}},{"type":"Feature","properties":{"numer":"8,E67","klasa":"droga gĹ‚Ăłwna ruchu przyĹ›pieszonego","kat":"gminna"},"geometry":{"type":"LineString","coordinates":[[16.29721,50.4086],[16.29756,50.40848]]}},{"type":"Feature","properties":{"numer":"8,E67","klasa":"droga gĹ‚Ăłwna ruchu przyĹ›pieszonego","kat":"gminna"},"geometry":{"type":"LineString","coordinates":[[16.2753,50.40862],[16.2754,50.40856]]}},{"type":"Feature","properties":{"numer":"8,E67","klasa":"droga gĹ‚Ăłwna ruchu przyĹ›pieszonego","kat":"gminna"},"geometry":{"type":"LineString","coordinates":[[16.29702,50.40865],[16.29721,50.4086]]}},{"type":"Feature","properties":{"numer":"8,E67","klasa":"droga gĹ‚Ăłwna ruchu przyĹ›pieszonego","kat":"gminna"},"geometry":{"type":"LineString","coordinates":[[16.2753,50.40862],[16.27372,50.4097],[16.26821,50.41229],[16.26729,50.41281],[16.26582,50.41432],[16.2647,50.4162],[16.26207,50.4184],[16.2599,50.41983],[16.25893,50.42173]]}},{"type":"Feature","properties":{"numer":"8,E67","klasa":"droga gĹ‚Ăłwna ruchu przyĹ›pieszonego","kat":"gminna"},"geometry":{"type":"LineString","coordinates":[[16.25893,50.42173],[16.25799,50.42267]]}},{"type":"Feature","properties":{"numer":"3243D","klasa":"droga zbiorcza","kat":"powiatowa"},"geometry":{"type":"LineString","coordinates":[[16.25893,50.42173],[16.26021,50.42218],[16.26215,50.42204],[16.26426,50.42246],[16.26527,50.42278],[16.26768,50.42304],[16.26942,50.42306]]}},{"type":"Feature","properties":{"numer":"3243D","klasa":"droga zbiorcza","kat":"powiatowa"},"geometry":{"type":"LineString","coordinates":[[16.34293140799999,50.41706228799999],[16.34341,50.41784],[16.34346,50.41812],[16.34293,50.41923],[16.33924,50.42148],[16.33881,50.42152],[16.33767,50.42116],[16.33463,50.42039],[16.33272,50.42015],[16.32986,50.41964],[16.32742,50.41966],[16.32675,50.41975],[16.32556,50.42005],[16.32385,50.42027],[16.32185,50.42043],[16.32054,50.42044],[16.31983,50.4206],[16.31909,50.42093],[16.31853,50.42171],[16.31814,50.42253],[16.3175,50.42567],[16.31727,50.42618],[16.31703,50.42653],[16.31652,50.42695],[16.31626,50.42765],[16.3153,50.42856],[16.3149,50.4296],[16.31452,50.42999]]}},{"type":"Feature","properties":{"numer":"8,E67","klasa":"droga gĹ‚Ăłwna ruchu przyĹ›pieszonego","kat":"gminna"},"geometry":{"type":"LineString","coordinates":[[16.25799,50.42267],[16.25788,50.42278]]}},{"type":"Feature","properties":{"numer":"3299D","klasa":"","kat":"powiatowa"},"geometry":{"type":"LineString","coordinates":[[16.26942,50.42306],[16.26973,50.42455]]}},{"type":"Feature","properties":{"numer":"3243D","klasa":"droga zbiorcza","kat":"powiatowa"},"geometry":{"type":"LineString","coordinates":[[16.26942,50.42306],[16.27019,50.42313],[16.271,50.4234],[16.27291,50.4238],[16.27516,50.42394],[16.27736,50.42432],[16.28034,50.42535],[16.28094,50.42567]]}},{"type":"Feature","properties":{"numer":"3299D","klasa":"","kat":"powiatowa"},"geometry":{"type":"LineString","coordinates":[[16.26973,50.42455],[16.26975,50.42462]]}},{"type":"Feature","properties":{"numer":"8,E67","klasa":"droga gĹ‚Ăłwna ruchu przyĹ›pieszonego","kat":"gminna"},"geometry":{"type":"LineString","coordinates":[[16.25788,50.42278],[16.25624,50.42478],[16.25578,50.425],[16.25428,50.42544],[16.25241,50.42629],[16.25189,50.42666],[16.25121,50.42745]]}},{"type":"Feature","properties":{"numer":"3243D","klasa":"droga zbiorcza","kat":"powiatowa"},"geometry":{"type":"LineString","coordinates":[[16.28094,50.42567],[16.28105,50.42575]]}},{"type":"Feature","properties":{"numer":"8,E67","klasa":"droga gĹ‚Ăłwna ruchu przyĹ›pieszonego","kat":"gminna"},"geometry":{"type":"LineString","coordinates":[[16.25113,50.42754],[16.25121,50.42745]]}},{"type":"Feature","properties":{"numer":"3243D","klasa":"droga zbiorcza","kat":"powiatowa"},"geometry":{"type":"LineString","coordinates":[[16.29779,50.43133],[16.29749,50.43147],[16.29711,50.43153],[16.29403,50.43142],[16.29296,50.43065],[16.29208,50.43028],[16.29146,50.42985],[16.28999,50.42914],[16.28789,50.42791],[16.28621,50.42739],[16.2844,50.42671],[16.28243,50.42634],[16.28105,50.42575]]}},{"type":"Feature","properties":{"numer":"8,E67","klasa":"droga gĹ‚Ăłwna ruchu przyĹ›pieszonego","kat":"gminna"},"geometry":{"type":"LineString","coordinates":[[16.25113,50.42754],[16.25011468599992,50.428617223390326]]}},{"type":"Feature","properties":{"numer":"3243D","klasa":"droga zbiorcza","kat":"powiatowa"},"geometry":{"type":"LineString","coordinates":[[16.30091,50.42997],[16.30102,50.42995]]}},{"type":"Feature","properties":{"numer":"3299D","klasa":"","kat":"powiatowa"},"geometry":{"type":"LineString","coordinates":[[16.26975,50.42462],[16.26959,50.42504],[16.26821,50.42568],[16.26721,50.42766],[16.26659,50.42847],[16.26546,50.42963],[16.26515,50.43025],[16.26528,50.43074],[16.26619,50.43119],[16.26635,50.43141],[16.26642,50.43238],[16.26665,50.43282],[16.26828,50.43405],[16.26833,50.43426],[16.26816,50.43514],[16.26825,50.43538]]}},{"type":"Feature","properties":{"numer":"3243D","klasa":"droga zbiorcza","kat":"powiatowa"},"geometry":{"type":"LineString","coordinates":[[16.30091,50.42997],[16.29985,50.43024],[16.29891,50.43063],[16.2979,50.43076],[16.29771,50.431],[16.29791,50.43125]]}},{"type":"Feature","properties":{"numer":"3243D","klasa":"droga zbiorcza","kat":"powiatowa"},"geometry":{"type":"LineString","coordinates":[[16.29791,50.43125],[16.29788,50.43128]]}},{"type":"Feature","properties":{"numer":"3243D","klasa":"droga zbiorcza","kat":"powiatowa"},"geometry":{"type":"LineString","coordinates":[[16.29788,50.43128],[16.29779,50.43133]]}},{"type":"Feature","properties":{"numer":"3243D","klasa":"droga zbiorcza","kat":"powiatowa"},"geometry":{"type":"LineString","coordinates":[[16.31035,50.43056],[16.30965,50.43033],[16.3086,50.42974],[16.30766,50.42939],[16.30633,50.42937],[16.30525,50.42948],[16.30284,50.42956],[16.30102,50.42995]]}},{"type":"Feature","properties":{"numer":"3243D","klasa":"droga zbiorcza","kat":"powiatowa"},"geometry":{"type":"LineString","coordinates":[[16.31444,50.43005],[16.31452,50.42999]]}},{"type":"Feature","properties":{"numer":"3243D","klasa":"droga zbiorcza","kat":"powiatowa"},"geometry":{"type":"LineString","coordinates":[[16.31052,50.4306],[16.3117,50.43092],[16.31202,50.43091],[16.31444,50.43005]]}},{"type":"Feature","properties":{"numer":"3243D","klasa":"droga zbiorcza","kat":"powiatowa"},"geometry":{"type":"LineString","coordinates":[[16.31035,50.43056],[16.31052,50.4306]]}},{"type":"Feature","properties":{"numer":"3300D","klasa":"","kat":"powiatowa"},"geometry":{"type":"LineString","coordinates":[[16.29791,50.43125],[16.29881,50.43155],[16.29956,50.43205],[16.30005,50.4337],[16.30055,50.43441],[16.30143,50.43531],[16.3023,50.43586],[16.30313,50.43661],[16.30382,50.43703],[16.3061,50.43792],[16.30783,50.43845],[16.30919,50.43992],[16.31025,50.44123]]}},{"type":"Feature","properties":{"numer":"3299D","klasa":"","kat":"powiatowa"},"geometry":{"type":"LineString","coordinates":[[16.26825,50.43538],[16.26828,50.43546]]}},{"type":"Feature","properties":{"numer":"3299D","klasa":"","kat":"powiatowa"},"geometry":{"type":"LineString","coordinates":[[16.26828,50.43546],[16.26889,50.43593],[16.27074,50.43625],[16.27123,50.43654],[16.27144,50.43681],[16.27146,50.43742],[16.27173,50.43788],[16.2727,50.4385],[16.27323,50.43917],[16.27433,50.44011],[16.27289,50.44037],[16.27214,50.44243],[16.27171,50.44312],[16.271694377437743,50.443138670867086]]}},{"type":"Feature","properties":{"numer":"3300D","klasa":"","kat":"powiatowa"},"geometry":{"type":"LineString","coordinates":[[16.31025,50.44123],[16.31024,50.44129]]}},{"type":"Feature","properties":{"numer":"3300D","klasa":"","kat":"powiatowa"},"geometry":{"type":"LineString","coordinates":[[16.31024,50.44129],[16.30969,50.44237],[16.30969,50.4427],[16.31114,50.44456],[16.31198,50.44539],[16.31227,50.44556]]}},{"type":"Feature","properties":{"numer":"3300D","klasa":"","kat":"powiatowa"},"geometry":{"type":"LineString","coordinates":[[16.31227,50.44556],[16.31236,50.44557]]}},{"type":"Feature","properties":{"numer":"3300D","klasa":"","kat":"powiatowa"},"geometry":{"type":"LineString","coordinates":[[16.31236,50.44557],[16.3125,50.44557]]}},{"type":"Feature","properties":{"numer":"387","klasa":"","kat":"wojewodzka"},"geometry":{"type":"LineString","coordinates":[[16.274803243243245,50.446027567567555],[16.27468,50.44669],[16.274285646123257,50.44715234592446]]}},{"type":"Feature","properties":{"numer":"387","klasa":"","kat":"wojewodzka"},"geometry":{"type":"LineString","coordinates":[[16.275674074074068,50.44890543209876],[16.27605,50.44929],[16.277340434782786,50.44972826086963]]}},{"type":"Feature","properties":{"numer":"387","klasa":"","kat":"wojewodzka"},"geometry":{"type":"LineString","coordinates":[[16.277579655250616,50.449809505556814],[16.27764,50.44983],[16.27882,50.45098],[16.279047418783236,50.45107887773184]]}},{"type":"Feature","properties":{"numer":"387","klasa":"","kat":"wojewodzka"},"geometry":{"type":"LineString","coordinates":[[16.2790543749034,50.45107920723227],[16.28054,50.45081],[16.28185,50.45094],[16.28221,50.45112],[16.28265,50.45114],[16.28495,50.45067],[16.28615,50.45064],[16.28696,50.4505],[16.28854,50.45055],[16.28991,50.4507],[16.29014181153534,50.45069293257514]]}}]}