{"type":"FeatureCollection","features":[{"type":"Feature","properties":{"numer":"3228D","klasa":"droga zbiorcza","kat":"powiatowa"},"geometry":{"type":"LineString","coordinates":[[16.740465561730847,50.33307206431124],[16.74076,50.33345],[16.7421,50.33568],[16.74213,50.33587],[16.74196,50.33637],[16.74128,50.33732],[16.73989,50.33852],[16.73841,50.33996]]}},{"type":"Feature","properties":{"numer":"3228D","klasa":"droga zbiorcza","kat":"powiatowa"},"geometry":{"type":"LineString","coordinates":[[16.73841,50.33996],[16.73705,50.34087],[16.73633,50.34174],[16.73593,50.34241],[16.73614,50.34252],[16.73844,50.34225]]}},{"type":"Feature","properties":{"numer":"3263D","klasa":"","kat":"powiatowa"},"geometry":{"type":"LineString","coordinates":[[16.67225,50.35916],[16.67372,50.35823],[16.67431,50.35794],[16.67587,50.35748],[16.6765,50.3575],[16.6768,50.35764],[16.67817,50.35693],[16.67904,50.35628],[16.68059,50.35553],[16.68087,50.35522],[16.6826,50.35456],[16.68376,50.35386],[16.68459,50.35308],[16.68581,50.35214],[16.68645,50.35127],[16.68806,50.34969],[16.68875,50.34875],[16.69014,50.34776],[16.69228,50.34657],[16.69299611510791,50.345708848920864]]}},{"type":"Feature","properties":{"numer":"3263D","klasa":"","kat":"powiatowa"},"geometry":{"type":"LineString","coordinates":[[16.693116855903433,50.34565888721237],[16.69454,50.34684],[16.69506,50.3471],[16.6963,50.34686],[16.69844,50.34696],[16.70028,50.34717],[16.70281,50.34766],[16.70747,50.34804],[16.70996,50.34841],[16.711,50.34842],[16.71434,50.34751],[16.71605,50.34727],[16.7168,50.34727],[16.71742,50.3471],[16.72092,50.34577],[16.72264,50.34491],[16.72403,50.34405],[16.72667,50.34268],[16.72775,50.34238],[16.73293,50.34041],[16.73686,50.33914],[16.73794,50.3389],[16.73822,50.33891],[16.73841,50.33996]]}},{"type":"Feature","properties":{"numer":"3228D","klasa":"droga zbiorcza","kat":"powiatowa"},"geometry":{"type":"LineString","coordinates":[[16.73844,50.34225],[16.74054,50.34234],[16.7424,50.34265],[16.7459,50.34367],[16.746036737008296,50.343716711400354]]}},{"type":"Feature","properties":{"numer":"3262D","klasa":"","kat":"powiatowa"},"geometry":{"type":"LineString","coordinates":[[16.73376,50.35423],[16.734,50.35403],[16.7347,50.35213],[16.73548,50.35152],[16.73577,50.35108],[16.7365,50.34944],[16.73656,50.34869],[16.73672,50.34816],[16.73786,50.34665],[16.7383,50.34575],[16.73844,50.34225]]}},{"type":"Feature","properties":{"numer":"392","klasa":"droga zbiorcza","kat":"wojewodzka"},"geometry":{"type":"LineString","coordinates":[[16.73247,50.35498],[16.73471,50.35525],[16.73757,50.35531],[16.73876,50.35526],[16.74167,50.35458],[16.744796500805673,50.353615030615536]]}},{"type":"Feature","properties":{"numer":"118902D,3262D","klasa":"","kat":"powiatowa"},"geometry":{"type":"LineString","coordinates":[[16.73289,50.35433],[16.73376,50.35423]]}},{"type":"Feature","properties":{"numer":"3262D","klasa":"","kat":"powiatowa"},"geometry":{"type":"LineString","coordinates":[[16.73277,50.35443],[16.73289,50.35433]]}},{"type":"Feature","properties":{"numer":"3262D","klasa":"","kat":"powiatowa"},"geometry":{"type":"LineString","coordinates":[[16.73258,50.35476],[16.73277,50.35443]]}},{"type":"Feature","properties":{"numer":"3262D","klasa":"","kat":"powiatowa"},"geometry":{"type":"LineString","coordinates":[[16.73247,50.35498],[16.73258,50.35476]]}},{"type":"Feature","properties":{"numer":"392","klasa":"droga zbiorcza","kat":"wojewodzka"},"geometry":{"type":"LineString","coordinates":[[16.72273,50.35876],[16.72517,50.35716],[16.72606,50.35674],[16.7306,50.35506],[16.73147,50.35492],[16.73247,50.35498]]}},{"type":"Feature","properties":{"numer":"392","klasa":"droga zbiorcza","kat":"wojewodzka"},"geometry":{"type":"LineString","coordinates":[[16.71855,50.36098],[16.72013,50.36021],[16.72149,50.3597],[16.72273,50.35876]]}},{"type":"Feature","properties":{"numer":"3227D","klasa":"droga zbiorcza","kat":"powiatowa"},"geometry":{"type":"LineString","coordinates":[[16.73024,50.36119],[16.72883,50.36091],[16.72736,50.36051],[16.72675,50.36022],[16.72586,50.35952],[16.72369,50.35915],[16.72273,50.35876]]}},{"type":"Feature","properties":{"numer":"392","klasa":"droga zbiorcza","kat":"wojewodzka"},"geometry":{"type":"LineString","coordinates":[[16.7185,50.36101],[16.71855,50.36098]]}},{"type":"Feature","properties":{"numer":"3227D","klasa":"droga zbiorcza","kat":"powiatowa"},"geometry":{"type":"LineString","coordinates":[[16.73044,50.36122],[16.73024,50.36119]]}},{"type":"Feature","properties":{"numer":"392","klasa":"droga zbiorcza","kat":"wojewodzka"},"geometry":{"type":"LineString","coordinates":[[16.71242,50.36406],[16.71311,50.36356],[16.71388,50.36263],[16.71452,50.36226],[16.71621,50.36149],[16.71787,50.36119],[16.7185,50.36101]]}},{"type":"Feature","properties":{"numer":"392","klasa":"droga zbiorcza","kat":"wojewodzka"},"geometry":{"type":"LineString","coordinates":[[16.71234,50.36411],[16.71242,50.36406]]}},{"type":"Feature","properties":{"numer":"392","klasa":"droga zbiorcza","kat":"wojewodzka"},"geometry":{"type":"LineString","coordinates":[[16.70917,50.36652],[16.71069,50.36571],[16.71181,50.36449],[16.71234,50.36411]]}},{"type":"Feature","properties":{"numer":"118903D,392","klasa":"droga zbiorcza","kat":"powiatowa"},"geometry":{"type":"LineString","coordinates":[[16.70903,50.36658],[16.70917,50.36652]]}},{"type":"Feature","properties":{"numer":"392","klasa":"droga zbiorcza","kat":"wojewodzka"},"geometry":{"type":"LineString","coordinates":[[16.70496,50.36828],[16.70903,50.36658]]}},{"type":"Feature","properties":{"numer":"3227D","klasa":"droga zbiorcza","kat":"powiatowa"},"geometry":{"type":"LineString","coordinates":[[16.74688336577261,50.373407434132446],[16.74649,50.37334],[16.74592,50.37309],[16.74511,50.37259],[16.74444,50.37213],[16.74404,50.37172],[16.74227,50.36862],[16.73989,50.36701],[16.73898,50.36625],[16.738,50.36524],[16.7369,50.36456],[16.73488,50.3629],[16.73377,50.36217],[16.7333,50.36196],[16.73213,50.36172],[16.7313,50.36141],[16.73044,50.36122]]}},{"type":"Feature","properties":{"numer":"392","klasa":"droga zbiorcza","kat":"wojewodzka"},"geometry":{"type":"LineString","coordinates":[[16.70487,50.36832],[16.70496,50.36828]]}},{"type":"Feature","properties":{"numer":"392","klasa":"droga zbiorcza","kat":"wojewodzka"},"geometry":{"type":"LineString","coordinates":[[16.70432,50.36858],[16.70487,50.36832]]}},{"type":"Feature","properties":{"numer":"3261D","klasa":"","kat":"powiatowa"},"geometry":{"type":"LineString","coordinates":[[16.70244,50.37488],[16.70209,50.37449],[16.70185,50.37389],[16.70236,50.37251],[16.70244,50.37138],[16.70268,50.37046],[16.70319,50.36975],[16.70319,50.36948],[16.70432,50.36858]]}},{"type":"Feature","properties":{"numer":"33","klasa":"droga gĹ‚Ăłwna","kat":"krajowa"},"geometry":{"type":"LineString","coordinates":[[16.67225,50.35916],[16.67215,50.35841],[16.67186,50.35764],[16.67129,50.35686],[16.67025,50.35577],[16.66964,50.35525],[16.665839313917722,50.35272206098915]]}},{"type":"Feature","properties":{"numer":"33","klasa":"droga gĹ‚Ăłwna","kat":"krajowa"},"geometry":{"type":"LineString","coordinates":[[16.67435,50.37029],[16.6743,50.36951],[16.67414,50.36913],[16.67252,50.36711],[16.6721,50.36609],[16.67225,50.35916]]}},{"type":"Feature","properties":{"numer":"392","klasa":"droga zbiorcza","kat":"wojewodzka"},"geometry":{"type":"LineString","coordinates":[[16.70432,50.36858],[16.70249,50.36935],[16.70095,50.36983],[16.69983,50.36996],[16.69751,50.3699],[16.69696,50.36983],[16.69643,50.36965],[16.69036,50.3671],[16.68933,50.36693],[16.68833,50.36695],[16.68753,50.3671],[16.68539,50.3678],[16.67854,50.36929],[16.67676,50.36976],[16.67619,50.37013],[16.67566,50.37066],[16.67492,50.37219]]}},{"type":"Feature","properties":{"numer":"33","klasa":"droga gĹ‚Ăłwna","kat":"krajowa"},"geometry":{"type":"LineString","coordinates":[[16.67436,50.37113],[16.67435,50.37029]]}},{"type":"Feature","properties":{"numer":"3279D","klasa":"droga zbiorcza","kat":"powiatowa"},"geometry":{"type":"LineString","coordinates":[[16.67427,50.37118],[16.6738,50.37101]]}},{"type":"Feature","properties":{"numer":"33","klasa":"droga gĹ‚Ăłwna","kat":"krajowa"},"geometry":{"type":"LineString","coordinates":[[16.67436,50.37121],[16.67436,50.37113]]}},{"type":"Feature","properties":{"numer":"3279D","klasa":"droga zbiorcza","kat":"powiatowa"},"geometry":{"type":"LineString","coordinates":[[16.67436,50.37121],[16.67427,50.37118]]}},{"type":"Feature","properties":{"numer":"33","klasa":"droga gĹ‚Ăłwna","kat":"krajowa"},"geometry":{"type":"LineString","coordinates":[[16.67432,50.37278],[16.67436,50.37121]]}},{"type":"Feature","properties":{"numer":"392","klasa":"droga zbiorcza","kat":"wojewodzka"},"geometry":{"type":"LineString","coordinates":[[16.67492,50.37219],[16.6747,50.37263],[16.67432,50.37278]]}},{"type":"Feature","properties":{"numer":"3279D","klasa":"droga zbiorcza","kat":"powiatowa"},"geometry":{"type":"LineString","coordinates":[[16.6738,50.37101],[16.67313,50.3709],[16.67302,50.37246],[16.67273,50.37326],[16.67277,50.37399],[16.67144,50.37623],[16.67049,50.37714],[16.66979,50.37813],[16.66918,50.37851],[16.66734,50.37912],[16.66586,50.38046],[16.6645,50.38115],[16.66396,50.38151],[16.66064,50.38514],[16.66041,50.38519],[16.66005,50.38513],[16.65902,50.38461],[16.65837,50.38444],[16.65458,50.38461],[16.65377,50.38474],[16.65243,50.38512],[16.64946,50.38618],[16.64741,50.38679],[16.64465,50.38775],[16.6439,50.3882],[16.64243,50.38949]]}},{"type":"Feature","properties":{"numer":"3238D","klasa":"droga zbiorcza","kat":"powiatowa"},"geometry":{"type":"LineString","coordinates":[[16.62879,50.38366],[16.62905,50.38335],[16.62964,50.38304],[16.63107,50.38261],[16.63274,50.38191],[16.63332,50.38176],[16.6347,50.38096],[16.63683,50.37731],[16.63676,50.37716],[16.63632,50.37687],[16.63621,50.37657],[16.63635,50.37544],[16.63693,50.37464],[16.63702,50.37256],[16.63659,50.37152],[16.63651645308292,50.37119552830698]]}},{"type":"Feature","properties":{"numer":"3290D","klasa":"","kat":"powiatowa"},"geometry":{"type":"LineString","coordinates":[[16.5921,50.38065],[16.59224,50.3807]]}},{"type":"Feature","properties":{"numer":"3290D","klasa":"","kat":"powiatowa"},"geometry":{"type":"LineString","coordinates":[[16.59224,50.3807],[16.59287,50.38083],[16.59319,50.38079],[16.59392,50.38054],[16.59427,50.38058],[16.59626,50.38149],[16.60006,50.38275],[16.60123,50.38305],[16.60307,50.38319],[16.60459,50.38345],[16.60589,50.38376],[16.60787,50.38367],[16.61168,50.38327],[16.61324,50.38324],[16.61561,50.38339],[16.61707,50.38366],[16.62018,50.38404],[16.62288,50.38408],[16.62569,50.38448],[16.62831,50.38503]]}},{"type":"Feature","properties":{"numer":"3238D","klasa":"droga zbiorcza","kat":"powiatowa"},"geometry":{"type":"LineString","coordinates":[[16.62877,50.38373],[16.62879,50.38366]]}},{"type":"Feature","properties":{"numer":"3238D","klasa":"droga zbiorcza","kat":"powiatowa"},"geometry":{"type":"LineString","coordinates":[[16.62831,50.38503],[16.62835,50.38471],[16.62877,50.38373]]}},{"type":"Feature","properties":{"numer":"3238D","klasa":"droga zbiorcza","kat":"powiatowa"},"geometry":{"type":"LineString","coordinates":[[16.628,50.3862],[16.62838,50.38552],[16.62831,50.38503]]}},{"type":"Feature","properties":{"numer":"33","klasa":"droga gĹ‚Ăłwna","kat":"krajowa"},"geometry":{"type":"LineString","coordinates":[[16.65948,50.3904],[16.66126,50.38762],[16.66236,50.38615],[16.66296,50.38562],[16.66431,50.38469],[16.66864,50.382],[16.66905,50.3816],[16.66968,50.38043],[16.66998,50.38012],[16.67242,50.37804],[16.67321,50.37721],[16.67422,50.37635],[16.67448,50.37572],[16.67405,50.37405],[16.67432,50.37278]]}},{"type":"Feature","properties":{"numer":"3261D","klasa":"","kat":"powiatowa"},"geometry":{"type":"LineString","coordinates":[[16.68668,50.38964],[16.68703,50.3889],[16.68801,50.38789],[16.68841,50.38721],[16.6892,50.38674],[16.69047,50.38632],[16.6912,50.38583],[16.6944,50.38409],[16.69498,50.38387],[16.69849,50.38292],[16.7019,50.38175],[16.70241,50.38173],[16.70321,50.38199]]}},{"type":"Feature","properties":{"numer":"3280D","klasa":"droga zbiorcza","kat":"powiatowa"},"geometry":{"type":"LineString","coordinates":[[16.65682,50.38953],[16.65689,50.38958]]}},{"type":"Feature","properties":{"numer":"3261D","klasa":"","kat":"powiatowa"},"geometry":{"type":"LineString","coordinates":[[16.68666,50.3897],[16.68668,50.38964]]}},{"type":"Feature","properties":{"numer":"3280D","klasa":"droga zbiorcza","kat":"powiatowa"},"geometry":{"type":"LineString","coordinates":[[16.65689,50.38958],[16.65738,50.38986],[16.65769,50.38992],[16.6582,50.38982],[16.6589,50.38945],[16.65957,50.38944],[16.65969,50.38963],[16.65907,50.38995],[16.65892,50.39015],[16.65903,50.3903],[16.65948,50.3904]]}},{"type":"Feature","properties":{"numer":"3280D","klasa":"droga zbiorcza","kat":"powiatowa"},"geometry":{"type":"LineString","coordinates":[[16.64243,50.38949],[16.64527,50.39043]]}},{"type":"Feature","properties":{"numer":"3280D","klasa":"droga zbiorcza","kat":"powiatowa"},"geometry":{"type":"LineString","coordinates":[[16.64527,50.39043],[16.64566,50.39057]]}},{"type":"Feature","properties":{"numer":"3280D","klasa":"droga zbiorcza","kat":"powiatowa"},"geometry":{"type":"LineString","coordinates":[[16.64566,50.39057],[16.64735,50.39149],[16.64848,50.39239],[16.65016,50.39168],[16.65576,50.38888],[16.65606,50.38881],[16.65682,50.38953]]}},{"type":"Feature","properties":{"numer":"3261D","klasa":"","kat":"powiatowa"},"geometry":{"type":"LineString","coordinates":[[16.68666,50.3897],[16.68613,50.39093],[16.68382,50.3924],[16.68319,50.39249],[16.67945,50.39255],[16.67296,50.39319],[16.67265,50.39327],[16.67205,50.39364],[16.67043,50.39573],[16.67003,50.39606],[16.66949,50.39631],[16.6682,50.39667],[16.66718,50.39686],[16.66181,50.39751],[16.65993,50.3978]]}},{"type":"Feature","properties":{"numer":"33","klasa":"droga gĹ‚Ăłwna","kat":"krajowa"},"geometry":{"type":"LineString","coordinates":[[16.65571,50.39715],[16.65706,50.39583],[16.65815,50.39433],[16.65872,50.39305],[16.65948,50.3904]]}},{"type":"Feature","properties":{"numer":"3261D","klasa":"","kat":"powiatowa"},"geometry":{"type":"LineString","coordinates":[[16.70244,50.37488],[16.70269,50.37537],[16.70317,50.37574],[16.70391,50.37612],[16.70537,50.37661],[16.7067,50.3774],[16.70726,50.37794],[16.70806,50.37898],[16.70871,50.3795],[16.70875,50.37972],[16.70854,50.3801],[16.70824,50.38049],[16.70771,50.38094],[16.70753,50.38138],[16.7058,50.38233],[16.7052,50.38248],[16.70481,50.38249]]}},{"type":"Feature","properties":{"numer":"3261D","klasa":"","kat":"powiatowa"},"geometry":{"type":"LineString","coordinates":[[16.70321,50.38199],[16.70326,50.38201]]}},{"type":"Feature","properties":{"numer":"3261D","klasa":"","kat":"powiatowa"},"geometry":{"type":"LineString","coordinates":[[16.70326,50.38201],[16.70412,50.38239],[16.70481,50.38249]]}},{"type":"Feature","properties":{"numer":"3227D","klasa":"droga zbiorcza","kat":"powiatowa"},"geometry":{"type":"LineString","coordinates":[[16.75105,50.40218],[16.7515,50.40165],[16.75214,50.40113],[16.75361,50.40027],[16.75467,50.3995],[16.75586,50.39896],[16.75754,50.39858],[16.76037,50.3984],[16.76174,50.39839],[16.76397,50.39821],[16.76447,50.39812],[16.76558,50.39774],[16.76672,50.39776],[16.76779,50.39791],[16.76949,50.39866],[16.7737,50.39946],[16.77473,50.39944],[16.77744,50.39905],[16.77772,50.39924],[16.77777,50.39967],[16.77798,50.39979],[16.77821,50.39981],[16.77846,50.39974],[16.77859,50.3996],[16.77844,50.399],[16.77868,50.39834],[16.77855,50.3978],[16.77864,50.39764],[16.77883,50.39754],[16.77964,50.39739],[16.78176,50.39735],[16.78363,50.39703],[16.78404,50.39712],[16.7847,50.39769],[16.78494,50.3978],[16.78539,50.39775],[16.7856,50.39747],[16.78493,50.39605],[16.78411,50.39544],[16.78368,50.39482],[16.78313,50.3945],[16.78278,50.39416],[16.78241,50.39303],[16.78211,50.39264],[16.78109,50.39206],[16.77859,50.39123],[16.77432,50.38946],[16.77289,50.38873],[16.77129,50.38773],[16.77057,50.38717],[16.76806,50.38442],[16.7673,50.38395],[16.76442,50.38254],[16.76211,50.3813],[16.75988,50.37977],[16.75903,50.37903],[16.7578,50.37848],[16.7572911283658,50.37814739414271]]}},{"type":"Feature","properties":{"numer":"3259D","klasa":"","kat":"powiatowa"},"geometry":{"type":"LineString","coordinates":[[16.74745,50.40442],[16.74748,50.40373],[16.74774,50.40329],[16.7474,50.40302],[16.74651,50.40194],[16.74639,50.40162],[16.74644,50.40135],[16.74691,50.40064],[16.7467,50.40006],[16.74666,50.39767],[16.74688,50.3971],[16.7478,50.39673],[16.74825,50.39639],[16.74828,50.39529],[16.74877,50.39355],[16.74897,50.39221],[16.74967,50.3919],[16.74982,50.39165],[16.74993,50.39078],[16.74982,50.39004],[16.74928,50.38919],[16.74889,50.38805],[16.74884,50.3865],[16.74921,50.38587],[16.74933,50.38526],[16.75,50.3847],[16.75053,50.38371],[16.75095,50.3824],[16.74974,50.38001],[16.74856,50.37885],[16.74749,50.3781],[16.74729,50.37776],[16.74746,50.37754],[16.7485132999229,50.37711553585197]]}},{"type":"Feature","properties":{"numer":"3279D","klasa":"droga zbiorcza","kat":"powiatowa"},"geometry":{"type":"LineString","coordinates":[[16.628,50.3862],[16.62841,50.38645]]}},{"type":"Feature","properties":{"numer":"3279D","klasa":"droga zbiorcza","kat":"powiatowa"},"geometry":{"type":"LineString","coordinates":[[16.62841,50.38645],[16.62895,50.38661]]}},{"type":"Feature","properties":{"numer":"3279D","klasa":"droga zbiorcza","kat":"powiatowa"},"geometry":{"type":"LineString","coordinates":[[16.62895,50.38661],[16.62959,50.38681]]}},{"type":"Feature","properties":{"numer":"3279D","klasa":"droga zbiorcza","kat":"powiatowa"},"geometry":{"type":"LineString","coordinates":[[16.64243,50.38949],[16.64165,50.39011],[16.63917,50.39116],[16.63642,50.39131],[16.6357,50.39148],[16.63507,50.39054],[16.63445,50.38902],[16.63403,50.38706],[16.6338,50.38659],[16.63333,50.38656],[16.63007,50.38686],[16.62959,50.38681]]}},{"type":"Feature","properties":{"numer":"3238D","klasa":"droga zbiorcza","kat":"powiatowa"},"geometry":{"type":"LineString","coordinates":[[16.62663,50.39886],[16.62627,50.39814],[16.62569,50.39742],[16.62564,50.397],[16.62584,50.39547],[16.62459,50.39392],[16.62461,50.39294],[16.62485,50.39246],[16.62555,50.39182],[16.62556,50.3907],[16.62714,50.38775],[16.62733,50.38671],[16.6276,50.38642],[16.628,50.3862]]}},{"type":"Feature","properties":{"numer":"3238D","klasa":"droga zbiorcza","kat":"powiatowa"},"geometry":{"type":"LineString","coordinates":[[16.62668,50.39891],[16.62663,50.39886]]}},{"type":"Feature","properties":{"numer":"3238D","klasa":"droga zbiorcza","kat":"powiatowa"},"geometry":{"type":"LineString","coordinates":[[16.630134989447022,50.40193111017307],[16.63011,50.4016],[16.62998,50.40124],[16.6296,50.4007],[16.62881,50.40014],[16.62773,50.39976],[16.62668,50.39891]]}},{"type":"Feature","properties":{"numer":"33","klasa":"droga gĹ‚Ăłwna","kat":"krajowa"},"geometry":{"type":"LineString","coordinates":[[16.63563096102301,50.40655113367174],[16.64543,50.40228]]}},{"type":"Feature","properties":{"numer":"3291D","klasa":"droga zbiorcza","kat":"powiatowa"},"geometry":{"type":"LineString","coordinates":[[16.59327,50.4065],[16.59332,50.40652]]}},{"type":"Feature","properties":{"numer":"46","klasa":"droga gĹ‚Ăłwna ruchu przyĹ›pieszonego","kat":"krajowa"},"geometry":{"type":"LineString","coordinates":[[16.65993,50.3978],[16.65818,50.39781],[16.65728,50.39773],[16.65656,50.39756],[16.65571,50.39715]]}},{"type":"Feature","properties":{"numer":"33","klasa":"droga gĹ‚Ăłwna","kat":"krajowa"},"geometry":{"type":"LineString","coordinates":[[16.64543,50.40228],[16.65245,50.39921],[16.65418,50.39826],[16.65571,50.39715]]}},{"type":"Feature","properties":{"numer":"46","klasa":"droga gĹ‚Ăłwna ruchu przyĹ›pieszonego","kat":"krajowa"},"geometry":{"type":"LineString","coordinates":[[16.66105,50.4206],[16.660719745744903,50.42033729775163]]}},{"type":"Feature","properties":{"numer":"46","klasa":"droga gĹ‚Ăłwna ruchu przyĹ›pieszonego","kat":"krajowa"},"geometry":{"type":"LineString","coordinates":[[16.660349496855346,50.4188986163522],[16.66038,50.41777],[16.65945,50.41491],[16.65936,50.41277],[16.65892,50.41015],[16.65911,50.40782],[16.65971,50.40569],[16.66033,50.40224],[16.65993,50.3978]]}},{"type":"Feature","properties":{"numer":"3227D","klasa":"droga zbiorcza","kat":"powiatowa"},"geometry":{"type":"LineString","coordinates":[[16.70089,50.41223],[16.70078,50.41227]]}},{"type":"Feature","properties":{"numer":"3227D","klasa":"droga zbiorcza","kat":"powiatowa"},"geometry":{"type":"LineString","coordinates":[[16.68758,50.41964],[16.689,50.41867],[16.68988,50.41825],[16.6914,50.41734],[16.69261,50.41691],[16.69372,50.41565],[16.69461,50.41482],[16.69683,50.41377],[16.69833,50.41338],[16.69981,50.41246],[16.70078,50.41227]]}},{"type":"Feature","properties":{"numer":"3227D","klasa":"droga zbiorcza","kat":"powiatowa"},"geometry":{"type":"LineString","coordinates":[[16.68753,50.41969],[16.68758,50.41964]]}},{"type":"Feature","properties":{"numer":"3227D","klasa":"droga zbiorcza","kat":"powiatowa"},"geometry":{"type":"LineString","coordinates":[[16.66241,50.42145],[16.66271,50.42083],[16.66262,50.41956],[16.66275,50.41918],[16.663,50.41895],[16.66362,50.41864],[16.66453,50.41826],[16.66497,50.41818],[16.66539,50.41822],[16.66697,50.41881],[16.67004,50.41927],[16.6753,50.41912],[16.67661,50.41955],[16.67808,50.4205]]}},{"type":"Feature","properties":{"numer":"3227D","klasa":"droga zbiorcza","kat":"powiatowa"},"geometry":{"type":"LineString","coordinates":[[16.67808,50.4205],[16.67816,50.42054]]}},{"type":"Feature","properties":{"numer":"3227D","klasa":"droga zbiorcza","kat":"powiatowa"},"geometry":{"type":"LineString","coordinates":[[16.67816,50.42054],[16.67902,50.4209],[16.68064,50.42139],[16.68151,50.42146],[16.6839,50.42147],[16.68525,50.42124],[16.68562,50.4211],[16.68679,50.42038],[16.68753,50.41969]]}},{"type":"Feature","properties":{"numer":"","klasa":"droga zbiorcza","kat":"powiatowa"},"geometry":{"type":"LineString","coordinates":[[16.66098,50.42078],[16.66105,50.4206]]}},{"type":"Feature","properties":{"numer":"3291D","klasa":"droga zbiorcza","kat":"powiatowa"},"geometry":{"type":"LineString","coordinates":[[16.59332,50.40652],[16.59494,50.40735],[16.59763,50.40821],[16.59931,50.4089],[16.60077,50.40964],[16.60194,50.41054],[16.60317,50.41126],[16.60483,50.41203],[16.60551,50.41221],[16.60791,50.41222],[16.60841,50.4123],[16.60869,50.41256],[16.60918,50.41414]]}},{"type":"Feature","properties":{"numer":"3291D","klasa":"droga zbiorcza","kat":"powiatowa"},"geometry":{"type":"LineString","coordinates":[[16.60918,50.41414],[16.60920509151414,50.41421527454243]]}},{"type":"Feature","properties":{"numer":"3227D","klasa":"droga zbiorcza","kat":"powiatowa"},"geometry":{"type":"LineString","coordinates":[[16.75105,50.40218],[16.75101,50.40221]]}},{"type":"Feature","properties":{"numer":"3227D","klasa":"droga zbiorcza","kat":"powiatowa"},"geometry":{"type":"LineString","coordinates":[[16.75101,50.40221],[16.74974,50.40295],[16.74886,50.4032],[16.74745,50.40442]]}},{"type":"Feature","properties":{"numer":"3227D","klasa":"droga zbiorcza","kat":"powiatowa"},"geometry":{"type":"LineString","coordinates":[[16.74745,50.40442],[16.74713,50.40483],[16.74623,50.40559],[16.74372,50.40655],[16.74326,50.40663],[16.74049,50.40669],[16.73905,50.40681],[16.73821,50.40717],[16.73711,50.4072],[16.7354,50.40753]]}},{"type":"Feature","properties":{"numer":"3227D","klasa":"droga zbiorcza","kat":"powiatowa"},"geometry":{"type":"LineString","coordinates":[[16.7354,50.40753],[16.73526,50.40755]]}},{"type":"Feature","properties":{"numer":"3227D","klasa":"droga zbiorcza","kat":"powiatowa"},"geometry":{"type":"LineString","coordinates":[[16.73526,50.40755],[16.73353,50.40782],[16.73208,50.40758],[16.73146,50.40767],[16.73092,50.40792],[16.73024,50.40847],[16.72912,50.40877],[16.72797,50.40964],[16.7272,50.4099]]}},{"type":"Feature","properties":{"numer":"3227D","klasa":"droga zbiorcza","kat":"powiatowa"},"geometry":{"type":"LineString","coordinates":[[16.7272,50.4099],[16.72708,50.40991]]}},{"type":"Feature","properties":{"numer":"3227D","klasa":"droga zbiorcza","kat":"powiatowa"},"geometry":{"type":"LineString","coordinates":[[16.72708,50.40991],[16.72321,50.41026],[16.72224,50.41046],[16.71999,50.41026],[16.71837,50.41083],[16.71681,50.41124],[16.71577,50.41164],[16.71502,50.4117],[16.71399,50.41149],[16.71363,50.4115],[16.71294,50.41205],[16.71263,50.41219],[16.71099,50.41255],[16.71054,50.41249],[16.70951,50.4121],[16.70787,50.41194],[16.70471,50.4114],[16.70393,50.41135],[16.70301,50.4115]]}},{"type":"Feature","properties":{"numer":"3227D","klasa":"droga zbiorcza","kat":"powiatowa"},"geometry":{"type":"LineString","coordinates":[[16.70301,50.4115],[16.70204,50.41173],[16.70089,50.41223]]}},{"type":"Feature","properties":{"numer":"3260D","klasa":"","kat":"powiatowa"},"geometry":{"type":"LineString","coordinates":[[16.70301,50.4115],[16.70336,50.41192],[16.70309,50.41219],[16.70311,50.41231],[16.70357,50.41312],[16.70411,50.41378],[16.70455,50.4142],[16.70558,50.41481],[16.70612,50.41535],[16.70717,50.41611],[16.7079,50.41677],[16.70876,50.41727],[16.70928,50.41781],[16.71081,50.41979],[16.71225,50.42136],[16.71501,50.42476],[16.71801,50.42798],[16.71936,50.43042]]}},{"type":"Feature","properties":{"numer":"46","klasa":"droga gĹ‚Ăłwna ruchu przyĹ›pieszonego","kat":"krajowa"},"geometry":{"type":"LineString","coordinates":[[16.71936,50.43042],[16.72644,50.42957],[16.72864,50.42957],[16.72945,50.42964],[16.73084,50.42992],[16.73352,50.43096],[16.73458,50.43127]]}},{"type":"Feature","properties":{"numer":"3291D","klasa":"droga zbiorcza","kat":"powiatowa"},"geometry":{"type":"LineString","coordinates":[[16.603,50.4244],[16.60354,50.42461],[16.6039,50.42465],[16.60818,50.42455],[16.60846,50.42451],[16.60865,50.42438],[16.60874,50.42404],[16.60862,50.42377],[16.60727,50.42278],[16.6063,50.4222],[16.60574,50.42157],[16.60543,50.42109],[16.605,50.42005],[16.60493,50.41935],[16.60568,50.41829],[16.605719370977788,50.41806952252439]]}},{"type":"Feature","properties":{"numer":"46","klasa":"droga gĹ‚Ăłwna ruchu przyĹ›pieszonego","kat":"krajowa"},"geometry":{"type":"LineString","coordinates":[[16.66181,50.42107],[16.66105,50.4206]]}},{"type":"Feature","properties":{"numer":"","klasa":"droga zbiorcza","kat":"powiatowa"},"geometry":{"type":"LineString","coordinates":[[16.66098,50.42078],[16.66090500298033,50.42098832505464]]}},{"type":"Feature","properties":{"numer":"46","klasa":"droga gĹ‚Ăłwna ruchu przyĹ›pieszonego","kat":"krajowa"},"geometry":{"type":"LineString","coordinates":[[16.66181,50.42107],[16.66241,50.42145]]}},{"type":"Feature","properties":{"numer":"3227D","klasa":"droga zbiorcza","kat":"powiatowa"},"geometry":{"type":"LineString","coordinates":[[16.66189,50.42208],[16.66241,50.42145]]}},{"type":"Feature","properties":{"numer":"46","klasa":"droga gĹ‚Ăłwna ruchu przyĹ›pieszonego","kat":"krajowa"},"geometry":{"type":"LineString","coordinates":[[16.66241,50.42145],[16.66326,50.4219],[16.6641,50.42221]]}},{"type":"Feature","properties":{"numer":"3227D","klasa":"droga zbiorcza","kat":"powiatowa"},"geometry":{"type":"LineString","coordinates":[[16.66189,50.42208],[16.661874187065674,50.422086281850625]]}},{"type":"Feature","properties":{"numer":"3289D","klasa":"","kat":"powiatowa"},"geometry":{"type":"LineString","coordinates":[[16.56561,50.38404],[16.56532,50.38674],[16.56501,50.38793],[16.56492,50.38992],[16.56412,50.3917],[16.56454,50.39192],[16.56476,50.39216],[16.56479,50.39329],[16.5651,50.3937],[16.56532,50.39422],[16.56565,50.39547],[16.56563,50.39742],[16.5654,50.39956]]}},{"type":"Feature","properties":{"numer":"3291D","klasa":"droga zbiorcza","kat":"powiatowa"},"geometry":{"type":"LineString","coordinates":[[16.53048,50.39735],[16.54019,50.3969],[16.54138,50.39698],[16.54536,50.39749]]}},{"type":"Feature","properties":{"numer":"3291D","klasa":"droga zbiorcza","kat":"powiatowa"},"geometry":{"type":"LineString","coordinates":[[16.53042,50.39735],[16.53048,50.39735]]}},{"type":"Feature","properties":{"numer":"3291D","klasa":"droga zbiorcza","kat":"powiatowa"},"geometry":{"type":"LineString","coordinates":[[16.54536,50.39749],[16.54539,50.39749]]}},{"type":"Feature","properties":{"numer":"3291D","klasa":"droga zbiorcza","kat":"powiatowa"},"geometry":{"type":"LineString","coordinates":[[16.54539,50.39749],[16.54756,50.39777],[16.55022,50.39834],[16.55661,50.39882],[16.55729,50.39901],[16.55831,50.39947],[16.55918,50.39969],[16.5617,50.4002],[16.56278,50.40018]]}},{"type":"Feature","properties":{"numer":"3289D","klasa":"","kat":"powiatowa"},"geometry":{"type":"LineString","coordinates":[[16.56278,50.40018],[16.56328,50.40007],[16.56482,50.39952],[16.5654,50.39956]]}},{"type":"Feature","properties":{"numer":"3289D","klasa":"","kat":"powiatowa"},"geometry":{"type":"LineString","coordinates":[[16.5654,50.39956],[16.56586,50.39971],[16.5665,50.40023],[16.56736,50.40057],[16.56747,50.40077],[16.56744,50.40114]]}},{"type":"Feature","properties":{"numer":"3291D","klasa":"droga zbiorcza","kat":"powiatowa"},"geometry":{"type":"LineString","coordinates":[[16.56278,50.40018],[16.56351,50.40015],[16.56478,50.40024],[16.56657,50.40078],[16.56744,50.40114]]}},{"type":"Feature","properties":{"numer":"3291D","klasa":"droga zbiorcza","kat":"powiatowa"},"geometry":{"type":"LineString","coordinates":[[16.56744,50.40114],[16.56859,50.40161],[16.57173,50.40194],[16.57404,50.40235],[16.57655,50.40231],[16.57903,50.40317],[16.57999,50.40339],[16.58382,50.40379],[16.58551,50.40417],[16.58876,50.40458],[16.58956,50.40485],[16.59188,50.40599],[16.59327,50.4065]]}},{"type":"Feature","properties":{"numer":"3240D","klasa":"droga zbiorcza","kat":"powiatowa"},"geometry":{"type":"LineString","coordinates":[[16.53637,50.41853],[16.53637,50.41869]]}},{"type":"Feature","properties":{"numer":"3240D","klasa":"droga zbiorcza","kat":"powiatowa"},"geometry":{"type":"LineString","coordinates":[[16.53637,50.41853],[16.53637,50.41713],[16.53615,50.41657],[16.5348,50.41569],[16.53341,50.415],[16.528036477272728,50.412884439871156]]}},{"type":"Feature","properties":{"numer":"3240D","klasa":"droga zbiorcza","kat":"powiatowa"},"geometry":{"type":"LineString","coordinates":[[16.53637,50.41869],[16.53642,50.41909],[16.53698,50.42042],[16.5383,50.42255],[16.53939,50.42395],[16.54041,50.42491],[16.54176,50.42556],[16.54264,50.42575],[16.54624,50.42585],[16.54752,50.42611],[16.54822,50.42633]]}},{"type":"Feature","properties":{"numer":"3240D","klasa":"droga zbiorcza","kat":"powiatowa"},"geometry":{"type":"LineString","coordinates":[[16.54822,50.42633],[16.54842,50.42641]]}},{"type":"Feature","properties":{"numer":"3291D","klasa":"droga zbiorcza","kat":"powiatowa"},"geometry":{"type":"LineString","coordinates":[[16.57911,50.42779],[16.58078,50.42718],[16.58132,50.42676],[16.5821,50.42639],[16.58434,50.4257],[16.58499,50.42564],[16.58732,50.42582],[16.58772,50.42588],[16.58805,50.42604]]}},{"type":"Feature","properties":{"numer":"8,E67","klasa":"droga gĹ‚Ăłwna ruchu przyĹ›pieszonego","kat":"gminna"},"geometry":{"type":"LineString","coordinates":[[16.54459,50.42696],[16.54471,50.42695]]}},{"type":"Feature","properties":{"numer":"8,E67","klasa":"droga gĹ‚Ăłwna ruchu przyĹ›pieszonego","kat":"gminna"},"geometry":{"type":"LineString","coordinates":[[16.54429,50.42697],[16.54459,50.42696]]}},{"type":"Feature","properties":{"numer":"3240D","klasa":"droga zbiorcza","kat":"powiatowa"},"geometry":{"type":"LineString","coordinates":[[16.54842,50.42641],[16.54931,50.42693],[16.55019,50.42778]]}},{"type":"Feature","properties":{"numer":"8,E67","klasa":"droga gĹ‚Ăłwna ruchu przyĹ›pieszonego","kat":"gminna"},"geometry":{"type":"LineString","coordinates":[[16.54471,50.42695],[16.54586,50.42697],[16.54787,50.42725],[16.55019,50.42778]]}},{"type":"Feature","properties":{"numer":"8,E67","klasa":"droga gĹ‚Ăłwna ruchu przyĹ›pieszonego","kat":"gminna"},"geometry":{"type":"LineString","coordinates":[[16.55019,50.42778],[16.55029,50.4278]]}},{"type":"Feature","properties":{"numer":"3291D","klasa":"droga zbiorcza","kat":"powiatowa"},"geometry":{"type":"LineString","coordinates":[[16.57911,50.42779],[16.57884,50.42784]]}},{"type":"Feature","properties":{"numer":"8,E67","klasa":"droga gĹ‚Ăłwna ruchu przyĹ›pieszonego","kat":"gminna"},"geometry":{"type":"LineString","coordinates":[[16.55029,50.4278],[16.55054,50.42786]]}},{"type":"Feature","properties":{"numer":"8,E67","klasa":"droga gĹ‚Ăłwna ruchu przyĹ›pieszonego","kat":"gminna"},"geometry":{"type":"LineString","coordinates":[[16.5292861780343,50.42634784170132],[16.53217,50.42629],[16.53736,50.42668],[16.54429,50.42697]]}},{"type":"Feature","properties":{"numer":"8,E67","klasa":"droga gĹ‚Ăłwna ruchu przyĹ›pieszonego","kat":"gminna"},"geometry":{"type":"LineString","coordinates":[[16.55054,50.42786],[16.55084,50.42792]]}},{"type":"Feature","properties":{"numer":"3239D","klasa":"droga zbiorcza","kat":"powiatowa"},"geometry":{"type":"LineString","coordinates":[[16.55029,50.4278],[16.55061,50.42825]]}},{"type":"Feature","properties":{"numer":"3239D","klasa":"droga zbiorcza","kat":"powiatowa"},"geometry":{"type":"LineString","coordinates":[[16.55061,50.42825],[16.55106,50.42887],[16.55211,50.42944]]}},{"type":"Feature","properties":{"numer":"8,E67","klasa":"droga gĹ‚Ăłwna ruchu przyĹ›pieszonego","kat":"gminna"},"geometry":{"type":"LineString","coordinates":[[16.55084,50.42792],[16.55465,50.42865],[16.55829,50.42996]]}},{"type":"Feature","properties":{"numer":"3291D","klasa":"droga zbiorcza","kat":"powiatowa"},"geometry":{"type":"LineString","coordinates":[[16.56043,50.43041],[16.56232,50.42992],[16.5634,50.42975],[16.56468,50.42935],[16.56655,50.42909],[16.56766,50.4288],[16.56885,50.4287],[16.57018,50.42804],[16.57077,50.42786],[16.5711,50.42787],[16.57151,50.42801],[16.57249,50.42886],[16.57296,50.42896],[16.57406,50.42864],[16.57557,50.42847],[16.57884,50.42784]]}},{"type":"Feature","properties":{"numer":"3304D","klasa":"droga zbiorcza","kat":"powiatowa"},"geometry":{"type":"LineString","coordinates":[[16.54471,50.42695],[16.54383,50.42778],[16.54368,50.42827],[16.54326,50.42882],[16.5432,50.42931],[16.54012,50.43005],[16.53936,50.43035],[16.53772,50.43054],[16.53699,50.43087],[16.5356,50.43128],[16.53517,50.43165]]}},{"type":"Feature","properties":{"numer":"8,E67","klasa":"droga gĹ‚Ăłwna ruchu przyĹ›pieszonego","kat":"gminna"},"geometry":{"type":"LineString","coordinates":[[16.55829,50.42996],[16.55861,50.43006]]}},{"type":"Feature","properties":{"numer":"8,E67","klasa":"droga gĹ‚Ăłwna ruchu przyĹ›pieszonego","kat":"gminna"},"geometry":{"type":"LineString","coordinates":[[16.55861,50.43006],[16.56043,50.43041]]}},{"type":"Feature","properties":{"numer":"3304D","klasa":"droga zbiorcza","kat":"powiatowa"},"geometry":{"type":"LineString","coordinates":[[16.53517,50.43165],[16.53512,50.43171]]}},{"type":"Feature","properties":{"numer":"8,E67","klasa":"droga gĹ‚Ăłwna ruchu przyĹ›pieszonego","kat":"gminna"},"geometry":{"type":"LineString","coordinates":[[16.56043,50.43041],[16.56635,50.4309],[16.56755,50.43112],[16.56896,50.43159],[16.57286,50.43344],[16.57383,50.43379],[16.58636,50.43529],[16.5876,50.43547],[16.58869,50.43573]]}},{"type":"Feature","properties":{"numer":"3304D","klasa":"droga zbiorcza","kat":"powiatowa"},"geometry":{"type":"LineString","coordinates":[[16.53512,50.43171],[16.53483,50.43195],[16.53329,50.43258],[16.53275,50.4327],[16.53099,50.43289],[16.529249196352225,50.43328605585637]]}},{"type":"Feature","properties":{"numer":"3239D","klasa":"droga zbiorcza","kat":"powiatowa"},"geometry":{"type":"LineString","coordinates":[[16.55211,50.42944],[16.55165,50.43012],[16.55142,50.43028],[16.549,50.43109],[16.54834,50.4314],[16.54772,50.43188],[16.54709,50.43261],[16.54777,50.43495],[16.54826,50.43764],[16.54851,50.43976],[16.54839,50.44105],[16.54906,50.44263],[16.54898,50.44404],[16.54938,50.44532],[16.54955,50.44702],[16.54949,50.44829],[16.54932,50.44871],[16.54737,50.45086]]}},{"type":"Feature","properties":{"numer":"3293D","klasa":"droga zbiorcza","kat":"powiatowa"},"geometry":{"type":"LineString","coordinates":[[16.59006,50.43606],[16.58705,50.44],[16.58582,50.44252],[16.58515,50.44309],[16.58282,50.44475],[16.58238,50.44516],[16.58174,50.44543]]}},{"type":"Feature","properties":{"numer":"3293D","klasa":"droga zbiorcza","kat":"powiatowa"},"geometry":{"type":"LineString","coordinates":[[16.58174,50.44543],[16.58171,50.44546]]}},{"type":"Feature","properties":{"numer":"3293D","klasa":"droga zbiorcza","kat":"powiatowa"},"geometry":{"type":"LineString","coordinates":[[16.58171,50.44546],[16.58163,50.44564],[16.58192,50.44616],[16.5819,50.44628],[16.58096,50.44667],[16.58062,50.44701],[16.58087,50.44743],[16.58112,50.44881],[16.58149,50.44973],[16.58148,50.4506]]}},{"type":"Feature","properties":{"numer":"3305D","klasa":"droga zbiorcza","kat":"powiatowa"},"geometry":{"type":"LineString","coordinates":[[16.53428,50.45059],[16.53442,50.45058]]}},{"type":"Feature","properties":{"numer":"3293D","klasa":"droga zbiorcza","kat":"powiatowa"},"geometry":{"type":"LineString","coordinates":[[16.58148,50.4506],[16.58149,50.45063]]}},{"type":"Feature","properties":{"numer":"3305D","klasa":"droga zbiorcza","kat":"powiatowa"},"geometry":{"type":"LineString","coordinates":[[16.54737,50.45086],[16.54614,50.45084],[16.54468,50.45096],[16.54292,50.45063],[16.54263,50.4508],[16.54244,50.45113],[16.54038,50.45157],[16.54017,50.45169],[16.53994,50.45207],[16.53964,50.45212],[16.5388,50.45187],[16.53534,50.45134],[16.53511,50.45113],[16.53497,50.45066],[16.53442,50.45058]]}},{"type":"Feature","properties":{"numer":"3305D","klasa":"droga zbiorcza","kat":"powiatowa"},"geometry":{"type":"LineString","coordinates":[[16.53331154553818,50.45067421343146],[16.53428,50.45059]]}},{"type":"Feature","properties":{"numer":"46","klasa":"droga gĹ‚Ăłwna ruchu przyĹ›pieszonego","kat":"krajowa"},"geometry":{"type":"LineString","coordinates":[[16.6641,50.42221],[16.6691,50.42363],[16.672,50.42426],[16.67425,50.42485],[16.67853,50.4261],[16.68046,50.42689]]}},{"type":"Feature","properties":{"numer":"46","klasa":"droga gĹ‚Ăłwna ruchu przyĹ›pieszonego","kat":"krajowa"},"geometry":{"type":"LineString","coordinates":[[16.68046,50.42689],[16.6809,50.42716]]}},{"type":"Feature","properties":{"numer":"3291D","klasa":"droga zbiorcza","kat":"powiatowa"},"geometry":{"type":"LineString","coordinates":[[16.60294,50.42437],[16.603,50.4244]]}},{"type":"Feature","properties":{"numer":"3291D","klasa":"droga zbiorcza","kat":"powiatowa"},"geometry":{"type":"LineString","coordinates":[[16.58846,50.42639],[16.58921,50.42602],[16.59091,50.42587],[16.59324,50.42539],[16.59457,50.42475],[16.59614,50.42424],[16.59683,50.42416],[16.59972,50.42411],[16.60161,50.42393],[16.60198,50.42399],[16.60294,50.42437]]}},{"type":"Feature","properties":{"numer":"3291D","klasa":"droga zbiorcza","kat":"powiatowa"},"geometry":{"type":"LineString","coordinates":[[16.58805,50.42604],[16.58829,50.42624]]}},{"type":"Feature","properties":{"numer":"3291D","klasa":"droga zbiorcza","kat":"powiatowa"},"geometry":{"type":"LineString","coordinates":[[16.58829,50.42624],[16.58846,50.42639]]}},{"type":"Feature","properties":{"numer":"46","klasa":"droga gĹ‚Ăłwna ruchu przyĹ›pieszonego","kat":"krajowa"},"geometry":{"type":"LineString","coordinates":[[16.6809,50.42716],[16.68175,50.42771],[16.6825,50.42839],[16.68306,50.42901],[16.68363,50.42996],[16.6839,50.43069],[16.6842,50.43243],[16.68412,50.43334],[16.68387,50.43408]]}},{"type":"Feature","properties":{"numer":"","klasa":"droga gĹ‚Ăłwna","kat":"gminna"},"geometry":{"type":"LineString","coordinates":[[16.68387,50.43408],[16.68231,50.43376],[16.68146,50.43368],[16.671241249999998,50.43316011363636]]}},{"type":"Feature","properties":{"numer":"46","klasa":"droga gĹ‚Ăłwna ruchu przyĹ›pieszonego","kat":"krajowa"},"geometry":{"type":"LineString","coordinates":[[16.68387,50.43408],[16.68498,50.43436],[16.68831,50.43577],[16.69145,50.43684],[16.69345,50.43715],[16.69563,50.43719],[16.69621,50.43709],[16.69739,50.43671],[16.70004,50.43649],[16.70482,50.43501],[16.70678,50.43431],[16.70913,50.4338],[16.71373,50.43195],[16.71566,50.43089],[16.7163,50.43063],[16.71715,50.43049],[16.71936,50.43042]]}},{"type":"Feature","properties":{"numer":"3293D","klasa":"droga zbiorcza","kat":"powiatowa"},"geometry":{"type":"LineString","coordinates":[[16.58869,50.43573],[16.5883,50.43345],[16.58772,50.43131],[16.58754,50.43015],[16.58684,50.42823],[16.58682,50.42792],[16.58697,50.42744],[16.58738,50.42701],[16.58846,50.42639]]}},{"type":"Feature","properties":{"numer":"3293D,8,E67","klasa":"droga gĹ‚Ăłwna ruchu przyĹ›pieszonego","kat":"powiatowa"},"geometry":{"type":"LineString","coordinates":[[16.58869,50.43573],[16.59006,50.43606]]}},{"type":"Feature","properties":{"numer":"8,E67","klasa":"droga gĹ‚Ăłwna ruchu przyĹ›pieszonego","kat":"gminna"},"geometry":{"type":"LineString","coordinates":[[16.59006,50.43606],[16.59628,50.4372],[16.6056,50.43741]]}},{"type":"Feature","properties":{"numer":"8,E67","klasa":"droga gĹ‚Ăłwna ruchu przyĹ›pieszonego","kat":"gminna"},"geometry":{"type":"LineString","coordinates":[[16.6056,50.43741],[16.61391,50.43746],[16.6139214488118,50.43746122734331]]}},{"type":"Feature","properties":{"numer":"3306D","klasa":"","kat":"powiatowa"},"geometry":{"type":"LineString","coordinates":[[16.6056,50.43741],[16.60612,50.43752],[16.60647,50.43769],[16.6043,50.44089],[16.60424,50.44118],[16.60457,50.44189],[16.6049,50.44219],[16.60574,50.4426],[16.60677,50.44335],[16.60756,50.44381],[16.60877,50.44482],[16.60969,50.44541],[16.60981,50.44562]]}},{"type":"Feature","properties":{"numer":"46","klasa":"droga gĹ‚Ăłwna ruchu przyĹ›pieszonego","kat":"krajowa"},"geometry":{"type":"LineString","coordinates":[[16.73458,50.43127],[16.73598,50.43149]]}},{"type":"Feature","properties":{"numer":"46","klasa":"droga gĹ‚Ăłwna ruchu przyĹ›pieszonego","kat":"krajowa"},"geometry":{"type":"LineString","coordinates":[[16.73598,50.43149],[16.73617,50.43151]]}},{"type":"Feature","properties":{"numer":"46","klasa":"droga gĹ‚Ăłwna ruchu przyĹ›pieszonego","kat":"krajowa"},"geometry":{"type":"LineString","coordinates":[[16.73617,50.43151],[16.73954,50.43188],[16.74112,50.43198],[16.7431,50.43233],[16.74397,50.43225],[16.74531,50.43172],[16.74595,50.43164],[16.74665,50.43173],[16.74775,50.43209],[16.74839,50.43222],[16.75204,50.43227]]}},{"type":"Feature","properties":{"numer":"3248D","klasa":"","kat":"powiatowa"},"geometry":{"type":"LineString","coordinates":[[16.75204,50.43227],[16.75179,50.43259],[16.75024,50.4334],[16.74902,50.43438],[16.74848,50.43395],[16.74757,50.43359],[16.74407,50.43302],[16.74352,50.43304],[16.74301,50.43319],[16.74251,50.43385],[16.73918,50.43332],[16.73861,50.43332],[16.7378,50.43344],[16.73677,50.43301],[16.73538,50.43282],[16.73423,50.43225],[16.7344,50.43207],[16.73458,50.43127]]}},{"type":"Feature","properties":{"numer":"46","klasa":"droga gĹ‚Ăłwna ruchu przyĹ›pieszonego","kat":"krajowa"},"geometry":{"type":"LineString","coordinates":[[16.75204,50.43227],[16.75296,50.43218],[16.75478,50.43166],[16.75775,50.43111],[16.75847,50.43112],[16.7605,50.43147],[16.76264,50.43149],[16.76478536666667,50.43137298]]}},{"type":"Feature","properties":{"numer":"3145D","klasa":"droga zbiorcza","kat":"powiatowa"},"geometry":{"type":"LineString","coordinates":[[16.69951,50.45512],[16.69992,50.45516],[16.70105,50.45481],[16.70358,50.45369],[16.70464,50.45337],[16.70559,50.45319],[16.70824,50.45305],[16.70958,50.4526],[16.71016,50.45228],[16.71065,50.45224],[16.71113,50.45228],[16.71202,50.45255],[16.71395,50.45288],[16.71534,50.45363],[16.71979,50.4548],[16.7201,50.45496],[16.72054,50.45537],[16.72103,50.45564]]}},{"type":"Feature","properties":{"numer":"3145D","klasa":"droga zbiorcza","kat":"powiatowa"},"geometry":{"type":"LineString","coordinates":[[16.72103,50.45564],[16.72114,50.45565]]}},{"type":"Feature","properties":{"numer":"3145D","klasa":"droga zbiorcza","kat":"powiatowa"},"geometry":{"type":"LineString","coordinates":[[16.72114,50.45565],[16.72155,50.45586],[16.72246,50.45662]]}},{"type":"Feature","properties":{"numer":"3145D","klasa":"droga zbiorcza","kat":"powiatowa"},"geometry":{"type":"LineString","coordinates":[[16.72246,50.45662],[16.72253,50.45667]]}},{"type":"Feature","properties":{"numer":"3145D","klasa":"droga zbiorcza","kat":"powiatowa"},"geometry":{"type":"LineString","coordinates":[[16.72253,50.45667],[16.72288,50.45684],[16.72398,50.45707],[16.72483,50.45735],[16.72578,50.45796],[16.72606,50.45842],[16.72655,50.4587],[16.72727,50.45996],[16.72726,50.4604],[16.72694,50.46078],[16.72701,50.46117],[16.72843,50.46245],[16.7288,50.46266]]}},{"type":"Feature","properties":{"numer":"3145D","klasa":"droga zbiorcza","kat":"powiatowa"},"geometry":{"type":"LineString","coordinates":[[16.683672176720975,50.45187191692353],[16.68374,50.4519],[16.685,50.45262],[16.68597,50.45276]]}},{"type":"Feature","properties":{"numer":"3145D","klasa":"droga zbiorcza","kat":"powiatowa"},"geometry":{"type":"LineString","coordinates":[[16.68597,50.45276],[16.68607,50.45277]]}},{"type":"Feature","properties":{"numer":"3145D","klasa":"droga zbiorcza","kat":"powiatowa"},"geometry":{"type":"LineString","coordinates":[[16.68607,50.45277],[16.68714,50.45311],[16.68803,50.45383],[16.68854,50.45406],[16.69016,50.4543],[16.69063,50.45429],[16.69125,50.45415],[16.69184,50.45417],[16.69288,50.45476],[16.69484,50.45524],[16.69658,50.45549],[16.69824,50.45531],[16.69899,50.45504],[16.69938,50.45508]]}},{"type":"Feature","properties":{"numer":"3145D","klasa":"droga zbiorcza","kat":"powiatowa"},"geometry":{"type":"LineString","coordinates":[[16.69938,50.45508],[16.69951,50.45512]]}},{"type":"Feature","properties":{"numer":"3308D","klasa":"droga zbiorcza","kat":"powiatowa"},"geometry":{"type":"LineString","coordinates":[[16.60913,50.45324],[16.60922109674313,50.45322307872201]]}},{"type":"Feature","properties":{"numer":"3308D","klasa":"droga zbiorcza","kat":"powiatowa"},"geometry":{"type":"LineString","coordinates":[[16.61413441217152,50.452026514522814],[16.61466,50.45179],[16.615341003584213,50.45158569892474]]}},{"type":"Feature","properties":{"numer":"3308D","klasa":"droga zbiorcza","kat":"powiatowa"},"geometry":{"type":"LineString","coordinates":[[16.60905,50.45326],[16.60913,50.45324]]}},{"type":"Feature","properties":{"numer":"3308D","klasa":"droga zbiorcza","kat":"powiatowa"},"geometry":{"type":"LineString","coordinates":[[16.60905,50.45326],[16.60873,50.45342],[16.60861,50.45358],[16.60874,50.45442],[16.60849,50.45539],[16.60835,50.45554],[16.60803,50.45564],[16.60356,50.45549],[16.60194,50.45564],[16.60116,50.4556],[16.59809,50.45596],[16.5937,50.45687],[16.59147,50.45719],[16.58926,50.45738],[16.58849,50.45738],[16.58628,50.45695]]}},{"type":"Feature","properties":{"numer":"381","klasa":"droga gĹ‚Ăłwna","kat":"wojewodzka"},"geometry":{"type":"LineString","coordinates":[[16.62265,50.46536],[16.62291,50.46469],[16.62336,50.46402],[16.62865657140926,50.45760135421679]]}},{"type":"Feature","properties":{"numer":"3226D","klasa":"droga gĹ‚Ăłwna","kat":"powiatowa"},"geometry":{"type":"LineString","coordinates":[[16.641811878753753,50.46403069444444],[16.64194,50.46476]]}},{"type":"Feature","properties":{"numer":"381","klasa":"droga gĹ‚Ăłwna","kat":"wojewodzka"},"geometry":{"type":"LineString","coordinates":[[16.62263,50.46544],[16.62265,50.46536]]}},{"type":"Feature","properties":{"numer":"3226D","klasa":"droga gĹ‚Ăłwna","kat":"powiatowa"},"geometry":{"type":"LineString","coordinates":[[16.64194,50.46476],[16.64226,50.46663]]}},{"type":"Feature","properties":{"numer":"381","klasa":"droga gĹ‚Ăłwna","kat":"wojewodzka"},"geometry":{"type":"LineString","coordinates":[[16.62207,50.46667],[16.62263,50.46544]]}},{"type":"Feature","properties":{"numer":"381","klasa":"droga gĹ‚Ăłwna","kat":"wojewodzka"},"geometry":{"type":"LineString","coordinates":[[16.62165,50.46723],[16.62207,50.46667]]}},{"type":"Feature","properties":{"numer":"3293D","klasa":"droga zbiorcza","kat":"powiatowa"},"geometry":{"type":"LineString","coordinates":[[16.58149,50.45063],[16.58157,50.45088],[16.58182,50.45112],[16.58295,50.45156],[16.58357,50.45209],[16.5839,50.45338],[16.58457,50.45502],[16.58573,50.45666],[16.58578,50.4569]]}},{"type":"Feature","properties":{"numer":"3239D","klasa":"droga zbiorcza","kat":"powiatowa"},"geometry":{"type":"LineString","coordinates":[[16.54737,50.45086],[16.54671,50.45224],[16.54634,50.4537],[16.54603,50.4558],[16.54622,50.45651],[16.54649,50.45667],[16.54918,50.45719],[16.55075,50.45772],[16.55105,50.4579],[16.55156,50.45844],[16.55314,50.45958],[16.55372,50.46017],[16.5542,50.46034],[16.55542,50.46057],[16.55661,50.46152]]}},{"type":"Feature","properties":{"numer":"3308D","klasa":"droga zbiorcza","kat":"powiatowa"},"geometry":{"type":"LineString","coordinates":[[16.58628,50.45695],[16.58578,50.4569]]}},{"type":"Feature","properties":{"numer":"3293D","klasa":"droga zbiorcza","kat":"powiatowa"},"geometry":{"type":"LineString","coordinates":[[16.58578,50.4569],[16.58555,50.45749],[16.58531,50.45776],[16.5834,50.45871],[16.58112,50.4593],[16.57972,50.45995],[16.57927,50.46009],[16.57715,50.45998],[16.57619,50.46013],[16.57582,50.46031],[16.57525,50.4609]]}},{"type":"Feature","properties":{"numer":"3293D","klasa":"droga zbiorcza","kat":"powiatowa"},"geometry":{"type":"LineString","coordinates":[[16.57525,50.4609],[16.57519,50.46096]]}},{"type":"Feature","properties":{"numer":"3293D","klasa":"droga zbiorcza","kat":"powiatowa"},"geometry":{"type":"LineString","coordinates":[[16.57519,50.46096],[16.57356,50.46283],[16.57229,50.46382]]}},{"type":"Feature","properties":{"numer":"3307D","klasa":"","kat":"powiatowa"},"geometry":{"type":"LineString","coordinates":[[16.57218,50.46408],[16.57164,50.46399],[16.56971,50.46395],[16.56779,50.4632],[16.5652,50.46238],[16.5625,50.46224],[16.5593,50.46232],[16.55699,50.46175],[16.55661,50.46152]]}},{"type":"Feature","properties":{"numer":"3293D","klasa":"droga zbiorcza","kat":"powiatowa"},"geometry":{"type":"LineString","coordinates":[[16.57218,50.46408],[16.57229,50.46382]]}},{"type":"Feature","properties":{"numer":"3307D","klasa":"","kat":"powiatowa"},"geometry":{"type":"LineString","coordinates":[[16.57218,50.46408],[16.57306,50.46436],[16.57606,50.46568],[16.57847,50.46732],[16.57901,50.46761],[16.58009,50.46805],[16.58252,50.46885],[16.58412,50.47008],[16.58447,50.47024],[16.5867,50.47043],[16.58927,50.47037],[16.59009,50.47012],[16.59052,50.46974],[16.59153,50.46929],[16.59251,50.46927]]}},{"type":"Feature","properties":{"numer":"3239D","klasa":"droga zbiorcza","kat":"powiatowa"},"geometry":{"type":"LineString","coordinates":[[16.55661,50.46152],[16.55652,50.46296],[16.55671,50.46342],[16.55743,50.46428],[16.55884,50.46562],[16.55916,50.46733],[16.55941,50.46784],[16.56105,50.4698],[16.56341,50.47304],[16.56428,50.47391],[16.56475,50.47487],[16.56474,50.47539],[16.56394,50.47679],[16.56203,50.47942],[16.56215,50.47978],[16.56359,50.48175]]}},{"type":"Feature","properties":{"numer":"3309D","klasa":"droga zbiorcza","kat":"powiatowa"},"geometry":{"type":"LineString","coordinates":[[16.62091,50.46774],[16.62134,50.46786],[16.62507,50.4675],[16.62694,50.46769],[16.62791,50.4676],[16.62892,50.4677],[16.63154,50.46767],[16.63277,50.46742],[16.63481,50.4666],[16.63555,50.46646],[16.63626,50.46651],[16.6371,50.46638],[16.63874,50.46637],[16.64079,50.46646],[16.64207,50.46667],[16.64226,50.46663]]}},{"type":"Feature","properties":{"numer":"381","klasa":"droga gĹ‚Ăłwna","kat":"wojewodzka"},"geometry":{"type":"LineString","coordinates":[[16.62091,50.46774],[16.62165,50.46723]]}},{"type":"Feature","properties":{"numer":"3307D","klasa":"","kat":"powiatowa"},"geometry":{"type":"LineString","coordinates":[[16.59259,50.46927],[16.59251,50.46927]]}},{"type":"Feature","properties":{"numer":"3307D","klasa":"","kat":"powiatowa"},"geometry":{"type":"LineString","coordinates":[[16.59259,50.46927],[16.5933,50.4695],[16.59457,50.47032],[16.5955,50.47119],[16.59575,50.4716]]}},{"type":"Feature","properties":{"numer":"381","klasa":"droga gĹ‚Ăłwna","kat":"wojewodzka"},"geometry":{"type":"LineString","coordinates":[[16.60244,50.47378],[16.60334,50.47338],[16.60554,50.47262],[16.60716,50.47232],[16.60884,50.47179],[16.61063,50.47158],[16.61142,50.47137],[16.61219,50.47098],[16.61315,50.47016],[16.61403,50.46965],[16.615,50.46939],[16.61689,50.46918],[16.61822,50.46882],[16.62091,50.46774]]}},{"type":"Feature","properties":{"numer":"3307D","klasa":"","kat":"powiatowa"},"geometry":{"type":"LineString","coordinates":[[16.59575,50.4716],[16.5958,50.47171]]}},{"type":"Feature","properties":{"numer":"3307D","klasa":"","kat":"powiatowa"},"geometry":{"type":"LineString","coordinates":[[16.5958,50.47171],[16.59665,50.47237]]}},{"type":"Feature","properties":{"numer":"3307D","klasa":"","kat":"powiatowa"},"geometry":{"type":"LineString","coordinates":[[16.59665,50.47237],[16.59689,50.47255]]}},{"type":"Feature","properties":{"numer":"3307D","klasa":"","kat":"powiatowa"},"geometry":{"type":"LineString","coordinates":[[16.59689,50.47255],[16.59709,50.47332],[16.59737,50.47364],[16.5977,50.47383],[16.59838,50.47404],[16.60062,50.47408],[16.6011,50.47421]]}},{"type":"Feature","properties":{"numer":"381","klasa":"droga gĹ‚Ăłwna","kat":"wojewodzka"},"geometry":{"type":"LineString","coordinates":[[16.6011,50.47421],[16.60244,50.47378]]}},{"type":"Feature","properties":{"numer":"3289D","klasa":"","kat":"powiatowa"},"geometry":{"type":"LineString","coordinates":[[16.5699,50.37613],[16.57017,50.37565],[16.57077,50.37534],[16.57143,50.37521],[16.57167,50.3751],[16.57416,50.37338],[16.57541,50.37269],[16.57624,50.37178],[16.57743,50.37019],[16.57833,50.3694],[16.57912,50.36913],[16.579404390216908,50.36899528884462]]}},{"type":"Feature","properties":{"numer":"388","klasa":"droga zbiorcza","kat":"wojewodzka"},"geometry":{"type":"LineString","coordinates":[[16.5300965659909,50.37757851055027],[16.53045,50.37753],[16.53090890410958,50.377243184931515]]}},{"type":"Feature","properties":{"numer":"3290D","klasa":"","kat":"powiatowa"},"geometry":{"type":"LineString","coordinates":[[16.5699,50.37613],[16.57129,50.37685],[16.57167,50.37694],[16.5758,50.37719],[16.57696,50.37707],[16.57858,50.37732],[16.57997,50.37768]]}},{"type":"Feature","properties":{"numer":"3290D","klasa":"","kat":"powiatowa"},"geometry":{"type":"LineString","coordinates":[[16.57997,50.37768],[16.58006,50.3777]]}},{"type":"Feature","properties":{"numer":"3289D","klasa":"","kat":"powiatowa"},"geometry":{"type":"LineString","coordinates":[[16.56618,50.3815],[16.56664,50.38124],[16.56707,50.38085],[16.56739,50.38011],[16.56828,50.37879],[16.56845,50.37789],[16.56902,50.37735],[16.56932,50.3768],[16.5699,50.37613]]}},{"type":"Feature","properties":{"numer":"3290D","klasa":"","kat":"powiatowa"},"geometry":{"type":"LineString","coordinates":[[16.58006,50.3777],[16.58163,50.3781],[16.58535,50.37931],[16.58697,50.37974],[16.59119,50.38038],[16.5921,50.38065]]}},{"type":"Feature","properties":{"numer":"3289D","klasa":"","kat":"powiatowa"},"geometry":{"type":"LineString","coordinates":[[16.56618,50.3815],[16.5661,50.38156]]}},{"type":"Feature","properties":{"numer":"3289D","klasa":"","kat":"powiatowa"},"geometry":{"type":"LineString","coordinates":[[16.5661,50.38156],[16.56594,50.38187],[16.56593,50.3826],[16.56631,50.38345],[16.56604,50.38379],[16.56562,50.38403]]}},{"type":"Feature","properties":{"numer":"3289D","klasa":"","kat":"powiatowa"},"geometry":{"type":"LineString","coordinates":[[16.56562,50.38403],[16.56561,50.38404]]}},{"type":"Feature","properties":{"numer":"388","klasa":"droga zbiorcza","kat":"wojewodzka"},"geometry":{"type":"LineString","coordinates":[[16.528762725598522,50.37866710865562],[16.52902,50.37848],[16.529303052985703,50.37807945332212]]}},{"type":"Feature","properties":{"numer":"3291D","klasa":"droga zbiorcza","kat":"powiatowa"},"geometry":{"type":"LineString","coordinates":[[16.530236032328176,50.39732686634067],[16.53042,50.39735]]}},{"type":"Feature","properties":{"numer":"381","klasa":"droga gĹ‚Ăłwna","kat":"wojewodzka"},"geometry":{"type":"LineString","coordinates":[[16.58459,50.48174],[16.5848,50.48164]]}},{"type":"Feature","properties":{"numer":"381","klasa":"droga gĹ‚Ăłwna","kat":"wojewodzka"},"geometry":{"type":"LineString","coordinates":[[16.58238,50.48411],[16.58248,50.48368],[16.58317,50.48281],[16.5839,50.48216],[16.58459,50.48174]]}},{"type":"Feature","properties":{"numer":"3239D","klasa":"droga zbiorcza","kat":"powiatowa"},"geometry":{"type":"LineString","coordinates":[[16.56359,50.48175],[16.5705,50.48576],[16.57089,50.48586],[16.57122,50.48582]]}},{"type":"Feature","properties":{"numer":"386","klasa":"droga zbiorcza","kat":"wojewodzka"},"geometry":{"type":"LineString","coordinates":[[16.58238,50.48411],[16.58198,50.48414],[16.58101,50.48484],[16.57946,50.48555],[16.57864,50.48582]]}},{"type":"Feature","properties":{"numer":"3239D","klasa":"droga zbiorcza","kat":"powiatowa"},"geometry":{"type":"LineString","coordinates":[[16.57122,50.48582],[16.57155,50.48574]]}},{"type":"Feature","properties":{"numer":"3328D","klasa":"","kat":"powiatowa"},"geometry":{"type":"LineString","coordinates":[[16.56359,50.48175],[16.56291672724707,50.48180504745778]]}},{"type":"Feature","properties":{"numer":"3247D","klasa":"","kat":"powiatowa"},"geometry":{"type":"LineString","coordinates":[[16.57694,50.4879],[16.57864,50.48582]]}},{"type":"Feature","properties":{"numer":"3239D","klasa":"droga zbiorcza","kat":"powiatowa"},"geometry":{"type":"LineString","coordinates":[[16.57155,50.48574],[16.57206,50.48565],[16.57229,50.48572],[16.57238,50.48584],[16.57256,50.48831]]}},{"type":"Feature","properties":{"numer":"386","klasa":"droga zbiorcza","kat":"wojewodzka"},"geometry":{"type":"LineString","coordinates":[[16.57864,50.48582],[16.57782,50.48599],[16.57674,50.48633],[16.57256,50.48831]]}},{"type":"Feature","properties":{"numer":"3247D","klasa":"","kat":"powiatowa"},"geometry":{"type":"LineString","coordinates":[[16.57256,50.48831],[16.57315,50.48861],[16.57375,50.48876],[16.57651,50.48791],[16.57694,50.4879]]}},{"type":"Feature","properties":{"numer":"381","klasa":"droga gĹ‚Ăłwna","kat":"wojewodzka"},"geometry":{"type":"LineString","coordinates":[[16.58588,50.49772],[16.58716,50.49534],[16.58745,50.4934],[16.58741,50.49271],[16.58718,50.4922],[16.58426,50.48765],[16.58299,50.48648],[16.58253,50.48588],[16.58231,50.48516],[16.58238,50.48411]]}},{"type":"Feature","properties":{"numer":"3247D","klasa":"","kat":"powiatowa"},"geometry":{"type":"LineString","coordinates":[[16.57798,50.49678],[16.57831,50.49578],[16.57813,50.49491],[16.5774,50.49388],[16.57668,50.49316],[16.57612,50.49269],[16.57496,50.492],[16.57484,50.49179],[16.57509,50.49137],[16.57519,50.49089],[16.57591,50.48914],[16.57613,50.48892],[16.57714,50.48849],[16.57694,50.4879]]}},{"type":"Feature","properties":{"numer":"386","klasa":"droga zbiorcza","kat":"wojewodzka"},"geometry":{"type":"LineString","coordinates":[[16.555962256053135,50.4934271723003],[16.55853,50.4927],[16.56506,50.49029],[16.56575,50.49015],[16.56825,50.4901],[16.569,50.48997],[16.57007,50.48954],[16.57256,50.48831]]}},{"type":"Feature","properties":{"numer":"3247D","klasa":"","kat":"powiatowa"},"geometry":{"type":"LineString","coordinates":[[16.57798,50.49678],[16.57893,50.4969]]}},{"type":"Feature","properties":{"numer":"3247D","klasa":"","kat":"powiatowa"},"geometry":{"type":"LineString","coordinates":[[16.57893,50.4969],[16.57899,50.49692]]}},{"type":"Feature","properties":{"numer":"3247D","klasa":"","kat":"powiatowa"},"geometry":{"type":"LineString","coordinates":[[16.57899,50.49692],[16.58033,50.49735],[16.58117,50.4975],[16.58199,50.49751],[16.58304,50.49726],[16.58408,50.49737],[16.58588,50.49772]]}},{"type":"Feature","properties":{"numer":"3324D","klasa":"droga zbiorcza","kat":"powiatowa"},"geometry":{"type":"LineString","coordinates":[[16.57792288541708,50.50015170147298],[16.57807,50.49994],[16.57826,50.49945],[16.57826,50.49762],[16.57797,50.49705],[16.57798,50.49678]]}},{"type":"Feature","properties":{"numer":"381","klasa":"droga gĹ‚Ăłwna","kat":"wojewodzka"},"geometry":{"type":"LineString","coordinates":[[16.5844991693391,50.502882608289276],[16.58497,50.4998],[16.58519,50.49898],[16.58588,50.49772]]}},{"type":"Feature","properties":{"numer":"8,E67","klasa":"droga gĹ‚Ăłwna ruchu przyĹ›pieszonego","kat":"gminna"},"geometry":{"type":"LineString","coordinates":[[16.659439677188118,50.45790921817878],[16.66043,50.45807]]}},{"type":"Feature","properties":{"numer":"8,E67","klasa":"droga gĹ‚Ăłwna ruchu przyĹ›pieszonego","kat":"gminna"},"geometry":{"type":"LineString","coordinates":[[16.66314,50.45849],[16.66472893617021,50.45849]]}},{"type":"Feature","properties":{"numer":"8,E67","klasa":"droga gĹ‚Ăłwna ruchu przyĹ›pieszonego","kat":"gminna"},"geometry":{"type":"LineString","coordinates":[[16.66043,50.45807],[16.66314,50.45849]]}},{"type":"Feature","properties":{"numer":"3310D","klasa":"droga zbiorcza","kat":"powiatowa"},"geometry":{"type":"LineString","coordinates":[[16.66314,50.45849],[16.66327,50.45924],[16.6635,50.45968],[16.6638,50.45998],[16.66434,50.46006],[16.66476,50.462],[16.66476,50.46221],[16.66438,50.4629],[16.66373,50.46465],[16.6635,50.46706],[16.66387,50.46877],[16.66364,50.47051],[16.66366,50.47127],[16.66387,50.47199],[16.66371,50.47354],[16.66424,50.47497],[16.66494,50.4758],[16.66706,50.47717],[16.67045,50.47853],[16.67166,50.47927],[16.67207,50.47974],[16.67225,50.48013],[16.67244,50.4823],[16.6727,50.48259],[16.67297,50.4827],[16.67336,50.4827],[16.67587,50.48214],[16.67612,50.48199],[16.67625,50.48152],[16.67638,50.48146],[16.67658,50.4815],[16.67675,50.48178],[16.67669,50.48206],[16.67645,50.48246],[16.67583,50.48313],[16.67584,50.48323]]}},{"type":"Feature","properties":{"numer":"3310D","klasa":"droga zbiorcza","kat":"powiatowa"},"geometry":{"type":"LineString","coordinates":[[16.67584,50.48323],[16.67682,50.48356]]}},{"type":"Feature","properties":{"numer":"3246D","klasa":"","kat":"powiatowa"},"geometry":{"type":"LineString","coordinates":[[16.65262,50.48604],[16.65002,50.48773],[16.65019,50.48942]]}},{"type":"Feature","properties":{"numer":"3310D","klasa":"droga zbiorcza","kat":"powiatowa"},"geometry":{"type":"LineString","coordinates":[[16.67682,50.48356],[16.67767,50.48375],[16.67846,50.48426],[16.67863,50.48449],[16.67858,50.48507],[16.67869,50.48521],[16.68199,50.48605],[16.68367,50.48669],[16.68422,50.48698],[16.685,50.49093],[16.68507,50.49249],[16.68565,50.49287],[16.6859,50.49316],[16.68586,50.49344],[16.68529,50.49458],[16.68527,50.49486],[16.68541,50.49512]]}},{"type":"Feature","properties":{"numer":"3145D","klasa":"droga zbiorcza","kat":"powiatowa"},"geometry":{"type":"LineString","coordinates":[[16.7289,50.46267],[16.7288,50.46266]]}},{"type":"Feature","properties":{"numer":"3145D","klasa":"droga zbiorcza","kat":"powiatowa"},"geometry":{"type":"LineString","coordinates":[[16.7289,50.46267],[16.72913,50.46274],[16.72951,50.46307],[16.72984,50.46366],[16.72981,50.46431],[16.72953,50.46525],[16.72959,50.46573],[16.7303,50.46656],[16.73118,50.467],[16.73111,50.46722],[16.73033,50.46739],[16.73009,50.46792],[16.73003,50.46877],[16.73024,50.46964],[16.73026,50.47034],[16.73038,50.47047],[16.73063,50.47048],[16.7309,50.47033],[16.73147,50.46924],[16.73172,50.46915],[16.73196,50.46931],[16.73177,50.46993],[16.73176,50.47052],[16.73134,50.47163],[16.73137,50.47225],[16.73165,50.47285],[16.73296,50.47456],[16.73374,50.47518],[16.73383,50.47594],[16.73398,50.47614],[16.73458,50.47631],[16.73534,50.47632],[16.736,50.47626],[16.736192875731945,50.47620095640859]]}},{"type":"Feature","properties":{"numer":"8,E67","klasa":"droga gĹ‚Ăłwna ruchu przyĹ›pieszonego","kat":"gminna"},"geometry":{"type":"LineString","coordinates":[[16.672456785714285,50.45852464285714],[16.67284,50.45868],[16.67877,50.46166],[16.6805,50.46271],[16.68229,50.46397],[16.68267,50.46415],[16.68404,50.46465],[16.68556,50.46479],[16.6872,50.46484],[16.68767,50.46494],[16.68834,50.46523],[16.69853,50.47124],[16.7051,50.47524],[16.70594,50.476],[16.706660847426736,50.47692010606502]]}},{"type":"Feature","properties":{"numer":"381","klasa":"droga gĹ‚Ăłwna","kat":"wojewodzka"},"geometry":{"type":"LineString","coordinates":[[16.5848,50.48164],[16.58689,50.48071],[16.58778,50.48009],[16.58928,50.47923],[16.58977,50.47884],[16.59061,50.47783],[16.59156,50.47701],[16.59272,50.47611],[16.59364,50.4756],[16.59433,50.47534],[16.59574,50.47498],[16.59706,50.47479],[16.59888,50.47478],[16.6011,50.47421]]}},{"type":"Feature","properties":{"numer":"3245D","klasa":"droga zbiorcza","kat":"powiatowa"},"geometry":{"type":"LineString","coordinates":[[16.62726,50.49498],[16.62622,50.49399],[16.62592,50.49381],[16.62557,50.49384],[16.62459,50.49419],[16.62301,50.49444],[16.62241,50.49441],[16.62202,50.4943],[16.61835,50.49234],[16.61186,50.4901],[16.6083,50.48877],[16.60687,50.4872],[16.60677,50.48697],[16.60682,50.48588],[16.60731,50.48528],[16.60767,50.48429],[16.60735,50.48211],[16.60754,50.48161],[16.60748,50.48138],[16.60713,50.48054],[16.60578,50.479],[16.60486,50.47706],[16.60459,50.47672],[16.60337,50.47568],[16.60268,50.47455],[16.60244,50.47378]]}},{"type":"Feature","properties":{"numer":"3246D","klasa":"","kat":"powiatowa"},"geometry":{"type":"LineString","coordinates":[[16.65019,50.48942],[16.6501,50.49016],[16.64965,50.49053],[16.64897,50.4908],[16.64793,50.49097],[16.64708,50.49136],[16.64606,50.49137],[16.64538,50.49113],[16.64491,50.4911],[16.64345,50.4919],[16.64147,50.49237],[16.64072,50.49242],[16.63828,50.49289],[16.63806,50.49286],[16.6376,50.49262],[16.6365,50.49266],[16.63579,50.49291],[16.63446,50.49373],[16.63313,50.49415]]}},{"type":"Feature","properties":{"numer":"3246D","klasa":"","kat":"powiatowa"},"geometry":{"type":"LineString","coordinates":[[16.63289,50.49384],[16.63313,50.49415]]}},{"type":"Feature","properties":{"numer":"3246D","klasa":"","kat":"powiatowa"},"geometry":{"type":"LineString","coordinates":[[16.63313,50.49415],[16.63164,50.49457],[16.6298,50.49467],[16.62856,50.49491],[16.62726,50.49498]]}},{"type":"Feature","properties":{"numer":"3245D","klasa":"droga zbiorcza","kat":"powiatowa"},"geometry":{"type":"LineString","coordinates":[[16.64225,50.51135],[16.64248,50.51077],[16.64211,50.51041],[16.64188,50.51001],[16.64159,50.50897],[16.6409,50.50789],[16.64077,50.50726],[16.6409,50.50655],[16.64183,50.50468],[16.64211,50.50376],[16.64096,50.50322],[16.63952,50.50283],[16.63457,50.50198],[16.63131,50.50025],[16.63001,50.49976],[16.62927,50.49909],[16.62777,50.49797],[16.62772,50.49778],[16.628,50.49732],[16.62813,50.49638],[16.62782,50.49543],[16.62726,50.49498]]}},{"type":"Feature","properties":{"numer":"3245D","klasa":"droga zbiorcza","kat":"powiatowa"},"geometry":{"type":"LineString","coordinates":[[16.64228,50.51141],[16.64225,50.51135]]}},{"type":"Feature","properties":{"numer":"3340D","klasa":"droga zbiorcza","kat":"powiatowa"},"geometry":{"type":"LineString","coordinates":[[16.6425,50.51166],[16.64378,50.51125]]}},{"type":"Feature","properties":{"numer":"3245D","klasa":"droga zbiorcza","kat":"powiatowa"},"geometry":{"type":"LineString","coordinates":[[16.6425,50.51166],[16.64228,50.51141]]}},{"type":"Feature","properties":{"numer":"3340D","klasa":"droga zbiorcza","kat":"powiatowa"},"geometry":{"type":"LineString","coordinates":[[16.63923,50.51335],[16.63962,50.51319],[16.64084,50.51236],[16.6425,50.51166]]}},{"type":"Feature","properties":{"numer":"3340D","klasa":"droga zbiorcza","kat":"powiatowa"},"geometry":{"type":"LineString","coordinates":[[16.63871,50.51343],[16.63923,50.51335]]}},{"type":"Feature","properties":{"numer":"3340D","klasa":"droga zbiorcza","kat":"powiatowa"},"geometry":{"type":"LineString","coordinates":[[16.63857,50.51341],[16.63871,50.51343]]}},{"type":"Feature","properties":{"numer":"3340D","klasa":"droga zbiorcza","kat":"powiatowa"},"geometry":{"type":"LineString","coordinates":[[16.63857,50.51341],[16.63801,50.51327],[16.6363,50.51304],[16.63504,50.51267],[16.6329,50.51256],[16.63202,50.51259],[16.63033,50.51293],[16.62869,50.51297],[16.62737,50.51309],[16.62664,50.51329],[16.62484,50.51417],[16.62296,50.51546],[16.62247,50.51553],[16.62191,50.5155],[16.62009,50.5151],[16.61932,50.5153],[16.61842,50.51535],[16.61752,50.51555],[16.61658,50.51594],[16.61568,50.51648],[16.61451,50.51749],[16.61415,50.5177],[16.61266613174308,50.518156205451156]]}},{"type":"Feature","properties":{"numer":"3310D","klasa":"droga zbiorcza","kat":"powiatowa"},"geometry":{"type":"LineString","coordinates":[[16.68602,50.49571],[16.68541,50.49512]]}},{"type":"Feature","properties":{"numer":"3310D","klasa":"droga zbiorcza","kat":"powiatowa"},"geometry":{"type":"LineString","coordinates":[[16.68602,50.49571],[16.68627,50.49604],[16.68634,50.4966],[16.6865,50.49685],[16.68787,50.49759],[16.68884,50.49842],[16.68961,50.49854],[16.69047,50.49894],[16.69131,50.4992],[16.69211,50.49924],[16.69392,50.49916]]}},{"type":"Feature","properties":{"numer":"3340D","klasa":"droga zbiorcza","kat":"powiatowa"},"geometry":{"type":"LineString","coordinates":[[16.64378,50.51125],[16.64569,50.51049],[16.64594,50.51028],[16.64625,50.50981],[16.64707,50.50934],[16.6478,50.5086],[16.64865,50.50815],[16.6515,50.50693],[16.652,50.50679],[16.65236,50.50678],[16.65336,50.50695],[16.65687,50.50656],[16.65956,50.50708],[16.66207,50.50768],[16.66523,50.50803],[16.66593,50.5079],[16.66679,50.50747],[16.66888,50.50742],[16.67042,50.507],[16.67089,50.50694],[16.67128,50.50703],[16.67167,50.50727],[16.67203,50.50765],[16.67232,50.50838],[16.67274,50.50851],[16.67391,50.50835],[16.67544,50.50857],[16.6763,50.50815],[16.67692,50.50806],[16.67965,50.50771],[16.68185,50.50772],[16.68259,50.50788],[16.68298,50.50817],[16.68324,50.50855],[16.68319,50.50881],[16.68249,50.50929],[16.68233,50.5095],[16.68254,50.51002],[16.6834,50.51074],[16.68355,50.51084],[16.68421,50.51097],[16.68606,50.5123],[16.68604,50.51247],[16.68458,50.51393],[16.68463,50.51429]]}},{"type":"Feature","properties":{"numer":"3340D","klasa":"droga zbiorcza","kat":"powiatowa"},"geometry":{"type":"LineString","coordinates":[[16.68473,50.51435],[16.68463,50.51429]]}},{"type":"Feature","properties":{"numer":"3340D","klasa":"droga zbiorcza","kat":"powiatowa"},"geometry":{"type":"LineString","coordinates":[[16.68475418604651,50.514359069767444],[16.68473,50.51435]]}},{"type":"Feature","properties":{"numer":"3148D","klasa":"droga zbiorcza","kat":"powiatowa"},"geometry":{"type":"LineString","coordinates":[[16.64378,50.51125],[16.64488,50.51252],[16.64495,50.51282],[16.64481,50.51393],[16.645,50.51451],[16.64523,50.51484],[16.64565,50.51513],[16.64656,50.51522],[16.64701,50.5154],[16.6506,50.51838],[16.65104,50.51859],[16.65342,50.51918],[16.65503,50.5202],[16.65587,50.52045],[16.65693,50.52069],[16.65824,50.52048],[16.65874,50.52056],[16.6589,50.52067],[16.6597,50.52157],[16.65976,50.52177],[16.65964,50.5219],[16.65888,50.52225],[16.65882,50.52241],[16.65897,50.52299],[16.65875,50.5236],[16.65832,50.52408],[16.65739,50.52476],[16.65729,50.52511],[16.65857,50.52663],[16.65899,50.52785],[16.65954,50.52866],[16.65997,50.52902],[16.66181,50.52984]]}},{"type":"Feature","properties":{"numer":"3148D","klasa":"droga zbiorcza","kat":"powiatowa"},"geometry":{"type":"LineString","coordinates":[[16.66193,50.52993],[16.66181,50.52984]]}},{"type":"Feature","properties":{"numer":"3148D","klasa":"droga zbiorcza","kat":"powiatowa"},"geometry":{"type":"LineString","coordinates":[[16.66193,50.52993],[16.66287,50.53066],[16.66298,50.53127],[16.66296,50.53267],[16.66313,50.53293],[16.66374,50.53335],[16.66389,50.53361],[16.66364,50.53398],[16.66273,50.53415],[16.66234,50.53431],[16.66164,50.53537],[16.66155,50.5357],[16.6616,50.53599],[16.66189,50.53634],[16.66282,50.53699],[16.66346,50.53781],[16.66496,50.53874],[16.66615,50.5403],[16.66632,50.54079],[16.66635,50.5412],[16.66623,50.5415],[16.66496,50.54295],[16.66443,50.54408],[16.66384,50.54467]]}},{"type":"Feature","properties":{"numer":"3148D","klasa":"","kat":"powiatowa"},"geometry":{"type":"LineString","coordinates":[[16.66384,50.54467],[16.663839651788543,50.54467038619816]]}}]}