{"type":"FeatureCollection","features":[{"type":"Feature","properties":{"numer":"33","klasa":"droga gĹ‚Ăłwna","kat":"krajowa"},"geometry":{"type":"LineString","coordinates":[[16.69148,50.11453],[16.69197,50.11414],[16.69262,50.1124],[16.69333,50.11124],[16.69457,50.11009],[16.69505,50.1084],[16.69505,50.10777],[16.69516,50.10751],[16.69641,50.10661],[16.69692,50.10648],[16.6982,50.10637],[16.69892,50.10604],[16.70015,50.10435],[16.70295,50.10169],[16.70336,50.10082],[16.70359,50.09887],[16.70444,50.09743],[16.704814354365368,50.09651694057227]]}},{"type":"Feature","properties":{"numer":"33","klasa":"droga gĹ‚Ăłwna","kat":"krajowa"},"geometry":{"type":"LineString","coordinates":[[16.69131,50.11465],[16.69148,50.11453]]}},{"type":"Feature","properties":{"numer":"33","klasa":"droga gĹ‚Ăłwna","kat":"krajowa"},"geometry":{"type":"LineString","coordinates":[[16.68812,50.11606],[16.68994,50.11505],[16.69131,50.11465]]}},{"type":"Feature","properties":{"numer":"33","klasa":"droga gĹ‚Ăłwna","kat":"krajowa"},"geometry":{"type":"LineString","coordinates":[[16.68806,50.11611],[16.68812,50.11606]]}},{"type":"Feature","properties":{"numer":"33","klasa":"droga gĹ‚Ăłwna","kat":"krajowa"},"geometry":{"type":"LineString","coordinates":[[16.68251,50.11883],[16.68282,50.11889],[16.68401,50.11885],[16.68482,50.11866],[16.68546,50.1184],[16.68603,50.11805],[16.6864,50.1173],[16.68806,50.11611]]}},{"type":"Feature","properties":{"numer":"33","klasa":"droga gĹ‚Ăłwna","kat":"krajowa"},"geometry":{"type":"LineString","coordinates":[[16.67647,50.11769],[16.67672,50.11761]]}},{"type":"Feature","properties":{"numer":"33","klasa":"droga gĹ‚Ăłwna","kat":"krajowa"},"geometry":{"type":"LineString","coordinates":[[16.67672,50.11761],[16.67802,50.11733],[16.67927,50.11718],[16.67965,50.1172],[16.68103,50.11767],[16.68251,50.11883]]}},{"type":"Feature","properties":{"numer":"3272D","klasa":"","kat":"powiatowa"},"geometry":{"type":"LineString","coordinates":[[16.64512,50.11895],[16.64504,50.11897]]}},{"type":"Feature","properties":{"numer":"3272D","klasa":"","kat":"powiatowa"},"geometry":{"type":"LineString","coordinates":[[16.64504,50.11897],[16.64361,50.11896]]}},{"type":"Feature","properties":{"numer":"3272D","klasa":"","kat":"powiatowa"},"geometry":{"type":"LineString","coordinates":[[16.65992,50.12343],[16.65934,50.1231],[16.65918,50.12292],[16.65949,50.12189],[16.65931,50.12115],[16.65706,50.12091],[16.65671,50.12051],[16.65586,50.11992],[16.6555,50.11913],[16.65488,50.11875],[16.65401,50.11856],[16.6524,50.11868],[16.65112,50.11853],[16.64933,50.11878],[16.64855,50.11896],[16.6473,50.11907],[16.64648,50.11905],[16.64571,50.1189],[16.64512,50.11895]]}},{"type":"Feature","properties":{"numer":"33","klasa":"droga gĹ‚Ăłwna","kat":"krajowa"},"geometry":{"type":"LineString","coordinates":[[16.66779,50.12896],[16.66874,50.12776],[16.67075,50.12609],[16.67145,50.12534],[16.67452,50.12129],[16.67484,50.12021],[16.67579,50.11832],[16.67605,50.11792],[16.67647,50.11769]]}},{"type":"Feature","properties":{"numer":"3272D","klasa":"","kat":"powiatowa"},"geometry":{"type":"LineString","coordinates":[[16.65996,50.12345],[16.65992,50.12343]]}},{"type":"Feature","properties":{"numer":"3272D","klasa":"","kat":"powiatowa"},"geometry":{"type":"LineString","coordinates":[[16.66221,50.125],[16.66094,50.1244],[16.66029,50.12368],[16.65996,50.12345]]}},{"type":"Feature","properties":{"numer":"3272D","klasa":"","kat":"powiatowa"},"geometry":{"type":"LineString","coordinates":[[16.66221,50.125],[16.66228,50.12507]]}},{"type":"Feature","properties":{"numer":"3272D","klasa":"","kat":"powiatowa"},"geometry":{"type":"LineString","coordinates":[[16.66228,50.12507],[16.66244,50.12518],[16.66312,50.12534],[16.66342,50.1255]]}},{"type":"Feature","properties":{"numer":"3272D","klasa":"","kat":"powiatowa"},"geometry":{"type":"LineString","coordinates":[[16.66342,50.1255],[16.66388,50.12584]]}},{"type":"Feature","properties":{"numer":"3272D","klasa":"","kat":"powiatowa"},"geometry":{"type":"LineString","coordinates":[[16.66388,50.12584],[16.6647,50.12662],[16.66779,50.12896]]}},{"type":"Feature","properties":{"numer":"3271D","klasa":"","kat":"powiatowa"},"geometry":{"type":"LineString","coordinates":[[16.67268,50.13846],[16.67403,50.13726],[16.67499,50.13676],[16.67592,50.13641],[16.67632,50.13613],[16.67703,50.13541],[16.67756,50.13464],[16.68014,50.12965],[16.6803,50.12905],[16.68046,50.12723],[16.68002,50.12358],[16.68193,50.11933],[16.68209,50.11908],[16.68251,50.11883]]}},{"type":"Feature","properties":{"numer":"33","klasa":"droga gĹ‚Ăłwna","kat":"krajowa"},"geometry":{"type":"LineString","coordinates":[[16.66298,50.14074],[16.66282,50.14014],[16.66285,50.13599],[16.663,50.13526],[16.66483,50.13231],[16.66653,50.13109],[16.66723,50.13013],[16.66779,50.12896]]}},{"type":"Feature","properties":{"numer":"3269D","klasa":"droga zbiorcza","kat":"powiatowa"},"geometry":{"type":"LineString","coordinates":[[16.72778,50.13046],[16.7274,50.13065],[16.72689,50.1306],[16.72566,50.13007],[16.72502,50.12954],[16.72424,50.1291],[16.72381,50.12901],[16.72207,50.12887],[16.72055,50.12826],[16.71929,50.12814],[16.71743,50.12842],[16.71673,50.12845],[16.71617,50.12874],[16.71556,50.13148],[16.71477,50.13318],[16.71203,50.13576],[16.71094,50.13652],[16.71059,50.13758],[16.70935,50.13837],[16.70745,50.13934],[16.70684,50.13952],[16.70555,50.13948],[16.7051,50.13944],[16.70336,50.13903],[16.70246,50.13914],[16.70183,50.13931],[16.69963,50.14046],[16.69597,50.14283],[16.695,50.14332],[16.69109,50.14464],[16.68945,50.14531],[16.68813,50.14539],[16.68561,50.14569],[16.68053,50.14578],[16.67241,50.14662],[16.66989,50.14668],[16.66879,50.14699],[16.66739,50.14761]]}},{"type":"Feature","properties":{"numer":"3269D","klasa":"droga zbiorcza","kat":"powiatowa"},"geometry":{"type":"LineString","coordinates":[[16.72778,50.13046],[16.72787,50.1304]]}},{"type":"Feature","properties":{"numer":"3269D","klasa":"droga zbiorcza","kat":"powiatowa"},"geometry":{"type":"LineString","coordinates":[[16.72787,50.1304],[16.72841,50.13004],[16.72901,50.12978],[16.73105,50.12931],[16.73179,50.12935],[16.73399,50.13007],[16.73465,50.13044],[16.73499,50.13082],[16.73587,50.13238],[16.73584,50.13271]]}},{"type":"Feature","properties":{"numer":"3269D","klasa":"droga zbiorcza","kat":"powiatowa"},"geometry":{"type":"LineString","coordinates":[[16.73584,50.13271],[16.73576,50.13282]]}},{"type":"Feature","properties":{"numer":"3269D","klasa":"droga zbiorcza","kat":"powiatowa"},"geometry":{"type":"LineString","coordinates":[[16.73576,50.13282],[16.73573,50.13312],[16.7363,50.13397],[16.73693,50.13541],[16.73736,50.13723],[16.73773,50.13776],[16.73858,50.13874],[16.74042,50.13989],[16.74149,50.14128],[16.74235,50.14172],[16.74309,50.14232],[16.74327,50.14265]]}},{"type":"Feature","properties":{"numer":"3270D","klasa":"","kat":"powiatowa"},"geometry":{"type":"LineString","coordinates":[[16.74348,50.14266],[16.74327,50.14265]]}},{"type":"Feature","properties":{"numer":"3270D","klasa":"","kat":"powiatowa"},"geometry":{"type":"LineString","coordinates":[[16.74367,50.14266],[16.74348,50.14266]]}},{"type":"Feature","properties":{"numer":"3270D","klasa":"","kat":"powiatowa"},"geometry":{"type":"LineString","coordinates":[[16.74367,50.14266],[16.74528,50.1427],[16.74606,50.14282],[16.74776,50.14274],[16.74841,50.14262],[16.74901,50.14234],[16.74924,50.14232],[16.75,50.14261],[16.75134,50.14289],[16.75288,50.14301],[16.7536,50.14327],[16.75425,50.14334],[16.75607,50.14327],[16.75626,50.1434],[16.75619,50.14389],[16.75636,50.14427],[16.75551,50.14516],[16.75547,50.14644],[16.75636,50.14743]]}},{"type":"Feature","properties":{"numer":"3269D","klasa":"droga zbiorcza","kat":"powiatowa"},"geometry":{"type":"LineString","coordinates":[[16.74327,50.14265],[16.74361,50.14355],[16.74415,50.14427],[16.74494,50.14501],[16.74508,50.1453],[16.74508,50.14601],[16.74527,50.14715],[16.74456,50.14801],[16.74436,50.14971]]}},{"type":"Feature","properties":{"numer":"3269D","klasa":"droga zbiorcza","kat":"powiatowa"},"geometry":{"type":"LineString","coordinates":[[16.74436,50.14971],[16.74433,50.14978]]}},{"type":"Feature","properties":{"numer":"119979D","klasa":"droga gĹ‚Ăłwna","kat":"powiatowa"},"geometry":{"type":"LineString","coordinates":[[16.71658,50.15163],[16.71665,50.1516]]}},{"type":"Feature","properties":{"numer":"33","klasa":"droga gĹ‚Ăłwna","kat":"krajowa"},"geometry":{"type":"LineString","coordinates":[[16.66303,50.14083],[16.66298,50.14074]]}},{"type":"Feature","properties":{"numer":"33","klasa":"droga gĹ‚Ăłwna","kat":"krajowa"},"geometry":{"type":"LineString","coordinates":[[16.66299,50.14284],[16.66296,50.14205],[16.66319,50.14131],[16.66303,50.14083]]}},{"type":"Feature","properties":{"numer":"3271D","klasa":"","kat":"powiatowa"},"geometry":{"type":"LineString","coordinates":[[16.66577,50.14623],[16.66666,50.14551],[16.6667,50.14494],[16.6678,50.14407],[16.66974,50.14126],[16.67268,50.13846]]}},{"type":"Feature","properties":{"numer":"3274D","klasa":"droga zbiorcza","kat":"powiatowa"},"geometry":{"type":"LineString","coordinates":[[16.66205,50.14319],[16.6612,50.14276],[16.65699,50.14161]]}},{"type":"Feature","properties":{"numer":"3274D","klasa":"droga zbiorcza","kat":"powiatowa"},"geometry":{"type":"LineString","coordinates":[[16.66216,50.14328],[16.66205,50.14319]]}},{"type":"Feature","properties":{"numer":"33","klasa":"droga gĹ‚Ăłwna","kat":"krajowa"},"geometry":{"type":"LineString","coordinates":[[16.66359,50.14441],[16.66348,50.14384],[16.66299,50.14284]]}},{"type":"Feature","properties":{"numer":"3274D","klasa":"droga zbiorcza","kat":"powiatowa"},"geometry":{"type":"LineString","coordinates":[[16.66333,50.14444],[16.6627,50.14372],[16.66216,50.14328]]}},{"type":"Feature","properties":{"numer":"3274D","klasa":"droga zbiorcza","kat":"powiatowa"},"geometry":{"type":"LineString","coordinates":[[16.66333,50.14444],[16.66359,50.14441]]}},{"type":"Feature","properties":{"numer":"33","klasa":"droga gĹ‚Ăłwna","kat":"krajowa"},"geometry":{"type":"LineString","coordinates":[[16.66367,50.14472],[16.66359,50.14441]]}},{"type":"Feature","properties":{"numer":"3274D","klasa":"droga zbiorcza","kat":"powiatowa"},"geometry":{"type":"LineString","coordinates":[[16.66367,50.14472],[16.66333,50.14444]]}},{"type":"Feature","properties":{"numer":"33","klasa":"droga gĹ‚Ăłwna","kat":"krajowa"},"geometry":{"type":"LineString","coordinates":[[16.66577,50.14623],[16.66428,50.14523],[16.66367,50.14472]]}},{"type":"Feature","properties":{"numer":"33","klasa":"droga gĹ‚Ăłwna","kat":"krajowa"},"geometry":{"type":"LineString","coordinates":[[16.66704,50.14775],[16.66616,50.14653],[16.66577,50.14623]]}},{"type":"Feature","properties":{"numer":"3269D","klasa":"droga zbiorcza","kat":"powiatowa"},"geometry":{"type":"LineString","coordinates":[[16.66739,50.14761],[16.66704,50.14775]]}},{"type":"Feature","properties":{"numer":"33","klasa":"droga gĹ‚Ăłwna","kat":"krajowa"},"geometry":{"type":"LineString","coordinates":[[16.66742,50.14935],[16.66738,50.14852],[16.66704,50.14775]]}},{"type":"Feature","properties":{"numer":"33","klasa":"droga gĹ‚Ăłwna","kat":"krajowa"},"geometry":{"type":"LineString","coordinates":[[16.66742,50.14948],[16.66742,50.14935]]}},{"type":"Feature","properties":{"numer":"33","klasa":"droga gĹ‚Ăłwna","kat":"krajowa"},"geometry":{"type":"LineString","coordinates":[[16.66791,50.15088],[16.66742,50.14948]]}},{"type":"Feature","properties":{"numer":"33","klasa":"droga gĹ‚Ăłwna","kat":"krajowa"},"geometry":{"type":"LineString","coordinates":[[16.66875,50.15139],[16.66859,50.15122],[16.66791,50.15088]]}},{"type":"Feature","properties":{"numer":"389","klasa":"","kat":"wojewodzka"},"geometry":{"type":"LineString","coordinates":[[16.66434,50.15553],[16.66494,50.15533],[16.66583,50.15444],[16.6664,50.15372],[16.66707,50.15318],[16.66709,50.15209],[16.66791,50.15088]]}},{"type":"Feature","properties":{"numer":"33","klasa":"droga gĹ‚Ăłwna","kat":"krajowa"},"geometry":{"type":"LineString","coordinates":[[16.67085,50.15788],[16.67113,50.15655],[16.67094,50.1552],[16.67022,50.15342],[16.66875,50.15139]]}},{"type":"Feature","properties":{"numer":"389","klasa":"","kat":"wojewodzka"},"geometry":{"type":"LineString","coordinates":[[16.66417,50.15557],[16.66434,50.15553]]}},{"type":"Feature","properties":{"numer":"3269D","klasa":"droga zbiorcza","kat":"powiatowa"},"geometry":{"type":"LineString","coordinates":[[16.74433,50.14978],[16.74343,50.1518],[16.74344,50.15289],[16.74377,50.15337],[16.74451,50.15382]]}},{"type":"Feature","properties":{"numer":"119979D","klasa":"droga gĹ‚Ăłwna","kat":"powiatowa"},"geometry":{"type":"LineString","coordinates":[[16.71475,50.1523],[16.71538,50.15214],[16.71658,50.15163]]}},{"type":"Feature","properties":{"numer":"119979D","klasa":"droga gĹ‚Ăłwna","kat":"powiatowa"},"geometry":{"type":"LineString","coordinates":[[16.71463,50.15235],[16.71475,50.1523]]}},{"type":"Feature","properties":{"numer":"119979D","klasa":"droga gĹ‚Ăłwna","kat":"powiatowa"},"geometry":{"type":"LineString","coordinates":[[16.71356,50.15278],[16.71463,50.15235]]}},{"type":"Feature","properties":{"numer":"119979D","klasa":"droga gĹ‚Ăłwna","kat":"powiatowa"},"geometry":{"type":"LineString","coordinates":[[16.71115,50.15387],[16.71153,50.15376],[16.71252,50.15321],[16.71356,50.15278]]}},{"type":"Feature","properties":{"numer":"119979D","klasa":"droga gĹ‚Ăłwna","kat":"powiatowa"},"geometry":{"type":"LineString","coordinates":[[16.71089,50.15393],[16.71115,50.15387]]}},{"type":"Feature","properties":{"numer":"119979D","klasa":"droga gĹ‚Ăłwna","kat":"powiatowa"},"geometry":{"type":"LineString","coordinates":[[16.71079,50.15395],[16.71089,50.15393]]}},{"type":"Feature","properties":{"numer":"3269D","klasa":"droga zbiorcza","kat":"powiatowa"},"geometry":{"type":"LineString","coordinates":[[16.74453,50.15394],[16.74454,50.15399]]}},{"type":"Feature","properties":{"numer":"3270D","klasa":"","kat":"powiatowa"},"geometry":{"type":"LineString","coordinates":[[16.75636,50.14743],[16.75638,50.14777],[16.7561,50.14807],[16.75467,50.14858],[16.75394,50.14919],[16.75323,50.15083],[16.75305,50.1517],[16.75249,50.15231],[16.75242,50.15259],[16.75204,50.15302],[16.75181,50.15346],[16.75161,50.15452],[16.75205,50.15623],[16.7521,50.15688],[16.75192,50.15702],[16.75069,50.15742],[16.75055,50.15762],[16.75043,50.15815],[16.75059,50.1585],[16.75196,50.15969],[16.75201,50.16041],[16.75163,50.16056]]}},{"type":"Feature","properties":{"numer":"119979D","klasa":"droga gĹ‚Ăłwna","kat":"powiatowa"},"geometry":{"type":"LineString","coordinates":[[16.71009,50.15417],[16.71079,50.15395]]}},{"type":"Feature","properties":{"numer":"119979D","klasa":"droga gĹ‚Ăłwna","kat":"powiatowa"},"geometry":{"type":"LineString","coordinates":[[16.70836,50.1546],[16.70903,50.15451],[16.71009,50.15417]]}},{"type":"Feature","properties":{"numer":"119979D","klasa":"droga gĹ‚Ăłwna","kat":"powiatowa"},"geometry":{"type":"LineString","coordinates":[[16.70703,50.1551],[16.70836,50.1546]]}},{"type":"Feature","properties":{"numer":"3269D","klasa":"droga zbiorcza","kat":"powiatowa"},"geometry":{"type":"LineString","coordinates":[[16.74454,50.15399],[16.74457,50.15468],[16.74515,50.15574]]}},{"type":"Feature","properties":{"numer":"119979D","klasa":"droga gĹ‚Ăłwna","kat":"powiatowa"},"geometry":{"type":"LineString","coordinates":[[16.70675,50.15511],[16.70703,50.1551]]}},{"type":"Feature","properties":{"numer":"119979D","klasa":"droga gĹ‚Ăłwna","kat":"powiatowa"},"geometry":{"type":"LineString","coordinates":[[16.70557,50.15531],[16.70675,50.15511]]}},{"type":"Feature","properties":{"numer":"119979D","klasa":"droga gĹ‚Ăłwna","kat":"powiatowa"},"geometry":{"type":"LineString","coordinates":[[16.70476,50.15544],[16.70557,50.15531]]}},{"type":"Feature","properties":{"numer":"119979D","klasa":"droga gĹ‚Ăłwna","kat":"powiatowa"},"geometry":{"type":"LineString","coordinates":[[16.70402,50.15576],[16.70476,50.15544]]}},{"type":"Feature","properties":{"numer":"3269D","klasa":"droga zbiorcza","kat":"powiatowa"},"geometry":{"type":"LineString","coordinates":[[16.74515,50.15574],[16.74516,50.15581]]}},{"type":"Feature","properties":{"numer":"119979D","klasa":"droga gĹ‚Ăłwna","kat":"powiatowa"},"geometry":{"type":"LineString","coordinates":[[16.70381,50.15599],[16.70402,50.15576]]}},{"type":"Feature","properties":{"numer":"119979D","klasa":"droga gĹ‚Ăłwna","kat":"powiatowa"},"geometry":{"type":"LineString","coordinates":[[16.70277,50.15678],[16.70381,50.15599]]}},{"type":"Feature","properties":{"numer":"389","klasa":"","kat":"wojewodzka"},"geometry":{"type":"LineString","coordinates":[[16.65817,50.15902],[16.65959,50.15815],[16.66077,50.15697],[16.66121,50.1567],[16.66185,50.15646],[16.66281,50.15564],[16.66308,50.15553],[16.66417,50.15557]]}},{"type":"Feature","properties":{"numer":"119979D","klasa":"droga gĹ‚Ăłwna","kat":"powiatowa"},"geometry":{"type":"LineString","coordinates":[[16.70102,50.15866],[16.70169,50.15791]]}},{"type":"Feature","properties":{"numer":"3233D","klasa":"droga zbiorcza","kat":"powiatowa"},"geometry":{"type":"LineString","coordinates":[[16.67085,50.15788],[16.6716,50.15782],[16.67773,50.15682],[16.68267,50.15731],[16.68511,50.15727],[16.68557,50.15732],[16.68662,50.15758],[16.69055,50.15919],[16.69258,50.16117]]}},{"type":"Feature","properties":{"numer":"119979D","klasa":"droga gĹ‚Ăłwna","kat":"powiatowa"},"geometry":{"type":"LineString","coordinates":[[16.69974,50.1595],[16.70102,50.15866]]}},{"type":"Feature","properties":{"numer":"389","klasa":"","kat":"wojewodzka"},"geometry":{"type":"LineString","coordinates":[[16.6516,50.16009],[16.65266,50.1596],[16.65303,50.15951],[16.65459,50.15969],[16.65647,50.16005],[16.65817,50.15902]]}},{"type":"Feature","properties":{"numer":"119979D","klasa":"droga gĹ‚Ăłwna","kat":"powiatowa"},"geometry":{"type":"LineString","coordinates":[[16.69916,50.15962],[16.69974,50.1595]]}},{"type":"Feature","properties":{"numer":"119979D","klasa":"droga gĹ‚Ăłwna","kat":"powiatowa"},"geometry":{"type":"LineString","coordinates":[[16.69908,50.15962],[16.69916,50.15962]]}},{"type":"Feature","properties":{"numer":"119979D","klasa":"droga gĹ‚Ăłwna","kat":"powiatowa"},"geometry":{"type":"LineString","coordinates":[[16.69889,50.15965],[16.69908,50.15962]]}},{"type":"Feature","properties":{"numer":"119979D","klasa":"droga gĹ‚Ăłwna","kat":"powiatowa"},"geometry":{"type":"LineString","coordinates":[[16.69769,50.1599],[16.69889,50.15965]]}},{"type":"Feature","properties":{"numer":"119979D","klasa":"droga gĹ‚Ăłwna","kat":"powiatowa"},"geometry":{"type":"LineString","coordinates":[[16.69631,50.16022],[16.69689,50.16004],[16.69769,50.1599]]}},{"type":"Feature","properties":{"numer":"389","klasa":"","kat":"wojewodzka"},"geometry":{"type":"LineString","coordinates":[[16.6516,50.16009],[16.65142,50.16008]]}},{"type":"Feature","properties":{"numer":"119979D","klasa":"droga gĹ‚Ăłwna","kat":"powiatowa"},"geometry":{"type":"LineString","coordinates":[[16.69613,50.16026],[16.69631,50.16022]]}},{"type":"Feature","properties":{"numer":"119979D","klasa":"droga gĹ‚Ăłwna","kat":"powiatowa"},"geometry":{"type":"LineString","coordinates":[[16.69407,50.16069],[16.69613,50.16026]]}},{"type":"Feature","properties":{"numer":"119979D","klasa":"droga gĹ‚Ăłwna","kat":"powiatowa"},"geometry":{"type":"LineString","coordinates":[[16.694,50.16072],[16.69407,50.16069]]}},{"type":"Feature","properties":{"numer":"119979D","klasa":"droga gĹ‚Ăłwna","kat":"powiatowa"},"geometry":{"type":"LineString","coordinates":[[16.69393,50.16073],[16.694,50.16072]]}},{"type":"Feature","properties":{"numer":"119979D","klasa":"droga gĹ‚Ăłwna","kat":"powiatowa"},"geometry":{"type":"LineString","coordinates":[[16.6927,50.16127],[16.69348,50.16084],[16.69393,50.16073]]}},{"type":"Feature","properties":{"numer":"3233D","klasa":"droga zbiorcza","kat":"powiatowa"},"geometry":{"type":"LineString","coordinates":[[16.69258,50.16117],[16.69263,50.16122]]}},{"type":"Feature","properties":{"numer":"3233D","klasa":"droga zbiorcza","kat":"powiatowa"},"geometry":{"type":"LineString","coordinates":[[16.69263,50.16122],[16.6927,50.16127]]}},{"type":"Feature","properties":{"numer":"3273D","klasa":"","kat":"powiatowa"},"geometry":{"type":"LineString","coordinates":[[16.65817,50.15902],[16.65821,50.15917],[16.65784,50.16047],[16.65739,50.16153],[16.6581,50.16247],[16.65805,50.16294],[16.65841,50.16368],[16.65869,50.16397],[16.65942,50.16516],[16.65947,50.16561],[16.65931,50.16689],[16.65959,50.16777]]}},{"type":"Feature","properties":{"numer":"3233D","klasa":"droga zbiorcza","kat":"powiatowa"},"geometry":{"type":"LineString","coordinates":[[16.6927,50.16127],[16.69313,50.16162],[16.69516,50.16382],[16.69876,50.16643]]}},{"type":"Feature","properties":{"numer":"3274D","klasa":"droga zbiorcza","kat":"powiatowa"},"geometry":{"type":"LineString","coordinates":[[16.65699,50.14161],[16.65533,50.14104],[16.65496,50.1406],[16.65418,50.14042],[16.65367,50.14099],[16.65346,50.14147],[16.65384,50.14192],[16.65391,50.14214],[16.65414,50.14408],[16.654,50.14436],[16.65341,50.14457],[16.65073,50.14492],[16.64785,50.14478],[16.64699,50.14518],[16.6468,50.14514],[16.64665,50.14471],[16.64648,50.14457],[16.64464,50.14475],[16.64253,50.14444],[16.64223,50.14425],[16.64141,50.14296],[16.64098,50.14262],[16.64058,50.14249],[16.63942,50.14253],[16.63901,50.143],[16.63868,50.14317],[16.63661,50.14398],[16.63459,50.14448],[16.6346,50.14468],[16.63542,50.14497],[16.63656,50.14479],[16.63729,50.14488],[16.63762,50.14513],[16.63763,50.14541],[16.63542,50.14727],[16.63393,50.14802],[16.63333,50.14862],[16.63261,50.14913],[16.63179,50.15016],[16.62874,50.15115],[16.62609,50.15095],[16.62447,50.15106],[16.61716,50.15091],[16.61408,50.15091],[16.61351,50.15081]]}},{"type":"Feature","properties":{"numer":"3274D","klasa":"droga zbiorcza","kat":"powiatowa"},"geometry":{"type":"LineString","coordinates":[[16.60453,50.14868],[16.60633,50.14839],[16.60741,50.14856],[16.60802,50.14878],[16.60996,50.14976],[16.61351,50.15081]]}},{"type":"Feature","properties":{"numer":"3274D","klasa":"droga zbiorcza","kat":"powiatowa"},"geometry":{"type":"LineString","coordinates":[[16.58015,50.15574],[16.58026,50.15563],[16.5808,50.15547],[16.58267,50.15515],[16.58383,50.15459],[16.58519,50.15359],[16.58598,50.1524],[16.58595,50.15179],[16.58561,50.15136],[16.58337,50.1499],[16.58253,50.14925],[16.58228,50.14896],[16.58249,50.14828],[16.5836,50.14698],[16.58436,50.14642],[16.58504,50.14614],[16.58573,50.14599],[16.5865,50.14597],[16.58844,50.14627],[16.5895,50.14635],[16.59078,50.14684],[16.59159,50.14726],[16.59407,50.148],[16.59478,50.14794],[16.59555,50.14803],[16.59686,50.14796],[16.5979,50.14801],[16.59902,50.14792],[16.60224,50.14865],[16.60453,50.14868]]}},{"type":"Feature","properties":{"numer":"3275D","klasa":"droga zbiorcza","kat":"powiatowa"},"geometry":{"type":"LineString","coordinates":[[16.61851,50.16703],[16.61888,50.16597],[16.61775,50.16499],[16.61728,50.16475],[16.61573,50.16462],[16.61415,50.16412],[16.61357,50.16426],[16.61338,50.16443],[16.61343,50.16501],[16.61325,50.16585],[16.61255,50.16647],[16.61129,50.16692],[16.61003,50.16723],[16.60883,50.16736],[16.60827,50.16734],[16.60804,50.16714],[16.60779,50.16631],[16.60794,50.16491],[16.60818,50.16427],[16.60807,50.16413],[16.60599,50.16422],[16.60553,50.16417],[16.60196,50.16189],[16.60115,50.1616],[16.59453,50.16141],[16.59371,50.16151],[16.59353,50.16131],[16.59366,50.16066],[16.59342,50.1605],[16.59256,50.1606],[16.59016,50.16069],[16.5897,50.16053],[16.58819,50.15959],[16.58421,50.15929],[16.58382,50.15908],[16.58133,50.15601],[16.58108,50.15588],[16.58015,50.15574]]}},{"type":"Feature","properties":{"numer":"389","klasa":"","kat":"wojewodzka"},"geometry":{"type":"LineString","coordinates":[[16.65142,50.16008],[16.65114,50.1601],[16.6509,50.16028],[16.65112,50.16127],[16.65104,50.16143],[16.65079,50.16147],[16.65055,50.16131],[16.65034,50.16077],[16.65,50.16048],[16.64854,50.15976],[16.64826,50.15969],[16.64797,50.15973],[16.64801,50.16062],[16.64742,50.16303],[16.64727,50.16317],[16.64705,50.16306],[16.64499,50.16105],[16.64471,50.16087],[16.64446,50.16086],[16.64457,50.16148],[16.6444,50.16262],[16.64418,50.16327],[16.64355,50.16442],[16.64239,50.16521],[16.64152,50.16681],[16.64036,50.16772],[16.64031,50.16908],[16.64,50.17033],[16.6401,50.17143],[16.63994,50.17307],[16.64013,50.17371],[16.64051,50.17406],[16.64048,50.17418],[16.64031,50.17423],[16.64008,50.17418],[16.6375,50.17267],[16.63639,50.17138],[16.63602,50.17122],[16.63565,50.17126],[16.63389,50.17197],[16.63271,50.17288]]}},{"type":"Feature","properties":{"numer":"3275D","klasa":"droga zbiorcza","kat":"powiatowa"},"geometry":{"type":"LineString","coordinates":[[16.61858,50.1671],[16.61851,50.16703]]}},{"type":"Feature","properties":{"numer":"3275D","klasa":"droga zbiorcza","kat":"powiatowa"},"geometry":{"type":"LineString","coordinates":[[16.63271,50.17288],[16.63206,50.17251],[16.63145,50.17196],[16.63104,50.17171],[16.62841,50.17072],[16.62715,50.16981],[16.62638,50.16915],[16.6258,50.16886],[16.62447,50.16785],[16.62288,50.1669],[16.62163,50.16659],[16.62085,50.16626],[16.6201,50.16622],[16.61976,50.1663],[16.61892,50.16704],[16.61858,50.1671]]}},{"type":"Feature","properties":{"numer":"389","klasa":"","kat":"wojewodzka"},"geometry":{"type":"LineString","coordinates":[[16.63271,50.17288],[16.63265,50.17308],[16.63334,50.17474],[16.6333,50.17507]]}},{"type":"Feature","properties":{"numer":"389","klasa":"","kat":"wojewodzka"},"geometry":{"type":"LineString","coordinates":[[16.6333,50.17507],[16.63329,50.1751]]}},{"type":"Feature","properties":{"numer":"389","klasa":"","kat":"wojewodzka"},"geometry":{"type":"LineString","coordinates":[[16.63329,50.1751],[16.63329,50.17533],[16.63357,50.17603],[16.63353,50.17749],[16.63406,50.17881],[16.63415,50.18038],[16.63318,50.18254],[16.63233,50.1836],[16.63317,50.18482],[16.63334,50.18523],[16.63327,50.18715],[16.63299,50.18842],[16.63376,50.18993],[16.63451,50.19058],[16.635,50.19125],[16.63646,50.19288],[16.63705,50.19374]]}},{"type":"Feature","properties":{"numer":"3233D","klasa":"droga zbiorcza","kat":"powiatowa"},"geometry":{"type":"LineString","coordinates":[[16.69876,50.16643],[16.69886,50.1665]]}},{"type":"Feature","properties":{"numer":"3273D","klasa":"","kat":"powiatowa"},"geometry":{"type":"LineString","coordinates":[[16.65959,50.16777],[16.65964,50.16787]]}},{"type":"Feature","properties":{"numer":"33","klasa":"droga gĹ‚Ăłwna","kat":"krajowa"},"geometry":{"type":"LineString","coordinates":[[16.66951,50.17786],[16.6698,50.17379],[16.66972,50.17177],[16.6685,50.16939],[16.66824,50.16701],[16.6685,50.16522],[16.67043,50.15958],[16.67085,50.15788]]}},{"type":"Feature","properties":{"numer":"3273D","klasa":"","kat":"powiatowa"},"geometry":{"type":"LineString","coordinates":[[16.65964,50.16787],[16.66015,50.16927],[16.66139,50.16989],[16.66228,50.17116],[16.66295,50.17167],[16.66359,50.172]]}},{"type":"Feature","properties":{"numer":"3273D","klasa":"","kat":"powiatowa"},"geometry":{"type":"LineString","coordinates":[[16.66359,50.172],[16.66371,50.17207]]}},{"type":"Feature","properties":{"numer":"3273D","klasa":"","kat":"powiatowa"},"geometry":{"type":"LineString","coordinates":[[16.66371,50.17207],[16.6642,50.1724],[16.66533,50.17284],[16.66658,50.17368],[16.66743,50.17448],[16.66767,50.17481],[16.66799,50.17644]]}},{"type":"Feature","properties":{"numer":"3273D","klasa":"","kat":"powiatowa"},"geometry":{"type":"LineString","coordinates":[[16.66799,50.17644],[16.66801,50.17652]]}},{"type":"Feature","properties":{"numer":"3273D","klasa":"","kat":"powiatowa"},"geometry":{"type":"LineString","coordinates":[[16.66801,50.17652],[16.66829,50.17736],[16.66889,50.17773],[16.66951,50.17786]]}},{"type":"Feature","properties":{"numer":"33","klasa":"droga gĹ‚Ăłwna","kat":"krajowa"},"geometry":{"type":"LineString","coordinates":[[16.6695,50.17794],[16.66951,50.17786]]}},{"type":"Feature","properties":{"numer":"33","klasa":"droga gĹ‚Ăłwna","kat":"krajowa"},"geometry":{"type":"LineString","coordinates":[[16.66949,50.17805],[16.6695,50.17794]]}},{"type":"Feature","properties":{"numer":"119979D","klasa":"droga gĹ‚Ăłwna","kat":"powiatowa"},"geometry":{"type":"LineString","coordinates":[[16.70223,50.15734],[16.70277,50.15678]]}},{"type":"Feature","properties":{"numer":"119979D","klasa":"droga gĹ‚Ăłwna","kat":"powiatowa"},"geometry":{"type":"LineString","coordinates":[[16.70169,50.15791],[16.70223,50.15734]]}},{"type":"Feature","properties":{"numer":"3269D","klasa":"droga zbiorcza","kat":"powiatowa"},"geometry":{"type":"LineString","coordinates":[[16.75139,50.16065],[16.74989,50.15972],[16.74953,50.15938],[16.74849,50.15924],[16.74755,50.15898],[16.74734,50.15846],[16.74741,50.15812],[16.74725,50.15756],[16.74695,50.15729],[16.74635,50.15696],[16.74516,50.15581]]}},{"type":"Feature","properties":{"numer":"3270D","klasa":"","kat":"powiatowa"},"geometry":{"type":"LineString","coordinates":[[16.75163,50.16056],[16.75139,50.16065]]}},{"type":"Feature","properties":{"numer":"3269D","klasa":"droga zbiorcza","kat":"powiatowa"},"geometry":{"type":"LineString","coordinates":[[16.77433,50.17412],[16.77426,50.17391],[16.77389,50.17348],[16.77363,50.17287],[16.77299,50.17267],[16.77175,50.17265],[16.7714,50.17254],[16.77077,50.17169],[16.77032,50.17139],[16.76994,50.17098],[16.76945,50.17077],[16.76871,50.1703],[16.76706,50.16972],[16.76587,50.16947],[16.76538,50.16945],[16.76445,50.16917],[16.76364,50.16877],[16.76189,50.16859],[16.76176,50.16844],[16.76205,50.16804],[16.76193,50.16763],[16.76014,50.16653],[16.75997,50.16635],[16.75988,50.16599],[16.75946,50.16555],[16.759,50.1652],[16.75813,50.16479],[16.75741,50.16454],[16.75632,50.1644],[16.75557,50.16345],[16.75526,50.16322],[16.75469,50.16294],[16.75385,50.16276],[16.7526,50.16196],[16.75139,50.16065]]}},{"type":"Feature","properties":{"numer":"3269D","klasa":"droga zbiorcza","kat":"powiatowa"},"geometry":{"type":"LineString","coordinates":[[16.73633,50.17198],[16.73638,50.17206]]}},{"type":"Feature","properties":{"numer":"3233D","klasa":"droga zbiorcza","kat":"powiatowa"},"geometry":{"type":"LineString","coordinates":[[16.69886,50.1665],[16.701,50.16809],[16.70203,50.17056],[16.70274,50.1716],[16.70314,50.17196],[16.704,50.17254],[16.71329,50.17765]]}},{"type":"Feature","properties":{"numer":"3269D","klasa":"droga zbiorcza","kat":"powiatowa"},"geometry":{"type":"LineString","coordinates":[[16.73633,50.17198],[16.73604,50.17178],[16.73507,50.17158],[16.73322,50.17151],[16.73139,50.17125],[16.73028,50.17122],[16.72932,50.17107],[16.72659,50.1711],[16.7244,50.17146],[16.72274,50.17195],[16.72032,50.17254],[16.71871,50.17312],[16.71729,50.17409],[16.71621,50.17453],[16.71413,50.1765],[16.7137,50.17713]]}},{"type":"Feature","properties":{"numer":"3269D","klasa":"droga zbiorcza","kat":"powiatowa"},"geometry":{"type":"LineString","coordinates":[[16.73638,50.17206],[16.73665,50.17234],[16.73774,50.17246],[16.73862,50.17245],[16.73985,50.17215],[16.74085,50.17218],[16.74181,50.17238],[16.74269,50.17281],[16.7435,50.17309],[16.74367,50.17323],[16.74388,50.17366],[16.7449,50.1746],[16.74564,50.17483],[16.74634,50.17484],[16.7479,50.17439],[16.74868,50.17433],[16.75099,50.17453],[16.75178,50.17484],[16.75291,50.17509],[16.75311,50.17522],[16.75339,50.17574],[16.75313,50.17684],[16.75324,50.17716],[16.75345,50.17737],[16.75381,50.17748],[16.75533,50.17767],[16.75649,50.17792],[16.75738,50.17846],[16.75871,50.17905],[16.76226,50.1799],[16.7632,50.18045],[16.76359,50.18039]]}},{"type":"Feature","properties":{"numer":"3269D","klasa":"droga zbiorcza","kat":"powiatowa"},"geometry":{"type":"LineString","coordinates":[[16.7137,50.17713],[16.71406,50.17724]]}},{"type":"Feature","properties":{"numer":"3269D","klasa":"droga zbiorcza","kat":"powiatowa"},"geometry":{"type":"LineString","coordinates":[[16.71406,50.17724],[16.71412,50.17726]]}},{"type":"Feature","properties":{"numer":"3269D","klasa":"droga zbiorcza","kat":"powiatowa"},"geometry":{"type":"LineString","coordinates":[[16.76364,50.18037],[16.7651,50.17998],[16.76708,50.17967],[16.76838,50.17904],[16.76958,50.17825],[16.77093,50.17679],[16.7714,50.17616],[16.7717,50.17499],[16.77189,50.17474],[16.77225,50.17453],[16.77277,50.17436],[16.77407,50.17429],[16.77431,50.17417]]}},{"type":"Feature","properties":{"numer":"3233D","klasa":"droga zbiorcza","kat":"powiatowa"},"geometry":{"type":"LineString","coordinates":[[16.71329,50.17765],[16.7137,50.17713]]}},{"type":"Feature","properties":{"numer":"3233D","klasa":"droga zbiorcza","kat":"powiatowa"},"geometry":{"type":"LineString","coordinates":[[16.71329,50.17765],[16.71204,50.17864],[16.71074,50.17937],[16.71059,50.17968]]}},{"type":"Feature","properties":{"numer":"3233D","klasa":"droga zbiorcza","kat":"powiatowa"},"geometry":{"type":"LineString","coordinates":[[16.71058,50.17979],[16.71059,50.17968]]}},{"type":"Feature","properties":{"numer":"3269D","klasa":"droga zbiorcza","kat":"powiatowa"},"geometry":{"type":"LineString","coordinates":[[16.76359,50.18039],[16.76364,50.18037]]}},{"type":"Feature","properties":{"numer":"3233D","klasa":"droga zbiorcza","kat":"powiatowa"},"geometry":{"type":"LineString","coordinates":[[16.7085,50.19323],[16.70886,50.19264],[16.70957,50.19062],[16.70992,50.1886],[16.71028,50.18593],[16.71043,50.18053],[16.71058,50.17979]]}},{"type":"Feature","properties":{"numer":"3233D","klasa":"droga zbiorcza","kat":"powiatowa"},"geometry":{"type":"LineString","coordinates":[[16.70846,50.19328],[16.7085,50.19323]]}},{"type":"Feature","properties":{"numer":"3233D","klasa":"droga zbiorcza","kat":"powiatowa"},"geometry":{"type":"LineString","coordinates":[[16.70403,50.19356],[16.70413,50.19357]]}},{"type":"Feature","properties":{"numer":"3233D","klasa":"droga zbiorcza","kat":"powiatowa"},"geometry":{"type":"LineString","coordinates":[[16.70413,50.19357],[16.7074,50.19388],[16.70823,50.19358],[16.70846,50.19328]]}},{"type":"Feature","properties":{"numer":"33","klasa":"droga gĹ‚Ăłwna","kat":"krajowa"},"geometry":{"type":"LineString","coordinates":[[16.67145,50.18718],[16.67143,50.18659],[16.67115,50.18603],[16.66907,50.18405],[16.66851,50.18325],[16.66818,50.18251],[16.66826,50.18182],[16.6692,50.18017],[16.66939,50.17928],[16.66949,50.17805]]}},{"type":"Feature","properties":{"numer":"33","klasa":"droga gĹ‚Ăłwna","kat":"krajowa"},"geometry":{"type":"LineString","coordinates":[[16.67143,50.18732],[16.67145,50.18718]]}},{"type":"Feature","properties":{"numer":"33","klasa":"droga gĹ‚Ăłwna","kat":"krajowa"},"geometry":{"type":"LineString","coordinates":[[16.67055,50.19041],[16.67061,50.18967],[16.67125,50.18834],[16.67143,50.18732]]}},{"type":"Feature","properties":{"numer":"33","klasa":"droga gĹ‚Ăłwna","kat":"krajowa"},"geometry":{"type":"LineString","coordinates":[[16.67055,50.19057],[16.67055,50.19041]]}},{"type":"Feature","properties":{"numer":"33","klasa":"droga gĹ‚Ăłwna","kat":"krajowa"},"geometry":{"type":"LineString","coordinates":[[16.67055,50.19057],[16.67052,50.19127],[16.6702,50.19191]]}},{"type":"Feature","properties":{"numer":"3233D","klasa":"droga zbiorcza","kat":"powiatowa"},"geometry":{"type":"LineString","coordinates":[[16.6702,50.19191],[16.67402,50.19221],[16.67617,50.19227],[16.67737,50.19245],[16.67962,50.1929],[16.68074,50.19329],[16.68229,50.19402],[16.68328,50.19423],[16.68395,50.19425],[16.68487,50.19412],[16.68766,50.19314],[16.68881,50.19293],[16.69102,50.19302],[16.69281,50.19343],[16.69603,50.19401],[16.69643,50.19406],[16.69693,50.19397]]}},{"type":"Feature","properties":{"numer":"3235D","klasa":"droga zbiorcza","kat":"powiatowa"},"geometry":{"type":"LineString","coordinates":[[16.6682,50.19461],[16.67002,50.19205],[16.6702,50.19191]]}},{"type":"Feature","properties":{"numer":"3233D","klasa":"droga zbiorcza","kat":"powiatowa"},"geometry":{"type":"LineString","coordinates":[[16.69701,50.19394],[16.69756,50.19377],[16.70199,50.19384],[16.70331,50.1936],[16.70403,50.19356]]}},{"type":"Feature","properties":{"numer":"3233D","klasa":"droga zbiorcza","kat":"powiatowa"},"geometry":{"type":"LineString","coordinates":[[16.69693,50.19397],[16.69701,50.19394]]}},{"type":"Feature","properties":{"numer":"3235D","klasa":"droga zbiorcza","kat":"powiatowa"},"geometry":{"type":"LineString","coordinates":[[16.66812,50.19474],[16.6682,50.19461]]}},{"type":"Feature","properties":{"numer":"3269D","klasa":"droga zbiorcza","kat":"powiatowa"},"geometry":{"type":"LineString","coordinates":[[16.72353,50.21349],[16.72488,50.21224],[16.72662,50.21088],[16.72767,50.20967],[16.72862,50.20942],[16.72937,50.20907],[16.72978,50.20875],[16.73018,50.20821],[16.7306,50.20793],[16.73349,50.2072],[16.73414,50.20685],[16.73528,50.20575],[16.73605,50.20481],[16.73642,50.20416],[16.73645,50.20361],[16.73879,50.20183],[16.74011,50.2012],[16.741,50.20058],[16.74338,50.20004],[16.74477,50.19949],[16.74525,50.19881],[16.74556,50.19787],[16.74372,50.19511],[16.74259,50.19322],[16.74237,50.19291],[16.74171,50.19235],[16.74107,50.19203],[16.73781,50.19213],[16.7372,50.19204],[16.73686,50.19152],[16.73525,50.19084],[16.73508,50.1907],[16.73484,50.1895],[16.73461,50.18939],[16.73339,50.18941],[16.73306,50.1893],[16.7317,50.18776],[16.73096,50.18729],[16.72979,50.18608],[16.72809,50.18505],[16.72702,50.18454],[16.72521,50.18338],[16.72385,50.1822],[16.72242,50.18128],[16.72057,50.17979],[16.71829,50.17854],[16.71662,50.17794],[16.71412,50.17726]]}},{"type":"Feature","properties":{"numer":"3269D","klasa":"droga zbiorcza","kat":"powiatowa"},"geometry":{"type":"LineString","coordinates":[[16.72313,50.21356],[16.72353,50.21349]]}},{"type":"Feature","properties":{"numer":"3232D,119964D","klasa":"","kat":"powiatowa"},"geometry":{"type":"LineString","coordinates":[[16.72341,50.21375],[16.72353,50.21349]]}},{"type":"Feature","properties":{"numer":"3232D,119964D","klasa":"","kat":"powiatowa"},"geometry":{"type":"LineString","coordinates":[[16.72341,50.21375],[16.72313,50.21356]]}},{"type":"Feature","properties":{"numer":"119964D","klasa":"droga dojazdowa","kat":"powiatowa"},"geometry":{"type":"LineString","coordinates":[[16.7194,50.21404],[16.72217,50.21352],[16.72313,50.21356]]}},{"type":"Feature","properties":{"numer":"119964D","klasa":"droga dojazdowa","kat":"powiatowa"},"geometry":{"type":"LineString","coordinates":[[16.70583,50.21427],[16.70694,50.21438]]}},{"type":"Feature","properties":{"numer":"119964D","klasa":"droga dojazdowa","kat":"powiatowa"},"geometry":{"type":"LineString","coordinates":[[16.7194,50.21404],[16.718,50.21433],[16.71716,50.21434],[16.71593,50.21471],[16.71413,50.21445],[16.71286,50.21464],[16.7112,50.21457],[16.71039,50.21445],[16.71,50.21429]]}},{"type":"Feature","properties":{"numer":"119964D","klasa":"droga dojazdowa","kat":"powiatowa"},"geometry":{"type":"LineString","coordinates":[[16.70694,50.21438],[16.70799,50.21455],[16.70899,50.21432],[16.70964,50.21425],[16.71,50.21429]]}},{"type":"Feature","properties":{"numer":"3269D","klasa":"droga zbiorcza","kat":"powiatowa"},"geometry":{"type":"LineString","coordinates":[[16.70512,50.21502],[16.70583,50.21427]]}},{"type":"Feature","properties":{"numer":"3232D,119964D","klasa":"","kat":"powiatowa"},"geometry":{"type":"LineString","coordinates":[[16.7046,50.21547],[16.7049,50.21545],[16.70528,50.21531],[16.70573,50.2153],[16.70709,50.21557],[16.70873,50.21555],[16.70985,50.21571],[16.7122,50.21564],[16.71515,50.21597],[16.71665,50.21566],[16.71749,50.21558],[16.71909,50.21519],[16.72137,50.21485],[16.72187,50.21471],[16.72318,50.21457],[16.72315,50.21428],[16.72344,50.21404],[16.72341,50.21375]]}},{"type":"Feature","properties":{"numer":"3235D","klasa":"droga zbiorcza","kat":"powiatowa"},"geometry":{"type":"LineString","coordinates":[[16.65399,50.20688],[16.65445,50.20646],[16.65495,50.20619],[16.65799,50.20527],[16.65909,50.20525],[16.66104,50.20433],[16.66141,50.20399],[16.66165,50.20327],[16.66189,50.20292],[16.66216,50.20276],[16.66352,50.20231],[16.66433,50.20176],[16.66491,50.20088],[16.66717,50.19907],[16.66745,50.1987],[16.66763,50.19812],[16.66812,50.19474]]}},{"type":"Feature","properties":{"numer":"3234D","klasa":"droga zbiorcza","kat":"powiatowa"},"geometry":{"type":"LineString","coordinates":[[16.63788,50.19496],[16.64034,50.19842],[16.64193,50.19952],[16.64316,50.20086],[16.64558,50.20255],[16.64565,50.2029],[16.64559,50.20377],[16.64504,50.20466],[16.64509,50.20495],[16.64527,50.20517],[16.64573,50.20541],[16.64824,50.20635],[16.65098,50.20781],[16.65141,50.20787]]}},{"type":"Feature","properties":{"numer":"33","klasa":"droga gĹ‚Ăłwna","kat":"krajowa"},"geometry":{"type":"LineString","coordinates":[[16.6702,50.19191],[16.67072,50.19349],[16.67196,50.19898],[16.67288,50.20128],[16.67325,50.20192],[16.67414,50.20307],[16.67459,50.20355],[16.67574,50.20445],[16.67609,50.20494],[16.67708,50.20749],[16.67801,50.20843],[16.67822,50.20877],[16.67896,50.21167],[16.67948,50.21267]]}},{"type":"Feature","properties":{"numer":"3235D","klasa":"droga zbiorcza","kat":"powiatowa"},"geometry":{"type":"LineString","coordinates":[[16.65394,50.20692],[16.65399,50.20688]]}},{"type":"Feature","properties":{"numer":"3235D","klasa":"droga zbiorcza","kat":"powiatowa"},"geometry":{"type":"LineString","coordinates":[[16.65141,50.20787],[16.65178,50.20784],[16.65328,50.20729],[16.65394,50.20692]]}},{"type":"Feature","properties":{"numer":"3234D","klasa":"droga zbiorcza","kat":"powiatowa"},"geometry":{"type":"LineString","coordinates":[[16.65141,50.20787],[16.65235,50.20813],[16.65316,50.20868]]}},{"type":"Feature","properties":{"numer":"3234D","klasa":"droga zbiorcza","kat":"powiatowa"},"geometry":{"type":"LineString","coordinates":[[16.65316,50.20868],[16.65332,50.2088]]}},{"type":"Feature","properties":{"numer":"3234D","klasa":"droga zbiorcza","kat":"powiatowa"},"geometry":{"type":"LineString","coordinates":[[16.65332,50.2088],[16.65476,50.21],[16.65518,50.21078]]}},{"type":"Feature","properties":{"numer":"3234D","klasa":"droga zbiorcza","kat":"powiatowa"},"geometry":{"type":"LineString","coordinates":[[16.65518,50.21078],[16.65522,50.21086]]}},{"type":"Feature","properties":{"numer":"119957D,33","klasa":"droga gĹ‚Ăłwna","kat":"powiatowa"},"geometry":{"type":"LineString","coordinates":[[16.67948,50.21267],[16.67951,50.21272]]}},{"type":"Feature","properties":{"numer":"3234D","klasa":"droga zbiorcza","kat":"powiatowa"},"geometry":{"type":"LineString","coordinates":[[16.65522,50.21086],[16.65567,50.21158],[16.65612,50.21176],[16.65782,50.21205],[16.66045,50.21211],[16.66095,50.21222],[16.66217,50.21268],[16.66413,50.21269],[16.66484,50.21276],[16.66741,50.21346],[16.67169,50.21513],[16.67378,50.21561],[16.67538,50.21571]]}},{"type":"Feature","properties":{"numer":"33","klasa":"droga gĹ‚Ăłwna","kat":"krajowa"},"geometry":{"type":"LineString","coordinates":[[16.67951,50.21272],[16.67985,50.21391],[16.68007,50.21431]]}},{"type":"Feature","properties":{"numer":"33","klasa":"droga gĹ‚Ăłwna","kat":"krajowa"},"geometry":{"type":"LineString","coordinates":[[16.68007,50.21431],[16.68011,50.21437]]}},{"type":"Feature","properties":{"numer":"33","klasa":"droga gĹ‚Ăłwna","kat":"krajowa"},"geometry":{"type":"LineString","coordinates":[[16.68011,50.21437],[16.68077,50.21514]]}},{"type":"Feature","properties":{"numer":"3232D","klasa":"droga zbiorcza","kat":"powiatowa"},"geometry":{"type":"LineString","coordinates":[[16.68091,50.2151],[16.68144,50.21508]]}},{"type":"Feature","properties":{"numer":"3232D","klasa":"droga zbiorcza","kat":"powiatowa"},"geometry":{"type":"LineString","coordinates":[[16.68077,50.21514],[16.68091,50.2151]]}},{"type":"Feature","properties":{"numer":"3234D","klasa":"","kat":"powiatowa"},"geometry":{"type":"LineString","coordinates":[[16.67538,50.21571],[16.67619,50.21576]]}},{"type":"Feature","properties":{"numer":"33","klasa":"droga gĹ‚Ăłwna","kat":"krajowa"},"geometry":{"type":"LineString","coordinates":[[16.68077,50.21514],[16.68047,50.21547],[16.67999,50.21639]]}},{"type":"Feature","properties":{"numer":"3232D,119964D","klasa":"","kat":"powiatowa"},"geometry":{"type":"LineString","coordinates":[[16.68144,50.21508],[16.68197,50.21516],[16.6839,50.2157],[16.68486,50.21614],[16.68578,50.21627],[16.68689,50.21631],[16.68802,50.21588],[16.69075,50.21563],[16.69332,50.21589],[16.6962,50.21601],[16.70153,50.21674]]}},{"type":"Feature","properties":{"numer":"3234D","klasa":"droga zbiorcza","kat":"powiatowa"},"geometry":{"type":"LineString","coordinates":[[16.67619,50.21576],[16.67717,50.21587],[16.67999,50.21639]]}},{"type":"Feature","properties":{"numer":"389","klasa":"","kat":"wojewodzka"},"geometry":{"type":"LineString","coordinates":[[16.63705,50.19374],[16.63708,50.19379]]}},{"type":"Feature","properties":{"numer":"389","klasa":"","kat":"wojewodzka"},"geometry":{"type":"LineString","coordinates":[[16.63764,50.19463],[16.63708,50.19379]]}},{"type":"Feature","properties":{"numer":"389","klasa":"","kat":"wojewodzka"},"geometry":{"type":"LineString","coordinates":[[16.63764,50.19463],[16.63788,50.19496]]}},{"type":"Feature","properties":{"numer":"389","klasa":"","kat":"wojewodzka"},"geometry":{"type":"LineString","coordinates":[[16.63713,50.195],[16.63788,50.19496]]}},{"type":"Feature","properties":{"numer":"389","klasa":"","kat":"wojewodzka"},"geometry":{"type":"LineString","coordinates":[[16.594648469124703,50.21545193104008],[16.59688,50.21337],[16.59725,50.21278],[16.59779,50.21119],[16.59762,50.21025],[16.59722,50.20962],[16.59472,50.2072],[16.59311,50.20632],[16.59287,50.20608],[16.59287,50.20578],[16.59386,50.20416],[16.59226,50.20137],[16.59237,50.20116],[16.59264,50.201],[16.59308,50.20094],[16.59344,50.20102],[16.59511,50.20191],[16.59698,50.20239],[16.59799,50.20289],[16.59846,50.20299],[16.59958,50.20281],[16.60473,50.20121],[16.6073,50.20146],[16.60801,50.20164],[16.60962,50.20157],[16.61153,50.20123],[16.6129,50.20062],[16.61527,50.20011],[16.61579,50.19989],[16.61719,50.19894],[16.61767,50.19831],[16.61844,50.1981],[16.6187,50.19794],[16.61901,50.19749],[16.61908,50.1964],[16.61941,50.19594],[16.61992,50.19557],[16.62109,50.19496],[16.62297,50.19483],[16.6246,50.19449],[16.62556,50.19441],[16.62589,50.19451],[16.62734,50.19531],[16.62837,50.19554],[16.6294,50.19565],[16.63713,50.195]]}},{"type":"Feature","properties":{"numer":"3235D","klasa":"droga zbiorcza","kat":"powiatowa"},"geometry":{"type":"LineString","coordinates":[[16.62911,50.23969188679246],[16.62911,50.23964],[16.63006,50.23847],[16.63088,50.23775],[16.63139,50.23761],[16.63568,50.23738],[16.63618,50.23716],[16.63702,50.23651],[16.63722,50.23598],[16.63731,50.23499],[16.63657,50.23208],[16.63651,50.23142],[16.63675,50.23054],[16.63672,50.2302],[16.63698,50.22875],[16.63777,50.22782],[16.6376,50.22737],[16.63776,50.22729],[16.6384,50.22727],[16.6387,50.22716],[16.6396,50.22636],[16.64051,50.22571],[16.64122,50.22492],[16.64203,50.22441],[16.64278,50.22363],[16.64387,50.2229],[16.64526,50.22228],[16.64599,50.2222],[16.6463,50.22196],[16.64674,50.22125],[16.64689,50.2207],[16.64688,50.21922],[16.64668,50.21835],[16.64692,50.2162],[16.64666,50.21461],[16.64674,50.21221],[16.64732,50.21092],[16.64852,50.20964],[16.65087,50.208],[16.65141,50.20787]]}},{"type":"Feature","properties":{"numer":"3269D","klasa":"droga zbiorcza","kat":"powiatowa"},"geometry":{"type":"LineString","coordinates":[[16.70501,50.21511],[16.70512,50.21502]]}},{"type":"Feature","properties":{"numer":"3269D","klasa":"droga zbiorcza","kat":"powiatowa"},"geometry":{"type":"LineString","coordinates":[[16.70465,50.21543],[16.70501,50.21511]]}},{"type":"Feature","properties":{"numer":"3232D,119964D","klasa":"","kat":"powiatowa"},"geometry":{"type":"LineString","coordinates":[[16.7046,50.21547],[16.70465,50.21543]]}},{"type":"Feature","properties":{"numer":"3232D,119964D","klasa":"","kat":"powiatowa"},"geometry":{"type":"LineString","coordinates":[[16.70172,50.2166],[16.7042,50.21568],[16.7046,50.21547]]}},{"type":"Feature","properties":{"numer":"3232D","klasa":"droga zbiorcza","kat":"powiatowa"},"geometry":{"type":"LineString","coordinates":[[16.70173,50.21678],[16.70286,50.21711],[16.70591,50.2182],[16.70714,50.21882],[16.70848,50.21967],[16.71253313880261,50.221181483011804]]}},{"type":"Feature","properties":{"numer":"3232D","klasa":"droga zbiorcza","kat":"powiatowa"},"geometry":{"type":"LineString","coordinates":[[16.729986797797533,50.22729855429879],[16.73136,50.22782],[16.73275,50.22823],[16.73417,50.22855],[16.73917,50.22912]]}},{"type":"Feature","properties":{"numer":"3232D,119964D","klasa":"","kat":"powiatowa"},"geometry":{"type":"LineString","coordinates":[[16.70172,50.2166],[16.70153,50.21674]]}},{"type":"Feature","properties":{"numer":"3232D,119964D","klasa":"","kat":"powiatowa"},"geometry":{"type":"LineString","coordinates":[[16.70153,50.21674],[16.70173,50.21678]]}},{"type":"Feature","properties":{"numer":"33","klasa":"droga gĹ‚Ăłwna","kat":"krajowa"},"geometry":{"type":"LineString","coordinates":[[16.67999,50.21639],[16.67969,50.2171],[16.67954,50.21789],[16.67929,50.22172],[16.67825,50.2242],[16.67727,50.22584],[16.67704,50.22643],[16.67701,50.22836],[16.67759,50.22964],[16.677542181224386,50.230959798207]]}},{"type":"Feature","properties":{"numer":"3276D","klasa":"droga zbiorcza","kat":"powiatowa"},"geometry":{"type":"LineString","coordinates":[[16.626712839090153,50.240085855096886],[16.62703,50.24015],[16.627281943573642,50.240220721003126]]}},{"type":"Feature","properties":{"numer":"3232D","klasa":"droga zbiorcza","kat":"powiatowa"},"geometry":{"type":"LineString","coordinates":[[16.73917,50.22912],[16.74237,50.22906],[16.74361,50.22917],[16.74475,50.22931],[16.745569512195118,50.22954920896506]]}},{"type":"Feature","properties":{"numer":"3231D","klasa":"droga zbiorcza","kat":"powiatowa"},"geometry":{"type":"LineString","coordinates":[[16.73831606552864,50.22941819933921],[16.73917,50.22912]]}},{"type":"Feature","properties":{"numer":"3269D","klasa":"droga zbiorcza","kat":"powiatowa"},"geometry":{"type":"LineString","coordinates":[[16.77431,50.17417],[16.77433,50.17412]]}},{"type":"Feature","properties":{"numer":"3274D","klasa":"droga zbiorcza","kat":"powiatowa"},"geometry":{"type":"LineString","coordinates":[[16.58015,50.15574],[16.57926,50.15578],[16.57849,50.15598],[16.57837,50.15615],[16.5784,50.15633],[16.57912,50.15676],[16.57913,50.15695],[16.57879,50.15748],[16.57817,50.15793],[16.57689,50.15839],[16.57548,50.15877],[16.5733,50.15916],[16.57226,50.15939],[16.57166,50.1596],[16.57084,50.15998],[16.57014,50.16064],[16.56893,50.16131],[16.56775,50.16177],[16.56645,50.16179],[16.56574,50.16211],[16.56458,50.16293],[16.56343,50.1636]]}},{"type":"Feature","properties":{"numer":"3274D","klasa":"droga zbiorcza","kat":"powiatowa"},"geometry":{"type":"LineString","coordinates":[[16.56339,50.1636],[16.56343,50.1636]]}},{"type":"Feature","properties":{"numer":"3274D","klasa":"droga zbiorcza","kat":"powiatowa"},"geometry":{"type":"LineString","coordinates":[[16.56202,50.16431],[16.56274,50.16376],[16.56339,50.1636]]}},{"type":"Feature","properties":{"numer":"3274D","klasa":"droga zbiorcza","kat":"powiatowa"},"geometry":{"type":"LineString","coordinates":[[16.56202,50.16431],[16.56143,50.16483],[16.56117,50.16522],[16.5611,50.16572],[16.5613,50.16642],[16.5613,50.16688],[16.56021,50.16853],[16.55947,50.17019],[16.5592,50.17121],[16.55972,50.17224],[16.56036,50.17301],[16.56143,50.17485],[16.56277,50.17624],[16.56335,50.17734],[16.56558,50.17883],[16.56571,50.18029],[16.56538,50.18147],[16.5639,50.18306],[16.56314,50.1841],[16.56192,50.18499],[16.5616,50.18538],[16.56104,50.1869],[16.56122,50.18765],[16.56111,50.18841],[16.56021,50.19052],[16.5599,50.19248],[16.55788,50.19479],[16.55829,50.1959],[16.55786,50.19686],[16.55783,50.19721],[16.55824,50.19855],[16.56001,50.20092],[16.56005,50.20126],[16.55985,50.20216],[16.55991,50.20237],[16.56056,50.20297],[16.56228,50.20417],[16.563792037037036,50.20587104166667]]}}]}