{"type":"FeatureCollection","features":[{"type":"Feature","properties":{"numer":"3238D","klasa":"droga zbiorcza","kat":"powiatowa"},"geometry":{"type":"LineString","coordinates":[[16.63506,50.4068],[16.63122,50.40426],[16.63044,50.40335],[16.63019,50.40266],[16.630134989447022,50.40193111017307]]}},{"type":"Feature","properties":{"numer":"33","klasa":"droga gĹ‚Ăłwna","kat":"krajowa"},"geometry":{"type":"LineString","coordinates":[[16.63506,50.4068],[16.63563096102301,50.40655113367174]]}},{"type":"Feature","properties":{"numer":"33","klasa":"droga gĹ‚Ăłwna","kat":"krajowa"},"geometry":{"type":"LineString","coordinates":[[16.6337,50.40741],[16.63506,50.4068]]}},{"type":"Feature","properties":{"numer":"46","klasa":"droga gĹ‚Ăłwna ruchu przyĹ›pieszonego","kat":"krajowa"},"geometry":{"type":"LineString","coordinates":[[16.660719745744903,50.42033729775163],[16.66061,50.42025],[16.66033,50.41962],[16.660349496855346,50.4188986163522]]}},{"type":"Feature","properties":{"numer":"33","klasa":"droga gĹ‚Ăłwna","kat":"krajowa"},"geometry":{"type":"LineString","coordinates":[[16.63193,50.40839],[16.6337,50.40741]]}},{"type":"Feature","properties":{"numer":"33","klasa":"droga gĹ‚Ăłwna","kat":"krajowa"},"geometry":{"type":"LineString","coordinates":[[16.63151,50.40865],[16.63193,50.40839]]}},{"type":"Feature","properties":{"numer":"3238D","klasa":"droga zbiorcza","kat":"powiatowa"},"geometry":{"type":"LineString","coordinates":[[16.63948,50.41459],[16.63807,50.41023],[16.6365,50.4078],[16.63506,50.4068]]}},{"type":"Feature","properties":{"numer":"33","klasa":"droga gĹ‚Ăłwna","kat":"krajowa"},"geometry":{"type":"LineString","coordinates":[[16.62562,50.4197],[16.62548,50.41828],[16.6256,50.41668],[16.62603,50.41506],[16.62669,50.41362],[16.62761,50.41219],[16.62859,50.41103],[16.62994,50.40979],[16.63151,50.40865]]}},{"type":"Feature","properties":{"numer":"3291D","klasa":"droga zbiorcza","kat":"powiatowa"},"geometry":{"type":"LineString","coordinates":[[16.60920509151414,50.41421527454243],[16.60925,50.41435]]}},{"type":"Feature","properties":{"numer":"3291D","klasa":"droga zbiorcza","kat":"powiatowa"},"geometry":{"type":"LineString","coordinates":[[16.60925,50.41435],[16.60938,50.41465]]}},{"type":"Feature","properties":{"numer":"3291D","klasa":"droga zbiorcza","kat":"powiatowa"},"geometry":{"type":"LineString","coordinates":[[16.60938,50.41465],[16.6094,50.41471]]}},{"type":"Feature","properties":{"numer":"3238D","klasa":"droga zbiorcza","kat":"powiatowa"},"geometry":{"type":"LineString","coordinates":[[16.63954,50.41483],[16.63948,50.41459]]}},{"type":"Feature","properties":{"numer":"3291D","klasa":"droga zbiorcza","kat":"powiatowa"},"geometry":{"type":"LineString","coordinates":[[16.61086,50.41552],[16.60989,50.41522],[16.6096,50.41501],[16.6094,50.41471]]}},{"type":"Feature","properties":{"numer":"3238D","klasa":"droga zbiorcza","kat":"powiatowa"},"geometry":{"type":"LineString","coordinates":[[16.63943,50.41572],[16.63965,50.41533],[16.63954,50.41483]]}},{"type":"Feature","properties":{"numer":"3238D","klasa":"droga zbiorcza","kat":"powiatowa"},"geometry":{"type":"LineString","coordinates":[[16.63942,50.41577],[16.63943,50.41572]]}},{"type":"Feature","properties":{"numer":"3292D","klasa":"droga zbiorcza","kat":"powiatowa"},"geometry":{"type":"LineString","coordinates":[[16.61086,50.41552],[16.61179,50.41537],[16.61252,50.41534],[16.61314,50.41539],[16.61469,50.4159],[16.61534,50.41604],[16.61694,50.41609],[16.61855,50.41588],[16.61908,50.41591],[16.61959,50.41604],[16.62025,50.41632],[16.62237,50.41813],[16.62424,50.41917],[16.62527,50.4196]]}},{"type":"Feature","properties":{"numer":"3238D","klasa":"droga zbiorcza","kat":"powiatowa"},"geometry":{"type":"LineString","coordinates":[[16.64212,50.42073],[16.6424,50.42042],[16.64273,50.41954],[16.64266,50.41934],[16.64215,50.41877],[16.64194,50.41717],[16.64179,50.41679],[16.64142,50.41643],[16.64105,50.41626],[16.64064,50.41617],[16.63967,50.41615],[16.63946,50.41597],[16.63942,50.41577]]}},{"type":"Feature","properties":{"numer":"3292D","klasa":"droga zbiorcza","kat":"powiatowa"},"geometry":{"type":"LineString","coordinates":[[16.62527,50.4196],[16.62562,50.4197]]}},{"type":"Feature","properties":{"numer":"3292D","klasa":"droga zbiorcza","kat":"powiatowa"},"geometry":{"type":"LineString","coordinates":[[16.62562,50.4197],[16.62602,50.41981]]}},{"type":"Feature","properties":{"numer":"3291D","klasa":"droga zbiorcza","kat":"powiatowa"},"geometry":{"type":"LineString","coordinates":[[16.605719370977788,50.41806952252439],[16.60578,50.41773],[16.60702,50.4168],[16.60822,50.41617],[16.61086,50.41552]]}},{"type":"Feature","properties":{"numer":"3292D","klasa":"droga zbiorcza","kat":"powiatowa"},"geometry":{"type":"LineString","coordinates":[[16.62602,50.41981],[16.63429,50.42073],[16.63678,50.42065]]}},{"type":"Feature","properties":{"numer":"3292D","klasa":"droga zbiorcza","kat":"powiatowa"},"geometry":{"type":"LineString","coordinates":[[16.63678,50.42065],[16.6412,50.42032],[16.64169,50.42042],[16.64212,50.42073]]}},{"type":"Feature","properties":{"numer":"119047D","klasa":"droga lokalna","kat":"powiatowa"},"geometry":{"type":"LineString","coordinates":[[16.63678,50.42065],[16.63761,50.42286]]}},{"type":"Feature","properties":{"numer":"","klasa":"droga zbiorcza","kat":"powiatowa"},"geometry":{"type":"LineString","coordinates":[[16.66090500298033,50.42098832505464],[16.66089,50.42103]]}},{"type":"Feature","properties":{"numer":"","klasa":"droga zbiorcza","kat":"powiatowa"},"geometry":{"type":"LineString","coordinates":[[16.66089,50.42103],[16.66094,50.42151]]}},{"type":"Feature","properties":{"numer":"","klasa":"droga zbiorcza","kat":"powiatowa"},"geometry":{"type":"LineString","coordinates":[[16.66094,50.42151],[16.66101,50.4217]]}},{"type":"Feature","properties":{"numer":"","klasa":"droga zbiorcza","kat":"powiatowa"},"geometry":{"type":"LineString","coordinates":[[16.66101,50.4217],[16.66111,50.42206]]}},{"type":"Feature","properties":{"numer":"","klasa":"droga zbiorcza","kat":"powiatowa"},"geometry":{"type":"LineString","coordinates":[[16.66111,50.42206],[16.66116,50.42237]]}},{"type":"Feature","properties":{"numer":"3227D","klasa":"droga zbiorcza","kat":"powiatowa"},"geometry":{"type":"LineString","coordinates":[[16.661874187065674,50.422086281850625],[16.66116,50.42237]]}},{"type":"Feature","properties":{"numer":"","klasa":"droga zbiorcza","kat":"powiatowa"},"geometry":{"type":"LineString","coordinates":[[16.66116,50.42237],[16.66116,50.42261]]}},{"type":"Feature","properties":{"numer":"","klasa":"droga zbiorcza","kat":"powiatowa"},"geometry":{"type":"LineString","coordinates":[[16.66116,50.42261],[16.66103,50.42303]]}},{"type":"Feature","properties":{"numer":"","klasa":"droga zbiorcza","kat":"powiatowa"},"geometry":{"type":"LineString","coordinates":[[16.66103,50.42303],[16.66045,50.42384],[16.66006,50.4247]]}},{"type":"Feature","properties":{"numer":"","klasa":"droga zbiorcza","kat":"powiatowa"},"geometry":{"type":"LineString","coordinates":[[16.66006,50.4247],[16.66003,50.42477]]}},{"type":"Feature","properties":{"numer":"","klasa":"droga zbiorcza","kat":"powiatowa"},"geometry":{"type":"LineString","coordinates":[[16.66003,50.42477],[16.65978,50.4252]]}},{"type":"Feature","properties":{"numer":"","klasa":"droga zbiorcza","kat":"powiatowa"},"geometry":{"type":"LineString","coordinates":[[16.65978,50.4252],[16.65919,50.42625]]}},{"type":"Feature","properties":{"numer":"","klasa":"droga zbiorcza","kat":"powiatowa"},"geometry":{"type":"LineString","coordinates":[[16.65919,50.42625],[16.65864,50.42725]]}},{"type":"Feature","properties":{"numer":"","klasa":"droga zbiorcza","kat":"powiatowa"},"geometry":{"type":"LineString","coordinates":[[16.65864,50.42725],[16.65848,50.42747]]}},{"type":"Feature","properties":{"numer":"33","klasa":"droga gĹ‚Ăłwna","kat":"krajowa"},"geometry":{"type":"LineString","coordinates":[[16.62873,50.43003],[16.62854,50.42785],[16.62816,50.42632],[16.62634,50.42197],[16.62562,50.4197]]}},{"type":"Feature","properties":{"numer":"119047D","klasa":"droga lokalna","kat":"powiatowa"},"geometry":{"type":"LineString","coordinates":[[16.63761,50.42286],[16.64017,50.42902],[16.64037,50.42973]]}},{"type":"Feature","properties":{"numer":"119047D","klasa":"droga lokalna","kat":"powiatowa"},"geometry":{"type":"LineString","coordinates":[[16.64037,50.42973],[16.64039,50.43038]]}},{"type":"Feature","properties":{"numer":"119030D","klasa":"droga lokalna","kat":"powiatowa"},"geometry":{"type":"LineString","coordinates":[[16.64312,50.43021],[16.6438,50.43014]]}},{"type":"Feature","properties":{"numer":"33","klasa":"droga gĹ‚Ăłwna","kat":"krajowa"},"geometry":{"type":"LineString","coordinates":[[16.62873,50.43039],[16.62873,50.43003]]}},{"type":"Feature","properties":{"numer":"119030D","klasa":"droga lokalna","kat":"powiatowa"},"geometry":{"type":"LineString","coordinates":[[16.64271,50.43026],[16.64312,50.43021]]}},{"type":"Feature","properties":{"numer":"","klasa":"droga zbiorcza","kat":"powiatowa"},"geometry":{"type":"LineString","coordinates":[[16.65848,50.42747],[16.65824,50.42778]]}},{"type":"Feature","properties":{"numer":"","klasa":"droga zbiorcza","kat":"powiatowa"},"geometry":{"type":"LineString","coordinates":[[16.65824,50.42778],[16.65767,50.42854]]}},{"type":"Feature","properties":{"numer":"3238D","klasa":"droga zbiorcza","kat":"powiatowa"},"geometry":{"type":"LineString","coordinates":[[16.64212,50.42073],[16.64179,50.42114],[16.64166,50.42182],[16.64163,50.42307],[16.64179,50.42381],[16.64212,50.42436],[16.64384,50.42625],[16.6452,50.42816],[16.6477,50.42993],[16.64872,50.43204],[16.64952,50.43495],[16.65017,50.43605]]}},{"type":"Feature","properties":{"numer":"","klasa":"droga zbiorcza","kat":"powiatowa"},"geometry":{"type":"LineString","coordinates":[[16.65767,50.42854],[16.65708,50.4294]]}},{"type":"Feature","properties":{"numer":"","klasa":"droga zbiorcza","kat":"powiatowa"},"geometry":{"type":"LineString","coordinates":[[16.65708,50.4294],[16.657,50.42955]]}},{"type":"Feature","properties":{"numer":"","klasa":"droga zbiorcza","kat":"powiatowa"},"geometry":{"type":"LineString","coordinates":[[16.657,50.42955],[16.65674,50.43005]]}},{"type":"Feature","properties":{"numer":"119030D","klasa":"droga lokalna","kat":"powiatowa"},"geometry":{"type":"LineString","coordinates":[[16.64693,50.43008],[16.64765,50.43005]]}},{"type":"Feature","properties":{"numer":"119030D","klasa":"droga lokalna","kat":"powiatowa"},"geometry":{"type":"LineString","coordinates":[[16.64635,50.43009],[16.64693,50.43008]]}},{"type":"Feature","properties":{"numer":"119030D","klasa":"droga lokalna","kat":"powiatowa"},"geometry":{"type":"LineString","coordinates":[[16.64486,50.43008],[16.64635,50.43009]]}},{"type":"Feature","properties":{"numer":"","klasa":"droga zbiorcza","kat":"powiatowa"},"geometry":{"type":"LineString","coordinates":[[16.65674,50.43005],[16.65668,50.43015]]}},{"type":"Feature","properties":{"numer":"119030D","klasa":"droga lokalna","kat":"powiatowa"},"geometry":{"type":"LineString","coordinates":[[16.6438,50.43014],[16.64486,50.43008]]}},{"type":"Feature","properties":{"numer":"","klasa":"droga zbiorcza","kat":"powiatowa"},"geometry":{"type":"LineString","coordinates":[[16.65668,50.43015],[16.65665,50.43025]]}},{"type":"Feature","properties":{"numer":"","klasa":"droga zbiorcza","kat":"powiatowa"},"geometry":{"type":"LineString","coordinates":[[16.65665,50.43025],[16.65668,50.43052],[16.65689,50.4308],[16.65809,50.43144]]}},{"type":"Feature","properties":{"numer":"","klasa":"droga zbiorcza","kat":"powiatowa"},"geometry":{"type":"LineString","coordinates":[[16.65809,50.43144],[16.65856,50.43179]]}},{"type":"Feature","properties":{"numer":"","klasa":"droga zbiorcza","kat":"powiatowa"},"geometry":{"type":"LineString","coordinates":[[16.65856,50.43179],[16.65915,50.43283],[16.65959,50.4334],[16.65988,50.4336],[16.661,50.43406]]}},{"type":"Feature","properties":{"numer":"","klasa":"droga gĹ‚Ăłwna","kat":"gminna"},"geometry":{"type":"LineString","coordinates":[[16.671241249999998,50.43316011363636],[16.66947,50.43307],[16.66856,50.43316],[16.6619,50.43434]]}},{"type":"Feature","properties":{"numer":"","klasa":"droga zbiorcza","kat":"powiatowa"},"geometry":{"type":"LineString","coordinates":[[16.66137,50.43451],[16.661,50.43406]]}},{"type":"Feature","properties":{"numer":"","klasa":"droga gĹ‚Ăłwna","kat":"gminna"},"geometry":{"type":"LineString","coordinates":[[16.66137,50.43451],[16.6619,50.43434]]}},{"type":"Feature","properties":{"numer":"119030D","klasa":"droga lokalna","kat":"powiatowa"},"geometry":{"type":"LineString","coordinates":[[16.64078,50.43036],[16.64271,50.43026]]}},{"type":"Feature","properties":{"numer":"119030D","klasa":"droga lokalna","kat":"powiatowa"},"geometry":{"type":"LineString","coordinates":[[16.64039,50.43038],[16.64078,50.43036]]}},{"type":"Feature","properties":{"numer":"119047D","klasa":"droga lokalna","kat":"powiatowa"},"geometry":{"type":"LineString","coordinates":[[16.64039,50.43038],[16.64007,50.43156],[16.63936,50.4328]]}},{"type":"Feature","properties":{"numer":"33","klasa":"droga gĹ‚Ăłwna","kat":"krajowa"},"geometry":{"type":"LineString","coordinates":[[16.62835,50.43326],[16.6286,50.43205],[16.62873,50.43039]]}},{"type":"Feature","properties":{"numer":"119047D","klasa":"droga lokalna","kat":"powiatowa"},"geometry":{"type":"LineString","coordinates":[[16.63936,50.4328],[16.63898,50.43348]]}},{"type":"Feature","properties":{"numer":"119047D","klasa":"droga lokalna","kat":"powiatowa"},"geometry":{"type":"LineString","coordinates":[[16.63898,50.43348],[16.63855,50.43423]]}},{"type":"Feature","properties":{"numer":"119047D","klasa":"droga lokalna","kat":"powiatowa"},"geometry":{"type":"LineString","coordinates":[[16.63855,50.43423],[16.6369,50.43709]]}},{"type":"Feature","properties":{"numer":"33","klasa":"droga gĹ‚Ăłwna","kat":"krajowa"},"geometry":{"type":"LineString","coordinates":[[16.62835,50.43326],[16.62713,50.43872]]}},{"type":"Feature","properties":{"numer":"","klasa":"droga gĹ‚Ăłwna","kat":"gminna"},"geometry":{"type":"LineString","coordinates":[[16.66112,50.4351],[16.66137,50.43451]]}},{"type":"Feature","properties":{"numer":"9D","klasa":"droga gĹ‚Ăłwna","kat":"gminna"},"geometry":{"type":"LineString","coordinates":[[16.66112,50.43524],[16.66112,50.4351]]}},{"type":"Feature","properties":{"numer":"3226D","klasa":"droga gĹ‚Ăłwna","kat":"powiatowa"},"geometry":{"type":"LineString","coordinates":[[16.65353,50.4353],[16.65392,50.4353]]}},{"type":"Feature","properties":{"numer":"3226D","klasa":"droga gĹ‚Ăłwna","kat":"powiatowa"},"geometry":{"type":"LineString","coordinates":[[16.65343,50.4353],[16.65353,50.4353]]}},{"type":"Feature","properties":{"numer":"3226D","klasa":"droga gĹ‚Ăłwna","kat":"powiatowa"},"geometry":{"type":"LineString","coordinates":[[16.65459,50.43548],[16.65392,50.4353]]}},{"type":"Feature","properties":{"numer":"3226D","klasa":"droga gĹ‚Ăłwna","kat":"powiatowa"},"geometry":{"type":"LineString","coordinates":[[16.65017,50.43605],[16.65182,50.43592],[16.653,50.43537],[16.65343,50.4353]]}},{"type":"Feature","properties":{"numer":"120005D","klasa":"droga dojazdowa","kat":"powiatowa"},"geometry":{"type":"LineString","coordinates":[[16.66112,50.43524],[16.66045,50.4353],[16.65896,50.43632]]}},{"type":"Feature","properties":{"numer":"3226D","klasa":"droga gĹ‚Ăłwna","kat":"powiatowa"},"geometry":{"type":"LineString","coordinates":[[16.65892,50.43682],[16.65853,50.43682],[16.6576,50.43664],[16.65459,50.43548]]}},{"type":"Feature","properties":{"numer":"9D","klasa":"droga gĹ‚Ăłwna","kat":"gminna"},"geometry":{"type":"LineString","coordinates":[[16.66047,50.43712],[16.6611,50.43598],[16.66112,50.43524]]}},{"type":"Feature","properties":{"numer":"120005D","klasa":"droga dojazdowa","kat":"powiatowa"},"geometry":{"type":"LineString","coordinates":[[16.65896,50.43632],[16.65894,50.43662]]}},{"type":"Feature","properties":{"numer":"120005D","klasa":"droga dojazdowa","kat":"powiatowa"},"geometry":{"type":"LineString","coordinates":[[16.65894,50.43662],[16.65892,50.43682]]}},{"type":"Feature","properties":{"numer":"119001D","klasa":"","kat":"powiatowa"},"geometry":{"type":"LineString","coordinates":[[16.65892,50.43682],[16.65936,50.43685]]}},{"type":"Feature","properties":{"numer":"119001D","klasa":"droga dojazdowa","kat":"powiatowa"},"geometry":{"type":"LineString","coordinates":[[16.65936,50.43685],[16.66047,50.43712]]}},{"type":"Feature","properties":{"numer":"3226D","klasa":"droga gĹ‚Ăłwna","kat":"powiatowa"},"geometry":{"type":"LineString","coordinates":[[16.64873,50.43873],[16.64865,50.4378],[16.64822,50.43674],[16.64822,50.43649],[16.64839,50.43632],[16.64875,50.43621],[16.65017,50.43605]]}},{"type":"Feature","properties":{"numer":"3226D","klasa":"droga gĹ‚Ăłwna","kat":"powiatowa"},"geometry":{"type":"LineString","coordinates":[[16.66038,50.43823],[16.65946,50.43783],[16.65913,50.4376],[16.65892,50.43732],[16.65892,50.43682]]}},{"type":"Feature","properties":{"numer":"9D","klasa":"droga gĹ‚Ăłwna","kat":"gminna"},"geometry":{"type":"LineString","coordinates":[[16.66081,50.43844],[16.66087,50.4379],[16.66051,50.43735],[16.66047,50.43712]]}},{"type":"Feature","properties":{"numer":"3226D","klasa":"droga gĹ‚Ăłwna","kat":"powiatowa"},"geometry":{"type":"LineString","coordinates":[[16.66081,50.43844],[16.66038,50.43823]]}},{"type":"Feature","properties":{"numer":"9D","klasa":"droga gĹ‚Ăłwna","kat":"gminna"},"geometry":{"type":"LineString","coordinates":[[16.66068,50.43878],[16.66081,50.43844]]}},{"type":"Feature","properties":{"numer":"","klasa":"droga gĹ‚Ăłwna","kat":"gminna"},"geometry":{"type":"LineString","coordinates":[[16.66068,50.43878],[16.66049,50.43909]]}},{"type":"Feature","properties":{"numer":"3226D","klasa":"droga gĹ‚Ăłwna","kat":"powiatowa"},"geometry":{"type":"LineString","coordinates":[[16.64812,50.43949],[16.64846,50.43921],[16.64873,50.43873]]}},{"type":"Feature","properties":{"numer":"119047D","klasa":"droga lokalna","kat":"powiatowa"},"geometry":{"type":"LineString","coordinates":[[16.6369,50.43709],[16.63639,50.43797]]}},{"type":"Feature","properties":{"numer":"119047D","klasa":"droga lokalna","kat":"powiatowa"},"geometry":{"type":"LineString","coordinates":[[16.63639,50.43797],[16.63614,50.4384]]}},{"type":"Feature","properties":{"numer":"119047D","klasa":"droga lokalna","kat":"powiatowa"},"geometry":{"type":"LineString","coordinates":[[16.63614,50.4384],[16.63589,50.43882]]}},{"type":"Feature","properties":{"numer":"118993D","klasa":"droga lokalna","kat":"powiatowa"},"geometry":{"type":"LineString","coordinates":[[16.62769,50.43874],[16.62713,50.43872]]}},{"type":"Feature","properties":{"numer":"118993D","klasa":"","kat":"powiatowa"},"geometry":{"type":"LineString","coordinates":[[16.62846,50.43881],[16.62769,50.43874]]}},{"type":"Feature","properties":{"numer":"118993D","klasa":"droga lokalna","kat":"powiatowa"},"geometry":{"type":"LineString","coordinates":[[16.62912,50.43885],[16.62846,50.43881]]}},{"type":"Feature","properties":{"numer":"8,E67","klasa":"droga gĹ‚Ăłwna ruchu przyĹ›pieszonego","kat":"gminna"},"geometry":{"type":"LineString","coordinates":[[16.6139214488118,50.43746122734331],[16.61988,50.4381],[16.62201,50.43862],[16.62364,50.43918],[16.62421,50.43945],[16.62554,50.44033]]}},{"type":"Feature","properties":{"numer":"118993D","klasa":"droga lokalna","kat":"powiatowa"},"geometry":{"type":"LineString","coordinates":[[16.62992,50.43891],[16.62912,50.43885]]}},{"type":"Feature","properties":{"numer":"118993D","klasa":"droga lokalna","kat":"powiatowa"},"geometry":{"type":"LineString","coordinates":[[16.63274,50.43908],[16.62992,50.43891]]}},{"type":"Feature","properties":{"numer":"119047D","klasa":"","kat":"powiatowa"},"geometry":{"type":"LineString","coordinates":[[16.63589,50.43882],[16.63567,50.4392]]}},{"type":"Feature","properties":{"numer":"118993D","klasa":"droga lokalna","kat":"powiatowa"},"geometry":{"type":"LineString","coordinates":[[16.63481,50.43925],[16.63274,50.43908]]}},{"type":"Feature","properties":{"numer":"119047D","klasa":"droga lokalna","kat":"powiatowa"},"geometry":{"type":"LineString","coordinates":[[16.63567,50.4392],[16.63561,50.43933]]}},{"type":"Feature","properties":{"numer":"118993D","klasa":"","kat":"powiatowa"},"geometry":{"type":"LineString","coordinates":[[16.63543,50.4393],[16.63481,50.43925]]}},{"type":"Feature","properties":{"numer":"118993D","klasa":"droga lokalna","kat":"powiatowa"},"geometry":{"type":"LineString","coordinates":[[16.63561,50.43933],[16.63543,50.4393]]}},{"type":"Feature","properties":{"numer":"118993D","klasa":"droga lokalna","kat":"powiatowa"},"geometry":{"type":"LineString","coordinates":[[16.63561,50.43933],[16.63581,50.43934]]}},{"type":"Feature","properties":{"numer":"118993D","klasa":"","kat":"powiatowa"},"geometry":{"type":"LineString","coordinates":[[16.63581,50.43934],[16.63643,50.4394]]}},{"type":"Feature","properties":{"numer":"119047D","klasa":"droga lokalna","kat":"powiatowa"},"geometry":{"type":"LineString","coordinates":[[16.63561,50.43933],[16.63556,50.43944]]}},{"type":"Feature","properties":{"numer":"118993D","klasa":"droga lokalna","kat":"powiatowa"},"geometry":{"type":"LineString","coordinates":[[16.63643,50.4394],[16.63702,50.43944]]}},{"type":"Feature","properties":{"numer":"118993D","klasa":"droga lokalna","kat":"powiatowa"},"geometry":{"type":"LineString","coordinates":[[16.63702,50.43944],[16.6374,50.43948]]}},{"type":"Feature","properties":{"numer":"33","klasa":"droga gĹ‚Ăłwna","kat":"krajowa"},"geometry":{"type":"LineString","coordinates":[[16.62713,50.43872],[16.62698,50.43922],[16.62668,50.43962],[16.62554,50.44033]]}},{"type":"Feature","properties":{"numer":"118993D","klasa":"droga lokalna","kat":"powiatowa"},"geometry":{"type":"LineString","coordinates":[[16.6374,50.43948],[16.63868,50.43958]]}},{"type":"Feature","properties":{"numer":"119047D","klasa":"","kat":"powiatowa"},"geometry":{"type":"LineString","coordinates":[[16.63556,50.43944],[16.63539,50.43974]]}},{"type":"Feature","properties":{"numer":"118993D","klasa":"droga lokalna","kat":"powiatowa"},"geometry":{"type":"LineString","coordinates":[[16.63868,50.43958],[16.63996,50.4397]]}},{"type":"Feature","properties":{"numer":"118993D","klasa":"droga lokalna","kat":"powiatowa"},"geometry":{"type":"LineString","coordinates":[[16.63996,50.4397],[16.64111,50.43979]]}},{"type":"Feature","properties":{"numer":"118993D","klasa":"droga lokalna","kat":"powiatowa"},"geometry":{"type":"LineString","coordinates":[[16.64111,50.43979],[16.64217,50.43987]]}},{"type":"Feature","properties":{"numer":"118993D","klasa":"","kat":"powiatowa"},"geometry":{"type":"LineString","coordinates":[[16.64217,50.43987],[16.64272,50.43992]]}},{"type":"Feature","properties":{"numer":"118993D","klasa":"droga lokalna","kat":"powiatowa"},"geometry":{"type":"LineString","coordinates":[[16.64272,50.43992],[16.64284,50.43995]]}},{"type":"Feature","properties":{"numer":"118993D","klasa":"","kat":"powiatowa"},"geometry":{"type":"LineString","coordinates":[[16.64295,50.43994],[16.64372,50.43994]]}},{"type":"Feature","properties":{"numer":"118993D","klasa":"droga lokalna","kat":"powiatowa"},"geometry":{"type":"LineString","coordinates":[[16.64284,50.43995],[16.64295,50.43994]]}},{"type":"Feature","properties":{"numer":"119079D","klasa":"droga gĹ‚Ăłwna","kat":"powiatowa"},"geometry":{"type":"LineString","coordinates":[[16.66049,50.43909],[16.66045,50.43916]]}},{"type":"Feature","properties":{"numer":"","klasa":"droga gĹ‚Ăłwna","kat":"gminna"},"geometry":{"type":"LineString","coordinates":[[16.66043,50.4392],[16.66045,50.43916]]}},{"type":"Feature","properties":{"numer":"","klasa":"droga gĹ‚Ăłwna","kat":"gminna"},"geometry":{"type":"LineString","coordinates":[[16.66039,50.43928],[16.66043,50.4392]]}},{"type":"Feature","properties":{"numer":"","klasa":"droga gĹ‚Ăłwna","kat":"gminna"},"geometry":{"type":"LineString","coordinates":[[16.66037,50.43932],[16.66039,50.43928]]}},{"type":"Feature","properties":{"numer":"119079D","klasa":"droga lokalna","kat":"powiatowa"},"geometry":{"type":"LineString","coordinates":[[16.66045,50.43916],[16.66175,50.43954],[16.66197,50.43966]]}},{"type":"Feature","properties":{"numer":"3145D","klasa":"droga zbiorcza","kat":"powiatowa"},"geometry":{"type":"LineString","coordinates":[[16.66037,50.43932],[16.6619,50.43974]]}},{"type":"Feature","properties":{"numer":"118993D","klasa":"","kat":"powiatowa"},"geometry":{"type":"LineString","coordinates":[[16.64731,50.43972],[16.64812,50.43949]]}},{"type":"Feature","properties":{"numer":"119079D","klasa":"droga lokalna","kat":"powiatowa"},"geometry":{"type":"LineString","coordinates":[[16.66197,50.43966],[16.66193,50.43971]]}},{"type":"Feature","properties":{"numer":"119079D","klasa":"droga lokalna","kat":"powiatowa"},"geometry":{"type":"LineString","coordinates":[[16.66193,50.43971],[16.6619,50.43974]]}},{"type":"Feature","properties":{"numer":"3226D","klasa":"droga gĹ‚Ăłwna","kat":"powiatowa"},"geometry":{"type":"LineString","coordinates":[[16.64852,50.44007],[16.64812,50.43949]]}},{"type":"Feature","properties":{"numer":"119047D","klasa":"droga lokalna","kat":"powiatowa"},"geometry":{"type":"LineString","coordinates":[[16.63539,50.43974],[16.63509,50.44063]]}},{"type":"Feature","properties":{"numer":"119047D","klasa":"droga lokalna","kat":"powiatowa"},"geometry":{"type":"LineString","coordinates":[[16.63509,50.44063],[16.63505,50.44109]]}},{"type":"Feature","properties":{"numer":"119047D","klasa":"droga lokalna","kat":"powiatowa"},"geometry":{"type":"LineString","coordinates":[[16.63505,50.44109],[16.63506,50.44117]]}},{"type":"Feature","properties":{"numer":"119047D","klasa":"droga lokalna","kat":"powiatowa"},"geometry":{"type":"LineString","coordinates":[[16.63506,50.44117],[16.63522,50.44208],[16.63556,50.44281]]}},{"type":"Feature","properties":{"numer":"119105D","klasa":"droga lokalna","kat":"powiatowa"},"geometry":{"type":"LineString","coordinates":[[16.6346,50.44339],[16.63556,50.44281]]}},{"type":"Feature","properties":{"numer":"119047D","klasa":"droga lokalna","kat":"powiatowa"},"geometry":{"type":"LineString","coordinates":[[16.63556,50.44281],[16.63585,50.44341]]}},{"type":"Feature","properties":{"numer":"8,E67","klasa":"droga gĹ‚Ăłwna ruchu przyĹ›pieszonego","kat":"gminna"},"geometry":{"type":"LineString","coordinates":[[16.62554,50.44033],[16.62669,50.44126],[16.62771,50.44255],[16.62902,50.44598]]}},{"type":"Feature","properties":{"numer":"119105D","klasa":"droga lokalna","kat":"powiatowa"},"geometry":{"type":"LineString","coordinates":[[16.63439,50.44349],[16.6346,50.44339]]}},{"type":"Feature","properties":{"numer":"119047D","klasa":"droga lokalna","kat":"powiatowa"},"geometry":{"type":"LineString","coordinates":[[16.63585,50.44341],[16.63605,50.44382]]}},{"type":"Feature","properties":{"numer":"119105D","klasa":"droga lokalna","kat":"powiatowa"},"geometry":{"type":"LineString","coordinates":[[16.63343,50.44383],[16.63439,50.44349]]}},{"type":"Feature","properties":{"numer":"119105D","klasa":"droga lokalna","kat":"powiatowa"},"geometry":{"type":"LineString","coordinates":[[16.63324,50.4439],[16.63343,50.44383]]}},{"type":"Feature","properties":{"numer":"119047D","klasa":"droga lokalna","kat":"powiatowa"},"geometry":{"type":"LineString","coordinates":[[16.63605,50.44382],[16.63615,50.44404]]}},{"type":"Feature","properties":{"numer":"119105D","klasa":"droga lokalna","kat":"powiatowa"},"geometry":{"type":"LineString","coordinates":[[16.63244,50.44427],[16.63324,50.4439]]}},{"type":"Feature","properties":{"numer":"119047D","klasa":"droga lokalna","kat":"powiatowa"},"geometry":{"type":"LineString","coordinates":[[16.63615,50.44404],[16.63635,50.44444]]}},{"type":"Feature","properties":{"numer":"119105D","klasa":"droga lokalna","kat":"powiatowa"},"geometry":{"type":"LineString","coordinates":[[16.63161,50.44472],[16.63244,50.44427]]}},{"type":"Feature","properties":{"numer":"119047D","klasa":"droga lokalna","kat":"powiatowa"},"geometry":{"type":"LineString","coordinates":[[16.63635,50.44444],[16.63644,50.44463]]}},{"type":"Feature","properties":{"numer":"119047D","klasa":"droga lokalna","kat":"powiatowa"},"geometry":{"type":"LineString","coordinates":[[16.63644,50.44463],[16.63664,50.44502]]}},{"type":"Feature","properties":{"numer":"119105D","klasa":"droga lokalna","kat":"powiatowa"},"geometry":{"type":"LineString","coordinates":[[16.63087,50.44512],[16.63161,50.44472]]}},{"type":"Feature","properties":{"numer":"119047D","klasa":"droga lokalna","kat":"powiatowa"},"geometry":{"type":"LineString","coordinates":[[16.63664,50.44502],[16.63695,50.44564]]}},{"type":"Feature","properties":{"numer":"119105D","klasa":"droga lokalna","kat":"powiatowa"},"geometry":{"type":"LineString","coordinates":[[16.62947,50.44577],[16.63087,50.44512]]}},{"type":"Feature","properties":{"numer":"119105D","klasa":"droga lokalna","kat":"powiatowa"},"geometry":{"type":"LineString","coordinates":[[16.62902,50.44598],[16.62947,50.44577]]}},{"type":"Feature","properties":{"numer":"119047D","klasa":"droga lokalna","kat":"powiatowa"},"geometry":{"type":"LineString","coordinates":[[16.63695,50.44564],[16.63725,50.44626]]}},{"type":"Feature","properties":{"numer":"119047D","klasa":"droga lokalna","kat":"powiatowa"},"geometry":{"type":"LineString","coordinates":[[16.63725,50.44626],[16.63739,50.44655]]}},{"type":"Feature","properties":{"numer":"119047D","klasa":"droga lokalna","kat":"powiatowa"},"geometry":{"type":"LineString","coordinates":[[16.63739,50.44655],[16.63773,50.44727]]}},{"type":"Feature","properties":{"numer":"119047D","klasa":"droga lokalna","kat":"powiatowa"},"geometry":{"type":"LineString","coordinates":[[16.63773,50.44727],[16.63776,50.44733]]}},{"type":"Feature","properties":{"numer":"119047D","klasa":"droga lokalna","kat":"powiatowa"},"geometry":{"type":"LineString","coordinates":[[16.63776,50.44733],[16.63806,50.44796]]}},{"type":"Feature","properties":{"numer":"119047D","klasa":"droga lokalna","kat":"powiatowa"},"geometry":{"type":"LineString","coordinates":[[16.63806,50.44796],[16.63837,50.44857]]}},{"type":"Feature","properties":{"numer":"119047D","klasa":"droga lokalna","kat":"powiatowa"},"geometry":{"type":"LineString","coordinates":[[16.63837,50.44857],[16.63851,50.44884]]}},{"type":"Feature","properties":{"numer":"8,E67","klasa":"droga gĹ‚Ăłwna ruchu przyĹ›pieszonego","kat":"gminna"},"geometry":{"type":"LineString","coordinates":[[16.62902,50.44598],[16.62977,50.44798],[16.63037,50.44913],[16.63166,50.4506],[16.63296,50.4516]]}},{"type":"Feature","properties":{"numer":"118993D","klasa":"droga lokalna","kat":"powiatowa"},"geometry":{"type":"LineString","coordinates":[[16.64556,50.4399],[16.64731,50.43972]]}},{"type":"Feature","properties":{"numer":"118993D","klasa":"droga lokalna","kat":"powiatowa"},"geometry":{"type":"LineString","coordinates":[[16.64556,50.4399],[16.64372,50.43994]]}},{"type":"Feature","properties":{"numer":"3226D","klasa":"droga gĹ‚Ăłwna","kat":"powiatowa"},"geometry":{"type":"LineString","coordinates":[[16.64852,50.44007],[16.64883,50.44088],[16.6489,50.44149],[16.6483,50.44297]]}},{"type":"Feature","properties":{"numer":"3145D","klasa":"droga zbiorcza","kat":"powiatowa"},"geometry":{"type":"LineString","coordinates":[[16.6619,50.43974],[16.66534,50.44089],[16.66698,50.44116],[16.66969,50.4419],[16.67168,50.44267],[16.67316,50.44352],[16.67458,50.44456],[16.67522,50.44515],[16.67771,50.44682],[16.67808,50.44723],[16.67915,50.44907],[16.67974,50.44966],[16.68246,50.45137],[16.683672176720975,50.45187191692353]]}},{"type":"Feature","properties":{"numer":"3226D","klasa":"droga gĹ‚Ăłwna","kat":"powiatowa"},"geometry":{"type":"LineString","coordinates":[[16.6483,50.44297],[16.64759,50.44443],[16.64703,50.44504],[16.64011,50.44968]]}},{"type":"Feature","properties":{"numer":"","klasa":"droga gĹ‚Ăłwna","kat":"gminna"},"geometry":{"type":"LineString","coordinates":[[16.67114,50.45807],[16.67106,50.45735],[16.6704,50.45637],[16.66974,50.45557],[16.66836,50.4542],[16.66692,50.4531],[16.66359,50.45103],[16.66306,50.45073],[16.66183,50.45023],[16.66132,50.44992],[16.66017,50.44867],[16.6596,50.447],[16.65954,50.44628],[16.65959,50.4453],[16.66014,50.44383],[16.66022,50.44326],[16.65976,50.44199],[16.65988,50.44072],[16.65977,50.44025],[16.65986,50.43997],[16.66037,50.43932]]}},{"type":"Feature","properties":{"numer":"3226D","klasa":"droga gĹ‚Ăłwna","kat":"powiatowa"},"geometry":{"type":"LineString","coordinates":[[16.6483,50.44297],[16.64981,50.44358],[16.65018,50.44563],[16.65216,50.45015],[16.65242,50.45112],[16.65274,50.4518],[16.65266,50.4522],[16.65274,50.45284],[16.6531,50.4533],[16.65313,50.45382],[16.65239,50.45562],[16.6524,50.45622],[16.65273,50.45674],[16.65269,50.45693]]}},{"type":"Feature","properties":{"numer":"119047D","klasa":"droga lokalna","kat":"powiatowa"},"geometry":{"type":"LineString","coordinates":[[16.63851,50.44884],[16.63868,50.44917]]}},{"type":"Feature","properties":{"numer":"119047D","klasa":"droga lokalna","kat":"powiatowa"},"geometry":{"type":"LineString","coordinates":[[16.63899,50.44962],[16.63868,50.44917]]}},{"type":"Feature","properties":{"numer":"3308D","klasa":"droga zbiorcza","kat":"powiatowa"},"geometry":{"type":"LineString","coordinates":[[16.610112499999985,50.4530575],[16.61306,50.45251],[16.61466,50.45179],[16.61716,50.45104],[16.61807,50.45049],[16.61984,50.45037],[16.62304,50.44939],[16.62519,50.44842],[16.62562,50.44798],[16.62584,50.44712],[16.62614,50.4469],[16.62729,50.44639],[16.6283,50.44622],[16.62902,50.44598]]}},{"type":"Feature","properties":{"numer":"119047D","klasa":"droga lokalna","kat":"powiatowa"},"geometry":{"type":"LineString","coordinates":[[16.63899,50.44962],[16.63902,50.44965]]}},{"type":"Feature","properties":{"numer":"3226D","klasa":"droga gĹ‚Ăłwna","kat":"powiatowa"},"geometry":{"type":"LineString","coordinates":[[16.64011,50.44968],[16.63963,50.45001]]}},{"type":"Feature","properties":{"numer":"3226D","klasa":"droga gĹ‚Ăłwna","kat":"powiatowa"},"geometry":{"type":"LineString","coordinates":[[16.63963,50.45001],[16.63899,50.45044]]}},{"type":"Feature","properties":{"numer":"3226D","klasa":"droga gĹ‚Ăłwna","kat":"powiatowa"},"geometry":{"type":"LineString","coordinates":[[16.63899,50.45044],[16.63571,50.45263]]}},{"type":"Feature","properties":{"numer":"8,E67","klasa":"droga gĹ‚Ăłwna ruchu przyĹ›pieszonego","kat":"gminna"},"geometry":{"type":"LineString","coordinates":[[16.63296,50.4516],[16.63508,50.45306]]}},{"type":"Feature","properties":{"numer":"3226D","klasa":"droga gĹ‚Ăłwna","kat":"powiatowa"},"geometry":{"type":"LineString","coordinates":[[16.63571,50.45263],[16.63513,50.45302]]}},{"type":"Feature","properties":{"numer":"381","klasa":"droga gĹ‚Ăłwna","kat":"wojewodzka"},"geometry":{"type":"LineString","coordinates":[[16.63508,50.45306],[16.63513,50.45302]]}},{"type":"Feature","properties":{"numer":"381","klasa":"droga gĹ‚Ăłwna","kat":"wojewodzka"},"geometry":{"type":"LineString","coordinates":[[16.6345,50.45346],[16.63508,50.45306]]}},{"type":"Feature","properties":{"numer":"8,E67","klasa":"droga gĹ‚Ăłwna ruchu przyĹ›pieszonego","kat":"gminna"},"geometry":{"type":"LineString","coordinates":[[16.63508,50.45306],[16.63716,50.45437]]}},{"type":"Feature","properties":{"numer":"381","klasa":"droga gĹ‚Ăłwna","kat":"wojewodzka"},"geometry":{"type":"LineString","coordinates":[[16.62865657140926,50.45760135421679],[16.62893,50.45727],[16.62944,50.45685],[16.6345,50.45346]]}},{"type":"Feature","properties":{"numer":"3226D","klasa":"droga gĹ‚Ăłwna","kat":"powiatowa"},"geometry":{"type":"LineString","coordinates":[[16.64181,50.46402],[16.641811878753753,50.46403069444444]]}},{"type":"Feature","properties":{"numer":"8,E67","klasa":"droga gĹ‚Ăłwna ruchu przyĹ›pieszonego","kat":"gminna"},"geometry":{"type":"LineString","coordinates":[[16.63716,50.45437],[16.63809,50.45483],[16.63934,50.4553],[16.6414,50.45579],[16.64301,50.456],[16.65074,50.45673]]}},{"type":"Feature","properties":{"numer":"8,E67","klasa":"droga gĹ‚Ăłwna ruchu przyĹ›pieszonego","kat":"gminna"},"geometry":{"type":"LineString","coordinates":[[16.65074,50.45673],[16.65269,50.45693]]}},{"type":"Feature","properties":{"numer":"8,E67","klasa":"droga gĹ‚Ăłwna ruchu przyĹ›pieszonego","kat":"gminna"},"geometry":{"type":"LineString","coordinates":[[16.65269,50.45693],[16.65618,50.45738],[16.659439677188118,50.45790921817878]]}},{"type":"Feature","properties":{"numer":"8,E67","klasa":"droga gĹ‚Ăłwna ruchu przyĹ›pieszonego","kat":"gminna"},"geometry":{"type":"LineString","coordinates":[[16.66472893617021,50.45849],[16.66553,50.45849],[16.66911,50.45792],[16.67027,50.45794],[16.67114,50.45807]]}},{"type":"Feature","properties":{"numer":"3226D","klasa":"droga gĹ‚Ăłwna","kat":"powiatowa"},"geometry":{"type":"LineString","coordinates":[[16.65269,50.45693],[16.65224,50.4574],[16.65219,50.45783],[16.65231,50.45822],[16.6522,50.4583],[16.64777,50.4588],[16.64546,50.45996],[16.64231,50.46245],[16.6418,50.46322],[16.64181,50.46402]]}},{"type":"Feature","properties":{"numer":"8,E67","klasa":"droga gĹ‚Ăłwna ruchu przyĹ›pieszonego","kat":"gminna"},"geometry":{"type":"LineString","coordinates":[[16.67114,50.45807],[16.67173,50.45823],[16.672456785714285,50.45852464285714]]}}]}