{"type":"FeatureCollection","features":[{"type":"Feature","properties":{"numer":"2267D","klasa":"","kat":"powiatowa"},"geometry":{"type":"LineString","coordinates":[[15.97019,51.20557],[15.970189546864384,51.20556477151212]]}},{"type":"Feature","properties":{"numer":"A4,E40","klasa":"autostrada","kat":"krajowa"},"geometry":{"type":"LineString","coordinates":[[15.996034697986577,51.20602740172579],[15.99602,51.20604]]}},{"type":"Feature","properties":{"numer":"2267D","klasa":"droga gĹ‚Ăłwna","kat":"powiatowa"},"geometry":{"type":"LineString","coordinates":[[15.97019,51.20559],[15.97024,51.20624],[15.9697,51.20733],[15.97014,51.20822],[15.97015,51.20845],[15.96991,51.20898],[15.9691,51.21017],[15.96876,51.21167],[15.96877,51.21201],[15.96901,51.21243],[15.96989,51.21343],[15.97006,51.21399],[15.97004,51.21437],[15.96988,51.2147],[15.96924,51.21508],[15.96853,51.21529],[15.96747,51.21546],[15.96722,51.21605]]}},{"type":"Feature","properties":{"numer":"A4,E40","klasa":"autostrada","kat":"krajowa"},"geometry":{"type":"LineString","coordinates":[[15.99602,51.20604],[15.99416,51.20774],[15.98728,51.21459],[15.9849,51.21647],[15.984208133140273,51.21691683068024]]}},{"type":"Feature","properties":{"numer":"A4,E40","klasa":"autostrada","kat":"krajowa"},"geometry":{"type":"LineString","coordinates":[[15.983173626185723,51.217557421862814],[15.98175,51.21834],[15.97259,51.22245]]}},{"type":"Feature","properties":{"numer":"328","klasa":"droga gĹ‚Ăłwna","kat":"wojewodzka"},"geometry":{"type":"LineString","coordinates":[[15.93077,51.22623],[15.92966,51.22293],[15.92932020353361,51.220640844858]]}},{"type":"Feature","properties":{"numer":"2267D","klasa":"droga gĹ‚Ăłwna","kat":"powiatowa"},"geometry":{"type":"LineString","coordinates":[[15.95633,51.21981],[15.9562,51.21985]]}},{"type":"Feature","properties":{"numer":"2267D","klasa":"droga gĹ‚Ăłwna","kat":"powiatowa"},"geometry":{"type":"LineString","coordinates":[[15.9562,51.21985],[15.95479,51.22017],[15.95392,51.22014],[15.95356,51.22033],[15.9535,51.22051],[15.95383,51.2219],[15.95278,51.22301],[15.95221,51.22474],[15.95179,51.22527],[15.951,51.22573],[15.94689,51.22708],[15.94644,51.22737],[15.94628,51.22756]]}},{"type":"Feature","properties":{"numer":"A4,E40","klasa":"autostrada","kat":"krajowa"},"geometry":{"type":"LineString","coordinates":[[15.97259,51.22245],[15.9697,51.22371],[15.96785,51.2244],[15.96511,51.2252],[15.96355,51.22556],[15.96022,51.22613],[15.94611,51.22785]]}},{"type":"Feature","properties":{"numer":"2631D","klasa":"","kat":"powiatowa"},"geometry":{"type":"LineString","coordinates":[[15.93077,51.22623],[15.93025,51.22635]]}},{"type":"Feature","properties":{"numer":"2631D","klasa":"","kat":"powiatowa"},"geometry":{"type":"LineString","coordinates":[[15.93025,51.22635],[15.93011,51.22637]]}},{"type":"Feature","properties":{"numer":"2631D","klasa":"","kat":"powiatowa"},"geometry":{"type":"LineString","coordinates":[[15.92974,51.22645],[15.93011,51.22637]]}},{"type":"Feature","properties":{"numer":"2267D","klasa":"droga gĹ‚Ăłwna","kat":"powiatowa"},"geometry":{"type":"LineString","coordinates":[[15.96722,51.21605],[15.96715,51.21614]]}},{"type":"Feature","properties":{"numer":"2267D","klasa":"droga gĹ‚Ăłwna","kat":"powiatowa"},"geometry":{"type":"LineString","coordinates":[[15.96715,51.21614],[15.96689,51.21628],[15.96593,51.21629],[15.96545,51.2164],[15.96448,51.21704],[15.96276,51.21776],[15.95995,51.21873],[15.95784,51.21925],[15.95633,51.21981]]}},{"type":"Feature","properties":{"numer":"2217D","klasa":"droga zbiorcza","kat":"powiatowa"},"geometry":{"type":"LineString","coordinates":[[15.97236,51.22237],[15.97259,51.22245]]}},{"type":"Feature","properties":{"numer":"2217D","klasa":"droga zbiorcza","kat":"powiatowa"},"geometry":{"type":"LineString","coordinates":[[15.97259,51.22245],[15.97283,51.22253]]}},{"type":"Feature","properties":{"numer":"2217D","klasa":"droga zbiorcza","kat":"powiatowa"},"geometry":{"type":"LineString","coordinates":[[15.97283,51.22253],[15.97675,51.22383],[15.97814,51.22444],[15.9799,51.22477],[15.98122,51.22604]]}},{"type":"Feature","properties":{"numer":"2217D","klasa":"droga zbiorcza","kat":"powiatowa"},"geometry":{"type":"LineString","coordinates":[[15.9866,51.22942],[15.98668,51.22917],[15.98661,51.22906],[15.98571,51.22889],[15.98328,51.22808],[15.98134,51.22718],[15.98097,51.22681],[15.98122,51.22604]]}},{"type":"Feature","properties":{"numer":"104281D","klasa":"droga lokalna","kat":"powiatowa"},"geometry":{"type":"LineString","coordinates":[[15.9867,51.22956],[15.9866,51.22942]]}},{"type":"Feature","properties":{"numer":"2217D","klasa":"droga zbiorcza","kat":"powiatowa"},"geometry":{"type":"LineString","coordinates":[[15.98633,51.22965],[15.9866,51.22942]]}},{"type":"Feature","properties":{"numer":"2217D","klasa":"droga zbiorcza","kat":"powiatowa"},"geometry":{"type":"LineString","coordinates":[[15.9867,51.22956],[15.98633,51.22965]]}},{"type":"Feature","properties":{"numer":"2267D","klasa":"droga gĹ‚Ăłwna","kat":"powiatowa"},"geometry":{"type":"LineString","coordinates":[[15.94628,51.22756],[15.94611,51.22785]]}},{"type":"Feature","properties":{"numer":"328","klasa":"droga gĹ‚Ăłwna","kat":"wojewodzka"},"geometry":{"type":"LineString","coordinates":[[15.93166,51.22959],[15.93137,51.22811],[15.93077,51.22623]]}},{"type":"Feature","properties":{"numer":"2267D","klasa":"droga gĹ‚Ăłwna","kat":"powiatowa"},"geometry":{"type":"LineString","coordinates":[[15.94611,51.22785],[15.94601,51.22805]]}},{"type":"Feature","properties":{"numer":"2631D","klasa":"","kat":"powiatowa"},"geometry":{"type":"LineString","coordinates":[[15.92974,51.22645],[15.922355974413652,51.22813638472137]]}},{"type":"Feature","properties":{"numer":"A4,E40","klasa":"autostrada","kat":"krajowa"},"geometry":{"type":"LineString","coordinates":[[15.94611,51.22785],[15.93166,51.22959]]}},{"type":"Feature","properties":{"numer":"328","klasa":"droga gĹ‚Ăłwna","kat":"wojewodzka"},"geometry":{"type":"LineString","coordinates":[[15.93214,51.23194],[15.93166,51.22959]]}},{"type":"Feature","properties":{"numer":"2267D","klasa":"droga gĹ‚Ăłwna","kat":"powiatowa"},"geometry":{"type":"LineString","coordinates":[[15.94601,51.22805],[15.9456,51.2292],[15.94412,51.2314],[15.94263,51.23267],[15.94229,51.23326],[15.94197,51.23358],[15.94153,51.23377],[15.94101,51.23385]]}},{"type":"Feature","properties":{"numer":"2267D","klasa":"droga gĹ‚Ăłwna","kat":"powiatowa"},"geometry":{"type":"LineString","coordinates":[[15.93251,51.23199],[15.93214,51.23194]]}},{"type":"Feature","properties":{"numer":"2267D","klasa":"droga gĹ‚Ăłwna","kat":"powiatowa"},"geometry":{"type":"LineString","coordinates":[[15.94101,51.23385],[15.9363,51.23305],[15.93413,51.2325],[15.93251,51.23199]]}},{"type":"Feature","properties":{"numer":"2217D","klasa":"droga zbiorcza","kat":"powiatowa"},"geometry":{"type":"LineString","coordinates":[[15.98633,51.22965],[15.98573,51.2298],[15.98536,51.23007]]}},{"type":"Feature","properties":{"numer":"2217D","klasa":"droga zbiorcza","kat":"powiatowa"},"geometry":{"type":"LineString","coordinates":[[15.98531,51.23012],[15.98536,51.23007]]}},{"type":"Feature","properties":{"numer":"2217D","klasa":"droga zbiorcza","kat":"powiatowa"},"geometry":{"type":"LineString","coordinates":[[15.98531,51.23012],[15.98514,51.23041],[15.98511,51.23086],[15.98517,51.23523]]}},{"type":"Feature","properties":{"numer":"2217D","klasa":"droga zbiorcza","kat":"powiatowa"},"geometry":{"type":"LineString","coordinates":[[15.98517,51.23527],[15.98517,51.23523]]}},{"type":"Feature","properties":{"numer":"2217D","klasa":"droga zbiorcza","kat":"powiatowa"},"geometry":{"type":"LineString","coordinates":[[15.98517,51.23527],[15.98519,51.2378]]}},{"type":"Feature","properties":{"numer":"2216D","klasa":"droga gĹ‚Ăłwna","kat":"powiatowa"},"geometry":{"type":"LineString","coordinates":[[15.96593,51.23728],[15.96686,51.23731],[15.96867,51.23723],[15.97115,51.23772],[15.97904,51.23825],[15.98038,51.23821],[15.98519,51.2378]]}},{"type":"Feature","properties":{"numer":"2216D","klasa":"droga gĹ‚Ăłwna","kat":"powiatowa"},"geometry":{"type":"LineString","coordinates":[[15.98519,51.2378],[15.98565,51.23794],[15.98637,51.23835],[15.98738,51.2395],[15.98772,51.24418],[15.98764,51.24534]]}},{"type":"Feature","properties":{"numer":"2266D","klasa":"","kat":"powiatowa"},"geometry":{"type":"LineString","coordinates":[[15.798026791978637,51.24139219645007],[15.79802,51.2414]]}},{"type":"Feature","properties":{"numer":"2266D","klasa":"droga gĹ‚Ăłwna","kat":"powiatowa"},"geometry":{"type":"LineString","coordinates":[[15.79802,51.2414],[15.79564,51.24487],[15.79397,51.24665],[15.79046,51.24951],[15.78869,51.25215]]}},{"type":"Feature","properties":{"numer":"2266D","klasa":"droga gĹ‚Ăłwna","kat":"powiatowa"},"geometry":{"type":"LineString","coordinates":[[15.78869,51.25215],[15.78737,51.25408],[15.78665,51.25471]]}},{"type":"Feature","properties":{"numer":"2268D","klasa":"droga gĹ‚Ăłwna","kat":"powiatowa"},"geometry":{"type":"LineString","coordinates":[[15.84697,51.25881],[15.84733,51.25849],[15.8476,51.25795],[15.84922,51.25405],[15.84933,51.25349]]}},{"type":"Feature","properties":{"numer":"2219D","klasa":"droga gĹ‚Ăłwna","kat":"powiatowa"},"geometry":{"type":"LineString","coordinates":[[15.84697,51.25881],[15.84739,51.25889]]}},{"type":"Feature","properties":{"numer":"2216D","klasa":"droga gĹ‚Ăłwna","kat":"powiatowa"},"geometry":{"type":"LineString","coordinates":[[15.94101,51.23385],[15.94225,51.23419],[15.94299,51.23427],[15.94914,51.23367],[15.94979,51.23368],[15.95048,51.23391],[15.95179,51.2348],[15.95255,51.23514],[15.95686,51.23557],[15.96047,51.23648],[15.96593,51.23728]]}},{"type":"Feature","properties":{"numer":"328","klasa":"droga gĹ‚Ăłwna","kat":"wojewodzka"},"geometry":{"type":"LineString","coordinates":[[15.93388,51.24286],[15.93398,51.24258],[15.93358,51.24131],[15.93445,51.23688],[15.93422,51.23616],[15.93289,51.23405],[15.93214,51.23194]]}},{"type":"Feature","properties":{"numer":"A4,E40","klasa":"autostrada","kat":"krajowa"},"geometry":{"type":"LineString","coordinates":[[15.93166,51.22959],[15.92605,51.23027],[15.925881308880388,51.230295372241564]]}},{"type":"Feature","properties":{"numer":"104290D,328","klasa":"droga gĹ‚Ăłwna","kat":"powiatowa"},"geometry":{"type":"LineString","coordinates":[[15.93388,51.24286],[15.93324,51.24324]]}},{"type":"Feature","properties":{"numer":"2215D","klasa":"droga gĹ‚Ăłwna","kat":"powiatowa"},"geometry":{"type":"LineString","coordinates":[[15.96593,51.23728],[15.96227,51.24092],[15.96011,51.24371],[15.95926,51.24531],[15.95809,51.2493],[15.95714,51.25136],[15.95621,51.25306],[15.95475,51.25517],[15.95299,51.25709],[15.95299,51.25807],[15.95251,51.25942],[15.95261,51.26027]]}},{"type":"Feature","properties":{"numer":"2268D","klasa":"","kat":"powiatowa"},"geometry":{"type":"LineString","coordinates":[[15.849350849704244,51.25341107810544],[15.84935,51.25342]]}},{"type":"Feature","properties":{"numer":"2268D","klasa":"droga gĹ‚Ăłwna","kat":"powiatowa"},"geometry":{"type":"LineString","coordinates":[[15.84933,51.25349],[15.84935,51.25342]]}},{"type":"Feature","properties":{"numer":"328","klasa":"droga gĹ‚Ăłwna","kat":"wojewodzka"},"geometry":{"type":"LineString","coordinates":[[15.93324,51.24324],[15.9331,51.24344],[15.93253,51.24557],[15.93176,51.24671],[15.92996,51.24855],[15.92951,51.24934],[15.92935,51.24986],[15.92915,51.25142],[15.92906,51.25589],[15.92854,51.25829],[15.92866,51.26062],[15.928582704081633,51.26242357142857]]}},{"type":"Feature","properties":{"numer":"94","klasa":"droga gĹ‚Ăłwna","kat":"krajowa"},"geometry":{"type":"LineString","coordinates":[[15.98764,51.24534],[15.99373,51.2437],[15.99543,51.24335],[16.01092,51.24147],[16.014811690139883,51.24127790560553]]}},{"type":"Feature","properties":{"numer":"2216D,94","klasa":"droga gĹ‚Ăłwna","kat":"powiatowa"},"geometry":{"type":"LineString","coordinates":[[15.98764,51.24534],[15.98601,51.24576]]}},{"type":"Feature","properties":{"numer":"2216D","klasa":"droga gĹ‚Ăłwna","kat":"powiatowa"},"geometry":{"type":"LineString","coordinates":[[15.98601,51.24576],[15.98761,51.2469],[15.98971,51.24745],[15.99077,51.24765],[15.99113,51.24767],[15.99238,51.2475],[15.99397,51.24749],[15.9948,51.2474],[15.99584,51.24743],[15.99973,51.248],[16.00011,51.24827],[16.0022,51.24831],[16.00604,51.24792],[16.00745,51.24785],[16.00872,51.24762],[16.0093,51.24741],[16.01081,51.2477],[16.01178,51.24773],[16.01214,51.24782],[16.01261,51.24809],[16.01327,51.24885],[16.01427,51.2493],[16.01511764542937,51.24954252077563]]}},{"type":"Feature","properties":{"numer":"94","klasa":"droga gĹ‚Ăłwna","kat":"krajowa"},"geometry":{"type":"LineString","coordinates":[[15.98601,51.24576],[15.98264,51.24666],[15.98096,51.24718],[15.97563,51.24962],[15.97457,51.25001],[15.97077,51.25097],[15.96962,51.25134],[15.96888,51.2517],[15.96763,51.25247],[15.96558,51.25414],[15.96479,51.25463],[15.9602,51.25641],[15.95798,51.25741],[15.95564,51.25857],[15.95261,51.26027]]}},{"type":"Feature","properties":{"numer":"2218D","klasa":"droga gĹ‚Ăłwna","kat":"powiatowa"},"geometry":{"type":"LineString","coordinates":[[15.88881,51.25561],[15.88898,51.25558]]}},{"type":"Feature","properties":{"numer":"2218D","klasa":"droga gĹ‚Ăłwna","kat":"powiatowa"},"geometry":{"type":"LineString","coordinates":[[15.88652,51.25611],[15.88703,51.25605],[15.88758,51.25618],[15.88783,51.25617],[15.88842,51.25574],[15.88881,51.25561]]}},{"type":"Feature","properties":{"numer":"2218D","klasa":"droga gĹ‚Ăłwna","kat":"powiatowa"},"geometry":{"type":"LineString","coordinates":[[15.88898,51.25558],[15.88959,51.25554],[15.88979,51.25597],[15.89022,51.25642],[15.89059,51.25752],[15.8912,51.25819],[15.89225,51.25896],[15.89354,51.25901],[15.8945,51.25946],[15.8956,51.25972],[15.89714,51.25973],[15.90013,51.26013],[15.90061,51.26033],[15.90112,51.26066],[15.90159,51.26122],[15.90239,51.26179],[15.90241,51.26203],[15.90186,51.26289],[15.90201,51.26307],[15.90265,51.26336],[15.90504,51.26397],[15.90681,51.26434],[15.90881,51.26455],[15.91041,51.26431],[15.91093,51.26412],[15.91162,51.26403],[15.91346,51.26396],[15.91442,51.2638],[15.9162,51.26375],[15.91677,51.26399],[15.91793,51.26476],[15.92051,51.26559],[15.92134,51.26613],[15.922328239889124,51.26656052034774]]}},{"type":"Feature","properties":{"numer":"94","klasa":"droga gĹ‚Ăłwna","kat":"krajowa"},"geometry":{"type":"LineString","coordinates":[[15.95261,51.26027],[15.95037,51.26154],[15.94863,51.26289]]}},{"type":"Feature","properties":{"numer":"328,94","klasa":"droga gĹ‚Ăłwna","kat":"gminna"},"geometry":{"type":"LineString","coordinates":[[15.94863,51.26289],[15.948432793205702,51.26301265300621]]}},{"type":"Feature","properties":{"numer":"2219D","klasa":"droga gĹ‚Ăłwna","kat":"powiatowa"},"geometry":{"type":"LineString","coordinates":[[15.922686590730558,51.26925423409269],[15.92015,51.26837],[15.91813,51.26797],[15.91739,51.26765],[15.91408,51.26735],[15.9113,51.26725],[15.9092,51.26677],[15.90882,51.26686],[15.90815,51.26722],[15.90746,51.26732],[15.90408,51.26701],[15.90218,51.26704],[15.89636,51.26851],[15.89591,51.2685],[15.89498,51.26768],[15.89448,51.26747],[15.89139,51.26732],[15.89061,51.26715],[15.8901,51.26676],[15.88882,51.26529],[15.88819,51.26487],[15.88749,51.26457],[15.88096,51.26294],[15.87545,51.2614],[15.87514,51.26112],[15.87528,51.25977],[15.8752,51.25959],[15.87491,51.25944],[15.87291,51.25936],[15.8722,51.25925],[15.87139,51.25894],[15.87049,51.25831],[15.86824,51.25778],[15.86791,51.25776],[15.86658,51.25797],[15.86437,51.25777],[15.86357,51.25782],[15.86081,51.2585],[15.85628,51.25987],[15.85499,51.26005],[15.85426,51.26003],[15.85321,51.25985],[15.85007,51.25913],[15.84739,51.25889]]}},{"type":"Feature","properties":{"numer":"A4,E40","klasa":"autostrada","kat":"krajowa"},"geometry":{"type":"LineString","coordinates":[[15.830748949726352,51.25900499725495],[15.80027,51.2714],[15.79657,51.27297],[15.79437,51.27401]]}},{"type":"Feature","properties":{"numer":"2268D","klasa":"droga gĹ‚Ăłwna","kat":"powiatowa"},"geometry":{"type":"LineString","coordinates":[[15.84567,51.27589],[15.84553,51.2711],[15.84494,51.2708],[15.84329,51.27023],[15.84298,51.26991],[15.84296,51.26958],[15.84362,51.26686],[15.84346,51.26416],[15.84352,51.26365],[15.84376,51.26325],[15.84553,51.2615],[15.8457,51.26109],[15.84571,51.26],[15.84592,51.25953],[15.84697,51.25881]]}},{"type":"Feature","properties":{"numer":"94","klasa":"droga gĹ‚Ăłwna","kat":"krajowa"},"geometry":{"type":"LineString","coordinates":[[15.77226,51.27206],[15.76882,51.27094],[15.76770361831219,51.270683440233235]]}},{"type":"Feature","properties":{"numer":"94","klasa":"droga gĹ‚Ăłwna","kat":"krajowa"},"geometry":{"type":"LineString","coordinates":[[15.7729,51.27227],[15.77226,51.27206]]}},{"type":"Feature","properties":{"numer":"94","klasa":"droga gĹ‚Ăłwna","kat":"krajowa"},"geometry":{"type":"LineString","coordinates":[[15.78478,51.27274],[15.77809,51.2719],[15.77686,51.272],[15.77466,51.27244],[15.77386,51.27245],[15.7729,51.27227]]}},{"type":"Feature","properties":{"numer":"94","klasa":"droga gĹ‚Ăłwna","kat":"krajowa"},"geometry":{"type":"LineString","coordinates":[[15.78648,51.27296],[15.78478,51.27274]]}},{"type":"Feature","properties":{"numer":"94","klasa":"droga gĹ‚Ăłwna","kat":"krajowa"},"geometry":{"type":"LineString","coordinates":[[15.79393,51.27395],[15.78648,51.27296]]}},{"type":"Feature","properties":{"numer":"94","klasa":"droga gĹ‚Ăłwna","kat":"krajowa"},"geometry":{"type":"LineString","coordinates":[[15.79437,51.27401],[15.79393,51.27395]]}},{"type":"Feature","properties":{"numer":"94","klasa":"droga gĹ‚Ăłwna","kat":"krajowa"},"geometry":{"type":"LineString","coordinates":[[15.79488,51.27408],[15.79437,51.27401]]}},{"type":"Feature","properties":{"numer":"328","klasa":"droga gĹ‚Ăłwna","kat":"wojewodzka"},"geometry":{"type":"LineString","coordinates":[[15.949157702335688,51.26704497555676],[15.94925,51.26682],[15.949265666284214,51.26647882314376]]}},{"type":"Feature","properties":{"numer":"328","klasa":"droga gĹ‚Ăłwna","kat":"wojewodzka"},"geometry":{"type":"LineString","coordinates":[[15.948634784307716,51.26293032487932],[15.94863,51.26289]]}},{"type":"Feature","properties":{"numer":"94","klasa":"droga gĹ‚Ăłwna","kat":"krajowa"},"geometry":{"type":"LineString","coordinates":[[15.91512180442375,51.2721195459837],[15.91512,51.27212]]}},{"type":"Feature","properties":{"numer":"2225D","klasa":"droga gĹ‚Ăłwna","kat":"powiatowa"},"geometry":{"type":"LineString","coordinates":[[15.91653103448271,51.27206534482759],[15.9153,51.27218],[15.91512,51.27212]]}},{"type":"Feature","properties":{"numer":"94","klasa":"droga gĹ‚Ăłwna","kat":"krajowa"},"geometry":{"type":"LineString","coordinates":[[15.91512,51.27212],[15.91398,51.27232],[15.90834,51.2729]]}},{"type":"Feature","properties":{"numer":"94","klasa":"droga gĹ‚Ăłwna","kat":"krajowa"},"geometry":{"type":"LineString","coordinates":[[15.90834,51.2729],[15.90713,51.27302]]}},{"type":"Feature","properties":{"numer":"94","klasa":"droga gĹ‚Ăłwna","kat":"krajowa"},"geometry":{"type":"LineString","coordinates":[[15.90713,51.27302],[15.89651,51.27409]]}},{"type":"Feature","properties":{"numer":"2220D","klasa":"","kat":"powiatowa"},"geometry":{"type":"LineString","coordinates":[[15.89645,51.27432],[15.89651,51.27409]]}},{"type":"Feature","properties":{"numer":"94","klasa":"droga gĹ‚Ăłwna","kat":"krajowa"},"geometry":{"type":"LineString","coordinates":[[15.89651,51.27409],[15.89197,51.27454],[15.88497,51.27457],[15.8763,51.27497],[15.87402,51.27525],[15.8647,51.27692],[15.86282,51.2771],[15.85874,51.27716],[15.85694,51.2771],[15.85478,51.27689],[15.84759,51.27598],[15.84567,51.27589]]}},{"type":"Feature","properties":{"numer":"2194D","klasa":"droga zbiorcza","kat":"powiatowa"},"geometry":{"type":"LineString","coordinates":[[15.97411,51.27826],[15.97376,51.27854],[15.97202,51.27898],[15.97154,51.27988],[15.97121,51.2801],[15.97063,51.28015],[15.96632,51.27979],[15.96081,51.27891],[15.9603,51.27856],[15.95779,51.2764],[15.95646,51.27564],[15.95595,51.27546],[15.95528,51.27539],[15.95411,51.27549],[15.953793752388993,51.27537180644841]]}},{"type":"Feature","properties":{"numer":"2214D","klasa":"droga zbiorcza","kat":"powiatowa"},"geometry":{"type":"LineString","coordinates":[[16.05219,51.27842],[16.05103,51.27713],[16.05045,51.27628],[16.05029,51.27575],[16.05017,51.27413],[16.05165,51.26819],[16.05179,51.26799],[16.05205,51.26786],[16.05600423677361,51.2666542237641]]}},{"type":"Feature","properties":{"numer":"2214D","klasa":"droga zbiorcza","kat":"powiatowa"},"geometry":{"type":"LineString","coordinates":[[16.05665732394367,51.26642633802817],[16.05703,51.26624],[16.05716,51.26592],[16.057146841198758,51.26578906992764]]}},{"type":"Feature","properties":{"numer":"2194D","klasa":"droga zbiorcza","kat":"powiatowa"},"geometry":{"type":"LineString","coordinates":[[15.97411,51.27826],[15.97439,51.2779]]}},{"type":"Feature","properties":{"numer":"2194D","klasa":"droga zbiorcza","kat":"powiatowa"},"geometry":{"type":"LineString","coordinates":[[16.05219,51.27842],[16.04908,51.27932],[16.04822,51.27968],[16.0469,51.28041],[16.0401,51.28282],[16.0395,51.28295],[16.0374,51.28305],[16.03681,51.28317],[16.03437,51.28409],[16.0311,51.28471],[16.02752,51.28593],[16.02486,51.28632],[16.02299,51.28629],[16.02161,51.28673],[16.02093,51.28679],[16.02008,51.28669],[16.01967,51.2865],[16.01954,51.28635],[16.01948,51.28567],[16.0193,51.28556],[16.01452,51.28547],[16.01396,51.28559],[16.01337,51.28616],[16.01299,51.28637],[16.01171,51.28669],[16.01108,51.28673],[16.01012,51.28659],[16.00477,51.28534],[16.00049,51.28482],[15.9982,51.28496],[15.99606,51.28486],[15.99447,51.28462],[15.99412,51.28474],[15.9937,51.28542],[15.9933,51.2857],[15.99245,51.28577],[15.99061,51.28555],[15.98917,51.28478],[15.98774,51.28366],[15.98695,51.28322],[15.98616,51.28262],[15.98468,51.28103],[15.98426,51.28034],[15.98393,51.28011],[15.98267,51.27975],[15.98051,51.27864],[15.97882,51.27817],[15.9753,51.2776],[15.97469,51.27768],[15.97439,51.2779]]}},{"type":"Feature","properties":{"numer":"335","klasa":"droga gĹ‚Ăłwna","kat":"wojewodzka"},"geometry":{"type":"LineString","coordinates":[[15.96735,51.29605],[15.96773,51.2962]]}},{"type":"Feature","properties":{"numer":"335","klasa":"droga gĹ‚Ăłwna","kat":"wojewodzka"},"geometry":{"type":"LineString","coordinates":[[15.96773,51.2962],[15.96997,51.29711]]}},{"type":"Feature","properties":{"numer":"335","klasa":"droga gĹ‚Ăłwna","kat":"wojewodzka"},"geometry":{"type":"LineString","coordinates":[[15.96997,51.29711],[15.97375,51.29865],[15.97486,51.29932],[15.97794,51.30166],[15.97871,51.30235],[15.97966,51.30352],[15.98019,51.30484]]}},{"type":"Feature","properties":{"numer":"335","klasa":"droga gĹ‚Ăłwna","kat":"wojewodzka"},"geometry":{"type":"LineString","coordinates":[[15.98021,51.3049],[15.98019,51.30484]]}},{"type":"Feature","properties":{"numer":"335","klasa":"droga gĹ‚Ăłwna","kat":"wojewodzka"},"geometry":{"type":"LineString","coordinates":[[15.98021,51.3049],[15.98045,51.30556]]}},{"type":"Feature","properties":{"numer":"2194D","klasa":"droga zbiorcza","kat":"powiatowa"},"geometry":{"type":"LineString","coordinates":[[16.05219,51.27842],[16.05487,51.27819],[16.05632,51.27825],[16.06017,51.27859],[16.0625,51.27825],[16.06597,51.27743],[16.06672467356688,51.277307488057325]]}},{"type":"Feature","properties":{"numer":"2220D","klasa":"","kat":"powiatowa"},"geometry":{"type":"LineString","coordinates":[[15.84148,51.2919],[15.84587,51.29107],[15.84728,51.29104],[15.84999,51.29126],[15.85241,51.29131],[15.85547,51.29104],[15.85736,51.29104],[15.86008,51.29065],[15.8682,51.29],[15.86936,51.28981],[15.87147,51.28924],[15.87412,51.28872],[15.87544,51.28834],[15.87606,51.28812],[15.87723,51.28749],[15.87958,51.28657],[15.88213,51.28503],[15.88288,51.2844],[15.88497,51.28214],[15.88694,51.28035],[15.88825,51.27969],[15.88919,51.2787],[15.89099,51.2774],[15.89597,51.27473],[15.89645,51.27432]]}},{"type":"Feature","properties":{"numer":"335","klasa":"droga gĹ‚Ăłwna","kat":"wojewodzka"},"geometry":{"type":"LineString","coordinates":[[15.96735,51.29605],[15.96631,51.29556],[15.96553,51.29506],[15.95985,51.29104],[15.95666,51.28845],[15.95097,51.28453],[15.94918,51.2834],[15.94832,51.28262],[15.94676,51.28088],[15.943745254680426,51.2779110714786]]}},{"type":"Feature","properties":{"numer":"2213D","klasa":"","kat":"powiatowa"},"geometry":{"type":"LineString","coordinates":[[15.93072,51.29918],[15.93118,51.29825],[15.93169,51.29777],[15.93173,51.29705],[15.93101,51.29139],[15.92935,51.28341],[15.92977,51.28212],[15.929581930835734,51.281085619596546]]}},{"type":"Feature","properties":{"numer":"328","klasa":"droga gĹ‚Ăłwna","kat":"wojewodzka"},"geometry":{"type":"LineString","coordinates":[[15.90531,51.29937],[15.90715,51.29848],[15.90912,51.29767],[15.90968,51.29733],[15.91111,51.29591],[15.91845,51.28906],[15.926035979404775,51.283060179925315]]}},{"type":"Feature","properties":{"numer":"2212D","klasa":"droga zbiorcza","kat":"powiatowa"},"geometry":{"type":"LineString","coordinates":[[15.90531,51.29937],[15.90569,51.2993],[15.90886,51.29924],[15.91116,51.29877],[15.91337,51.2987],[15.91536,51.29872],[15.91667,51.29885],[15.91903,51.29875],[15.9225,51.29905],[15.92485,51.29876],[15.92555,51.29877],[15.92618,51.29898],[15.92674,51.29905],[15.92717,51.29904],[15.92842,51.2988],[15.92945,51.29891],[15.93072,51.29918]]}},{"type":"Feature","properties":{"numer":"2212D","klasa":"droga zbiorcza","kat":"powiatowa"},"geometry":{"type":"LineString","coordinates":[[15.93072,51.29918],[15.93148,51.29939],[15.9343,51.29943],[15.9348,51.29939],[15.93618,51.29907],[15.9376,51.29903],[15.93938,51.29932],[15.94052,51.29961],[15.94205,51.29969],[15.94502,51.30013],[15.94553,51.30025],[15.94776,51.30108],[15.94904,51.30179],[15.95258,51.30294],[15.95306,51.30329],[15.95385,51.30363],[15.95403,51.30441],[15.95451,51.3047],[15.95585,51.30498],[15.95745,51.30493],[15.96223,51.30498],[15.96258,51.30491],[15.96302,51.30468],[15.96589,51.30176],[15.96705,51.29911],[15.96735,51.29869],[15.96804,51.29808],[15.96997,51.29711]]}},{"type":"Feature","properties":{"numer":"328","klasa":"droga gĹ‚Ăłwna","kat":"wojewodzka"},"geometry":{"type":"LineString","coordinates":[[15.89245,51.32799],[15.89397,51.3256],[15.89644,51.3227],[15.89857,51.31646],[15.89893,51.31269],[15.8989,51.31161],[15.89909,51.31144],[15.89941,51.31136],[15.90054,51.31134],[15.90118,51.31119],[15.90224,51.30969],[15.9023,51.30933],[15.90189,51.30751],[15.90201,51.30631],[15.90135,51.30413],[15.90122,51.30324],[15.90129,51.30266],[15.90155,51.30198],[15.90212,51.30115],[15.9029,51.30057],[15.90531,51.29937]]}},{"type":"Feature","properties":{"numer":"335","klasa":"droga gĹ‚Ăłwna","kat":"wojewodzka"},"geometry":{"type":"LineString","coordinates":[[15.98045,51.30556],[15.98047,51.30563]]}},{"type":"Feature","properties":{"numer":"335","klasa":"droga gĹ‚Ăłwna","kat":"wojewodzka"},"geometry":{"type":"LineString","coordinates":[[15.98047,51.30563],[15.98099,51.3071],[15.98192,51.30858]]}},{"type":"Feature","properties":{"numer":"335","klasa":"droga gĹ‚Ăłwna","kat":"wojewodzka"},"geometry":{"type":"LineString","coordinates":[[15.98192,51.30858],[15.98199,51.30866]]}},{"type":"Feature","properties":{"numer":"335","klasa":"droga gĹ‚Ăłwna","kat":"wojewodzka"},"geometry":{"type":"LineString","coordinates":[[15.98199,51.30866],[15.98229,51.30915],[15.98237,51.31015]]}},{"type":"Feature","properties":{"numer":"335","klasa":"droga gĹ‚Ăłwna","kat":"wojewodzka"},"geometry":{"type":"LineString","coordinates":[[15.98237,51.31015],[15.98259,51.31027],[15.98372,51.31054],[15.9849,51.3111],[15.98509,51.31131],[15.98508,51.31179]]}},{"type":"Feature","properties":{"numer":"2211D","klasa":"droga zbiorcza","kat":"powiatowa"},"geometry":{"type":"LineString","coordinates":[[15.97936,51.31254],[15.98126,51.3116],[15.98237,51.31015]]}},{"type":"Feature","properties":{"numer":"335","klasa":"droga gĹ‚Ăłwna","kat":"wojewodzka"},"geometry":{"type":"LineString","coordinates":[[15.98508,51.31179],[15.98507,51.31186]]}},{"type":"Feature","properties":{"numer":"2211D","klasa":"droga zbiorcza","kat":"powiatowa"},"geometry":{"type":"LineString","coordinates":[[15.97928,51.31257],[15.97936,51.31254]]}},{"type":"Feature","properties":{"numer":"335","klasa":"droga gĹ‚Ăłwna","kat":"wojewodzka"},"geometry":{"type":"LineString","coordinates":[[15.98507,51.31186],[15.98488,51.31313],[15.98493,51.31344]]}},{"type":"Feature","properties":{"numer":"335","klasa":"droga gĹ‚Ăłwna","kat":"wojewodzka"},"geometry":{"type":"LineString","coordinates":[[15.98493,51.31344],[15.98497,51.31351]]}},{"type":"Feature","properties":{"numer":"335","klasa":"droga gĹ‚Ăłwna","kat":"wojewodzka"},"geometry":{"type":"LineString","coordinates":[[15.98497,51.31351],[15.98541,51.31394],[15.98616,51.31431],[15.98653,51.31459],[15.98696,51.31567],[15.98787,51.31902],[15.98891,51.32036],[15.98928,51.32069],[15.98989,51.32104],[15.99127,51.32162],[15.99245,51.3219],[15.99813,51.32196],[16.00162,51.3224],[16.00219,51.3226],[16.00381,51.32351]]}},{"type":"Feature","properties":{"numer":"1232D","klasa":"droga zbiorcza","kat":"powiatowa"},"geometry":{"type":"LineString","coordinates":[[16.00381,51.32351],[16.006146211184166,51.32426806262613]]}},{"type":"Feature","properties":{"numer":"1232D","klasa":"droga zbiorcza","kat":"powiatowa"},"geometry":{"type":"LineString","coordinates":[[16.00877752675929,51.32538851969939],[16.01028,51.32613],[16.01322,51.32733]]}},{"type":"Feature","properties":{"numer":"94","klasa":"droga gĹ‚Ăłwna","kat":"krajowa"},"geometry":{"type":"LineString","coordinates":[[15.81506,51.27675],[15.79488,51.27408]]}},{"type":"Feature","properties":{"numer":"94","klasa":"droga gĹ‚Ăłwna","kat":"krajowa"},"geometry":{"type":"LineString","coordinates":[[15.84567,51.27589],[15.84385,51.27603],[15.83216,51.2779],[15.83038,51.27808],[15.82805,51.27806],[15.81506,51.27675]]}},{"type":"Feature","properties":{"numer":"2269D","klasa":"droga gĹ‚Ăłwna","kat":"powiatowa"},"geometry":{"type":"LineString","coordinates":[[15.81506,51.27675],[15.81438,51.27837],[15.81404,51.27875]]}},{"type":"Feature","properties":{"numer":"2269D","klasa":"droga gĹ‚Ăłwna","kat":"powiatowa"},"geometry":{"type":"LineString","coordinates":[[15.81398,51.27879],[15.81404,51.27875]]}},{"type":"Feature","properties":{"numer":"2269D","klasa":"droga gĹ‚Ăłwna","kat":"powiatowa"},"geometry":{"type":"LineString","coordinates":[[15.81398,51.27879],[15.81317,51.27943],[15.81152,51.28177],[15.8107,51.28259]]}},{"type":"Feature","properties":{"numer":"A4,E40","klasa":"autostrada","kat":"krajowa"},"geometry":{"type":"LineString","coordinates":[[15.79437,51.27401],[15.79119,51.27565],[15.78885,51.27699],[15.777169327227455,51.28416373010892]]}},{"type":"Feature","properties":{"numer":"2269D","klasa":"droga zbiorcza","kat":"powiatowa"},"geometry":{"type":"LineString","coordinates":[[15.8107,51.28259],[15.81075,51.28275],[15.81102,51.28288],[15.81233,51.28283],[15.81279,51.28291],[15.8132,51.28311],[15.81484,51.28484],[15.81565,51.28584],[15.81666,51.28813],[15.81719,51.28958],[15.81658,51.2931],[15.81682,51.29549],[15.8175,51.29609]]}},{"type":"Feature","properties":{"numer":"2220D","klasa":"","kat":"powiatowa"},"geometry":{"type":"LineString","coordinates":[[15.84135,51.29194],[15.84148,51.2919]]}},{"type":"Feature","properties":{"numer":"2220D","klasa":"","kat":"powiatowa"},"geometry":{"type":"LineString","coordinates":[[15.8175,51.29609],[15.81765,51.29539],[15.81786,51.2951],[15.81837,51.29484],[15.81893,51.29466],[15.8219,51.29403],[15.82393,51.29328],[15.82451,51.29314],[15.82784,51.29263],[15.82968,51.29244],[15.83615,51.29234],[15.8381,51.29222],[15.84014,51.29224],[15.84135,51.29194]]}},{"type":"Feature","properties":{"numer":"2269D","klasa":"droga zbiorcza","kat":"powiatowa"},"geometry":{"type":"LineString","coordinates":[[15.81665,51.29696],[15.81755,51.29673],[15.81781,51.29658],[15.81784,51.2964],[15.8175,51.29609]]}},{"type":"Feature","properties":{"numer":"2211D","klasa":"droga zbiorcza","kat":"powiatowa"},"geometry":{"type":"LineString","coordinates":[[15.91466,51.32908],[15.91713,51.32778],[15.91784,51.32751],[15.92115,51.32689],[15.92372,51.32651],[15.92795,51.3262],[15.92953,51.32595],[15.93456,51.3255],[15.93575,51.32543],[15.93722,51.32561],[15.93945,51.32557],[15.94053,51.32533],[15.94226,51.32511],[15.9457,51.32438],[15.95184,51.32272],[15.9541,51.32204],[15.95614,51.3216],[15.96027,51.32088],[15.96316,51.32022],[15.96539,51.31931],[15.96568,51.31898],[15.96672,51.31857],[15.96807,51.3179],[15.97254,51.31634],[15.97469,51.31539],[15.97584,51.31479],[15.9774,51.3135],[15.97928,51.31257]]}},{"type":"Feature","properties":{"numer":"2221D","klasa":"","kat":"powiatowa"},"geometry":{"type":"LineString","coordinates":[[15.89194,51.32871],[15.89067,51.32854],[15.88872,51.32724],[15.88365,51.3253],[15.88093,51.32445],[15.87819,51.32328],[15.87442,51.3224],[15.87225,51.32228],[15.87062,51.32236],[15.86841,51.32268],[15.86679,51.3226],[15.86549,51.32267],[15.86354,51.32311],[15.86103,51.32384],[15.86009,51.32389],[15.85863,51.32428],[15.85828,51.32424],[15.85591,51.32349],[15.85378,51.32311],[15.85071,51.3223],[15.85045,51.32189],[15.85045,51.32156],[15.84961,51.32091],[15.84889,51.32067],[15.84786,51.3206],[15.84744,51.32044],[15.84513,51.31844],[15.84413,51.31802],[15.843,51.31798],[15.84257,51.31786],[15.84064,51.31663],[15.83975,51.31629]]}},{"type":"Feature","properties":{"numer":"328","klasa":"droga gĹ‚Ăłwna","kat":"wojewodzka"},"geometry":{"type":"LineString","coordinates":[[15.89242,51.32803],[15.89245,51.32799]]}},{"type":"Feature","properties":{"numer":"328","klasa":"droga gĹ‚Ăłwna","kat":"wojewodzka"},"geometry":{"type":"LineString","coordinates":[[15.89242,51.32803],[15.89194,51.32871]]}},{"type":"Feature","properties":{"numer":"2211D","klasa":"droga zbiorcza","kat":"powiatowa"},"geometry":{"type":"LineString","coordinates":[[15.91456,51.32913],[15.91466,51.32908]]}},{"type":"Feature","properties":{"numer":"328","klasa":"droga gĹ‚Ăłwna","kat":"wojewodzka"},"geometry":{"type":"LineString","coordinates":[[15.89194,51.32871],[15.89188,51.33035],[15.89202,51.33528],[15.89187,51.33559],[15.89123,51.33603],[15.89112,51.33621],[15.89119,51.3364],[15.89208,51.33723],[15.89217,51.33914]]}},{"type":"Feature","properties":{"numer":"2211D","klasa":"droga zbiorcza","kat":"powiatowa"},"geometry":{"type":"LineString","coordinates":[[15.89217,51.33914],[15.90568,51.33373],[15.91456,51.32913]]}},{"type":"Feature","properties":{"numer":"328","klasa":"droga gĹ‚Ăłwna","kat":"wojewodzka"},"geometry":{"type":"LineString","coordinates":[[15.89217,51.33914],[15.8923,51.34035],[15.89183,51.34103],[15.8919,51.34179],[15.89167,51.34276],[15.89195,51.34389]]}},{"type":"Feature","properties":{"numer":"328","klasa":"droga gĹ‚Ăłwna","kat":"wojewodzka"},"geometry":{"type":"LineString","coordinates":[[15.89195,51.34389],[15.89196,51.34391]]}},{"type":"Feature","properties":{"numer":"328","klasa":"droga gĹ‚Ăłwna","kat":"wojewodzka"},"geometry":{"type":"LineString","coordinates":[[15.89196,51.34391],[15.89197,51.34434],[15.89054,51.34535],[15.89018,51.34572],[15.89005,51.34609]]}},{"type":"Feature","properties":{"numer":"","klasa":"droga zbiorcza","kat":"powiatowa"},"geometry":{"type":"LineString","coordinates":[[16.01322,51.32733],[16.013745331920934,51.32747032838984]]}},{"type":"Feature","properties":{"numer":"335","klasa":"droga gĹ‚Ăłwna","kat":"wojewodzka"},"geometry":{"type":"LineString","coordinates":[[16.00381,51.32351],[16.007863093571945,51.32631832326146]]}},{"type":"Feature","properties":{"numer":"335","klasa":"droga gĹ‚Ăłwna","kat":"wojewodzka"},"geometry":{"type":"LineString","coordinates":[[16.008409024658924,51.32669659011948],[16.00915,51.32721],[16.01138,51.32942],[16.01144662540496,51.32950977709008]]}},{"type":"Feature","properties":{"numer":"328","klasa":"droga gĹ‚Ăłwna","kat":"wojewodzka"},"geometry":{"type":"LineString","coordinates":[[15.89005,51.34609],[15.89004,51.34615]]}},{"type":"Feature","properties":{"numer":"328","klasa":"droga gĹ‚Ăłwna","kat":"wojewodzka"},"geometry":{"type":"LineString","coordinates":[[15.89004,51.34615],[15.8901,51.34643]]}},{"type":"Feature","properties":{"numer":"328","klasa":"droga zbiorcza","kat":"wojewodzka"},"geometry":{"type":"LineString","coordinates":[[15.8901,51.34643],[15.89089,51.34813]]}},{"type":"Feature","properties":{"numer":"328","klasa":"droga zbiorcza","kat":"wojewodzka"},"geometry":{"type":"LineString","coordinates":[[15.89089,51.34813],[15.89091,51.34816]]}},{"type":"Feature","properties":{"numer":"328","klasa":"droga zbiorcza","kat":"wojewodzka"},"geometry":{"type":"LineString","coordinates":[[15.89091,51.34816],[15.89496,51.35684],[15.89519,51.35704],[15.89701,51.35768]]}},{"type":"Feature","properties":{"numer":"328","klasa":"droga zbiorcza","kat":"wojewodzka"},"geometry":{"type":"LineString","coordinates":[[15.89701,51.35768],[15.89707,51.3577]]}},{"type":"Feature","properties":{"numer":"328","klasa":"droga zbiorcza","kat":"wojewodzka"},"geometry":{"type":"LineString","coordinates":[[15.89707,51.3577],[15.8985,51.3582],[15.89876,51.35835],[15.89904,51.35955],[15.89903,51.35987],[15.89845,51.36074],[15.897743915362055,51.362429559669366]]}},{"type":"Feature","properties":{"numer":"2269D","klasa":"droga zbiorcza","kat":"powiatowa"},"geometry":{"type":"LineString","coordinates":[[15.81665,51.29696],[15.81568,51.2971],[15.81431,51.29714],[15.80961,51.29699],[15.80504,51.29705],[15.803,51.29672],[15.8017,51.2968],[15.80109,51.29692],[15.80073,51.29856],[15.79959,51.30058],[15.79894,51.30094],[15.79755,51.3014],[15.79721,51.30182],[15.79728,51.30222],[15.79802,51.30378],[15.79835,51.3048],[15.79879,51.30682],[15.79936,51.30741],[15.79962,51.30788],[15.79968,51.30821],[15.79952,51.30895],[15.80009,51.30997]]}},{"type":"Feature","properties":{"numer":"2221D","klasa":"","kat":"powiatowa"},"geometry":{"type":"LineString","coordinates":[[15.83975,51.31629],[15.83919,51.316],[15.83688,51.31375],[15.83623,51.31329],[15.8353,51.31299],[15.83347,51.31272],[15.83269,51.31252],[15.83167,51.31184],[15.83073,51.31133],[15.82957,51.31087],[15.82865,51.31022],[15.82791,51.30983],[15.82298,51.30849],[15.82108,51.30785],[15.82003,51.3073],[15.81888,51.30636],[15.81792,51.30595],[15.81729,51.30555],[15.817,51.30504],[15.81684,51.3037],[15.81619,51.30263],[15.81655,51.3015],[15.81665,51.29696]]}},{"type":"Feature","properties":{"numer":"2270D","klasa":"droga gĹ‚Ăłwna","kat":"powiatowa"},"geometry":{"type":"LineString","coordinates":[[15.80009,51.30997],[15.79777,51.31098],[15.79621,51.31153],[15.79365,51.31199],[15.7901,51.31315],[15.7867,51.31462],[15.78309,51.31674],[15.78214,51.31714],[15.78088,51.31745],[15.77957,51.31795],[15.7781,51.3184],[15.772533729844275,51.319779339353175]]}},{"type":"Feature","properties":{"numer":"2269D","klasa":"droga zbiorcza","kat":"powiatowa"},"geometry":{"type":"LineString","coordinates":[[15.81402,51.34639],[15.81482,51.34514],[15.81454,51.34391],[15.8141,51.34338],[15.81348,51.343],[15.81113,51.34195],[15.81011,51.34095],[15.80921,51.34041],[15.80763,51.33926],[15.80385,51.33564],[15.80351,51.33509],[15.80416,51.33169],[15.80426,51.33061],[15.80353,51.3282],[15.80292,51.32528],[15.80247,51.32401],[15.80219,51.3223],[15.80215,51.31961],[15.80241,51.31693],[15.80223,51.31406],[15.80211,51.31373],[15.80153,51.31311],[15.80091,51.31156],[15.80009,51.30997]]}},{"type":"Feature","properties":{"numer":"2269D","klasa":"","kat":"powiatowa"},"geometry":{"type":"LineString","coordinates":[[15.814007501768284,51.346494985146414],[15.81402,51.34639]]}}]}