{"type":"FeatureCollection","features":[{"type":"Feature","properties":{"numer":"1235D","klasa":"droga zbiorcza","kat":"powiatowa"},"geometry":{"type":"LineString","coordinates":[[16.151890856269112,51.37299318042813],[16.1523,51.37114],[16.15327,51.36774],[16.15399,51.36537],[16.15421,51.36493],[16.155034579454004,51.36437388827521]]}},{"type":"Feature","properties":{"numer":"333","klasa":"droga gĹ‚Ăłwna","kat":"wojewodzka"},"geometry":{"type":"LineString","coordinates":[[16.19645,51.38392],[16.19582,51.38269],[16.1944,51.38075],[16.19237,51.37835],[16.19098,51.37638],[16.18905,51.37426],[16.18669,51.37101],[16.1863,51.37022],[16.18576,51.36776],[16.18536,51.36701],[16.18493,51.36652],[16.184679687543984,51.36631006052076]]}},{"type":"Feature","properties":{"numer":"E65,S3","klasa":"droga ekspresowa","kat":"krajowa"},"geometry":{"type":"LineString","coordinates":[[16.17278398104858,51.36865124759357],[16.17373,51.37391],[16.17371,51.37533],[16.17323,51.37754],[16.17255,51.37897],[16.17179,51.38017],[16.17043,51.38177],[16.16766,51.38445]]}},{"type":"Feature","properties":{"numer":"1230D","klasa":"droga zbiorcza","kat":"powiatowa"},"geometry":{"type":"LineString","coordinates":[[16.21447,51.37697],[16.21646,51.37228],[16.218436065345482,51.365870076590774]]}},{"type":"Feature","properties":{"numer":"36","klasa":"droga gĹ‚Ăłwna ruchu przyĹ›pieszonego","kat":"krajowa"},"geometry":{"type":"LineString","coordinates":[[16.22368,51.38373],[16.23029516081056,51.37880917031843]]}},{"type":"Feature","properties":{"numer":"1230D","klasa":"droga zbiorcza","kat":"powiatowa"},"geometry":{"type":"LineString","coordinates":[[16.21447,51.37697],[16.21453,51.37733],[16.21483,51.37787]]}},{"type":"Feature","properties":{"numer":"1230D","klasa":"droga zbiorcza","kat":"powiatowa"},"geometry":{"type":"LineString","coordinates":[[16.21483,51.37787],[16.21505,51.37807]]}},{"type":"Feature","properties":{"numer":"1230D","klasa":"droga zbiorcza","kat":"powiatowa"},"geometry":{"type":"LineString","coordinates":[[16.21573,51.38531],[16.21852,51.38323],[16.2188,51.38269],[16.21881,51.38222],[16.21845,51.38158],[16.21505,51.37807]]}},{"type":"Feature","properties":{"numer":"1230D","klasa":"droga zbiorcza","kat":"powiatowa"},"geometry":{"type":"LineString","coordinates":[[16.21553,51.38547],[16.21573,51.38531]]}},{"type":"Feature","properties":{"numer":"335","klasa":"droga gĹ‚Ăłwna","kat":"wojewodzka"},"geometry":{"type":"LineString","coordinates":[[16.16298797895711,51.383082194473346],[16.16362,51.38335],[16.16609,51.38393],[16.16766,51.38445]]}},{"type":"Feature","properties":{"numer":"335","klasa":"droga gĹ‚Ăłwna","kat":"wojewodzka"},"geometry":{"type":"LineString","coordinates":[[16.16766,51.38445],[16.1693,51.38534]]}},{"type":"Feature","properties":{"numer":"335","klasa":"droga gĹ‚Ăłwna","kat":"wojewodzka"},"geometry":{"type":"LineString","coordinates":[[16.1693,51.38534],[16.16976,51.38564]]}},{"type":"Feature","properties":{"numer":"","klasa":"droga gĹ‚Ăłwna","kat":"gminna"},"geometry":{"type":"LineString","coordinates":[[16.16976,51.38564],[16.17119,51.38669]]}},{"type":"Feature","properties":{"numer":"","klasa":"droga gĹ‚Ăłwna","kat":"gminna"},"geometry":{"type":"LineString","coordinates":[[16.17119,51.38669],[16.171607330524687,51.386990657474776]]}},{"type":"Feature","properties":{"numer":"333","klasa":"droga gĹ‚Ăłwna","kat":"wojewodzka"},"geometry":{"type":"LineString","coordinates":[[16.20922,51.39019],[16.19985,51.38973],[16.19971,51.38911],[16.19645,51.38392]]}},{"type":"Feature","properties":{"numer":"1230D","klasa":"droga zbiorcza","kat":"powiatowa"},"geometry":{"type":"LineString","coordinates":[[16.2109,51.38886],[16.20941,51.38994],[16.20922,51.39019]]}},{"type":"Feature","properties":{"numer":"","klasa":"droga gĹ‚Ăłwna","kat":"gminna"},"geometry":{"type":"LineString","coordinates":[[16.17610698595829,51.38969931081596],[16.17839,51.39088],[16.17921,51.39124],[16.18093,51.39174],[16.182,51.39214]]}},{"type":"Feature","properties":{"numer":"103184D","klasa":"droga zbiorcza","kat":"powiatowa"},"geometry":{"type":"LineString","coordinates":[[16.19217,51.39135],[16.19201,51.39107]]}},{"type":"Feature","properties":{"numer":"36","klasa":"droga gĹ‚Ăłwna ruchu przyĹ›pieszonego","kat":"krajowa"},"geometry":{"type":"LineString","coordinates":[[16.22004,51.39031],[16.22018,51.38761],[16.22059,51.38652],[16.22151,51.38547],[16.22368,51.38373]]}},{"type":"Feature","properties":{"numer":"1230D","klasa":"droga zbiorcza","kat":"powiatowa"},"geometry":{"type":"LineString","coordinates":[[16.21111,51.38871],[16.21553,51.38547]]}},{"type":"Feature","properties":{"numer":"103053D","klasa":"droga lokalna","kat":"powiatowa"},"geometry":{"type":"LineString","coordinates":[[16.253577165991917,51.387920931174115],[16.25333,51.38746],[16.253225560439557,51.38714087912087]]}},{"type":"Feature","properties":{"numer":"1230D","klasa":"droga zbiorcza","kat":"powiatowa"},"geometry":{"type":"LineString","coordinates":[[16.2109,51.38886],[16.21111,51.38871]]}},{"type":"Feature","properties":{"numer":"333","klasa":"droga gĹ‚Ăłwna","kat":"wojewodzka"},"geometry":{"type":"LineString","coordinates":[[16.20922,51.39019],[16.21252,51.39041]]}},{"type":"Feature","properties":{"numer":"333","klasa":"droga gĹ‚Ăłwna","kat":"wojewodzka"},"geometry":{"type":"LineString","coordinates":[[16.22004,51.39031],[16.21755,51.39036]]}},{"type":"Feature","properties":{"numer":"333","klasa":"droga gĹ‚Ăłwna","kat":"wojewodzka"},"geometry":{"type":"LineString","coordinates":[[16.21755,51.39036],[16.21488,51.39044]]}},{"type":"Feature","properties":{"numer":"103115D","klasa":"droga lokalna","kat":"powiatowa"},"geometry":{"type":"LineString","coordinates":[[16.19136,51.39124],[16.1912,51.39101],[16.19099,51.39092],[16.19075,51.39093],[16.19022,51.39101],[16.18923,51.39138],[16.1882,51.39163]]}},{"type":"Feature","properties":{"numer":"103115D","klasa":"droga lokalna","kat":"powiatowa"},"geometry":{"type":"LineString","coordinates":[[16.1882,51.39163],[16.18776,51.39116]]}},{"type":"Feature","properties":{"numer":"103115D","klasa":"droga lokalna","kat":"powiatowa"},"geometry":{"type":"LineString","coordinates":[[16.19106,51.39165],[16.19136,51.39154],[16.19136,51.39124]]}},{"type":"Feature","properties":{"numer":"103115D","klasa":"droga wewnÄ™trzna","kat":"powiatowa"},"geometry":{"type":"LineString","coordinates":[[16.18201,51.39214],[16.1822,51.39204],[16.18271,51.39201],[16.18378,51.3918],[16.18482,51.39178],[16.18593,51.39151],[16.18709,51.39136],[16.18776,51.39116]]}},{"type":"Feature","properties":{"numer":"103184D","klasa":"droga zbiorcza","kat":"powiatowa"},"geometry":{"type":"LineString","coordinates":[[16.19251,51.39214],[16.19217,51.39135]]}},{"type":"Feature","properties":{"numer":"103115D","klasa":"droga wewnÄ™trzna","kat":"powiatowa"},"geometry":{"type":"LineString","coordinates":[[16.182,51.39214],[16.18201,51.39214]]}},{"type":"Feature","properties":{"numer":"103117D","klasa":"droga lokalna","kat":"powiatowa"},"geometry":{"type":"LineString","coordinates":[[16.19175,51.39231],[16.19251,51.39214]]}},{"type":"Feature","properties":{"numer":"103184D","klasa":"droga lokalna","kat":"powiatowa"},"geometry":{"type":"LineString","coordinates":[[16.19251,51.39214],[16.19275,51.39237]]}},{"type":"Feature","properties":{"numer":"103115D","klasa":"droga lokalna","kat":"powiatowa"},"geometry":{"type":"LineString","coordinates":[[16.18886,51.39295],[16.18873,51.39288],[16.18853,51.39239],[16.18857,51.39221],[16.19106,51.39165]]}},{"type":"Feature","properties":{"numer":"103117D","klasa":"droga lokalna","kat":"powiatowa"},"geometry":{"type":"LineString","coordinates":[[16.19139,51.39239],[16.19175,51.39231]]}},{"type":"Feature","properties":{"numer":"103117D","klasa":"droga lokalna","kat":"powiatowa"},"geometry":{"type":"LineString","coordinates":[[16.19118,51.39243],[16.19139,51.39239]]}},{"type":"Feature","properties":{"numer":"103202D","klasa":"","kat":"powiatowa"},"geometry":{"type":"LineString","coordinates":[[16.20872,51.39214],[16.20635,51.3928]]}},{"type":"Feature","properties":{"numer":"","klasa":"droga wewnÄ™trzna","kat":"gminna"},"geometry":{"type":"LineString","coordinates":[[16.18844,51.39198],[16.18365,51.39322]]}},{"type":"Feature","properties":{"numer":"103117D","klasa":"droga lokalna","kat":"powiatowa"},"geometry":{"type":"LineString","coordinates":[[16.18886,51.39295],[16.19118,51.39243]]}},{"type":"Feature","properties":{"numer":"103184D","klasa":"droga lokalna","kat":"powiatowa"},"geometry":{"type":"LineString","coordinates":[[16.19275,51.39237],[16.19354,51.39422]]}},{"type":"Feature","properties":{"numer":"103202D","klasa":"droga lokalna","kat":"powiatowa"},"geometry":{"type":"LineString","coordinates":[[16.20614,51.39286],[16.20369,51.39357],[16.20147,51.39435]]}},{"type":"Feature","properties":{"numer":"","klasa":"droga wewnÄ™trzna","kat":"gminna"},"geometry":{"type":"LineString","coordinates":[[16.17779,51.39502],[16.18119,51.39388],[16.18365,51.39322]]}},{"type":"Feature","properties":{"numer":"103184D","klasa":"","kat":"powiatowa"},"geometry":{"type":"LineString","coordinates":[[16.19354,51.39422],[16.19369,51.39444]]}},{"type":"Feature","properties":{"numer":"103202D","klasa":"droga lokalna","kat":"powiatowa"},"geometry":{"type":"LineString","coordinates":[[16.20147,51.39435],[16.20088,51.39455]]}},{"type":"Feature","properties":{"numer":"103184D","klasa":"droga lokalna","kat":"powiatowa"},"geometry":{"type":"LineString","coordinates":[[16.19369,51.39444],[16.19375,51.39453]]}},{"type":"Feature","properties":{"numer":"333","klasa":"droga gĹ‚Ăłwna","kat":"wojewodzka"},"geometry":{"type":"LineString","coordinates":[[16.21342,51.39045],[16.21252,51.39041]]}},{"type":"Feature","properties":{"numer":"333","klasa":"droga gĹ‚Ăłwna","kat":"wojewodzka"},"geometry":{"type":"LineString","coordinates":[[16.21488,51.39044],[16.21432,51.39046]]}},{"type":"Feature","properties":{"numer":"333","klasa":"droga gĹ‚Ăłwna","kat":"wojewodzka"},"geometry":{"type":"LineString","coordinates":[[16.21382,51.39047],[16.21342,51.39045]]}},{"type":"Feature","properties":{"numer":"333","klasa":"droga gĹ‚Ăłwna","kat":"wojewodzka"},"geometry":{"type":"LineString","coordinates":[[16.21432,51.39046],[16.21382,51.39047]]}},{"type":"Feature","properties":{"numer":"333,36","klasa":"droga gĹ‚Ăłwna ruchu przyĹ›pieszonego","kat":"gminna"},"geometry":{"type":"LineString","coordinates":[[16.21979,51.3969],[16.22004,51.39031]]}},{"type":"Feature","properties":{"numer":"36","klasa":"droga gĹ‚Ăłwna ruchu przyĹ›pieszonego","kat":"krajowa"},"geometry":{"type":"LineString","coordinates":[[16.25759273120614,51.39514397799428],[16.22236,51.39675]]}},{"type":"Feature","properties":{"numer":"36","klasa":"droga gĹ‚Ăłwna ruchu przyĹ›pieszonego","kat":"krajowa"},"geometry":{"type":"LineString","coordinates":[[16.21979,51.3969],[16.22236,51.39675]]}},{"type":"Feature","properties":{"numer":"103184D","klasa":"droga lokalna","kat":"powiatowa"},"geometry":{"type":"LineString","coordinates":[[16.19375,51.39453],[16.19377,51.39462]]}},{"type":"Feature","properties":{"numer":"103184D","klasa":"","kat":"powiatowa"},"geometry":{"type":"LineString","coordinates":[[16.19377,51.39462],[16.19382,51.39485]]}},{"type":"Feature","properties":{"numer":"103202D","klasa":"droga lokalna","kat":"powiatowa"},"geometry":{"type":"LineString","coordinates":[[16.20088,51.39455],[16.19909,51.3952],[16.19867,51.3955]]}},{"type":"Feature","properties":{"numer":"103184D","klasa":"droga lokalna","kat":"powiatowa"},"geometry":{"type":"LineString","coordinates":[[16.19382,51.39485],[16.19424,51.39573]]}},{"type":"Feature","properties":{"numer":"103183D","klasa":"droga lokalna","kat":"powiatowa"},"geometry":{"type":"LineString","coordinates":[[16.20274,51.39542],[16.20215,51.3953],[16.20163,51.39532]]}},{"type":"Feature","properties":{"numer":"103183D","klasa":"droga lokalna","kat":"powiatowa"},"geometry":{"type":"LineString","coordinates":[[16.20163,51.39532],[16.20064,51.39546]]}},{"type":"Feature","properties":{"numer":"103183D","klasa":"droga lokalna","kat":"powiatowa"},"geometry":{"type":"LineString","coordinates":[[16.20371,51.39565],[16.20274,51.39542]]}},{"type":"Feature","properties":{"numer":"103183D","klasa":"droga lokalna","kat":"powiatowa"},"geometry":{"type":"LineString","coordinates":[[16.20064,51.39546],[16.19899,51.39569]]}},{"type":"Feature","properties":{"numer":"103202D","klasa":"droga lokalna","kat":"powiatowa"},"geometry":{"type":"LineString","coordinates":[[16.19867,51.3955],[16.1987,51.39573]]}},{"type":"Feature","properties":{"numer":"103183D","klasa":"droga lokalna","kat":"powiatowa"},"geometry":{"type":"LineString","coordinates":[[16.19899,51.39569],[16.1987,51.39573]]}},{"type":"Feature","properties":{"numer":"103183D","klasa":"","kat":"powiatowa"},"geometry":{"type":"LineString","coordinates":[[16.20409,51.39578],[16.20371,51.39565]]}},{"type":"Feature","properties":{"numer":"103183D","klasa":"droga lokalna","kat":"powiatowa"},"geometry":{"type":"LineString","coordinates":[[16.20419,51.39583],[16.20409,51.39578]]}},{"type":"Feature","properties":{"numer":"103184D","klasa":"droga lokalna","kat":"powiatowa"},"geometry":{"type":"LineString","coordinates":[[16.19424,51.39573],[16.1945,51.39594]]}},{"type":"Feature","properties":{"numer":"103183D","klasa":"droga lokalna","kat":"powiatowa"},"geometry":{"type":"LineString","coordinates":[[16.20425,51.39589],[16.20419,51.39583]]}},{"type":"Feature","properties":{"numer":"103183D","klasa":"droga lokalna","kat":"powiatowa"},"geometry":{"type":"LineString","coordinates":[[16.1987,51.39573],[16.19669,51.39601]]}},{"type":"Feature","properties":{"numer":"","klasa":"droga wewnÄ™trzna","kat":"gminna"},"geometry":{"type":"LineString","coordinates":[[16.17316,51.3968],[16.17548,51.3958],[16.17779,51.39502]]}},{"type":"Feature","properties":{"numer":"103183D","klasa":"","kat":"powiatowa"},"geometry":{"type":"LineString","coordinates":[[16.20451,51.39606],[16.20425,51.39589]]}},{"type":"Feature","properties":{"numer":"103184D","klasa":"","kat":"powiatowa"},"geometry":{"type":"LineString","coordinates":[[16.1945,51.39594],[16.19464,51.39616]]}},{"type":"Feature","properties":{"numer":"103184D","klasa":"droga lokalna","kat":"powiatowa"},"geometry":{"type":"LineString","coordinates":[[16.19464,51.39616],[16.1947,51.39625]]}},{"type":"Feature","properties":{"numer":"103183D","klasa":"droga lokalna","kat":"powiatowa"},"geometry":{"type":"LineString","coordinates":[[16.20523,51.39642],[16.20451,51.39606]]}},{"type":"Feature","properties":{"numer":"103184D","klasa":"droga lokalna","kat":"powiatowa"},"geometry":{"type":"LineString","coordinates":[[16.1947,51.39625],[16.1946,51.39633]]}},{"type":"Feature","properties":{"numer":"103184D","klasa":"","kat":"powiatowa"},"geometry":{"type":"LineString","coordinates":[[16.1946,51.39633],[16.19444,51.39651]]}},{"type":"Feature","properties":{"numer":"103183D","klasa":"droga lokalna","kat":"powiatowa"},"geometry":{"type":"LineString","coordinates":[[16.20569,51.39666],[16.20523,51.39642]]}},{"type":"Feature","properties":{"numer":"103183D","klasa":"droga lokalna","kat":"powiatowa"},"geometry":{"type":"LineString","coordinates":[[16.20626,51.3969],[16.20569,51.39666]]}},{"type":"Feature","properties":{"numer":"103183D","klasa":"droga lokalna","kat":"powiatowa"},"geometry":{"type":"LineString","coordinates":[[16.20665,51.39705],[16.20626,51.3969]]}},{"type":"Feature","properties":{"numer":"103184D","klasa":"droga lokalna","kat":"powiatowa"},"geometry":{"type":"LineString","coordinates":[[16.19444,51.39651],[16.19441,51.39672],[16.19476,51.39766]]}},{"type":"Feature","properties":{"numer":"103183D","klasa":"droga lokalna","kat":"powiatowa"},"geometry":{"type":"LineString","coordinates":[[16.20725,51.39729],[16.20665,51.39705]]}},{"type":"Feature","properties":{"numer":"","klasa":"droga wewnÄ™trzna","kat":"gminna"},"geometry":{"type":"LineString","coordinates":[[16.17094,51.39798],[16.17316,51.3968]]}},{"type":"Feature","properties":{"numer":"103183D","klasa":"droga lokalna","kat":"powiatowa"},"geometry":{"type":"LineString","coordinates":[[16.20861,51.39798],[16.20801,51.39761],[16.20725,51.39729]]}},{"type":"Feature","properties":{"numer":"E65,S3","klasa":"droga ekspresowa","kat":"krajowa"},"geometry":{"type":"LineString","coordinates":[[16.16766,51.38445],[16.167316602739994,51.38478004453477]]}},{"type":"Feature","properties":{"numer":"E65,S3","klasa":"droga ekspresowa","kat":"krajowa"},"geometry":{"type":"LineString","coordinates":[[16.160102737689694,51.39171340426612],[16.156945212759933,51.394748151387965]]}},{"type":"Feature","properties":{"numer":"E65,S3","klasa":"droga ekspresowa","kat":"krajowa"},"geometry":{"type":"LineString","coordinates":[[16.15454696814067,51.40807575557103],[16.15469,51.40826],[16.15746,51.41093]]}},{"type":"Feature","properties":{"numer":"1219D","klasa":"droga zbiorcza","kat":"powiatowa"},"geometry":{"type":"LineString","coordinates":[[16.15746,51.41093],[16.156044371136584,51.411234833621485]]}},{"type":"Feature","properties":{"numer":"1219D","klasa":"droga zbiorcza","kat":"powiatowa"},"geometry":{"type":"LineString","coordinates":[[16.14884268437557,51.41370439696417],[16.14714,51.4147],[16.146940415295003,51.414704158014686]]}},{"type":"Feature","properties":{"numer":"1236D","klasa":"droga zbiorcza","kat":"powiatowa"},"geometry":{"type":"LineString","coordinates":[[16.141779559219703,51.43547757561283],[16.14224,51.43573],[16.142894171122983,51.43638417112298]]}},{"type":"Feature","properties":{"numer":"","klasa":"droga gĹ‚Ăłwna","kat":"gminna"},"geometry":{"type":"LineString","coordinates":[[16.17044,51.39761],[16.17094,51.39798]]}},{"type":"Feature","properties":{"numer":"","klasa":"droga gĹ‚Ăłwna","kat":"gminna"},"geometry":{"type":"LineString","coordinates":[[16.20861,51.39798],[16.20976,51.3977]]}},{"type":"Feature","properties":{"numer":"103184D","klasa":"droga lokalna","kat":"powiatowa"},"geometry":{"type":"LineString","coordinates":[[16.19476,51.39766],[16.19494,51.39819]]}},{"type":"Feature","properties":{"numer":"103149D","klasa":"droga lokalna","kat":"powiatowa"},"geometry":{"type":"LineString","coordinates":[[16.19055,51.39817],[16.19052,51.39808]]}},{"type":"Feature","properties":{"numer":"","klasa":"droga wewnÄ™trzna","kat":"gminna"},"geometry":{"type":"LineString","coordinates":[[16.17024,51.39837],[16.17094,51.39798]]}},{"type":"Feature","properties":{"numer":"103184D","klasa":"","kat":"powiatowa"},"geometry":{"type":"LineString","coordinates":[[16.19494,51.39819],[16.19503,51.3985]]}},{"type":"Feature","properties":{"numer":"103149D","klasa":"droga lokalna","kat":"powiatowa"},"geometry":{"type":"LineString","coordinates":[[16.1906,51.39868],[16.19055,51.39817]]}},{"type":"Feature","properties":{"numer":"","klasa":"droga gĹ‚Ăłwna","kat":"gminna"},"geometry":{"type":"LineString","coordinates":[[16.19503,51.3985],[16.19573,51.3984],[16.19692,51.3984]]}},{"type":"Feature","properties":{"numer":"","klasa":"droga gĹ‚Ăłwna","kat":"gminna"},"geometry":{"type":"LineString","coordinates":[[16.19216,51.3987],[16.19503,51.3985]]}},{"type":"Feature","properties":{"numer":"","klasa":"droga gĹ‚Ăłwna","kat":"gminna"},"geometry":{"type":"LineString","coordinates":[[16.17274,51.39928],[16.17094,51.39798]]}},{"type":"Feature","properties":{"numer":"","klasa":"droga gĹ‚Ăłwna","kat":"gminna"},"geometry":{"type":"LineString","coordinates":[[16.19692,51.3984],[16.19882,51.39849],[16.20065,51.39899]]}},{"type":"Feature","properties":{"numer":"103149D","klasa":"","kat":"powiatowa"},"geometry":{"type":"LineString","coordinates":[[16.19068,51.39885],[16.1906,51.39868]]}},{"type":"Feature","properties":{"numer":"103149D","klasa":"droga lokalna","kat":"powiatowa"},"geometry":{"type":"LineString","coordinates":[[16.19074,51.39897],[16.19068,51.39885]]}},{"type":"Feature","properties":{"numer":"103149D","klasa":"droga lokalna","kat":"powiatowa"},"geometry":{"type":"LineString","coordinates":[[16.19084,51.39906],[16.19074,51.39897]]}},{"type":"Feature","properties":{"numer":"","klasa":"droga gĹ‚Ăłwna","kat":"gminna"},"geometry":{"type":"LineString","coordinates":[[16.20065,51.39899],[16.20119,51.39917]]}},{"type":"Feature","properties":{"numer":"103149D","klasa":"","kat":"powiatowa"},"geometry":{"type":"LineString","coordinates":[[16.19098,51.39926],[16.19084,51.39906]]}},{"type":"Feature","properties":{"numer":"","klasa":"droga gĹ‚Ăłwna","kat":"gminna"},"geometry":{"type":"LineString","coordinates":[[16.20119,51.39917],[16.20127,51.39928]]}},{"type":"Feature","properties":{"numer":"","klasa":"droga gĹ‚Ăłwna","kat":"gminna"},"geometry":{"type":"LineString","coordinates":[[16.20127,51.39928],[16.20136,51.39956]]}},{"type":"Feature","properties":{"numer":"","klasa":"droga gĹ‚Ăłwna","kat":"gminna"},"geometry":{"type":"LineString","coordinates":[[16.20153,51.40097],[16.20308,51.40044],[16.20744,51.39835],[16.20861,51.39798]]}},{"type":"Feature","properties":{"numer":"103149D","klasa":"droga lokalna","kat":"powiatowa"},"geometry":{"type":"LineString","coordinates":[[16.19184,51.40078],[16.19098,51.39926]]}},{"type":"Feature","properties":{"numer":"","klasa":"droga gĹ‚Ăłwna","kat":"gminna"},"geometry":{"type":"LineString","coordinates":[[16.20136,51.39956],[16.20153,51.40097]]}},{"type":"Feature","properties":{"numer":"","klasa":"droga gĹ‚Ăłwna","kat":"gminna"},"geometry":{"type":"LineString","coordinates":[[16.20153,51.40097],[16.20155,51.40107]]}},{"type":"Feature","properties":{"numer":"103151D","klasa":"droga lokalna","kat":"powiatowa"},"geometry":{"type":"LineString","coordinates":[[16.20155,51.40107],[16.20162,51.40161]]}},{"type":"Feature","properties":{"numer":"103149D","klasa":"droga lokalna","kat":"powiatowa"},"geometry":{"type":"LineString","coordinates":[[16.19266,51.40198],[16.19184,51.40078]]}},{"type":"Feature","properties":{"numer":"103151D","klasa":"droga lokalna","kat":"powiatowa"},"geometry":{"type":"LineString","coordinates":[[16.20162,51.40161],[16.20174,51.40242]]}},{"type":"Feature","properties":{"numer":"103149D","klasa":"droga lokalna","kat":"powiatowa"},"geometry":{"type":"LineString","coordinates":[[16.19297,51.40237],[16.19266,51.40198]]}},{"type":"Feature","properties":{"numer":"103151D","klasa":"droga lokalna","kat":"powiatowa"},"geometry":{"type":"LineString","coordinates":[[16.20174,51.40242],[16.20177,51.40262]]}},{"type":"Feature","properties":{"numer":"103149D","klasa":"droga lokalna","kat":"powiatowa"},"geometry":{"type":"LineString","coordinates":[[16.19297,51.40237],[16.19326,51.40282]]}},{"type":"Feature","properties":{"numer":"103151D","klasa":"droga lokalna","kat":"powiatowa"},"geometry":{"type":"LineString","coordinates":[[16.20177,51.40262],[16.20178,51.40276]]}},{"type":"Feature","properties":{"numer":"103151D","klasa":"droga lokalna","kat":"powiatowa"},"geometry":{"type":"LineString","coordinates":[[16.20178,51.40276],[16.20182,51.40315]]}},{"type":"Feature","properties":{"numer":"103150D","klasa":"","kat":"powiatowa"},"geometry":{"type":"LineString","coordinates":[[16.19326,51.40282],[16.19387,51.40417]]}},{"type":"Feature","properties":{"numer":"103151D","klasa":"droga lokalna","kat":"powiatowa"},"geometry":{"type":"LineString","coordinates":[[16.20182,51.40315],[16.20197,51.40427]]}},{"type":"Feature","properties":{"numer":"103151D","klasa":"","kat":"powiatowa"},"geometry":{"type":"LineString","coordinates":[[16.20197,51.40427],[16.20198,51.40468]]}},{"type":"Feature","properties":{"numer":"103151D","klasa":"droga lokalna","kat":"powiatowa"},"geometry":{"type":"LineString","coordinates":[[16.20194,51.40479],[16.20198,51.40468]]}},{"type":"Feature","properties":{"numer":"103160D","klasa":"droga lokalna","kat":"powiatowa"},"geometry":{"type":"LineString","coordinates":[[16.20194,51.40479],[16.20211,51.40484]]}},{"type":"Feature","properties":{"numer":"103151D","klasa":"droga lokalna","kat":"powiatowa"},"geometry":{"type":"LineString","coordinates":[[16.20194,51.40479],[16.20188,51.4049]]}},{"type":"Feature","properties":{"numer":"103160D","klasa":"","kat":"powiatowa"},"geometry":{"type":"LineString","coordinates":[[16.2026,51.40491],[16.20211,51.40484]]}},{"type":"Feature","properties":{"numer":"103160D","klasa":"droga lokalna","kat":"powiatowa"},"geometry":{"type":"LineString","coordinates":[[16.20339,51.40499],[16.2026,51.40491]]}},{"type":"Feature","properties":{"numer":"103160D","klasa":"droga lokalna","kat":"powiatowa"},"geometry":{"type":"LineString","coordinates":[[16.2037,51.40515],[16.20339,51.40499]]}},{"type":"Feature","properties":{"numer":"103151D","klasa":"","kat":"powiatowa"},"geometry":{"type":"LineString","coordinates":[[16.20188,51.4049],[16.2016,51.40528]]}},{"type":"Feature","properties":{"numer":"103160D","klasa":"droga lokalna","kat":"powiatowa"},"geometry":{"type":"LineString","coordinates":[[16.20393,51.40548],[16.2037,51.40515]]}},{"type":"Feature","properties":{"numer":"103151D","klasa":"droga lokalna","kat":"powiatowa"},"geometry":{"type":"LineString","coordinates":[[16.2016,51.40528],[16.20064,51.40613]]}},{"type":"Feature","properties":{"numer":"103160D","klasa":"droga lokalna","kat":"powiatowa"},"geometry":{"type":"LineString","coordinates":[[16.20481,51.40688],[16.20393,51.40548]]}},{"type":"Feature","properties":{"numer":"103151D","klasa":"droga lokalna","kat":"powiatowa"},"geometry":{"type":"LineString","coordinates":[[16.20064,51.40613],[16.19993,51.40669]]}},{"type":"Feature","properties":{"numer":"103151D","klasa":"droga lokalna","kat":"powiatowa"},"geometry":{"type":"LineString","coordinates":[[16.19993,51.40669],[16.19941,51.4071]]}},{"type":"Feature","properties":{"numer":"103160D","klasa":"droga lokalna","kat":"powiatowa"},"geometry":{"type":"LineString","coordinates":[[16.20491,51.40715],[16.20481,51.40688]]}},{"type":"Feature","properties":{"numer":"101157D","klasa":"droga lokalna","kat":"powiatowa"},"geometry":{"type":"LineString","coordinates":[[16.20501,51.4075],[16.20491,51.40715]]}},{"type":"Feature","properties":{"numer":"103151D","klasa":"droga lokalna","kat":"powiatowa"},"geometry":{"type":"LineString","coordinates":[[16.19941,51.4071],[16.19855,51.40779]]}},{"type":"Feature","properties":{"numer":"101157D","klasa":"droga lokalna","kat":"powiatowa"},"geometry":{"type":"LineString","coordinates":[[16.20533,51.40836],[16.20501,51.4075]]}},{"type":"Feature","properties":{"numer":"103151D","klasa":"droga lokalna","kat":"powiatowa"},"geometry":{"type":"LineString","coordinates":[[16.19855,51.40779],[16.19812,51.40813]]}},{"type":"Feature","properties":{"numer":"103151D","klasa":"droga lokalna","kat":"powiatowa"},"geometry":{"type":"LineString","coordinates":[[16.19812,51.40813],[16.19787,51.40834]]}},{"type":"Feature","properties":{"numer":"333","klasa":"droga gĹ‚Ăłwna ruchu przyĹ›pieszonego","kat":"wojewodzka"},"geometry":{"type":"LineString","coordinates":[[16.20547,51.40832],[16.20533,51.40836]]}},{"type":"Feature","properties":{"numer":"103151D","klasa":"droga lokalna","kat":"powiatowa"},"geometry":{"type":"LineString","coordinates":[[16.19787,51.40834],[16.19735,51.40875]]}},{"type":"Feature","properties":{"numer":"103151D","klasa":"droga lokalna","kat":"powiatowa"},"geometry":{"type":"LineString","coordinates":[[16.19735,51.40875],[16.19671,51.40925]]}},{"type":"Feature","properties":{"numer":"103151D","klasa":"droga lokalna","kat":"powiatowa"},"geometry":{"type":"LineString","coordinates":[[16.19658,51.40936],[16.19531,51.41039]]}},{"type":"Feature","properties":{"numer":"333","klasa":"droga gĹ‚Ăłwna ruchu przyĹ›pieszonego","kat":"wojewodzka"},"geometry":{"type":"LineString","coordinates":[[16.20533,51.40836],[16.2023,51.40932],[16.19634,51.41083],[16.19502,51.41124],[16.19422,51.41159],[16.19318,51.41221]]}},{"type":"Feature","properties":{"numer":"103151D","klasa":"droga lokalna","kat":"powiatowa"},"geometry":{"type":"LineString","coordinates":[[16.19531,51.41039],[16.19469,51.41087]]}},{"type":"Feature","properties":{"numer":"103151D","klasa":"droga lokalna","kat":"powiatowa"},"geometry":{"type":"LineString","coordinates":[[16.19469,51.41087],[16.19321,51.41207]]}},{"type":"Feature","properties":{"numer":"103151D","klasa":"droga lokalna","kat":"powiatowa"},"geometry":{"type":"LineString","coordinates":[[16.19318,51.41221],[16.19321,51.41207]]}},{"type":"Feature","properties":{"numer":"","klasa":"droga gĹ‚Ăłwna","kat":"gminna"},"geometry":{"type":"LineString","coordinates":[[16.21803,51.39697],[16.21979,51.3969]]}},{"type":"Feature","properties":{"numer":"","klasa":"droga gĹ‚Ăłwna","kat":"gminna"},"geometry":{"type":"LineString","coordinates":[[16.21142,51.3974],[16.21374,51.3972],[16.21803,51.39697]]}},{"type":"Feature","properties":{"numer":"","klasa":"droga gĹ‚Ăłwna","kat":"gminna"},"geometry":{"type":"LineString","coordinates":[[16.20976,51.3977],[16.21142,51.3974]]}},{"type":"Feature","properties":{"numer":"333","klasa":"droga gĹ‚Ăłwna ruchu przyĹ›pieszonego","kat":"wojewodzka"},"geometry":{"type":"LineString","coordinates":[[16.21979,51.3969],[16.21971,51.39959]]}},{"type":"Feature","properties":{"numer":"333","klasa":"droga gĹ‚Ăłwna ruchu przyĹ›pieszonego","kat":"wojewodzka"},"geometry":{"type":"LineString","coordinates":[[16.21971,51.39959],[16.2194,51.40042],[16.21862,51.40146],[16.21787,51.40208],[16.21689,51.40267]]}},{"type":"Feature","properties":{"numer":"1231D","klasa":"","kat":"powiatowa"},"geometry":{"type":"LineString","coordinates":[[16.21971,51.39959],[16.22227,51.39959],[16.22425,51.39982],[16.2344,51.4017],[16.24019,51.4029],[16.24229,51.40339],[16.258194129851688,51.40777861786052]]}},{"type":"Feature","properties":{"numer":"1220D","klasa":"droga zbiorcza","kat":"powiatowa"},"geometry":{"type":"LineString","coordinates":[[16.21735,51.40325],[16.21689,51.40267]]}},{"type":"Feature","properties":{"numer":"333","klasa":"droga gĹ‚Ăłwna ruchu przyĹ›pieszonego","kat":"wojewodzka"},"geometry":{"type":"LineString","coordinates":[[16.21689,51.40267],[16.20964,51.40676],[16.20801,51.40747],[16.20547,51.40832]]}},{"type":"Feature","properties":{"numer":"1220D","klasa":"droga zbiorcza","kat":"powiatowa"},"geometry":{"type":"LineString","coordinates":[[16.23181658097122,51.42425957421119],[16.23069,51.42287],[16.22977,51.42206],[16.22564,51.419],[16.22461,51.41814],[16.22378,51.41667],[16.22352,51.416],[16.22322,51.41367],[16.22295,51.41301],[16.22191,51.41145],[16.22094,51.41074],[16.22044,51.41],[16.21961,51.40969],[16.21878,51.40584],[16.21871,51.4057],[16.21824,51.4054],[16.218,51.40501],[16.21768,51.40387],[16.21735,51.40325]]}},{"type":"Feature","properties":{"numer":"333","klasa":"droga gĹ‚Ăłwna ruchu przyĹ›pieszonego","kat":"wojewodzka"},"geometry":{"type":"LineString","coordinates":[[16.19318,51.41221],[16.17398782194848,51.427387155815076]]}},{"type":"Feature","properties":{"numer":"E65,S3","klasa":"droga ekspresowa","kat":"krajowa"},"geometry":{"type":"LineString","coordinates":[[16.15746,51.41093],[16.159,51.41236],[16.15992,51.41342],[16.1604,51.41407],[16.16115,51.41553],[16.16136,51.41612],[16.16153,51.41758],[16.16149,51.41831],[16.16095,51.42016],[16.15988,51.42178],[16.15825,51.4233],[16.15703439829251,51.424177079713]]}},{"type":"Feature","properties":{"numer":"E65,S3","klasa":"droga ekspresowa","kat":"krajowa"},"geometry":{"type":"LineString","coordinates":[[16.147940562092234,51.43085725310879],[16.14762,51.43132],[16.14716,51.4325],[16.14648,51.43735],[16.146133839000427,51.438309360484524]]}},{"type":"Feature","properties":{"numer":"1236D","klasa":"droga zbiorcza","kat":"powiatowa"},"geometry":{"type":"LineString","coordinates":[[16.15281,51.43748],[16.15322,51.43755],[16.15335797364413,51.437633510363554]]}},{"type":"Feature","properties":{"numer":"1236D","klasa":"droga zbiorcza","kat":"powiatowa"},"geometry":{"type":"LineString","coordinates":[[16.14617752116082,51.438333422007254],[16.14744,51.43869],[16.15003,51.43883],[16.15111,51.43855],[16.15169,51.4382],[16.15229,51.43757],[16.15281,51.43748]]}}]}