{"type":"FeatureCollection","features":[{"type":"Feature","properties":{"numer":"1455D","klasa":"","kat":"powiatowa"},"geometry":{"type":"LineString","coordinates":[[17.328051442197317,51.38081035951386],[17.3299,51.38301],[17.33132,51.38402],[17.33484,51.38556]]}},{"type":"Feature","properties":{"numer":"1455D","klasa":"","kat":"powiatowa"},"geometry":{"type":"LineString","coordinates":[[17.33484,51.38556],[17.33513,51.39081],[17.33447,51.39208],[17.33445,51.39252]]}},{"type":"Feature","properties":{"numer":"1451D","klasa":"","kat":"powiatowa"},"geometry":{"type":"LineString","coordinates":[[17.383493988537985,51.391270047555174],[17.38346,51.39128]]}},{"type":"Feature","properties":{"numer":"1454D","klasa":"droga zbiorcza","kat":"powiatowa"},"geometry":{"type":"LineString","coordinates":[[17.30334758720932,51.39309901162791],[17.30118,51.39281],[17.299618239162214,51.39239837311252]]}},{"type":"Feature","properties":{"numer":"1452D","klasa":"","kat":"powiatowa"},"geometry":{"type":"LineString","coordinates":[[17.27299,51.40318],[17.27282,51.40318],[17.27124,51.40248],[17.27017,51.40192],[17.26692,51.3998],[17.26636,51.39922]]}},{"type":"Feature","properties":{"numer":"1452D","klasa":"","kat":"powiatowa"},"geometry":{"type":"LineString","coordinates":[[17.27309,51.40315],[17.27299,51.40318]]}},{"type":"Feature","properties":{"numer":"1452D","klasa":"","kat":"powiatowa"},"geometry":{"type":"LineString","coordinates":[[17.27741,51.40609],[17.27749,51.40574],[17.27732,51.4055],[17.27493,51.40408],[17.27373,51.40289],[17.27362,51.40285],[17.27339,51.4029],[17.27309,51.40315]]}},{"type":"Feature","properties":{"numer":"1455D","klasa":"","kat":"powiatowa"},"geometry":{"type":"LineString","coordinates":[[17.33445,51.39252],[17.3346,51.39278]]}},{"type":"Feature","properties":{"numer":"1453D","klasa":"droga gĹ‚Ăłwna","kat":"powiatowa"},"geometry":{"type":"LineString","coordinates":[[17.317075592366514,51.39112951008645],[17.3182,51.3923],[17.32141,51.39482],[17.32282,51.39625],[17.32307,51.39663]]}},{"type":"Feature","properties":{"numer":"1451D","klasa":"droga zbiorcza","kat":"powiatowa"},"geometry":{"type":"LineString","coordinates":[[17.38346,51.39128],[17.38153,51.39168],[17.37195,51.39338],[17.37039,51.39343],[17.36969,51.39392],[17.36938,51.39453],[17.36782,51.39649]]}},{"type":"Feature","properties":{"numer":"1450D","klasa":"droga gĹ‚Ăłwna","kat":"powiatowa"},"geometry":{"type":"LineString","coordinates":[[17.32307,51.39663],[17.32391,51.39615],[17.32762,51.39447],[17.33103,51.39391],[17.33392,51.3929],[17.3346,51.39278]]}},{"type":"Feature","properties":{"numer":"1450D","klasa":"droga gĹ‚Ăłwna","kat":"powiatowa"},"geometry":{"type":"LineString","coordinates":[[17.3346,51.39278],[17.33496,51.39282],[17.33609,51.39314],[17.33756,51.39374],[17.34009,51.39454],[17.3427,51.39504],[17.34483,51.39559],[17.34833,51.39588],[17.34972,51.39607],[17.35115,51.3961],[17.35238,51.39598],[17.35372,51.39566],[17.35498,51.39569],[17.35861,51.39545],[17.36053,51.39563],[17.36153,51.39561],[17.36255,51.39548],[17.36391,51.3955],[17.36432,51.39557],[17.36589,51.39608],[17.36726,51.39659],[17.36744,51.39674]]}},{"type":"Feature","properties":{"numer":"1451D","klasa":"droga zbiorcza","kat":"powiatowa"},"geometry":{"type":"LineString","coordinates":[[17.36782,51.39649],[17.36744,51.39674]]}},{"type":"Feature","properties":{"numer":"1450D","klasa":"droga gĹ‚Ăłwna","kat":"powiatowa"},"geometry":{"type":"LineString","coordinates":[[17.36744,51.39674],[17.36752,51.39688]]}},{"type":"Feature","properties":{"numer":"1454D","klasa":"droga zbiorcza","kat":"powiatowa"},"geometry":{"type":"LineString","coordinates":[[17.313676018089875,51.395745025283105],[17.31417,51.3959],[17.31561,51.39668],[17.31614,51.39688],[17.32002,51.39797]]}},{"type":"Feature","properties":{"numer":"1450D","klasa":"droga gĹ‚Ăłwna","kat":"powiatowa"},"geometry":{"type":"LineString","coordinates":[[17.32045,51.39809],[17.32307,51.39663]]}},{"type":"Feature","properties":{"numer":"1454D","klasa":"droga zbiorcza","kat":"powiatowa"},"geometry":{"type":"LineString","coordinates":[[17.32002,51.39797],[17.32045,51.39809]]}},{"type":"Feature","properties":{"numer":"1450D","klasa":"droga gĹ‚Ăłwna","kat":"powiatowa"},"geometry":{"type":"LineString","coordinates":[[17.37444,51.39966],[17.37496,51.39975],[17.37571,51.40041],[17.3782,51.40178],[17.37956,51.40233],[17.3816,51.40291],[17.38314,51.40362],[17.38393,51.40366],[17.38642,51.40345],[17.38797,51.40339],[17.3918,51.40393],[17.39657,51.40424],[17.39744,51.40459],[17.40199,51.40694],[17.40247,51.40767],[17.4045,51.41345],[17.40455,51.41376],[17.40416,51.4145],[17.40587,51.41981],[17.40531,51.42297],[17.40243,51.4311],[17.40248,51.43144],[17.40307,51.43231],[17.40294,51.4331],[17.403,51.4334],[17.40328,51.43361],[17.41693,51.4355],[17.41734,51.43548],[17.41796,51.43505],[17.41988,51.43532]]}},{"type":"Feature","properties":{"numer":"439","klasa":"droga gĹ‚Ăłwna","kat":"wojewodzka"},"geometry":{"type":"LineString","coordinates":[[17.43329,51.43205],[17.4385877160303,51.427363558896275]]}},{"type":"Feature","properties":{"numer":"439","klasa":"droga gĹ‚Ăłwna","kat":"wojewodzka"},"geometry":{"type":"LineString","coordinates":[[17.43323,51.43211],[17.43329,51.43205]]}},{"type":"Feature","properties":{"numer":"439","klasa":"droga gĹ‚Ăłwna","kat":"wojewodzka"},"geometry":{"type":"LineString","coordinates":[[17.43194,51.43283],[17.43271,51.43252],[17.43323,51.43211]]}},{"type":"Feature","properties":{"numer":"439","klasa":"droga gĹ‚Ăłwna","kat":"wojewodzka"},"geometry":{"type":"LineString","coordinates":[[17.43185,51.43285],[17.43194,51.43283]]}},{"type":"Feature","properties":{"numer":"439","klasa":"droga gĹ‚Ăłwna","kat":"wojewodzka"},"geometry":{"type":"LineString","coordinates":[[17.43107,51.43299],[17.43185,51.43285]]}},{"type":"Feature","properties":{"numer":"439","klasa":"droga gĹ‚Ăłwna","kat":"wojewodzka"},"geometry":{"type":"LineString","coordinates":[[17.4309,51.43302],[17.43107,51.43299]]}},{"type":"Feature","properties":{"numer":"439","klasa":"droga gĹ‚Ăłwna","kat":"wojewodzka"},"geometry":{"type":"LineString","coordinates":[[17.42086,51.43549],[17.42116,51.4348],[17.42187,51.43453],[17.42478,51.43392],[17.4309,51.43302]]}},{"type":"Feature","properties":{"numer":"1450D","klasa":"droga gĹ‚Ăłwna","kat":"powiatowa"},"geometry":{"type":"LineString","coordinates":[[17.41995,51.43533],[17.41988,51.43532]]}},{"type":"Feature","properties":{"numer":"15","klasa":"droga gĹ‚Ăłwna","kat":"krajowa"},"geometry":{"type":"LineString","coordinates":[[17.25738321872714,51.42997084857352],[17.2579,51.43055],[17.25818,51.4312],[17.25895,51.43628],[17.25922,51.4372],[17.26154,51.44188],[17.26377,51.44487],[17.26450199613029,51.44698211383427]]}},{"type":"Feature","properties":{"numer":"15","klasa":"droga gĹ‚Ăłwna","kat":"krajowa"},"geometry":{"type":"LineString","coordinates":[[17.266559192674265,51.452171334330025],[17.267891137598856,51.45487039104191]]}},{"type":"Feature","properties":{"numer":"1436D","klasa":"droga zbiorcza","kat":"powiatowa"},"geometry":{"type":"LineString","coordinates":[[17.46522,51.46456],[17.47126,51.45834],[17.47746,51.45214],[17.4783,51.45124],[17.47829,51.45099],[17.47845,51.45072],[17.48015,51.4494],[17.480783043319462,51.448203548126216]]}},{"type":"Feature","properties":{"numer":"1448D","klasa":"droga zbiorcza","kat":"powiatowa"},"geometry":{"type":"LineString","coordinates":[[17.46062,51.46271],[17.46076,51.46279]]}},{"type":"Feature","properties":{"numer":"1448D","klasa":"droga zbiorcza","kat":"powiatowa"},"geometry":{"type":"LineString","coordinates":[[17.46076,51.46279],[17.46214,51.46348]]}},{"type":"Feature","properties":{"numer":"1448D","klasa":"droga zbiorcza","kat":"powiatowa"},"geometry":{"type":"LineString","coordinates":[[17.46214,51.46348],[17.46221,51.46351]]}},{"type":"Feature","properties":{"numer":"1448D","klasa":"droga zbiorcza","kat":"powiatowa"},"geometry":{"type":"LineString","coordinates":[[17.46221,51.46351],[17.4631,51.46392],[17.46522,51.46456]]}},{"type":"Feature","properties":{"numer":"1436D","klasa":"droga zbiorcza","kat":"powiatowa"},"geometry":{"type":"LineString","coordinates":[[17.46522,51.46456],[17.46489,51.4649],[17.46487,51.46516],[17.46519,51.4654],[17.4656,51.46549],[17.47916,51.46742]]}},{"type":"Feature","properties":{"numer":"1436D","klasa":"droga zbiorcza","kat":"powiatowa"},"geometry":{"type":"LineString","coordinates":[[17.47916,51.46742],[17.4792,51.46742]]}},{"type":"Feature","properties":{"numer":"1436D","klasa":"droga zbiorcza","kat":"powiatowa"},"geometry":{"type":"LineString","coordinates":[[17.4792,51.46742],[17.47992,51.46754]]}},{"type":"Feature","properties":{"numer":"1446D","klasa":"","kat":"powiatowa"},"geometry":{"type":"LineString","coordinates":[[17.50432,51.47311],[17.5056,51.47248],[17.5074,51.47181],[17.50981,51.47019],[17.51035,51.47004],[17.51243,51.46979],[17.51513,51.46933],[17.51749,51.46879],[17.524547221600425,51.465785440308736]]}},{"type":"Feature","properties":{"numer":"1449D","klasa":"","kat":"powiatowa"},"geometry":{"type":"LineString","coordinates":[[17.47992,51.46754],[17.49803,51.47003],[17.49916,51.4704],[17.50153,51.47162]]}},{"type":"Feature","properties":{"numer":"1449D","klasa":"","kat":"powiatowa"},"geometry":{"type":"LineString","coordinates":[[17.50153,51.47162],[17.50158,51.47165]]}},{"type":"Feature","properties":{"numer":"1449D","klasa":"","kat":"powiatowa"},"geometry":{"type":"LineString","coordinates":[[17.50158,51.47165],[17.50432,51.47311]]}},{"type":"Feature","properties":{"numer":"1436D","klasa":"droga zbiorcza","kat":"powiatowa"},"geometry":{"type":"LineString","coordinates":[[17.47992,51.46754],[17.48053,51.46788],[17.48076,51.46816],[17.48666,51.47749],[17.48986,51.4817],[17.49117,51.48408]]}},{"type":"Feature","properties":{"numer":"1446D","klasa":"","kat":"powiatowa"},"geometry":{"type":"LineString","coordinates":[[17.50274,51.47936],[17.50265,51.47896],[17.5028,51.47683],[17.50348,51.47533],[17.5037,51.47366],[17.50432,51.47311]]}},{"type":"Feature","properties":{"numer":"1446D","klasa":"","kat":"powiatowa"},"geometry":{"type":"LineString","coordinates":[[17.50275,51.47938],[17.50274,51.47936]]}},{"type":"Feature","properties":{"numer":"1446D","klasa":"","kat":"powiatowa"},"geometry":{"type":"LineString","coordinates":[[17.50543,51.48232],[17.50468,51.4815],[17.50386,51.48037],[17.50275,51.47938]]}},{"type":"Feature","properties":{"numer":"1446D","klasa":"","kat":"powiatowa"},"geometry":{"type":"LineString","coordinates":[[17.50549,51.48238],[17.50543,51.48232]]}},{"type":"Feature","properties":{"numer":"1436D","klasa":"droga zbiorcza","kat":"powiatowa"},"geometry":{"type":"LineString","coordinates":[[17.49117,51.48408],[17.4912,51.48413]]}},{"type":"Feature","properties":{"numer":"1446D","klasa":"","kat":"powiatowa"},"geometry":{"type":"LineString","coordinates":[[17.4943,51.48602],[17.50469,51.48269],[17.50534,51.4827],[17.50551,51.48258],[17.50549,51.48238]]}},{"type":"Feature","properties":{"numer":"1436D","klasa":"droga zbiorcza","kat":"powiatowa"},"geometry":{"type":"LineString","coordinates":[[17.4912,51.48413],[17.49215,51.48585],[17.49191,51.48631]]}},{"type":"Feature","properties":{"numer":"1436D,1446D","klasa":"droga zbiorcza","kat":"powiatowa"},"geometry":{"type":"LineString","coordinates":[[17.49219,51.48664],[17.49238,51.48673],[17.49258,51.48671],[17.49305,51.48642],[17.4943,51.48602]]}},{"type":"Feature","properties":{"numer":"1436D","klasa":"droga zbiorcza","kat":"powiatowa"},"geometry":{"type":"LineString","coordinates":[[17.4943,51.48602],[17.49513,51.48684]]}},{"type":"Feature","properties":{"numer":"1436D,1446D","klasa":"droga zbiorcza","kat":"powiatowa"},"geometry":{"type":"LineString","coordinates":[[17.49191,51.48631],[17.49214,51.48658]]}},{"type":"Feature","properties":{"numer":"1436D,1446D","klasa":"droga zbiorcza","kat":"powiatowa"},"geometry":{"type":"LineString","coordinates":[[17.49214,51.48658],[17.49219,51.48664]]}},{"type":"Feature","properties":{"numer":"1446D","klasa":"","kat":"powiatowa"},"geometry":{"type":"LineString","coordinates":[[17.47357,51.49463],[17.47401,51.49445],[17.47437,51.49408],[17.47712,51.49196],[17.47847,51.49108],[17.47976,51.49044],[17.4817,51.4899],[17.48249,51.48904],[17.48353,51.4886],[17.48553,51.48797],[17.48683,51.48699],[17.48747,51.48676],[17.48866,51.48658],[17.49055,51.48634],[17.49191,51.48631]]}},{"type":"Feature","properties":{"numer":"1436D","klasa":"droga zbiorcza","kat":"powiatowa"},"geometry":{"type":"LineString","coordinates":[[17.50767,51.49539],[17.50646,51.49418],[17.50482,51.49304],[17.5036,51.49125],[17.50271,51.49048],[17.49627,51.48782],[17.49513,51.48684]]}},{"type":"Feature","properties":{"numer":"1435D","klasa":"","kat":"powiatowa"},"geometry":{"type":"LineString","coordinates":[[17.50767,51.49539],[17.50856,51.49489],[17.51027,51.49447],[17.51127,51.49408],[17.51174,51.4937],[17.51256,51.49263],[17.51382,51.49177],[17.51434,51.49158],[17.5166,51.49101],[17.518316435190904,51.49042077597924]]}},{"type":"Feature","properties":{"numer":"1446D","klasa":"","kat":"powiatowa"},"geometry":{"type":"LineString","coordinates":[[17.4735,51.49464],[17.47357,51.49463]]}},{"type":"Feature","properties":{"numer":"5339P","klasa":"","kat":"powiatowa"},"geometry":{"type":"LineString","coordinates":[[17.53495,51.51415],[17.53496418604651,51.51415]]}},{"type":"Feature","properties":{"numer":"1437D","klasa":"","kat":"powiatowa"},"geometry":{"type":"LineString","coordinates":[[17.51435,51.51944],[17.51574,51.51901],[17.51724,51.51836],[17.51805,51.51814],[17.52079,51.51766],[17.5226,51.51757],[17.52395,51.51734],[17.52769,51.51575],[17.52873,51.51505],[17.53049,51.51427],[17.5318,51.5141],[17.53495,51.51415]]}},{"type":"Feature","properties":{"numer":"1450D","klasa":"droga gĹ‚Ăłwna","kat":"powiatowa"},"geometry":{"type":"LineString","coordinates":[[17.36752,51.39688],[17.36761,51.39707],[17.36825,51.39756],[17.36911,51.39805],[17.37063,51.39853],[17.37226,51.3993],[17.37361,51.39962],[17.37438,51.39966]]}},{"type":"Feature","properties":{"numer":"1450D","klasa":"droga gĹ‚Ăłwna","kat":"powiatowa"},"geometry":{"type":"LineString","coordinates":[[17.37438,51.39966],[17.37444,51.39966]]}},{"type":"Feature","properties":{"numer":"1451D","klasa":"droga zbiorcza","kat":"powiatowa"},"geometry":{"type":"LineString","coordinates":[[17.36752,51.39688],[17.36588,51.39854],[17.36458,51.40007],[17.36264,51.40317],[17.3605,51.40692],[17.36003,51.40791],[17.35885,51.41128],[17.35846,51.41281],[17.35818,51.4145],[17.35793,51.41667],[17.35785,51.41942],[17.35914,51.42177],[17.35926,51.42242],[17.35895,51.42345],[17.35774,51.42547],[17.35757,51.4256],[17.35683,51.42577],[17.35664,51.42597],[17.35676,51.42752],[17.3564,51.42827],[17.35658,51.42843],[17.35799,51.42829],[17.3599,51.42828],[17.36039,51.42843],[17.36057,51.42862],[17.36175,51.43814]]}},{"type":"Feature","properties":{"numer":"1451D","klasa":"droga zbiorcza","kat":"powiatowa"},"geometry":{"type":"LineString","coordinates":[[17.36175,51.43814],[17.36175,51.43818]]}},{"type":"Feature","properties":{"numer":"1451D","klasa":"droga zbiorcza","kat":"powiatowa"},"geometry":{"type":"LineString","coordinates":[[17.36175,51.43818],[17.36051,51.4456],[17.36013,51.44662],[17.36057,51.44817],[17.36113,51.45152],[17.36071,51.45274],[17.36066,51.45353],[17.36083,51.45393],[17.36119,51.45427],[17.36187,51.45473],[17.36323,51.45541],[17.36435,51.45608],[17.36475,51.45646],[17.36591,51.4579],[17.36627,51.45995],[17.36861,51.4621]]}},{"type":"Feature","properties":{"numer":"439","klasa":"droga gĹ‚Ăłwna","kat":"wojewodzka"},"geometry":{"type":"LineString","coordinates":[[17.36684,51.4664],[17.36758,51.46462],[17.36811,51.46254],[17.36829,51.46229],[17.36861,51.4621]]}},{"type":"Feature","properties":{"numer":"1444D","klasa":"","kat":"powiatowa"},"geometry":{"type":"LineString","coordinates":[[17.33353,51.47949],[17.33342,51.47901],[17.33066,51.47278],[17.32771,51.46911],[17.32689,51.46858],[17.32208,51.46623],[17.3172,51.46147]]}},{"type":"Feature","properties":{"numer":"439","klasa":"droga gĹ‚Ăłwna","kat":"wojewodzka"},"geometry":{"type":"LineString","coordinates":[[17.35956,51.47606],[17.35975,51.47566],[17.36344,51.47041],[17.36377,51.46839],[17.36409,51.46817],[17.3656,51.46763],[17.36684,51.4664]]}},{"type":"Feature","properties":{"numer":"1445D","klasa":"","kat":"powiatowa"},"geometry":{"type":"LineString","coordinates":[[17.36684,51.4664],[17.36791,51.46673],[17.36945,51.46743],[17.37089,51.46884],[17.37129,51.46955],[17.3712,51.47075],[17.37205,51.47423],[17.37197,51.47429],[17.36905,51.47454],[17.36383,51.47607],[17.36191,51.47611],[17.35956,51.47606]]}},{"type":"Feature","properties":{"numer":"1440D","klasa":"droga zbiorcza","kat":"powiatowa"},"geometry":{"type":"LineString","coordinates":[[17.30983,51.47179],[17.32325,51.47833],[17.32793,51.48006],[17.32882,51.48018],[17.33095,51.47992],[17.33192,51.47959],[17.33289,51.47939],[17.33327,51.4794],[17.33353,51.47949]]}},{"type":"Feature","properties":{"numer":"1450D","klasa":"droga gĹ‚Ăłwna","kat":"powiatowa"},"geometry":{"type":"LineString","coordinates":[[17.42086,51.43549],[17.41995,51.43533]]}},{"type":"Feature","properties":{"numer":"439","klasa":"droga gĹ‚Ăłwna","kat":"wojewodzka"},"geometry":{"type":"LineString","coordinates":[[17.40484,51.45442],[17.409,51.45262],[17.4097,51.45262],[17.41125,51.45297],[17.41216,51.45295],[17.41339,51.45279],[17.41683,51.45217],[17.41753,51.45198],[17.41819,51.45164],[17.41863,51.45068],[17.41867,51.44888],[17.41951,51.44741],[17.41946,51.44589],[17.41987,51.44369],[17.41999,51.44233],[17.4198,51.44108],[17.41989,51.44025],[17.42035,51.43854],[17.42065,51.43782],[17.42186,51.43646],[17.42202,51.43613],[17.42183,51.43579],[17.4216,51.43567],[17.42086,51.43549]]}},{"type":"Feature","properties":{"numer":"1448D","klasa":"droga zbiorcza","kat":"powiatowa"},"geometry":{"type":"LineString","coordinates":[[17.40484,51.45442],[17.40646,51.45636]]}},{"type":"Feature","properties":{"numer":"1448D","klasa":"droga zbiorcza","kat":"powiatowa"},"geometry":{"type":"LineString","coordinates":[[17.40646,51.45636],[17.40649,51.4564]]}},{"type":"Feature","properties":{"numer":"439","klasa":"droga gĹ‚Ăłwna","kat":"wojewodzka"},"geometry":{"type":"LineString","coordinates":[[17.36861,51.4621],[17.37784,51.45718],[17.37916,51.45697],[17.38539,51.45628],[17.38746,51.45619],[17.40063,51.45509],[17.40339,51.45471],[17.40484,51.45442]]}},{"type":"Feature","properties":{"numer":"1448D","klasa":"droga zbiorcza","kat":"powiatowa"},"geometry":{"type":"LineString","coordinates":[[17.40649,51.4564],[17.40665,51.45662],[17.40664,51.45704],[17.40948,51.45987],[17.41058,51.46049],[17.41142,51.46129],[17.41184,51.46152],[17.45416,51.46649]]}},{"type":"Feature","properties":{"numer":"1448D","klasa":"droga zbiorcza","kat":"powiatowa"},"geometry":{"type":"LineString","coordinates":[[17.45416,51.46649],[17.45463,51.46624],[17.45587,51.46469],[17.45844,51.46181],[17.45878,51.46181],[17.46062,51.46271]]}},{"type":"Feature","properties":{"numer":"1447D","klasa":"","kat":"powiatowa"},"geometry":{"type":"LineString","coordinates":[[17.45416,51.46649],[17.45432,51.46685],[17.45429,51.46701],[17.45036,51.47055],[17.44897,51.47372],[17.44748,51.47651],[17.44695,51.477],[17.43606,51.48889],[17.4355,51.48927],[17.43342,51.49562],[17.43307,51.49708],[17.43217,51.49774],[17.43203,51.49804]]}},{"type":"Feature","properties":{"numer":"1446D","klasa":"","kat":"powiatowa"},"geometry":{"type":"LineString","coordinates":[[17.43196,51.49833],[17.43534,51.49912],[17.4366,51.49926],[17.43784,51.49929],[17.44507,51.4969],[17.4467,51.49662],[17.4486,51.49653],[17.4489,51.49665],[17.45035,51.49785],[17.45159,51.49863],[17.45256,51.49907],[17.4538,51.4995],[17.45442,51.49995],[17.45487,51.49995],[17.45702,51.49917],[17.45883,51.49988],[17.45923,51.49989],[17.46144,51.49941],[17.46202,51.49922],[17.46514,51.49637],[17.4656,51.49605],[17.46698,51.49537],[17.46765,51.4952],[17.46991,51.49503],[17.4735,51.49464]]}},{"type":"Feature","properties":{"numer":"1447D","klasa":"","kat":"powiatowa"},"geometry":{"type":"LineString","coordinates":[[17.43203,51.49804],[17.432,51.49814]]}},{"type":"Feature","properties":{"numer":"439","klasa":"droga gĹ‚Ăłwna","kat":"wojewodzka"},"geometry":{"type":"LineString","coordinates":[[17.35824,51.47667],[17.35905,51.47653],[17.35945,51.47628],[17.35956,51.47606]]}},{"type":"Feature","properties":{"numer":"439","klasa":"droga gĹ‚Ăłwna","kat":"wojewodzka"},"geometry":{"type":"LineString","coordinates":[[17.33533,51.48138],[17.33518,51.48085],[17.33553,51.48045],[17.33674,51.48015],[17.33807,51.47949],[17.34623,51.47746],[17.34802,51.47735],[17.35201,51.47733],[17.35824,51.47667]]}},{"type":"Feature","properties":{"numer":"1440D","klasa":"droga zbiorcza","kat":"powiatowa"},"geometry":{"type":"LineString","coordinates":[[17.33353,51.47949],[17.33407,51.48057],[17.33496,51.48122],[17.33533,51.48138]]}},{"type":"Feature","properties":{"numer":"439","klasa":"droga gĹ‚Ăłwna","kat":"wojewodzka"},"geometry":{"type":"LineString","coordinates":[[17.33544,51.48155],[17.33533,51.48138]]}},{"type":"Feature","properties":{"numer":"439","klasa":"droga gĹ‚Ăłwna","kat":"wojewodzka"},"geometry":{"type":"LineString","coordinates":[[17.33545,51.48196],[17.33552,51.48179],[17.33544,51.48155]]}},{"type":"Feature","properties":{"numer":"439","klasa":"droga gĹ‚Ăłwna","kat":"wojewodzka"},"geometry":{"type":"LineString","coordinates":[[17.33491,51.48212],[17.33545,51.48196]]}},{"type":"Feature","properties":{"numer":"1441D","klasa":"","kat":"powiatowa"},"geometry":{"type":"LineString","coordinates":[[17.35824,51.47667],[17.35787,51.47738],[17.35801,51.47814],[17.35433,51.48343],[17.35583,51.48561],[17.35739,51.48675],[17.35749,51.48704],[17.35732,51.48748],[17.35738,51.48776],[17.35892,51.49001],[17.35903,51.49048]]}},{"type":"Feature","properties":{"numer":"1440D","klasa":"droga zbiorcza","kat":"powiatowa"},"geometry":{"type":"LineString","coordinates":[[17.33974,51.4939],[17.33703,51.49316],[17.33652,51.49293],[17.33632,51.49271],[17.33632,51.49165],[17.3348,51.48788],[17.33433,51.48606],[17.33434,51.48593],[17.33469,51.48556],[17.33482,51.48498],[17.33499,51.48469],[17.33617,51.48413],[17.33629,51.484],[17.33622,51.48319],[17.3357,51.48208],[17.33545,51.48196]]}},{"type":"Feature","properties":{"numer":"1441D","klasa":"","kat":"powiatowa"},"geometry":{"type":"LineString","coordinates":[[17.34559,51.4946],[17.34627,51.49423],[17.34731,51.49349],[17.35903,51.49048]]}},{"type":"Feature","properties":{"numer":"1440D,1441D","klasa":"droga zbiorcza","kat":"powiatowa"},"geometry":{"type":"LineString","coordinates":[[17.34559,51.4946],[17.33974,51.4939]]}},{"type":"Feature","properties":{"numer":"439","klasa":"droga gĹ‚Ăłwna","kat":"wojewodzka"},"geometry":{"type":"LineString","coordinates":[[17.299513193319083,51.49592513893722],[17.30312,51.4912],[17.30387,51.48987],[17.30455,51.48825],[17.30484,51.48792],[17.30556,51.48741],[17.30927,51.48627],[17.30977,51.48601],[17.31074,51.48526],[17.31118,51.48507],[17.31476,51.48496],[17.31613,51.48509],[17.31682,51.48504],[17.32818,51.4834],[17.33024,51.48297],[17.33093,51.48273],[17.33491,51.48212]]}},{"type":"Feature","properties":{"numer":"1441D","klasa":"","kat":"powiatowa"},"geometry":{"type":"LineString","coordinates":[[17.322271981029672,51.50239511671317],[17.32255,51.50229],[17.32389,51.50148],[17.32757,51.49884],[17.32791,51.4987],[17.33042,51.49817],[17.33157,51.49783],[17.33275,51.49765],[17.33486,51.49764],[17.33605,51.4978],[17.33784,51.49715],[17.34001,51.49656],[17.34076,51.496],[17.3409,51.49557],[17.33974,51.4939]]}},{"type":"Feature","properties":{"numer":"1447D","klasa":"","kat":"powiatowa"},"geometry":{"type":"LineString","coordinates":[[17.432,51.49814],[17.43196,51.49833]]}},{"type":"Feature","properties":{"numer":"1446D","klasa":"","kat":"powiatowa"},"geometry":{"type":"LineString","coordinates":[[17.431615690607735,51.49834075966851],[17.43196,51.49833]]}},{"type":"Feature","properties":{"numer":"1436D","klasa":"droga zbiorcza","kat":"powiatowa"},"geometry":{"type":"LineString","coordinates":[[17.50721,51.50293],[17.50838,51.50261],[17.50895,51.50234],[17.50921,51.50208],[17.5091,51.50178],[17.50838,51.50087],[17.50761,51.4977],[17.50711,51.49661],[17.50714,51.49613],[17.50767,51.49539]]}},{"type":"Feature","properties":{"numer":"1434D","klasa":"","kat":"powiatowa"},"geometry":{"type":"LineString","coordinates":[[17.5073,51.50314],[17.50721,51.50293]]}},{"type":"Feature","properties":{"numer":"1436D","klasa":"droga zbiorcza","kat":"powiatowa"},"geometry":{"type":"LineString","coordinates":[[17.489817261422537,51.50434122964054],[17.49002,51.50429],[17.492309590484336,51.50416682582837]]}},{"type":"Feature","properties":{"numer":"1436D","klasa":"droga zbiorcza","kat":"powiatowa"},"geometry":{"type":"LineString","coordinates":[[17.493490702643264,51.50406886190909],[17.49719,51.50346],[17.49824,51.50342],[17.500198820827755,51.50351247651977]]}},{"type":"Feature","properties":{"numer":"1436D","klasa":"droga zbiorcza","kat":"powiatowa"},"geometry":{"type":"LineString","coordinates":[[17.501507842736782,51.50340390349758],[17.50414,51.50305],[17.50656,51.50302],[17.50721,51.50293]]}},{"type":"Feature","properties":{"numer":"1434D","klasa":"","kat":"powiatowa"},"geometry":{"type":"LineString","coordinates":[[17.508114490291263,51.5059220145631],[17.50827,51.50513],[17.50812,51.5046],[17.5073,51.50314]]}},{"type":"Feature","properties":{"numer":"1437D","klasa":"","kat":"powiatowa"},"geometry":{"type":"LineString","coordinates":[[17.51392684621569,51.51946081084185],[17.51435,51.51944]]}},{"type":"Feature","properties":{"numer":"1450D","klasa":"droga gĹ‚Ăłwna","kat":"powiatowa"},"geometry":{"type":"LineString","coordinates":[[17.29853,51.41094],[17.29977,51.40817],[17.29991,51.40719],[17.30167,51.40685],[17.30753,51.40618],[17.30821,51.40602],[17.31608,51.40198],[17.31693,51.40144],[17.32045,51.39809]]}},{"type":"Feature","properties":{"numer":"1452D","klasa":"","kat":"powiatowa"},"geometry":{"type":"LineString","coordinates":[[17.2774,51.40613],[17.27741,51.40609]]}},{"type":"Feature","properties":{"numer":"1452D","klasa":"","kat":"powiatowa"},"geometry":{"type":"LineString","coordinates":[[17.29785,51.41309],[17.29616,51.41195],[17.29551,51.41167],[17.29307,51.41143],[17.29071,51.41099],[17.2874,51.41078],[17.28671,51.41063],[17.28034,51.408],[17.27881,51.40748],[17.27752,51.40661],[17.2774,51.40613]]}},{"type":"Feature","properties":{"numer":"1450D","klasa":"droga gĹ‚Ăłwna","kat":"powiatowa"},"geometry":{"type":"LineString","coordinates":[[17.29847,51.41104],[17.29853,51.41094]]}},{"type":"Feature","properties":{"numer":"1450D","klasa":"droga gĹ‚Ăłwna","kat":"powiatowa"},"geometry":{"type":"LineString","coordinates":[[17.29785,51.41309],[17.29812,51.41162],[17.29847,51.41104]]}},{"type":"Feature","properties":{"numer":"1450D","klasa":"droga gĹ‚Ăłwna","kat":"powiatowa"},"geometry":{"type":"LineString","coordinates":[[17.274956665498756,51.45596903457941],[17.27567,51.45591],[17.27747,51.45527],[17.27972,51.45401],[17.28218,51.45195],[17.28617,51.45],[17.28654,51.4497],[17.2868,51.44932],[17.28816,51.44493],[17.28879,51.4409],[17.28777,51.43879],[17.28782,51.43775],[17.28733,51.43697],[17.28733,51.43665],[17.28754,51.43635],[17.28778,51.43621],[17.2896,51.4354],[17.29201,51.43358],[17.29324,51.4325],[17.29423,51.4312],[17.29495,51.42991],[17.29574,51.42767],[17.29646,51.42679],[17.29777,51.42475],[17.29812,51.42365],[17.29855,51.42125],[17.2989,51.4208],[17.30002,51.4199],[17.30029,51.41952],[17.3003,51.41927],[17.30012,51.41913],[17.29905,51.41875],[17.29738,51.41802],[17.29708,51.41778],[17.2971,51.41741],[17.29748,51.41631],[17.29804,51.41585],[17.29847,51.41506],[17.29844,51.41467],[17.29785,51.41309]]}},{"type":"Feature","properties":{"numer":"1444D","klasa":"","kat":"powiatowa"},"geometry":{"type":"LineString","coordinates":[[17.3172,51.46147],[17.31706,51.46155],[17.31694,51.4619],[17.31467,51.46375],[17.3111,51.4671],[17.31094,51.46745],[17.31081,51.46917],[17.30983,51.47179]]}},{"type":"Feature","properties":{"numer":"1440D","klasa":"droga zbiorcza","kat":"powiatowa"},"geometry":{"type":"LineString","coordinates":[[17.28518116981132,51.469097735849054],[17.2853,51.46908],[17.28992,51.46795],[17.29688,51.46688],[17.29765,51.46743],[17.29872,51.46781],[17.29917,51.46859],[17.29933,51.46867],[17.30288,51.46856],[17.30336,51.46978],[17.30369,51.47004],[17.30983,51.47179]]}},{"type":"Feature","properties":{"numer":"1440D","klasa":"droga zbiorcza","kat":"powiatowa"},"geometry":{"type":"LineString","coordinates":[[17.351796900344766,51.50225668527335],[17.34966,51.5014],[17.34921,51.49777],[17.34903,51.49736],[17.34712,51.49488],[17.34679,51.49474],[17.34559,51.4946]]}}]}