{"type":"FeatureCollection","features":[{"type":"Feature","properties":{"numer":"396","klasa":"droga gĹ‚Ăłwna","kat":"wojewodzka"},"geometry":{"type":"LineString","coordinates":[[17.177759771197845,50.85986781965007],[17.17787,50.85993]]}},{"type":"Feature","properties":{"numer":"3105D","klasa":"","kat":"powiatowa"},"geometry":{"type":"LineString","coordinates":[[17.17793,50.85986],[17.178110648246548,50.85972096705632]]}},{"type":"Feature","properties":{"numer":"3057D","klasa":"","kat":"powiatowa"},"geometry":{"type":"LineString","coordinates":[[17.1294,50.84567],[17.12959172533971,50.84561178380373]]}},{"type":"Feature","properties":{"numer":"3057D","klasa":"droga zbiorcza","kat":"powiatowa"},"geometry":{"type":"LineString","coordinates":[[17.11986,50.85039],[17.1206,50.85008],[17.12127,50.84964],[17.12333,50.8488],[17.1245,50.84806],[17.12592,50.84738],[17.12691,50.8468],[17.1294,50.84567]]}},{"type":"Feature","properties":{"numer":"3057D","klasa":"droga zbiorcza","kat":"powiatowa"},"geometry":{"type":"LineString","coordinates":[[17.111234437292254,50.85104616608898],[17.11747,50.84959],[17.11825,50.84962],[17.11942,50.85026],[17.11986,50.85039]]}},{"type":"Feature","properties":{"numer":"1599D","klasa":"","kat":"powiatowa"},"geometry":{"type":"LineString","coordinates":[[17.11364,50.87232],[17.11292,50.87162],[17.11089,50.8703],[17.11212,50.8695],[17.11234,50.86918],[17.11202,50.86817],[17.11188,50.86726],[17.11222,50.86531],[17.11209,50.86374],[17.11218,50.86182],[17.11199,50.86051],[17.11225,50.85999],[17.11853,50.85185],[17.11925,50.85096],[17.11986,50.85039]]}},{"type":"Feature","properties":{"numer":"1598D","klasa":"droga zbiorcza","kat":"powiatowa"},"geometry":{"type":"LineString","coordinates":[[17.11364,50.87232],[17.11445,50.87189],[17.11695,50.87091],[17.12061,50.87008],[17.13023,50.86766],[17.13709,50.86523],[17.14179,50.86244],[17.14226,50.86228],[17.143,50.86217],[17.14675,50.86193],[17.14705,50.86203],[17.14727,50.86256],[17.14804,50.86282],[17.1499,50.86268],[17.15054,50.86274],[17.15096,50.86294],[17.15112,50.86315],[17.15142,50.86458],[17.15175,50.8649],[17.15662,50.86626]]}},{"type":"Feature","properties":{"numer":"3105D","klasa":"droga zbiorcza","kat":"powiatowa"},"geometry":{"type":"LineString","coordinates":[[17.17787,50.85993],[17.17514,50.86518]]}},{"type":"Feature","properties":{"numer":"396","klasa":"droga gĹ‚Ăłwna","kat":"wojewodzka"},"geometry":{"type":"LineString","coordinates":[[17.17787,50.85993],[17.19267,50.86554],[17.19302,50.8658],[17.1934,50.86666]]}},{"type":"Feature","properties":{"numer":"1598D","klasa":"","kat":"powiatowa"},"geometry":{"type":"LineString","coordinates":[[17.203851344219405,50.863867258784786],[17.20383,50.86387]]}},{"type":"Feature","properties":{"numer":"1598D","klasa":"droga zbiorcza","kat":"powiatowa"},"geometry":{"type":"LineString","coordinates":[[17.1934,50.86666],[17.19522,50.86611],[17.20383,50.86387]]}},{"type":"Feature","properties":{"numer":"1598D","klasa":"droga zbiorcza","kat":"powiatowa"},"geometry":{"type":"LineString","coordinates":[[17.15662,50.86626],[17.15705,50.86612],[17.15821,50.86614],[17.1594,50.86587],[17.16672,50.86498],[17.17151,50.86487],[17.17514,50.86518]]}},{"type":"Feature","properties":{"numer":"1598D","klasa":"droga zbiorcza","kat":"powiatowa"},"geometry":{"type":"LineString","coordinates":[[17.17514,50.86518],[17.17567,50.86525],[17.17619,50.86541],[17.1843,50.86858],[17.18489,50.86875],[17.18555,50.86867],[17.18946,50.86769],[17.19155,50.86734],[17.1927,50.86704],[17.1934,50.86666]]}},{"type":"Feature","properties":{"numer":"1596D","klasa":"","kat":"powiatowa"},"geometry":{"type":"LineString","coordinates":[[17.15662,50.86626],[17.15635,50.86923]]}},{"type":"Feature","properties":{"numer":"1597D","klasa":"","kat":"powiatowa"},"geometry":{"type":"LineString","coordinates":[[17.15635,50.86923],[17.15628,50.86938]]}},{"type":"Feature","properties":{"numer":"1596D","klasa":"","kat":"powiatowa"},"geometry":{"type":"LineString","coordinates":[[17.15635,50.86923],[17.15661,50.86948]]}},{"type":"Feature","properties":{"numer":"1596D","klasa":"","kat":"powiatowa"},"geometry":{"type":"LineString","coordinates":[[17.15628,50.86938],[17.15661,50.86948]]}},{"type":"Feature","properties":{"numer":"396","klasa":"droga gĹ‚Ăłwna","kat":"wojewodzka"},"geometry":{"type":"LineString","coordinates":[[17.1934,50.86666],[17.19412,50.86826],[17.19577,50.87469]]}},{"type":"Feature","properties":{"numer":"A4,E40","klasa":"autostrada","kat":"krajowa"},"geometry":{"type":"LineString","coordinates":[[17.19785,50.88238],[17.204456973717857,50.87730736922858]]}},{"type":"Feature","properties":{"numer":"396","klasa":"droga gĹ‚Ăłwna","kat":"wojewodzka"},"geometry":{"type":"LineString","coordinates":[[17.19613,50.87605],[17.19598,50.87523],[17.19577,50.87469]]}},{"type":"Feature","properties":{"numer":"1594D","klasa":"droga zbiorcza","kat":"powiatowa"},"geometry":{"type":"LineString","coordinates":[[17.07565,50.89321],[17.08067,50.89316],[17.08226,50.89356],[17.08476,50.89365],[17.08726,50.89354],[17.08761,50.89342],[17.08798,50.89317],[17.0891,50.89292]]}},{"type":"Feature","properties":{"numer":"396","klasa":"droga gĹ‚Ăłwna","kat":"wojewodzka"},"geometry":{"type":"LineString","coordinates":[[17.19779,50.88218],[17.19613,50.87605]]}},{"type":"Feature","properties":{"numer":"1596D","klasa":"","kat":"powiatowa"},"geometry":{"type":"LineString","coordinates":[[17.17229,50.88906],[17.17203,50.88732],[17.16695,50.88176],[17.16537,50.88131],[17.16501,50.88101],[17.16166,50.8718],[17.16121,50.87149],[17.1573,50.86988],[17.15661,50.86948]]}},{"type":"Feature","properties":{"numer":"396","klasa":"droga gĹ‚Ăłwna","kat":"wojewodzka"},"geometry":{"type":"LineString","coordinates":[[17.19785,50.88238],[17.19779,50.88218]]}},{"type":"Feature","properties":{"numer":"396","klasa":"droga gĹ‚Ăłwna","kat":"wojewodzka"},"geometry":{"type":"LineString","coordinates":[[17.19791,50.88258],[17.19785,50.88238]]}},{"type":"Feature","properties":{"numer":"396","klasa":"droga gĹ‚Ăłwna","kat":"wojewodzka"},"geometry":{"type":"LineString","coordinates":[[17.19981,50.88859],[17.19869,50.88529],[17.19791,50.88258]]}},{"type":"Feature","properties":{"numer":"A4,E40","klasa":"autostrada","kat":"krajowa"},"geometry":{"type":"LineString","coordinates":[[17.18905,50.88909],[17.19785,50.88238]]}},{"type":"Feature","properties":{"numer":"1595D","klasa":"droga zbiorcza","kat":"powiatowa"},"geometry":{"type":"LineString","coordinates":[[17.18875,50.88909],[17.18506,50.88899],[17.18391,50.88884],[17.18258,50.88852]]}},{"type":"Feature","properties":{"numer":"1595D","klasa":"droga zbiorcza","kat":"powiatowa"},"geometry":{"type":"LineString","coordinates":[[17.18258,50.88852],[17.17757,50.88899],[17.17437,50.8891],[17.17229,50.88906]]}},{"type":"Feature","properties":{"numer":"1595D","klasa":"droga zbiorcza","kat":"powiatowa"},"geometry":{"type":"LineString","coordinates":[[17.18933,50.8891],[17.19397,50.88918],[17.19981,50.88859]]}},{"type":"Feature","properties":{"numer":"1595D","klasa":"droga zbiorcza","kat":"powiatowa"},"geometry":{"type":"LineString","coordinates":[[17.18905,50.88909],[17.18875,50.88909]]}},{"type":"Feature","properties":{"numer":"1599D","klasa":"","kat":"powiatowa"},"geometry":{"type":"LineString","coordinates":[[17.11364,50.87232],[17.11376,50.87249]]}},{"type":"Feature","properties":{"numer":"1599D","klasa":"","kat":"powiatowa"},"geometry":{"type":"LineString","coordinates":[[17.11376,50.87249],[17.11388,50.87288]]}},{"type":"Feature","properties":{"numer":"1590D","klasa":"droga zbiorcza","kat":"powiatowa"},"geometry":{"type":"LineString","coordinates":[[17.11388,50.87288],[17.11206,50.87348],[17.10992,50.87355],[17.10813,50.87375],[17.10554,50.87387],[17.098264965329093,50.87208122087075]]}},{"type":"Feature","properties":{"numer":"1590D","klasa":"droga zbiorcza","kat":"powiatowa"},"geometry":{"type":"LineString","coordinates":[[17.1213,50.87669],[17.11752,50.87562],[17.11481,50.87326],[17.1141,50.87288],[17.11388,50.87288]]}},{"type":"Feature","properties":{"numer":"1590D","klasa":"droga zbiorcza","kat":"powiatowa"},"geometry":{"type":"LineString","coordinates":[[17.1213,50.87669],[17.12142,50.87672]]}},{"type":"Feature","properties":{"numer":"1597D","klasa":"","kat":"powiatowa"},"geometry":{"type":"LineString","coordinates":[[17.15628,50.86938],[17.15611,50.86962],[17.1546,50.87061],[17.15292,50.87206],[17.15164,50.87299],[17.15057,50.87413],[17.14686,50.8768],[17.14215,50.88215],[17.1316,50.89145],[17.1308,50.8928],[17.1306,50.89287]]}},{"type":"Feature","properties":{"numer":"1590D","klasa":"droga zbiorcza","kat":"powiatowa"},"geometry":{"type":"LineString","coordinates":[[17.1306,50.89287],[17.12931,50.88852],[17.12668,50.87836],[17.1265,50.87819],[17.12603,50.87802],[17.12142,50.87672]]}},{"type":"Feature","properties":{"numer":"1595D","klasa":"droga zbiorcza","kat":"powiatowa"},"geometry":{"type":"LineString","coordinates":[[17.13087,50.89409],[17.13469,50.89444],[17.13635,50.89447],[17.14414,50.89404],[17.14621,50.89369],[17.15353,50.89221],[17.17229,50.88906]]}},{"type":"Feature","properties":{"numer":"1594D","klasa":"droga zbiorcza","kat":"powiatowa"},"geometry":{"type":"LineString","coordinates":[[17.0891,50.89292],[17.08924,50.89289]]}},{"type":"Feature","properties":{"numer":"1590D","klasa":"droga zbiorcza","kat":"powiatowa"},"geometry":{"type":"LineString","coordinates":[[17.1306,50.89287],[17.13082,50.89347],[17.13087,50.89409]]}},{"type":"Feature","properties":{"numer":"1595D","klasa":"droga zbiorcza","kat":"powiatowa"},"geometry":{"type":"LineString","coordinates":[[17.18905,50.88909],[17.18933,50.8891]]}},{"type":"Feature","properties":{"numer":"A4,E40","klasa":"autostrada","kat":"krajowa"},"geometry":{"type":"LineString","coordinates":[[17.16531,50.9036],[17.17742,50.89712],[17.17904,50.89618],[17.18321,50.89347],[17.18905,50.88909]]}},{"type":"Feature","properties":{"numer":"396","klasa":"droga gĹ‚Ăłwna","kat":"wojewodzka"},"geometry":{"type":"LineString","coordinates":[[17.21953,50.90633],[17.2191,50.90583],[17.20091,50.89318],[17.20078,50.89296],[17.20074,50.89135],[17.19981,50.88859]]}},{"type":"Feature","properties":{"numer":"A4,E40","klasa":"autostrada","kat":"krajowa"},"geometry":{"type":"LineString","coordinates":[[17.1652,50.90365],[17.16531,50.9036]]}},{"type":"Feature","properties":{"numer":"A4,E40","klasa":"autostrada","kat":"krajowa"},"geometry":{"type":"LineString","coordinates":[[17.15411,50.90957],[17.1652,50.90365]]}},{"type":"Feature","properties":{"numer":"1564D","klasa":"","kat":"powiatowa"},"geometry":{"type":"LineString","coordinates":[[17.228805346894294,50.90779385034508],[17.22155,50.9086],[17.21994,50.90847]]}},{"type":"Feature","properties":{"numer":"111268D,396","klasa":"droga gĹ‚Ăłwna","kat":"powiatowa"},"geometry":{"type":"LineString","coordinates":[[17.21994,50.90847],[17.21957,50.90727],[17.21953,50.90633]]}},{"type":"Feature","properties":{"numer":"1591D","klasa":"droga zbiorcza","kat":"powiatowa"},"geometry":{"type":"LineString","coordinates":[[17.17873,50.9099],[17.1959,50.90927],[17.20495,50.90914],[17.21883,50.90833],[17.21964,50.90837],[17.21994,50.90847]]}},{"type":"Feature","properties":{"numer":"1591D","klasa":"droga zbiorcza","kat":"powiatowa"},"geometry":{"type":"LineString","coordinates":[[17.17844,50.90994],[17.1781,50.90985],[17.17714,50.90936],[17.17654,50.90924],[17.17081,50.90983],[17.16002,50.90972],[17.1544,50.90958]]}},{"type":"Feature","properties":{"numer":"1591D,1592D","klasa":"droga zbiorcza","kat":"powiatowa"},"geometry":{"type":"LineString","coordinates":[[17.17844,50.90994],[17.17873,50.9099]]}},{"type":"Feature","properties":{"numer":"1594D","klasa":"droga zbiorcza","kat":"powiatowa"},"geometry":{"type":"LineString","coordinates":[[17.10023,50.90545],[17.10024,50.90501],[17.10127,50.90466],[17.10106,50.90403],[17.10128,50.90352],[17.09346,50.89614],[17.09226,50.89281],[17.0921,50.89269],[17.09179,50.89267],[17.08924,50.89289]]}},{"type":"Feature","properties":{"numer":"1590D","klasa":"droga zbiorcza","kat":"powiatowa"},"geometry":{"type":"LineString","coordinates":[[17.13087,50.89409],[17.13084,50.89681],[17.12901,50.90141],[17.12872,50.90196],[17.12468,50.90768],[17.12458,50.90895]]}},{"type":"Feature","properties":{"numer":"1591D","klasa":"droga zbiorcza","kat":"powiatowa"},"geometry":{"type":"LineString","coordinates":[[17.07857755225689,50.90930043522165],[17.0799,50.90977],[17.08044,50.9098],[17.0861,50.90848],[17.08677,50.90814],[17.0885,50.90763],[17.08992,50.90739],[17.09582,50.90599],[17.10023,50.90545]]}},{"type":"Feature","properties":{"numer":"1591D","klasa":"droga zbiorcza","kat":"powiatowa"},"geometry":{"type":"LineString","coordinates":[[17.10023,50.90545],[17.10506,50.90658],[17.10904,50.9072],[17.10975,50.9074],[17.11027,50.9079],[17.11172,50.9105],[17.11214,50.91079],[17.11275,50.91096],[17.12126,50.90935],[17.12307,50.90908],[17.12458,50.90895]]}},{"type":"Feature","properties":{"numer":"1590D","klasa":"droga zbiorcza","kat":"powiatowa"},"geometry":{"type":"LineString","coordinates":[[17.13244,50.90848],[17.13244,50.90863]]}},{"type":"Feature","properties":{"numer":"1590D,1591D","klasa":"droga zbiorcza","kat":"powiatowa"},"geometry":{"type":"LineString","coordinates":[[17.13244,50.90848],[17.13151,50.9085],[17.12878,50.90887],[17.12831,50.90884],[17.12769,50.90864],[17.12458,50.90895]]}},{"type":"Feature","properties":{"numer":"1591D","klasa":"droga zbiorcza","kat":"powiatowa"},"geometry":{"type":"LineString","coordinates":[[17.13244,50.90848],[17.14081,50.90866],[17.1501,50.90945],[17.1538,50.90956]]}},{"type":"Feature","properties":{"numer":"1591D","klasa":"droga zbiorcza","kat":"powiatowa"},"geometry":{"type":"LineString","coordinates":[[17.15411,50.90957],[17.1538,50.90956]]}},{"type":"Feature","properties":{"numer":"1591D","klasa":"droga zbiorcza","kat":"powiatowa"},"geometry":{"type":"LineString","coordinates":[[17.1544,50.90958],[17.15411,50.90957]]}},{"type":"Feature","properties":{"numer":"1590D","klasa":"droga zbiorcza","kat":"powiatowa"},"geometry":{"type":"LineString","coordinates":[[17.13244,50.90863],[17.13271,50.90967],[17.13532,50.91317],[17.13598,50.91548],[17.13683,50.91916]]}},{"type":"Feature","properties":{"numer":"A4,E40","klasa":"autostrada","kat":"krajowa"},"geometry":{"type":"LineString","coordinates":[[17.13687,50.91935],[17.14373,50.91511],[17.15411,50.90957]]}},{"type":"Feature","properties":{"numer":"1590D","klasa":"droga zbiorcza","kat":"powiatowa"},"geometry":{"type":"LineString","coordinates":[[17.13683,50.91916],[17.13687,50.91935]]}},{"type":"Feature","properties":{"numer":"1590D","klasa":"droga zbiorcza","kat":"powiatowa"},"geometry":{"type":"LineString","coordinates":[[17.13687,50.91935],[17.13691,50.91953]]}},{"type":"Feature","properties":{"numer":"1590D","klasa":"droga zbiorcza","kat":"powiatowa"},"geometry":{"type":"LineString","coordinates":[[17.13691,50.91953],[17.13749,50.92187],[17.13774,50.92478],[17.138,50.92496],[17.13863,50.9249],[17.13897,50.92495],[17.13919,50.92526],[17.13963,50.92661],[17.13973,50.92821],[17.13992,50.92906]]}},{"type":"Feature","properties":{"numer":"A4,E40","klasa":"autostrada","kat":"krajowa"},"geometry":{"type":"LineString","coordinates":[[17.11727,50.93156],[17.13687,50.91935]]}},{"type":"Feature","properties":{"numer":"1590D","klasa":"droga zbiorcza","kat":"powiatowa"},"geometry":{"type":"LineString","coordinates":[[17.13997,50.92916],[17.13992,50.92906]]}},{"type":"Feature","properties":{"numer":"1590D","klasa":"droga zbiorcza","kat":"powiatowa"},"geometry":{"type":"LineString","coordinates":[[17.13997,50.92916],[17.14036,50.92963],[17.14059,50.93058]]}},{"type":"Feature","properties":{"numer":"A4,E40","klasa":"autostrada","kat":"krajowa"},"geometry":{"type":"LineString","coordinates":[[17.11722,50.93159],[17.11727,50.93156]]}},{"type":"Feature","properties":{"numer":"346","klasa":"droga gĹ‚Ăłwna","kat":"wojewodzka"},"geometry":{"type":"LineString","coordinates":[[17.13738,50.93333],[17.13996,50.93129],[17.14059,50.93058]]}},{"type":"Feature","properties":{"numer":"A4,E40","klasa":"autostrada","kat":"krajowa"},"geometry":{"type":"LineString","coordinates":[[17.11494,50.93301],[17.11722,50.93159]]}},{"type":"Feature","properties":{"numer":"396","klasa":"droga gĹ‚Ăłwna","kat":"wojewodzka"},"geometry":{"type":"LineString","coordinates":[[17.21994,50.90847],[17.22061,50.90926],[17.227073759292075,50.91437483522929]]}},{"type":"Feature","properties":{"numer":"1592D","klasa":"droga zbiorcza","kat":"powiatowa"},"geometry":{"type":"LineString","coordinates":[[17.17844,50.90994],[17.17832,50.91155],[17.17809,50.91211],[17.17727,50.9132],[17.17703,50.91335],[17.17628,50.91356],[17.17641,50.91551],[17.17832,50.9303]]}},{"type":"Feature","properties":{"numer":"346","klasa":"droga gĹ‚Ăłwna","kat":"wojewodzka"},"geometry":{"type":"LineString","coordinates":[[17.14059,50.93058],[17.14295,50.93021],[17.1563,50.92878],[17.17605,50.93037],[17.17751,50.93041],[17.17832,50.9303]]}},{"type":"Feature","properties":{"numer":"346","klasa":"droga gĹ‚Ăłwna","kat":"wojewodzka"},"geometry":{"type":"LineString","coordinates":[[17.17832,50.9303],[17.17885,50.93025],[17.18054,50.93043],[17.1915204840821,50.9309876027073]]}},{"type":"Feature","properties":{"numer":"346","klasa":"droga gĹ‚Ăłwna","kat":"wojewodzka"},"geometry":{"type":"LineString","coordinates":[[17.19735403199576,50.93186284131855],[17.20098,50.93257],[17.203506669477225,50.932785954656175]]}},{"type":"Feature","properties":{"numer":"1592D","klasa":"droga zbiorcza","kat":"powiatowa"},"geometry":{"type":"LineString","coordinates":[[17.17832,50.9303],[17.1791,50.93458],[17.17976,50.93641],[17.18041,50.93967]]}},{"type":"Feature","properties":{"numer":"1592D","klasa":"droga zbiorcza","kat":"powiatowa"},"geometry":{"type":"LineString","coordinates":[[17.18041,50.93967],[17.18694,50.9532],[17.18654,50.95445],[17.18583,50.95611],[17.186090385035172,50.95638286924919]]}},{"type":"Feature","properties":{"numer":"1593D","klasa":"","kat":"powiatowa"},"geometry":{"type":"LineString","coordinates":[[17.18041,50.93967],[17.17505,50.93966],[17.17447,50.93971],[17.16682,50.94164],[17.16369,50.94229],[17.16354,50.94365],[17.16368,50.94451],[17.16458,50.94638],[17.16491,50.94768],[17.16545,50.94854],[17.16407,50.95191],[17.16303,50.95563],[17.16351,50.95727],[17.16232,50.95969],[17.16261,50.96016],[17.16326,50.96076],[17.1637,50.96357],[17.16418,50.96507],[17.1651,50.96649],[17.16628,50.96793]]}},{"type":"Feature","properties":{"numer":"A4,E40","klasa":"autostrada","kat":"krajowa"},"geometry":{"type":"LineString","coordinates":[[17.11488,50.93305],[17.11494,50.93301]]}},{"type":"Feature","properties":{"numer":"A4,E40","klasa":"autostrada","kat":"krajowa"},"geometry":{"type":"LineString","coordinates":[[17.11482,50.93309],[17.11488,50.93305]]}},{"type":"Feature","properties":{"numer":"A4,E40","klasa":"autostrada","kat":"krajowa"},"geometry":{"type":"LineString","coordinates":[[17.11438472542259,50.93336115465478],[17.11482,50.93309]]}},{"type":"Feature","properties":{"numer":"346","klasa":"droga gĹ‚Ăłwna","kat":"wojewodzka"},"geometry":{"type":"LineString","coordinates":[[17.13731,50.93342],[17.13738,50.93333]]}},{"type":"Feature","properties":{"numer":"346","klasa":"droga gĹ‚Ăłwna","kat":"wojewodzka"},"geometry":{"type":"LineString","coordinates":[[17.13725,50.93356],[17.13731,50.93342]]}},{"type":"Feature","properties":{"numer":"346","klasa":"droga gĹ‚Ăłwna","kat":"wojewodzka"},"geometry":{"type":"LineString","coordinates":[[17.11488,50.93305],[17.12748,50.93487],[17.12869,50.93481],[17.13664,50.93388],[17.13706,50.93374],[17.13725,50.93356]]}},{"type":"Feature","properties":{"numer":"346","klasa":"droga gĹ‚Ăłwna","kat":"wojewodzka"},"geometry":{"type":"LineString","coordinates":[[17.114514293053382,50.9329998049289],[17.11488,50.93305]]}},{"type":"Feature","properties":{"numer":"1942D","klasa":"droga zbiorcza","kat":"powiatowa"},"geometry":{"type":"LineString","coordinates":[[17.13725,50.93356],[17.13727,50.93655],[17.13647,50.94091],[17.13624,50.94106],[17.13331,50.9419],[17.13227,50.94229],[17.13167,50.94261],[17.13069,50.94332]]}},{"type":"Feature","properties":{"numer":"1942D","klasa":"droga zbiorcza","kat":"powiatowa"},"geometry":{"type":"LineString","coordinates":[[17.13069,50.94332],[17.13066,50.94348]]}},{"type":"Feature","properties":{"numer":"1942D","klasa":"droga zbiorcza","kat":"powiatowa"},"geometry":{"type":"LineString","coordinates":[[17.13066,50.94348],[17.13068,50.94353]]}},{"type":"Feature","properties":{"numer":"1594D","klasa":"","kat":"powiatowa"},"geometry":{"type":"LineString","coordinates":[[17.07565,50.89321],[17.075644979404,50.893210732416364]]}},{"type":"Feature","properties":{"numer":"1942D","klasa":"droga zbiorcza","kat":"powiatowa"},"geometry":{"type":"LineString","coordinates":[[17.118525563071483,50.96109375459323],[17.11675,50.95522],[17.11474,50.95072],[17.11473,50.95047],[17.11524,50.95013],[17.1173,50.94973],[17.11849,50.9494],[17.11945,50.94866],[17.12459,50.94626],[17.12792,50.9453],[17.12969,50.945],[17.13095,50.94456],[17.13106,50.94441],[17.13068,50.94353]]}},{"type":"Feature","properties":{"numer":"1972D","klasa":"droga zbiorcza","kat":"powiatowa"},"geometry":{"type":"LineString","coordinates":[[17.160937684170758,50.96918701548923],[17.16628,50.96793]]}},{"type":"Feature","properties":{"numer":"1972D","klasa":"droga zbiorcza","kat":"powiatowa"},"geometry":{"type":"LineString","coordinates":[[17.16628,50.96793],[17.173736574052523,50.966193990519926]]}}]}