{"type":"FeatureCollection","features":[{"type":"Feature","properties":{"numer":"35","klasa":"droga gĹ‚Ăłwna","kat":"krajowa"},"geometry":{"type":"LineString","coordinates":[[16.32208,50.84766],[16.32143,50.84637],[16.32113,50.84606],[16.32062,50.84578],[16.31982,50.8456],[16.31584,50.84522],[16.31549,50.84512],[16.31502,50.84484],[16.3135,50.84267],[16.31329029277999,50.84242333996589]]}},{"type":"Feature","properties":{"numer":"35","klasa":"droga gĹ‚Ăłwna ruchu przyĹ›pieszonego","kat":"krajowa"},"geometry":{"type":"LineString","coordinates":[[16.32208,50.84766],[16.32317,50.84991]]}},{"type":"Feature","properties":{"numer":"112278D","klasa":"droga lokalna","kat":"powiatowa"},"geometry":{"type":"LineString","coordinates":[[16.28261,50.84851],[16.28416,50.84858],[16.286,50.84906]]}},{"type":"Feature","properties":{"numer":"112231D","klasa":"droga lokalna","kat":"powiatowa"},"geometry":{"type":"LineString","coordinates":[[16.286,50.84906],[16.28663,50.84915]]}},{"type":"Feature","properties":{"numer":"112231D","klasa":"droga lokalna","kat":"powiatowa"},"geometry":{"type":"LineString","coordinates":[[16.28663,50.84915],[16.28677,50.84917]]}},{"type":"Feature","properties":{"numer":"112231D","klasa":"droga lokalna","kat":"powiatowa"},"geometry":{"type":"LineString","coordinates":[[16.28677,50.84917],[16.28826,50.84942]]}},{"type":"Feature","properties":{"numer":"112231D","klasa":"droga lokalna","kat":"powiatowa"},"geometry":{"type":"LineString","coordinates":[[16.28871,50.84949],[16.29009,50.84957]]}},{"type":"Feature","properties":{"numer":"112231D","klasa":"droga lokalna","kat":"powiatowa"},"geometry":{"type":"LineString","coordinates":[[16.29009,50.84957],[16.29073,50.84964],[16.2917,50.84997]]}},{"type":"Feature","properties":{"numer":"112251D","klasa":"droga lokalna","kat":"powiatowa"},"geometry":{"type":"LineString","coordinates":[[16.2917,50.84997],[16.29285,50.85017]]}},{"type":"Feature","properties":{"numer":"112251D","klasa":"droga lokalna","kat":"powiatowa"},"geometry":{"type":"LineString","coordinates":[[16.29285,50.85017],[16.2941,50.8503],[16.2951,50.85072]]}},{"type":"Feature","properties":{"numer":"112251D","klasa":"droga lokalna","kat":"powiatowa"},"geometry":{"type":"LineString","coordinates":[[16.2951,50.85072],[16.29545,50.85089]]}},{"type":"Feature","properties":{"numer":"34","klasa":"droga gĹ‚Ăłwna","kat":"krajowa"},"geometry":{"type":"LineString","coordinates":[[16.3178,50.85146],[16.31923,50.85107],[16.32103,50.85085],[16.32244,50.8503],[16.32317,50.84991]]}},{"type":"Feature","properties":{"numer":"112236D","klasa":"","kat":"powiatowa"},"geometry":{"type":"LineString","coordinates":[[16.31547,50.85224],[16.3178,50.85146]]}},{"type":"Feature","properties":{"numer":"34","klasa":"droga gĹ‚Ăłwna","kat":"krajowa"},"geometry":{"type":"LineString","coordinates":[[16.31865,50.85315],[16.3178,50.85146]]}},{"type":"Feature","properties":{"numer":"112236D","klasa":"droga lokalna","kat":"powiatowa"},"geometry":{"type":"LineString","coordinates":[[16.31477,50.85245],[16.31547,50.85224]]}},{"type":"Feature","properties":{"numer":"112236D","klasa":"droga lokalna","kat":"powiatowa"},"geometry":{"type":"LineString","coordinates":[[16.31447,50.85255],[16.31477,50.85245]]}},{"type":"Feature","properties":{"numer":"35","klasa":"droga gĹ‚Ăłwna ruchu przyĹ›pieszonego","kat":"krajowa"},"geometry":{"type":"LineString","coordinates":[[16.33562,50.8554],[16.33429,50.85502],[16.32598,50.85205],[16.32504,50.85159],[16.32426,50.85107],[16.32355,50.85041],[16.32317,50.84991]]}},{"type":"Feature","properties":{"numer":"112236D","klasa":"droga lokalna","kat":"powiatowa"},"geometry":{"type":"LineString","coordinates":[[16.31364,50.85283],[16.31447,50.85255]]}},{"type":"Feature","properties":{"numer":"112275D","klasa":"droga lokalna","kat":"powiatowa"},"geometry":{"type":"LineString","coordinates":[[16.3076,50.85308],[16.30837,50.853]]}},{"type":"Feature","properties":{"numer":"112275D","klasa":"droga lokalna","kat":"powiatowa"},"geometry":{"type":"LineString","coordinates":[[16.30837,50.853],[16.30925,50.85306],[16.30984,50.85319]]}},{"type":"Feature","properties":{"numer":"112251D","klasa":"droga lokalna","kat":"powiatowa"},"geometry":{"type":"LineString","coordinates":[[16.29545,50.85089],[16.2965,50.85143]]}},{"type":"Feature","properties":{"numer":"112251D","klasa":"droga lokalna","kat":"powiatowa"},"geometry":{"type":"LineString","coordinates":[[16.2965,50.85143],[16.298,50.8521]]}},{"type":"Feature","properties":{"numer":"112251D","klasa":"droga lokalna","kat":"powiatowa"},"geometry":{"type":"LineString","coordinates":[[16.298,50.8521],[16.29846,50.8523]]}},{"type":"Feature","properties":{"numer":"112251D","klasa":"droga lokalna","kat":"powiatowa"},"geometry":{"type":"LineString","coordinates":[[16.29846,50.8523],[16.29881,50.85251]]}},{"type":"Feature","properties":{"numer":"112275D","klasa":"droga lokalna","kat":"powiatowa"},"geometry":{"type":"LineString","coordinates":[[16.29881,50.85251],[16.29906,50.85266]]}},{"type":"Feature","properties":{"numer":"112275D","klasa":"droga lokalna","kat":"powiatowa"},"geometry":{"type":"LineString","coordinates":[[16.29906,50.85266],[16.29912,50.8527]]}},{"type":"Feature","properties":{"numer":"112275D","klasa":"droga lokalna","kat":"powiatowa"},"geometry":{"type":"LineString","coordinates":[[16.29912,50.8527],[16.30013,50.85315]]}},{"type":"Feature","properties":{"numer":"112275D","klasa":"droga lokalna","kat":"powiatowa"},"geometry":{"type":"LineString","coordinates":[[16.30013,50.85315],[16.30059,50.85331]]}},{"type":"Feature","properties":{"numer":"112236D","klasa":"droga lokalna","kat":"powiatowa"},"geometry":{"type":"LineString","coordinates":[[16.31004,50.85323],[16.3108,50.8532],[16.31152,50.85353],[16.31364,50.85283]]}},{"type":"Feature","properties":{"numer":"112275D","klasa":"droga lokalna","kat":"powiatowa"},"geometry":{"type":"LineString","coordinates":[[16.3099,50.85322],[16.30984,50.85319]]}},{"type":"Feature","properties":{"numer":"112236D","klasa":"droga lokalna","kat":"powiatowa"},"geometry":{"type":"LineString","coordinates":[[16.3099,50.85322],[16.31004,50.85323]]}},{"type":"Feature","properties":{"numer":"112255D","klasa":"droga lokalna","kat":"powiatowa"},"geometry":{"type":"LineString","coordinates":[[16.3099,50.85322],[16.30993,50.85329]]}},{"type":"Feature","properties":{"numer":"112255D","klasa":"droga lokalna","kat":"powiatowa"},"geometry":{"type":"LineString","coordinates":[[16.30993,50.85329],[16.30999,50.85334]]}},{"type":"Feature","properties":{"numer":"112275D","klasa":"droga lokalna","kat":"powiatowa"},"geometry":{"type":"LineString","coordinates":[[16.30059,50.85331],[16.30134,50.85351],[16.3024,50.85357],[16.30485,50.85344],[16.3076,50.85308]]}},{"type":"Feature","properties":{"numer":"112255D","klasa":"droga lokalna","kat":"powiatowa"},"geometry":{"type":"LineString","coordinates":[[16.30999,50.85334],[16.31013,50.85345]]}},{"type":"Feature","properties":{"numer":"112255D","klasa":"droga lokalna","kat":"powiatowa"},"geometry":{"type":"LineString","coordinates":[[16.31013,50.85345],[16.31167,50.85456],[16.31192,50.85488],[16.31202,50.8558],[16.3116,50.85629]]}},{"type":"Feature","properties":{"numer":"34","klasa":"droga gĹ‚Ăłwna","kat":"krajowa"},"geometry":{"type":"LineString","coordinates":[[16.32134,50.85751],[16.32055,50.85687],[16.31865,50.85315]]}},{"type":"Feature","properties":{"numer":"35","klasa":"droga gĹ‚Ăłwna ruchu przyĹ›pieszonego","kat":"krajowa"},"geometry":{"type":"LineString","coordinates":[[16.34485168239418,50.85511470814236],[16.33906,50.85565],[16.33715,50.85565],[16.33562,50.8554]]}},{"type":"Feature","properties":{"numer":"112310D","klasa":"droga lokalna","kat":"powiatowa"},"geometry":{"type":"LineString","coordinates":[[16.33559,50.85545],[16.33562,50.8554]]}},{"type":"Feature","properties":{"numer":"112310D","klasa":"droga lokalna","kat":"powiatowa"},"geometry":{"type":"LineString","coordinates":[[16.33496,50.85579],[16.33537,50.85569],[16.33559,50.85545]]}},{"type":"Feature","properties":{"numer":"112310D","klasa":"droga lokalna","kat":"powiatowa"},"geometry":{"type":"LineString","coordinates":[[16.3345,50.85582],[16.33496,50.85579]]}},{"type":"Feature","properties":{"numer":"112310D","klasa":"droga lokalna","kat":"powiatowa"},"geometry":{"type":"LineString","coordinates":[[16.33382,50.85586],[16.3345,50.85582]]}},{"type":"Feature","properties":{"numer":"112310D","klasa":"droga lokalna","kat":"powiatowa"},"geometry":{"type":"LineString","coordinates":[[16.33263,50.856],[16.33382,50.85586]]}},{"type":"Feature","properties":{"numer":"112310D","klasa":"droga lokalna","kat":"powiatowa"},"geometry":{"type":"LineString","coordinates":[[16.32788,50.85583],[16.32849,50.85574],[16.32962,50.85629],[16.33052,50.8563]]}},{"type":"Feature","properties":{"numer":"112310D","klasa":"droga lokalna","kat":"powiatowa"},"geometry":{"type":"LineString","coordinates":[[16.3315,50.8562],[16.33263,50.856]]}},{"type":"Feature","properties":{"numer":"112310D","klasa":"droga lokalna","kat":"powiatowa"},"geometry":{"type":"LineString","coordinates":[[16.32706,50.85644],[16.32788,50.85583]]}},{"type":"Feature","properties":{"numer":"112310D","klasa":"droga lokalna","kat":"powiatowa"},"geometry":{"type":"LineString","coordinates":[[16.33104,50.85629],[16.3315,50.8562]]}},{"type":"Feature","properties":{"numer":"112310D","klasa":"droga lokalna","kat":"powiatowa"},"geometry":{"type":"LineString","coordinates":[[16.33052,50.8563],[16.33104,50.85629]]}},{"type":"Feature","properties":{"numer":"112310D","klasa":"droga lokalna","kat":"powiatowa"},"geometry":{"type":"LineString","coordinates":[[16.32698,50.8565],[16.32706,50.85644]]}},{"type":"Feature","properties":{"numer":"112310D","klasa":"droga lokalna","kat":"powiatowa"},"geometry":{"type":"LineString","coordinates":[[16.32613,50.85718],[16.32698,50.8565]]}},{"type":"Feature","properties":{"numer":"112311D","klasa":"droga lokalna","kat":"powiatowa"},"geometry":{"type":"LineString","coordinates":[[16.32913,50.85749],[16.32929,50.85707],[16.32955,50.8568],[16.33104,50.85629]]}},{"type":"Feature","properties":{"numer":"112255D","klasa":"droga lokalna","kat":"powiatowa"},"geometry":{"type":"LineString","coordinates":[[16.3116,50.85629],[16.31145,50.85653],[16.31106,50.85805]]}},{"type":"Feature","properties":{"numer":"112310D","klasa":"droga lokalna","kat":"powiatowa"},"geometry":{"type":"LineString","coordinates":[[16.3259,50.85739],[16.32613,50.85718]]}},{"type":"Feature","properties":{"numer":"112310D","klasa":"droga lokalna","kat":"powiatowa"},"geometry":{"type":"LineString","coordinates":[[16.32538,50.85777],[16.3259,50.85739]]}},{"type":"Feature","properties":{"numer":"112311D","klasa":"droga lokalna","kat":"powiatowa"},"geometry":{"type":"LineString","coordinates":[[16.32728,50.85795],[16.32846,50.85788],[16.32913,50.85749]]}},{"type":"Feature","properties":{"numer":"112310D","klasa":"droga lokalna","kat":"powiatowa"},"geometry":{"type":"LineString","coordinates":[[16.32344,50.85899],[16.32538,50.85777]]}},{"type":"Feature","properties":{"numer":"374","klasa":"droga gĹ‚Ăłwna","kat":"wojewodzka"},"geometry":{"type":"LineString","coordinates":[[16.32134,50.85751],[16.32247,50.85841],[16.32267,50.85932]]}},{"type":"Feature","properties":{"numer":"112255D","klasa":"droga lokalna","kat":"powiatowa"},"geometry":{"type":"LineString","coordinates":[[16.31106,50.85805],[16.3111,50.859]]}},{"type":"Feature","properties":{"numer":"112311D","klasa":"droga lokalna","kat":"powiatowa"},"geometry":{"type":"LineString","coordinates":[[16.32495,50.85941],[16.32728,50.85795]]}},{"type":"Feature","properties":{"numer":"34","klasa":"droga gĹ‚Ăłwna","kat":"krajowa"},"geometry":{"type":"LineString","coordinates":[[16.32134,50.85751],[16.31583,50.85924],[16.31485,50.85964],[16.31367,50.85999],[16.31336,50.86017]]}},{"type":"Feature","properties":{"numer":"112310D","klasa":"droga lokalna","kat":"powiatowa"},"geometry":{"type":"LineString","coordinates":[[16.32267,50.85932],[16.32344,50.85899]]}},{"type":"Feature","properties":{"numer":"112311D","klasa":"droga lokalna","kat":"powiatowa"},"geometry":{"type":"LineString","coordinates":[[16.32459,50.85965],[16.32495,50.85941]]}},{"type":"Feature","properties":{"numer":"374","klasa":"droga gĹ‚Ăłwna","kat":"wojewodzka"},"geometry":{"type":"LineString","coordinates":[[16.32267,50.85932],[16.32266,50.85958],[16.32305,50.86062]]}},{"type":"Feature","properties":{"numer":"112311D","klasa":"droga lokalna","kat":"powiatowa"},"geometry":{"type":"LineString","coordinates":[[16.32305,50.86062],[16.32459,50.85965]]}},{"type":"Feature","properties":{"numer":"34","klasa":"droga gĹ‚Ăłwna","kat":"krajowa"},"geometry":{"type":"LineString","coordinates":[[16.31336,50.86017],[16.31323,50.86026]]}},{"type":"Feature","properties":{"numer":"34","klasa":"droga gĹ‚Ăłwna","kat":"krajowa"},"geometry":{"type":"LineString","coordinates":[[16.31323,50.86026],[16.31143,50.86181],[16.30703,50.86345],[16.3064,50.86376]]}},{"type":"Feature","properties":{"numer":"3464D","klasa":"droga zbiorcza","kat":"powiatowa"},"geometry":{"type":"LineString","coordinates":[[16.3064,50.86376],[16.3044,50.86333],[16.30226,50.86273],[16.30062,50.86252],[16.29849,50.86245],[16.29708,50.86268],[16.2952,50.86268],[16.29317,50.86251],[16.29065,50.86214],[16.2891,50.86226],[16.28375,50.86224],[16.278395404717276,50.86196240001414]]}},{"type":"Feature","properties":{"numer":"374","klasa":"droga gĹ‚Ăłwna","kat":"wojewodzka"},"geometry":{"type":"LineString","coordinates":[[16.32305,50.86062],[16.32441,50.86514]]}},{"type":"Feature","properties":{"numer":"112301D","klasa":"droga lokalna","kat":"powiatowa"},"geometry":{"type":"LineString","coordinates":[[16.31761,50.86194],[16.31846,50.86258],[16.31979,50.86408],[16.3208,50.86476]]}},{"type":"Feature","properties":{"numer":"112301D","klasa":"droga lokalna","kat":"powiatowa"},"geometry":{"type":"LineString","coordinates":[[16.3208,50.86476],[16.32184,50.86512],[16.32303,50.86527]]}},{"type":"Feature","properties":{"numer":"374","klasa":"droga gĹ‚Ăłwna","kat":"wojewodzka"},"geometry":{"type":"LineString","coordinates":[[16.32423,50.86542],[16.32441,50.86514]]}},{"type":"Feature","properties":{"numer":"374","klasa":"droga gĹ‚Ăłwna","kat":"wojewodzka"},"geometry":{"type":"LineString","coordinates":[[16.3241,50.8656],[16.32423,50.86542]]}},{"type":"Feature","properties":{"numer":"374","klasa":"droga gĹ‚Ăłwna","kat":"wojewodzka"},"geometry":{"type":"LineString","coordinates":[[16.3241,50.8656],[16.32404,50.86568]]}},{"type":"Feature","properties":{"numer":"2914D","klasa":"droga zbiorcza","kat":"powiatowa"},"geometry":{"type":"LineString","coordinates":[[16.32416,50.86574],[16.32404,50.86568]]}},{"type":"Feature","properties":{"numer":"374","klasa":"droga gĹ‚Ăłwna","kat":"wojewodzka"},"geometry":{"type":"LineString","coordinates":[[16.32399,50.86577],[16.32404,50.86568]]}},{"type":"Feature","properties":{"numer":"2914D","klasa":"droga zbiorcza","kat":"powiatowa"},"geometry":{"type":"LineString","coordinates":[[16.32416,50.86574],[16.32555,50.86633],[16.3277,50.86763],[16.32876,50.86797],[16.33327,50.86912],[16.33465,50.86962],[16.33579,50.87033],[16.33701,50.87152]]}},{"type":"Feature","properties":{"numer":"374","klasa":"droga gĹ‚Ăłwna","kat":"wojewodzka"},"geometry":{"type":"LineString","coordinates":[[16.32399,50.86577],[16.32365,50.86632],[16.32356,50.86668],[16.32364,50.86708],[16.32387,50.86745],[16.32422,50.86775],[16.32574,50.86862],[16.32634,50.86905],[16.33144,50.87537]]}},{"type":"Feature","properties":{"numer":"112306D","klasa":"droga lokalna","kat":"powiatowa"},"geometry":{"type":"LineString","coordinates":[[16.33675,50.87174],[16.33701,50.87152]]}},{"type":"Feature","properties":{"numer":"112306D","klasa":"droga lokalna","kat":"powiatowa"},"geometry":{"type":"LineString","coordinates":[[16.33595,50.87227],[16.33675,50.87174]]}},{"type":"Feature","properties":{"numer":"112306D","klasa":"droga lokalna","kat":"powiatowa"},"geometry":{"type":"LineString","coordinates":[[16.33573,50.87244],[16.33595,50.87227]]}},{"type":"Feature","properties":{"numer":"112306D","klasa":"droga lokalna","kat":"powiatowa"},"geometry":{"type":"LineString","coordinates":[[16.33524,50.8729],[16.33573,50.87244]]}},{"type":"Feature","properties":{"numer":"112306D","klasa":"droga lokalna","kat":"powiatowa"},"geometry":{"type":"LineString","coordinates":[[16.33508,50.87306],[16.33524,50.8729]]}},{"type":"Feature","properties":{"numer":"112306D","klasa":"droga lokalna","kat":"powiatowa"},"geometry":{"type":"LineString","coordinates":[[16.33398,50.87419],[16.33508,50.87306]]}},{"type":"Feature","properties":{"numer":"112306D","klasa":"droga lokalna","kat":"powiatowa"},"geometry":{"type":"LineString","coordinates":[[16.33374,50.87443],[16.33398,50.87419]]}},{"type":"Feature","properties":{"numer":"112306D","klasa":"droga lokalna","kat":"powiatowa"},"geometry":{"type":"LineString","coordinates":[[16.33273,50.87555],[16.33374,50.87443]]}},{"type":"Feature","properties":{"numer":"2914D","klasa":"droga zbiorcza","kat":"powiatowa"},"geometry":{"type":"LineString","coordinates":[[16.33701,50.87152],[16.33733,50.87174],[16.3382,50.8721],[16.33917,50.87233],[16.34023,50.87235],[16.3431,50.87206],[16.3446,50.87224],[16.34611,50.87253],[16.34844,50.87261],[16.3487,50.87269],[16.34979,50.87347],[16.35133,50.87576],[16.35181,50.87606],[16.3523,50.87624],[16.35538,50.87717],[16.35717,50.87714],[16.36086,50.8769],[16.36207,50.87706],[16.36428,50.87749],[16.366,50.87769],[16.36771,50.87852],[16.36881,50.87946],[16.3693,50.87971]]}},{"type":"Feature","properties":{"numer":"112306D","klasa":"droga lokalna","kat":"powiatowa"},"geometry":{"type":"LineString","coordinates":[[16.33239,50.87586],[16.33273,50.87555]]}},{"type":"Feature","properties":{"numer":"34","klasa":"droga gĹ‚Ăłwna","kat":"krajowa"},"geometry":{"type":"LineString","coordinates":[[16.28254,50.87641],[16.2847,50.87478],[16.28851,50.87276],[16.29233,50.87099],[16.29568,50.86926],[16.29645,50.86867],[16.298,50.86701],[16.29857,50.86653],[16.30033,50.86585],[16.30439,50.86494],[16.3064,50.86376]]}},{"type":"Feature","properties":{"numer":"3394D","klasa":"","kat":"powiatowa"},"geometry":{"type":"LineString","coordinates":[[16.276584991894524,50.872519227277635],[16.27661,50.87253]]}},{"type":"Feature","properties":{"numer":"3394D","klasa":"droga zbiorcza","kat":"powiatowa"},"geometry":{"type":"LineString","coordinates":[[16.27661,50.87253],[16.27798,50.87377],[16.2779,50.87457],[16.27832,50.875],[16.2788,50.8752],[16.28018,50.87556],[16.28254,50.87641]]}},{"type":"Feature","properties":{"numer":"374","klasa":"droga gĹ‚Ăłwna","kat":"wojewodzka"},"geometry":{"type":"LineString","coordinates":[[16.33144,50.87537],[16.33195,50.8761]]}},{"type":"Feature","properties":{"numer":"112306D","klasa":"droga lokalna","kat":"powiatowa"},"geometry":{"type":"LineString","coordinates":[[16.33216,50.876],[16.33239,50.87586]]}},{"type":"Feature","properties":{"numer":"2888D","klasa":"droga zbiorcza","kat":"powiatowa"},"geometry":{"type":"LineString","coordinates":[[16.33216,50.876],[16.33195,50.8761]]}},{"type":"Feature","properties":{"numer":"2888D","klasa":"droga zbiorcza","kat":"powiatowa"},"geometry":{"type":"LineString","coordinates":[[16.33175,50.87622],[16.33195,50.8761]]}},{"type":"Feature","properties":{"numer":"","klasa":"droga gĹ‚Ăłwna","kat":"gminna"},"geometry":{"type":"LineString","coordinates":[[16.33211,50.87623],[16.33195,50.8761]]}},{"type":"Feature","properties":{"numer":"374","klasa":"droga gĹ‚Ăłwna","kat":"wojewodzka"},"geometry":{"type":"LineString","coordinates":[[16.33266,50.87685],[16.33211,50.87623]]}},{"type":"Feature","properties":{"numer":"111201D,2914D","klasa":"droga zbiorcza","kat":"powiatowa"},"geometry":{"type":"LineString","coordinates":[[16.36949,50.87961],[16.37075,50.87914],[16.37174,50.87924],[16.37211,50.87914],[16.37232,50.87897],[16.374,50.87542],[16.3743,50.875],[16.37462,50.87491],[16.37761,50.87479]]}},{"type":"Feature","properties":{"numer":"111201D,2914D","klasa":"droga zbiorcza","kat":"powiatowa"},"geometry":{"type":"LineString","coordinates":[[16.36931,50.87971],[16.36949,50.87961]]}},{"type":"Feature","properties":{"numer":"111201D,2914D","klasa":"droga zbiorcza","kat":"powiatowa"},"geometry":{"type":"LineString","coordinates":[[16.3693,50.87971],[16.36931,50.87971]]}},{"type":"Feature","properties":{"numer":"2888D","klasa":"droga zbiorcza","kat":"powiatowa"},"geometry":{"type":"LineString","coordinates":[[16.321508527209186,50.88925667998003],[16.32146,50.88901],[16.32127,50.88638],[16.32165,50.88597],[16.32312,50.88537],[16.32424,50.88458],[16.3256,50.88323],[16.33148,50.8768],[16.3316,50.87635],[16.33175,50.87622]]}},{"type":"Feature","properties":{"numer":"34","klasa":"droga gĹ‚Ăłwna","kat":"krajowa"},"geometry":{"type":"LineString","coordinates":[[16.282225268976674,50.87666103545908],[16.28254,50.87641]]}},{"type":"Feature","properties":{"numer":"374","klasa":"droga gĹ‚Ăłwna","kat":"wojewodzka"},"geometry":{"type":"LineString","coordinates":[[16.33266,50.87685],[16.347039720402233,50.8945664511033]]}},{"type":"Feature","properties":{"numer":"2914D","klasa":"droga zbiorcza","kat":"powiatowa"},"geometry":{"type":"LineString","coordinates":[[16.37761,50.87479],[16.377919895802588,50.874613282558855]]}}]}