{"type":"FeatureCollection","features":[{"type":"Feature","properties":{"numer":"381","klasa":"droga gĹ‚Ăłwna","kat":"wojewodzka"},"geometry":{"type":"LineString","coordinates":[[16.37094,50.66135],[16.37072,50.66101],[16.37089,50.66063],[16.37558,50.65488],[16.3762,50.6544],[16.37884,50.65275],[16.38181,50.65044],[16.38238,50.64993],[16.38337,50.64864],[16.38367,50.64804],[16.38379,50.64727],[16.38326,50.64397],[16.38347,50.64323],[16.38385,50.64264],[16.38481220081186,50.64178995756498]]}},{"type":"Feature","properties":{"numer":"3363D","klasa":"","kat":"powiatowa"},"geometry":{"type":"LineString","coordinates":[[16.35797,50.65315],[16.35943,50.65435],[16.36017,50.65471],[16.36077,50.65527],[16.36087,50.65549],[16.3609,50.65649],[16.36076,50.65804],[16.36102,50.65851],[16.36142,50.65887],[16.3624,50.65942],[16.36356,50.65979],[16.36419,50.6599],[16.3652,50.65994],[16.36582,50.66023],[16.36704,50.66048],[16.36877,50.6611],[16.37045,50.66148]]}},{"type":"Feature","properties":{"numer":"3363D","klasa":"","kat":"powiatowa"},"geometry":{"type":"LineString","coordinates":[[16.37045,50.66148],[16.37094,50.66135]]}},{"type":"Feature","properties":{"numer":"3379D","klasa":"","kat":"powiatowa"},"geometry":{"type":"LineString","coordinates":[[16.312,50.67011],[16.30938,50.67004],[16.30859,50.66955],[16.30696,50.66873],[16.30636,50.66816],[16.30458,50.66684],[16.30427,50.66674],[16.3026,50.66663],[16.3016,50.66638]]}},{"type":"Feature","properties":{"numer":"381","klasa":"droga gĹ‚Ăłwna","kat":"wojewodzka"},"geometry":{"type":"LineString","coordinates":[[16.38055,50.6763],[16.38052,50.67599],[16.37999,50.67537],[16.37972,50.67521],[16.37857,50.67481],[16.37765,50.67399],[16.37627,50.67304],[16.37557,50.67243],[16.37514,50.6719],[16.37509,50.67156],[16.37519,50.67111],[16.37618,50.66944],[16.37628,50.66908],[16.37573,50.6663],[16.37583,50.66481],[16.3756,50.66378],[16.37509,50.66329],[16.37342,50.66216],[16.37147,50.66159],[16.37094,50.66135]]}},{"type":"Feature","properties":{"numer":"3379D","klasa":"","kat":"powiatowa"},"geometry":{"type":"LineString","coordinates":[[16.31206,50.67011],[16.312,50.67011]]}},{"type":"Feature","properties":{"numer":"3379D","klasa":"","kat":"powiatowa"},"geometry":{"type":"LineString","coordinates":[[16.32113,50.67277],[16.31934,50.67259],[16.31841,50.67268],[16.31682,50.67265],[16.31579,50.67246],[16.31528,50.67226],[16.31471,50.67171],[16.31398,50.67128],[16.31351,50.67089],[16.31206,50.67011]]}},{"type":"Feature","properties":{"numer":"3379D","klasa":"","kat":"powiatowa"},"geometry":{"type":"LineString","coordinates":[[16.32113,50.67277],[16.32125,50.67277]]}},{"type":"Feature","properties":{"numer":"3379D","klasa":"","kat":"powiatowa"},"geometry":{"type":"LineString","coordinates":[[16.33436,50.67507],[16.33392,50.67493],[16.33298,50.67481],[16.33124,50.67468],[16.32924,50.67487],[16.3283,50.67462],[16.32744,50.67457],[16.32696,50.67433],[16.32632,50.6738],[16.32511,50.67335],[16.32296,50.67312],[16.32186,50.67282],[16.32125,50.67277]]}},{"type":"Feature","properties":{"numer":"3377D","klasa":"","kat":"powiatowa"},"geometry":{"type":"LineString","coordinates":[[16.38095,50.67641],[16.38141,50.67653],[16.38187,50.67649],[16.3831,50.67579],[16.38455,50.67524],[16.38627,50.67358],[16.3877,50.67252],[16.38827,50.67169]]}},{"type":"Feature","properties":{"numer":"3379D","klasa":"","kat":"powiatowa"},"geometry":{"type":"LineString","coordinates":[[16.33436,50.67507],[16.33445,50.67511]]}},{"type":"Feature","properties":{"numer":"3377D","klasa":"","kat":"powiatowa"},"geometry":{"type":"LineString","coordinates":[[16.38055,50.6763],[16.38083,50.67639]]}},{"type":"Feature","properties":{"numer":"3377D","klasa":"","kat":"powiatowa"},"geometry":{"type":"LineString","coordinates":[[16.38083,50.67639],[16.38095,50.67641]]}},{"type":"Feature","properties":{"numer":"381","klasa":"droga gĹ‚Ăłwna","kat":"wojewodzka"},"geometry":{"type":"LineString","coordinates":[[16.38013,50.67706],[16.38055,50.6763]]}},{"type":"Feature","properties":{"numer":"3379D","klasa":"","kat":"powiatowa"},"geometry":{"type":"LineString","coordinates":[[16.34261,50.6787],[16.34036,50.67785],[16.33932,50.67762],[16.33763,50.67744],[16.33703,50.67726],[16.33676,50.67709],[16.33631,50.67645],[16.33578,50.67594],[16.33445,50.67511]]}},{"type":"Feature","properties":{"numer":"381","klasa":"droga gĹ‚Ăłwna","kat":"wojewodzka"},"geometry":{"type":"LineString","coordinates":[[16.38002,50.6772],[16.38013,50.67706]]}},{"type":"Feature","properties":{"numer":"3379D","klasa":"","kat":"powiatowa"},"geometry":{"type":"LineString","coordinates":[[16.34261,50.6787],[16.34277,50.67877]]}},{"type":"Feature","properties":{"numer":"3379D","klasa":"","kat":"powiatowa"},"geometry":{"type":"LineString","coordinates":[[16.36081,50.6848],[16.359,50.6839],[16.35529,50.68318],[16.34995,50.68174],[16.34801,50.68081],[16.34277,50.67877]]}},{"type":"Feature","properties":{"numer":"381","klasa":"droga gĹ‚Ăłwna","kat":"wojewodzka"},"geometry":{"type":"LineString","coordinates":[[16.37115,50.68713],[16.37185,50.6863],[16.37214,50.68575],[16.37263,50.68525],[16.37491,50.68404],[16.37697,50.68233],[16.37806,50.68186],[16.37831,50.68162],[16.37877,50.68078],[16.37872,50.68001],[16.37961,50.67838],[16.37969,50.67775],[16.38002,50.6772]]}},{"type":"Feature","properties":{"numer":"3381D","klasa":"droga zbiorcza","kat":"powiatowa"},"geometry":{"type":"LineString","coordinates":[[16.37102,50.68737],[16.37052,50.68651],[16.36983,50.68596],[16.36776,50.68492],[16.36657,50.68448],[16.36604,50.68445],[16.36201,50.68467],[16.36081,50.6848]]}},{"type":"Feature","properties":{"numer":"381","klasa":"droga gĹ‚Ăłwna","kat":"wojewodzka"},"geometry":{"type":"LineString","coordinates":[[16.37102,50.68737],[16.37115,50.68713]]}},{"type":"Feature","properties":{"numer":"3381D","klasa":"droga zbiorcza","kat":"powiatowa"},"geometry":{"type":"LineString","coordinates":[[16.36081,50.6848],[16.35837,50.68566],[16.35669,50.68664],[16.35549,50.687],[16.35469,50.68742],[16.35447,50.6878],[16.35348,50.69111],[16.3515,50.69395],[16.35127,50.69559],[16.35038,50.69665],[16.3498,50.69758],[16.34843,50.69852]]}},{"type":"Feature","properties":{"numer":"381","klasa":"droga gĹ‚Ăłwna","kat":"wojewodzka"},"geometry":{"type":"LineString","coordinates":[[16.36828,50.6975],[16.3686,50.69695],[16.36903,50.69473],[16.36859,50.69387],[16.36857,50.69318],[16.3691,50.69148],[16.3706,50.68997],[16.37098,50.68832],[16.37102,50.68737]]}},{"type":"Feature","properties":{"numer":"3382D","klasa":"","kat":"powiatowa"},"geometry":{"type":"LineString","coordinates":[[16.34687,50.69795],[16.345,50.69716],[16.3446,50.69691],[16.3424,50.69625],[16.34158,50.69626],[16.34037,50.69615],[16.33956,50.69621],[16.33751,50.69586],[16.33662,50.69589],[16.33613,50.69583],[16.33413,50.69488],[16.33341,50.6947],[16.33283,50.69424],[16.33207,50.69386],[16.33071,50.69344],[16.32883,50.69226],[16.32833,50.69204],[16.32768,50.69186],[16.32602,50.6916],[16.32486,50.69152],[16.3238,50.69158]]}},{"type":"Feature","properties":{"numer":"381","klasa":"droga gĹ‚Ăłwna","kat":"wojewodzka"},"geometry":{"type":"LineString","coordinates":[[16.36825,50.69756],[16.36828,50.6975]]}},{"type":"Feature","properties":{"numer":"","klasa":"droga zbiorcza","kat":"powiatowa"},"geometry":{"type":"LineString","coordinates":[[16.313206341463413,50.70447764227642],[16.31385,50.70467],[16.31454,50.70504],[16.31576,50.70527],[16.31714,50.70584],[16.31919,50.7057],[16.31976,50.70548],[16.32022,50.70506]]}},{"type":"Feature","properties":{"numer":"","klasa":"droga zbiorcza","kat":"powiatowa"},"geometry":{"type":"LineString","coordinates":[[16.34623,50.70003],[16.34689,50.70009]]}},{"type":"Feature","properties":{"numer":"","klasa":"droga zbiorcza","kat":"powiatowa"},"geometry":{"type":"LineString","coordinates":[[16.3369,50.70203],[16.33869,50.70176],[16.34032,50.7017],[16.34152,50.7013],[16.34277,50.70116],[16.34318,50.70103],[16.34472,50.7003],[16.34578,50.69999]]}},{"type":"Feature","properties":{"numer":"","klasa":"droga zbiorcza","kat":"powiatowa"},"geometry":{"type":"LineString","coordinates":[[16.33679,50.70205],[16.3369,50.70203]]}},{"type":"Feature","properties":{"numer":"381","klasa":"droga gĹ‚Ăłwna","kat":"wojewodzka"},"geometry":{"type":"LineString","coordinates":[[16.362128724834342,50.70543854760471],[16.36247,50.70474],[16.36262,50.70367],[16.36275,50.70341],[16.36429,50.70195],[16.36545,50.70128],[16.36684,50.69995],[16.36736,50.69857],[16.36807,50.69785]]}},{"type":"Feature","properties":{"numer":"","klasa":"droga zbiorcza","kat":"powiatowa"},"geometry":{"type":"LineString","coordinates":[[16.33104,50.70372],[16.3323,50.7029],[16.33397,50.70261],[16.335,50.7022],[16.33679,50.70205]]}},{"type":"Feature","properties":{"numer":"","klasa":"droga zbiorcza","kat":"powiatowa"},"geometry":{"type":"LineString","coordinates":[[16.32756,50.70368],[16.32823,50.70343],[16.32871,50.70337],[16.32991,50.70348],[16.33095,50.70373]]}},{"type":"Feature","properties":{"numer":"","klasa":"droga zbiorcza","kat":"powiatowa"},"geometry":{"type":"LineString","coordinates":[[16.32743,50.70374],[16.32756,50.70368]]}},{"type":"Feature","properties":{"numer":"","klasa":"droga zbiorcza","kat":"powiatowa"},"geometry":{"type":"LineString","coordinates":[[16.33095,50.70373],[16.33104,50.70372]]}},{"type":"Feature","properties":{"numer":"","klasa":"droga zbiorcza","kat":"powiatowa"},"geometry":{"type":"LineString","coordinates":[[16.32024,50.70503],[16.32037,50.70491],[16.32126,50.70479],[16.32211,50.70452],[16.32422,50.70437],[16.32483,50.70442],[16.32627,50.70417],[16.32662,50.70409],[16.32743,50.70374]]}},{"type":"Feature","properties":{"numer":"","klasa":"droga zbiorcza","kat":"powiatowa"},"geometry":{"type":"LineString","coordinates":[[16.32022,50.70506],[16.32024,50.70503]]}},{"type":"Feature","properties":{"numer":"3339D","klasa":"","kat":"powiatowa"},"geometry":{"type":"LineString","coordinates":[[16.40343,50.65352],[16.40362948094975,50.653456916280845]]}},{"type":"Feature","properties":{"numer":"3339D","klasa":"","kat":"powiatowa"},"geometry":{"type":"LineString","coordinates":[[16.40335,50.65354],[16.40264,50.65378]]}},{"type":"Feature","properties":{"numer":"3339D","klasa":"","kat":"powiatowa"},"geometry":{"type":"LineString","coordinates":[[16.40264,50.65378],[16.40258,50.65381]]}},{"type":"Feature","properties":{"numer":"3339D","klasa":"","kat":"powiatowa"},"geometry":{"type":"LineString","coordinates":[[16.40258,50.65381],[16.40212,50.65416],[16.40204,50.65444],[16.40212,50.65459]]}},{"type":"Feature","properties":{"numer":"3377D","klasa":"","kat":"powiatowa"},"geometry":{"type":"LineString","coordinates":[[16.40122,50.65639],[16.40131,50.65557],[16.40149,50.65508],[16.40169,50.65482],[16.40212,50.65459]]}},{"type":"Feature","properties":{"numer":"3377D","klasa":"","kat":"powiatowa"},"geometry":{"type":"LineString","coordinates":[[16.41009,50.65719],[16.40855,50.65657],[16.40808,50.6562],[16.40741,50.65547],[16.40683,50.65515],[16.40382,50.65458],[16.40286,50.65447],[16.40212,50.65459]]}},{"type":"Feature","properties":{"numer":"3377D","klasa":"","kat":"powiatowa"},"geometry":{"type":"LineString","coordinates":[[16.40122,50.65649],[16.40122,50.65639]]}},{"type":"Feature","properties":{"numer":"3377D","klasa":"","kat":"powiatowa"},"geometry":{"type":"LineString","coordinates":[[16.41009,50.65719],[16.41018,50.65722]]}},{"type":"Feature","properties":{"numer":"3377D","klasa":"","kat":"powiatowa"},"geometry":{"type":"LineString","coordinates":[[16.41018,50.65722],[16.41119,50.65767],[16.41195,50.65818],[16.41232,50.65827],[16.41341,50.65829],[16.41474,50.65907],[16.41529,50.65924],[16.41776,50.65969],[16.41839,50.6602],[16.41955,50.66061],[16.42007,50.66062],[16.42065,50.66034],[16.42109,50.66023],[16.42303,50.65995]]}},{"type":"Feature","properties":{"numer":"3377D","klasa":"","kat":"powiatowa"},"geometry":{"type":"LineString","coordinates":[[16.39791,50.66176],[16.39786,50.6615],[16.39813,50.6611],[16.40013,50.65991],[16.40114,50.65906],[16.40138,50.65875],[16.40148,50.65753],[16.40122,50.65649]]}},{"type":"Feature","properties":{"numer":"3377D","klasa":"","kat":"powiatowa"},"geometry":{"type":"LineString","coordinates":[[16.43759,50.65967],[16.43764,50.65965]]}},{"type":"Feature","properties":{"numer":"3377D","klasa":"","kat":"powiatowa"},"geometry":{"type":"LineString","coordinates":[[16.42303,50.65995],[16.42314,50.65994]]}},{"type":"Feature","properties":{"numer":"3377D","klasa":"","kat":"powiatowa"},"geometry":{"type":"LineString","coordinates":[[16.42314,50.65994],[16.42445,50.6598],[16.42666,50.65977],[16.42712,50.65985],[16.42943,50.66058],[16.43189,50.66083],[16.4337,50.66082],[16.4351,50.66066],[16.43709,50.65994],[16.43759,50.65967]]}},{"type":"Feature","properties":{"numer":"3377D","klasa":"","kat":"powiatowa"},"geometry":{"type":"LineString","coordinates":[[16.43764,50.65965],[16.4382,50.65959],[16.43896,50.65977],[16.44045,50.66105]]}},{"type":"Feature","properties":{"numer":"3377D","klasa":"","kat":"powiatowa"},"geometry":{"type":"LineString","coordinates":[[16.44045,50.66105],[16.4405,50.66113]]}},{"type":"Feature","properties":{"numer":"3377D","klasa":"","kat":"powiatowa"},"geometry":{"type":"LineString","coordinates":[[16.39792,50.66184],[16.39791,50.66176]]}},{"type":"Feature","properties":{"numer":"3377D","klasa":"","kat":"powiatowa"},"geometry":{"type":"LineString","coordinates":[[16.39751,50.66409],[16.39798,50.66266],[16.39792,50.66184]]}},{"type":"Feature","properties":{"numer":"3377D","klasa":"","kat":"powiatowa"},"geometry":{"type":"LineString","coordinates":[[16.39743,50.66422],[16.39751,50.66409]]}},{"type":"Feature","properties":{"numer":"3377D","klasa":"","kat":"powiatowa"},"geometry":{"type":"LineString","coordinates":[[16.4405,50.66113],[16.44174,50.66244],[16.44202,50.66331],[16.44303,50.6641],[16.44372,50.66495],[16.44477,50.66548],[16.44562,50.66637],[16.44603,50.66655],[16.44635,50.66686],[16.44816,50.66776],[16.44854,50.66813],[16.44854,50.66832],[16.44874,50.6685],[16.4491,50.66877],[16.44939,50.66886],[16.44971,50.66885],[16.45030712167467,50.66867228521587]]}},{"type":"Feature","properties":{"numer":"3377D","klasa":"","kat":"powiatowa"},"geometry":{"type":"LineString","coordinates":[[16.39301,50.66683],[16.39314,50.66654],[16.39339,50.66634],[16.39482,50.66612],[16.39566,50.66559],[16.39659,50.66514],[16.3971,50.66481],[16.39743,50.66422]]}},{"type":"Feature","properties":{"numer":"3377D","klasa":"","kat":"powiatowa"},"geometry":{"type":"LineString","coordinates":[[16.39296,50.66696],[16.39301,50.66683]]}},{"type":"Feature","properties":{"numer":"3377D","klasa":"","kat":"powiatowa"},"geometry":{"type":"LineString","coordinates":[[16.39034,50.66871],[16.39137,50.66845],[16.39237,50.66807],[16.3927,50.66762],[16.39296,50.66696]]}},{"type":"Feature","properties":{"numer":"3377D","klasa":"","kat":"powiatowa"},"geometry":{"type":"LineString","coordinates":[[16.39029,50.66873],[16.39034,50.66871]]}},{"type":"Feature","properties":{"numer":"3377D","klasa":"","kat":"powiatowa"},"geometry":{"type":"LineString","coordinates":[[16.38835,50.67157],[16.38913,50.66934],[16.3895,50.66907],[16.39029,50.66873]]}},{"type":"Feature","properties":{"numer":"3377D","klasa":"","kat":"powiatowa"},"geometry":{"type":"LineString","coordinates":[[16.38827,50.67169],[16.38835,50.67157]]}},{"type":"Feature","properties":{"numer":"381","klasa":"droga gĹ‚Ăłwna","kat":"wojewodzka"},"geometry":{"type":"LineString","coordinates":[[16.36807,50.69785],[16.36825,50.69756]]}},{"type":"Feature","properties":{"numer":"","klasa":"droga zbiorcza","kat":"powiatowa"},"geometry":{"type":"LineString","coordinates":[[16.34689,50.70009],[16.34746,50.70013],[16.34802,50.70006],[16.34937,50.69946],[16.35014,50.69925],[16.35259,50.69929],[16.35414,50.6989],[16.35491,50.69848],[16.35647,50.6972],[16.35757,50.69659],[16.36073,50.6956],[16.36154,50.69566],[16.36539,50.69715],[16.36659,50.69747],[16.36746,50.69758],[16.36807,50.69785]]}},{"type":"Feature","properties":{"numer":"3382D","klasa":"","kat":"powiatowa"},"geometry":{"type":"LineString","coordinates":[[16.34707,50.69801],[16.34687,50.69795]]}},{"type":"Feature","properties":{"numer":"3382D","klasa":"","kat":"powiatowa"},"geometry":{"type":"LineString","coordinates":[[16.34843,50.69852],[16.34791,50.69826],[16.34707,50.69801]]}},{"type":"Feature","properties":{"numer":"3381D","klasa":"droga zbiorcza","kat":"powiatowa"},"geometry":{"type":"LineString","coordinates":[[16.34843,50.69852],[16.34824,50.69865]]}},{"type":"Feature","properties":{"numer":"3381D","klasa":"droga zbiorcza","kat":"powiatowa"},"geometry":{"type":"LineString","coordinates":[[16.34824,50.69865],[16.3482,50.69868]]}},{"type":"Feature","properties":{"numer":"3381D","klasa":"droga zbiorcza","kat":"powiatowa"},"geometry":{"type":"LineString","coordinates":[[16.3482,50.69868],[16.3474,50.69919],[16.3472,50.69944]]}},{"type":"Feature","properties":{"numer":"3381D","klasa":"droga zbiorcza","kat":"powiatowa"},"geometry":{"type":"LineString","coordinates":[[16.3472,50.69944],[16.34715,50.69952]]}},{"type":"Feature","properties":{"numer":"3381D","klasa":"droga zbiorcza","kat":"powiatowa"},"geometry":{"type":"LineString","coordinates":[[16.34715,50.69952],[16.34689,50.70009]]}},{"type":"Feature","properties":{"numer":"","klasa":"droga zbiorcza","kat":"powiatowa"},"geometry":{"type":"LineString","coordinates":[[16.34578,50.69999],[16.34623,50.70003]]}}]}