{"type":"FeatureCollection","features":[{"type":"Feature","properties":{"numer":"2604C","klasa":"droga zbiorcza","kat":"powiatowa"},"geometry":{"type":"LineString","coordinates":[[18.703192650995312,52.85676093076976],[18.70321,52.85682]]}},{"type":"Feature","properties":{"numer":"160235C","klasa":"droga lokalna","kat":"powiatowa"},"geometry":{"type":"LineString","coordinates":[[18.70303113850291,52.85684467055132],[18.70321,52.85682]]}},{"type":"Feature","properties":{"numer":"266","klasa":"droga gĹ‚Ăłwna","kat":"wojewodzka"},"geometry":{"type":"LineString","coordinates":[[18.6835081522888,52.87092128573777],[18.68597,52.87452]]}},{"type":"Feature","properties":{"numer":"2630C","klasa":"droga zbiorcza","kat":"powiatowa"},"geometry":{"type":"LineString","coordinates":[[18.69053157804337,52.86432143610296],[18.69242,52.86604],[18.692498195720464,52.866233985537306]]}},{"type":"Feature","properties":{"numer":"2630C","klasa":"droga zbiorcza","kat":"powiatowa"},"geometry":{"type":"LineString","coordinates":[[18.69267519630485,52.86667308314088],[18.69294,52.86733],[18.69387,52.86845],[18.69461,52.8689],[18.69917,52.87082],[18.69976,52.87152]]}},{"type":"Feature","properties":{"numer":"2632C","klasa":"droga zbiorcza","kat":"powiatowa"},"geometry":{"type":"LineString","coordinates":[[18.68597,52.87452],[18.69896,52.87171],[18.69927,52.87189]]}},{"type":"Feature","properties":{"numer":"266","klasa":"droga gĹ‚Ăłwna","kat":"wojewodzka"},"geometry":{"type":"LineString","coordinates":[[18.69393,52.87607],[18.69927,52.87189]]}},{"type":"Feature","properties":{"numer":"266","klasa":"droga gĹ‚Ăłwna","kat":"wojewodzka"},"geometry":{"type":"LineString","coordinates":[[18.68597,52.87452],[18.68775,52.87513],[18.69118,52.87583],[18.69306,52.87644]]}},{"type":"Feature","properties":{"numer":"266","klasa":"droga gĹ‚Ăłwna","kat":"wojewodzka"},"geometry":{"type":"LineString","coordinates":[[18.69372,52.87631],[18.69393,52.87607]]}},{"type":"Feature","properties":{"numer":"266","klasa":"droga gĹ‚Ăłwna","kat":"wojewodzka"},"geometry":{"type":"LineString","coordinates":[[18.69306,52.87644],[18.69346,52.87643],[18.69393,52.87607]]}},{"type":"Feature","properties":{"numer":"2604C","klasa":"droga zbiorcza","kat":"powiatowa"},"geometry":{"type":"LineString","coordinates":[[18.70321,52.85682],[18.70396,52.85905],[18.70472,52.86188],[18.70589,52.86495],[18.70655,52.86626]]}},{"type":"Feature","properties":{"numer":"266","klasa":"droga gĹ‚Ăłwna","kat":"wojewodzka"},"geometry":{"type":"LineString","coordinates":[[18.71144,52.86729],[18.71372,52.86647],[18.71708,52.86568],[18.71721934078702,52.86563995580186]]}},{"type":"Feature","properties":{"numer":"266","klasa":"droga gĹ‚Ăłwna","kat":"wojewodzka"},"geometry":{"type":"LineString","coordinates":[[18.70655,52.86626],[18.70737,52.86703],[18.70822,52.86747],[18.70926,52.86763],[18.71047,52.86748]]}},{"type":"Feature","properties":{"numer":"266","klasa":"droga gĹ‚Ăłwna","kat":"wojewodzka"},"geometry":{"type":"LineString","coordinates":[[18.71047,52.86748],[18.71144,52.86729]]}},{"type":"Feature","properties":{"numer":"2634C","klasa":"droga zbiorcza","kat":"powiatowa"},"geometry":{"type":"LineString","coordinates":[[18.71081,52.86779],[18.71144,52.86729]]}},{"type":"Feature","properties":{"numer":"2634C","klasa":"droga zbiorcza","kat":"powiatowa"},"geometry":{"type":"LineString","coordinates":[[18.71047,52.86748],[18.71075,52.86762],[18.71081,52.86779]]}},{"type":"Feature","properties":{"numer":"266","klasa":"droga gĹ‚Ăłwna","kat":"wojewodzka"},"geometry":{"type":"LineString","coordinates":[[18.69976,52.87152],[18.70655,52.86626]]}},{"type":"Feature","properties":{"numer":"266","klasa":"droga gĹ‚Ăłwna","kat":"wojewodzka"},"geometry":{"type":"LineString","coordinates":[[18.69927,52.87189],[18.69976,52.87152]]}},{"type":"Feature","properties":{"numer":"2634C","klasa":"droga zbiorcza","kat":"powiatowa"},"geometry":{"type":"LineString","coordinates":[[18.69516,52.87815],[18.69984,52.87475],[18.70308,52.87222],[18.70627,52.87097],[18.709409127385822,52.87026691468646]]}},{"type":"Feature","properties":{"numer":"2634C","klasa":"droga zbiorcza","kat":"powiatowa"},"geometry":{"type":"LineString","coordinates":[[18.70944307262572,52.87025860335195],[18.71032,52.86986],[18.71065,52.86942],[18.71054,52.8683],[18.71081,52.86779]]}},{"type":"Feature","properties":{"numer":"266","klasa":"droga gĹ‚Ăłwna","kat":"wojewodzka"},"geometry":{"type":"LineString","coordinates":[[18.6935,52.87656],[18.69372,52.87631]]}},{"type":"Feature","properties":{"numer":"2631C","klasa":"droga zbiorcza","kat":"powiatowa"},"geometry":{"type":"LineString","coordinates":[[18.69372,52.87631],[18.69374,52.87672]]}},{"type":"Feature","properties":{"numer":"266","klasa":"droga gĹ‚Ăłwna","kat":"wojewodzka"},"geometry":{"type":"LineString","coordinates":[[18.69306,52.87644],[18.69343,52.87664]]}},{"type":"Feature","properties":{"numer":"266","klasa":"droga gĹ‚Ăłwna","kat":"wojewodzka"},"geometry":{"type":"LineString","coordinates":[[18.69343,52.87664],[18.6935,52.87656]]}},{"type":"Feature","properties":{"numer":"2631C","klasa":"droga zbiorcza","kat":"powiatowa"},"geometry":{"type":"LineString","coordinates":[[18.6935,52.87656],[18.69374,52.87672]]}},{"type":"Feature","properties":{"numer":"2631C","klasa":"droga zbiorcza","kat":"powiatowa"},"geometry":{"type":"LineString","coordinates":[[18.69343,52.87664],[18.69382,52.87684]]}},{"type":"Feature","properties":{"numer":"2633C","klasa":"droga zbiorcza","kat":"powiatowa"},"geometry":{"type":"LineString","coordinates":[[18.69319,52.87687],[18.69343,52.87664]]}},{"type":"Feature","properties":{"numer":"2631C","klasa":"droga zbiorcza","kat":"powiatowa"},"geometry":{"type":"LineString","coordinates":[[18.69374,52.87672],[18.69382,52.87684]]}},{"type":"Feature","properties":{"numer":"2633C","klasa":"droga zbiorcza","kat":"powiatowa"},"geometry":{"type":"LineString","coordinates":[[18.69319,52.87687],[18.69345,52.87678],[18.69382,52.87684]]}},{"type":"Feature","properties":{"numer":"2631C","klasa":"droga zbiorcza","kat":"powiatowa"},"geometry":{"type":"LineString","coordinates":[[18.69382,52.87684],[18.69516,52.87815]]}},{"type":"Feature","properties":{"numer":"2631C","klasa":"droga zbiorcza","kat":"powiatowa"},"geometry":{"type":"LineString","coordinates":[[18.69516,52.87815],[18.69638,52.87943]]}},{"type":"Feature","properties":{"numer":"N461502","klasa":"droga dojazdowa","kat":"gminna"},"geometry":{"type":"LineString","coordinates":[[18.69592,52.8805],[18.69638,52.87943]]}},{"type":"Feature","properties":{"numer":"N461502","klasa":"droga dojazdowa","kat":"gminna"},"geometry":{"type":"LineString","coordinates":[[18.69549,52.88139],[18.69592,52.8805]]}},{"type":"Feature","properties":{"numer":"N461502","klasa":"droga dojazdowa","kat":"gminna"},"geometry":{"type":"LineString","coordinates":[[18.69533,52.88181],[18.69549,52.88139]]}},{"type":"Feature","properties":{"numer":"N461502","klasa":"droga dojazdowa","kat":"gminna"},"geometry":{"type":"LineString","coordinates":[[18.69503,52.8826],[18.69533,52.88181]]}},{"type":"Feature","properties":{"numer":"2633C","klasa":"droga zbiorcza","kat":"powiatowa"},"geometry":{"type":"LineString","coordinates":[[18.68479,52.88803],[18.68775,52.88239],[18.68854,52.88115],[18.69319,52.87687]]}},{"type":"Feature","properties":{"numer":"N461502","klasa":"droga dojazdowa","kat":"gminna"},"geometry":{"type":"LineString","coordinates":[[18.69488,52.88302],[18.69503,52.8826]]}},{"type":"Feature","properties":{"numer":"N461502","klasa":"droga dojazdowa","kat":"gminna"},"geometry":{"type":"LineString","coordinates":[[18.69483,52.88315],[18.69488,52.88302]]}},{"type":"Feature","properties":{"numer":"N461502","klasa":"droga dojazdowa","kat":"gminna"},"geometry":{"type":"LineString","coordinates":[[18.69475,52.88333],[18.69483,52.88315]]}},{"type":"Feature","properties":{"numer":"N461502","klasa":"droga dojazdowa","kat":"gminna"},"geometry":{"type":"LineString","coordinates":[[18.69406,52.8849],[18.69475,52.88333]]}},{"type":"Feature","properties":{"numer":"N461502","klasa":"droga dojazdowa","kat":"gminna"},"geometry":{"type":"LineString","coordinates":[[18.69405,52.88494],[18.69406,52.8849]]}},{"type":"Feature","properties":{"numer":"N461502","klasa":"droga dojazdowa","kat":"gminna"},"geometry":{"type":"LineString","coordinates":[[18.69306,52.88701],[18.69315,52.88652],[18.69373,52.88575],[18.69405,52.88494]]}},{"type":"Feature","properties":{"numer":"N461502","klasa":"droga dojazdowa","kat":"gminna"},"geometry":{"type":"LineString","coordinates":[[18.69295,52.88791],[18.69306,52.88701]]}},{"type":"Feature","properties":{"numer":"N461502","klasa":"droga dojazdowa","kat":"gminna"},"geometry":{"type":"LineString","coordinates":[[18.69248,52.88961],[18.69285,52.88865],[18.69295,52.88791]]}},{"type":"Feature","properties":{"numer":"N461502","klasa":"droga dojazdowa","kat":"gminna"},"geometry":{"type":"LineString","coordinates":[[18.69242,52.88992],[18.69248,52.88961]]}},{"type":"Feature","properties":{"numer":"N461502","klasa":"droga dojazdowa","kat":"gminna"},"geometry":{"type":"LineString","coordinates":[[18.69258,52.8901],[18.69242,52.88992]]}},{"type":"Feature","properties":{"numer":"N461502","klasa":"droga dojazdowa","kat":"gminna"},"geometry":{"type":"LineString","coordinates":[[18.69309,52.89025],[18.69258,52.8901]]}},{"type":"Feature","properties":{"numer":"N461502","klasa":"droga dojazdowa","kat":"gminna"},"geometry":{"type":"LineString","coordinates":[[18.69456,52.89066],[18.69309,52.89025]]}},{"type":"Feature","properties":{"numer":"N461502","klasa":"droga dojazdowa","kat":"gminna"},"geometry":{"type":"LineString","coordinates":[[18.69269,52.89508],[18.69449,52.89146],[18.69469,52.8909],[18.69456,52.89066]]}},{"type":"Feature","properties":{"numer":"N461502","klasa":"droga dojazdowa","kat":"gminna"},"geometry":{"type":"LineString","coordinates":[[18.69198,52.89654],[18.69269,52.89508]]}},{"type":"Feature","properties":{"numer":"N461502","klasa":"droga dojazdowa","kat":"gminna"},"geometry":{"type":"LineString","coordinates":[[18.69182,52.89696],[18.69198,52.89654]]}},{"type":"Feature","properties":{"numer":"N461502","klasa":"droga dojazdowa","kat":"gminna"},"geometry":{"type":"LineString","coordinates":[[18.691746643835618,52.89714005603985],[18.69182,52.89696]]}}]}