{"type":"FeatureCollection","features":[{"type":"Feature","properties":{"numer":"2602C","klasa":"droga zbiorcza","kat":"powiatowa"},"geometry":{"type":"LineString","coordinates":[[18.809092740464962,52.8285982111515],[18.80917,52.82877],[18.80865,52.83504],[18.80897,52.83517],[18.81141,52.83535],[18.81247,52.83923],[18.81153,52.84375]]}},{"type":"Feature","properties":{"numer":"A1,E75","klasa":"autostrada","kat":"krajowa"},"geometry":{"type":"LineString","coordinates":[[18.80241047486703,52.828977562598624],[18.80228,52.82947],[18.80172,52.83072],[18.80056,52.83249],[18.79758,52.83594],[18.79496,52.83865],[18.79143,52.842],[18.78708,52.84572]]}},{"type":"Feature","properties":{"numer":"91","klasa":"droga gĹ‚Ăłwna ruchu przyĹ›pieszonego","kat":"krajowa"},"geometry":{"type":"LineString","coordinates":[[18.78839,52.84533],[18.7926,52.84194],[18.80154,52.8323],[18.80205,52.83159],[18.80258,52.83059],[18.803125741470197,52.828936956996074]]}},{"type":"Feature","properties":{"numer":"2605C","klasa":"droga zbiorcza","kat":"powiatowa"},"geometry":{"type":"LineString","coordinates":[[18.81344,52.8436],[18.82528,52.84276]]}},{"type":"Feature","properties":{"numer":"2602C,2605C","klasa":"droga zbiorcza","kat":"powiatowa"},"geometry":{"type":"LineString","coordinates":[[18.81153,52.84375],[18.81344,52.8436]]}},{"type":"Feature","properties":{"numer":"2605C","klasa":"droga zbiorcza","kat":"powiatowa"},"geometry":{"type":"LineString","coordinates":[[18.79229,52.84531],[18.79324,52.84507],[18.79465,52.84491],[18.81153,52.84375]]}},{"type":"Feature","properties":{"numer":"2605C","klasa":"droga zbiorcza","kat":"powiatowa"},"geometry":{"type":"LineString","coordinates":[[18.78839,52.84533],[18.79177,52.84512],[18.79203,52.84515],[18.79229,52.84531]]}},{"type":"Feature","properties":{"numer":"91","klasa":"droga gĹ‚Ăłwna ruchu przyĹ›pieszonego","kat":"krajowa"},"geometry":{"type":"LineString","coordinates":[[18.78767,52.84588],[18.78839,52.84533]]}},{"type":"Feature","properties":{"numer":"2610C","klasa":"droga zbiorcza","kat":"powiatowa"},"geometry":{"type":"LineString","coordinates":[[18.758675514811344,52.83771354804302],[18.77178,52.84161],[18.78098,52.84349],[18.78615,52.84459],[18.78633,52.84468],[18.78636,52.84492],[18.7861,52.84515],[18.78523,52.84515],[18.78409,52.84526],[18.78387,52.84539],[18.78387,52.84562]]}},{"type":"Feature","properties":{"numer":"2605C","klasa":"droga zbiorcza","kat":"powiatowa"},"geometry":{"type":"LineString","coordinates":[[18.78666,52.84562],[18.7856,52.84553],[18.78387,52.84562]]}},{"type":"Feature","properties":{"numer":"2605C","klasa":"droga zbiorcza","kat":"powiatowa"},"geometry":{"type":"LineString","coordinates":[[18.78387,52.84562],[18.754142042034808,52.84762805589779]]}},{"type":"Feature","properties":{"numer":"A1,E75","klasa":"autostrada","kat":"krajowa"},"geometry":{"type":"LineString","coordinates":[[18.78708,52.84572],[18.778015836551734,52.85279375511301]]}},{"type":"Feature","properties":{"numer":"91","klasa":"droga gĹ‚Ăłwna ruchu przyĹ›pieszonego","kat":"krajowa"},"geometry":{"type":"LineString","coordinates":[[18.778640819098662,52.85295980887001],[18.78767,52.84588]]}},{"type":"Feature","properties":{"numer":"2605C","klasa":"droga zbiorcza","kat":"powiatowa"},"geometry":{"type":"LineString","coordinates":[[18.78708,52.84572],[18.78666,52.84562]]}},{"type":"Feature","properties":{"numer":"2605C","klasa":"droga zbiorcza","kat":"powiatowa"},"geometry":{"type":"LineString","coordinates":[[18.78797,52.84596],[18.78893,52.84612],[18.78999,52.84608],[18.79079,52.8459],[18.79229,52.84531]]}},{"type":"Feature","properties":{"numer":"2605C","klasa":"droga zbiorcza","kat":"powiatowa"},"geometry":{"type":"LineString","coordinates":[[18.78767,52.84588],[18.78708,52.84572]]}},{"type":"Feature","properties":{"numer":"2605C","klasa":"droga zbiorcza","kat":"powiatowa"},"geometry":{"type":"LineString","coordinates":[[18.78797,52.84596],[18.78767,52.84588]]}},{"type":"Feature","properties":{"numer":"2602C","klasa":"droga zbiorcza","kat":"powiatowa"},"geometry":{"type":"LineString","coordinates":[[18.81344,52.8436],[18.81071,52.85512],[18.81069,52.8576]]}},{"type":"Feature","properties":{"numer":"2602C","klasa":"droga zbiorcza","kat":"powiatowa"},"geometry":{"type":"LineString","coordinates":[[18.80581,52.85752],[18.81069,52.8576]]}},{"type":"Feature","properties":{"numer":"2602C","klasa":"droga zbiorcza","kat":"powiatowa"},"geometry":{"type":"LineString","coordinates":[[18.80581,52.85752],[18.80435,52.85752],[18.8041,52.8576],[18.80402,52.85777],[18.80412,52.85809],[18.80477,52.85856],[18.80485,52.85872],[18.80463,52.85893],[18.80389,52.85914],[18.80381,52.85931],[18.80392,52.85947],[18.80415,52.85956],[18.80593,52.85943],[18.80678,52.86004],[18.80694,52.86022],[18.80691,52.86047],[18.80603,52.86099],[18.80594,52.86121],[18.80598,52.86157]]}},{"type":"Feature","properties":{"numer":"2635C","klasa":"droga zbiorcza","kat":"powiatowa"},"geometry":{"type":"LineString","coordinates":[[18.80588618303384,52.86161231827568],[18.80598,52.86157]]}},{"type":"Feature","properties":{"numer":"2602C","klasa":"droga zbiorcza","kat":"powiatowa"},"geometry":{"type":"LineString","coordinates":[[18.80598,52.86157],[18.80659,52.86431],[18.808867095503647,52.86871710589103]]}},{"type":"Feature","properties":{"numer":"2611C","klasa":"droga zbiorcza","kat":"powiatowa"},"geometry":{"type":"LineString","coordinates":[[18.82528,52.84276],[18.82715,52.84093],[18.83041,52.83717],[18.83339,52.83457],[18.83481586665016,52.83385378630686]]}},{"type":"Feature","properties":{"numer":"2605C","klasa":"droga zbiorcza","kat":"powiatowa"},"geometry":{"type":"LineString","coordinates":[[18.82528,52.84276],[18.86307,52.8401],[18.863864258549228,52.83995476563034]]}},{"type":"Feature","properties":{"numer":"2603C","klasa":"droga zbiorcza","kat":"powiatowa"},"geometry":{"type":"LineString","coordinates":[[18.817627251905435,52.8707020068093],[18.81963,52.87026],[18.822675349970254,52.869798268914224]]}},{"type":"Feature","properties":{"numer":"2603C","klasa":"droga zbiorcza","kat":"powiatowa"},"geometry":{"type":"LineString","coordinates":[[18.8249543419336,52.869452731802234],[18.8255,52.86937],[18.83002,52.86851],[18.83748,52.86625],[18.84255,52.86618],[18.84367,52.8661],[18.86777,52.8573],[18.87799259807901,52.85347874201826]]}}]}