{"type":"FeatureCollection","features":[{"type":"Feature","properties":{"numer":"2120C","klasa":"droga zbiorcza","kat":"powiatowa"},"geometry":{"type":"LineString","coordinates":[[19.25198,53.10945],[19.25199655827765,53.109449269487754]]}},{"type":"Feature","properties":{"numer":"2120C","klasa":"","kat":"powiatowa"},"geometry":{"type":"LineString","coordinates":[[19.25198,53.10945],[19.25,53.10957],[19.24436,53.10922],[19.23884,53.11002],[19.23813,53.11009],[19.23742,53.11005]]}},{"type":"Feature","properties":{"numer":"2118C","klasa":"droga zbiorcza","kat":"powiatowa"},"geometry":{"type":"LineString","coordinates":[[19.20261,53.13291],[19.202646778491594,53.13295051614318]]}},{"type":"Feature","properties":{"numer":"534","klasa":"droga gĹ‚Ăłwna","kat":"wojewodzka"},"geometry":{"type":"LineString","coordinates":[[19.23030807601495,53.078229359346984],[19.21406,53.08576],[19.21314,53.08588],[19.19791,53.08631],[19.19413,53.08668]]}},{"type":"Feature","properties":{"numer":"2120C","klasa":"","kat":"powiatowa"},"geometry":{"type":"LineString","coordinates":[[19.19413,53.08668],[19.19426,53.08769],[19.19442,53.088]]}},{"type":"Feature","properties":{"numer":"2130C","klasa":"droga zbiorcza","kat":"powiatowa"},"geometry":{"type":"LineString","coordinates":[[19.11963,53.05616],[19.13251,53.05143],[19.13386,53.05087],[19.13703,53.04931],[19.13907,53.04868],[19.14452,53.04718],[19.14527,53.04715],[19.15034,53.04797],[19.15214283420229,53.04814849843587]]}},{"type":"Feature","properties":{"numer":"2127C","klasa":"","kat":"powiatowa"},"geometry":{"type":"LineString","coordinates":[[19.15146,53.07118],[19.13621,53.06486],[19.1258,53.06039],[19.12335,53.05968],[19.12111,53.05771],[19.11963,53.05616]]}},{"type":"Feature","properties":{"numer":"2128C","klasa":"","kat":"powiatowa"},"geometry":{"type":"LineString","coordinates":[[19.15146,53.07118],[19.15525,53.07293],[19.15527,53.07315],[19.15359,53.07373],[19.1529,53.07448],[19.15117,53.07479],[19.15054,53.07499],[19.14664,53.07682],[19.14257,53.07833],[19.14163,53.07937],[19.13976,53.08054],[19.13892,53.08186],[19.13713,53.08303],[19.13384,53.08663]]}},{"type":"Feature","properties":{"numer":"110333C,2128C","klasa":"","kat":"powiatowa"},"geometry":{"type":"LineString","coordinates":[[19.13384,53.08663],[19.13358,53.087],[19.13355,53.08734],[19.13375,53.08801],[19.13424,53.08797]]}},{"type":"Feature","properties":{"numer":"2129C","klasa":"droga zbiorcza","kat":"powiatowa"},"geometry":{"type":"LineString","coordinates":[[19.10279,53.04365],[19.10277247596154,53.04364805288461]]}},{"type":"Feature","properties":{"numer":"2129C","klasa":"droga zbiorcza","kat":"powiatowa"},"geometry":{"type":"LineString","coordinates":[[19.11777,53.05643],[19.10711,53.04559],[19.10504,53.04415],[19.10383,53.04379],[19.10279,53.04365]]}},{"type":"Feature","properties":{"numer":"2127C,2130C","klasa":"droga zbiorcza","kat":"powiatowa"},"geometry":{"type":"LineString","coordinates":[[19.11841,53.05662],[19.11963,53.05616]]}},{"type":"Feature","properties":{"numer":"2127C","klasa":"droga zbiorcza","kat":"powiatowa"},"geometry":{"type":"LineString","coordinates":[[19.11806,53.05677],[19.11777,53.05643]]}},{"type":"Feature","properties":{"numer":"2127C,2130C","klasa":"droga zbiorcza","kat":"powiatowa"},"geometry":{"type":"LineString","coordinates":[[19.11806,53.05677],[19.11841,53.05662]]}},{"type":"Feature","properties":{"numer":"2127C","klasa":"droga zbiorcza","kat":"powiatowa"},"geometry":{"type":"LineString","coordinates":[[19.10992412850461,53.075764493242325],[19.11115,53.06922],[19.11095,53.0641],[19.11102,53.06322],[19.1117,53.06275],[19.11546,53.06094],[19.11796,53.05996],[19.11864,53.05962],[19.11875,53.0592],[19.11857,53.05805],[19.11806,53.05677]]}},{"type":"Feature","properties":{"numer":"534","klasa":"droga gĹ‚Ăłwna","kat":"wojewodzka"},"geometry":{"type":"LineString","coordinates":[[19.12758,53.10418],[19.12394,53.10557],[19.12381816458322,53.105610202618635]]}},{"type":"Feature","properties":{"numer":"2127C","klasa":"","kat":"powiatowa"},"geometry":{"type":"LineString","coordinates":[[19.19413,53.08668],[19.19385,53.06133],[19.19066,53.06176],[19.18165,53.06342],[19.17211,53.06456],[19.1699,53.06492],[19.16639,53.06525],[19.15664,53.06886],[19.15146,53.07118]]}},{"type":"Feature","properties":{"numer":"534","klasa":"droga gĹ‚Ăłwna","kat":"wojewodzka"},"geometry":{"type":"LineString","coordinates":[[19.19413,53.08668],[19.18952,53.08678],[19.18853,53.08692],[19.18822,53.08699],[19.18799,53.08715],[19.18774,53.08807],[19.18741,53.08856],[19.18699,53.08881],[19.15898,53.0944],[19.1559,53.09482],[19.15345,53.09586]]}},{"type":"Feature","properties":{"numer":"2120C","klasa":"","kat":"powiatowa"},"geometry":{"type":"LineString","coordinates":[[19.19442,53.088],[19.19512,53.08846],[19.22399,53.10439],[19.22449,53.10484],[19.22631,53.10709],[19.22664,53.10732],[19.22735,53.10755],[19.23271,53.10874],[19.23742,53.11005]]}},{"type":"Feature","properties":{"numer":"2131C","klasa":"","kat":"powiatowa"},"geometry":{"type":"LineString","coordinates":[[19.20258,53.13289],[19.20288,53.13084],[19.20287,53.13019],[19.201,53.12605],[19.20056,53.12454],[19.20099,53.12405],[19.20408,53.12224],[19.2043,53.12198],[19.20113,53.12],[19.1998,53.11878],[19.19942,53.11828],[19.19934,53.11781],[19.19991,53.11437],[19.19987,53.11396],[19.1957,53.1062],[19.19482,53.10476],[19.19371,53.10174],[19.1928,53.10094],[19.19296,53.0943],[19.19381,53.0911],[19.19442,53.088]]}},{"type":"Feature","properties":{"numer":"2118C","klasa":"","kat":"powiatowa"},"geometry":{"type":"LineString","coordinates":[[19.20258,53.13289],[19.173,53.12407],[19.17268,53.12392],[19.17179,53.1232],[19.16933,53.12285],[19.16732,53.12186]]}},{"type":"Feature","properties":{"numer":"2118C","klasa":"","kat":"powiatowa"},"geometry":{"type":"LineString","coordinates":[[19.20261,53.13291],[19.20258,53.13289]]}},{"type":"Feature","properties":{"numer":"2128C","klasa":"","kat":"powiatowa"},"geometry":{"type":"LineString","coordinates":[[19.13424,53.08797],[19.14103,53.08739],[19.14201,53.08813],[19.14213,53.0892],[19.14244,53.08974],[19.14271,53.08994],[19.15207,53.09341],[19.15228,53.09365],[19.1529,53.09524],[19.15345,53.09586]]}},{"type":"Feature","properties":{"numer":"534","klasa":"droga gĹ‚Ăłwna","kat":"wojewodzka"},"geometry":{"type":"LineString","coordinates":[[19.15345,53.09586],[19.15205,53.09634],[19.13659,53.10047],[19.13538,53.10092],[19.13253,53.10229],[19.12758,53.10418]]}},{"type":"Feature","properties":{"numer":"2118C","klasa":"","kat":"powiatowa"},"geometry":{"type":"LineString","coordinates":[[19.14563,53.11072],[19.13881,53.10726],[19.1334,53.10701],[19.13077,53.10651],[19.12758,53.10418]]}},{"type":"Feature","properties":{"numer":"2119C","klasa":"","kat":"powiatowa"},"geometry":{"type":"LineString","coordinates":[[19.13818,53.12258],[19.13704,53.12231],[19.13606,53.12179],[19.13796,53.11999],[19.13895,53.11881],[19.13885,53.11863],[19.13673,53.11726],[19.13667,53.11703],[19.13684,53.11633],[19.13947,53.11465],[19.1402,53.11458],[19.14056,53.11445],[19.14221,53.11311],[19.14267,53.11248],[19.14401,53.11176],[19.14563,53.11072]]}},{"type":"Feature","properties":{"numer":"2118C","klasa":"","kat":"powiatowa"},"geometry":{"type":"LineString","coordinates":[[19.16732,53.12186],[19.15649,53.11658],[19.14641,53.11095],[19.14563,53.11072]]}},{"type":"Feature","properties":{"numer":"2119C","klasa":"","kat":"powiatowa"},"geometry":{"type":"LineString","coordinates":[[19.16732,53.12186],[19.15423,53.12418],[19.15334,53.12422],[19.1521,53.12445],[19.15125,53.12442],[19.14958,53.12449],[19.1474,53.12419],[19.1402,53.12361],[19.13929,53.12336],[19.13869,53.12277],[19.13818,53.12258]]}}]}