{"type":"FeatureCollection","features":[{"type":"Feature","properties":{"numer":"2564C","klasa":"droga zbiorcza","kat":"powiatowa"},"geometry":{"type":"LineString","coordinates":[[18.1518,52.69189],[18.15146354815351,52.69152901520637]]}},{"type":"Feature","properties":{"numer":"255","klasa":"droga zbiorcza","kat":"wojewodzka"},"geometry":{"type":"LineString","coordinates":[[18.09852,52.69602],[18.09953191009179,52.69023127903372]]}},{"type":"Feature","properties":{"numer":"2562C","klasa":"droga zbiorcza","kat":"powiatowa"},"geometry":{"type":"LineString","coordinates":[[18.123215892699935,52.692852574250296],[18.12527,52.69861],[18.12574,52.70068],[18.12593,52.70301],[18.12693,52.70441],[18.12858,52.70541]]}},{"type":"Feature","properties":{"numer":"2564C","klasa":"droga zbiorcza","kat":"powiatowa"},"geometry":{"type":"LineString","coordinates":[[18.151822200174635,52.69192226153409],[18.15182,52.69192]]}},{"type":"Feature","properties":{"numer":"2563C","klasa":"","kat":"powiatowa"},"geometry":{"type":"LineString","coordinates":[[18.14788,52.70321],[18.15116563242224,52.70309377354697]]}},{"type":"Feature","properties":{"numer":"2563C","klasa":"","kat":"powiatowa"},"geometry":{"type":"LineString","coordinates":[[18.12858,52.70541],[18.12882,52.70533],[18.13896,52.70451],[18.14056,52.70421],[18.14308,52.70397],[18.1475,52.70325]]}},{"type":"Feature","properties":{"numer":"2562C","klasa":"droga zbiorcza","kat":"powiatowa"},"geometry":{"type":"LineString","coordinates":[[18.12858,52.70541],[18.131,52.70664],[18.13167,52.70728],[18.13195,52.70808],[18.13179,52.71126],[18.13365,52.71196],[18.13624,52.71364],[18.14403,52.71654],[18.15173,52.71793]]}},{"type":"Feature","properties":{"numer":"2564C","klasa":"droga zbiorcza","kat":"powiatowa"},"geometry":{"type":"LineString","coordinates":[[18.156011474940332,52.713348443118534],[18.15601,52.71335]]}},{"type":"Feature","properties":{"numer":"2564C","klasa":"","kat":"powiatowa"},"geometry":{"type":"LineString","coordinates":[[18.15601,52.71335],[18.15173,52.71793]]}},{"type":"Feature","properties":{"numer":"2558C","klasa":"droga gĹ‚Ăłwna","kat":"powiatowa"},"geometry":{"type":"LineString","coordinates":[[18.205499258154003,52.73640441878375],[18.20345,52.7361],[18.19908,52.73527],[18.18464,52.73236],[18.17424,52.72996],[18.1708,52.72844],[18.16832,52.72762],[18.16808,52.72725],[18.16793,52.72625],[18.16734,52.72575],[18.16708,52.72533],[18.16616,52.72449],[18.16106,52.72209],[18.1578,52.72113],[18.1575,52.72114],[18.15137,52.72371]]}},{"type":"Feature","properties":{"numer":"2564C","klasa":"","kat":"powiatowa"},"geometry":{"type":"LineString","coordinates":[[18.15173,52.71793],[18.15137,52.72371]]}},{"type":"Feature","properties":{"numer":"2558C","klasa":"droga gĹ‚Ăłwna","kat":"powiatowa"},"geometry":{"type":"LineString","coordinates":[[18.15137,52.72371],[18.15013,52.72424],[18.14694,52.72649]]}},{"type":"Feature","properties":{"numer":"2558C","klasa":"droga gĹ‚Ăłwna","kat":"powiatowa"},"geometry":{"type":"LineString","coordinates":[[18.1468,52.7266],[18.14694,52.72649]]}},{"type":"Feature","properties":{"numer":"2558C","klasa":"droga gĹ‚Ăłwna","kat":"powiatowa"},"geometry":{"type":"LineString","coordinates":[[18.1468,52.7266],[18.14538,52.72767]]}},{"type":"Feature","properties":{"numer":"2559C","klasa":"","kat":"powiatowa"},"geometry":{"type":"LineString","coordinates":[[18.10641,52.74077],[18.10818,52.73712],[18.1232,52.72155],[18.12359,52.72132],[18.12537,52.72077],[18.12764,52.72141],[18.13717,52.72498],[18.14538,52.72767]]}},{"type":"Feature","properties":{"numer":"2561C","klasa":"","kat":"powiatowa"},"geometry":{"type":"LineString","coordinates":[[18.14955,52.73536],[18.14913,52.73428],[18.14554,52.7278],[18.14538,52.72767]]}},{"type":"Feature","properties":{"numer":"2558C","klasa":"droga gĹ‚Ăłwna","kat":"powiatowa"},"geometry":{"type":"LineString","coordinates":[[18.14538,52.72767],[18.14504,52.72783],[18.14344,52.72826],[18.1431,52.72848],[18.13277,52.73822]]}},{"type":"Feature","properties":{"numer":"2560C","klasa":"","kat":"powiatowa"},"geometry":{"type":"LineString","coordinates":[[18.13277,52.73822],[18.14955,52.73536]]}},{"type":"Feature","properties":{"numer":"2553C","klasa":"droga zbiorcza","kat":"powiatowa"},"geometry":{"type":"LineString","coordinates":[[18.10196,52.73921],[18.10235,52.73935]]}},{"type":"Feature","properties":{"numer":"2553C","klasa":"droga zbiorcza","kat":"powiatowa"},"geometry":{"type":"LineString","coordinates":[[18.10235,52.73935],[18.10441,52.74018],[18.1049,52.74029]]}},{"type":"Feature","properties":{"numer":"2553C","klasa":"droga zbiorcza","kat":"powiatowa"},"geometry":{"type":"LineString","coordinates":[[18.10641,52.74077],[18.1049,52.74029]]}},{"type":"Feature","properties":{"numer":"2559C","klasa":"","kat":"powiatowa"},"geometry":{"type":"LineString","coordinates":[[18.1064,52.74079],[18.10641,52.74077]]}},{"type":"Feature","properties":{"numer":"2553C","klasa":"droga zbiorcza","kat":"powiatowa"},"geometry":{"type":"LineString","coordinates":[[18.10656,52.74081],[18.10641,52.74077]]}},{"type":"Feature","properties":{"numer":"2558C","klasa":"droga gĹ‚Ăłwna","kat":"powiatowa"},"geometry":{"type":"LineString","coordinates":[[18.13277,52.73822],[18.12781,52.74299],[18.12567,52.74414]]}},{"type":"Feature","properties":{"numer":"151652C","klasa":"droga lokalna","kat":"powiatowa"},"geometry":{"type":"LineString","coordinates":[[18.10537,52.74262],[18.10606,52.74125],[18.1064,52.74079]]}},{"type":"Feature","properties":{"numer":"2561C","klasa":"","kat":"powiatowa"},"geometry":{"type":"LineString","coordinates":[[18.11882,52.75055],[18.13183,52.74991],[18.15279,52.74792],[18.15315,52.7431],[18.15062,52.73758],[18.14978,52.73602],[18.14955,52.73536]]}},{"type":"Feature","properties":{"numer":"151652C","klasa":"droga lokalna","kat":"powiatowa"},"geometry":{"type":"LineString","coordinates":[[18.10413,52.7451],[18.10537,52.74262]]}},{"type":"Feature","properties":{"numer":"2553C","klasa":"droga zbiorcza","kat":"powiatowa"},"geometry":{"type":"LineString","coordinates":[[18.115,52.74722],[18.11143,52.74379],[18.11044,52.74298],[18.10844,52.74168],[18.10656,52.74081]]}},{"type":"Feature","properties":{"numer":"2558C","klasa":"droga gĹ‚Ăłwna","kat":"powiatowa"},"geometry":{"type":"LineString","coordinates":[[18.12505,52.74445],[18.12567,52.74414]]}},{"type":"Feature","properties":{"numer":"2558C","klasa":"droga gĹ‚Ăłwna","kat":"powiatowa"},"geometry":{"type":"LineString","coordinates":[[18.12463,52.74465],[18.12505,52.74445]]}},{"type":"Feature","properties":{"numer":"151656C","klasa":"droga lokalna","kat":"powiatowa"},"geometry":{"type":"LineString","coordinates":[[18.10413,52.7451],[18.10772,52.74559]]}},{"type":"Feature","properties":{"numer":"151656C","klasa":"droga lokalna","kat":"powiatowa"},"geometry":{"type":"LineString","coordinates":[[18.10772,52.74559],[18.11048,52.74597]]}},{"type":"Feature","properties":{"numer":"151656C","klasa":"droga lokalna","kat":"powiatowa"},"geometry":{"type":"LineString","coordinates":[[18.11048,52.74597],[18.11167,52.74616],[18.11279,52.74647]]}},{"type":"Feature","properties":{"numer":"2558C","klasa":"droga gĹ‚Ăłwna","kat":"powiatowa"},"geometry":{"type":"LineString","coordinates":[[18.11651,52.74846],[18.11871,52.74764],[18.11985,52.74698],[18.12463,52.74465]]}},{"type":"Feature","properties":{"numer":"151656C","klasa":"droga lokalna","kat":"powiatowa"},"geometry":{"type":"LineString","coordinates":[[18.11279,52.74647],[18.11325,52.74665]]}},{"type":"Feature","properties":{"numer":"151656C","klasa":"droga lokalna","kat":"powiatowa"},"geometry":{"type":"LineString","coordinates":[[18.11325,52.74665],[18.11408,52.74755]]}},{"type":"Feature","properties":{"numer":"2548C","klasa":"droga gĹ‚Ăłwna","kat":"powiatowa"},"geometry":{"type":"LineString","coordinates":[[18.11408,52.74755],[18.115,52.74722]]}},{"type":"Feature","properties":{"numer":"2553C","klasa":"droga zbiorcza","kat":"powiatowa"},"geometry":{"type":"LineString","coordinates":[[18.11651,52.74846],[18.1153,52.74725],[18.115,52.74722]]}},{"type":"Feature","properties":{"numer":"2553C","klasa":"droga zbiorcza","kat":"powiatowa"},"geometry":{"type":"LineString","coordinates":[[18.11882,52.75055],[18.11769,52.74944],[18.1171,52.74906],[18.11651,52.74846]]}},{"type":"Feature","properties":{"numer":"2548C","klasa":"droga gĹ‚Ăłwna","kat":"powiatowa"},"geometry":{"type":"LineString","coordinates":[[18.098772018927445,52.77407552050473],[18.09879,52.774],[18.09817,52.77272],[18.09816,52.77236],[18.09831,52.77199],[18.11158,52.75552],[18.11498,52.75198],[18.11536,52.75147],[18.11558,52.75083],[18.11552,52.75013],[18.1141,52.74778],[18.11408,52.74755]]}},{"type":"Feature","properties":{"numer":"2553C","klasa":"droga zbiorcza","kat":"powiatowa"},"geometry":{"type":"LineString","coordinates":[[18.12323887967562,52.75437000182241],[18.12239,52.75402],[18.12174,52.75352],[18.11882,52.75055]]}},{"type":"Feature","properties":{"numer":"2552C","klasa":"","kat":"powiatowa"},"geometry":{"type":"LineString","coordinates":[[18.03284,52.70061],[18.03475,52.6993],[18.03594,52.69815],[18.03696,52.69676],[18.03845,52.69577],[18.04161,52.69292],[18.04329,52.69214],[18.04344,52.69192],[18.04358,52.69061],[18.04568,52.68703],[18.04604,52.68686],[18.05876,52.68836],[18.05965,52.68852],[18.06259,52.68949],[18.06496,52.69076],[18.06975,52.69241],[18.08564,52.69427],[18.08697,52.69433],[18.09071,52.69417],[18.09223,52.69429],[18.09355,52.69456],[18.09852,52.69602]]}},{"type":"Feature","properties":{"numer":"255","klasa":"droga zbiorcza","kat":"wojewodzka"},"geometry":{"type":"LineString","coordinates":[[18.09224,52.71135],[18.09187,52.71122],[18.09166,52.71102],[18.09171,52.71047],[18.09852,52.69602]]}},{"type":"Feature","properties":{"numer":"2407C","klasa":"droga zbiorcza","kat":"powiatowa"},"geometry":{"type":"LineString","coordinates":[[18.03969,52.71012],[18.04847,52.70994],[18.05455,52.70918],[18.05625,52.7091],[18.09039,52.71131],[18.09224,52.71135]]}},{"type":"Feature","properties":{"numer":"2551C","klasa":"","kat":"powiatowa"},"geometry":{"type":"LineString","coordinates":[[18.03969,52.71012],[18.04643,52.71571],[18.04751,52.71829],[18.0482,52.71854]]}},{"type":"Feature","properties":{"numer":"2551C","klasa":"","kat":"powiatowa"},"geometry":{"type":"LineString","coordinates":[[18.04865,52.71954],[18.0482,52.71854]]}},{"type":"Feature","properties":{"numer":"2550C","klasa":"droga zbiorcza","kat":"powiatowa"},"geometry":{"type":"LineString","coordinates":[[18.012682946951156,52.68277984315357],[18.0127,52.6828]]}},{"type":"Feature","properties":{"numer":"2550C","klasa":"droga zbiorcza","kat":"powiatowa"},"geometry":{"type":"LineString","coordinates":[[18.03284,52.70061],[18.02584,52.69377],[18.01783,52.68881],[18.01273,52.68284]]}},{"type":"Feature","properties":{"numer":"2550C","klasa":"droga zbiorcza","kat":"powiatowa"},"geometry":{"type":"LineString","coordinates":[[18.03433,52.70984],[18.03466,52.70761],[18.0347,52.70576],[18.03441,52.70298],[18.03385,52.70168],[18.03284,52.70061]]}},{"type":"Feature","properties":{"numer":"2407C","klasa":"droga zbiorcza","kat":"powiatowa"},"geometry":{"type":"LineString","coordinates":[[18.03433,52.70984],[18.03969,52.71012]]}},{"type":"Feature","properties":{"numer":"2407C","klasa":"droga zbiorcza","kat":"powiatowa"},"geometry":{"type":"LineString","coordinates":[[18.01541,52.71192],[18.02022,52.71112],[18.0267,52.71035],[18.03433,52.70984]]}},{"type":"Feature","properties":{"numer":"2407C","klasa":"","kat":"powiatowa"},"geometry":{"type":"LineString","coordinates":[[18.003002897525292,52.71236756183711],[18.00406,52.71267]]}},{"type":"Feature","properties":{"numer":"2407C","klasa":"droga zbiorcza","kat":"powiatowa"},"geometry":{"type":"LineString","coordinates":[[18.00945,52.7128],[18.00953320366139,52.71279653318078]]}},{"type":"Feature","properties":{"numer":"2407C","klasa":"droga zbiorcza","kat":"powiatowa"},"geometry":{"type":"LineString","coordinates":[[18.010281781753765,52.71276534242693],[18.01065,52.71275],[18.01541,52.71192]]}},{"type":"Feature","properties":{"numer":"2407C","klasa":"","kat":"powiatowa"},"geometry":{"type":"LineString","coordinates":[[18.00405,52.71267],[18.00406,52.71267]]}},{"type":"Feature","properties":{"numer":"2407C","klasa":"","kat":"powiatowa"},"geometry":{"type":"LineString","coordinates":[[18.00406,52.71267],[18.00408692572218,52.71267371389272]]}},{"type":"Feature","properties":{"numer":"2407C","klasa":"","kat":"powiatowa"},"geometry":{"type":"LineString","coordinates":[[18.00429216407352,52.71270202263083],[18.00435,52.71271]]}},{"type":"Feature","properties":{"numer":"2407C","klasa":"","kat":"powiatowa"},"geometry":{"type":"LineString","coordinates":[[18.00435,52.71271],[18.00436,52.71271]]}},{"type":"Feature","properties":{"numer":"2407C","klasa":"","kat":"powiatowa"},"geometry":{"type":"LineString","coordinates":[[18.00435,52.71271],[18.00533,52.71275]]}},{"type":"Feature","properties":{"numer":"2407C","klasa":"droga zbiorcza","kat":"powiatowa"},"geometry":{"type":"LineString","coordinates":[[18.00533,52.71275],[18.00945,52.7128]]}},{"type":"Feature","properties":{"numer":"2407C","klasa":"droga zbiorcza","kat":"powiatowa"},"geometry":{"type":"LineString","coordinates":[[18.00945,52.7128],[18.009615128036877,52.71279801050558]]}},{"type":"Feature","properties":{"numer":"2550C","klasa":"droga zbiorcza","kat":"powiatowa"},"geometry":{"type":"LineString","coordinates":[[18.02796,52.7379],[18.02563,52.73761],[18.02533,52.73749],[18.02516,52.73723],[18.02689,52.73204],[18.0282,52.73095],[18.03064,52.72619],[18.03092,52.72581],[18.03168,52.72534],[18.03587,52.72315],[18.03604,52.72292],[18.03472,52.72011],[18.03384,52.71791],[18.03433,52.70984]]}},{"type":"Feature","properties":{"numer":"255","klasa":"droga zbiorcza","kat":"wojewodzka"},"geometry":{"type":"LineString","coordinates":[[18.08994,52.73473],[18.09119,52.72854],[18.09274,52.71926],[18.09338,52.71749],[18.09432,52.71548],[18.09457,52.71423],[18.09455,52.71329],[18.09407,52.71229],[18.09302,52.71145],[18.09274,52.71137],[18.09224,52.71135]]}},{"type":"Feature","properties":{"numer":"255","klasa":"droga zbiorcza","kat":"wojewodzka"},"geometry":{"type":"LineString","coordinates":[[18.08831,52.73902],[18.08896,52.73855],[18.08918,52.73825],[18.08994,52.73473]]}},{"type":"Feature","properties":{"numer":"2553C","klasa":"droga zbiorcza","kat":"powiatowa"},"geometry":{"type":"LineString","coordinates":[[18.08994,52.73473],[18.09094,52.73521],[18.09381,52.73617],[18.10196,52.73921]]}},{"type":"Feature","properties":{"numer":"255","klasa":"droga zbiorcza","kat":"wojewodzka"},"geometry":{"type":"LineString","coordinates":[[18.08826,52.73905],[18.08831,52.73902]]}},{"type":"Feature","properties":{"numer":"2550C","klasa":"droga zbiorcza","kat":"powiatowa"},"geometry":{"type":"LineString","coordinates":[[18.03033,52.7382],[18.04575,52.74071]]}},{"type":"Feature","properties":{"numer":"255","klasa":"droga zbiorcza","kat":"wojewodzka"},"geometry":{"type":"LineString","coordinates":[[18.08472,52.74404],[18.08488,52.74242],[18.08582,52.74089],[18.08633,52.74042],[18.08826,52.73905]]}},{"type":"Feature","properties":{"numer":"2550C","klasa":"droga zbiorcza","kat":"powiatowa"},"geometry":{"type":"LineString","coordinates":[[18.04575,52.74071],[18.0708,52.74526],[18.07807,52.74557],[18.07862,52.74549],[18.08472,52.74404]]}},{"type":"Feature","properties":{"numer":"2549C","klasa":"","kat":"powiatowa"},"geometry":{"type":"LineString","coordinates":[[18.04575,52.74071],[18.04469,52.74308],[18.04277,52.74833],[18.04276,52.74877],[18.04331,52.74964],[18.04337,52.75016],[18.04162,52.75582],[18.04425,52.75611],[18.04553,52.75643],[18.0584,52.75784],[18.08227,52.75892],[18.08292,52.7589],[18.08401,52.75862]]}},{"type":"Feature","properties":{"numer":"255","klasa":"droga zbiorcza","kat":"wojewodzka"},"geometry":{"type":"LineString","coordinates":[[18.08401,52.75862],[18.08414,52.7575],[18.08532,52.75538],[18.08554,52.75477],[18.08482,52.74702],[18.08438,52.74576],[18.08472,52.74404]]}},{"type":"Feature","properties":{"numer":"255","klasa":"droga zbiorcza","kat":"wojewodzka"},"geometry":{"type":"LineString","coordinates":[[18.08401,52.75862],[18.08384,52.76281],[18.08359,52.76492],[18.08339,52.76545],[18.0817,52.7682],[18.081677576357468,52.76837752050339]]}},{"type":"Feature","properties":{"numer":"2404C","klasa":"","kat":"powiatowa"},"geometry":{"type":"LineString","coordinates":[[18.030124252640714,52.73831118362032],[18.03016,52.73829]]}}]}