{"type":"FeatureCollection","features":[{"type":"Feature","properties":{"numer":"246","klasa":"droga gĹ‚Ăłwna","kat":"wojewodzka"},"geometry":{"type":"LineString","coordinates":[[17.60447,53.11829],[17.60546,53.11726],[17.6063,53.11662],[17.61499,53.11212],[17.61819,53.10987],[17.61865,53.10936],[17.6192,53.10832],[17.6202,53.10765],[17.62005,53.10634],[17.62026,53.10577],[17.62633,53.10048],[17.62745,53.09973],[17.62829,53.09944],[17.62887,53.09938],[17.62977,53.09942],[17.63134,53.09963],[17.63234,53.09961],[17.6436,53.0978],[17.64483,53.09748],[17.653363472729175,53.094696400332985]]}},{"type":"Feature","properties":{"numer":"241","klasa":"droga gĹ‚Ăłwna","kat":"wojewodzka"},"geometry":{"type":"LineString","coordinates":[[17.60412,53.1184],[17.60373,53.11814]]}},{"type":"Feature","properties":{"numer":"241","klasa":"droga gĹ‚Ăłwna","kat":"wojewodzka"},"geometry":{"type":"LineString","coordinates":[[17.58324999960813,53.07408516081839],[17.58391,53.07488],[17.58449,53.07595],[17.58535,53.07804],[17.5998,53.11367],[17.60051,53.11464],[17.60373,53.11814]]}},{"type":"Feature","properties":{"numer":"1921C","klasa":"","kat":"powiatowa"},"geometry":{"type":"LineString","coordinates":[[17.51746441080577,53.10136887983232],[17.51836,53.10161],[17.52579,53.10317],[17.52839,53.10341],[17.53227,53.10406],[17.5386,53.10516],[17.5469,53.10673],[17.54914,53.10688],[17.55198,53.10772],[17.55456,53.10825],[17.56324,53.11058],[17.56517,53.11114],[17.56861,53.11233],[17.57438,53.11341],[17.57717,53.11423],[17.58156,53.11495],[17.588,53.11548],[17.59205,53.11593],[17.59837,53.11706],[17.599,53.11723],[17.60069,53.11832],[17.60347,53.11928]]}},{"type":"Feature","properties":{"numer":"090809C","klasa":"droga lokalna","kat":"powiatowa"},"geometry":{"type":"LineString","coordinates":[[17.59354,53.13718],[17.59427,53.13684]]}},{"type":"Feature","properties":{"numer":"1926C","klasa":"droga zbiorcza","kat":"powiatowa"},"geometry":{"type":"LineString","coordinates":[[17.63946,53.13023],[17.63959,53.12969],[17.63989,53.12937],[17.64254,53.12753],[17.64359,53.12708],[17.64669,53.12644],[17.65998,53.12425],[17.67615,53.12295],[17.67791,53.12286],[17.68086,53.12293],[17.68872,53.1237],[17.69083,53.12404]]}},{"type":"Feature","properties":{"numer":"1926C","klasa":"droga zbiorcza","kat":"powiatowa"},"geometry":{"type":"LineString","coordinates":[[17.69083,53.12404],[17.69224,53.1244],[17.69936,53.12649],[17.72347,53.13376],[17.72623,53.13451]]}},{"type":"Feature","properties":{"numer":"1554C","klasa":"","kat":"powiatowa"},"geometry":{"type":"LineString","coordinates":[[17.72623,53.13451],[17.7252,53.13468],[17.72494,53.13483],[17.72408,53.13629]]}},{"type":"Feature","properties":{"numer":"1554C","klasa":"","kat":"powiatowa"},"geometry":{"type":"LineString","coordinates":[[17.72408,53.13629],[17.72381,53.13674]]}},{"type":"Feature","properties":{"numer":"246","klasa":"droga gĹ‚Ăłwna","kat":"wojewodzka"},"geometry":{"type":"LineString","coordinates":[[17.60412,53.1184],[17.60447,53.11829]]}},{"type":"Feature","properties":{"numer":"241","klasa":"droga gĹ‚Ăłwna","kat":"wojewodzka"},"geometry":{"type":"LineString","coordinates":[[17.60387,53.11873],[17.60412,53.1184]]}},{"type":"Feature","properties":{"numer":"241","klasa":"droga gĹ‚Ăłwna","kat":"wojewodzka"},"geometry":{"type":"LineString","coordinates":[[17.60347,53.11928],[17.60387,53.11873]]}},{"type":"Feature","properties":{"numer":"241","klasa":"droga gĹ‚Ăłwna","kat":"wojewodzka"},"geometry":{"type":"LineString","coordinates":[[17.60162,53.13099],[17.60109,53.12667],[17.60108,53.12575],[17.60347,53.11928]]}},{"type":"Feature","properties":{"numer":"1926C","klasa":"droga zbiorcza","kat":"powiatowa"},"geometry":{"type":"LineString","coordinates":[[17.63941,53.1305],[17.63946,53.13023]]}},{"type":"Feature","properties":{"numer":"1926C","klasa":"droga zbiorcza","kat":"powiatowa"},"geometry":{"type":"LineString","coordinates":[[17.63935,53.13064],[17.63941,53.1305]]}},{"type":"Feature","properties":{"numer":"1926C","klasa":"droga zbiorcza","kat":"powiatowa"},"geometry":{"type":"LineString","coordinates":[[17.63913,53.13095],[17.63935,53.13064]]}},{"type":"Feature","properties":{"numer":"241","klasa":"droga gĹ‚Ăłwna","kat":"wojewodzka"},"geometry":{"type":"LineString","coordinates":[[17.60169,53.13152],[17.60162,53.13099]]}},{"type":"Feature","properties":{"numer":"241","klasa":"droga gĹ‚Ăłwna","kat":"wojewodzka"},"geometry":{"type":"LineString","coordinates":[[17.602,53.134],[17.60169,53.13152]]}},{"type":"Feature","properties":{"numer":"241","klasa":"droga gĹ‚Ăłwna","kat":"wojewodzka"},"geometry":{"type":"LineString","coordinates":[[17.602,53.134],[17.60214,53.13494],[17.60237,53.1353]]}},{"type":"Feature","properties":{"numer":"1926C","klasa":"droga zbiorcza","kat":"powiatowa"},"geometry":{"type":"LineString","coordinates":[[17.72623,53.13451],[17.72946,53.13533],[17.73074,53.13543],[17.75008,53.13445],[17.7583,53.13327],[17.76445,53.1306],[17.765,53.13044],[17.77791,53.1286],[17.78984,53.12771],[17.79027966842502,53.12772998492841]]}},{"type":"Feature","properties":{"numer":"10","klasa":"droga gĹ‚Ăłwna ruchu przyĹ›pieszonego","kat":"krajowa"},"geometry":{"type":"LineString","coordinates":[[17.7072,53.16485],[17.71292,53.16482],[17.71403,53.16488],[17.73896,53.16714],[17.74202,53.16766],[17.743,53.16775],[17.754711390215483,53.16728518996032]]}},{"type":"Feature","properties":{"numer":"1926C","klasa":"droga zbiorcza","kat":"powiatowa"},"geometry":{"type":"LineString","coordinates":[[17.61867,53.13899],[17.63476,53.13202],[17.63576,53.13177],[17.63799,53.13157],[17.63871,53.13129],[17.63913,53.13095]]}},{"type":"Feature","properties":{"numer":"241","klasa":"droga gĹ‚Ăłwna","kat":"wojewodzka"},"geometry":{"type":"LineString","coordinates":[[17.60237,53.1353],[17.60432,53.13533],[17.60586,53.13545]]}},{"type":"Feature","properties":{"numer":"090885C","klasa":"","kat":"powiatowa"},"geometry":{"type":"LineString","coordinates":[[17.60223,53.13584],[17.60224,53.13547],[17.60237,53.1353]]}},{"type":"Feature","properties":{"numer":"090885C","klasa":"droga lokalna","kat":"powiatowa"},"geometry":{"type":"LineString","coordinates":[[17.60219,53.13687],[17.60231,53.13649],[17.60223,53.13584]]}},{"type":"Feature","properties":{"numer":"090809C","klasa":"droga lokalna","kat":"powiatowa"},"geometry":{"type":"LineString","coordinates":[[17.5949,53.13661],[17.59596,53.13631],[17.59733,53.13627],[17.59798,53.13633],[17.59941,53.13663]]}},{"type":"Feature","properties":{"numer":"090809C","klasa":"droga lokalna","kat":"powiatowa"},"geometry":{"type":"LineString","coordinates":[[17.59438,53.1368],[17.5949,53.13661]]}},{"type":"Feature","properties":{"numer":"090809C","klasa":"droga lokalna","kat":"powiatowa"},"geometry":{"type":"LineString","coordinates":[[17.59941,53.13663],[17.60053,53.13686]]}},{"type":"Feature","properties":{"numer":"090809C","klasa":"droga lokalna","kat":"powiatowa"},"geometry":{"type":"LineString","coordinates":[[17.59427,53.13684],[17.59438,53.1368]]}},{"type":"Feature","properties":{"numer":"090350C","klasa":"droga lokalna","kat":"powiatowa"},"geometry":{"type":"LineString","coordinates":[[17.60053,53.13686],[17.60201,53.13718]]}},{"type":"Feature","properties":{"numer":"090885C","klasa":"droga lokalna","kat":"powiatowa"},"geometry":{"type":"LineString","coordinates":[[17.60201,53.13718],[17.60219,53.13687]]}},{"type":"Feature","properties":{"numer":"241","klasa":"droga gĹ‚Ăłwna","kat":"wojewodzka"},"geometry":{"type":"LineString","coordinates":[[17.60586,53.13545],[17.60923,53.1357],[17.61033,53.13589],[17.611,53.13609],[17.61189,53.13648],[17.61465,53.13812],[17.61702,53.13891]]}},{"type":"Feature","properties":{"numer":"090884C","klasa":"droga lokalna","kat":"powiatowa"},"geometry":{"type":"LineString","coordinates":[[17.60261,53.13736],[17.60201,53.13718]]}},{"type":"Feature","properties":{"numer":"090884C","klasa":"droga lokalna","kat":"powiatowa"},"geometry":{"type":"LineString","coordinates":[[17.60294,53.13747],[17.60261,53.13736]]}},{"type":"Feature","properties":{"numer":"090875C","klasa":"droga lokalna","kat":"powiatowa"},"geometry":{"type":"LineString","coordinates":[[17.60294,53.13747],[17.6048,53.13812]]}},{"type":"Feature","properties":{"numer":"090875C","klasa":"droga lokalna","kat":"powiatowa"},"geometry":{"type":"LineString","coordinates":[[17.6048,53.13812],[17.60499,53.13818]]}},{"type":"Feature","properties":{"numer":"090875C","klasa":"droga lokalna","kat":"powiatowa"},"geometry":{"type":"LineString","coordinates":[[17.60499,53.13818],[17.60674,53.13884]]}},{"type":"Feature","properties":{"numer":"090875C","klasa":"droga lokalna","kat":"powiatowa"},"geometry":{"type":"LineString","coordinates":[[17.60674,53.13884],[17.60732,53.13907]]}},{"type":"Feature","properties":{"numer":"241","klasa":"droga gĹ‚Ăłwna","kat":"wojewodzka"},"geometry":{"type":"LineString","coordinates":[[17.61702,53.13891],[17.61782,53.13937]]}},{"type":"Feature","properties":{"numer":"1926C","klasa":"droga zbiorcza","kat":"powiatowa"},"geometry":{"type":"LineString","coordinates":[[17.61782,53.13937],[17.61867,53.13899]]}},{"type":"Feature","properties":{"numer":"090875C","klasa":"droga lokalna","kat":"powiatowa"},"geometry":{"type":"LineString","coordinates":[[17.60732,53.13907],[17.6083,53.13944]]}},{"type":"Feature","properties":{"numer":"1926C","klasa":"droga zbiorcza","kat":"powiatowa"},"geometry":{"type":"LineString","coordinates":[[17.61698,53.13971],[17.61782,53.13937]]}},{"type":"Feature","properties":{"numer":"241","klasa":"droga gĹ‚Ăłwna","kat":"wojewodzka"},"geometry":{"type":"LineString","coordinates":[[17.61782,53.13937],[17.61811,53.14006]]}},{"type":"Feature","properties":{"numer":"1926C","klasa":"droga zbiorcza","kat":"powiatowa"},"geometry":{"type":"LineString","coordinates":[[17.6083,53.13944],[17.61441,53.14056],[17.61546,53.14046],[17.61698,53.13971]]}},{"type":"Feature","properties":{"numer":"241","klasa":"droga gĹ‚Ăłwna","kat":"wojewodzka"},"geometry":{"type":"LineString","coordinates":[[17.61656,53.14152],[17.61719,53.14129],[17.61763,53.14101],[17.61795,53.14067],[17.61811,53.14006]]}},{"type":"Feature","properties":{"numer":"090875C","klasa":"droga lokalna","kat":"powiatowa"},"geometry":{"type":"LineString","coordinates":[[17.61101,53.14256],[17.60832,53.13959],[17.6083,53.13944]]}},{"type":"Feature","properties":{"numer":"241","klasa":"droga gĹ‚Ăłwna","kat":"wojewodzka"},"geometry":{"type":"LineString","coordinates":[[17.61624,53.14162],[17.61656,53.14152]]}},{"type":"Feature","properties":{"numer":"241","klasa":"droga gĹ‚Ăłwna","kat":"wojewodzka"},"geometry":{"type":"LineString","coordinates":[[17.61624,53.14162],[17.61513,53.14196],[17.61456,53.14225],[17.61415,53.14265],[17.61386,53.14329]]}},{"type":"Feature","properties":{"numer":"090875C","klasa":"droga lokalna","kat":"powiatowa"},"geometry":{"type":"LineString","coordinates":[[17.61107,53.14267],[17.61101,53.14256]]}},{"type":"Feature","properties":{"numer":"090875C","klasa":"droga lokalna","kat":"powiatowa"},"geometry":{"type":"LineString","coordinates":[[17.61386,53.14329],[17.61343,53.14282],[17.6128,53.14256],[17.61211,53.14253],[17.61107,53.14267]]}},{"type":"Feature","properties":{"numer":"090882C","klasa":"droga lokalna","kat":"powiatowa"},"geometry":{"type":"LineString","coordinates":[[17.60195,53.14386],[17.60205,53.14306]]}},{"type":"Feature","properties":{"numer":"090876C","klasa":"droga lokalna","kat":"powiatowa"},"geometry":{"type":"LineString","coordinates":[[17.58077,53.14179],[17.58082,53.14184]]}},{"type":"Feature","properties":{"numer":"090876C","klasa":"droga lokalna","kat":"powiatowa"},"geometry":{"type":"LineString","coordinates":[[17.57743,53.14226],[17.58077,53.14179]]}},{"type":"Feature","properties":{"numer":"090870C","klasa":"droga dojazdowa","kat":"powiatowa"},"geometry":{"type":"LineString","coordinates":[[17.57754,53.14268],[17.57743,53.14226]]}},{"type":"Feature","properties":{"numer":"1150C","klasa":"droga zbiorcza","kat":"powiatowa"},"geometry":{"type":"LineString","coordinates":[[17.57798,53.14393],[17.58044,53.14229],[17.5809,53.14193],[17.58082,53.14184]]}},{"type":"Feature","properties":{"numer":"090870C","klasa":"droga dojazdowa","kat":"powiatowa"},"geometry":{"type":"LineString","coordinates":[[17.57756,53.14368],[17.57797,53.14317],[17.57754,53.14268]]}},{"type":"Feature","properties":{"numer":"090873C","klasa":"droga dojazdowa","kat":"powiatowa"},"geometry":{"type":"LineString","coordinates":[[17.57798,53.14393],[17.57752,53.14375],[17.57756,53.14368]]}},{"type":"Feature","properties":{"numer":"10","klasa":"droga gĹ‚Ăłwna ruchu przyĹ›pieszonego","kat":"krajowa"},"geometry":{"type":"LineString","coordinates":[[17.56802,53.14357],[17.57013,53.14391],[17.57188,53.14441]]}},{"type":"Feature","properties":{"numer":"1150C","klasa":"droga zbiorcza","kat":"powiatowa"},"geometry":{"type":"LineString","coordinates":[[17.57559,53.14548],[17.57798,53.14393]]}},{"type":"Feature","properties":{"numer":"10","klasa":"droga gĹ‚Ăłwna ruchu przyĹ›pieszonego","kat":"krajowa"},"geometry":{"type":"LineString","coordinates":[[17.57188,53.14441],[17.57301,53.14484],[17.57505,53.14583]]}},{"type":"Feature","properties":{"numer":"1150C","klasa":"droga zbiorcza","kat":"powiatowa"},"geometry":{"type":"LineString","coordinates":[[17.57505,53.14583],[17.57559,53.14548]]}},{"type":"Feature","properties":{"numer":"241","klasa":"droga gĹ‚Ăłwna","kat":"wojewodzka"},"geometry":{"type":"LineString","coordinates":[[17.61386,53.14329],[17.61374,53.14369]]}},{"type":"Feature","properties":{"numer":"241","klasa":"droga gĹ‚Ăłwna","kat":"wojewodzka"},"geometry":{"type":"LineString","coordinates":[[17.61374,53.14369],[17.61356,53.14421]]}},{"type":"Feature","properties":{"numer":"090878C","klasa":"droga lokalna","kat":"powiatowa"},"geometry":{"type":"LineString","coordinates":[[17.60987,53.14411],[17.61057,53.14429]]}},{"type":"Feature","properties":{"numer":"090878C","klasa":"droga lokalna","kat":"powiatowa"},"geometry":{"type":"LineString","coordinates":[[17.61057,53.14429],[17.61207,53.14465]]}},{"type":"Feature","properties":{"numer":"241","klasa":"droga gĹ‚Ăłwna","kat":"wojewodzka"},"geometry":{"type":"LineString","coordinates":[[17.61356,53.14421],[17.61322,53.14474],[17.61288,53.14498]]}},{"type":"Feature","properties":{"numer":"090878C","klasa":"","kat":"powiatowa"},"geometry":{"type":"LineString","coordinates":[[17.61207,53.14465],[17.61288,53.14498]]}},{"type":"Feature","properties":{"numer":"090882C","klasa":"droga lokalna","kat":"powiatowa"},"geometry":{"type":"LineString","coordinates":[[17.60111,53.14496],[17.60112,53.14496]]}},{"type":"Feature","properties":{"numer":"090882C","klasa":"droga lokalna","kat":"powiatowa"},"geometry":{"type":"LineString","coordinates":[[17.60106,53.14498],[17.60111,53.14496]]}},{"type":"Feature","properties":{"numer":"1925C","klasa":"","kat":"powiatowa"},"geometry":{"type":"LineString","coordinates":[[17.60141,53.14524],[17.60138,53.1451],[17.60112,53.14496]]}},{"type":"Feature","properties":{"numer":"090882C","klasa":"droga lokalna","kat":"powiatowa"},"geometry":{"type":"LineString","coordinates":[[17.60025,53.14544],[17.60106,53.14498]]}},{"type":"Feature","properties":{"numer":"1150C","klasa":"droga zbiorcza","kat":"powiatowa"},"geometry":{"type":"LineString","coordinates":[[17.57455,53.14616],[17.57505,53.14583]]}},{"type":"Feature","properties":{"numer":"10","klasa":"droga gĹ‚Ăłwna ruchu przyĹ›pieszonego","kat":"krajowa"},"geometry":{"type":"LineString","coordinates":[[17.57505,53.14583],[17.57721,53.14686],[17.57899,53.14759]]}},{"type":"Feature","properties":{"numer":"10","klasa":"droga gĹ‚Ăłwna ruchu przyĹ›pieszonego","kat":"krajowa"},"geometry":{"type":"LineString","coordinates":[[17.57899,53.14759],[17.57975,53.14787]]}},{"type":"Feature","properties":{"numer":"10","klasa":"droga gĹ‚Ăłwna ruchu przyĹ›pieszonego","kat":"krajowa"},"geometry":{"type":"LineString","coordinates":[[17.57975,53.14787],[17.57991,53.14792]]}},{"type":"Feature","properties":{"numer":"10","klasa":"droga gĹ‚Ăłwna ruchu przyĹ›pieszonego","kat":"krajowa"},"geometry":{"type":"LineString","coordinates":[[17.514963579967723,53.148541410976854],[17.51736,53.14818],[17.56373,53.14361],[17.566,53.14348],[17.56802,53.14357]]}},{"type":"Feature","properties":{"numer":"10","klasa":"droga gĹ‚Ăłwna ruchu przyĹ›pieszonego","kat":"krajowa"},"geometry":{"type":"LineString","coordinates":[[17.57991,53.14792],[17.58758,53.15014]]}},{"type":"Feature","properties":{"numer":"090882C","klasa":"droga lokalna","kat":"powiatowa"},"geometry":{"type":"LineString","coordinates":[[17.59378,53.14941],[17.59415,53.14918]]}},{"type":"Feature","properties":{"numer":"090882C","klasa":"droga lokalna","kat":"powiatowa"},"geometry":{"type":"LineString","coordinates":[[17.59227,53.15044],[17.59378,53.14941]]}},{"type":"Feature","properties":{"numer":"10","klasa":"droga gĹ‚Ăłwna ruchu przyĹ›pieszonego","kat":"krajowa"},"geometry":{"type":"LineString","coordinates":[[17.58758,53.15014],[17.59158,53.15127]]}},{"type":"Feature","properties":{"numer":"090882C","klasa":"","kat":"powiatowa"},"geometry":{"type":"LineString","coordinates":[[17.59227,53.15044],[17.59158,53.15127]]}},{"type":"Feature","properties":{"numer":"241","klasa":"droga gĹ‚Ăłwna","kat":"wojewodzka"},"geometry":{"type":"LineString","coordinates":[[17.61288,53.14498],[17.61346,53.14552]]}},{"type":"Feature","properties":{"numer":"1925C","klasa":"","kat":"powiatowa"},"geometry":{"type":"LineString","coordinates":[[17.60159,53.146],[17.60141,53.14524]]}},{"type":"Feature","properties":{"numer":"090882C","klasa":"droga lokalna","kat":"powiatowa"},"geometry":{"type":"LineString","coordinates":[[17.59957,53.14604],[17.60025,53.14544]]}},{"type":"Feature","properties":{"numer":"090858C","klasa":"droga dojazdowa","kat":"powiatowa"},"geometry":{"type":"LineString","coordinates":[[17.59993,53.14607],[17.60159,53.146]]}},{"type":"Feature","properties":{"numer":"090858C","klasa":"droga dojazdowa","kat":"powiatowa"},"geometry":{"type":"LineString","coordinates":[[17.59957,53.14604],[17.59993,53.14607]]}},{"type":"Feature","properties":{"numer":"090882C","klasa":"droga lokalna","kat":"powiatowa"},"geometry":{"type":"LineString","coordinates":[[17.5972,53.14733],[17.59788,53.14691]]}},{"type":"Feature","properties":{"numer":"090882C","klasa":"droga lokalna","kat":"powiatowa"},"geometry":{"type":"LineString","coordinates":[[17.59545,53.14839],[17.5972,53.14733]]}},{"type":"Feature","properties":{"numer":"1925C","klasa":"","kat":"powiatowa"},"geometry":{"type":"LineString","coordinates":[[17.60286,53.15102],[17.60159,53.146]]}},{"type":"Feature","properties":{"numer":"090882C","klasa":"droga lokalna","kat":"powiatowa"},"geometry":{"type":"LineString","coordinates":[[17.59415,53.14918],[17.59545,53.14839]]}},{"type":"Feature","properties":{"numer":"241","klasa":"droga gĹ‚Ăłwna","kat":"wojewodzka"},"geometry":{"type":"LineString","coordinates":[[17.61346,53.14552],[17.61401,53.14646],[17.61589,53.15095],[17.61582,53.15162],[17.61512,53.15246]]}},{"type":"Feature","properties":{"numer":"1925C","klasa":"","kat":"powiatowa"},"geometry":{"type":"LineString","coordinates":[[17.60297,53.15145],[17.60286,53.15102]]}},{"type":"Feature","properties":{"numer":"10","klasa":"droga gĹ‚Ăłwna ruchu przyĹ›pieszonego","kat":"krajowa"},"geometry":{"type":"LineString","coordinates":[[17.60297,53.15145],[17.60563,53.15112],[17.60684,53.15108],[17.60858,53.15116]]}},{"type":"Feature","properties":{"numer":"10","klasa":"droga gĹ‚Ăłwna ruchu przyĹ›pieszonego","kat":"krajowa"},"geometry":{"type":"LineString","coordinates":[[17.60858,53.15116],[17.61013,53.15137],[17.61118,53.1516]]}},{"type":"Feature","properties":{"numer":"1925C","klasa":"","kat":"powiatowa"},"geometry":{"type":"LineString","coordinates":[[17.60309,53.15194],[17.60297,53.15145]]}},{"type":"Feature","properties":{"numer":"10","klasa":"droga gĹ‚Ăłwna ruchu przyĹ›pieszonego","kat":"krajowa"},"geometry":{"type":"LineString","coordinates":[[17.59788,53.15209],[17.5997,53.15193],[17.60297,53.15145]]}},{"type":"Feature","properties":{"numer":"10","klasa":"droga gĹ‚Ăłwna ruchu przyĹ›pieszonego","kat":"krajowa"},"geometry":{"type":"LineString","coordinates":[[17.5957,53.15205],[17.59788,53.15209]]}},{"type":"Feature","properties":{"numer":"10","klasa":"droga gĹ‚Ăłwna ruchu przyĹ›pieszonego","kat":"krajowa"},"geometry":{"type":"LineString","coordinates":[[17.61118,53.1516],[17.61295,53.15214],[17.61469,53.15286]]}},{"type":"Feature","properties":{"numer":"241","klasa":"droga gĹ‚Ăłwna","kat":"wojewodzka"},"geometry":{"type":"LineString","coordinates":[[17.61512,53.15246],[17.61469,53.15286]]}},{"type":"Feature","properties":{"numer":"241","klasa":"droga gĹ‚Ăłwna","kat":"wojewodzka"},"geometry":{"type":"LineString","coordinates":[[17.61469,53.15286],[17.61465,53.1529]]}},{"type":"Feature","properties":{"numer":"10","klasa":"droga gĹ‚Ăłwna ruchu przyĹ›pieszonego","kat":"krajowa"},"geometry":{"type":"LineString","coordinates":[[17.61469,53.15286],[17.61853,53.15466]]}},{"type":"Feature","properties":{"numer":"1554C","klasa":"","kat":"powiatowa"},"geometry":{"type":"LineString","coordinates":[[17.72381,53.13674],[17.71908,53.14479]]}},{"type":"Feature","properties":{"numer":"1554C","klasa":"","kat":"powiatowa"},"geometry":{"type":"LineString","coordinates":[[17.71908,53.14479],[17.71905,53.14486]]}},{"type":"Feature","properties":{"numer":"1554C","klasa":"","kat":"powiatowa"},"geometry":{"type":"LineString","coordinates":[[17.71905,53.14486],[17.71322,53.15474],[17.71277,53.15536],[17.71242,53.15544],[17.71006,53.15556],[17.70381,53.15561],[17.70191,53.15595],[17.70158,53.15661],[17.70152,53.15701],[17.70267,53.1581],[17.70324,53.15932],[17.70376,53.1601],[17.70401,53.16103],[17.70359,53.16211],[17.70296,53.16324],[17.70289,53.16422],[17.70313,53.16495]]}},{"type":"Feature","properties":{"numer":"10","klasa":"droga gĹ‚Ăłwna ruchu przyĹ›pieszonego","kat":"krajowa"},"geometry":{"type":"LineString","coordinates":[[17.63941,53.15971],[17.64976,53.1621],[17.66486,53.16682],[17.67785,53.16898],[17.67968,53.16901],[17.68104,53.16886],[17.69766,53.16604],[17.70082,53.16521],[17.70313,53.16495]]}},{"type":"Feature","properties":{"numer":"10","klasa":"droga gĹ‚Ăłwna ruchu przyĹ›pieszonego","kat":"krajowa"},"geometry":{"type":"LineString","coordinates":[[17.70313,53.16495],[17.7043,53.16487],[17.7072,53.16485]]}},{"type":"Feature","properties":{"numer":"1554C","klasa":"","kat":"powiatowa"},"geometry":{"type":"LineString","coordinates":[[17.70313,53.16495],[17.70331,53.16545],[17.7055,53.16916],[17.70602,53.1705],[17.70602,53.17089],[17.70547,53.1718]]}},{"type":"Feature","properties":{"numer":"1924C","klasa":"","kat":"powiatowa"},"geometry":{"type":"LineString","coordinates":[[17.72363,53.18033],[17.7072,53.16485]]}},{"type":"Feature","properties":{"numer":"1922C","klasa":"","kat":"powiatowa"},"geometry":{"type":"LineString","coordinates":[[17.64621,53.18897],[17.64844,53.18913],[17.64923,53.18905],[17.65259,53.18807],[17.65394,53.18786],[17.65517,53.18797],[17.65902,53.1886],[17.66,53.18863],[17.66144,53.18847],[17.6644,53.18795],[17.66611,53.18779],[17.66753,53.18771],[17.67147,53.18788],[17.67688,53.18742],[17.67773,53.18719],[17.68163,53.18743],[17.68397,53.1871],[17.68618,53.18782],[17.68671,53.18785],[17.68806,53.18772],[17.68873,53.1878],[17.68953,53.18801],[17.69064,53.18792],[17.69111,53.18768],[17.69192,53.18706],[17.69368,53.18614],[17.69566,53.18563],[17.69743,53.18529],[17.69779,53.18517],[17.69812,53.18492],[17.69841,53.18434],[17.70125,53.17536],[17.7016,53.17497],[17.70547,53.1718]]}},{"type":"Feature","properties":{"numer":"1554C","klasa":"","kat":"powiatowa"},"geometry":{"type":"LineString","coordinates":[[17.71073,53.20213],[17.7107,53.19472],[17.710631855541724,53.194525130759665]]}},{"type":"Feature","properties":{"numer":"1554C","klasa":"","kat":"powiatowa"},"geometry":{"type":"LineString","coordinates":[[17.70954924264491,53.19202733760558],[17.70919,53.19137],[17.70905,53.18998],[17.7086,53.18838],[17.70806,53.18725],[17.70782,53.1863],[17.70708,53.18502],[17.70539,53.17214],[17.70547,53.1718]]}},{"type":"Feature","properties":{"numer":"1910C","klasa":"","kat":"powiatowa"},"geometry":{"type":"LineString","coordinates":[[17.71073,53.20213],[17.71079,53.20212142857143]]}},{"type":"Feature","properties":{"numer":"10","klasa":"droga gĹ‚Ăłwna ruchu przyĹ›pieszonego","kat":"krajowa"},"geometry":{"type":"LineString","coordinates":[[17.59158,53.15127],[17.59403,53.15185],[17.5957,53.15205]]}},{"type":"Feature","properties":{"numer":"241","klasa":"droga gĹ‚Ăłwna","kat":"wojewodzka"},"geometry":{"type":"LineString","coordinates":[[17.59158,53.15127],[17.5911,53.15208]]}},{"type":"Feature","properties":{"numer":"1150C","klasa":"droga zbiorcza","kat":"powiatowa"},"geometry":{"type":"LineString","coordinates":[[17.525035648604252,53.16882421656842],[17.54028,53.15891],[17.545,53.15544],[17.54586,53.15567],[17.54893,53.15626],[17.55069,53.15696],[17.55162,53.15717],[17.55203,53.15718],[17.5576,53.1529],[17.56335,53.15191],[17.56632,53.15091],[17.57048,53.1488],[17.57455,53.14616]]}},{"type":"Feature","properties":{"numer":"241","klasa":"droga gĹ‚Ăłwna","kat":"wojewodzka"},"geometry":{"type":"LineString","coordinates":[[17.57398,53.17093],[17.57494,53.17008],[17.58204,53.16644],[17.58266,53.16607],[17.58315,53.16563],[17.58413,53.16427],[17.58469,53.16312],[17.58906,53.15727],[17.58977,53.15587],[17.5911,53.15208]]}},{"type":"Feature","properties":{"numer":"1920C","klasa":"","kat":"powiatowa"},"geometry":{"type":"LineString","coordinates":[[17.53918,53.1853],[17.5393,53.18511],[17.53962,53.18515],[17.54327,53.18592],[17.54431,53.186],[17.54569,53.1856],[17.54605,53.18464],[17.54779,53.18477],[17.54821,53.1847],[17.56245,53.17583],[17.56292,53.1756],[17.56411,53.17524],[17.56657,53.17355],[17.57112,53.17173],[17.57232,53.17132],[17.57398,53.17093]]}},{"type":"Feature","properties":{"numer":"241","klasa":"droga gĹ‚Ăłwna","kat":"wojewodzka"},"geometry":{"type":"LineString","coordinates":[[17.57718146224791,53.18353834736268],[17.57553,53.18033],[17.57361,53.17249],[17.57364,53.17164],[17.57398,53.17093]]}},{"type":"Feature","properties":{"numer":"1920C","klasa":"","kat":"powiatowa"},"geometry":{"type":"LineString","coordinates":[[17.53914,53.18538],[17.53918,53.1853]]}},{"type":"Feature","properties":{"numer":"10","klasa":"droga gĹ‚Ăłwna ruchu przyĹ›pieszonego","kat":"krajowa"},"geometry":{"type":"LineString","coordinates":[[17.61853,53.15466],[17.62454,53.15736]]}},{"type":"Feature","properties":{"numer":"10","klasa":"droga gĹ‚Ăłwna ruchu przyĹ›pieszonego","kat":"krajowa"},"geometry":{"type":"LineString","coordinates":[[17.62454,53.15736],[17.62495,53.15752]]}},{"type":"Feature","properties":{"numer":"10","klasa":"droga gĹ‚Ăłwna ruchu przyĹ›pieszonego","kat":"krajowa"},"geometry":{"type":"LineString","coordinates":[[17.62495,53.15752],[17.62603,53.15788],[17.62709,53.15812],[17.63534,53.15902],[17.63941,53.15971]]}},{"type":"Feature","properties":{"numer":"1925C","klasa":"","kat":"powiatowa"},"geometry":{"type":"LineString","coordinates":[[17.61672,53.18774],[17.61563,53.18642],[17.61333,53.18443],[17.61002,53.17863],[17.60984,53.17704],[17.60949,53.17656],[17.60969,53.17583],[17.60963,53.17472],[17.61025,53.17239],[17.61011,53.17095],[17.60971,53.17027],[17.60979,53.16915],[17.60428,53.15657],[17.60309,53.15194]]}},{"type":"Feature","properties":{"numer":"1923C","klasa":"","kat":"powiatowa"},"geometry":{"type":"LineString","coordinates":[[17.64621,53.18897],[17.6463,53.18875],[17.64654,53.18865],[17.6465,53.18843],[17.64559,53.18741],[17.64582,53.18662],[17.64577,53.18625],[17.64134,53.18331],[17.64119,53.18268],[17.64121,53.18152],[17.64152,53.17977],[17.64152,53.17932],[17.64139,53.17905],[17.63923,53.17754],[17.63872,53.17646],[17.63832,53.17599],[17.63669,53.17527],[17.63654,53.17507],[17.63676,53.17378],[17.63665,53.17306],[17.63705,53.17084],[17.63754,53.16554],[17.63848,53.16193],[17.63941,53.15971]]}},{"type":"Feature","properties":{"numer":"1922C","klasa":"","kat":"powiatowa"},"geometry":{"type":"LineString","coordinates":[[17.61672,53.18774],[17.61817,53.18855],[17.61922,53.18895],[17.62029,53.18906],[17.62285,53.18913],[17.62471,53.18949],[17.62614,53.18989],[17.62877,53.19038],[17.62972,53.19032],[17.63175,53.18983],[17.63295,53.18966],[17.63672,53.18946],[17.64025,53.1895],[17.64569,53.18893],[17.64621,53.18897]]}},{"type":"Feature","properties":{"numer":"1922C","klasa":"","kat":"powiatowa"},"geometry":{"type":"LineString","coordinates":[[17.600493004277737,53.192343947229226],[17.60107,53.19222],[17.60557,53.19099],[17.61199,53.18954],[17.61373,53.18933],[17.6149,53.18902],[17.61551,53.18883],[17.61619,53.18849],[17.6165,53.18822],[17.61672,53.18774]]}},{"type":"Feature","properties":{"numer":"1923C","klasa":"","kat":"powiatowa"},"geometry":{"type":"LineString","coordinates":[[17.6455,53.19134],[17.64621,53.18897]]}},{"type":"Feature","properties":{"numer":"1923C","klasa":"","kat":"powiatowa"},"geometry":{"type":"LineString","coordinates":[[17.64527,53.19211],[17.6455,53.19134]]}},{"type":"Feature","properties":{"numer":"1923C","klasa":"","kat":"powiatowa"},"geometry":{"type":"LineString","coordinates":[[17.63611658774177,53.20274725653876],[17.63654,53.20199],[17.63691,53.20083],[17.63671,53.19967],[17.63672,53.19901],[17.63692,53.19829],[17.63743,53.19747],[17.63795,53.19705],[17.63964,53.1961],[17.64202,53.19526],[17.64413,53.19489],[17.64439,53.19479],[17.64454,53.19463],[17.64527,53.19211]]}},{"type":"Feature","properties":{"numer":"1920C","klasa":"","kat":"powiatowa"},"geometry":{"type":"LineString","coordinates":[[17.540642244147445,53.19535730558332],[17.54044,53.19493],[17.53995,53.1931],[17.53856,53.18656],[17.53859,53.18632],[17.53914,53.18538]]}},{"type":"Feature","properties":{"numer":"1910C","klasa":"","kat":"powiatowa"},"geometry":{"type":"LineString","coordinates":[[17.69244,53.20289],[17.69382,53.20289],[17.70449,53.2024],[17.70518,53.20235],[17.70609,53.20217],[17.70771,53.20228],[17.71073,53.20213]]}},{"type":"Feature","properties":{"numer":"1554C","klasa":"","kat":"powiatowa"},"geometry":{"type":"LineString","coordinates":[[17.709780414763962,53.21159091449397],[17.71069,53.20599],[17.71073,53.20213]]}},{"type":"Feature","properties":{"numer":"1910C","klasa":"","kat":"powiatowa"},"geometry":{"type":"LineString","coordinates":[[17.68414134325686,53.21164004296785],[17.68467,53.21101],[17.68509,53.20932],[17.68723,53.20757],[17.68997,53.20501],[17.69244,53.20289]]}}]}