{"type":"FeatureCollection","features":[{"type":"Feature","properties":{"numer":"2132C","klasa":"droga zbiorcza","kat":"powiatowa"},"geometry":{"type":"LineString","coordinates":[[18.951984764159214,52.96646181249635],[18.95358,52.96777],[18.95415,52.96815],[18.954741469957085,52.96837081545065]]}},{"type":"Feature","properties":{"numer":"10","klasa":"droga gĹ‚Ăłwna ruchu przyĹ›pieszonego","kat":"krajowa"},"geometry":{"type":"LineString","coordinates":[[18.87619,52.97376],[18.87587,52.97413]]}},{"type":"Feature","properties":{"numer":"2040C","klasa":"droga zbiorcza","kat":"powiatowa"},"geometry":{"type":"LineString","coordinates":[[18.90259,52.96822],[18.90307,52.96873],[18.90361,52.96912],[18.90415,52.96925],[18.90477,52.96919]]}},{"type":"Feature","properties":{"numer":"10","klasa":"droga gĹ‚Ăłwna ruchu przyĹ›pieszonego","kat":"krajowa"},"geometry":{"type":"LineString","coordinates":[[18.90259,52.96822],[18.90155,52.96849],[18.90041,52.96866],[18.88138,52.97098]]}},{"type":"Feature","properties":{"numer":"10","klasa":"droga gĹ‚Ăłwna ruchu przyĹ›pieszonego","kat":"krajowa"},"geometry":{"type":"LineString","coordinates":[[18.88027,52.9712],[18.88138,52.97098]]}},{"type":"Feature","properties":{"numer":"10","klasa":"droga gĹ‚Ăłwna ruchu przyĹ›pieszonego","kat":"krajowa"},"geometry":{"type":"LineString","coordinates":[[18.87887,52.97169],[18.88027,52.9712]]}},{"type":"Feature","properties":{"numer":"10","klasa":"droga gĹ‚Ăłwna ruchu przyĹ›pieszonego","kat":"krajowa"},"geometry":{"type":"LineString","coordinates":[[18.87684,52.97304],[18.87764,52.97237],[18.87887,52.97169]]}},{"type":"Feature","properties":{"numer":"10","klasa":"droga gĹ‚Ăłwna ruchu przyĹ›pieszonego","kat":"krajowa"},"geometry":{"type":"LineString","coordinates":[[18.87684,52.97304],[18.87619,52.97376]]}},{"type":"Feature","properties":{"numer":"2039C","klasa":"droga zbiorcza","kat":"powiatowa"},"geometry":{"type":"LineString","coordinates":[[18.92411,53.00838],[18.92401,53.00761],[18.92382,53.00724],[18.92257,53.0063],[18.92346,53.00565],[18.92751,53.00306],[18.92758,53.0028],[18.92018,52.99503],[18.91549,52.98995],[18.91523,52.98771],[18.91422,52.98491],[18.91266,52.98231],[18.91177,52.98042],[18.91052,52.97387],[18.91016,52.97347],[18.90477,52.96919]]}},{"type":"Feature","properties":{"numer":"2038C","klasa":"droga zbiorcza","kat":"powiatowa"},"geometry":{"type":"LineString","coordinates":[[18.88752,53.00135],[18.88611,53.0],[18.88343,52.99688],[18.88135,52.99509],[18.88041,52.99442],[18.87441,52.99112],[18.87173,52.98798],[18.8667,52.98406]]}},{"type":"Feature","properties":{"numer":"2037C","klasa":"droga zbiorcza","kat":"powiatowa"},"geometry":{"type":"LineString","coordinates":[[18.88752,53.00135],[18.89077,53.00026],[18.8915,52.99949],[18.89188,52.99929],[18.89554,52.99879],[18.89631,52.99877],[18.89687,52.99902],[18.91083,53.00691],[18.91666,53.00779],[18.91714,53.00805],[18.91845,53.00929],[18.91897,53.00949],[18.91969,53.00941],[18.92302,53.00841],[18.92411,53.00838]]}},{"type":"Feature","properties":{"numer":"10","klasa":"droga gĹ‚Ăłwna ruchu przyĹ›pieszonego","kat":"krajowa"},"geometry":{"type":"LineString","coordinates":[[18.912615437333116,52.9631469974243],[18.91146,52.96425],[18.9099,52.96533],[18.90705,52.96678],[18.90259,52.96822]]}},{"type":"Feature","properties":{"numer":"2040C","klasa":"droga zbiorcza","kat":"powiatowa"},"geometry":{"type":"LineString","coordinates":[[18.90477,52.96919],[18.90683,52.9686],[18.90732,52.96853],[18.90888,52.9694],[18.91044,52.96999],[18.91213,52.97091],[18.91653,52.97442],[18.91902,52.97607],[18.91989,52.97644],[18.92738,52.97778],[18.93656,52.97899],[18.94584,52.98148],[18.95192,52.98235],[18.95247,52.9813],[18.95406,52.97999],[18.95487,52.97859],[18.9557,52.97365],[18.95484,52.96955],[18.95489673119469,52.96849101769911]]}},{"type":"Feature","properties":{"numer":"2037C","klasa":"droga zbiorcza","kat":"powiatowa"},"geometry":{"type":"LineString","coordinates":[[18.92411,53.00838],[18.9262,53.00881],[18.93349,53.00957],[18.94198,53.00971],[18.9426,53.0096],[18.947760012696783,53.00811287835238]]}},{"type":"Feature","properties":{"numer":"10","klasa":"droga gĹ‚Ăłwna ruchu przyĹ›pieszonego","kat":"krajowa"},"geometry":{"type":"LineString","coordinates":[[18.87587,52.97413],[18.87369,52.97667]]}},{"type":"Feature","properties":{"numer":"10","klasa":"droga gĹ‚Ăłwna ruchu przyĹ›pieszonego","kat":"krajowa"},"geometry":{"type":"LineString","coordinates":[[18.87369,52.97667],[18.87359,52.97679]]}},{"type":"Feature","properties":{"numer":"10","klasa":"droga gĹ‚Ăłwna ruchu przyĹ›pieszonego","kat":"krajowa"},"geometry":{"type":"LineString","coordinates":[[18.87359,52.97679],[18.86865,52.9825],[18.86784,52.98324],[18.8667,52.98406]]}},{"type":"Feature","properties":{"numer":"10","klasa":"droga gĹ‚Ăłwna ruchu przyĹ›pieszonego","kat":"krajowa"},"geometry":{"type":"LineString","coordinates":[[18.8667,52.98406],[18.86151,52.98727],[18.85981,52.98824],[18.84111,52.9971],[18.84033,52.99753],[18.83955,52.99808],[18.83893,52.99879],[18.83857,52.99964],[18.83777,53.00583],[18.83726,53.0067],[18.83659,53.00732]]}},{"type":"Feature","properties":{"numer":"2037C","klasa":"droga zbiorcza","kat":"powiatowa"},"geometry":{"type":"LineString","coordinates":[[18.8492,53.00354],[18.85702,53.00097],[18.85764,53.00084],[18.88112,53.0031],[18.884,53.00247],[18.88752,53.00135]]}},{"type":"Feature","properties":{"numer":"2037C,569","klasa":"droga zbiorcza","kat":"powiatowa"},"geometry":{"type":"LineString","coordinates":[[18.83659,53.00732],[18.83685,53.0075],[18.83763,53.00735],[18.8492,53.00354]]}},{"type":"Feature","properties":{"numer":"569","klasa":"droga zbiorcza","kat":"wojewodzka"},"geometry":{"type":"LineString","coordinates":[[18.8492,53.00354],[18.8533,53.00779],[18.86379,53.02175]]}},{"type":"Feature","properties":{"numer":"2041C","klasa":"droga zbiorcza","kat":"powiatowa"},"geometry":{"type":"LineString","coordinates":[[18.80105,53.02054],[18.80163,53.02074],[18.808,53.02379],[18.83098,53.03095],[18.86379,53.02175]]}},{"type":"Feature","properties":{"numer":"569","klasa":"droga zbiorcza","kat":"wojewodzka"},"geometry":{"type":"LineString","coordinates":[[18.86379,53.02175],[18.86964,53.02904],[18.86999,53.02938],[18.87057,53.02968],[18.87135,53.02984],[18.87217,53.02984],[18.88252,53.02806],[18.88313,53.02811],[18.88345,53.02824],[18.88833,53.03519],[18.8888,53.03563],[18.888841183893117,53.03565831392652]]}},{"type":"Feature","properties":{"numer":"258","klasa":"droga zbiorcza","kat":"wojewodzka"},"geometry":{"type":"LineString","coordinates":[[18.71962,52.94177],[18.72121,52.94219],[18.72241,52.94239],[18.72858,52.94375]]}},{"type":"Feature","properties":{"numer":"258","klasa":"droga zbiorcza","kat":"wojewodzka"},"geometry":{"type":"LineString","coordinates":[[18.73116,52.94476],[18.72984,52.94412],[18.72858,52.94375]]}},{"type":"Feature","properties":{"numer":"654","klasa":"droga zbiorcza","kat":"wojewodzka"},"geometry":{"type":"LineString","coordinates":[[18.73116,52.94476],[18.72976,52.94655],[18.72887,52.94722],[18.72789,52.94835],[18.72769,52.94878],[18.7275,52.95009],[18.72632,52.95189],[18.72554,52.95353],[18.72451515367316,52.954869492128935]]}},{"type":"Feature","properties":{"numer":"258","klasa":"droga zbiorcza","kat":"wojewodzka"},"geometry":{"type":"LineString","coordinates":[[18.87887,52.97169],[18.87729,52.97013],[18.87687,52.96986],[18.86497,52.96432],[18.86125,52.96186],[18.85805,52.96065],[18.85624,52.95957],[18.85365,52.95834],[18.85244,52.95742],[18.84984,52.95636],[18.84923,52.95597],[18.84719,52.95423],[18.84649,52.95312],[18.8457,52.95233],[18.8364,52.94585],[18.83545,52.94394],[18.83332,52.94208],[18.83285,52.94151],[18.83272,52.94094],[18.83293,52.93875],[18.8328,52.93816],[18.8325,52.93774],[18.83184,52.93741],[18.83004,52.93686],[18.82578,52.93514],[18.81815,52.93383],[18.81274,52.93223],[18.81213,52.93179],[18.80914,52.92686],[18.80755,52.92597],[18.80547,52.92693],[18.80137,52.92833],[18.79561,52.92844],[18.79388,52.92866],[18.79291,52.92899],[18.79087,52.92991],[18.78726,52.93173],[18.78635,52.93197],[18.78053,52.93096],[18.77807,52.9307],[18.77367,52.92997],[18.77263,52.93003],[18.7649,52.93119],[18.76339,52.93128],[18.75831,52.93118],[18.75142,52.93151],[18.75099,52.93166],[18.74917,52.9328],[18.74863,52.93304],[18.74467,52.93454],[18.74278,52.93574],[18.74001,52.93772],[18.73589,52.93951],[18.73534,52.93989],[18.73318,52.94179],[18.7319,52.94396],[18.73116,52.94476]]}},{"type":"Feature","properties":{"numer":"10","klasa":"droga gĹ‚Ăłwna ruchu przyĹ›pieszonego","kat":"krajowa"},"geometry":{"type":"LineString","coordinates":[[18.83659,53.00732],[18.83591,53.00776],[18.83498,53.00818],[18.81668,53.01538],[18.80105,53.02054]]}},{"type":"Feature","properties":{"numer":"10","klasa":"droga gĹ‚Ăłwna ruchu przyĹ›pieszonego","kat":"krajowa"},"geometry":{"type":"LineString","coordinates":[[18.80105,53.02054],[18.79814,53.02146],[18.79185,53.02283],[18.7912683300512,53.02292340685309]]}}]}