{"type":"FeatureCollection","features":[{"type":"Feature","properties":{"numer":"15","klasa":"droga gĹ‚Ăłwna ruchu przyĹ›pieszonego","kat":"krajowa"},"geometry":{"type":"LineString","coordinates":[[19.04298,53.18863],[19.04139,53.18828],[19.00879,53.18518],[19.002414747575276,53.18449898847973]]}},{"type":"Feature","properties":{"numer":"1724C","klasa":"","kat":"powiatowa"},"geometry":{"type":"LineString","coordinates":[[19.02481,53.22666],[19.02459,53.2266],[19.02304,53.22531],[19.02231,53.22495],[19.02173,53.22431],[19.02086,53.22365],[19.01861,53.22234],[19.01593,53.21962],[19.01529,53.21934],[19.01423,53.21914],[19.01128,53.21883],[19.00834,53.21832],[19.0068,53.21866],[19.00379,53.21886],[19.00032,53.21939]]}},{"type":"Feature","properties":{"numer":"534","klasa":"droga gĹ‚Ăłwna","kat":"wojewodzka"},"geometry":{"type":"LineString","coordinates":[[19.02481,53.22666],[19.02456,53.22618],[19.02442,53.2255],[19.02449,53.22498],[19.02472,53.22444],[19.02894,53.21937]]}},{"type":"Feature","properties":{"numer":"15","klasa":"droga gĹ‚Ăłwna ruchu przyĹ›pieszonego","kat":"krajowa"},"geometry":{"type":"LineString","coordinates":[[19.07811,53.19351],[19.06596,53.19188],[19.06474,53.19149],[19.06304,53.19052],[19.06212,53.19029],[19.04533,53.18866],[19.04298,53.18863]]}},{"type":"Feature","properties":{"numer":"534","klasa":"droga gĹ‚Ăłwna","kat":"wojewodzka"},"geometry":{"type":"LineString","coordinates":[[19.04629672132681,53.17295137573314],[19.04605,53.17814],[19.04525,53.1858],[19.04509,53.18642]]}},{"type":"Feature","properties":{"numer":"070618C,534","klasa":"droga gĹ‚Ăłwna","kat":"powiatowa"},"geometry":{"type":"LineString","coordinates":[[19.04483,53.18684],[19.04509,53.18642]]}},{"type":"Feature","properties":{"numer":"534","klasa":"droga gĹ‚Ăłwna","kat":"wojewodzka"},"geometry":{"type":"LineString","coordinates":[[19.04298,53.18863],[19.04323,53.18818],[19.04483,53.18684]]}},{"type":"Feature","properties":{"numer":"15","klasa":"droga gĹ‚Ăłwna ruchu przyĹ›pieszonego","kat":"krajowa"},"geometry":{"type":"LineString","coordinates":[[19.10024435714286,53.196427053571426],[19.09725,53.19605],[19.07811,53.19351]]}},{"type":"Feature","properties":{"numer":"1729C","klasa":"","kat":"powiatowa"},"geometry":{"type":"LineString","coordinates":[[19.07545,53.19832],[19.07389,53.19908],[19.07417,53.19928],[19.0761,53.20013],[19.07736,53.201],[19.07822,53.20129],[19.07859,53.20126],[19.08006,53.20083],[19.08184,53.20053],[19.08384,53.20044],[19.09007,53.20103],[19.0907,53.20118],[19.09128,53.20146],[19.09684,53.20492],[19.09817,53.20586],[19.09859,53.20638],[19.09939,53.20705],[19.10181,53.2089],[19.1101,53.21558],[19.11211,53.21732],[19.11352,53.21843],[19.11388,53.2186]]}},{"type":"Feature","properties":{"numer":"1726C","klasa":"","kat":"powiatowa"},"geometry":{"type":"LineString","coordinates":[[19.11934,53.2167],[19.1195,53.21639],[19.1195,53.21515]]}},{"type":"Feature","properties":{"numer":"1726C,1730C","klasa":"","kat":"powiatowa"},"geometry":{"type":"LineString","coordinates":[[19.11934,53.2167],[19.11989,53.21678]]}},{"type":"Feature","properties":{"numer":"1730C","klasa":"","kat":"powiatowa"},"geometry":{"type":"LineString","coordinates":[[19.11388,53.2186],[19.11423,53.21832],[19.11934,53.2167]]}},{"type":"Feature","properties":{"numer":"1726C","klasa":"","kat":"powiatowa"},"geometry":{"type":"LineString","coordinates":[[19.11339,53.21896],[19.11513,53.21883],[19.11662,53.21827],[19.11825,53.21781],[19.11967,53.21707],[19.11989,53.2169],[19.11989,53.21678]]}},{"type":"Feature","properties":{"numer":"1730C","klasa":"","kat":"powiatowa"},"geometry":{"type":"LineString","coordinates":[[19.11339,53.21896],[19.11388,53.2186]]}},{"type":"Feature","properties":{"numer":"1729C","klasa":"","kat":"powiatowa"},"geometry":{"type":"LineString","coordinates":[[19.07553,53.19824],[19.07811,53.19351]]}},{"type":"Feature","properties":{"numer":"070630C,1729C","klasa":"","kat":"powiatowa"},"geometry":{"type":"LineString","coordinates":[[19.07545,53.19832],[19.07553,53.19824]]}},{"type":"Feature","properties":{"numer":"070622C,1727C","klasa":"","kat":"powiatowa"},"geometry":{"type":"LineString","coordinates":[[19.0604,53.22289],[19.06063,53.22302]]}},{"type":"Feature","properties":{"numer":"1726C","klasa":"","kat":"powiatowa"},"geometry":{"type":"LineString","coordinates":[[19.06847,53.22931],[19.06889,53.22916],[19.06959,53.22904],[19.07582,53.22844],[19.07792,53.22816],[19.08676,53.22639],[19.0904,53.22589],[19.09092,53.22574],[19.09845,53.22279],[19.10241,53.2211],[19.10377,53.22064],[19.10633,53.21987],[19.10732,53.21966],[19.10812,53.21961],[19.11001,53.21978]]}},{"type":"Feature","properties":{"numer":"1727C","klasa":"","kat":"powiatowa"},"geometry":{"type":"LineString","coordinates":[[19.06063,53.22302],[19.06131,53.22341],[19.06235,53.22427],[19.06376,53.22518],[19.06614,53.22713],[19.0671,53.22772],[19.06824,53.22861],[19.06846,53.22884],[19.06847,53.22931]]}},{"type":"Feature","properties":{"numer":"1727C","klasa":"","kat":"powiatowa"},"geometry":{"type":"LineString","coordinates":[[19.06847,53.22931],[19.06854,53.22944],[19.06837,53.23],[19.0677,53.23188],[19.06727,53.23492],[19.0674,53.23522],[19.06774,53.23562],[19.06994,53.23756],[19.07026,53.23795],[19.07077,53.23956],[19.07076,53.24171],[19.07122,53.24235],[19.07218,53.24278],[19.07788,53.24457],[19.08162,53.2452],[19.08389,53.24598],[19.08616,53.24739],[19.09595,53.25391]]}},{"type":"Feature","properties":{"numer":"548","klasa":"droga gĹ‚Ăłwna","kat":"wojewodzka"},"geometry":{"type":"LineString","coordinates":[[19.02827,53.25017],[19.03066,53.25091],[19.0326,53.25135],[19.04014,53.25216],[19.04825,53.2532],[19.049,53.25336],[19.04999,53.2537],[19.05384,53.25557],[19.05657,53.25714],[19.05845,53.25785],[19.06068,53.25854],[19.09076,53.25977],[19.09116,53.25976],[19.09178,53.25957],[19.0948,53.25782]]}},{"type":"Feature","properties":{"numer":"534","klasa":"droga gĹ‚Ăłwna","kat":"wojewodzka"},"geometry":{"type":"LineString","coordinates":[[19.02894,53.21937],[19.03107,53.21675],[19.03253,53.21345],[19.03361,53.20792],[19.03703,53.2016],[19.03709,53.20107],[19.0369,53.19967],[19.03702,53.19906],[19.04267,53.1895],[19.04298,53.18863]]}},{"type":"Feature","properties":{"numer":"1727C","klasa":"","kat":"powiatowa"},"geometry":{"type":"LineString","coordinates":[[19.02894,53.21937],[19.03714,53.22079],[19.04076,53.22125],[19.05769,53.22226],[19.05946,53.22252],[19.0604,53.22289]]}},{"type":"Feature","properties":{"numer":"1726C","klasa":"","kat":"powiatowa"},"geometry":{"type":"LineString","coordinates":[[19.046,53.23987],[19.04951,53.23945],[19.05187,53.23941],[19.05379,53.23886],[19.05435,53.23851],[19.0614,53.23283],[19.06195,53.23255],[19.06645,53.23085],[19.06847,53.22931]]}},{"type":"Feature","properties":{"numer":"1726C","klasa":"","kat":"powiatowa"},"geometry":{"type":"LineString","coordinates":[[19.04595,53.23987],[19.046,53.23987]]}},{"type":"Feature","properties":{"numer":"1726C","klasa":"","kat":"powiatowa"},"geometry":{"type":"LineString","coordinates":[[19.03061,53.24486],[19.03355,53.2429],[19.03431,53.24254],[19.04595,53.23987]]}},{"type":"Feature","properties":{"numer":"1726C","klasa":"","kat":"powiatowa"},"geometry":{"type":"LineString","coordinates":[[19.11001,53.21978],[19.11193,53.21943],[19.11339,53.21896]]}},{"type":"Feature","properties":{"numer":"1728C","klasa":"","kat":"powiatowa"},"geometry":{"type":"LineString","coordinates":[[19.11001,53.21978],[19.10931,53.22009],[19.10889,53.22041],[19.10854,53.2212],[19.10668,53.22855],[19.10712,53.23031],[19.10709,53.23061],[19.10325,53.23549],[19.10181,53.23829],[19.10176,53.2455],[19.10201,53.24731],[19.10171,53.24877],[19.10154,53.24902],[19.10102,53.24939],[19.09934,53.25042],[19.0984,53.25196],[19.09595,53.25391]]}},{"type":"Feature","properties":{"numer":"548","klasa":"droga gĹ‚Ăłwna","kat":"wojewodzka"},"geometry":{"type":"LineString","coordinates":[[19.0948,53.25782],[19.0957,53.2573],[19.09629,53.2571],[19.11883,53.25282]]}},{"type":"Feature","properties":{"numer":"1728C","klasa":"","kat":"powiatowa"},"geometry":{"type":"LineString","coordinates":[[19.0948,53.25782],[19.09379,53.25718],[19.09321,53.25618],[19.09355,53.25578],[19.09595,53.25391]]}},{"type":"Feature","properties":{"numer":"1424C","klasa":"droga zbiorcza","kat":"powiatowa"},"geometry":{"type":"LineString","coordinates":[[19.112154015693644,53.26635072831763],[19.11869,53.25333],[19.11883,53.25282]]}},{"type":"Feature","properties":{"numer":"1730C","klasa":"","kat":"powiatowa"},"geometry":{"type":"LineString","coordinates":[[19.13165,53.21444],[19.13515,53.21386]]}},{"type":"Feature","properties":{"numer":"1730C","klasa":"","kat":"powiatowa"},"geometry":{"type":"LineString","coordinates":[[19.11989,53.21678],[19.12204,53.21626],[19.12794,53.21504],[19.13165,53.21444]]}},{"type":"Feature","properties":{"numer":"1730C","klasa":"","kat":"powiatowa"},"geometry":{"type":"LineString","coordinates":[[19.13515,53.21386],[19.13686,53.21379],[19.13867608670224,53.21362129249214]]}},{"type":"Feature","properties":{"numer":"548","klasa":"droga gĹ‚Ăłwna","kat":"wojewodzka"},"geometry":{"type":"LineString","coordinates":[[19.11883,53.25282],[19.11946,53.25191],[19.12029,53.25127],[19.13679,53.24249],[19.1369183669161,53.24246238414567]]}},{"type":"Feature","properties":{"numer":"1724C","klasa":"","kat":"powiatowa"},"geometry":{"type":"LineString","coordinates":[[19.00032,53.21939],[18.99813,53.21969],[18.99748,53.21964],[18.99631,53.219],[18.993115410067166,53.21683839124305]]}},{"type":"Feature","properties":{"numer":"534","klasa":"droga gĹ‚Ăłwna","kat":"wojewodzka"},"geometry":{"type":"LineString","coordinates":[[19.03061,53.24486],[19.03016,53.24079],[19.02869,53.23701],[19.02871,53.23627],[19.02919,53.23444],[19.02894,53.23254],[19.02897,53.23128],[19.02885,53.2306],[19.02861,53.23011],[19.02809,53.22953],[19.02622,53.228],[19.02481,53.22666]]}},{"type":"Feature","properties":{"numer":"534","klasa":"droga gĹ‚Ăłwna","kat":"wojewodzka"},"geometry":{"type":"LineString","coordinates":[[19.02827,53.25017],[19.03023,53.24729],[19.03044,53.24656],[19.03061,53.24486]]}},{"type":"Feature","properties":{"numer":"534","klasa":"droga gĹ‚Ăłwna","kat":"wojewodzka"},"geometry":{"type":"LineString","coordinates":[[19.02792,53.25055],[19.02827,53.25017]]}},{"type":"Feature","properties":{"numer":"534,548","klasa":"droga gĹ‚Ăłwna","kat":"gminna"},"geometry":{"type":"LineString","coordinates":[[19.011957286003778,53.25800171219617],[19.01301,53.25772],[19.01885,53.25654],[19.01995,53.25618],[19.02067,53.25582],[19.02392,53.25371],[19.0264,53.25183],[19.02792,53.25055]]}}]}