{"type":"FeatureCollection","features":[{"type":"Feature","properties":{"numer":"2927C","klasa":"droga zbiorcza","kat":"powiatowa"},"geometry":{"type":"LineString","coordinates":[[19.01432,52.46543],[19.02014,52.4658],[19.02774,52.46648],[19.02831,52.46648],[19.03103,52.46599],[19.03162,52.46581],[19.03463,52.46447],[19.03699,52.46361],[19.03864,52.4626],[19.03946,52.46226],[19.04199,52.4616],[19.05211,52.45928],[19.05258,52.45929],[19.05367,52.45977],[19.05595,52.46108],[19.05621,52.46115],[19.05777,52.46103],[19.05773,52.46036],[19.05792,52.46023],[19.06671,52.45863],[19.06744,52.45886],[19.07003,52.45887],[19.07038,52.45893],[19.08113,52.46383],[19.07656,52.47081],[19.07355,52.47493],[19.07212,52.47849],[19.07178,52.47905],[19.06963,52.48082],[19.05329,52.49753],[19.05272,52.49828]]}},{"type":"Feature","properties":{"numer":"269","klasa":"droga zbiorcza","kat":"wojewodzka"},"geometry":{"type":"LineString","coordinates":[[19.01332,52.48257],[19.01597,52.48289],[19.02232,52.48394],[19.03958,52.49026],[19.04014,52.49055],[19.04068,52.49113],[19.0429,52.49284],[19.04424,52.49424],[19.05272,52.49828]]}},{"type":"Feature","properties":{"numer":"269","klasa":"droga zbiorcza","kat":"wojewodzka"},"geometry":{"type":"LineString","coordinates":[[19.05272,52.49828],[19.05345,52.49862]]}},{"type":"Feature","properties":{"numer":"269","klasa":"droga zbiorcza","kat":"wojewodzka"},"geometry":{"type":"LineString","coordinates":[[19.05345,52.49862],[19.05365,52.49871]]}},{"type":"Feature","properties":{"numer":"2921C","klasa":"droga zbiorcza","kat":"powiatowa"},"geometry":{"type":"LineString","coordinates":[[19.04661,52.50509],[19.04787,52.50472],[19.05109,52.50404],[19.06774,52.50187]]}},{"type":"Feature","properties":{"numer":"269","klasa":"droga zbiorcza","kat":"wojewodzka"},"geometry":{"type":"LineString","coordinates":[[19.05365,52.49871],[19.05412,52.49892],[19.05512,52.49913],[19.05758,52.49868],[19.0581,52.49866],[19.0586,52.49874],[19.06774,52.50187]]}},{"type":"Feature","properties":{"numer":"2925C","klasa":"droga zbiorcza","kat":"powiatowa"},"geometry":{"type":"LineString","coordinates":[[19.10699,52.51228],[19.10822,52.51073],[19.10824,52.50788],[19.10841,52.50684],[19.108659909652875,52.50655438896814]]}},{"type":"Feature","properties":{"numer":"269","klasa":"droga zbiorcza","kat":"wojewodzka"},"geometry":{"type":"LineString","coordinates":[[19.08789,52.50679],[19.08978,52.50677],[19.09016,52.50685],[19.09026,52.507],[19.09044,52.50872],[19.0907,52.50893],[19.10699,52.51228]]}},{"type":"Feature","properties":{"numer":"269","klasa":"droga zbiorcza","kat":"wojewodzka"},"geometry":{"type":"LineString","coordinates":[[19.10699,52.51228],[19.10876,52.51257],[19.10987,52.51282563636363]]}},{"type":"Feature","properties":{"numer":"A1","klasa":"autostrada","kat":"krajowa"},"geometry":{"type":"LineString","coordinates":[[19.10066,52.52242],[19.10323,52.52084],[19.10621,52.51852],[19.10834,52.51637],[19.10996431589437,52.51430497824281]]}},{"type":"Feature","properties":{"numer":"A1","klasa":"autostrada","kat":"krajowa"},"geometry":{"type":"LineString","coordinates":[[19.100259329264066,52.522629875147395],[19.10066,52.52242]]}},{"type":"Feature","properties":{"numer":"269","klasa":"droga zbiorcza","kat":"wojewodzka"},"geometry":{"type":"LineString","coordinates":[[19.06774,52.50187],[19.07127,52.50167],[19.07632,52.50288],[19.0771,52.50309],[19.08591,52.50621],[19.08789,52.50679]]}},{"type":"Feature","properties":{"numer":"2922C","klasa":"droga zbiorcza","kat":"powiatowa"},"geometry":{"type":"LineString","coordinates":[[19.08648,52.51794],[19.07951,52.51761],[19.07939,52.51752],[19.07925,52.5163],[19.07907,52.51606],[19.07876,52.5159],[19.06931,52.51278],[19.04661,52.50509]]}},{"type":"Feature","properties":{"numer":"2916C","klasa":"droga zbiorcza","kat":"powiatowa"},"geometry":{"type":"LineString","coordinates":[[19.08789,52.50679],[19.08823,52.51083],[19.08771,52.51176],[19.08648,52.51794]]}},{"type":"Feature","properties":{"numer":"2916C","klasa":"droga zbiorcza","kat":"powiatowa"},"geometry":{"type":"LineString","coordinates":[[19.08648,52.51794],[19.08754,52.52685]]}},{"type":"Feature","properties":{"numer":"A1","klasa":"autostrada","kat":"krajowa"},"geometry":{"type":"LineString","coordinates":[[19.08782,52.52723],[19.09023,52.52654]]}},{"type":"Feature","properties":{"numer":"2916C","klasa":"droga zbiorcza","kat":"powiatowa"},"geometry":{"type":"LineString","coordinates":[[19.08754,52.52685],[19.08759,52.52729]]}},{"type":"Feature","properties":{"numer":"A1","klasa":"autostrada","kat":"krajowa"},"geometry":{"type":"LineString","coordinates":[[19.08759,52.52729],[19.08782,52.52723]]}},{"type":"Feature","properties":{"numer":"A1","klasa":"autostrada","kat":"krajowa"},"geometry":{"type":"LineString","coordinates":[[19.08738,52.52735],[19.08759,52.52729]]}},{"type":"Feature","properties":{"numer":"2916C","klasa":"droga zbiorcza","kat":"powiatowa"},"geometry":{"type":"LineString","coordinates":[[19.08759,52.52729],[19.08775,52.52859]]}},{"type":"Feature","properties":{"numer":"A1","klasa":"autostrada","kat":"krajowa"},"geometry":{"type":"LineString","coordinates":[[19.04734,52.54673],[19.05748,52.53938],[19.06046,52.53749],[19.06473,52.53515],[19.06973,52.53288],[19.07453,52.53109],[19.07932,52.52961],[19.08738,52.52735]]}},{"type":"Feature","properties":{"numer":"190720C,2909C","klasa":"droga zbiorcza","kat":"powiatowa"},"geometry":{"type":"LineString","coordinates":[[19.01264,52.4974],[19.01264,52.49744]]}},{"type":"Feature","properties":{"numer":"2909C","klasa":"droga zbiorcza","kat":"powiatowa"},"geometry":{"type":"LineString","coordinates":[[19.01536,52.52144],[19.01519,52.52119],[19.01436,52.5171],[19.01451,52.5169],[19.01576,52.5162],[19.01591,52.51591],[19.0126,52.50024],[19.01264,52.49744]]}},{"type":"Feature","properties":{"numer":"2921C","klasa":"droga zbiorcza","kat":"powiatowa"},"geometry":{"type":"LineString","coordinates":[[19.01718,52.52075],[19.0179,52.52048],[19.0192,52.52029],[19.04264,52.51266],[19.0428,52.51251],[19.04592,52.50556],[19.04618,52.50529],[19.04661,52.50509]]}},{"type":"Feature","properties":{"numer":"2921C","klasa":"droga zbiorcza","kat":"powiatowa"},"geometry":{"type":"LineString","coordinates":[[19.01699,52.52084],[19.01718,52.52075]]}},{"type":"Feature","properties":{"numer":"2921C","klasa":"droga zbiorcza","kat":"powiatowa"},"geometry":{"type":"LineString","coordinates":[[19.01699,52.52084],[19.01576,52.52138],[19.01536,52.52144]]}},{"type":"Feature","properties":{"numer":"2909C","klasa":"droga zbiorcza","kat":"powiatowa"},"geometry":{"type":"LineString","coordinates":[[19.0129,52.53247],[19.01476,52.52531],[19.01526,52.52164],[19.01536,52.52144]]}},{"type":"Feature","properties":{"numer":"2917C","klasa":"droga zbiorcza","kat":"powiatowa"},"geometry":{"type":"LineString","coordinates":[[19.0129,52.53247],[19.02587,52.5362],[19.02695,52.53632]]}},{"type":"Feature","properties":{"numer":"2917C","klasa":"droga zbiorcza","kat":"powiatowa"},"geometry":{"type":"LineString","coordinates":[[19.02695,52.53632],[19.02705,52.53633]]}},{"type":"Feature","properties":{"numer":"A1","klasa":"autostrada","kat":"krajowa"},"geometry":{"type":"LineString","coordinates":[[19.040616059213885,52.5516255640633],[19.04559,52.54802]]}},{"type":"Feature","properties":{"numer":"A1","klasa":"autostrada","kat":"krajowa"},"geometry":{"type":"LineString","coordinates":[[19.09183,52.52607],[19.09429,52.52527],[19.09651,52.52442],[19.09783953567289,52.52382020947088]]}},{"type":"Feature","properties":{"numer":"A1","klasa":"autostrada","kat":"krajowa"},"geometry":{"type":"LineString","coordinates":[[19.09023,52.52654],[19.09183,52.52607]]}},{"type":"Feature","properties":{"numer":"2917C","klasa":"droga zbiorcza","kat":"powiatowa"},"geometry":{"type":"LineString","coordinates":[[19.08775,52.52859],[19.09208,52.52904],[19.097688969454474,52.52911609934615]]}},{"type":"Feature","properties":{"numer":"2917C","klasa":"droga zbiorcza","kat":"powiatowa"},"geometry":{"type":"LineString","coordinates":[[19.02705,52.53633],[19.028,52.53613],[19.02918,52.53552],[19.02957,52.53542],[19.0625,52.53],[19.07052,52.52657],[19.08278,52.52798],[19.08375,52.52788],[19.08754,52.52685]]}},{"type":"Feature","properties":{"numer":"A1","klasa":"autostrada","kat":"krajowa"},"geometry":{"type":"LineString","coordinates":[[19.04559,52.54802],[19.04734,52.54673]]}},{"type":"Feature","properties":{"numer":"2916C","klasa":"droga zbiorcza","kat":"powiatowa"},"geometry":{"type":"LineString","coordinates":[[19.08775,52.52859],[19.08768,52.52893],[19.08563,52.53126],[19.08508,52.53324],[19.08753235210306,52.540473556562986]]}},{"type":"Feature","properties":{"numer":"2931C","klasa":"droga zbiorcza","kat":"powiatowa"},"geometry":{"type":"LineString","coordinates":[[18.9518,52.46849],[18.9564,52.46791],[18.95949,52.46814]]}},{"type":"Feature","properties":{"numer":"2931C","klasa":"droga zbiorcza","kat":"powiatowa"},"geometry":{"type":"LineString","coordinates":[[18.95156,52.46853],[18.9518,52.46849]]}},{"type":"Feature","properties":{"numer":"2923C","klasa":"droga zbiorcza","kat":"powiatowa"},"geometry":{"type":"LineString","coordinates":[[18.96366,52.4732],[18.96199,52.47076],[18.95949,52.46814]]}},{"type":"Feature","properties":{"numer":"2923C","klasa":"droga zbiorcza","kat":"powiatowa"},"geometry":{"type":"LineString","coordinates":[[18.96374,52.47331],[18.96366,52.4732]]}},{"type":"Feature","properties":{"numer":"2923C","klasa":"droga zbiorcza","kat":"powiatowa"},"geometry":{"type":"LineString","coordinates":[[18.95367631639182,52.478192256807944],[18.95433,52.47803],[18.95792,52.47671],[18.95965,52.47596],[18.96164,52.47496],[18.96345,52.47429],[18.96386,52.4738],[18.96374,52.47331]]}},{"type":"Feature","properties":{"numer":"269","klasa":"droga zbiorcza","kat":"wojewodzka"},"geometry":{"type":"LineString","coordinates":[[19.01408743923358,52.45645092426257],[19.0145,52.46252],[19.01432,52.46543]]}},{"type":"Feature","properties":{"numer":"269","klasa":"droga zbiorcza","kat":"wojewodzka"},"geometry":{"type":"LineString","coordinates":[[19.01432,52.46543],[19.01385,52.47379]]}},{"type":"Feature","properties":{"numer":"269","klasa":"droga zbiorcza","kat":"wojewodzka"},"geometry":{"type":"LineString","coordinates":[[19.01385,52.47379],[19.01332,52.48257]]}},{"type":"Feature","properties":{"numer":"2909C","klasa":"droga zbiorcza","kat":"powiatowa"},"geometry":{"type":"LineString","coordinates":[[19.01264,52.4974],[19.01332,52.48257]]}},{"type":"Feature","properties":{"numer":"2931C","klasa":"droga zbiorcza","kat":"powiatowa"},"geometry":{"type":"LineString","coordinates":[[18.95949,52.46814],[18.96563,52.4687],[18.9697,52.46926],[18.97511,52.46888],[19.01385,52.47379]]}},{"type":"Feature","properties":{"numer":"2909C","klasa":"droga zbiorcza","kat":"powiatowa"},"geometry":{"type":"LineString","coordinates":[[19.00302205642471,52.549219524069976],[19.01217,52.53507],[19.0129,52.53247]]}},{"type":"Feature","properties":{"numer":"2931C","klasa":"droga zbiorcza","kat":"powiatowa"},"geometry":{"type":"LineString","coordinates":[[18.94897490797546,52.468150457334076],[18.95041,52.46855],[18.95084,52.46859],[18.95156,52.46853]]}}]}