{"type":"FeatureCollection","features":[{"type":"Feature","properties":{"numer":"2937C","klasa":"droga zbiorcza","kat":"powiatowa"},"geometry":{"type":"LineString","coordinates":[[19.11092,52.36862],[19.11217,52.36703],[19.11515,52.36417],[19.126342283585895,52.35986666640801]]}},{"type":"Feature","properties":{"numer":"2938C","klasa":"droga zbiorcza","kat":"powiatowa"},"geometry":{"type":"LineString","coordinates":[[19.05566,52.33739],[19.055639943342776,52.33742788479698]]}},{"type":"Feature","properties":{"numer":"2938C","klasa":"droga zbiorcza","kat":"powiatowa"},"geometry":{"type":"LineString","coordinates":[[19.05548688016529,52.33771700413223],[19.05548,52.33773]]}},{"type":"Feature","properties":{"numer":"2938C","klasa":"droga zbiorcza","kat":"powiatowa"},"geometry":{"type":"LineString","coordinates":[[19.02885,52.40339],[19.03014,52.4023],[19.03063,52.40154],[19.03533,52.38455],[19.03537,52.38404],[19.03519,52.38312],[19.03485,52.38157],[19.03448,52.38053],[19.03453,52.37651],[19.03469,52.3759],[19.05548,52.33773]]}},{"type":"Feature","properties":{"numer":"2935C","klasa":"droga zbiorcza","kat":"powiatowa"},"geometry":{"type":"LineString","coordinates":[[19.0309,52.40535],[19.03187,52.40501],[19.05281,52.40417]]}},{"type":"Feature","properties":{"numer":"2938C","klasa":"droga zbiorcza","kat":"powiatowa"},"geometry":{"type":"LineString","coordinates":[[19.05566,52.33739],[19.05757,52.33389],[19.05801,52.33349],[19.0586,52.33318],[19.064402862493136,52.33094203596681]]}},{"type":"Feature","properties":{"numer":"2937C","klasa":"droga zbiorcza","kat":"powiatowa"},"geometry":{"type":"LineString","coordinates":[[19.05281,52.40417],[19.08483,52.38531],[19.08713,52.37825],[19.08729,52.37805],[19.08795,52.37772],[19.11092,52.36862]]}},{"type":"Feature","properties":{"numer":"2935C","klasa":"droga zbiorcza","kat":"powiatowa"},"geometry":{"type":"LineString","coordinates":[[19.05281,52.40417],[19.071493435990334,52.40501908627868]]}},{"type":"Feature","properties":{"numer":"2928C","klasa":"droga zbiorcza","kat":"powiatowa"},"geometry":{"type":"LineString","coordinates":[[19.03081,52.40538],[19.03152,52.40596],[19.03376,52.40644],[19.03469,52.40684],[19.06726,52.42254],[19.07121,52.42481],[19.07308,52.42548],[19.0754,52.42694],[19.0804,52.43046],[19.08098,52.43079],[19.081064592483237,52.43082573353017]]}},{"type":"Feature","properties":{"numer":"2936C","klasa":"droga zbiorcza","kat":"powiatowa"},"geometry":{"type":"LineString","coordinates":[[19.11092,52.36862],[19.11096,52.36882],[19.11077,52.36936],[19.10868,52.375],[19.108679775357924,52.37502392438105]]}},{"type":"Feature","properties":{"numer":"492021P","klasa":"droga lokalna","kat":"powiatowa"},"geometry":{"type":"LineString","coordinates":[[18.99973313700065,52.352796264525466],[18.99975,52.3528]]}},{"type":"Feature","properties":{"numer":"191356C","klasa":"droga lokalna","kat":"powiatowa"},"geometry":{"type":"LineString","coordinates":[[18.99974,52.3528],[19.0052,52.35403],[19.00519,52.35408]]}},{"type":"Feature","properties":{"numer":"2939C","klasa":"droga zbiorcza","kat":"powiatowa"},"geometry":{"type":"LineString","coordinates":[[18.99536,52.3605],[19.00108,52.36505],[19.00339,52.36741],[19.00464,52.36965],[19.00776,52.37332],[19.00808,52.37414],[19.0079,52.37563],[19.00817,52.37629],[19.00977,52.37751],[19.01278,52.38234],[19.01707,52.38713],[19.01728,52.39124],[19.01757,52.39237],[19.01792,52.4021],[19.0177,52.40246],[19.01534,52.40415]]}},{"type":"Feature","properties":{"numer":"2938C","klasa":"droga zbiorcza","kat":"powiatowa"},"geometry":{"type":"LineString","coordinates":[[19.02746,52.40484],[19.02885,52.40339]]}},{"type":"Feature","properties":{"numer":"2928C","klasa":"droga zbiorcza","kat":"powiatowa"},"geometry":{"type":"LineString","coordinates":[[19.02885,52.40339],[19.02981,52.40447],[19.0309,52.40535]]}},{"type":"Feature","properties":{"numer":"2935C","klasa":"droga zbiorcza","kat":"powiatowa"},"geometry":{"type":"LineString","coordinates":[[19.02746,52.40484],[19.03006,52.40558],[19.03037,52.40556],[19.03081,52.40538]]}},{"type":"Feature","properties":{"numer":"269","klasa":"droga zbiorcza","kat":"wojewodzka"},"geometry":{"type":"LineString","coordinates":[[19.01534,52.40415],[19.01529,52.40497],[19.01557,52.40522],[19.01712,52.40597],[19.01937,52.40627]]}},{"type":"Feature","properties":{"numer":"2928C,2935C","klasa":"droga zbiorcza","kat":"powiatowa"},"geometry":{"type":"LineString","coordinates":[[19.03081,52.40538],[19.0309,52.40535]]}},{"type":"Feature","properties":{"numer":"269","klasa":"droga zbiorcza","kat":"wojewodzka"},"geometry":{"type":"LineString","coordinates":[[18.94927,52.38162],[18.95639,52.38475],[18.9581,52.38508]]}},{"type":"Feature","properties":{"numer":"2914C","klasa":"droga zbiorcza","kat":"powiatowa"},"geometry":{"type":"LineString","coordinates":[[18.93948,52.41075],[18.9413,52.40853],[18.94174,52.40754],[18.94294,52.40634],[18.94517,52.40466],[18.95411,52.39411],[18.95691,52.39141],[18.95738,52.39051],[18.95835,52.3881],[18.9581,52.38508]]}},{"type":"Feature","properties":{"numer":"2929C","klasa":"droga zbiorcza","kat":"powiatowa"},"geometry":{"type":"LineString","coordinates":[[18.93416,52.44079],[18.93507,52.44087],[18.93559,52.44081],[18.93967,52.43946],[18.94081,52.43928],[18.95409,52.43891],[18.95777,52.4391],[18.9584,52.43902],[18.9588,52.43889],[18.95972,52.43835],[18.96111,52.43687],[18.96798,52.43105],[18.96866,52.43061],[18.97377,52.42795],[18.97593,52.42701],[18.97938,52.4251],[18.98031,52.4249],[18.98087,52.42489],[18.98314,52.42509],[18.98455,52.42491],[18.99181,52.42218],[18.99257,52.42176],[18.99406,52.42008],[18.99543,52.41928],[18.99711,52.41801],[19.0008,52.41676],[19.00299,52.41634],[19.00359,52.41607],[19.00414,52.41567],[19.00506,52.41476],[19.0055,52.41364],[19.00607,52.41338]]}},{"type":"Feature","properties":{"numer":"269","klasa":"droga gĹ‚Ăłwna","kat":"wojewodzka"},"geometry":{"type":"LineString","coordinates":[[18.94927,52.38162],[18.949192521250165,52.38158499019223]]}},{"type":"Feature","properties":{"numer":"191327C,2914C","klasa":"droga zbiorcza","kat":"powiatowa"},"geometry":{"type":"LineString","coordinates":[[18.93935,52.4108],[18.93948,52.41075]]}},{"type":"Feature","properties":{"numer":"2914C","klasa":"droga zbiorcza","kat":"powiatowa"},"geometry":{"type":"LineString","coordinates":[[18.93722,52.4198],[18.93739,52.41962],[18.93775,52.41858],[18.93935,52.4108]]}},{"type":"Feature","properties":{"numer":"191328C,2914C","klasa":"droga zbiorcza","kat":"powiatowa"},"geometry":{"type":"LineString","coordinates":[[18.93722,52.4198],[18.93178,52.41978]]}},{"type":"Feature","properties":{"numer":"191359C,2929C","klasa":"droga zbiorcza","kat":"powiatowa"},"geometry":{"type":"LineString","coordinates":[[18.93416,52.44079],[18.93291,52.44073]]}},{"type":"Feature","properties":{"numer":"2938C","klasa":"droga zbiorcza","kat":"powiatowa"},"geometry":{"type":"LineString","coordinates":[[19.02526,52.40749],[19.02746,52.40484]]}},{"type":"Feature","properties":{"numer":"269","klasa":"droga zbiorcza","kat":"wojewodzka"},"geometry":{"type":"LineString","coordinates":[[19.01943,52.40627],[19.01937,52.40627]]}},{"type":"Feature","properties":{"numer":"269","klasa":"droga zbiorcza","kat":"wojewodzka"},"geometry":{"type":"LineString","coordinates":[[19.01943,52.40627],[19.0233,52.40668]]}},{"type":"Feature","properties":{"numer":"269","klasa":"droga zbiorcza","kat":"wojewodzka"},"geometry":{"type":"LineString","coordinates":[[19.0233,52.40668],[19.02391,52.407],[19.02526,52.40749]]}},{"type":"Feature","properties":{"numer":"2929C","klasa":"droga zbiorcza","kat":"powiatowa"},"geometry":{"type":"LineString","coordinates":[[19.00628,52.41331],[19.00723,52.41296],[19.00809,52.41278],[19.01193,52.41235],[19.01396,52.41166],[19.01503,52.41143],[19.0185,52.41107],[19.0226,52.40721],[19.0233,52.40668]]}},{"type":"Feature","properties":{"numer":"2929C","klasa":"droga zbiorcza","kat":"powiatowa"},"geometry":{"type":"LineString","coordinates":[[19.00607,52.41338],[19.00628,52.41331]]}},{"type":"Feature","properties":{"numer":"269","klasa":"droga zbiorcza","kat":"wojewodzka"},"geometry":{"type":"LineString","coordinates":[[19.02526,52.40749],[19.02504,52.40779],[19.02498,52.40809],[19.02607,52.42458],[19.02598,52.42523],[19.01436,52.44294],[19.01329,52.44472],[19.014096299066598,52.456581258996195]]}},{"type":"Feature","properties":{"numer":"492022P","klasa":"droga lokalna","kat":"powiatowa"},"geometry":{"type":"LineString","coordinates":[[18.988045444298695,52.355269428168874],[18.98804,52.3553]]}},{"type":"Feature","properties":{"numer":"191357C","klasa":"droga lokalna","kat":"powiatowa"},"geometry":{"type":"LineString","coordinates":[[19.00519,52.35408],[19.00517,52.35427],[19.00257,52.3558]]}},{"type":"Feature","properties":{"numer":"191357C","klasa":"droga lokalna","kat":"powiatowa"},"geometry":{"type":"LineString","coordinates":[[19.00257,52.3558],[19.00243,52.35588]]}},{"type":"Feature","properties":{"numer":"2939C","klasa":"droga zbiorcza","kat":"powiatowa"},"geometry":{"type":"LineString","coordinates":[[18.98804,52.3553],[18.9883,52.35674],[18.98853,52.35706],[18.99464,52.35997],[18.99536,52.3605]]}},{"type":"Feature","properties":{"numer":"191357C","klasa":"droga lokalna","kat":"powiatowa"},"geometry":{"type":"LineString","coordinates":[[19.00243,52.35588],[18.99914,52.3578],[18.99536,52.3605]]}},{"type":"Feature","properties":{"numer":"269","klasa":"droga zbiorcza","kat":"wojewodzka"},"geometry":{"type":"LineString","coordinates":[[18.9581,52.38508],[18.96961,52.38733],[18.97539,52.38826],[18.97817,52.3888],[18.97876,52.38885],[18.98114,52.38871],[18.98184,52.38873],[18.99863,52.39248],[19.00132,52.39347],[19.00971,52.3971],[19.0118,52.39923],[19.01533,52.40311],[19.01542,52.4033],[19.01534,52.40415]]}},{"type":"Feature","properties":{"numer":"2914C","klasa":"droga zbiorcza","kat":"powiatowa"},"geometry":{"type":"LineString","coordinates":[[18.93178,52.41978],[18.92961,52.41974],[18.92400416893736,52.41906469669347]]}},{"type":"Feature","properties":{"numer":"2929C","klasa":"droga zbiorcza","kat":"powiatowa"},"geometry":{"type":"LineString","coordinates":[[18.93291,52.44073],[18.92768,52.44217],[18.925573120124806,52.442613822152886]]}}]}