{"type":"FeatureCollection","features":[{"type":"Feature","properties":{"numer":"1018L","klasa":"droga zbiorcza","kat":"powiatowa"},"geometry":{"type":"LineString","coordinates":[[23.00721,52.08805],[23.00551,52.08921],[22.99823,52.09312],[22.99714,52.09411],[22.99253,52.10667],[22.9925,52.10759],[22.99218,52.10852],[22.98751,52.12081],[22.98751,52.12107],[22.9878,52.12128],[22.99306,52.1231],[22.9944,52.12408],[22.99507,52.1248],[22.99569,52.1252]]}},{"type":"Feature","properties":{"numer":"1020L","klasa":"","kat":"powiatowa"},"geometry":{"type":"LineString","coordinates":[[23.0683,52.10768],[23.06866,52.10792]]}},{"type":"Feature","properties":{"numer":"1022L","klasa":"droga zbiorcza","kat":"powiatowa"},"geometry":{"type":"LineString","coordinates":[[23.06866,52.10792],[23.06917,52.10804]]}},{"type":"Feature","properties":{"numer":"1022L","klasa":"droga zbiorcza","kat":"powiatowa"},"geometry":{"type":"LineString","coordinates":[[23.06826,52.10815],[23.06866,52.10792]]}},{"type":"Feature","properties":{"numer":"1022L","klasa":"droga zbiorcza","kat":"powiatowa"},"geometry":{"type":"LineString","coordinates":[[23.02947,52.12994],[23.0292,52.12853],[23.03035,52.12789],[23.03485,52.12402],[23.03526,52.12376],[23.0398,52.12215],[23.04124,52.12196],[23.04455,52.12116],[23.04634,52.12087],[23.04859,52.12062],[23.04912,52.12046],[23.05062,52.11938],[23.05506,52.11684],[23.0623,52.11167],[23.06826,52.10815]]}},{"type":"Feature","properties":{"numer":"1018L","klasa":"droga zbiorcza","kat":"powiatowa"},"geometry":{"type":"LineString","coordinates":[[22.99569,52.1252],[22.9989,52.12451],[23.00761,52.12159],[23.00819,52.12145],[23.0086,52.12144],[23.01404,52.12285],[23.02015,52.12462],[23.02227,52.12512],[23.0242,52.12595],[23.02664,52.12719]]}},{"type":"Feature","properties":{"numer":"1018L","klasa":"droga zbiorcza","kat":"powiatowa"},"geometry":{"type":"LineString","coordinates":[[23.02664,52.12719],[23.0267,52.12723]]}},{"type":"Feature","properties":{"numer":"1018L","klasa":"droga zbiorcza","kat":"powiatowa"},"geometry":{"type":"LineString","coordinates":[[23.0267,52.12723],[23.02755,52.12799]]}},{"type":"Feature","properties":{"numer":"1018L","klasa":"droga zbiorcza","kat":"powiatowa"},"geometry":{"type":"LineString","coordinates":[[23.02755,52.12799],[23.02758,52.12802]]}},{"type":"Feature","properties":{"numer":"1018L","klasa":"droga zbiorcza","kat":"powiatowa"},"geometry":{"type":"LineString","coordinates":[[23.02758,52.12802],[23.02947,52.12994]]}},{"type":"Feature","properties":{"numer":"1019L","klasa":"","kat":"powiatowa"},"geometry":{"type":"LineString","coordinates":[[22.93443956803684,52.13793606799714],[22.93658,52.13777],[22.9375,52.13761],[22.95621,52.13362],[22.9567,52.13357],[22.95717,52.13367],[22.95747,52.13387],[22.96122,52.1378],[22.9617,52.13795],[22.96244,52.13783],[22.97467,52.13527],[22.97586,52.13495],[22.97646,52.13466],[22.97787,52.13347],[22.97849,52.13307],[22.98991,52.12683],[22.99041,52.12659],[22.99316,52.12568],[22.99569,52.1252]]}},{"type":"Feature","properties":{"numer":"1022L","klasa":"droga zbiorcza","kat":"powiatowa"},"geometry":{"type":"LineString","coordinates":[[22.96966,52.15352],[22.96967,52.15351]]}},{"type":"Feature","properties":{"numer":"2019W","klasa":"droga zbiorcza","kat":"powiatowa"},"geometry":{"type":"LineString","coordinates":[[22.96959954386526,52.15356711087725],[22.96966,52.15352]]}},{"type":"Feature","properties":{"numer":"1018L","klasa":"droga zbiorcza","kat":"powiatowa"},"geometry":{"type":"LineString","coordinates":[[23.013537211439576,52.08356885632915],[23.01033,52.08597],[23.00721,52.08805]]}},{"type":"Feature","properties":{"numer":"1020L","klasa":"","kat":"powiatowa"},"geometry":{"type":"LineString","coordinates":[[23.066416692895363,52.090583867349565],[23.06634,52.09078],[23.05985,52.10169]]}},{"type":"Feature","properties":{"numer":"1021L","klasa":"","kat":"powiatowa"},"geometry":{"type":"LineString","coordinates":[[23.00721,52.08805],[23.03241,52.09447],[23.04125,52.09651],[23.05709,52.1015],[23.05985,52.10169]]}},{"type":"Feature","properties":{"numer":"1020L","klasa":"","kat":"powiatowa"},"geometry":{"type":"LineString","coordinates":[[23.05985,52.10169],[23.06071,52.10194],[23.06465,52.10422],[23.06505,52.1045],[23.0656,52.10518]]}},{"type":"Feature","properties":{"numer":"1020L","klasa":"","kat":"powiatowa"},"geometry":{"type":"LineString","coordinates":[[23.0656,52.10518],[23.06567,52.10528]]}},{"type":"Feature","properties":{"numer":"1020L","klasa":"","kat":"powiatowa"},"geometry":{"type":"LineString","coordinates":[[23.06567,52.10528],[23.06635,52.10624],[23.0683,52.10768]]}},{"type":"Feature","properties":{"numer":"1022L","klasa":"droga zbiorcza","kat":"powiatowa"},"geometry":{"type":"LineString","coordinates":[[23.06917,52.10804],[23.06983,52.10818],[23.07051,52.10814],[23.08043,52.10506],[23.08072,52.1049],[23.093204364959714,52.092213498059444]]}},{"type":"Feature","properties":{"numer":"811","klasa":"droga gĹ‚Ăłwna","kat":"wojewodzka"},"geometry":{"type":"LineString","coordinates":[[23.13797,52.11843],[23.143595527563747,52.11612564657306]]}},{"type":"Feature","properties":{"numer":"811","klasa":"droga gĹ‚Ăłwna","kat":"wojewodzka"},"geometry":{"type":"LineString","coordinates":[[23.127119858325777,52.1400982933543],[23.13215,52.12822],[23.13555,52.11976],[23.13589,52.11939],[23.13637,52.11909],[23.13797,52.11843]]}},{"type":"Feature","properties":{"numer":"1023L","klasa":"","kat":"powiatowa"},"geometry":{"type":"LineString","coordinates":[[23.02972,52.1316],[23.02982,52.13167],[23.03012,52.1333],[23.03,52.13387],[23.03176,52.13591],[23.0322,52.13593],[23.03688,52.13495],[23.03766,52.135],[23.03834,52.13525],[23.04494,52.14306],[23.05385,52.14158],[23.058,52.13968],[23.06664,52.13553],[23.06947,52.13333],[23.06999,52.13314],[23.0708,52.13305],[23.07145,52.13315],[23.07295,52.13403],[23.07379,52.13428],[23.07429,52.13433],[23.07576,52.13423],[23.07659,52.13428],[23.08025,52.13524],[23.0809,52.13535],[23.08266,52.13537],[23.08818,52.13478],[23.08925,52.13451],[23.09212,52.13348],[23.09986,52.13098],[23.1075,52.12871],[23.11031,52.12716],[23.11269,52.12643],[23.11367,52.12603],[23.12534,52.11994],[23.12598,52.11971],[23.1276,52.11944],[23.12842,52.11917],[23.12959,52.11863],[23.13356,52.11649],[23.13538,52.11771],[23.13603,52.11789],[23.13723,52.11786],[23.13797,52.11843]]}},{"type":"Feature","properties":{"numer":"1022L","klasa":"droga zbiorcza","kat":"powiatowa"},"geometry":{"type":"LineString","coordinates":[[23.02972,52.1316],[23.02981,52.13132],[23.02947,52.12994]]}},{"type":"Feature","properties":{"numer":"1022L","klasa":"droga zbiorcza","kat":"powiatowa"},"geometry":{"type":"LineString","coordinates":[[23.02229,52.13936],[23.02249,52.13874],[23.02287,52.13827],[23.02825,52.1328],[23.02972,52.1316]]}},{"type":"Feature","properties":{"numer":"1022L","klasa":"droga zbiorcza","kat":"powiatowa"},"geometry":{"type":"LineString","coordinates":[[22.96967,52.15351],[22.97178,52.15105],[22.97272,52.15041],[22.97378,52.15012],[22.98179,52.14905],[22.98286,52.14882],[22.99016,52.14602],[22.99407,52.14385],[22.99483,52.14356],[23.01779,52.14027],[23.02229,52.13936]]}},{"type":"Feature","properties":{"numer":"1025L","klasa":"","kat":"powiatowa"},"geometry":{"type":"LineString","coordinates":[[23.02229,52.13936],[23.01822,52.15603],[23.01828,52.15797]]}},{"type":"Feature","properties":{"numer":"1024L","klasa":"","kat":"powiatowa"},"geometry":{"type":"LineString","coordinates":[[22.9927,52.17361],[22.99301,52.17282],[22.99303,52.17013],[22.99355,52.16909],[22.99407,52.16864],[22.99887,52.1661],[23.01828,52.15797]]}},{"type":"Feature","properties":{"numer":"1025L","klasa":"","kat":"powiatowa"},"geometry":{"type":"LineString","coordinates":[[23.01828,52.15797],[23.02335,52.1733],[23.023844881527104,52.17415119622662]]}},{"type":"Feature","properties":{"numer":"1024L","klasa":"","kat":"powiatowa"},"geometry":{"type":"LineString","coordinates":[[22.992704784633293,52.1736152153667],[22.99271,52.17361]]}}]}