{"type":"FeatureCollection","features":[{"type":"Feature","properties":{"numer":"1031L","klasa":"droga zbiorcza","kat":"powiatowa"},"geometry":{"type":"LineString","coordinates":[[23.150893476798412,52.11288859643758],[23.15098,52.11295],[23.15757,52.12121],[23.15956,52.12833],[23.16433,52.13966],[23.16479,52.14035],[23.16528,52.14079],[23.166,52.14124],[23.1761,52.14526],[23.17714,52.1458],[23.17783,52.14639],[23.18183,52.15128]]}},{"type":"Feature","properties":{"numer":"1035L","klasa":"droga zbiorcza","kat":"powiatowa"},"geometry":{"type":"LineString","coordinates":[[23.19711216199019,52.145306864422736],[23.19292,52.14696],[23.18478,52.1505],[23.18183,52.15128]]}},{"type":"Feature","properties":{"numer":"1031L","klasa":"droga zbiorcza","kat":"powiatowa"},"geometry":{"type":"LineString","coordinates":[[23.18183,52.15128],[23.18976,52.16093]]}},{"type":"Feature","properties":{"numer":"1030L","klasa":"","kat":"powiatowa"},"geometry":{"type":"LineString","coordinates":[[23.141213726646097,52.15871994453083],[23.14344,52.15855],[23.14467,52.15915],[23.14868,52.16141],[23.14937,52.16167],[23.15024,52.1619],[23.1527,52.16223],[23.15583,52.1629],[23.15579,52.16657],[23.15587,52.16728],[23.15643,52.16771],[23.15873,52.16901],[23.15969,52.16943],[23.16556,52.16798],[23.16569,52.16782],[23.16528,52.16713],[23.16538,52.16696],[23.1657,52.16686],[23.1697,52.16578],[23.17541,52.16448],[23.18976,52.16093]]}},{"type":"Feature","properties":{"numer":"1031L","klasa":"droga zbiorcza","kat":"powiatowa"},"geometry":{"type":"LineString","coordinates":[[23.18976,52.16093],[23.19835,52.17134],[23.19888,52.17214],[23.19863,52.17476],[23.19788,52.17913],[23.19662,52.18237],[23.19584,52.18601],[23.19583,52.18654],[23.19627,52.1876],[23.19664,52.18796],[23.19925,52.18932],[23.19997,52.18953],[23.2025,52.18975],[23.20285,52.18992],[23.20372,52.1907],[23.2042,52.19095],[23.20698,52.19214],[23.21021,52.1933]]}},{"type":"Feature","properties":{"numer":"1029L","klasa":"","kat":"powiatowa"},"geometry":{"type":"LineString","coordinates":[[23.1496,52.18011],[23.15454,52.18777],[23.15453,52.18844],[23.15334,52.1897],[23.15324,52.19037],[23.15596,52.19455]]}},{"type":"Feature","properties":{"numer":"1029L","klasa":"","kat":"powiatowa"},"geometry":{"type":"LineString","coordinates":[[23.15596,52.19455],[23.15599,52.1946]]}},{"type":"Feature","properties":{"numer":"1029L","klasa":"","kat":"powiatowa"},"geometry":{"type":"LineString","coordinates":[[23.143013115168287,52.17047184214359],[23.14413,52.17085],[23.14476,52.17131],[23.14525,52.17191],[23.14541,52.17362],[23.1496,52.18011]]}},{"type":"Feature","properties":{"numer":"1036L","klasa":"droga zbiorcza","kat":"powiatowa"},"geometry":{"type":"LineString","coordinates":[[23.315729245308358,52.158273519182366],[23.31884,52.15901],[23.31981,52.15941],[23.32048,52.15987],[23.32136,52.16098],[23.33068,52.17517]]}},{"type":"Feature","properties":{"numer":"1034L","klasa":"","kat":"powiatowa"},"geometry":{"type":"LineString","coordinates":[[23.273087795933645,52.16225559311463],[23.27318,52.16227],[23.27413,52.16324],[23.28719,52.17523]]}},{"type":"Feature","properties":{"numer":"698","klasa":"droga gĹ‚Ăłwna","kat":"wojewodzka"},"geometry":{"type":"LineString","coordinates":[[23.33068,52.17517],[23.34897,52.17251],[23.353866798174742,52.17119354916687]]}},{"type":"Feature","properties":{"numer":"100085L","klasa":"droga lokalna","kat":"powiatowa"},"geometry":{"type":"LineString","coordinates":[[23.28719,52.17523],[23.29965,52.1766]]}},{"type":"Feature","properties":{"numer":"100085L","klasa":"droga lokalna","kat":"powiatowa"},"geometry":{"type":"LineString","coordinates":[[23.29965,52.1766],[23.30068,52.17839]]}},{"type":"Feature","properties":{"numer":"100085L","klasa":"droga lokalna","kat":"powiatowa"},"geometry":{"type":"LineString","coordinates":[[23.30068,52.17839],[23.30086,52.17881]]}},{"type":"Feature","properties":{"numer":"698","klasa":"droga gĹ‚Ăłwna","kat":"wojewodzka"},"geometry":{"type":"LineString","coordinates":[[23.30542,52.18383],[23.32466,52.17617],[23.32594,52.17585],[23.33068,52.17517]]}},{"type":"Feature","properties":{"numer":"100085L","klasa":"droga lokalna","kat":"powiatowa"},"geometry":{"type":"LineString","coordinates":[[23.30086,52.17881],[23.30172,52.18023],[23.30204,52.1815]]}},{"type":"Feature","properties":{"numer":"100085L","klasa":"droga lokalna","kat":"powiatowa"},"geometry":{"type":"LineString","coordinates":[[23.30204,52.1815],[23.30312,52.18216]]}},{"type":"Feature","properties":{"numer":"100085L","klasa":"droga lokalna","kat":"powiatowa"},"geometry":{"type":"LineString","coordinates":[[23.30312,52.18216],[23.30428,52.18287],[23.30542,52.18383]]}},{"type":"Feature","properties":{"numer":"698","klasa":"droga gĹ‚Ăłwna","kat":"wojewodzka"},"geometry":{"type":"LineString","coordinates":[[23.29089,52.18776],[23.30122,52.18543],[23.30303,52.18479],[23.30542,52.18383]]}},{"type":"Feature","properties":{"numer":"1033L","klasa":"","kat":"powiatowa"},"geometry":{"type":"LineString","coordinates":[[23.29089,52.18776],[23.29716,52.18966],[23.30006,52.19022],[23.30093,52.19034],[23.30191,52.19038],[23.31353,52.18951],[23.32273,52.18766],[23.32862,52.18702]]}},{"type":"Feature","properties":{"numer":"698","klasa":"droga gĹ‚Ăłwna","kat":"wojewodzka"},"geometry":{"type":"LineString","coordinates":[[23.27317,52.19143],[23.27439,52.19139],[23.27542,52.19123],[23.29089,52.18776]]}},{"type":"Feature","properties":{"numer":"1033L","klasa":"","kat":"powiatowa"},"geometry":{"type":"LineString","coordinates":[[23.32862,52.18702],[23.34199,52.193],[23.34279,52.19203],[23.34314,52.19124],[23.34734,52.18911],[23.34738,52.18877],[23.34784,52.18862],[23.34854,52.18855],[23.35053,52.1888],[23.35093,52.18869],[23.35234,52.18803],[23.35252,52.18807],[23.35341,52.18879],[23.35846,52.19213]]}},{"type":"Feature","properties":{"numer":"698","klasa":"droga gĹ‚Ăłwna","kat":"wojewodzka"},"geometry":{"type":"LineString","coordinates":[[23.25638,52.19045],[23.25652,52.19044]]}},{"type":"Feature","properties":{"numer":"698","klasa":"droga gĹ‚Ăłwna","kat":"wojewodzka"},"geometry":{"type":"LineString","coordinates":[[23.25652,52.19044],[23.2611,52.18982],[23.26325,52.18979],[23.26559,52.19015],[23.27179,52.1913],[23.27296,52.19143]]}},{"type":"Feature","properties":{"numer":"698","klasa":"droga gĹ‚Ăłwna","kat":"wojewodzka"},"geometry":{"type":"LineString","coordinates":[[23.27296,52.19143],[23.27317,52.19143]]}},{"type":"Feature","properties":{"numer":"698","klasa":"droga gĹ‚Ăłwna","kat":"wojewodzka"},"geometry":{"type":"LineString","coordinates":[[23.129156372865616,52.206793493308716],[23.13278,52.20683],[23.13382,52.2069],[23.14816,52.20857],[23.16492,52.20693]]}},{"type":"Feature","properties":{"numer":"698","klasa":"droga gĹ‚Ăłwna","kat":"wojewodzka"},"geometry":{"type":"LineString","coordinates":[[23.20685,52.19712],[23.20761,52.19612],[23.21021,52.1933]]}},{"type":"Feature","properties":{"numer":"698","klasa":"droga gĹ‚Ăłwna","kat":"wojewodzka"},"geometry":{"type":"LineString","coordinates":[[23.19918,52.20038],[23.20008,52.20016],[23.20391,52.2001],[23.20429,52.20001],[23.20476,52.19966],[23.20685,52.19712]]}},{"type":"Feature","properties":{"numer":"698","klasa":"droga gĹ‚Ăłwna","kat":"wojewodzka"},"geometry":{"type":"LineString","coordinates":[[23.19905,52.20043],[23.19918,52.20038]]}},{"type":"Feature","properties":{"numer":"1029L","klasa":"","kat":"powiatowa"},"geometry":{"type":"LineString","coordinates":[[23.15599,52.1946],[23.15744,52.1967],[23.15799,52.19714],[23.15873,52.19745],[23.1606,52.19778],[23.17062,52.19919],[23.17083,52.19943],[23.16772,52.20349],[23.16492,52.20693]]}},{"type":"Feature","properties":{"numer":"698","klasa":"droga gĹ‚Ăłwna","kat":"wojewodzka"},"geometry":{"type":"LineString","coordinates":[[23.19544,52.2025],[23.19905,52.20043]]}},{"type":"Feature","properties":{"numer":"1032L","klasa":"","kat":"powiatowa"},"geometry":{"type":"LineString","coordinates":[[23.23058,52.20898],[23.21505,52.19951],[23.20886,52.19784],[23.20685,52.19712]]}},{"type":"Feature","properties":{"numer":"698","klasa":"droga gĹ‚Ăłwna","kat":"wojewodzka"},"geometry":{"type":"LineString","coordinates":[[23.16492,52.20693],[23.19242,52.20419],[23.19294,52.20408],[23.19354,52.20382],[23.19544,52.2025]]}},{"type":"Feature","properties":{"numer":"1027L","klasa":"droga zbiorcza","kat":"powiatowa"},"geometry":{"type":"LineString","coordinates":[[23.18451,52.23095],[23.18506,52.22418],[23.19694,52.20311],[23.19699,52.20291],[23.19691,52.20281],[23.19544,52.2025]]}},{"type":"Feature","properties":{"numer":"1028L","klasa":"","kat":"powiatowa"},"geometry":{"type":"LineString","coordinates":[[23.1514,52.23585],[23.15186,52.23589],[23.15757,52.23422],[23.17121,52.23],[23.17157,52.2301],[23.17223,52.23119],[23.17265,52.23131],[23.18451,52.23095]]}},{"type":"Feature","properties":{"numer":"1027L","klasa":"droga zbiorcza","kat":"powiatowa"},"geometry":{"type":"LineString","coordinates":[[23.17353260539919,52.265421840900004],[23.17364,52.26533],[23.19064,52.25378],[23.19084,52.25335],[23.19065,52.25287],[23.18457,52.24677],[23.18429,52.24627],[23.18428,52.23908],[23.18451,52.23095]]}},{"type":"Feature","properties":{"numer":"1028L","klasa":"","kat":"powiatowa"},"geometry":{"type":"LineString","coordinates":[[23.13245662042434,52.22036142224295],[23.13246,52.22037],[23.13144262317835,52.2211821165857]]}},{"type":"Feature","properties":{"numer":"1028L","klasa":"","kat":"powiatowa"},"geometry":{"type":"LineString","coordinates":[[23.131040617283947,52.22172395061729],[23.13078252747253,52.222134065934064]]}},{"type":"Feature","properties":{"numer":"1028L","klasa":"","kat":"powiatowa"},"geometry":{"type":"LineString","coordinates":[[23.130187464788737,52.22556211267606],[23.13022,52.22559],[23.13083,52.22572],[23.1354,52.22729],[23.138023821339896,52.228327717121566]]}},{"type":"Feature","properties":{"numer":"1028L","klasa":"","kat":"powiatowa"},"geometry":{"type":"LineString","coordinates":[[23.139285195312542,52.2287442529297],[23.14131,52.22933],[23.14358,52.23026],[23.14485,52.23091],[23.14919,52.23352],[23.15022,52.23437],[23.15125,52.23583],[23.1514,52.23585]]}},{"type":"Feature","properties":{"numer":"698","klasa":"droga gĹ‚Ăłwna","kat":"wojewodzka"},"geometry":{"type":"LineString","coordinates":[[23.21021,52.1933],[23.21199,52.19393],[23.21222,52.19394],[23.22369,52.19177],[23.23039,52.19055],[23.23202,52.19034],[23.24029,52.19028],[23.25461,52.19052],[23.25638,52.19045]]}},{"type":"Feature","properties":{"numer":"1033L","klasa":"","kat":"powiatowa"},"geometry":{"type":"LineString","coordinates":[[23.36684047570045,52.184543572197015],[23.36683,52.18456],[23.36409,52.18554],[23.36336,52.18598],[23.36267,52.18974]]}},{"type":"Feature","properties":{"numer":"1033L","klasa":"","kat":"powiatowa"},"geometry":{"type":"LineString","coordinates":[[23.35846,52.19213],[23.35975,52.19287],[23.36002,52.19283],[23.36131,52.19114],[23.36257,52.19016],[23.36267,52.18974]]}}]}