{"type":"FeatureCollection","features":[{"type":"Feature","properties":{"numer":"1839L","klasa":"droga zbiorcza","kat":"powiatowa"},"geometry":{"type":"LineString","coordinates":[[23.51683,51.06874],[23.52139,51.05894],[23.521367855451135,51.05836809295539]]}},{"type":"Feature","properties":{"numer":"114277L,1835L","klasa":"droga zbiorcza","kat":"powiatowa"},"geometry":{"type":"LineString","coordinates":[[23.48016,51.06415],[23.479340599638302,51.05479106574831]]}},{"type":"Feature","properties":{"numer":"114276L,114277L,1835L","klasa":"droga zbiorcza","kat":"powiatowa"},"geometry":{"type":"LineString","coordinates":[[23.48017,51.06424],[23.48016,51.06415]]}},{"type":"Feature","properties":{"numer":"114277L,1835L","klasa":"droga zbiorcza","kat":"powiatowa"},"geometry":{"type":"LineString","coordinates":[[23.48039,51.06739],[23.48017,51.06424]]}},{"type":"Feature","properties":{"numer":"1840L","klasa":"droga zbiorcza","kat":"powiatowa"},"geometry":{"type":"LineString","coordinates":[[23.51683,51.06874],[23.50371,51.06901],[23.48039,51.06739]]}},{"type":"Feature","properties":{"numer":"1839L","klasa":"droga zbiorcza","kat":"powiatowa"},"geometry":{"type":"LineString","coordinates":[[23.51592,51.07199],[23.51683,51.06874]]}},{"type":"Feature","properties":{"numer":"1835L","klasa":"droga zbiorcza","kat":"powiatowa"},"geometry":{"type":"LineString","coordinates":[[23.48039,51.06739],[23.48107,51.07599]]}},{"type":"Feature","properties":{"numer":"843","klasa":"droga zbiorcza","kat":"wojewodzka"},"geometry":{"type":"LineString","coordinates":[[23.43043,51.07175],[23.42707,51.06679],[23.42678,51.06616],[23.42536,51.05464],[23.42486,51.04944],[23.42471,51.0489],[23.419556922099304,51.04206487969021]]}},{"type":"Feature","properties":{"numer":"1834L","klasa":"droga zbiorcza","kat":"powiatowa"},"geometry":{"type":"LineString","coordinates":[[23.35577700393348,51.06594331097915],[23.35589,51.06591],[23.35839,51.0654],[23.36658,51.06438],[23.37343,51.06342],[23.37538,51.06348],[23.38798,51.06427],[23.39253,51.06485],[23.39568,51.06959],[23.39705,51.07147],[23.39765,51.07271],[23.39778,51.07365],[23.39773,51.07894]]}},{"type":"Feature","properties":{"numer":"843","klasa":"droga zbiorcza","kat":"wojewodzka"},"geometry":{"type":"LineString","coordinates":[[23.43047,51.0718],[23.43043,51.07175]]}},{"type":"Feature","properties":{"numer":"843","klasa":"droga zbiorcza","kat":"wojewodzka"},"geometry":{"type":"LineString","coordinates":[[23.43549,51.08311],[23.43208,51.07425],[23.43047,51.0718]]}},{"type":"Feature","properties":{"numer":"1834L","klasa":"droga zbiorcza","kat":"powiatowa"},"geometry":{"type":"LineString","coordinates":[[23.39773,51.07894],[23.40588,51.07971],[23.40762,51.07981],[23.43549,51.08311]]}},{"type":"Feature","properties":{"numer":"115507L,1835L","klasa":"droga zbiorcza","kat":"powiatowa"},"geometry":{"type":"LineString","coordinates":[[23.47181,51.082],[23.47176,51.08205]]}},{"type":"Feature","properties":{"numer":"1835L","klasa":"droga zbiorcza","kat":"powiatowa"},"geometry":{"type":"LineString","coordinates":[[23.47176,51.08205],[23.47155,51.08249],[23.47153,51.083],[23.47304,51.08836],[23.47354,51.08934],[23.47356,51.08971]]}},{"type":"Feature","properties":{"numer":"1839L","klasa":"droga zbiorcza","kat":"powiatowa"},"geometry":{"type":"LineString","coordinates":[[23.5159,51.07204],[23.51592,51.07199]]}},{"type":"Feature","properties":{"numer":"1840L","klasa":"droga zbiorcza","kat":"powiatowa"},"geometry":{"type":"LineString","coordinates":[[23.53534401580307,51.06799369994002],[23.53488,51.06815],[23.534,51.06835],[23.53018,51.06863],[23.52348,51.0686],[23.51683,51.06874]]}},{"type":"Feature","properties":{"numer":"1835L","klasa":"droga zbiorcza","kat":"powiatowa"},"geometry":{"type":"LineString","coordinates":[[23.48107,51.07599],[23.48116,51.0761]]}},{"type":"Feature","properties":{"numer":"1835L","klasa":"droga zbiorcza","kat":"powiatowa"},"geometry":{"type":"LineString","coordinates":[[23.48107,51.07599],[23.48088,51.07617]]}},{"type":"Feature","properties":{"numer":"105049L","klasa":"droga lokalna","kat":"powiatowa"},"geometry":{"type":"LineString","coordinates":[[23.48088,51.07617],[23.48116,51.0761]]}},{"type":"Feature","properties":{"numer":"1839L","klasa":"droga zbiorcza","kat":"powiatowa"},"geometry":{"type":"LineString","coordinates":[[23.5159,51.07204],[23.51263,51.08366]]}},{"type":"Feature","properties":{"numer":"1835L","klasa":"droga zbiorcza","kat":"powiatowa"},"geometry":{"type":"LineString","coordinates":[[23.48088,51.07617],[23.47306,51.07648],[23.47375,51.08045],[23.47339,51.08104],[23.47215,51.08172],[23.47181,51.082]]}},{"type":"Feature","properties":{"numer":"1839L","klasa":"droga zbiorcza","kat":"powiatowa"},"geometry":{"type":"LineString","coordinates":[[23.51263,51.08366],[23.51261,51.08373]]}},{"type":"Feature","properties":{"numer":"1839L","klasa":"droga zbiorcza","kat":"powiatowa"},"geometry":{"type":"LineString","coordinates":[[23.51261,51.08373],[23.51139,51.08807],[23.51143,51.08865]]}},{"type":"Feature","properties":{"numer":"105042L","klasa":"droga lokalna","kat":"powiatowa"},"geometry":{"type":"LineString","coordinates":[[23.47356,51.08971],[23.47382,51.08975]]}},{"type":"Feature","properties":{"numer":"1839L","klasa":"droga zbiorcza","kat":"powiatowa"},"geometry":{"type":"LineString","coordinates":[[23.51143,51.08865],[23.51391,51.09295]]}},{"type":"Feature","properties":{"numer":"843","klasa":"droga zbiorcza","kat":"wojewodzka"},"geometry":{"type":"LineString","coordinates":[[23.45082,51.10049],[23.44865,51.09892],[23.44801,51.09833],[23.44547,51.09441],[23.44451,51.09328],[23.4368,51.08612],[23.43642,51.08554],[23.43549,51.08311]]}},{"type":"Feature","properties":{"numer":"1835L","klasa":"droga zbiorcza","kat":"powiatowa"},"geometry":{"type":"LineString","coordinates":[[23.47356,51.08971],[23.47345,51.08999],[23.47312,51.09024],[23.46463,51.09416]]}},{"type":"Feature","properties":{"numer":"114291L,1835L","klasa":"droga zbiorcza","kat":"powiatowa"},"geometry":{"type":"LineString","coordinates":[[23.46463,51.09416],[23.46325,51.09478]]}},{"type":"Feature","properties":{"numer":"1833L","klasa":"","kat":"powiatowa"},"geometry":{"type":"LineString","coordinates":[[23.361998421685033,51.10574732367868],[23.36371,51.10015],[23.363788448275862,51.099961724137934]]}},{"type":"Feature","properties":{"numer":"1833L","klasa":"","kat":"powiatowa"},"geometry":{"type":"LineString","coordinates":[[23.364038590272056,51.099648359439406],[23.36444,51.09933],[23.36464,51.09898],[23.36449,51.0984],[23.3642,51.09806],[23.36402,51.09797]]}},{"type":"Feature","properties":{"numer":"1833L","klasa":"","kat":"powiatowa"},"geometry":{"type":"LineString","coordinates":[[23.36402,51.09797],[23.36378,51.09785],[23.36304,51.09774],[23.3628,51.09759],[23.36237143862736,51.09637428508578]]}},{"type":"Feature","properties":{"numer":"1833L","klasa":"","kat":"powiatowa"},"geometry":{"type":"LineString","coordinates":[[23.362320305154025,51.09620030656065],[23.37105,51.09646],[23.37305,51.09644],[23.37581,51.09598],[23.37904,51.09507],[23.37868,51.09298],[23.37881,51.09237],[23.37933,51.09173],[23.38289,51.08853],[23.38505,51.0834],[23.39033,51.08263],[23.39096,51.08241],[23.39136,51.08212],[23.39391,51.0788],[23.39486,51.07875],[23.39773,51.07894]]}},{"type":"Feature","properties":{"numer":"1835L","klasa":"droga zbiorcza","kat":"powiatowa"},"geometry":{"type":"LineString","coordinates":[[23.46325,51.09478],[23.45082,51.10049]]}},{"type":"Feature","properties":{"numer":"1838L","klasa":"droga zbiorcza","kat":"powiatowa"},"geometry":{"type":"LineString","coordinates":[[23.45878,51.11081],[23.4618,51.10942],[23.47643,51.10171],[23.48002,51.10034]]}},{"type":"Feature","properties":{"numer":"843","klasa":"droga zbiorcza","kat":"wojewodzka"},"geometry":{"type":"LineString","coordinates":[[23.45878,51.11081],[23.45432,51.1035],[23.45364,51.1028],[23.45082,51.10049]]}},{"type":"Feature","properties":{"numer":"1832L","klasa":"","kat":"powiatowa"},"geometry":{"type":"LineString","coordinates":[[23.42403,51.10783],[23.42282,51.1079],[23.4221,51.10784],[23.41618,51.10654],[23.40575,51.10684],[23.40437,51.10705]]}},{"type":"Feature","properties":{"numer":"104649L","klasa":"droga lokalna","kat":"powiatowa"},"geometry":{"type":"LineString","coordinates":[[23.42413,51.10867],[23.42403,51.10783]]}},{"type":"Feature","properties":{"numer":"104649L","klasa":"droga lokalna","kat":"powiatowa"},"geometry":{"type":"LineString","coordinates":[[23.42415,51.10887],[23.42413,51.10867]]}},{"type":"Feature","properties":{"numer":"105042L","klasa":"droga lokalna","kat":"powiatowa"},"geometry":{"type":"LineString","coordinates":[[23.47594,51.09341],[23.47382,51.08975]]}},{"type":"Feature","properties":{"numer":"1838L","klasa":"droga zbiorcza","kat":"powiatowa"},"geometry":{"type":"LineString","coordinates":[[23.4953,51.09454],[23.50129,51.09216],[23.51143,51.08865]]}},{"type":"Feature","properties":{"numer":"1839L","klasa":"droga zbiorcza","kat":"powiatowa"},"geometry":{"type":"LineString","coordinates":[[23.51391,51.09295],[23.51395,51.09302]]}},{"type":"Feature","properties":{"numer":"105042L","klasa":"droga lokalna","kat":"powiatowa"},"geometry":{"type":"LineString","coordinates":[[23.47605,51.0936],[23.47594,51.09341]]}},{"type":"Feature","properties":{"numer":"112713L","klasa":"droga lokalna","kat":"powiatowa"},"geometry":{"type":"LineString","coordinates":[[23.4953,51.09454],[23.49555,51.09493]]}},{"type":"Feature","properties":{"numer":"112713L","klasa":"droga lokalna","kat":"powiatowa"},"geometry":{"type":"LineString","coordinates":[[23.49555,51.09493],[23.49505,51.09566]]}},{"type":"Feature","properties":{"numer":"105042L","klasa":"droga lokalna","kat":"powiatowa"},"geometry":{"type":"LineString","coordinates":[[23.48002,51.10034],[23.47605,51.0936]]}},{"type":"Feature","properties":{"numer":"1838L","klasa":"droga zbiorcza","kat":"powiatowa"},"geometry":{"type":"LineString","coordinates":[[23.48002,51.10034],[23.4953,51.09454]]}},{"type":"Feature","properties":{"numer":"112713L","klasa":"droga lokalna","kat":"powiatowa"},"geometry":{"type":"LineString","coordinates":[[23.49505,51.09566],[23.49152,51.10089],[23.49001,51.10293]]}},{"type":"Feature","properties":{"numer":"112713L","klasa":"droga lokalna","kat":"powiatowa"},"geometry":{"type":"LineString","coordinates":[[23.48971,51.10333],[23.49001,51.10293]]}},{"type":"Feature","properties":{"numer":"105060L","klasa":"droga lokalna","kat":"powiatowa"},"geometry":{"type":"LineString","coordinates":[[23.48002,51.10034],[23.48327,51.10597]]}},{"type":"Feature","properties":{"numer":"1839L","klasa":"droga zbiorcza","kat":"powiatowa"},"geometry":{"type":"LineString","coordinates":[[23.51395,51.09302],[23.51681,51.09788],[23.51994,51.10182],[23.522138684876662,51.11386324689199]]}},{"type":"Feature","properties":{"numer":"105060L","klasa":"droga lokalna","kat":"powiatowa"},"geometry":{"type":"LineString","coordinates":[[23.48327,51.10597],[23.48407,51.1073]]}},{"type":"Feature","properties":{"numer":"105060L","klasa":"droga lokalna","kat":"powiatowa"},"geometry":{"type":"LineString","coordinates":[[23.48407,51.1073],[23.4841,51.10788]]}},{"type":"Feature","properties":{"numer":"105060L","klasa":"droga lokalna","kat":"powiatowa"},"geometry":{"type":"LineString","coordinates":[[23.4841,51.10788],[23.48386,51.10915]]}},{"type":"Feature","properties":{"numer":"105060L","klasa":"droga lokalna","kat":"powiatowa"},"geometry":{"type":"LineString","coordinates":[[23.48386,51.10915],[23.48381,51.10943]]}},{"type":"Feature","properties":{"numer":"105060L","klasa":"droga lokalna","kat":"powiatowa"},"geometry":{"type":"LineString","coordinates":[[23.48381,51.10943],[23.48377,51.10967]]}},{"type":"Feature","properties":{"numer":"1925L","klasa":"","kat":"powiatowa"},"geometry":{"type":"LineString","coordinates":[[23.488746063651586,51.104914639866],[23.48905,51.10415],[23.48971,51.10333]]}},{"type":"Feature","properties":{"numer":"105060L","klasa":"droga lokalna","kat":"powiatowa"},"geometry":{"type":"LineString","coordinates":[[23.48377,51.10967],[23.48369,51.11011]]}},{"type":"Feature","properties":{"numer":"105060L","klasa":"droga lokalna","kat":"powiatowa"},"geometry":{"type":"LineString","coordinates":[[23.48369,51.11011],[23.48362,51.11048]]}},{"type":"Feature","properties":{"numer":"105060L","klasa":"droga lokalna","kat":"powiatowa"},"geometry":{"type":"LineString","coordinates":[[23.48362,51.11048],[23.48355,51.11082]]}},{"type":"Feature","properties":{"numer":"105060L","klasa":"droga lokalna","kat":"powiatowa"},"geometry":{"type":"LineString","coordinates":[[23.48355,51.11082],[23.48343,51.1116],[23.4835,51.11338]]}},{"type":"Feature","properties":{"numer":"104666L","klasa":"droga lokalna","kat":"powiatowa"},"geometry":{"type":"LineString","coordinates":[[23.4835,51.11338],[23.4834,51.11339]]}},{"type":"Feature","properties":{"numer":"104666L","klasa":"droga lokalna","kat":"powiatowa"},"geometry":{"type":"LineString","coordinates":[[23.4834,51.11339],[23.483360131608805,51.11339132894638]]}},{"type":"Feature","properties":{"numer":"104666L","klasa":"droga lokalna","kat":"powiatowa"},"geometry":{"type":"LineString","coordinates":[[23.481687733333207,51.11346046666667],[23.47986,51.11353]]}},{"type":"Feature","properties":{"numer":"104666L","klasa":"droga lokalna","kat":"powiatowa"},"geometry":{"type":"LineString","coordinates":[[23.47986,51.11353],[23.47948,51.11355]]}},{"type":"Feature","properties":{"numer":"104666L","klasa":"droga lokalna","kat":"powiatowa"},"geometry":{"type":"LineString","coordinates":[[23.47948,51.11355],[23.47864,51.11359]]}},{"type":"Feature","properties":{"numer":"104666L","klasa":"droga lokalna","kat":"powiatowa"},"geometry":{"type":"LineString","coordinates":[[23.47864,51.11359],[23.47765,51.11364]]}},{"type":"Feature","properties":{"numer":"104666L","klasa":"droga lokalna","kat":"powiatowa"},"geometry":{"type":"LineString","coordinates":[[23.47765,51.11364],[23.47645,51.11371]]}},{"type":"Feature","properties":{"numer":"104666L","klasa":"droga lokalna","kat":"powiatowa"},"geometry":{"type":"LineString","coordinates":[[23.47645,51.11371],[23.47516,51.11378]]}},{"type":"Feature","properties":{"numer":"104666L","klasa":"droga lokalna","kat":"powiatowa"},"geometry":{"type":"LineString","coordinates":[[23.47516,51.11378],[23.47492,51.1138]]}},{"type":"Feature","properties":{"numer":"104865L","klasa":"droga lokalna","kat":"powiatowa"},"geometry":{"type":"LineString","coordinates":[[23.47492,51.1138],[23.47464619047617,51.11388605442177]]}},{"type":"Feature","properties":{"numer":"105060L","klasa":"droga lokalna","kat":"powiatowa"},"geometry":{"type":"LineString","coordinates":[[23.48374,51.11438],[23.4835,51.11338]]}},{"type":"Feature","properties":{"numer":"104649L","klasa":"droga lokalna","kat":"powiatowa"},"geometry":{"type":"LineString","coordinates":[[23.42439,51.11222],[23.42415,51.10887]]}},{"type":"Feature","properties":{"numer":"843","klasa":"droga zbiorcza","kat":"wojewodzka"},"geometry":{"type":"LineString","coordinates":[[23.45978,51.11282],[23.45954,51.11207],[23.45878,51.11081]]}},{"type":"Feature","properties":{"numer":"104649L","klasa":"droga lokalna","kat":"powiatowa"},"geometry":{"type":"LineString","coordinates":[[23.42445,51.11267],[23.42439,51.11222]]}},{"type":"Feature","properties":{"numer":"1832L","klasa":"","kat":"powiatowa"},"geometry":{"type":"LineString","coordinates":[[23.44785,51.11862],[23.44515,51.11665],[23.44476,51.11612],[23.44316,51.11297],[23.43942,51.11036],[23.43907,51.10996],[23.43858,51.10892],[23.43804,51.10848],[23.43582,51.10787],[23.43436,51.10739],[23.43344,51.10721],[23.43067,51.10731],[23.42403,51.10783]]}},{"type":"Feature","properties":{"numer":"112709L","klasa":"droga lokalna","kat":"powiatowa"},"geometry":{"type":"LineString","coordinates":[[23.45978,51.11282],[23.45867,51.11311]]}},{"type":"Feature","properties":{"numer":"112709L","klasa":"droga lokalna","kat":"powiatowa"},"geometry":{"type":"LineString","coordinates":[[23.45867,51.11311],[23.45826,51.11325],[23.45788,51.1135]]}},{"type":"Feature","properties":{"numer":"112709L","klasa":"droga lokalna","kat":"powiatowa"},"geometry":{"type":"LineString","coordinates":[[23.45788,51.1135],[23.45782,51.11355]]}},{"type":"Feature","properties":{"numer":"112709L","klasa":"droga lokalna","kat":"powiatowa"},"geometry":{"type":"LineString","coordinates":[[23.45782,51.11355],[23.4572,51.11413],[23.45644,51.11454]]}},{"type":"Feature","properties":{"numer":"1832L","klasa":"","kat":"powiatowa"},"geometry":{"type":"LineString","coordinates":[[23.40437,51.10705],[23.39774,51.10879],[23.38785,51.11032],[23.3869,51.11059],[23.38369,51.11183],[23.38055,51.11252],[23.37905,51.1126],[23.37761045638355,51.112961852493754]]}},{"type":"Feature","properties":{"numer":"1832L","klasa":"","kat":"powiatowa"},"geometry":{"type":"LineString","coordinates":[[23.375443900769888,51.113641276732245],[23.37547,51.1137],[23.37961,51.11565],[23.37825,51.11592],[23.37677,51.11599],[23.3759,51.11596],[23.37525,51.11581],[23.37455,51.11608],[23.37426,51.11652],[23.37377547928617,51.11765315328235]]}},{"type":"Feature","properties":{"numer":"104649L","klasa":"droga lokalna","kat":"powiatowa"},"geometry":{"type":"LineString","coordinates":[[23.42473,51.11594],[23.42445,51.11267]]}},{"type":"Feature","properties":{"numer":"105060L","klasa":"droga lokalna","kat":"powiatowa"},"geometry":{"type":"LineString","coordinates":[[23.483916991321117,51.11511324975891],[23.48374,51.11438]]}},{"type":"Feature","properties":{"numer":"3131L","klasa":"","kat":"powiatowa"},"geometry":{"type":"LineString","coordinates":[[23.32451,51.15576],[23.32452539153655,51.15565899304139]]}},{"type":"Feature","properties":{"numer":"112709L","klasa":"droga lokalna","kat":"powiatowa"},"geometry":{"type":"LineString","coordinates":[[23.45644,51.11454],[23.45636,51.11456]]}},{"type":"Feature","properties":{"numer":"112709L","klasa":"droga lokalna","kat":"powiatowa"},"geometry":{"type":"LineString","coordinates":[[23.45636,51.11456],[23.45632,51.11457]]}},{"type":"Feature","properties":{"numer":"112709L","klasa":"droga lokalna","kat":"powiatowa"},"geometry":{"type":"LineString","coordinates":[[23.45632,51.11457],[23.45628,51.11459]]}},{"type":"Feature","properties":{"numer":"1832L","klasa":"droga zbiorcza","kat":"powiatowa"},"geometry":{"type":"LineString","coordinates":[[23.453158534932196,51.11577510022015],[23.45514,51.11494],[23.45628,51.11459]]}},{"type":"Feature","properties":{"numer":"843","klasa":"droga zbiorcza","kat":"wojewodzka"},"geometry":{"type":"LineString","coordinates":[[23.46192188773389,51.116808382536384],[23.46026,51.11468],[23.45978,51.11282]]}},{"type":"Feature","properties":{"numer":"104649L","klasa":"droga lokalna","kat":"powiatowa"},"geometry":{"type":"LineString","coordinates":[[23.42483,51.11736],[23.42473,51.11594]]}},{"type":"Feature","properties":{"numer":"104649L","klasa":"droga lokalna","kat":"powiatowa"},"geometry":{"type":"LineString","coordinates":[[23.4249,51.11865],[23.42483,51.11736]]}},{"type":"Feature","properties":{"numer":"1832L","klasa":"droga zbiorcza","kat":"powiatowa"},"geometry":{"type":"LineString","coordinates":[[23.44785,51.11862],[23.44789110294115,51.118598333333345]]}},{"type":"Feature","properties":{"numer":"104649L","klasa":"droga lokalna","kat":"powiatowa"},"geometry":{"type":"LineString","coordinates":[[23.42499,51.11985],[23.4249,51.11865]]}},{"type":"Feature","properties":{"numer":"104649L","klasa":"droga lokalna","kat":"powiatowa"},"geometry":{"type":"LineString","coordinates":[[23.42502,51.1203],[23.42499,51.11985]]}},{"type":"Feature","properties":{"numer":"104649L","klasa":"droga lokalna","kat":"powiatowa"},"geometry":{"type":"LineString","coordinates":[[23.42505,51.12048],[23.42502,51.1203]]}},{"type":"Feature","properties":{"numer":"104649L","klasa":"droga lokalna","kat":"powiatowa"},"geometry":{"type":"LineString","coordinates":[[23.42512,51.12162],[23.42505,51.12048]]}},{"type":"Feature","properties":{"numer":"104649L","klasa":"droga lokalna","kat":"powiatowa"},"geometry":{"type":"LineString","coordinates":[[23.42581,51.12526],[23.42533,51.12439],[23.42512,51.12162]]}},{"type":"Feature","properties":{"numer":"1832L","klasa":"droga zbiorcza","kat":"powiatowa"},"geometry":{"type":"LineString","coordinates":[[23.44776621184925,51.11866737881505],[23.44785,51.11862]]}},{"type":"Feature","properties":{"numer":"104649L","klasa":"droga lokalna","kat":"powiatowa"},"geometry":{"type":"LineString","coordinates":[[23.42657,51.12778],[23.4261,51.12581],[23.42581,51.12526]]}},{"type":"Feature","properties":{"numer":"104649L,105063L","klasa":"droga lokalna","kat":"powiatowa"},"geometry":{"type":"LineString","coordinates":[[23.42661,51.12788],[23.42657,51.12778]]}},{"type":"Feature","properties":{"numer":"104649L","klasa":"droga lokalna","kat":"powiatowa"},"geometry":{"type":"LineString","coordinates":[[23.42735,51.1294],[23.42727,51.12883],[23.42669,51.12836],[23.42661,51.12788]]}},{"type":"Feature","properties":{"numer":"104649L","klasa":"droga lokalna","kat":"powiatowa"},"geometry":{"type":"LineString","coordinates":[[23.42735,51.1294],[23.42798,51.12978],[23.42815,51.12997]]}},{"type":"Feature","properties":{"numer":"104649L","klasa":"droga lokalna","kat":"powiatowa"},"geometry":{"type":"LineString","coordinates":[[23.42815,51.12997],[23.42873,51.13135]]}},{"type":"Feature","properties":{"numer":"104649L","klasa":"droga lokalna","kat":"powiatowa"},"geometry":{"type":"LineString","coordinates":[[23.42948,51.13264],[23.42899,51.13209],[23.42873,51.13135]]}},{"type":"Feature","properties":{"numer":"104649L","klasa":"droga lokalna","kat":"powiatowa"},"geometry":{"type":"LineString","coordinates":[[23.43168,51.13272],[23.42948,51.13264]]}},{"type":"Feature","properties":{"numer":"104649L","klasa":"droga lokalna","kat":"powiatowa"},"geometry":{"type":"LineString","coordinates":[[23.43168,51.13272],[23.43179,51.13321]]}},{"type":"Feature","properties":{"numer":"","klasa":"droga wewnÄ™trzna","kat":"gminna"},"geometry":{"type":"LineString","coordinates":[[23.433419537145493,51.13326998296241],[23.43179,51.13321]]}},{"type":"Feature","properties":{"numer":"1843L","klasa":"droga zbiorcza","kat":"powiatowa"},"geometry":{"type":"LineString","coordinates":[[23.5543,51.14519],[23.55438125752199,51.145077489584935]]}},{"type":"Feature","properties":{"numer":"1843L","klasa":"droga zbiorcza","kat":"powiatowa"},"geometry":{"type":"LineString","coordinates":[[23.55691496993988,51.14344396793587],[23.55809,51.14264],[23.56099,51.13926],[23.56152,51.13882],[23.56209,51.13849],[23.56469,51.1374],[23.56811000643984,51.13679778147472]]}},{"type":"Feature","properties":{"numer":"812","klasa":"droga gĹ‚Ăłwna ruchu przyĹ›pieszonego","kat":"wojewodzka"},"geometry":{"type":"LineString","coordinates":[[23.427276546679867,51.14357991861589],[23.39329,51.13717],[23.39129997613017,51.136336987740656]]}},{"type":"Feature","properties":{"numer":"12,E373","klasa":"droga gĹ‚Ăłwna ruchu przyĹ›pieszonego","kat":"gminna"},"geometry":{"type":"LineString","coordinates":[[23.53543,51.14155],[23.535118729683493,51.14152509837468]]}},{"type":"Feature","properties":{"numer":"12,E373","klasa":"droga gĹ‚Ăłwna ruchu przyĹ›pieszonego","kat":"gminna"},"geometry":{"type":"LineString","coordinates":[[23.5543,51.14519],[23.53543,51.14155]]}},{"type":"Feature","properties":{"numer":"1828L","klasa":"droga zbiorcza","kat":"powiatowa"},"geometry":{"type":"LineString","coordinates":[[23.53543,51.14155],[23.53544,51.14178],[23.53965,51.15042]]}},{"type":"Feature","properties":{"numer":"12,E373","klasa":"droga gĹ‚Ăłwna ruchu przyĹ›pieszonego","kat":"gminna"},"geometry":{"type":"LineString","coordinates":[[23.593290636177542,51.15212944332482],[23.58738,51.15141],[23.58434,51.15096],[23.5543,51.14519]]}},{"type":"Feature","properties":{"numer":"1828L","klasa":"droga zbiorcza","kat":"powiatowa"},"geometry":{"type":"LineString","coordinates":[[23.53965,51.15042],[23.54128,51.15368],[23.54177,51.15403],[23.54341,51.15473]]}},{"type":"Feature","properties":{"numer":"1823L","klasa":"droga zbiorcza","kat":"powiatowa"},"geometry":{"type":"LineString","coordinates":[[23.48986,51.15496],[23.489680734495067,51.154855064094676]]}},{"type":"Feature","properties":{"numer":"1823L","klasa":"droga zbiorcza","kat":"powiatowa"},"geometry":{"type":"LineString","coordinates":[[23.49003,51.1551],[23.48986,51.15496]]}},{"type":"Feature","properties":{"numer":"1827L","klasa":"droga zbiorcza","kat":"powiatowa"},"geometry":{"type":"LineString","coordinates":[[23.53965,51.15042],[23.52526,51.15331],[23.51614,51.15537],[23.51432,51.15598],[23.51114,51.1579],[23.51014,51.15825],[23.50895,51.15847],[23.50811,51.15851],[23.50327,51.15793],[23.50241,51.15795],[23.49234,51.1616]]}},{"type":"Feature","properties":{"numer":"1823L","klasa":"droga zbiorcza","kat":"powiatowa"},"geometry":{"type":"LineString","coordinates":[[23.49234,51.1616],[23.49101,51.15809],[23.49059,51.15609],[23.49035,51.15553],[23.49003,51.1551]]}},{"type":"Feature","properties":{"numer":"1823L","klasa":"droga zbiorcza","kat":"powiatowa"},"geometry":{"type":"LineString","coordinates":[[23.49351,51.16434],[23.49234,51.1616]]}},{"type":"Feature","properties":{"numer":"1805L","klasa":"droga zbiorcza","kat":"powiatowa"},"geometry":{"type":"LineString","coordinates":[[23.4938,51.16507],[23.49351,51.16434]]}},{"type":"Feature","properties":{"numer":"112770L,1823L","klasa":"droga zbiorcza","kat":"powiatowa"},"geometry":{"type":"LineString","coordinates":[[23.49716,51.16565],[23.4942,51.16465],[23.49351,51.16434]]}},{"type":"Feature","properties":{"numer":"105051L","klasa":"droga lokalna","kat":"powiatowa"},"geometry":{"type":"LineString","coordinates":[[23.4938,51.16507],[23.49084,51.16581]]}},{"type":"Feature","properties":{"numer":"105051L","klasa":"droga lokalna","kat":"powiatowa"},"geometry":{"type":"LineString","coordinates":[[23.4744,51.16625],[23.47399,51.16604],[23.47254,51.16558]]}},{"type":"Feature","properties":{"numer":"105051L","klasa":"droga lokalna","kat":"powiatowa"},"geometry":{"type":"LineString","coordinates":[[23.49084,51.16581],[23.48971,51.16604]]}},{"type":"Feature","properties":{"numer":"105051L","klasa":"droga lokalna","kat":"powiatowa"},"geometry":{"type":"LineString","coordinates":[[23.48971,51.16604],[23.48822,51.16639]]}},{"type":"Feature","properties":{"numer":"105051L","klasa":"droga lokalna","kat":"powiatowa"},"geometry":{"type":"LineString","coordinates":[[23.47447,51.16629],[23.4744,51.16625]]}},{"type":"Feature","properties":{"numer":"12,E373","klasa":"droga gĹ‚Ăłwna ruchu przyĹ›pieszonego","kat":"gminna"},"geometry":{"type":"LineString","coordinates":[[23.35017,51.16781],[23.37828,51.16566],[23.37996,51.16541],[23.425883635914076,51.149910671761255]]}},{"type":"Feature","properties":{"numer":"812","klasa":"droga gĹ‚Ăłwna ruchu przyĹ›pieszonego","kat":"wojewodzka"},"geometry":{"type":"LineString","coordinates":[[23.43558,51.17526],[23.436460839332693,51.155304701843434]]}},{"type":"Feature","properties":{"numer":"105051L","klasa":"droga lokalna","kat":"powiatowa"},"geometry":{"type":"LineString","coordinates":[[23.46927,51.16554],[23.4661,51.16547],[23.46536,51.16559]]}},{"type":"Feature","properties":{"numer":"105051L","klasa":"droga lokalna","kat":"powiatowa"},"geometry":{"type":"LineString","coordinates":[[23.47254,51.16558],[23.46927,51.16554]]}},{"type":"Feature","properties":{"numer":"105051L","klasa":"droga lokalna","kat":"powiatowa"},"geometry":{"type":"LineString","coordinates":[[23.46536,51.16559],[23.46512,51.16571]]}},{"type":"Feature","properties":{"numer":"105051L","klasa":"droga lokalna","kat":"powiatowa"},"geometry":{"type":"LineString","coordinates":[[23.47497,51.16674],[23.47447,51.16629]]}},{"type":"Feature","properties":{"numer":"105051L","klasa":"droga lokalna","kat":"powiatowa"},"geometry":{"type":"LineString","coordinates":[[23.48822,51.16639],[23.48769,51.16679]]}},{"type":"Feature","properties":{"numer":"105051L","klasa":"droga lokalna","kat":"powiatowa"},"geometry":{"type":"LineString","coordinates":[[23.48769,51.16679],[23.48695,51.16724]]}},{"type":"Feature","properties":{"numer":"105051L","klasa":"droga lokalna","kat":"powiatowa"},"geometry":{"type":"LineString","coordinates":[[23.47534,51.1677],[23.47508,51.16728],[23.47497,51.16674]]}},{"type":"Feature","properties":{"numer":"105051L","klasa":"droga lokalna","kat":"powiatowa"},"geometry":{"type":"LineString","coordinates":[[23.48695,51.16724],[23.48595,51.16746]]}},{"type":"Feature","properties":{"numer":"105051L","klasa":"droga lokalna","kat":"powiatowa"},"geometry":{"type":"LineString","coordinates":[[23.48595,51.16746],[23.48488,51.16771]]}},{"type":"Feature","properties":{"numer":"105051L","klasa":"droga lokalna","kat":"powiatowa"},"geometry":{"type":"LineString","coordinates":[[23.48488,51.16771],[23.48482,51.16772]]}},{"type":"Feature","properties":{"numer":"105051L","klasa":"droga lokalna","kat":"powiatowa"},"geometry":{"type":"LineString","coordinates":[[23.47549,51.16798],[23.47534,51.1677]]}},{"type":"Feature","properties":{"numer":"105051L","klasa":"droga lokalna","kat":"powiatowa"},"geometry":{"type":"LineString","coordinates":[[23.48482,51.16772],[23.48207,51.16836]]}},{"type":"Feature","properties":{"numer":"105051L","klasa":"droga lokalna","kat":"powiatowa"},"geometry":{"type":"LineString","coordinates":[[23.48207,51.16836],[23.4807,51.16867]]}},{"type":"Feature","properties":{"numer":"105051L","klasa":"droga lokalna","kat":"powiatowa"},"geometry":{"type":"LineString","coordinates":[[23.46499,51.16577],[23.46366,51.1664]]}},{"type":"Feature","properties":{"numer":"105051L","klasa":"droga lokalna","kat":"powiatowa"},"geometry":{"type":"LineString","coordinates":[[23.46366,51.1664],[23.4636436492103,51.166404671654206]]}},{"type":"Feature","properties":{"numer":"1817L","klasa":"droga zbiorcza","kat":"powiatowa"},"geometry":{"type":"LineString","coordinates":[[23.35017,51.16781],[23.36166,51.17835],[23.36093,51.17973],[23.36101,51.18074],[23.36124,51.18126]]}},{"type":"Feature","properties":{"numer":"812","klasa":"droga gĹ‚Ăłwna ruchu przyĹ›pieszonego","kat":"wojewodzka"},"geometry":{"type":"LineString","coordinates":[[23.43532,51.18102],[23.43558,51.17526]]}},{"type":"Feature","properties":{"numer":"841","klasa":"droga zbiorcza","kat":"wojewodzka"},"geometry":{"type":"LineString","coordinates":[[23.39746,51.18667],[23.40067,51.18654],[23.40147,51.18643],[23.408,51.18463],[23.40896,51.18429],[23.41721,51.18062],[23.43558,51.17526]]}},{"type":"Feature","properties":{"numer":"812","klasa":"droga gĹ‚Ăłwna ruchu przyĹ›pieszonego","kat":"wojewodzka"},"geometry":{"type":"LineString","coordinates":[[23.43532,51.18114],[23.43532,51.18102]]}},{"type":"Feature","properties":{"numer":"1807L","klasa":"droga zbiorcza","kat":"powiatowa"},"geometry":{"type":"LineString","coordinates":[[23.36124,51.18126],[23.36062,51.18144],[23.35713,51.18194]]}},{"type":"Feature","properties":{"numer":"1807L","klasa":"droga zbiorcza","kat":"powiatowa"},"geometry":{"type":"LineString","coordinates":[[23.35123,51.18359],[23.3514,51.18343],[23.35333,51.18275],[23.35478,51.18203],[23.35568,51.18174],[23.35621,51.18174],[23.3567,51.18191],[23.35713,51.18194]]}},{"type":"Feature","properties":{"numer":"1817L","klasa":"droga zbiorcza","kat":"powiatowa"},"geometry":{"type":"LineString","coordinates":[[23.36124,51.18126],[23.36165,51.18183],[23.362,51.18211],[23.36249,51.18235],[23.36329,51.18258],[23.36759,51.18315],[23.38435,51.18575]]}},{"type":"Feature","properties":{"numer":"1817L","klasa":"droga zbiorcza","kat":"powiatowa"},"geometry":{"type":"LineString","coordinates":[[23.38435,51.18575],[23.38488,51.18586]]}},{"type":"Feature","properties":{"numer":"105051L","klasa":"droga lokalna","kat":"powiatowa"},"geometry":{"type":"LineString","coordinates":[[23.47603,51.16976],[23.4761,51.16924],[23.47549,51.16798]]}},{"type":"Feature","properties":{"numer":"105051L","klasa":"droga lokalna","kat":"powiatowa"},"geometry":{"type":"LineString","coordinates":[[23.4807,51.16867],[23.47896,51.16909]]}},{"type":"Feature","properties":{"numer":"105051L","klasa":"droga lokalna","kat":"powiatowa"},"geometry":{"type":"LineString","coordinates":[[23.47896,51.16909],[23.47874,51.16977],[23.47854,51.16997],[23.47819,51.17006],[23.47746,51.17002]]}},{"type":"Feature","properties":{"numer":"105051L","klasa":"droga lokalna","kat":"powiatowa"},"geometry":{"type":"LineString","coordinates":[[23.47632,51.16988],[23.47603,51.16976]]}},{"type":"Feature","properties":{"numer":"105051L","klasa":"droga lokalna","kat":"powiatowa"},"geometry":{"type":"LineString","coordinates":[[23.47746,51.17002],[23.47632,51.16988]]}},{"type":"Feature","properties":{"numer":"1828L","klasa":"","kat":"powiatowa"},"geometry":{"type":"LineString","coordinates":[[23.54341,51.15473],[23.54334,51.16477],[23.54342,51.16754],[23.54368,51.16821],[23.544432873818337,51.169682930059984]]}},{"type":"Feature","properties":{"numer":"1823L","klasa":"droga zbiorcza","kat":"powiatowa"},"geometry":{"type":"LineString","coordinates":[[23.517974733892256,51.18715515750183],[23.51764,51.18651],[23.51405,51.18414],[23.51098,51.18016],[23.51063,51.17989],[23.50706,51.17815],[23.50538,51.17624],[23.50522,51.17582],[23.50517,51.1746],[23.50457,51.17288],[23.50442,51.17196],[23.50169,51.1676],[23.50133,51.16739],[23.50021,51.16732],[23.49971,51.16718],[23.49781,51.16594],[23.49716,51.16565]]}},{"type":"Feature","properties":{"numer":"1805L","klasa":"droga zbiorcza","kat":"powiatowa"},"geometry":{"type":"LineString","coordinates":[[23.467186974916153,51.21122760777669],[23.4696,51.2104],[23.47261,51.20989],[23.47301,51.20976],[23.4734,51.20953],[23.47444,51.20859],[23.47506,51.20787],[23.47532,51.20711],[23.4751,51.20318],[23.47619,51.2009],[23.47626,51.20033],[23.47615,51.19976],[23.47485,51.19683],[23.47478,51.19648],[23.47486,51.19609],[23.4806,51.18822],[23.48087,51.18791],[23.48295,51.18637],[23.48373,51.18365],[23.48655,51.18176],[23.48685,51.18146],[23.48781,51.17976],[23.48807,51.17882],[23.48897,51.17767],[23.49038,51.17531],[23.49098,51.17349],[23.49428,51.17086],[23.49437,51.17062],[23.49435,51.16651],[23.4938,51.16507]]}},{"type":"Feature","properties":{"numer":"1817L","klasa":"droga zbiorcza","kat":"powiatowa"},"geometry":{"type":"LineString","coordinates":[[23.38435,51.18575],[23.3841,51.18605]]}},{"type":"Feature","properties":{"numer":"841","klasa":"droga zbiorcza","kat":"wojewodzka"},"geometry":{"type":"LineString","coordinates":[[23.3841,51.18605],[23.38488,51.18586]]}},{"type":"Feature","properties":{"numer":"841","klasa":"droga zbiorcza","kat":"wojewodzka"},"geometry":{"type":"LineString","coordinates":[[23.38488,51.18586],[23.39064,51.18671],[23.39746,51.18667]]}},{"type":"Feature","properties":{"numer":"841","klasa":"droga zbiorcza","kat":"wojewodzka"},"geometry":{"type":"LineString","coordinates":[[23.38027,51.18918],[23.3841,51.18605]]}},{"type":"Feature","properties":{"numer":"1818L","klasa":"droga zbiorcza","kat":"powiatowa"},"geometry":{"type":"LineString","coordinates":[[23.39735,51.1894],[23.39746,51.18667]]}},{"type":"Feature","properties":{"numer":"841","klasa":"droga zbiorcza","kat":"wojewodzka"},"geometry":{"type":"LineString","coordinates":[[23.38027,51.18918],[23.38018,51.18926]]}},{"type":"Feature","properties":{"numer":"1818L","klasa":"droga zbiorcza","kat":"powiatowa"},"geometry":{"type":"LineString","coordinates":[[23.39734,51.1895],[23.39735,51.1894]]}},{"type":"Feature","properties":{"numer":"812","klasa":"droga gĹ‚Ăłwna ruchu przyĹ›pieszonego","kat":"wojewodzka"},"geometry":{"type":"LineString","coordinates":[[23.434531435125194,51.19805782932068],[23.43532,51.18114]]}},{"type":"Feature","properties":{"numer":"1818L","klasa":"droga zbiorcza","kat":"powiatowa"},"geometry":{"type":"LineString","coordinates":[[23.38875,51.21667],[23.39664,51.20287],[23.39778,51.19515],[23.3972,51.19315],[23.39734,51.1895]]}},{"type":"Feature","properties":{"numer":"841","klasa":"droga zbiorcza","kat":"wojewodzka"},"geometry":{"type":"LineString","coordinates":[[23.36259929403671,51.19794652719659],[23.36953,51.19584],[23.37337,51.19481],[23.37395,51.19446],[23.38018,51.18926]]}},{"type":"Feature","properties":{"numer":"1805L","klasa":"droga zbiorcza","kat":"powiatowa"},"geometry":{"type":"LineString","coordinates":[[23.407135536842866,51.21327007154912],[23.38875,51.21667]]}},{"type":"Feature","properties":{"numer":"1805L","klasa":"droga zbiorcza","kat":"powiatowa"},"geometry":{"type":"LineString","coordinates":[[23.38875,51.21667],[23.38874704815674,51.216679207988676]]}},{"type":"Feature","properties":{"numer":"1822L","klasa":"droga zbiorcza","kat":"powiatowa"},"geometry":{"type":"LineString","coordinates":[[23.48911895927602,51.24007156507852],[23.48915,51.24007],[23.48983,51.23978],[23.49046,51.23896],[23.49067,51.23886],[23.49301,51.23845],[23.49622,51.23816],[23.49746,51.23794],[23.4997,51.2374],[23.50137,51.23731],[23.50277,51.23675],[23.50298,51.23678],[23.50572,51.23952],[23.50598,51.23956],[23.50671,51.23956],[23.51284,51.23884],[23.51328,51.2389],[23.51375,51.23908],[23.51429,51.23913],[23.51519,51.23915],[23.51716,51.23897],[23.52008,51.23898],[23.52443,51.23848],[23.52544,51.23824],[23.52611,51.23834],[23.52656,51.23873],[23.52682,51.23882],[23.52758,51.23882],[23.52817,51.23891],[23.5288,51.23885],[23.53022,51.23892],[23.53148,51.23846],[23.53271,51.23833],[23.53555,51.23782],[23.53774,51.2372],[23.53802,51.23708],[23.5387,51.2365],[23.53968,51.23595],[23.54161,51.23548],[23.54448624818908,51.23412874246151]]}},{"type":"Feature","properties":{"numer":"1817L","klasa":"droga zbiorcza","kat":"powiatowa"},"geometry":{"type":"LineString","coordinates":[[23.31966668896321,51.15504156075808],[23.32026,51.15518],[23.32451,51.15576]]}},{"type":"Feature","properties":{"numer":"1817L","klasa":"droga zbiorcza","kat":"powiatowa"},"geometry":{"type":"LineString","coordinates":[[23.32451,51.15576],[23.32823871467581,51.15617487784988]]}},{"type":"Feature","properties":{"numer":"1817L","klasa":"droga zbiorcza","kat":"powiatowa"},"geometry":{"type":"LineString","coordinates":[[23.33267548273678,51.156791269463426],[23.33828,51.15812],[23.33994,51.15858],[23.3501,51.16781]]}},{"type":"Feature","properties":{"numer":"12,E373","klasa":"droga gĹ‚Ăłwna ruchu przyĹ›pieszonego","kat":"gminna"},"geometry":{"type":"LineString","coordinates":[[23.35017,51.16781],[23.3501,51.16781]]}},{"type":"Feature","properties":{"numer":"12,E373","klasa":"droga gĹ‚Ăłwna ruchu przyĹ›pieszonego","kat":"gminna"},"geometry":{"type":"LineString","coordinates":[[23.3501,51.16781],[23.34453,51.16824]]}},{"type":"Feature","properties":{"numer":"12,E373","klasa":"droga gĹ‚Ăłwna ruchu przyĹ›pieszonego","kat":"gminna"},"geometry":{"type":"LineString","coordinates":[[23.34437,51.16826],[23.34453,51.16824]]}},{"type":"Feature","properties":{"numer":"12,E373","klasa":"droga gĹ‚Ăłwna ruchu przyĹ›pieszonego","kat":"gminna"},"geometry":{"type":"LineString","coordinates":[[23.34437,51.16826],[23.306717055626162,51.17113142438448]]}},{"type":"Feature","properties":{"numer":"1807L","klasa":"droga zbiorcza","kat":"powiatowa"},"geometry":{"type":"LineString","coordinates":[[23.31992,51.1977],[23.32004,51.1977],[23.32089,51.19726],[23.32312,51.19645],[23.32599,51.19484],[23.327996786826574,51.19442231948825]]}},{"type":"Feature","properties":{"numer":"1807L","klasa":"droga zbiorcza","kat":"powiatowa"},"geometry":{"type":"LineString","coordinates":[[23.328011155258956,51.19441932892936],[23.33017,51.19397],[23.33408,51.19215],[23.34004,51.19047],[23.34261,51.18981],[23.34566,51.18863],[23.34737,51.18787],[23.34813,51.18748],[23.34909,51.18619],[23.35196,51.18459],[23.35195,51.18438],[23.35123,51.18359]]}},{"type":"Feature","properties":{"numer":"1807L","klasa":"droga zbiorcza","kat":"powiatowa"},"geometry":{"type":"LineString","coordinates":[[23.318135411679318,51.196287953391334],[23.31982,51.19769],[23.31992,51.1977]]}}]}