{"type":"FeatureCollection","features":[{"type":"Feature","properties":{"numer":"1839L","klasa":"droga zbiorcza","kat":"powiatowa"},"geometry":{"type":"LineString","coordinates":[[23.53781,50.9724],[23.53611,50.96931],[23.53696,50.96675],[23.5374,50.96567],[23.53917,50.96321],[23.539910702272536,50.961640033226686]]}},{"type":"Feature","properties":{"numer":"1839L","klasa":"droga zbiorcza","kat":"powiatowa"},"geometry":{"type":"LineString","coordinates":[[23.540404146246598,50.960906950193454],[23.54109399078038,50.960131675996045]]}},{"type":"Feature","properties":{"numer":"1866L","klasa":"droga zbiorcza","kat":"powiatowa"},"geometry":{"type":"LineString","coordinates":[[23.49069,50.97988],[23.49064,50.97883],[23.49142,50.97305],[23.49165,50.97286],[23.49314,50.97285],[23.49345,50.97275],[23.49455594090671,50.966144244854505]]}},{"type":"Feature","properties":{"numer":"1859L","klasa":"droga zbiorcza","kat":"powiatowa"},"geometry":{"type":"LineString","coordinates":[[23.56119,50.97314],[23.56982,50.97117],[23.57235,50.97113],[23.57305,50.97104],[23.58693,50.96773],[23.59556,50.96686],[23.6007,50.96583],[23.60393,50.96577],[23.60457,50.96557],[23.60656,50.96455],[23.60691802441173,50.96444770731094]]}},{"type":"Feature","properties":{"numer":"1859L","klasa":"droga zbiorcza","kat":"powiatowa"},"geometry":{"type":"LineString","coordinates":[[23.53781,50.9724],[23.56013,50.97133]]}},{"type":"Feature","properties":{"numer":"1864L","klasa":"","kat":"powiatowa"},"geometry":{"type":"LineString","coordinates":[[23.4263,50.95213],[23.42623630508771,50.952080434592894]]}},{"type":"Feature","properties":{"numer":"1865L","klasa":"droga zbiorcza","kat":"powiatowa"},"geometry":{"type":"LineString","coordinates":[[23.45146,50.96864],[23.4522,50.96837],[23.47033,50.96307],[23.47222,50.96245],[23.4726,50.962],[23.47254,50.96151],[23.468546691518654,50.95602274100524]]}},{"type":"Feature","properties":{"numer":"1864L","klasa":"droga zbiorcza","kat":"powiatowa"},"geometry":{"type":"LineString","coordinates":[[23.44515,50.97046],[23.43661,50.9584],[23.43584,50.95788],[23.4263,50.95213]]}},{"type":"Feature","properties":{"numer":"1863L","klasa":"droga zbiorcza","kat":"powiatowa"},"geometry":{"type":"LineString","coordinates":[[23.44955,50.96916],[23.45146,50.96864]]}},{"type":"Feature","properties":{"numer":"1863L","klasa":"droga zbiorcza","kat":"powiatowa"},"geometry":{"type":"LineString","coordinates":[[23.4494,50.96921],[23.44955,50.96916]]}},{"type":"Feature","properties":{"numer":"1863L","klasa":"droga zbiorcza","kat":"powiatowa"},"geometry":{"type":"LineString","coordinates":[[23.4494,50.96921],[23.44515,50.97046]]}},{"type":"Feature","properties":{"numer":"1863L","klasa":"droga zbiorcza","kat":"powiatowa"},"geometry":{"type":"LineString","coordinates":[[23.45146,50.96864],[23.45174,50.96873],[23.45417,50.97027],[23.45628,50.97135],[23.4723,50.97694],[23.47363,50.97724],[23.48629,50.97959],[23.48805,50.97981]]}},{"type":"Feature","properties":{"numer":"1864L","klasa":"droga zbiorcza","kat":"powiatowa"},"geometry":{"type":"LineString","coordinates":[[23.44809,50.99409],[23.44847,50.99146],[23.44877,50.99061],[23.44964,50.98985],[23.45151,50.98871],[23.45562,50.98558],[23.45571,50.98542],[23.44515,50.97046]]}},{"type":"Feature","properties":{"numer":"1863L","klasa":"droga zbiorcza","kat":"powiatowa"},"geometry":{"type":"LineString","coordinates":[[23.44515,50.97046],[23.41512,50.9793],[23.41397,50.97946],[23.40574,50.97998],[23.40182,50.98073],[23.39157858054825,50.98377027788209]]}},{"type":"Feature","properties":{"numer":"104968L,1864L","klasa":"droga zbiorcza","kat":"powiatowa"},"geometry":{"type":"LineString","coordinates":[[23.44418,50.99427],[23.44525,50.9942],[23.44772,50.99419],[23.44809,50.99409]]}},{"type":"Feature","properties":{"numer":"104981L,1859L","klasa":"droga zbiorcza","kat":"powiatowa"},"geometry":{"type":"LineString","coordinates":[[23.56013,50.97133],[23.56119,50.97314]]}},{"type":"Feature","properties":{"numer":"1866L","klasa":"droga zbiorcza","kat":"powiatowa"},"geometry":{"type":"LineString","coordinates":[[23.49069,50.97988],[23.4906,50.97993],[23.48805,50.97981]]}},{"type":"Feature","properties":{"numer":"1863L","klasa":"droga zbiorcza","kat":"powiatowa"},"geometry":{"type":"LineString","coordinates":[[23.48805,50.97981],[23.48813,50.97995],[23.488,50.98057],[23.4876,50.98135]]}},{"type":"Feature","properties":{"numer":"1863L","klasa":"droga zbiorcza","kat":"powiatowa"},"geometry":{"type":"LineString","coordinates":[[23.4876,50.98135],[23.48753,50.98144]]}},{"type":"Feature","properties":{"numer":"1839L","klasa":"droga zbiorcza","kat":"powiatowa"},"geometry":{"type":"LineString","coordinates":[[23.53478,50.99049],[23.53497,50.98947],[23.53831,50.97986],[23.53993,50.97706],[23.54011,50.97652],[23.54,50.97574],[23.53781,50.9724]]}},{"type":"Feature","properties":{"numer":"1863L","klasa":"droga zbiorcza","kat":"powiatowa"},"geometry":{"type":"LineString","coordinates":[[23.48753,50.98144],[23.487,50.98233],[23.48668,50.98408]]}},{"type":"Feature","properties":{"numer":"1863L","klasa":"droga zbiorcza","kat":"powiatowa"},"geometry":{"type":"LineString","coordinates":[[23.48668,50.98408],[23.48913,50.98447],[23.4956,50.98431],[23.50407,50.98543],[23.50462,50.98554],[23.50929,50.9873],[23.51044,50.98754],[23.51307,50.98796]]}},{"type":"Feature","properties":{"numer":"1863L","klasa":"droga zbiorcza","kat":"powiatowa"},"geometry":{"type":"LineString","coordinates":[[23.51307,50.98796],[23.51318,50.98798]]}},{"type":"Feature","properties":{"numer":"1863L","klasa":"droga zbiorcza","kat":"powiatowa"},"geometry":{"type":"LineString","coordinates":[[23.51318,50.98798],[23.52277,50.98951]]}},{"type":"Feature","properties":{"numer":"1863L","klasa":"droga zbiorcza","kat":"powiatowa"},"geometry":{"type":"LineString","coordinates":[[23.52277,50.98951],[23.52282,50.98952]]}},{"type":"Feature","properties":{"numer":"1863L","klasa":"droga zbiorcza","kat":"powiatowa"},"geometry":{"type":"LineString","coordinates":[[23.52282,50.98952],[23.52807,50.99032],[23.53257,50.99044]]}},{"type":"Feature","properties":{"numer":"1863L","klasa":"droga zbiorcza","kat":"powiatowa"},"geometry":{"type":"LineString","coordinates":[[23.53257,50.99044],[23.53265,50.99044]]}},{"type":"Feature","properties":{"numer":"1863L","klasa":"droga zbiorcza","kat":"powiatowa"},"geometry":{"type":"LineString","coordinates":[[23.53265,50.99044],[23.53478,50.99049]]}},{"type":"Feature","properties":{"numer":"1839L","klasa":"droga zbiorcza","kat":"powiatowa"},"geometry":{"type":"LineString","coordinates":[[23.53022,51.01562],[23.53179,51.01415],[23.53252,51.01325],[23.53517,51.00738],[23.53511,51.00161],[23.53437,50.99481],[23.53478,50.99049]]}},{"type":"Feature","properties":{"numer":"1862L","klasa":"droga zbiorcza","kat":"powiatowa"},"geometry":{"type":"LineString","coordinates":[[23.57617735843328,51.00047286473357],[23.5763,50.99996],[23.5762,50.99956],[23.57001,50.98849],[23.55611,50.99035],[23.537,50.99019],[23.53478,50.99049]]}},{"type":"Feature","properties":{"numer":"1835L","klasa":"droga zbiorcza","kat":"powiatowa"},"geometry":{"type":"LineString","coordinates":[[23.47512,51.02806],[23.47501,51.02541],[23.47361,51.00941],[23.47394,51.00849],[23.47482,51.00689],[23.47498,51.00632],[23.47528,51.003],[23.47736,50.98621],[23.4775,50.98605],[23.47785,50.98592],[23.48089,50.98581],[23.4814,50.98572],[23.48509,50.98435],[23.48572,50.98419],[23.48668,50.98408]]}},{"type":"Feature","properties":{"numer":"1839L","klasa":"droga zbiorcza","kat":"powiatowa"},"geometry":{"type":"LineString","coordinates":[[23.52722,51.01925],[23.52747,51.01841],[23.52774,51.01798],[23.53022,51.01562]]}},{"type":"Feature","properties":{"numer":"1839L","klasa":"droga zbiorcza","kat":"powiatowa"},"geometry":{"type":"LineString","coordinates":[[23.52721,51.01929],[23.52722,51.01925]]}},{"type":"Feature","properties":{"numer":"1841L","klasa":"droga zbiorcza","kat":"powiatowa"},"geometry":{"type":"LineString","coordinates":[[23.53022,51.01562],[23.54297,51.02794],[23.55006,51.03099]]}},{"type":"Feature","properties":{"numer":"104968L,1864L","klasa":"droga zbiorcza","kat":"powiatowa"},"geometry":{"type":"LineString","coordinates":[[23.442,50.99424],[23.44418,50.99427]]}},{"type":"Feature","properties":{"numer":"1864L","klasa":"droga zbiorcza","kat":"powiatowa"},"geometry":{"type":"LineString","coordinates":[[23.442,50.99424],[23.43777,50.99421],[23.43668,51.00372]]}},{"type":"Feature","properties":{"numer":"1864L","klasa":"","kat":"powiatowa"},"geometry":{"type":"LineString","coordinates":[[23.436497264420378,51.00542382878514],[23.43652,51.00539],[23.43668,51.00372]]}},{"type":"Feature","properties":{"numer":"1836L","klasa":"droga zbiorcza","kat":"powiatowa"},"geometry":{"type":"LineString","coordinates":[[23.47512,51.02806],[23.47064,51.02721],[23.4649,51.02659],[23.453263348652616,51.02591884453637]]}},{"type":"Feature","properties":{"numer":"1837L","klasa":"droga zbiorcza","kat":"powiatowa"},"geometry":{"type":"LineString","coordinates":[[23.55006,51.03099],[23.55057,51.03066],[23.55406,51.02747],[23.55448,51.02724],[23.55515,51.02704],[23.55595,51.02696],[23.55655,51.027],[23.56443,51.0284],[23.56522,51.02845],[23.565286954368588,51.02844558542625]]}},{"type":"Feature","properties":{"numer":"1839L","klasa":"droga zbiorcza","kat":"powiatowa"},"geometry":{"type":"LineString","coordinates":[[23.52324,51.03486],[23.52721,51.01929]]}},{"type":"Feature","properties":{"numer":"1837L","klasa":"droga zbiorcza","kat":"powiatowa"},"geometry":{"type":"LineString","coordinates":[[23.52324,51.03486],[23.53392,51.03359],[23.55006,51.03099]]}},{"type":"Feature","properties":{"numer":"1835L","klasa":"droga zbiorcza","kat":"powiatowa"},"geometry":{"type":"LineString","coordinates":[[23.47609,51.0393],[23.47512,51.02806]]}},{"type":"Feature","properties":{"numer":"1839L","klasa":"droga zbiorcza","kat":"powiatowa"},"geometry":{"type":"LineString","coordinates":[[23.52316,51.03519],[23.52324,51.03486]]}},{"type":"Feature","properties":{"numer":"1839L","klasa":"droga zbiorcza","kat":"powiatowa"},"geometry":{"type":"LineString","coordinates":[[23.52315,51.03524],[23.52316,51.03519]]}},{"type":"Feature","properties":{"numer":"1837L","klasa":"droga zbiorcza","kat":"powiatowa"},"geometry":{"type":"LineString","coordinates":[[23.47609,51.0393],[23.47782,51.03928],[23.48767,51.03963],[23.48834,51.0396],[23.4902,51.0393],[23.49136,51.03905],[23.50253,51.0355],[23.508,51.03391],[23.51915,51.03534],[23.52324,51.03486]]}},{"type":"Feature","properties":{"numer":"1839L","klasa":"droga zbiorcza","kat":"powiatowa"},"geometry":{"type":"LineString","coordinates":[[23.5222,51.03898],[23.52315,51.03524]]}},{"type":"Feature","properties":{"numer":"1839L","klasa":"droga zbiorcza","kat":"powiatowa"},"geometry":{"type":"LineString","coordinates":[[23.52219,51.03903],[23.5222,51.03898]]}},{"type":"Feature","properties":{"numer":"1835L","klasa":"droga zbiorcza","kat":"powiatowa"},"geometry":{"type":"LineString","coordinates":[[23.47609,51.0393],[23.47632,51.04102],[23.47682,51.04161],[23.47762,51.04208]]}},{"type":"Feature","properties":{"numer":"1835L","klasa":"droga zbiorcza","kat":"powiatowa"},"geometry":{"type":"LineString","coordinates":[[23.47762,51.04208],[23.47815,51.04642]]}},{"type":"Feature","properties":{"numer":"1835L","klasa":"droga zbiorcza","kat":"powiatowa"},"geometry":{"type":"LineString","coordinates":[[23.47933,51.05467],[23.47815,51.04642]]}},{"type":"Feature","properties":{"numer":"1841L","klasa":"droga zbiorcza","kat":"powiatowa"},"geometry":{"type":"LineString","coordinates":[[23.55006,51.03099],[23.55077,51.03146],[23.55129,51.03197],[23.55435,51.03615],[23.55431,51.03646],[23.55323,51.03883],[23.56926,51.0405],[23.56976,51.04063],[23.57039,51.04092],[23.570510232896652,51.04101618631732]]}},{"type":"Feature","properties":{"numer":"1839L","klasa":"droga zbiorcza","kat":"powiatowa"},"geometry":{"type":"LineString","coordinates":[[23.52115992046851,51.05299323982358],[23.52105,51.04365],[23.52219,51.03903]]}},{"type":"Feature","properties":{"numer":"114277L,1835L","klasa":"droga zbiorcza","kat":"powiatowa"},"geometry":{"type":"LineString","coordinates":[[23.479340294998124,51.05478758624364],[23.47933,51.05467]]}}]}