{"type":"FeatureCollection","features":[{"type":"Feature","properties":{"numer":"3452L","klasa":"","kat":"powiatowa"},"geometry":{"type":"LineString","coordinates":[[23.99642,50.43959],[23.99518,50.43483],[23.9949,50.43467],[23.9938,50.43436],[23.99198,50.43349],[23.99159,50.43303],[23.99098,50.43196],[23.99106,50.43119]]}},{"type":"Feature","properties":{"numer":"3452L","klasa":"","kat":"powiatowa"},"geometry":{"type":"LineString","coordinates":[[23.9994,50.445],[23.99779,50.44183],[23.99693,50.44113],[23.99647,50.44049],[23.99642,50.43959]]}},{"type":"Feature","properties":{"numer":"3449L","klasa":"","kat":"powiatowa"},"geometry":{"type":"LineString","coordinates":[[23.94666,50.44338],[23.93161,50.4442],[23.929779942196525,50.44438300578035]]}},{"type":"Feature","properties":{"numer":"3449L","klasa":"","kat":"powiatowa"},"geometry":{"type":"LineString","coordinates":[[23.917746122618134,50.450015857497895],[23.91451,50.45159]]}},{"type":"Feature","properties":{"numer":"3449L","klasa":"droga zbiorcza","kat":"powiatowa"},"geometry":{"type":"LineString","coordinates":[[23.91451,50.45159],[23.914506692568224,50.45159157427975]]}},{"type":"Feature","properties":{"numer":"3452L","klasa":"","kat":"powiatowa"},"geometry":{"type":"LineString","coordinates":[[24.01485,50.46712],[24.01366,50.46643],[24.01295,50.46623],[24.01229,50.46621],[24.01191,50.46536],[24.01203,50.46409],[24.01163,50.46318],[24.01135,50.46281],[24.00956,50.46168],[24.00902,50.46072],[24.00827,50.46002],[24.00763,50.45958],[24.00605,50.45893],[24.00518,50.4584],[24.00482,50.4576],[24.00471,50.45694],[24.00424,50.45633],[24.00387,50.45612],[24.0029,50.45578],[24.00103,50.45561],[24.00178,50.45463],[24.00202,50.45407],[24.00202,50.45336],[24.00134,50.45231],[24.00113,50.45172],[24.00218,50.4496],[24.00232,50.44871],[24.00177,50.44773],[24.00147,50.44673],[23.99972,50.4454],[23.9994,50.445]]}},{"type":"Feature","properties":{"numer":"3449L","klasa":"","kat":"powiatowa"},"geometry":{"type":"LineString","coordinates":[[23.99504,50.4944],[23.99229,50.49367],[23.99133,50.49309],[23.98074,50.48295],[23.98034,50.48238],[23.97995,50.48105],[23.97957,50.48022],[23.9791,50.47966],[23.978,50.47875],[23.97745,50.47801],[23.97716,50.47702],[23.97713,50.47592],[23.97676,50.47536],[23.97596,50.47496],[23.97449,50.47474],[23.97181,50.47397],[23.9685,50.47329],[23.96788,50.47309],[23.96684,50.47253],[23.96559,50.47131],[23.96528,50.47084],[23.9652,50.47018],[23.96616,50.46801],[23.96668,50.46483],[23.96669,50.46419],[23.96604,50.46142],[23.966,50.46074],[23.96701,50.45814],[23.96695,50.45477],[23.96705,50.45432],[23.96765,50.45329],[23.96921,50.4513],[23.96992,50.45083],[23.97208,50.44976],[23.97241,50.44947],[23.97267,50.44833],[23.97301,50.44762],[23.97298,50.44715],[23.97234,50.44587],[23.97211,50.44423],[23.97159,50.44342],[23.97111,50.44305],[23.97052,50.44274],[23.96727,50.44131],[23.96653,50.44109],[23.96536,50.44092],[23.964,50.44101],[23.94666,50.44338]]}},{"type":"Feature","properties":{"numer":"3450L","klasa":"","kat":"powiatowa"},"geometry":{"type":"LineString","coordinates":[[23.95319,50.50593],[23.95301,50.50518],[23.95317,50.50172],[23.95285,50.501],[23.94431,50.49199],[23.9277,50.47478],[23.92826,50.47451],[23.93039,50.47389],[23.931,50.47383],[23.9325,50.47384],[23.93309,50.47373],[23.9349,50.47252],[23.9357,50.47154],[23.93631,50.46975],[23.93643,50.46782],[23.94049,50.45454],[23.94277,50.45089],[23.94666,50.44338]]}},{"type":"Feature","properties":{"numer":"3452L","klasa":"","kat":"powiatowa"},"geometry":{"type":"LineString","coordinates":[[24.01673,50.49931],[24.01783,50.4981],[24.0177,50.4972],[24.01791,50.49672],[24.01901,50.49551],[24.02052,50.49412],[24.02108,50.49349],[24.02164,50.49261],[24.02174,50.492],[24.02108,50.48832],[24.02036,50.48644],[24.01995,50.48583],[24.01793,50.48339],[24.01769,50.48293],[24.01778,50.48128],[24.01674,50.4762],[24.01634,50.47269],[24.01623,50.47236],[24.01539,50.47134],[24.01513,50.47077],[24.01516,50.47044],[24.01586,50.46845],[24.01587,50.46809],[24.0156,50.46764],[24.01485,50.46712]]}},{"type":"Feature","properties":{"numer":"3449L","klasa":"","kat":"powiatowa"},"geometry":{"type":"LineString","coordinates":[[23.99514,50.49443],[23.99504,50.4944]]}},{"type":"Feature","properties":{"numer":"3449L","klasa":"","kat":"powiatowa"},"geometry":{"type":"LineString","coordinates":[[24.00213,50.49625],[23.99514,50.49443]]}},{"type":"Feature","properties":{"numer":"3449L","klasa":"","kat":"powiatowa"},"geometry":{"type":"LineString","coordinates":[[24.01673,50.49931],[24.01509,50.49873],[24.01446,50.49861],[24.0137,50.49864],[24.01256,50.49882],[24.01187,50.49877],[24.00213,50.49625]]}},{"type":"Feature","properties":{"numer":"3449L","klasa":"","kat":"powiatowa"},"geometry":{"type":"LineString","coordinates":[[24.02243,50.50185],[24.02126,50.50173],[24.02039,50.50144],[24.01673,50.49931]]}},{"type":"Feature","properties":{"numer":"3449L","klasa":"","kat":"powiatowa"},"geometry":{"type":"LineString","coordinates":[[24.02258,50.50184],[24.02243,50.50185]]}},{"type":"Feature","properties":{"numer":"3451L","klasa":"","kat":"powiatowa"},"geometry":{"type":"LineString","coordinates":[[23.95319,50.50593],[23.95012,50.50556],[23.94889,50.50533],[23.94455,50.50533],[23.94317,50.50518],[23.94158,50.50491]]}},{"type":"Feature","properties":{"numer":"3449L","klasa":"","kat":"powiatowa"},"geometry":{"type":"LineString","coordinates":[[24.04893,50.51551],[24.04489,50.50965],[24.04432,50.50918],[24.04377,50.50895],[24.04074,50.50848],[24.03975,50.50824],[24.03896,50.50788],[24.03747,50.50684],[24.02651,50.50325],[24.02607,50.50295],[24.02583,50.50203],[24.0254,50.50177],[24.02488,50.5017],[24.02258,50.50184]]}},{"type":"Feature","properties":{"numer":"3451L","klasa":"","kat":"powiatowa"},"geometry":{"type":"LineString","coordinates":[[23.940491520912545,50.5118091634981],[23.94058,50.51178],[23.94058,50.51171],[23.93995,50.51118],[23.9399,50.51079],[23.9396,50.51016],[23.93938,50.50901],[23.93918,50.50862],[23.94096,50.5071],[23.94158,50.50491]]}},{"type":"Feature","properties":{"numer":"3448L","klasa":"","kat":"powiatowa"},"geometry":{"type":"LineString","coordinates":[[24.00213,50.49625],[23.99811,50.50104],[23.9992,50.50346],[23.99935,50.50411],[23.99917,50.5163],[23.9977,50.51911],[23.99604,50.52107],[23.99375,50.52287],[23.99343,50.52305],[23.99296,50.52319],[23.99007,50.52349],[23.98795,50.52384],[23.97341,50.52752],[23.961143865222965,50.530529920764515]]}},{"type":"Feature","properties":{"numer":"3449L","klasa":"","kat":"powiatowa"},"geometry":{"type":"LineString","coordinates":[[24.04893,50.51551],[24.04904,50.51566]]}},{"type":"Feature","properties":{"numer":"3450L","klasa":"","kat":"powiatowa"},"geometry":{"type":"LineString","coordinates":[[23.95521552851543,50.52220213415779],[23.95666,50.51485],[23.95655,50.51432],[23.95319,50.50593]]}},{"type":"Feature","properties":{"numer":"3449L","klasa":"","kat":"powiatowa"},"geometry":{"type":"LineString","coordinates":[[24.06203,50.54058],[24.06218,50.53996],[24.06198,50.53929],[24.0521,50.52549],[24.05192,50.52469],[24.05214,50.52258],[24.05178,50.51983],[24.04904,50.51566]]}},{"type":"Feature","properties":{"numer":"3432L","klasa":"droga zbiorcza","kat":"powiatowa"},"geometry":{"type":"LineString","coordinates":[[24.06203,50.54058],[24.0669,50.53293],[24.06753,50.53217],[24.07426,50.52682],[24.07726,50.52501]]}},{"type":"Feature","properties":{"numer":"3445L","klasa":"","kat":"powiatowa"},"geometry":{"type":"LineString","coordinates":[[23.99559,50.54012],[23.99452,50.53992],[23.99098,50.53954],[23.98956,50.5394],[23.98862,50.5394],[23.98388,50.54095],[23.98233,50.54137],[23.97843,50.54201],[23.97415,50.54294],[23.9658,50.54434],[23.96409,50.5447]]}},{"type":"Feature","properties":{"numer":"3445L","klasa":"","kat":"powiatowa"},"geometry":{"type":"LineString","coordinates":[[23.96409,50.5447],[23.96317,50.54494]]}},{"type":"Feature","properties":{"numer":"3445L","klasa":"","kat":"powiatowa"},"geometry":{"type":"LineString","coordinates":[[23.96317,50.54494],[23.963062130120484,50.544876077108434]]}},{"type":"Feature","properties":{"numer":"3447L","klasa":"","kat":"powiatowa"},"geometry":{"type":"LineString","coordinates":[[23.99559,50.54012],[23.9949,50.54331],[23.99459,50.54373],[23.99146,50.54581],[23.987864678461353,50.54851293900467]]}},{"type":"Feature","properties":{"numer":"3445L","klasa":"","kat":"powiatowa"},"geometry":{"type":"LineString","coordinates":[[24.04988,50.55772],[24.04824,50.55682],[24.04649,50.55618],[24.04141,50.55366],[24.03767,50.55211],[24.03142,50.55008],[24.02909,50.54955],[24.01629,50.5449],[23.99559,50.54012]]}},{"type":"Feature","properties":{"numer":"3432L","klasa":"droga zbiorcza","kat":"powiatowa"},"geometry":{"type":"LineString","coordinates":[[24.05017,50.55769],[24.05035,50.55581],[24.05047,50.55555],[24.05153,50.55428],[24.05347,50.55335],[24.05441,50.55258],[24.06203,50.54058]]}},{"type":"Feature","properties":{"numer":"3432L","klasa":"droga zbiorcza","kat":"powiatowa"},"geometry":{"type":"LineString","coordinates":[[24.05009,50.55783],[24.05017,50.55769]]}},{"type":"Feature","properties":{"numer":"3445L","klasa":"","kat":"powiatowa"},"geometry":{"type":"LineString","coordinates":[[24.04988,50.55772],[24.05009,50.55783]]}},{"type":"Feature","properties":{"numer":"3446L","klasa":"","kat":"powiatowa"},"geometry":{"type":"LineString","coordinates":[[24.05017,50.55769],[24.05898,50.55975]]}},{"type":"Feature","properties":{"numer":"3446L","klasa":"","kat":"powiatowa"},"geometry":{"type":"LineString","coordinates":[[24.05898,50.55975],[24.06024,50.5595],[24.06174,50.55904],[24.06205,50.55913],[24.06306,50.55997],[24.06366,50.56016],[24.06462,50.56027],[24.06858,50.56036]]}},{"type":"Feature","properties":{"numer":"3432L","klasa":"droga zbiorcza","kat":"powiatowa"},"geometry":{"type":"LineString","coordinates":[[24.04335,50.56688],[24.04462,50.56347],[24.04524,50.56295],[24.04677,50.56223],[24.04745,50.56171],[24.04808,50.56056],[24.05009,50.55783]]}},{"type":"Feature","properties":{"numer":"3444L","klasa":"","kat":"powiatowa"},"geometry":{"type":"LineString","coordinates":[[23.9862,50.57327],[23.98866,50.57366],[23.98887,50.57359],[23.98859,50.57269],[23.98864,50.5723],[23.98916,50.57152],[23.99045,50.56908],[23.99297,50.56596],[23.99806,50.56367],[24.00087,50.56299],[24.00186,50.56282],[24.0031,50.5627],[24.00439,50.56274],[24.01291,50.56334],[24.02438,50.56392],[24.0253,50.5642],[24.02819,50.56549],[24.03011,50.56593],[24.04335,50.56688]]}},{"type":"Feature","properties":{"numer":"3446L","klasa":"","kat":"powiatowa"},"geometry":{"type":"LineString","coordinates":[[24.06858,50.56036],[24.06944,50.56043],[24.07085,50.56094],[24.07781,50.56415],[24.08076,50.56516],[24.08117,50.56545],[24.08164,50.56632],[24.08175,50.5668],[24.08152,50.56824],[24.08146,50.56959],[24.08188,50.57311],[24.08159,50.57859]]}},{"type":"Feature","properties":{"numer":"3444L","klasa":"","kat":"powiatowa"},"geometry":{"type":"LineString","coordinates":[[23.9862,50.57327],[23.97113,50.57095],[23.96772,50.56996],[23.96365862810418,50.569051929133856]]}},{"type":"Feature","properties":{"numer":"3432L","klasa":"droga zbiorcza","kat":"powiatowa"},"geometry":{"type":"LineString","coordinates":[[24.03495,50.58605],[24.03401,50.58461],[24.03386,50.58409],[24.0344,50.58138],[24.03405,50.57921],[24.03424,50.5783],[24.03477,50.5776],[24.042,50.57043],[24.04264,50.56913],[24.04335,50.56688]]}},{"type":"Feature","properties":{"numer":"852","klasa":"droga gĹ‚Ăłwna","kat":"wojewodzka"},"geometry":{"type":"LineString","coordinates":[[23.97079,50.58831],[23.97119,50.58641],[23.97117,50.58605],[23.96976,50.58433],[23.96283,50.57202],[23.96235,50.57145],[23.96158,50.571],[23.96056,50.57061],[23.95675391763814,50.569424258956495]]}},{"type":"Feature","properties":{"numer":"844","klasa":"droga gĹ‚Ăłwna","kat":"wojewodzka"},"geometry":{"type":"LineString","coordinates":[[24.08159,50.57859],[24.08341,50.5784]]}},{"type":"Feature","properties":{"numer":"844","klasa":"droga gĹ‚Ăłwna","kat":"wojewodzka"},"geometry":{"type":"LineString","coordinates":[[24.03552,50.58634],[24.03778,50.58624],[24.04854,50.58495],[24.06201,50.58093],[24.06744,50.5797],[24.07811,50.57875],[24.08159,50.57859]]}},{"type":"Feature","properties":{"numer":"3432L","klasa":"droga zbiorcza","kat":"powiatowa"},"geometry":{"type":"LineString","coordinates":[[24.03508,50.58635],[24.03495,50.58605]]}},{"type":"Feature","properties":{"numer":"3432L","klasa":"droga zbiorcza","kat":"powiatowa"},"geometry":{"type":"LineString","coordinates":[[24.03466,50.58637],[24.03495,50.58605]]}},{"type":"Feature","properties":{"numer":"844","klasa":"droga gĹ‚Ăłwna","kat":"wojewodzka"},"geometry":{"type":"LineString","coordinates":[[24.03508,50.58635],[24.03552,50.58634]]}},{"type":"Feature","properties":{"numer":"844","klasa":"droga gĹ‚Ăłwna","kat":"wojewodzka"},"geometry":{"type":"LineString","coordinates":[[24.03466,50.58637],[24.03508,50.58635]]}},{"type":"Feature","properties":{"numer":"3432L","klasa":"droga zbiorcza","kat":"powiatowa"},"geometry":{"type":"LineString","coordinates":[[24.03552,50.58634],[24.03581,50.58684]]}},{"type":"Feature","properties":{"numer":"844","klasa":"droga gĹ‚Ăłwna","kat":"wojewodzka"},"geometry":{"type":"LineString","coordinates":[[24.02725,50.58751],[24.02844,50.58744],[24.03257,50.58648],[24.03466,50.58637]]}},{"type":"Feature","properties":{"numer":"844","klasa":"droga gĹ‚Ăłwna","kat":"wojewodzka"},"geometry":{"type":"LineString","coordinates":[[23.97452,50.5887],[23.98603,50.58856],[23.99719,50.58822],[23.99812,50.58804],[23.99946,50.58755],[24.00152,50.58724],[24.00307,50.58718],[24.00892,50.58731],[24.02019,50.58585],[24.02113,50.58588],[24.02191,50.58602],[24.02725,50.58751]]}},{"type":"Feature","properties":{"numer":"852","klasa":"droga gĹ‚Ăłwna","kat":"wojewodzka"},"geometry":{"type":"LineString","coordinates":[[23.97077,50.58876],[23.97079,50.58831]]}},{"type":"Feature","properties":{"numer":"844","klasa":"droga gĹ‚Ăłwna","kat":"wojewodzka"},"geometry":{"type":"LineString","coordinates":[[23.97077,50.58876],[23.97452,50.5887]]}},{"type":"Feature","properties":{"numer":"844","klasa":"droga gĹ‚Ăłwna","kat":"wojewodzka"},"geometry":{"type":"LineString","coordinates":[[23.939300214270098,50.58844745499599],[23.93978,50.58827],[23.94145,50.5881],[23.95721,50.587],[23.96062,50.5874],[23.96974,50.58869],[23.97077,50.58876]]}},{"type":"Feature","properties":{"numer":"3443L","klasa":"","kat":"powiatowa"},"geometry":{"type":"LineString","coordinates":[[23.97452,50.5887],[23.97545,50.59344],[23.9757,50.594],[23.99291,50.61566]]}},{"type":"Feature","properties":{"numer":"3430L","klasa":"","kat":"powiatowa"},"geometry":{"type":"LineString","coordinates":[[24.02725,50.58751],[24.0277,50.59544],[24.0276,50.59607],[24.02192,50.60533],[24.01628,50.61363],[24.01474,50.6164],[24.01478,50.61693],[24.01585,50.61859],[24.01605,50.61928],[24.01558,50.62448]]}},{"type":"Feature","properties":{"numer":"3443L","klasa":"","kat":"powiatowa"},"geometry":{"type":"LineString","coordinates":[[23.99291,50.61566],[23.99502,50.61832]]}},{"type":"Feature","properties":{"numer":"3443L","klasa":"","kat":"powiatowa"},"geometry":{"type":"LineString","coordinates":[[24.01558,50.62448],[24.01549,50.6244],[24.01473,50.62425],[24.00278,50.62208],[23.99785,50.62144],[23.99719,50.62105],[23.99502,50.61832]]}},{"type":"Feature","properties":{"numer":"3432L","klasa":"droga zbiorcza","kat":"powiatowa"},"geometry":{"type":"LineString","coordinates":[[24.03581,50.58684],[24.03903,50.59186],[24.03932,50.59217],[24.03994,50.59252],[24.04869,50.59632],[24.04942,50.59675],[24.0498,50.59746],[24.05385,50.60708],[24.05442,50.60797],[24.05495,50.60832],[24.06127,50.61149],[24.06711,50.614],[24.06786,50.61442],[24.07539,50.61998],[24.08309,50.62703],[24.08364,50.62765],[24.08382,50.62807],[24.08383,50.6287],[24.0836,50.62942],[24.08064,50.63433],[24.07853,50.63819],[24.07711,50.64053],[24.07707,50.64086],[24.07721,50.64127],[24.07849,50.64256],[24.07866,50.64371],[24.07854,50.64439],[24.07762,50.64586],[24.07708,50.64962],[24.077008253066495,50.649857661717235]]}},{"type":"Feature","properties":{"numer":"3430L","klasa":"","kat":"powiatowa"},"geometry":{"type":"LineString","coordinates":[[24.01558,50.62448],[24.013770877367335,50.63288618188799]]}}]}