{"type":"FeatureCollection","features":[{"type":"Feature","properties":{"numer":"3432L","klasa":"droga zbiorcza","kat":"powiatowa"},"geometry":{"type":"LineString","coordinates":[[24.02937888904781,50.708351176651114],[24.02725,50.71036],[24.02045,50.71637],[24.0186,50.71838]]}},{"type":"Feature","properties":{"numer":"3430L","klasa":"","kat":"powiatowa"},"geometry":{"type":"LineString","coordinates":[[23.985698785932037,50.700590741633796],[23.98539,50.70421],[23.98495,50.70471],[23.98337,50.70596]]}},{"type":"Feature","properties":{"numer":"3430L","klasa":"","kat":"powiatowa"},"geometry":{"type":"LineString","coordinates":[[23.98337,50.70596],[23.98318,50.7061]]}},{"type":"Feature","properties":{"numer":"844","klasa":"droga gĹ‚Ăłwna","kat":"wojewodzka"},"geometry":{"type":"LineString","coordinates":[[23.9055,50.73009],[23.90481,50.72904],[23.90366,50.72684],[23.90298,50.72401],[23.90283,50.72235],[23.89686,50.71119],[23.89678428084837,50.710559689224254]]}},{"type":"Feature","properties":{"numer":"3430L","klasa":"","kat":"powiatowa"},"geometry":{"type":"LineString","coordinates":[[23.98318,50.7061],[23.97949,50.70896],[23.97892,50.70983],[23.97629,50.71471],[23.97586,50.71516],[23.97455,50.71614]]}},{"type":"Feature","properties":{"numer":"3433L","klasa":"","kat":"powiatowa"},"geometry":{"type":"LineString","coordinates":[[23.97455,50.71614],[23.98076,50.71738],[23.98418,50.71783],[23.99686,50.71818],[24.0122,50.71831],[24.01293,50.71846],[24.0142,50.71888],[24.01478,50.71923],[24.01547,50.71988]]}},{"type":"Feature","properties":{"numer":"3432L","klasa":"droga zbiorcza","kat":"powiatowa"},"geometry":{"type":"LineString","coordinates":[[24.01838,50.71862],[24.0186,50.71838]]}},{"type":"Feature","properties":{"numer":"3432L","klasa":"droga zbiorcza","kat":"powiatowa"},"geometry":{"type":"LineString","coordinates":[[24.01838,50.71862],[24.01807,50.71897],[24.0173,50.71945],[24.01547,50.71988]]}},{"type":"Feature","properties":{"numer":"3430L","klasa":"","kat":"powiatowa"},"geometry":{"type":"LineString","coordinates":[[23.97455,50.71614],[23.97314,50.71706],[23.9721,50.7176],[23.95899,50.72316],[23.94844,50.72781],[23.94775,50.72817],[23.94728,50.72853]]}},{"type":"Feature","properties":{"numer":"3424L","klasa":"","kat":"powiatowa"},"geometry":{"type":"LineString","coordinates":[[23.9055,50.73009],[23.91721,50.72941],[23.92135,50.72928],[23.9292,50.72871],[23.93966,50.72571],[23.94061,50.72556],[23.94129,50.72566],[23.94203,50.72592],[23.94421,50.72715],[23.94728,50.72853]]}},{"type":"Feature","properties":{"numer":"3424L","klasa":"","kat":"powiatowa"},"geometry":{"type":"LineString","coordinates":[[23.864915748973832,50.72578321695266],[23.86551,50.72669],[23.86577,50.72688],[23.86574,50.72724],[23.86638,50.73042],[23.86656,50.73211],[23.87816,50.73234],[23.89001,50.73245]]}},{"type":"Feature","properties":{"numer":"3424L","klasa":"","kat":"powiatowa"},"geometry":{"type":"LineString","coordinates":[[23.89001,50.73245],[23.89722,50.73263],[23.89743,50.7325],[23.89784,50.73135],[23.90031,50.73044],[23.90067,50.73037],[23.9055,50.73009]]}},{"type":"Feature","properties":{"numer":"3423L","klasa":"","kat":"powiatowa"},"geometry":{"type":"LineString","coordinates":[[23.828761945098346,50.74128435711367],[23.83221,50.74136],[23.83599,50.74112]]}},{"type":"Feature","properties":{"numer":"844","klasa":"droga gĹ‚Ăłwna","kat":"wojewodzka"},"geometry":{"type":"LineString","coordinates":[[23.89884,50.75559],[23.89964,50.75458],[23.90206,50.75078],[23.90372,50.74361],[23.90412,50.74287],[23.90499,50.74166],[23.90579,50.73996],[23.90634,50.73313],[23.90617,50.7312],[23.9055,50.73009]]}},{"type":"Feature","properties":{"numer":"3423L","klasa":"","kat":"powiatowa"},"geometry":{"type":"LineString","coordinates":[[23.83599,50.74112],[23.83619,50.74127],[23.84652,50.74518],[23.85383,50.74695],[23.85686,50.74743],[23.85924,50.74811],[23.8586,50.74969],[23.86012,50.75],[23.87283,50.75162],[23.87889,50.75287],[23.89884,50.75559]]}},{"type":"Feature","properties":{"numer":"3432L","klasa":"droga zbiorcza","kat":"powiatowa"},"geometry":{"type":"LineString","coordinates":[[24.01547,50.71988],[24.01506,50.72001],[24.01478,50.7202],[24.01444,50.72055],[24.01428,50.72089],[24.0142,50.7236],[24.01398,50.7243],[24.00779,50.73375],[24.01034,50.74454],[24.0105,50.75064],[24.0105,50.75137],[24.01037,50.75169],[24.00954,50.75215],[23.97699,50.76732],[23.96288,50.77186],[23.95903,50.77361],[23.95843,50.77397],[23.95441,50.77704],[23.95072,50.77965],[23.94724,50.78117],[23.94663,50.78155],[23.94614,50.78205],[23.94478,50.78408],[23.94417,50.78483],[23.936272802208688,50.79199118691403]]}},{"type":"Feature","properties":{"numer":"3430L","klasa":"","kat":"powiatowa"},"geometry":{"type":"LineString","coordinates":[[23.94728,50.72853],[23.94661,50.72957],[23.93643,50.74888],[23.93641,50.74952],[23.93716,50.75145],[23.93782,50.75204],[23.93995,50.75358],[23.94046,50.75426],[23.94055,50.75491],[23.94029,50.75561],[23.93982,50.75614],[23.9361,50.75932],[23.9303,50.76627],[23.92989,50.76665],[23.9223,50.77054],[23.92131,50.77112],[23.91123475123717,50.77760914327097]]}},{"type":"Feature","properties":{"numer":"74","klasa":"droga gĹ‚Ăłwna ruchu przyĹ›pieszonego","kat":"krajowa"},"geometry":{"type":"LineString","coordinates":[[23.854465179416778,50.768493510092775],[23.86438,50.77382],[23.87528,50.77835],[23.87761,50.77919],[23.87967,50.77972],[23.87995431931839,50.7797733098722]]}},{"type":"Feature","properties":{"numer":"844","klasa":"droga gĹ‚Ăłwna","kat":"wojewodzka"},"geometry":{"type":"LineString","coordinates":[[23.891088094500386,50.77540789944371],[23.89273,50.77323],[23.89357,50.77152],[23.89454,50.76863],[23.89489,50.76669],[23.8951,50.76424],[23.89708,50.75877],[23.89813,50.75638],[23.89884,50.75559]]}},{"type":"Feature","properties":{"numer":"3413L","klasa":"","kat":"powiatowa"},"geometry":{"type":"LineString","coordinates":[[23.843,50.7984],[23.84417,50.79766],[23.84557,50.7979],[23.84577,50.79791],[23.84584,50.79781],[23.84307,50.7944],[23.84378,50.79142],[23.84422,50.78727],[23.85051,50.78739],[23.85985,50.7854],[23.873288758572183,50.78231612198247]]}},{"type":"Feature","properties":{"numer":"3413L","klasa":"","kat":"powiatowa"},"geometry":{"type":"LineString","coordinates":[[23.878638998547,50.77975272046496],[23.87871,50.77973],[23.879773217357307,50.78010972048475]]}},{"type":"Feature","properties":{"numer":"3413L","klasa":"","kat":"powiatowa"},"geometry":{"type":"LineString","coordinates":[[23.843,50.7984],[23.83959,50.80042],[23.83512,50.8011]]}},{"type":"Feature","properties":{"numer":"3431L","klasa":"","kat":"powiatowa"},"geometry":{"type":"LineString","coordinates":[[23.95175,50.80653],[23.94869,50.79958],[23.94554,50.80009],[23.934867702089008,50.79998229791099]]}},{"type":"Feature","properties":{"numer":"3413L","klasa":"","kat":"powiatowa"},"geometry":{"type":"LineString","coordinates":[[23.83491,50.80115],[23.83458,50.80131],[23.83367,50.80153],[23.83377,50.80243],[23.83359,50.80277],[23.83332,50.80282],[23.83218,50.80269],[23.83078,50.80301],[23.83095,50.80528]]}},{"type":"Feature","properties":{"numer":"74","klasa":"droga gĹ‚Ăłwna ruchu przyĹ›pieszonego","kat":"krajowa"},"geometry":{"type":"LineString","coordinates":[[23.92588751071362,50.8073693869946],[23.92585,50.80764]]}},{"type":"Feature","properties":{"numer":"3413L","klasa":"","kat":"powiatowa"},"geometry":{"type":"LineString","coordinates":[[23.83106,50.80922],[23.82999,50.80848],[23.82977,50.80804],[23.8299,50.80757],[23.83099,50.8062],[23.83095,50.80528]]}},{"type":"Feature","properties":{"numer":"3413L","klasa":"","kat":"powiatowa"},"geometry":{"type":"LineString","coordinates":[[23.83119,50.80931],[23.83106,50.80922]]}},{"type":"Feature","properties":{"numer":"74","klasa":"droga gĹ‚Ăłwna ruchu przyĹ›pieszonego","kat":"krajowa"},"geometry":{"type":"LineString","coordinates":[[23.92585,50.80764],[23.92553,50.81037],[23.92553,50.8113],[23.92567,50.81235],[23.92628,50.81456]]}},{"type":"Feature","properties":{"numer":"111444L","klasa":"droga zbiorcza","kat":"powiatowa"},"geometry":{"type":"LineString","coordinates":[[23.91982,50.81168],[23.919606170651456,50.81157690370696]]}},{"type":"Feature","properties":{"numer":"","klasa":"droga lokalna","kat":"gminna"},"geometry":{"type":"LineString","coordinates":[[23.9211,50.81229],[23.91982,50.81168]]}},{"type":"Feature","properties":{"numer":"","klasa":"droga lokalna","kat":"gminna"},"geometry":{"type":"LineString","coordinates":[[23.92193,50.81267],[23.9211,50.81229]]}},{"type":"Feature","properties":{"numer":"","klasa":"droga lokalna","kat":"gminna"},"geometry":{"type":"LineString","coordinates":[[23.92302,50.81319],[23.92193,50.81267]]}},{"type":"Feature","properties":{"numer":"3413L","klasa":"","kat":"powiatowa"},"geometry":{"type":"LineString","coordinates":[[23.83371,50.81866],[23.83195,50.81071],[23.83171,50.80994],[23.83119,50.80931]]}},{"type":"Feature","properties":{"numer":"74","klasa":"droga gĹ‚Ăłwna ruchu przyĹ›pieszonego","kat":"krajowa"},"geometry":{"type":"LineString","coordinates":[[23.92628,50.81456],[23.92632,50.81475]]}},{"type":"Feature","properties":{"numer":"74","klasa":"droga gĹ‚Ăłwna ruchu przyĹ›pieszonego","kat":"krajowa"},"geometry":{"type":"LineString","coordinates":[[23.92632,50.81475],[23.92635,50.81485]]}},{"type":"Feature","properties":{"numer":"","klasa":"droga lokalna","kat":"gminna"},"geometry":{"type":"LineString","coordinates":[[23.92749,50.8153],[23.92632,50.81475]]}},{"type":"Feature","properties":{"numer":"74","klasa":"droga gĹ‚Ăłwna ruchu przyĹ›pieszonego","kat":"krajowa"},"geometry":{"type":"LineString","coordinates":[[23.92635,50.81485],[23.92658,50.81574]]}},{"type":"Feature","properties":{"numer":"","klasa":"droga lokalna","kat":"gminna"},"geometry":{"type":"LineString","coordinates":[[23.92929,50.81615],[23.92749,50.8153]]}},{"type":"Feature","properties":{"numer":"","klasa":"droga lokalna","kat":"gminna"},"geometry":{"type":"LineString","coordinates":[[23.93239,50.8174],[23.93098,50.81693],[23.92929,50.81615]]}},{"type":"Feature","properties":{"numer":"74","klasa":"droga gĹ‚Ăłwna ruchu przyĹ›pieszonego","kat":"krajowa"},"geometry":{"type":"LineString","coordinates":[[23.92655,50.81792],[23.92674,50.81677],[23.92658,50.81574]]}},{"type":"Feature","properties":{"numer":"3230L","klasa":"droga zbiorcza","kat":"powiatowa"},"geometry":{"type":"LineString","coordinates":[[23.83371,50.81866],[23.83797,50.81749],[23.83929,50.81618],[23.83985,50.81595],[23.84479,50.8168],[23.84618,50.81687],[23.846892041155304,50.816806235120424]]}},{"type":"Feature","properties":{"numer":"3412L","klasa":"","kat":"powiatowa"},"geometry":{"type":"LineString","coordinates":[[23.92602,50.81786],[23.91813,50.81698],[23.91706,50.81701],[23.91517,50.81746],[23.91464,50.8175],[23.9123,50.81708],[23.90957,50.8168],[23.9067629784625,50.81666812650495]]}},{"type":"Feature","properties":{"numer":"","klasa":"droga lokalna","kat":"gminna"},"geometry":{"type":"LineString","coordinates":[[23.93294,50.81763],[23.93239,50.8174]]}},{"type":"Feature","properties":{"numer":"3412L","klasa":"","kat":"powiatowa"},"geometry":{"type":"LineString","coordinates":[[23.93294,50.81763],[23.93258,50.81773],[23.92857,50.81804],[23.9271,50.81798]]}},{"type":"Feature","properties":{"numer":"3412L","klasa":"","kat":"powiatowa"},"geometry":{"type":"LineString","coordinates":[[23.92655,50.81792],[23.92602,50.81786]]}},{"type":"Feature","properties":{"numer":"3412L","klasa":"","kat":"powiatowa"},"geometry":{"type":"LineString","coordinates":[[23.9271,50.81798],[23.92655,50.81792]]}},{"type":"Feature","properties":{"numer":"74","klasa":"droga gĹ‚Ăłwna ruchu przyĹ›pieszonego","kat":"krajowa"},"geometry":{"type":"LineString","coordinates":[[23.92611,50.82004],[23.92655,50.81792]]}},{"type":"Feature","properties":{"numer":"74","klasa":"droga gĹ‚Ăłwna ruchu przyĹ›pieszonego","kat":"krajowa"},"geometry":{"type":"LineString","coordinates":[[23.92611,50.82004],[23.92635,50.82123],[23.92712,50.82252],[23.92825,50.82357],[23.92917,50.82413],[23.92989,50.82447],[23.93111,50.8249],[23.93278,50.82525],[23.94051,50.826]]}},{"type":"Feature","properties":{"numer":"3230L","klasa":"droga zbiorcza","kat":"powiatowa"},"geometry":{"type":"LineString","coordinates":[[23.81261183825859,50.8231674414824],[23.82156,50.82134],[23.82842,50.82006],[23.83371,50.81866]]}},{"type":"Feature","properties":{"numer":"3411L","klasa":"","kat":"powiatowa"},"geometry":{"type":"LineString","coordinates":[[23.94424,50.82579],[23.94391,50.82346]]}},{"type":"Feature","properties":{"numer":"3411L","klasa":"","kat":"powiatowa"},"geometry":{"type":"LineString","coordinates":[[23.94432,50.82637],[23.94424,50.82579]]}},{"type":"Feature","properties":{"numer":"74","klasa":"droga gĹ‚Ăłwna ruchu przyĹ›pieszonego","kat":"krajowa"},"geometry":{"type":"LineString","coordinates":[[23.94051,50.826],[23.94432,50.82637]]}},{"type":"Feature","properties":{"numer":"74","klasa":"droga gĹ‚Ăłwna ruchu przyĹ›pieszonego","kat":"krajowa"},"geometry":{"type":"LineString","coordinates":[[23.94432,50.82637],[23.94852,50.82676]]}},{"type":"Feature","properties":{"numer":"3411L","klasa":"","kat":"powiatowa"},"geometry":{"type":"LineString","coordinates":[[23.9444,50.82682],[23.94432,50.82637]]}},{"type":"Feature","properties":{"numer":"74","klasa":"droga gĹ‚Ăłwna ruchu przyĹ›pieszonego","kat":"krajowa"},"geometry":{"type":"LineString","coordinates":[[23.97453,50.83354],[23.97226,50.83274],[23.97013,50.83237],[23.95942,50.83003],[23.95859,50.82975],[23.95459,50.82798],[23.95278,50.82738],[23.95114,50.82704],[23.94852,50.82676]]}},{"type":"Feature","properties":{"numer":"3407L","klasa":"","kat":"powiatowa"},"geometry":{"type":"LineString","coordinates":[[23.89810565221379,50.83475825961689],[23.90339,50.83698],[23.90684,50.83761],[23.90834,50.83811],[23.90914,50.83865],[23.9105,50.84039],[23.91142,50.8424],[23.91208,50.84338],[23.91253,50.84368],[23.91354,50.84406]]}},{"type":"Feature","properties":{"numer":"3411L","klasa":"","kat":"powiatowa"},"geometry":{"type":"LineString","coordinates":[[23.9175,50.84563],[23.92808,50.84409],[23.92931,50.84382],[23.93071,50.84328],[23.93295,50.84205],[23.93399,50.84138],[23.93507,50.841],[23.93726,50.83902],[23.93755,50.83886],[23.94387,50.8377],[23.94439,50.83751],[23.9447,50.8372],[23.94434,50.83235],[23.94472,50.82918],[23.9444,50.82682]]}},{"type":"Feature","properties":{"numer":"3414L","klasa":"","kat":"powiatowa"},"geometry":{"type":"LineString","coordinates":[[23.8299,50.84476],[23.82833,50.84157],[23.82788,50.84115],[23.82632,50.83988],[23.82306206845988,50.83768435159236]]}},{"type":"Feature","properties":{"numer":"74","klasa":"droga gĹ‚Ăłwna ruchu przyĹ›pieszonego","kat":"krajowa"},"geometry":{"type":"LineString","coordinates":[[23.997248581357457,50.84095452098549],[23.98987,50.83968],[23.9887,50.83939],[23.98114,50.83634],[23.98034,50.83587],[23.97767,50.83389],[23.97614,50.83352],[23.97453,50.83354]]}},{"type":"Feature","properties":{"numer":"111159L","klasa":"droga lokalna","kat":"powiatowa"},"geometry":{"type":"LineString","coordinates":[[23.84511,50.84377],[23.84642,50.84313],[23.84855,50.84243],[23.848872647873666,50.84190203075218]]}},{"type":"Feature","properties":{"numer":"3407L","klasa":"","kat":"powiatowa"},"geometry":{"type":"LineString","coordinates":[[23.91354,50.84406],[23.91369,50.84411]]}},{"type":"Feature","properties":{"numer":"111159L","klasa":"droga lokalna","kat":"powiatowa"},"geometry":{"type":"LineString","coordinates":[[23.84204,50.84476],[23.84389,50.84429],[23.84511,50.84377]]}},{"type":"Feature","properties":{"numer":"3407L","klasa":"","kat":"powiatowa"},"geometry":{"type":"LineString","coordinates":[[23.91369,50.84411],[23.9175,50.84563]]}},{"type":"Feature","properties":{"numer":"111159L","klasa":"droga lokalna","kat":"powiatowa"},"geometry":{"type":"LineString","coordinates":[[23.83961,50.84534],[23.84014,50.84499],[23.84053,50.84485],[23.84102,50.84476],[23.84204,50.84476]]}},{"type":"Feature","properties":{"numer":"3414L","klasa":"","kat":"powiatowa"},"geometry":{"type":"LineString","coordinates":[[23.83834,50.84606],[23.83764,50.84588],[23.83328,50.84604],[23.83101,50.846],[23.83069,50.84587],[23.83031,50.84556],[23.8299,50.84476]]}},{"type":"Feature","properties":{"numer":"111159L","klasa":"droga lokalna","kat":"powiatowa"},"geometry":{"type":"LineString","coordinates":[[23.83834,50.84606],[23.83961,50.84534]]}},{"type":"Feature","properties":{"numer":"844","klasa":"droga gĹ‚Ăłwna","kat":"wojewodzka"},"geometry":{"type":"LineString","coordinates":[[23.86636700972447,50.8465923662885],[23.86502,50.84805],[23.85957,50.85191]]}},{"type":"Feature","properties":{"numer":"3414L","klasa":"","kat":"powiatowa"},"geometry":{"type":"LineString","coordinates":[[23.84578,50.85909],[23.84491,50.85835],[23.84454,50.85792],[23.8431,50.85455],[23.84037,50.84939],[23.8391,50.84822],[23.83898,50.84677],[23.83879,50.8464],[23.83834,50.84606]]}},{"type":"Feature","properties":{"numer":"3408L","klasa":"","kat":"powiatowa"},"geometry":{"type":"LineString","coordinates":[[23.96152,50.87192],[23.96216,50.87124],[23.96353,50.87009],[23.96544,50.86795],[23.96565,50.86752],[23.966927242417476,50.8606097910234]]}},{"type":"Feature","properties":{"numer":"3408L","klasa":"","kat":"powiatowa"},"geometry":{"type":"LineString","coordinates":[[23.968509451114922,50.852491097770155],[23.96862,50.85227],[23.96963,50.85114],[23.96991,50.85069],[23.97331,50.83656],[23.97453,50.83354]]}},{"type":"Feature","properties":{"numer":"844","klasa":"droga gĹ‚Ăłwna","kat":"wojewodzka"},"geometry":{"type":"LineString","coordinates":[[23.85957,50.85191],[23.85478,50.85525],[23.84578,50.85909]]}},{"type":"Feature","properties":{"numer":"3407L","klasa":"","kat":"powiatowa"},"geometry":{"type":"LineString","coordinates":[[23.9175,50.84563],[23.92522,50.85718],[23.92825,50.86488],[23.92837,50.86573],[23.92799,50.86701],[23.92809,50.86735]]}},{"type":"Feature","properties":{"numer":"1855L","klasa":"","kat":"powiatowa"},"geometry":{"type":"LineString","coordinates":[[23.85957,50.85191],[23.85977,50.85221],[23.86209,50.86108]]}},{"type":"Feature","properties":{"numer":"3414L","klasa":"","kat":"powiatowa"},"geometry":{"type":"LineString","coordinates":[[23.86367,50.86535],[23.86121,50.86523],[23.86045,50.86514],[23.85968,50.86493],[23.84578,50.85909]]}},{"type":"Feature","properties":{"numer":"1855L","klasa":"","kat":"powiatowa"},"geometry":{"type":"LineString","coordinates":[[23.86209,50.86108],[23.86372,50.86454],[23.86367,50.86535]]}},{"type":"Feature","properties":{"numer":"1855L","klasa":"","kat":"powiatowa"},"geometry":{"type":"LineString","coordinates":[[23.86367,50.86535],[23.86336,50.86646]]}},{"type":"Feature","properties":{"numer":"3453L","klasa":"","kat":"powiatowa"},"geometry":{"type":"LineString","coordinates":[[23.86209,50.86108],[23.8768,50.85927],[23.87773,50.85919],[23.8785,50.85938],[23.87891,50.85971],[23.87908,50.86009],[23.88003,50.86394],[23.88227,50.86709],[23.88261,50.86738],[23.88293,50.8675],[23.88339,50.86753],[23.88482,50.86745],[23.88516,50.86754],[23.88531,50.86771],[23.88603,50.87033],[23.88643,50.87301],[23.88657,50.87336],[23.89031,50.87255],[23.90048,50.87075],[23.90832,50.86928],[23.91145,50.86907],[23.91933,50.86883],[23.92103,50.86861]]}},{"type":"Feature","properties":{"numer":"1855L","klasa":"","kat":"powiatowa"},"geometry":{"type":"LineString","coordinates":[[23.86336,50.86646],[23.86335,50.86652]]}},{"type":"Feature","properties":{"numer":"3407L","klasa":"","kat":"powiatowa"},"geometry":{"type":"LineString","coordinates":[[23.92809,50.86735],[23.92837,50.86759],[23.92889,50.86765],[23.93208,50.86735],[23.93449,50.8669]]}},{"type":"Feature","properties":{"numer":"3453L","klasa":"","kat":"powiatowa"},"geometry":{"type":"LineString","coordinates":[[23.92736,50.86765],[23.92809,50.86735]]}},{"type":"Feature","properties":{"numer":"3453L","klasa":"","kat":"powiatowa"},"geometry":{"type":"LineString","coordinates":[[23.92103,50.86861],[23.92497,50.8684],[23.92633,50.86809],[23.92736,50.86765]]}},{"type":"Feature","properties":{"numer":"3405L","klasa":"","kat":"powiatowa"},"geometry":{"type":"LineString","coordinates":[[23.93449,50.8669],[23.93584,50.86668],[23.94097,50.86629],[23.94524,50.86677],[23.9494,50.86706],[23.95022,50.86732],[23.95939,50.87188],[23.96018,50.87208],[23.96152,50.87192]]}},{"type":"Feature","properties":{"numer":"1855L","klasa":"","kat":"powiatowa"},"geometry":{"type":"LineString","coordinates":[[23.86335,50.86652],[23.86298,50.86767],[23.86211,50.86908],[23.85255,50.87678]]}},{"type":"Feature","properties":{"numer":"844","klasa":"droga gĹ‚Ăłwna","kat":"wojewodzka"},"geometry":{"type":"LineString","coordinates":[[23.84578,50.85909],[23.84238,50.86065],[23.83911,50.86229],[23.83058,50.86567],[23.82857,50.86673],[23.82515,50.86794],[23.82316,50.8688],[23.82013,50.87054],[23.81808,50.8723],[23.81501,50.87446],[23.81433,50.87482],[23.81365,50.87497],[23.80814859740088,50.875721044723434]]}},{"type":"Feature","properties":{"numer":"3405L","klasa":"","kat":"powiatowa"},"geometry":{"type":"LineString","coordinates":[[23.96152,50.87192],[23.96251,50.87228],[23.96276,50.87247],[23.96303,50.87291],[23.96322,50.87301],[23.964677512953354,50.87313492968171]]}},{"type":"Feature","properties":{"numer":"3405L","klasa":"","kat":"powiatowa"},"geometry":{"type":"LineString","coordinates":[[23.965634337977598,50.87343678519532],[23.96918,50.87589],[23.970040206856105,50.876553680196096]]}},{"type":"Feature","properties":{"numer":"3407L","klasa":"","kat":"powiatowa"},"geometry":{"type":"LineString","coordinates":[[23.93449,50.8669],[23.9354,50.86715],[23.93574,50.86742],[23.93589,50.86778],[23.93624,50.87091],[23.93632,50.87851],[23.93774886998926,50.881692084700006]]}},{"type":"Feature","properties":{"numer":"3406L","klasa":"","kat":"powiatowa"},"geometry":{"type":"LineString","coordinates":[[23.91502,50.90676],[23.91483,50.90291],[23.91568,50.90077],[23.91711,50.89931],[23.91741,50.89866],[23.91738,50.89806],[23.91695,50.89639],[23.91696,50.89562],[23.92339,50.88255],[23.92328,50.88195],[23.92185,50.87831],[23.92179,50.8776],[23.92203,50.87695],[23.92449,50.87427],[23.92469,50.87385],[23.92473,50.87324],[23.92292,50.87101],[23.92094,50.86951],[23.92087,50.86921],[23.92103,50.86861]]}},{"type":"Feature","properties":{"numer":"1856L","klasa":"","kat":"powiatowa"},"geometry":{"type":"LineString","coordinates":[[23.85255,50.87678],[23.84525,50.88264],[23.83609,50.88802],[23.83373,50.88952],[23.83104,50.89137],[23.82834,50.8942],[23.82324,50.89869],[23.82303,50.89896],[23.82273,50.8999],[23.82188,50.90154],[23.82059,50.90309]]}},{"type":"Feature","properties":{"numer":"1855L","klasa":"","kat":"powiatowa"},"geometry":{"type":"LineString","coordinates":[[23.85255,50.87678],[23.85274,50.87694],[23.85185,50.88433],[23.85081,50.8965],[23.84996,50.90257],[23.84996,50.90318],[23.85035,50.9043]]}},{"type":"Feature","properties":{"numer":"3404L","klasa":"droga zbiorcza","kat":"powiatowa"},"geometry":{"type":"LineString","coordinates":[[23.82059,50.90309],[23.82188,50.90303],[23.82992,50.90395],[23.84042,50.90469],[23.84378,50.90485],[23.84976,50.90549]]}},{"type":"Feature","properties":{"numer":"3404L","klasa":"droga zbiorcza","kat":"powiatowa"},"geometry":{"type":"LineString","coordinates":[[23.92546332846671,50.905673182467986],[23.91502,50.90676]]}},{"type":"Feature","properties":{"numer":"1855L,3404L","klasa":"","kat":"powiatowa"},"geometry":{"type":"LineString","coordinates":[[23.85035,50.9043],[23.85027,50.90479],[23.84976,50.90549]]}},{"type":"Feature","properties":{"numer":"3404L","klasa":"droga zbiorcza","kat":"powiatowa"},"geometry":{"type":"LineString","coordinates":[[23.794788247704627,50.90607725068372],[23.79527,50.906],[23.80172,50.90527],[23.80799,50.90466],[23.82059,50.90309]]}},{"type":"Feature","properties":{"numer":"3404L","klasa":"droga zbiorcza","kat":"powiatowa"},"geometry":{"type":"LineString","coordinates":[[23.91502,50.90676],[23.91196,50.90719],[23.90788,50.90754],[23.90196,50.90767],[23.8982,50.90798],[23.88834,50.90786],[23.88266,50.90772],[23.87984,50.90777],[23.87892,50.90785],[23.87592,50.90849],[23.87502,50.90857],[23.86989,50.90832],[23.86823,50.90816],[23.86541,50.90824],[23.86341,50.90814],[23.86093,50.90823],[23.86016,50.90812],[23.85618,50.907],[23.85219,50.90489],[23.85111,50.90447],[23.85035,50.9043]]}},{"type":"Feature","properties":{"numer":"1856L","klasa":"","kat":"powiatowa"},"geometry":{"type":"LineString","coordinates":[[23.82059,50.90309],[23.81575,50.90906],[23.81127,50.91634],[23.80635,50.92018],[23.80535,50.92084],[23.80425,50.9214],[23.80335,50.92162],[23.7987,50.92171],[23.7961,50.92192],[23.79307,50.92239],[23.791046264061087,50.922380716807616]]}},{"type":"Feature","properties":{"numer":"1856L","klasa":"","kat":"powiatowa"},"geometry":{"type":"LineString","coordinates":[[23.788276766316546,50.92274816859682],[23.786301717740223,50.923357829893696]]}},{"type":"Feature","properties":{"numer":"1856L","klasa":"","kat":"powiatowa"},"geometry":{"type":"LineString","coordinates":[[23.78483986830807,50.9239259060979],[23.78393,50.92439],[23.782754617684734,50.92473623665101]]}},{"type":"Feature","properties":{"numer":"1856L","klasa":"","kat":"powiatowa"},"geometry":{"type":"LineString","coordinates":[[23.78255324064172,50.92481449197861],[23.78225,50.92497]]}},{"type":"Feature","properties":{"numer":"1855L","klasa":"","kat":"powiatowa"},"geometry":{"type":"LineString","coordinates":[[23.84976,50.90549],[23.84842,50.90686],[23.84787,50.90756],[23.84637,50.90972],[23.84261,50.91563],[23.84295,50.92144],[23.84341,50.92355],[23.84309,50.92671],[23.84345,50.92777],[23.84375,50.92971],[23.84507,50.93342],[23.84706,50.93533],[23.84769,50.93634],[23.84919,50.93762],[23.85129,50.93854],[23.85173,50.93861],[23.85436,50.93862],[23.85495,50.93875],[23.85524,50.93896],[23.85533,50.93916],[23.85516416457759,50.93998917711206]]}},{"type":"Feature","properties":{"numer":"1856L","klasa":"droga zbiorcza","kat":"powiatowa"},"geometry":{"type":"LineString","coordinates":[[23.782037486775742,50.92512067535982],[23.78225,50.92497]]}}]}