{"type":"FeatureCollection","features":[{"type":"Feature","properties":{"numer":"2904L","klasa":"","kat":"powiatowa"},"geometry":{"type":"LineString","coordinates":[[22.89272572961834,50.81280011911189],[22.89273,50.8128]]}},{"type":"Feature","properties":{"numer":"3109L","klasa":"droga zbiorcza","kat":"powiatowa"},"geometry":{"type":"LineString","coordinates":[[22.89979,50.812],[22.89957,50.81137],[22.89911,50.81079]]}},{"type":"Feature","properties":{"numer":"837","klasa":"droga zbiorcza","kat":"wojewodzka"},"geometry":{"type":"LineString","coordinates":[[23.001062734288862,50.83617538839331],[23.00059,50.83643],[22.9841,50.84329],[22.97842,50.84542]]}},{"type":"Feature","properties":{"numer":"3107L","klasa":"droga zbiorcza","kat":"powiatowa"},"geometry":{"type":"LineString","coordinates":[[23.012421331490184,50.8502067074924],[23.01241,50.85023]]}},{"type":"Feature","properties":{"numer":"3109L","klasa":"droga zbiorcza","kat":"powiatowa"},"geometry":{"type":"LineString","coordinates":[[22.97642,50.8446],[22.97641,50.84449]]}},{"type":"Feature","properties":{"numer":"3109L","klasa":"droga zbiorcza","kat":"powiatowa"},"geometry":{"type":"LineString","coordinates":[[22.97656,50.84612],[22.97642,50.8446]]}},{"type":"Feature","properties":{"numer":"3109L","klasa":"","kat":"powiatowa"},"geometry":{"type":"LineString","coordinates":[[22.89911,50.81079],[22.89883,50.81081],[22.89273,50.8128]]}},{"type":"Feature","properties":{"numer":"3109L","klasa":"droga zbiorcza","kat":"powiatowa"},"geometry":{"type":"LineString","coordinates":[[22.8998,50.81208],[22.89979,50.812]]}},{"type":"Feature","properties":{"numer":"3101L","klasa":"","kat":"powiatowa"},"geometry":{"type":"LineString","coordinates":[[22.91565,50.82486],[22.91746,50.8229],[22.92187,50.81955],[22.93678,50.80784],[22.936934116230432,50.807786181633816]]}},{"type":"Feature","properties":{"numer":"3109L","klasa":"droga zbiorcza","kat":"powiatowa"},"geometry":{"type":"LineString","coordinates":[[22.91565,50.82486],[22.91407,50.82374],[22.91266,50.82302],[22.9119,50.82238],[22.91154,50.82196],[22.91086,50.82031],[22.91062,50.81995],[22.90905,50.81829],[22.90789,50.81736],[22.90724,50.81713],[22.90237,50.81643],[22.9017,50.81624],[22.90079,50.8158],[22.89968,50.81379],[22.8998,50.81208]]}},{"type":"Feature","properties":{"numer":"3101L","klasa":"","kat":"powiatowa"},"geometry":{"type":"LineString","coordinates":[[22.899316680141492,50.83685524507327],[22.89951,50.83681],[22.90006,50.83651],[22.90029,50.83623],[22.90168,50.83279],[22.90203,50.8324],[22.9061,50.82986],[22.90662,50.82967],[22.90778,50.82941],[22.90842,50.82896],[22.91062,50.82824],[22.9136,50.82691],[22.91462,50.82622],[22.91565,50.82486]]}},{"type":"Feature","properties":{"numer":"3109L","klasa":"droga zbiorcza","kat":"powiatowa"},"geometry":{"type":"LineString","coordinates":[[22.97641,50.84449],[22.9764,50.84439],[22.97288,50.84355],[22.96494,50.84188],[22.96395,50.84179],[22.9588,50.84164],[22.95647,50.84148],[22.94834,50.84059],[22.94217,50.83954],[22.93914,50.83956],[22.93822,50.83939],[22.9333,50.83749],[22.92558,50.83309],[22.92333,50.83193],[22.91851,50.82724],[22.91616,50.8252],[22.91565,50.82486]]}},{"type":"Feature","properties":{"numer":"837","klasa":"droga zbiorcza","kat":"wojewodzka"},"geometry":{"type":"LineString","coordinates":[[22.94308,50.8633],[22.95742,50.85312],[22.97656,50.84612]]}},{"type":"Feature","properties":{"numer":"3110L","klasa":"droga gĹ‚Ăłwna","kat":"powiatowa"},"geometry":{"type":"LineString","coordinates":[[22.96848,50.87982],[22.9677,50.87937],[22.96385,50.87676],[22.95984,50.87482],[22.95876,50.87438],[22.95278,50.8727],[22.95216,50.87242],[22.94999,50.87053],[22.9463,50.86703],[22.94308,50.8633]]}},{"type":"Feature","properties":{"numer":"837","klasa":"droga zbiorcza","kat":"wojewodzka"},"geometry":{"type":"LineString","coordinates":[[22.90859,50.88299],[22.91183,50.8819],[22.91602,50.88014],[22.92087,50.87793],[22.92521,50.87615],[22.92754,50.87472],[22.92966,50.87273],[22.92974,50.87248],[22.92968,50.8723],[22.92882,50.87119],[22.92885,50.87094],[22.92904,50.87076],[22.93019,50.87004],[22.93334,50.86846],[22.9355,50.86783],[22.93915,50.86616],[22.94308,50.8633]]}},{"type":"Feature","properties":{"numer":"3110L","klasa":"droga gĹ‚Ăłwna","kat":"powiatowa"},"geometry":{"type":"LineString","coordinates":[[22.96848,50.87982],[22.9686,50.87989]]}},{"type":"Feature","properties":{"numer":"3108L","klasa":"","kat":"powiatowa"},"geometry":{"type":"LineString","coordinates":[[22.90010801471146,50.84583341775991],[22.90016,50.84587],[22.90103,50.84795],[22.901025052165213,50.84799700443047]]}},{"type":"Feature","properties":{"numer":"3108L","klasa":"","kat":"powiatowa"},"geometry":{"type":"LineString","coordinates":[[22.89054512353706,50.85421325097529],[22.89043,50.85429],[22.890428383897316,50.85436272462076]]}},{"type":"Feature","properties":{"numer":"3108L","klasa":"","kat":"powiatowa"},"geometry":{"type":"LineString","coordinates":[[22.890576051293902,50.854949175138636],[22.89089,50.85537],[22.89093,50.85558],[22.89075,50.85605],[22.8903,50.85667],[22.89005,50.8574],[22.889918084522503,50.859135729967065]]}},{"type":"Feature","properties":{"numer":"3108L","klasa":"","kat":"powiatowa"},"geometry":{"type":"LineString","coordinates":[[22.88961613553465,50.86019334421194],[22.88917,50.86073],[22.89077,50.86217],[22.89415,50.86565],[22.89726,50.86962],[22.90078,50.8748],[22.90171,50.87564],[22.90334,50.87683]]}},{"type":"Feature","properties":{"numer":"837","klasa":"droga zbiorcza","kat":"wojewodzka"},"geometry":{"type":"LineString","coordinates":[[22.97656,50.84612],[22.97842,50.84542]]}},{"type":"Feature","properties":{"numer":"3109L","klasa":"droga zbiorcza","kat":"powiatowa"},"geometry":{"type":"LineString","coordinates":[[22.97842,50.84542],[22.97926,50.84629],[22.98027,50.84688],[22.98185,50.84754],[22.98824,50.84982]]}},{"type":"Feature","properties":{"numer":"109881L,3109L","klasa":"droga zbiorcza","kat":"powiatowa"},"geometry":{"type":"LineString","coordinates":[[22.98824,50.84982],[22.98828,50.84984]]}},{"type":"Feature","properties":{"numer":"3109L","klasa":"droga zbiorcza","kat":"powiatowa"},"geometry":{"type":"LineString","coordinates":[[22.98828,50.84984],[22.99215,50.85116],[22.99544,50.85207],[22.99805,50.85255],[23.00066,50.8529],[23.00259,50.85374],[23.00372,50.85404],[23.00586,50.85533],[23.00733,50.85585],[23.00825,50.85639],[23.00898,50.85669]]}},{"type":"Feature","properties":{"numer":"3107L","klasa":"droga gĹ‚Ăłwna","kat":"powiatowa"},"geometry":{"type":"LineString","coordinates":[[23.00898,50.85669],[23.00932,50.85549],[23.00955,50.85514],[23.01077,50.85438],[23.01189,50.8541],[23.01213,50.85396],[23.01209,50.85363],[23.01173,50.85303],[23.0111,50.85244],[23.011,50.85206],[23.01241,50.85023]]}},{"type":"Feature","properties":{"numer":"3107L,3109L","klasa":"droga gĹ‚Ăłwna","kat":"powiatowa"},"geometry":{"type":"LineString","coordinates":[[23.00876,50.85716],[23.00898,50.85669]]}},{"type":"Feature","properties":{"numer":"3109L","klasa":"droga zbiorcza","kat":"powiatowa"},"geometry":{"type":"LineString","coordinates":[[23.02317,50.86649],[23.01937,50.86413],[23.01821,50.86317],[23.01624,50.86233],[23.013,50.86046],[23.01106,50.85878],[23.00876,50.85716]]}},{"type":"Feature","properties":{"numer":"3109L","klasa":"droga zbiorcza","kat":"powiatowa"},"geometry":{"type":"LineString","coordinates":[[23.02317,50.86649],[23.02618,50.86846],[23.02688,50.86879],[23.02809,50.86899],[23.02898,50.86905],[23.03285,50.86905],[23.033516578317215,50.86919567605608]]}},{"type":"Feature","properties":{"numer":"3107L","klasa":"droga gĹ‚Ăłwna","kat":"powiatowa"},"geometry":{"type":"LineString","coordinates":[[22.97473,50.88016],[22.97493,50.87994],[22.97689,50.87873],[22.97704,50.87856],[22.97716,50.87832],[22.97725,50.87681],[22.97763,50.87563],[22.97792,50.87536],[22.97897,50.87488],[22.98063,50.87353],[22.98312,50.87227],[22.9839,50.87168],[22.98508,50.87054],[22.9871,50.86959],[22.9912,50.86678],[22.99182,50.86648],[22.99515,50.8653],[22.99594,50.86494],[22.99875,50.86329],[23.00085,50.86148],[23.00426,50.85985],[23.00579,50.8588],[23.00818,50.85785],[23.00854,50.85754],[23.00876,50.85716]]}},{"type":"Feature","properties":{"numer":"3107L,3110L","klasa":"droga gĹ‚Ăłwna","kat":"powiatowa"},"geometry":{"type":"LineString","coordinates":[[22.97249,50.88052],[22.9736,50.8806],[22.97473,50.88016]]}},{"type":"Feature","properties":{"numer":"3111L","klasa":"","kat":"powiatowa"},"geometry":{"type":"LineString","coordinates":[[23.02145,50.88564],[23.02066,50.88544],[23.01995,50.88542],[23.01886,50.8859],[23.0182,50.88606],[23.01562,50.88614]]}},{"type":"Feature","properties":{"numer":"3111L","klasa":"","kat":"powiatowa"},"geometry":{"type":"LineString","coordinates":[[23.025986052953158,50.88663152179226],[23.02519,50.8865],[23.02491385748217,50.88649671258907]]}},{"type":"Feature","properties":{"numer":"3111L","klasa":"","kat":"powiatowa"},"geometry":{"type":"LineString","coordinates":[[23.022828043373494,50.886151209638555],[23.02145,50.88564]]}},{"type":"Feature","properties":{"numer":"3111L","klasa":"","kat":"powiatowa"},"geometry":{"type":"LineString","coordinates":[[23.02169,50.88606],[23.02145,50.88564]]}},{"type":"Feature","properties":{"numer":"3110L","klasa":"droga gĹ‚Ăłwna","kat":"powiatowa"},"geometry":{"type":"LineString","coordinates":[[22.97473,50.88016],[22.97531,50.88037],[22.97652,50.88113],[22.98055,50.88411],[22.98261,50.8859],[22.98608,50.88916],[22.98764,50.89115],[22.98842,50.89264],[22.98879,50.89449],[22.9911,50.89885],[22.99142,50.90034],[22.99456,50.90485]]}},{"type":"Feature","properties":{"numer":"3111L","klasa":"","kat":"powiatowa"},"geometry":{"type":"LineString","coordinates":[[22.99456,50.90485],[23.00071,50.90364],[23.0018,50.90328],[23.00458,50.90134],[23.00745,50.89796],[23.00754,50.89711],[23.00766,50.89691],[23.01154,50.89589],[23.01216,50.89569],[23.01237,50.89554],[23.01401,50.89283],[23.01359,50.89166],[23.01356,50.88988],[23.01469,50.88825],[23.01562,50.88614]]}},{"type":"Feature","properties":{"numer":"3112L","klasa":"","kat":"powiatowa"},"geometry":{"type":"LineString","coordinates":[[22.95008,50.89134],[22.9509,50.89314],[22.95188,50.89485],[22.95239,50.89548],[22.95327,50.89621],[22.95446,50.89765],[22.9548,50.89826],[22.95472,50.89856],[22.95445,50.89893],[22.9534,50.90011],[22.95342,50.90123],[22.95289,50.9026],[22.95293,50.90294],[22.95329,50.90325],[22.95699,50.90519],[22.95885,50.90517],[22.96036,50.90532],[22.96477,50.90529],[22.96698,50.90552],[22.96994,50.90549],[22.97129,50.90585],[22.97237,50.90581],[22.97381,50.90604],[22.97511,50.90597],[22.97733,50.90606],[22.98085,50.90598],[22.98177,50.90604],[22.984135820895574,50.906352835820904]]}},{"type":"Feature","properties":{"numer":"3112L","klasa":"","kat":"powiatowa"},"geometry":{"type":"LineString","coordinates":[[22.985617647058827,50.90664352941177],[22.98577,50.90673],[22.98623,50.90747],[22.98701,50.90784],[22.987438666666677,50.90786521568628]]}},{"type":"Feature","properties":{"numer":"3112L","klasa":"","kat":"powiatowa"},"geometry":{"type":"LineString","coordinates":[[22.991487037037043,50.90843370370371],[22.99332,50.90847],[22.995304613774344,50.908795832112204]]}},{"type":"Feature","properties":{"numer":"3108L","klasa":"","kat":"powiatowa"},"geometry":{"type":"LineString","coordinates":[[22.90334,50.87683],[22.90548,50.87938],[22.9057,50.87961],[22.90593,50.87967],[22.90808,50.88255],[22.90859,50.88299]]}},{"type":"Feature","properties":{"numer":"3110L","klasa":"droga gĹ‚Ăłwna","kat":"powiatowa"},"geometry":{"type":"LineString","coordinates":[[22.9686,50.87989],[22.96918,50.88012],[22.97249,50.88052]]}},{"type":"Feature","properties":{"numer":"837","klasa":"droga zbiorcza","kat":"wojewodzka"},"geometry":{"type":"LineString","coordinates":[[22.90473,50.88466],[22.90686,50.88362],[22.90859,50.88299]]}},{"type":"Feature","properties":{"numer":"837","klasa":"droga zbiorcza","kat":"wojewodzka"},"geometry":{"type":"LineString","coordinates":[[22.89370961390917,50.88397502413068],[22.89395,50.88396],[22.9001,50.88525],[22.90079,50.88522],[22.90301,50.88481],[22.90473,50.88466]]}},{"type":"Feature","properties":{"numer":"3107L","klasa":"droga gĹ‚Ăłwna","kat":"powiatowa"},"geometry":{"type":"LineString","coordinates":[[22.97249,50.88052],[22.96815,50.88293],[22.9669,50.88342],[22.9664,50.8837],[22.9647,50.88534],[22.96399,50.88651],[22.96356,50.88693],[22.9561,50.88945],[22.95416,50.8903],[22.95008,50.89134]]}},{"type":"Feature","properties":{"numer":"3107L","klasa":"droga gĹ‚Ăłwna","kat":"powiatowa"},"geometry":{"type":"LineString","coordinates":[[22.90473,50.88466],[22.903,50.88603],[22.90203,50.88711],[22.90372,50.88875],[22.90518,50.89118]]}},{"type":"Feature","properties":{"numer":"3107L","klasa":"droga gĹ‚Ăłwna","kat":"powiatowa"},"geometry":{"type":"LineString","coordinates":[[22.95008,50.89134],[22.94312,50.89323],[22.9407,50.89374],[22.93995,50.89384],[22.93903,50.89386],[22.93786,50.89386],[22.93719,50.89378]]}},{"type":"Feature","properties":{"numer":"3107L","klasa":"droga gĹ‚Ăłwna","kat":"powiatowa"},"geometry":{"type":"LineString","coordinates":[[22.93719,50.89378],[22.93406,50.89297],[22.93303,50.89285],[22.92668,50.89346],[22.924,50.89404],[22.92269,50.89397],[22.921649501246883,50.89360326683292]]}},{"type":"Feature","properties":{"numer":"3107L","klasa":"droga gĹ‚Ăłwna","kat":"powiatowa"},"geometry":{"type":"LineString","coordinates":[[22.921209496143117,50.89353255703266],[22.92112,50.89353],[22.91605,50.89413],[22.91346,50.89462],[22.91023,50.89572],[22.90804,50.89591],[22.90789,50.89582],[22.90731,50.89497],[22.907,50.89423],[22.90623,50.89313],[22.90518,50.89118]]}},{"type":"Feature","properties":{"numer":"3106L","klasa":"","kat":"powiatowa"},"geometry":{"type":"LineString","coordinates":[[22.92260832902066,50.906385994912505],[22.923406217224446,50.90619567295564]]}},{"type":"Feature","properties":{"numer":"3106L","klasa":"","kat":"powiatowa"},"geometry":{"type":"LineString","coordinates":[[22.922762281690147,50.90356287323945],[22.9227,50.90341],[22.92162,50.90211],[22.92133870503597,50.90150990407674]]}},{"type":"Feature","properties":{"numer":"3106L","klasa":"","kat":"powiatowa"},"geometry":{"type":"LineString","coordinates":[[22.920551511988716,50.90042520169253],[22.92043,50.90026],[22.92002,50.89897],[22.92002,50.89854]]}},{"type":"Feature","properties":{"numer":"3113L","klasa":"","kat":"powiatowa"},"geometry":{"type":"LineString","coordinates":[[22.99496,50.90773],[22.99607,50.90777],[22.99733,50.90772],[23.00017,50.90726],[23.004,50.90695],[23.00774,50.9062],[23.01025535031845,50.906309363057325]]}},{"type":"Feature","properties":{"numer":"3113L","klasa":"","kat":"powiatowa"},"geometry":{"type":"LineString","coordinates":[[23.0283458290946,50.90209925737538],[23.028880847965155,50.90200502109705]]}},{"type":"Feature","properties":{"numer":"3110L","klasa":"droga gĹ‚Ăłwna","kat":"powiatowa"},"geometry":{"type":"LineString","coordinates":[[22.99456,50.90485],[22.99487,50.90541],[22.99496,50.90773]]}},{"type":"Feature","properties":{"numer":"3110L","klasa":"droga gĹ‚Ăłwna","kat":"powiatowa"},"geometry":{"type":"LineString","coordinates":[[22.99496,50.90773],[22.99532724822287,50.908792042158034]]}}]}