{"type":"FeatureCollection","features":[{"type":"Feature","properties":{"numer":"1575L","klasa":"","kat":"powiatowa"},"geometry":{"type":"LineString","coordinates":[[22.948436840681403,51.396778417804455],[22.94874,51.39747],[22.94923,51.40011],[22.94827,51.40205],[22.94816,51.40258],[22.94911,51.40539]]}},{"type":"Feature","properties":{"numer":"1574L","klasa":"droga zbiorcza","kat":"powiatowa"},"geometry":{"type":"LineString","coordinates":[[22.95696,51.41512],[22.95933,51.41366],[22.96069,51.41332],[22.96329,51.41304],[22.96413,51.41282],[22.96537,51.41227],[22.96614,51.41163],[22.96753,51.41008],[22.96809,51.40868],[22.97017,51.401],[22.97085303821524,51.39798162160123]]}},{"type":"Feature","properties":{"numer":"103645L,1575L","klasa":"","kat":"powiatowa"},"geometry":{"type":"LineString","coordinates":[[22.94911,51.40539],[22.94915,51.4055]]}},{"type":"Feature","properties":{"numer":"1575L","klasa":"","kat":"powiatowa"},"geometry":{"type":"LineString","coordinates":[[22.94915,51.4055],[22.95027,51.40836],[22.95696,51.41512]]}},{"type":"Feature","properties":{"numer":"1574L","klasa":"droga zbiorcza","kat":"powiatowa"},"geometry":{"type":"LineString","coordinates":[[22.95713,51.41547],[22.95696,51.41512]]}},{"type":"Feature","properties":{"numer":"1574L","klasa":"droga zbiorcza","kat":"powiatowa"},"geometry":{"type":"LineString","coordinates":[[22.95721,51.41569],[22.95713,51.41547]]}},{"type":"Feature","properties":{"numer":"1574L","klasa":"droga zbiorcza","kat":"powiatowa"},"geometry":{"type":"LineString","coordinates":[[22.94245,51.47187],[22.93984,51.47047],[22.9394,51.47011],[22.9362,51.46558],[22.93648,51.45661],[22.94677,51.45278],[22.95352,51.44821],[22.95349,51.44806],[22.94885,51.44204],[22.94863,51.44166],[22.94857,51.44112],[22.94979,51.43628],[22.95098,51.43214],[22.95221,51.42905],[22.95214,51.42851],[22.95128,51.42695],[22.95081,51.42554],[22.95098,51.42401],[22.95143,51.42334],[22.95214,51.42278],[22.95295,51.4224],[22.95463,51.42192],[22.95516,51.42169],[22.95626,51.42077],[22.95774,51.41845],[22.95787,51.41807],[22.95786,51.41773],[22.95721,51.41569]]}},{"type":"Feature","properties":{"numer":"1573L","klasa":"","kat":"powiatowa"},"geometry":{"type":"LineString","coordinates":[[22.95892,51.4697],[22.97244,51.46983],[22.97329,51.46972],[22.973735143711817,51.46962408505657]]}},{"type":"Feature","properties":{"numer":"1573L","klasa":"","kat":"powiatowa"},"geometry":{"type":"LineString","coordinates":[[22.982899866638345,51.46860829064353],[22.98517,51.46844]]}},{"type":"Feature","properties":{"numer":"1572L","klasa":"","kat":"powiatowa"},"geometry":{"type":"LineString","coordinates":[[22.95903,51.4699],[22.95892,51.4697]]}},{"type":"Feature","properties":{"numer":"1573L","klasa":"","kat":"powiatowa"},"geometry":{"type":"LineString","coordinates":[[22.94245,51.47187],[22.94606,51.47164],[22.9469,51.4715],[22.95547,51.46943],[22.95656,51.46941],[22.95892,51.4697]]}},{"type":"Feature","properties":{"numer":"1574L","klasa":"droga zbiorcza","kat":"powiatowa"},"geometry":{"type":"LineString","coordinates":[[22.94004,51.47891],[22.94233,51.4734],[22.94245,51.47187]]}},{"type":"Feature","properties":{"numer":"1573L","klasa":"droga zbiorcza","kat":"powiatowa"},"geometry":{"type":"LineString","coordinates":[[22.98517,51.46844],[22.985172812500004,51.4684395703125]]}},{"type":"Feature","properties":{"numer":"1572L","klasa":"","kat":"powiatowa"},"geometry":{"type":"LineString","coordinates":[[22.95903,51.4699],[22.96108,51.47146],[22.96197,51.472],[22.96762,51.47449],[22.96896,51.47498],[22.97129,51.47692],[22.97169,51.47719],[22.97224,51.47739],[22.99493,51.48061]]}},{"type":"Feature","properties":{"numer":"1572L","klasa":"","kat":"powiatowa"},"geometry":{"type":"LineString","coordinates":[[22.99493,51.48061],[23.00125,51.48146]]}},{"type":"Feature","properties":{"numer":"1572L","klasa":"droga zbiorcza","kat":"powiatowa"},"geometry":{"type":"LineString","coordinates":[[23.001252150581017,51.48146030144896],[23.00125,51.48146]]}},{"type":"Feature","properties":{"numer":"1570L","klasa":"droga zbiorcza","kat":"powiatowa"},"geometry":{"type":"LineString","coordinates":[[22.8913953038674,51.48287395027624],[22.89187,51.48278],[22.89873,51.48176],[22.91763,51.47937],[22.92177,51.47863],[22.92566,51.47867],[22.93489,51.48063],[22.9358,51.48049],[22.93671,51.48024],[22.93876,51.47957],[22.93933,51.47937],[22.94004,51.47891]]}},{"type":"Feature","properties":{"numer":"1570L","klasa":"droga zbiorcza","kat":"powiatowa"},"geometry":{"type":"LineString","coordinates":[[22.94004,51.47891],[22.94229,51.48232],[22.94256,51.48252],[22.94474,51.48317],[22.94515,51.4834],[22.94607,51.48448],[22.94714,51.48624],[22.94726,51.48675],[22.94718,51.4875],[22.94571,51.49251],[22.94545,51.4937],[22.94557,51.49414],[22.94577,51.49432],[22.94626,51.49442],[22.94952,51.49427],[22.95191,51.49503]]}},{"type":"Feature","properties":{"numer":"1570L","klasa":"droga zbiorcza","kat":"powiatowa"},"geometry":{"type":"LineString","coordinates":[[22.952,51.49506],[22.95191,51.49503]]}},{"type":"Feature","properties":{"numer":"1570L","klasa":"droga zbiorcza","kat":"powiatowa"},"geometry":{"type":"LineString","coordinates":[[22.95404,51.49575],[22.952,51.49506]]}},{"type":"Feature","properties":{"numer":"1570L","klasa":"droga zbiorcza","kat":"powiatowa"},"geometry":{"type":"LineString","coordinates":[[22.95413,51.49578],[22.95404,51.49575]]}},{"type":"Feature","properties":{"numer":"1570L","klasa":"droga zbiorcza","kat":"powiatowa"},"geometry":{"type":"LineString","coordinates":[[22.95413,51.49578],[22.95884,51.49733],[22.95742,51.5007],[22.95748,51.501],[22.96643,51.50846]]}},{"type":"Feature","properties":{"numer":"1566L","klasa":"droga zbiorcza","kat":"powiatowa"},"geometry":{"type":"LineString","coordinates":[[22.94457,51.50898],[22.94164,51.50774],[22.94017,51.50734],[22.93419,51.50683],[22.93078,51.50614],[22.92978,51.50601],[22.91679,51.50462]]}},{"type":"Feature","properties":{"numer":"1566L","klasa":"droga zbiorcza","kat":"powiatowa"},"geometry":{"type":"LineString","coordinates":[[22.94473,51.50905],[22.94457,51.50898]]}},{"type":"Feature","properties":{"numer":"1566L","klasa":"droga zbiorcza","kat":"powiatowa"},"geometry":{"type":"LineString","coordinates":[[22.94577,51.50944],[22.94473,51.50905]]}},{"type":"Feature","properties":{"numer":"1566L","klasa":"droga zbiorcza","kat":"powiatowa"},"geometry":{"type":"LineString","coordinates":[[22.96643,51.50846],[22.9582,51.5111],[22.9569,51.51134],[22.95607,51.51134],[22.95516,51.5112],[22.94577,51.50944]]}},{"type":"Feature","properties":{"numer":"1571L","klasa":"","kat":"powiatowa"},"geometry":{"type":"LineString","coordinates":[[22.99493,51.48061],[22.9986,51.4892],[23.00011,51.49236],[23.00048,51.49335],[23.00157,51.49932],[23.00198,51.5037],[23.00417,51.50857],[23.0035,51.51195],[23.00309,51.51324]]}},{"type":"Feature","properties":{"numer":"1566L","klasa":"droga zbiorcza","kat":"powiatowa"},"geometry":{"type":"LineString","coordinates":[[22.97973,51.50714],[22.97938,51.50718]]}},{"type":"Feature","properties":{"numer":"1566L","klasa":"droga zbiorcza","kat":"powiatowa"},"geometry":{"type":"LineString","coordinates":[[22.97938,51.50718],[22.97346,51.50802],[22.96762,51.50831],[22.96643,51.50846]]}},{"type":"Feature","properties":{"numer":"1566L","klasa":"droga zbiorcza","kat":"powiatowa"},"geometry":{"type":"LineString","coordinates":[[23.00309,51.51324],[23.002,51.51292],[22.99938,51.51239],[22.99651,51.51157],[22.99373,51.50984],[22.99179,51.50911],[22.98979,51.50789],[22.98663,51.50688],[22.98333,51.50672],[22.98205,51.50682],[22.97973,51.50714]]}},{"type":"Feature","properties":{"numer":"1566L","klasa":"droga zbiorcza","kat":"powiatowa"},"geometry":{"type":"LineString","coordinates":[[23.00318,51.51327],[23.00309,51.51324]]}},{"type":"Feature","properties":{"numer":"1566L","klasa":"droga gĹ‚Ăłwna","kat":"powiatowa"},"geometry":{"type":"LineString","coordinates":[[23.003345430919282,51.51332025749446],[23.00318,51.51327]]}},{"type":"Feature","properties":{"numer":"1569L","klasa":"droga zbiorcza","kat":"powiatowa"},"geometry":{"type":"LineString","coordinates":[[22.99766,51.52431],[22.99085,51.51842],[22.99061,51.51807],[22.98929,51.51506],[22.98864,51.51403],[22.98632,51.51214],[22.97973,51.50714]]}},{"type":"Feature","properties":{"numer":"1566L","klasa":"droga zbiorcza","kat":"powiatowa"},"geometry":{"type":"LineString","coordinates":[[22.91679,51.50462],[22.90273441905733,51.50312617014136]]}},{"type":"Feature","properties":{"numer":"1567L","klasa":"","kat":"powiatowa"},"geometry":{"type":"LineString","coordinates":[[22.90912,51.52076],[22.90769,51.52091],[22.90731,51.52086],[22.90705,51.52071],[22.90629,51.51865],[22.91478,51.51362],[22.91508,51.51331],[22.91517,51.51307],[22.91509,51.51272],[22.91408,51.51164],[22.91391,51.51108],[22.91602,51.50661],[22.91679,51.50462]]}},{"type":"Feature","properties":{"numer":"1568L","klasa":"","kat":"powiatowa"},"geometry":{"type":"LineString","coordinates":[[22.94577,51.50944],[22.94297,51.50979],[22.94114,51.51023],[22.91159,51.51984],[22.90971,51.5207]]}},{"type":"Feature","properties":{"numer":"1567L","klasa":"","kat":"powiatowa"},"geometry":{"type":"LineString","coordinates":[[22.90971,51.5207],[22.90922,51.52075]]}},{"type":"Feature","properties":{"numer":"1567L","klasa":"","kat":"powiatowa"},"geometry":{"type":"LineString","coordinates":[[22.90922,51.52075],[22.90912,51.52076]]}},{"type":"Feature","properties":{"numer":"1567L","klasa":"","kat":"powiatowa"},"geometry":{"type":"LineString","coordinates":[[22.90971,51.5207],[22.91034,51.52129],[22.91095,51.52154],[22.91118,51.52181],[22.91099,51.52339],[22.91131,51.5248],[22.91125,51.52781],[22.91032,51.52973],[22.90671,51.5353],[22.90626,51.53845],[22.90589,51.53891],[22.90439,51.53997],[22.90332,51.54158],[22.90305,51.54267],[22.90286,51.54446],[22.90259,51.54518],[22.90228,51.54554],[22.8999,51.5469],[22.89892,51.54824],[22.89929,51.54922],[22.90081,51.55013],[22.90183,51.55049],[22.90314,51.55061],[22.90439,51.5509]]}},{"type":"Feature","properties":{"numer":"1567L","klasa":"","kat":"powiatowa"},"geometry":{"type":"LineString","coordinates":[[22.90439,51.5509],[22.91433,51.55327]]}},{"type":"Feature","properties":{"numer":"1567L","klasa":"","kat":"powiatowa"},"geometry":{"type":"LineString","coordinates":[[22.91482,51.55341],[22.91433,51.55327]]}},{"type":"Feature","properties":{"numer":"1567L","klasa":"droga zbiorcza","kat":"powiatowa"},"geometry":{"type":"LineString","coordinates":[[22.91482,51.55341],[22.914822559055118,51.553411082677165]]}},{"type":"Feature","properties":{"numer":"1569L","klasa":"droga gĹ‚Ăłwna","kat":"powiatowa"},"geometry":{"type":"LineString","coordinates":[[22.997663318366747,51.52431448091294],[22.99766,51.52431]]}}]}