{"type":"FeatureCollection","features":[{"type":"Feature","properties":{"numer":"1546L","klasa":"droga gĹ‚Ăłwna","kat":"powiatowa"},"geometry":{"type":"LineString","coordinates":[[22.51808423210839,51.37655495810322],[22.51808,51.37656]]}},{"type":"Feature","properties":{"numer":"1546L","klasa":"droga gĹ‚Ăłwna","kat":"powiatowa"},"geometry":{"type":"LineString","coordinates":[[22.51808,51.37656],[22.51806,51.37658]]}},{"type":"Feature","properties":{"numer":"1546L","klasa":"","kat":"powiatowa"},"geometry":{"type":"LineString","coordinates":[[22.51806,51.37658],[22.51795,51.37671]]}},{"type":"Feature","properties":{"numer":"1546L","klasa":"","kat":"powiatowa"},"geometry":{"type":"LineString","coordinates":[[22.51795,51.37671],[22.49769,51.40142],[22.496966902339334,51.40233373249848]]}},{"type":"Feature","properties":{"numer":"828","klasa":"droga zbiorcza","kat":"wojewodzka"},"geometry":{"type":"LineString","coordinates":[[22.651483493429367,51.36238673350987],[22.65729,51.36253],[22.665059313488037,51.36246310554192]]}},{"type":"Feature","properties":{"numer":"829","klasa":"droga gĹ‚Ăłwna","kat":"wojewodzka"},"geometry":{"type":"LineString","coordinates":[[22.68907,51.39624],[22.68988,51.39541],[22.69046,51.39505],[22.69125,51.39479],[22.69355,51.39451],[22.69428,51.39433],[22.69506,51.39387],[22.6961,51.39296],[22.69767,51.39223],[22.70066,51.39158],[22.7094,51.38881],[22.71091,51.38806],[22.71378,51.38635],[22.71641,51.38449],[22.716449360281196,51.384454217926184]]}},{"type":"Feature","properties":{"numer":"829","klasa":"droga gĹ‚Ăłwna","kat":"wojewodzka"},"geometry":{"type":"LineString","coordinates":[[22.68892,51.39639],[22.68907,51.39624]]}},{"type":"Feature","properties":{"numer":"1560L","klasa":"","kat":"powiatowa"},"geometry":{"type":"LineString","coordinates":[[22.68892,51.39639],[22.69569,51.39847]]}},{"type":"Feature","properties":{"numer":"1560L","klasa":"","kat":"powiatowa"},"geometry":{"type":"LineString","coordinates":[[22.69569,51.39847],[22.69641,51.39869],[22.69647,51.39878]]}},{"type":"Feature","properties":{"numer":"1560L","klasa":"","kat":"powiatowa"},"geometry":{"type":"LineString","coordinates":[[22.639698514029774,51.37559787511527],[22.63997,51.37582],[22.64309,51.37954],[22.64393,51.38],[22.64595,51.38069],[22.64811,51.38162],[22.64852,51.38197],[22.64898,51.38277],[22.64959,51.38327],[22.65033,51.38365],[22.6509,51.38381],[22.65285,51.38403],[22.65384,51.38431],[22.65712,51.38564],[22.65883,51.38663],[22.66011,51.38711],[22.66211,51.38801],[22.66446,51.38878],[22.67017,51.3909],[22.68109,51.39437],[22.68208,51.3946],[22.68513,51.39491],[22.68907,51.39624]]}},{"type":"Feature","properties":{"numer":"19","klasa":"droga gĹ‚Ăłwna ruchu przyĹ›pieszonego","kat":"krajowa"},"geometry":{"type":"LineString","coordinates":[[22.6361,51.42672],[22.64166,51.42017],[22.64207,51.41962],[22.64212,51.41931],[22.63751,51.40407],[22.63567,51.38754],[22.6359,51.38666],[22.63572,51.38644],[22.63523,51.38624],[22.63517,51.3861],[22.63542,51.38521],[22.63480000518708,51.37963004668372]]}},{"type":"Feature","properties":{"numer":"829","klasa":"droga gĹ‚Ăłwna","kat":"wojewodzka"},"geometry":{"type":"LineString","coordinates":[[22.63639,51.42711],[22.64428,51.4251],[22.64691,51.42475],[22.64774,51.42456],[22.64878,51.42415],[22.65122,51.42298],[22.6555,51.41974],[22.65814,51.41684],[22.65893,51.41619],[22.66124,51.41512],[22.66455,51.41293],[22.66757,51.41163],[22.67266,51.40864],[22.6767,51.40678],[22.67958,51.40571],[22.68107,51.40494],[22.68195,51.40418],[22.68422,51.40152],[22.68691,51.39877],[22.68892,51.39639]]}},{"type":"Feature","properties":{"numer":"19","klasa":"droga gĹ‚Ăłwna ruchu przyĹ›pieszonego","kat":"krajowa"},"geometry":{"type":"LineString","coordinates":[[22.6361,51.42672],[22.63569,51.4271]]}},{"type":"Feature","properties":{"numer":"829","klasa":"droga gĹ‚Ăłwna","kat":"wojewodzka"},"geometry":{"type":"LineString","coordinates":[[22.63639,51.42711],[22.63598,51.42716],[22.63569,51.4271]]}},{"type":"Feature","properties":{"numer":"19","klasa":"droga gĹ‚Ăłwna ruchu przyĹ›pieszonego","kat":"krajowa"},"geometry":{"type":"LineString","coordinates":[[22.63569,51.4271],[22.63374,51.42874]]}},{"type":"Feature","properties":{"numer":"19","klasa":"droga gĹ‚Ăłwna ruchu przyĹ›pieszonego","kat":"krajowa"},"geometry":{"type":"LineString","coordinates":[[22.63179,51.43038],[22.63374,51.42874]]}},{"type":"Feature","properties":{"numer":"1557L","klasa":"droga zbiorcza","kat":"powiatowa"},"geometry":{"type":"LineString","coordinates":[[22.64144,51.43224],[22.64108,51.43204],[22.64008,51.4312],[22.63964,51.43097],[22.63374,51.42874]]}},{"type":"Feature","properties":{"numer":"103363L,1557L","klasa":"droga zbiorcza","kat":"powiatowa"},"geometry":{"type":"LineString","coordinates":[[22.64172,51.43237],[22.64144,51.43224]]}},{"type":"Feature","properties":{"numer":"1550L","klasa":"","kat":"powiatowa"},"geometry":{"type":"LineString","coordinates":[[22.567314569807753,51.373032429877085],[22.56697,51.37331],[22.5651,51.37411],[22.56414,51.37507],[22.56342,51.37598],[22.56055,51.37844],[22.558605103209278,51.3803063151022]]}},{"type":"Feature","properties":{"numer":"1550L","klasa":"","kat":"powiatowa"},"geometry":{"type":"LineString","coordinates":[[22.56475892823858,51.38829113699906],[22.56489,51.38884],[22.56535,51.39008],[22.57033,51.403],[22.57658,51.41971],[22.57758,51.42104],[22.57818,51.42144],[22.57996,51.4224]]}},{"type":"Feature","properties":{"numer":"103355L,1550L","klasa":"","kat":"powiatowa"},"geometry":{"type":"LineString","coordinates":[[22.57996,51.4224],[22.58014,51.42249]]}},{"type":"Feature","properties":{"numer":"1550L","klasa":"","kat":"powiatowa"},"geometry":{"type":"LineString","coordinates":[[22.58014,51.42249],[22.58408,51.4243],[22.58703,51.42522],[22.5891,51.42613],[22.59007,51.42631],[22.58971,51.42816],[22.58878,51.43113],[22.58756,51.43374],[22.58777,51.43392],[22.59,51.43435],[22.59023,51.43447],[22.5905,51.43578],[22.59149,51.43834]]}},{"type":"Feature","properties":{"numer":"19","klasa":"droga gĹ‚Ăłwna ruchu przyĹ›pieszonego","kat":"krajowa"},"geometry":{"type":"LineString","coordinates":[[22.59381,51.43589],[22.59587,51.43324],[22.5962,51.43317],[22.59761,51.43332]]}},{"type":"Feature","properties":{"numer":"19","klasa":"droga gĹ‚Ăłwna ruchu przyĹ›pieszonego","kat":"krajowa"},"geometry":{"type":"LineString","coordinates":[[22.57867,51.45173],[22.59141,51.43842]]}},{"type":"Feature","properties":{"numer":"1546L","klasa":"","kat":"powiatowa"},"geometry":{"type":"LineString","coordinates":[[22.493498823021802,51.41419190977628],[22.494390380306875,51.434031880752926]]}},{"type":"Feature","properties":{"numer":"1545L","klasa":"","kat":"powiatowa"},"geometry":{"type":"LineString","coordinates":[[22.521316794060507,51.44425243292108],[22.52184,51.44439],[22.52301,51.44443],[22.5276,51.444],[22.52959,51.44374],[22.53346,51.44294],[22.53504,51.44273],[22.54531,51.44204],[22.54851,51.44203],[22.54903,51.4421],[22.54946,51.44229],[22.55006,51.44321],[22.55044,51.44358],[22.55228,51.44425],[22.57867,51.45173]]}},{"type":"Feature","properties":{"numer":"1528L","klasa":"droga zbiorcza","kat":"powiatowa"},"geometry":{"type":"LineString","coordinates":[[22.54681,51.46235],[22.52348629663677,51.46232609664016]]}},{"type":"Feature","properties":{"numer":"1528L","klasa":"droga zbiorcza","kat":"powiatowa"},"geometry":{"type":"LineString","coordinates":[[22.57533793184515,51.462716521739154],[22.57147,51.46237],[22.570962192923524,51.46236958815322]]}},{"type":"Feature","properties":{"numer":"1528L","klasa":"droga zbiorcza","kat":"powiatowa"},"geometry":{"type":"LineString","coordinates":[[22.569653137403634,51.462368526469916],[22.54681,51.46235]]}},{"type":"Feature","properties":{"numer":"1541L","klasa":"","kat":"powiatowa"},"geometry":{"type":"LineString","coordinates":[[22.54681,51.46235],[22.54867,51.46752],[22.54879,51.46927],[22.5495,51.47178],[22.54975,51.47349],[22.54957,51.47463],[22.54963,51.47559]]}},{"type":"Feature","properties":{"numer":"1543L","klasa":"","kat":"powiatowa"},"geometry":{"type":"LineString","coordinates":[[22.54963,51.47559],[22.53378035887258,51.477859948603104]]}},{"type":"Feature","properties":{"numer":"1541L","klasa":"","kat":"powiatowa"},"geometry":{"type":"LineString","coordinates":[[22.54963,51.47559],[22.54988,51.4773],[22.55116,51.47875],[22.55147,51.47937],[22.5516,51.48353],[22.55153,51.48425],[22.55132,51.48467],[22.55076,51.48534],[22.54828,51.48726],[22.54594,51.48881],[22.5445,51.49],[22.54369,51.49141],[22.54322,51.49183],[22.54255,51.49218],[22.539397412500353,51.49347719934524]]}},{"type":"Feature","properties":{"numer":"1541L","klasa":"","kat":"powiatowa"},"geometry":{"type":"LineString","coordinates":[[22.53905788105232,51.49361690679893],[22.53854,51.49383],[22.53765,51.49448]]}},{"type":"Feature","properties":{"numer":"1545L","klasa":"","kat":"powiatowa"},"geometry":{"type":"LineString","coordinates":[[22.58659,51.45318],[22.59384687884419,51.45458613490663]]}},{"type":"Feature","properties":{"numer":"103407L","klasa":"droga lokalna","kat":"powiatowa"},"geometry":{"type":"LineString","coordinates":[[22.58659,51.45318],[22.586533319378596,51.453290770128696]]}},{"type":"Feature","properties":{"numer":"19","klasa":"droga gĹ‚Ăłwna ruchu przyĹ›pieszonego","kat":"krajowa"},"geometry":{"type":"LineString","coordinates":[[22.57567,51.46012],[22.57562,51.45797],[22.57613,51.45575],[22.57716,51.45368],[22.57867,51.45173]]}},{"type":"Feature","properties":{"numer":"19","klasa":"droga gĹ‚Ăłwna ruchu przyĹ›pieszonego","kat":"krajowa"},"geometry":{"type":"LineString","coordinates":[[22.57567,51.46012],[22.57592,51.46138],[22.57647881639723,51.46280697758578]]}},{"type":"Feature","properties":{"numer":"19","klasa":"droga gĹ‚Ăłwna ruchu przyĹ›pieszonego","kat":"krajowa"},"geometry":{"type":"LineString","coordinates":[[22.60740598273511,51.434332388860426],[22.60738,51.43433],[22.59761,51.43332]]}},{"type":"Feature","properties":{"numer":"19","klasa":"droga gĹ‚Ăłwna ruchu przyĹ›pieszonego","kat":"krajowa"},"geometry":{"type":"LineString","coordinates":[[22.59157,51.43827],[22.59381,51.43589]]}},{"type":"Feature","properties":{"numer":"19","klasa":"droga gĹ‚Ăłwna ruchu przyĹ›pieszonego","kat":"krajowa"},"geometry":{"type":"LineString","coordinates":[[22.59149,51.43834],[22.59157,51.43827]]}},{"type":"Feature","properties":{"numer":"19","klasa":"droga gĹ‚Ăłwna ruchu przyĹ›pieszonego","kat":"krajowa"},"geometry":{"type":"LineString","coordinates":[[22.59141,51.43842],[22.59149,51.43834]]}},{"type":"Feature","properties":{"numer":"1550L","klasa":"","kat":"powiatowa"},"geometry":{"type":"LineString","coordinates":[[22.59149,51.43834],[22.59229,51.44038],[22.59259,51.44053],[22.60611360136054,51.4419301292517]]}},{"type":"Feature","properties":{"numer":"19","klasa":"droga gĹ‚Ăłwna ruchu przyĹ›pieszonego","kat":"krajowa"},"geometry":{"type":"LineString","coordinates":[[22.63179,51.43038],[22.625620087208635,51.43553766147403]]}},{"type":"Feature","properties":{"numer":"1557L","klasa":"droga zbiorcza","kat":"powiatowa"},"geometry":{"type":"LineString","coordinates":[[22.65545,51.43593],[22.6548,51.43561],[22.65453,51.43539],[22.65355,51.43383],[22.65191,51.433],[22.65104,51.43272],[22.65013,51.43261],[22.64381,51.43311],[22.64319,51.43298],[22.64172,51.43237]]}},{"type":"Feature","properties":{"numer":"1557L","klasa":"droga zbiorcza","kat":"powiatowa"},"geometry":{"type":"LineString","coordinates":[[22.65597,51.43616],[22.65545,51.43593]]}},{"type":"Feature","properties":{"numer":"1557L","klasa":"droga zbiorcza","kat":"powiatowa"},"geometry":{"type":"LineString","coordinates":[[22.65597,51.43616],[22.655990739323652,51.436169234297395]]}},{"type":"Feature","properties":{"numer":"1545L","klasa":"","kat":"powiatowa"},"geometry":{"type":"LineString","coordinates":[[22.57867,51.45173],[22.58005,51.45209],[22.58358,51.45246],[22.58659,51.45318]]}},{"type":"Feature","properties":{"numer":"1542L","klasa":"","kat":"powiatowa"},"geometry":{"type":"LineString","coordinates":[[22.53765,51.49448],[22.53837,51.49459],[22.56862,51.49417],[22.57183,51.49375],[22.57556,51.49235],[22.57667,51.49197],[22.57687,51.49201]]}},{"type":"Feature","properties":{"numer":"1541L","klasa":"","kat":"powiatowa"},"geometry":{"type":"LineString","coordinates":[[22.53765,51.49448],[22.53689,51.49518],[22.53512,51.49628],[22.52205,51.50114]]}},{"type":"Feature","properties":{"numer":"1541L","klasa":"","kat":"powiatowa"},"geometry":{"type":"LineString","coordinates":[[22.52205,51.50114],[22.51268394652564,51.50462481094088]]}},{"type":"Feature","properties":{"numer":"19","klasa":"droga gĹ‚Ăłwna ruchu przyĹ›pieszonego","kat":"krajowa"},"geometry":{"type":"LineString","coordinates":[[22.54213465722383,51.521818768176274],[22.57687,51.49201]]}},{"type":"Feature","properties":{"numer":"1558L","klasa":"","kat":"powiatowa"},"geometry":{"type":"LineString","coordinates":[[22.643153672758235,51.45923272327036],[22.64173,51.46196],[22.64132,51.46219],[22.63959,51.46236],[22.63942,51.46249],[22.63921,51.46532],[22.63937,51.46607],[22.63891,51.46778],[22.63572,51.47241],[22.63527,51.47289]]}},{"type":"Feature","properties":{"numer":"1551L","klasa":"","kat":"powiatowa"},"geometry":{"type":"LineString","coordinates":[[22.63527,51.47289],[22.63392,51.4736]]}},{"type":"Feature","properties":{"numer":"1551L","klasa":"","kat":"powiatowa"},"geometry":{"type":"LineString","coordinates":[[22.63392,51.4736],[22.63351977188354,51.47380209538554]]}},{"type":"Feature","properties":{"numer":"1551L","klasa":"","kat":"powiatowa"},"geometry":{"type":"LineString","coordinates":[[22.649020768973585,51.47635029087262],[22.64876,51.47616],[22.64847,51.47572],[22.64832,51.47533],[22.64819,51.47425],[22.64794,51.47375],[22.64762,51.47338],[22.64679,51.47276],[22.64604,51.47235],[22.64542,51.47227],[22.64335,51.47236],[22.64121,51.47195],[22.63768,51.47287],[22.63671,51.47295],[22.63527,51.47289]]}},{"type":"Feature","properties":{"numer":"815","klasa":"droga gĹ‚Ăłwna","kat":"wojewodzka"},"geometry":{"type":"LineString","coordinates":[[22.62796,51.48653],[22.62802,51.48658]]}},{"type":"Feature","properties":{"numer":"815","klasa":"droga gĹ‚Ăłwna","kat":"wojewodzka"},"geometry":{"type":"LineString","coordinates":[[22.62802,51.48658],[22.63652,51.49553],[22.63716,51.49607],[22.63842,51.49685],[22.63994,51.49748],[22.64147,51.49789],[22.64357,51.4982]]}},{"type":"Feature","properties":{"numer":"19","klasa":"droga gĹ‚Ăłwna ruchu przyĹ›pieszonego","kat":"krajowa"},"geometry":{"type":"LineString","coordinates":[[22.58862,51.47736],[22.5881,51.47651],[22.5874,51.47563],[22.58542513355215,51.47343426033101]]}},{"type":"Feature","properties":{"numer":"815","klasa":"droga gĹ‚Ăłwna","kat":"wojewodzka"},"geometry":{"type":"LineString","coordinates":[[22.614470137431166,51.47719260601497],[22.61611,51.47808]]}},{"type":"Feature","properties":{"numer":"815","klasa":"droga gĹ‚Ăłwna","kat":"wojewodzka"},"geometry":{"type":"LineString","coordinates":[[22.5924072331864,51.47847413388865],[22.59049,51.47912]]}},{"type":"Feature","properties":{"numer":"815","klasa":"droga gĹ‚Ăłwna","kat":"wojewodzka"},"geometry":{"type":"LineString","coordinates":[[22.61611,51.47808],[22.61622,51.47814]]}},{"type":"Feature","properties":{"numer":"19","klasa":"droga gĹ‚Ăłwna ruchu przyĹ›pieszonego","kat":"krajowa"},"geometry":{"type":"LineString","coordinates":[[22.58862,51.47736],[22.589,51.47839],[22.58911,51.47948]]}},{"type":"Feature","properties":{"numer":"815","klasa":"droga gĹ‚Ăłwna","kat":"wojewodzka"},"geometry":{"type":"LineString","coordinates":[[22.59049,51.47912],[22.58918,51.47947]]}},{"type":"Feature","properties":{"numer":"815","klasa":"droga gĹ‚Ăłwna","kat":"wojewodzka"},"geometry":{"type":"LineString","coordinates":[[22.58918,51.47947],[22.58911,51.47948]]}},{"type":"Feature","properties":{"numer":"815","klasa":"droga gĹ‚Ăłwna","kat":"wojewodzka"},"geometry":{"type":"LineString","coordinates":[[22.64357,51.4982],[22.64431847294939,51.498299796393255]]}},{"type":"Feature","properties":{"numer":"19","klasa":"droga gĹ‚Ăłwna ruchu przyĹ›pieszonego","kat":"krajowa"},"geometry":{"type":"LineString","coordinates":[[22.58911,51.47948],[22.58891,51.48067],[22.58804,51.48219]]}},{"type":"Feature","properties":{"numer":"815","klasa":"droga gĹ‚Ăłwna","kat":"wojewodzka"},"geometry":{"type":"LineString","coordinates":[[22.61622,51.47814],[22.62295,51.48177],[22.62375,51.48227],[22.62465,51.48303],[22.62796,51.48653]]}},{"type":"Feature","properties":{"numer":"19","klasa":"droga gĹ‚Ăłwna ruchu przyĹ›pieszonego","kat":"krajowa"},"geometry":{"type":"LineString","coordinates":[[22.57687,51.49201],[22.58654,51.48372],[22.58804,51.48219]]}},{"type":"Feature","properties":{"numer":"1539L","klasa":"","kat":"powiatowa"},"geometry":{"type":"LineString","coordinates":[[22.601995257907134,51.47821041241865],[22.60086,51.47962],[22.60041,51.48033],[22.59786,51.48887],[22.59377,51.50168],[22.58461,51.52598],[22.58401,51.52669],[22.581782340281155,51.52886800905647]]}}]}