{"type":"FeatureCollection","features":[{"type":"Feature","properties":{"numer":"1361L","klasa":"droga zbiorcza","kat":"powiatowa"},"geometry":{"type":"LineString","coordinates":[[22.17659545534734,51.65991114163992],[22.17676,51.65998]]}},{"type":"Feature","properties":{"numer":"1361L","klasa":"droga zbiorcza","kat":"powiatowa"},"geometry":{"type":"LineString","coordinates":[[22.17684,51.66002],[22.181,51.66167],[22.18417,51.66256],[22.18509,51.66303],[22.18599,51.66363],[22.18811,51.66475],[22.19085,51.66743],[22.19297,51.66998],[22.19485,51.67183],[22.19518,51.6723],[22.19542,51.6731],[22.19506,51.67557],[22.1954,51.67864],[22.19569,51.67993],[22.19747,51.68272],[22.20031,51.68561],[22.20121,51.68688]]}},{"type":"Feature","properties":{"numer":"1348L","klasa":"droga zbiorcza","kat":"powiatowa"},"geometry":{"type":"LineString","coordinates":[[22.13162,51.71655],[22.13175,51.71648]]}},{"type":"Feature","properties":{"numer":"1348L","klasa":"droga zbiorcza","kat":"powiatowa"},"geometry":{"type":"LineString","coordinates":[[22.20109,51.68693],[22.20121,51.68688]]}},{"type":"Feature","properties":{"numer":"1348L","klasa":"droga zbiorcza","kat":"powiatowa"},"geometry":{"type":"LineString","coordinates":[[22.17955,51.69959],[22.18475,51.69784],[22.18768,51.69642],[22.19067,51.69439],[22.19383,51.69255],[22.1949,51.69157],[22.19742,51.68987],[22.2002,51.68747],[22.20109,51.68693]]}},{"type":"Feature","properties":{"numer":"1348L","klasa":"droga zbiorcza","kat":"powiatowa"},"geometry":{"type":"LineString","coordinates":[[22.1695,51.70443],[22.17101,51.70404],[22.17198,51.70354],[22.17329,51.70268],[22.17383,51.70174],[22.17415,51.70148],[22.17599,51.70071],[22.17955,51.69959]]}},{"type":"Feature","properties":{"numer":"1360L","klasa":"droga gĹ‚Ăłwna","kat":"powiatowa"},"geometry":{"type":"LineString","coordinates":[[22.16971,51.70466],[22.17114,51.70718],[22.17137,51.70726],[22.17955,51.70556],[22.19895,51.70135],[22.20864,51.7005]]}},{"type":"Feature","properties":{"numer":"1348L","klasa":"droga zbiorcza","kat":"powiatowa"},"geometry":{"type":"LineString","coordinates":[[22.16923,51.70449],[22.1695,51.70443]]}},{"type":"Feature","properties":{"numer":"1360L","klasa":"droga gĹ‚Ăłwna","kat":"powiatowa"},"geometry":{"type":"LineString","coordinates":[[22.16971,51.70466],[22.1695,51.70443]]}},{"type":"Feature","properties":{"numer":"1348L","klasa":"droga zbiorcza","kat":"powiatowa"},"geometry":{"type":"LineString","coordinates":[[22.15494,51.70766],[22.16027,51.70706],[22.16181,51.70677],[22.16357,51.70632],[22.16656,51.70514],[22.16923,51.70449]]}},{"type":"Feature","properties":{"numer":"1348L","klasa":"droga zbiorcza","kat":"powiatowa"},"geometry":{"type":"LineString","coordinates":[[22.15486,51.70767],[22.15494,51.70766]]}},{"type":"Feature","properties":{"numer":"1348L","klasa":"droga zbiorcza","kat":"powiatowa"},"geometry":{"type":"LineString","coordinates":[[22.13175,51.71648],[22.1371,51.71368],[22.13937,51.71266],[22.14746,51.70982],[22.15245,51.70854],[22.15486,51.70767]]}},{"type":"Feature","properties":{"numer":"1350L","klasa":"droga gĹ‚Ăłwna","kat":"powiatowa"},"geometry":{"type":"LineString","coordinates":[[22.160136217645128,51.75349150057737],[22.18298,51.74739],[22.18338,51.74784],[22.18405,51.74815],[22.19429,51.75058],[22.1948,51.75066],[22.19526,51.75063],[22.209,51.74823],[22.21069,51.74746],[22.21724,51.74407],[22.21764,51.74394],[22.22766,51.74261],[22.22838,51.74264],[22.23519,51.74375],[22.24077,51.7454],[22.24799,51.74644],[22.24867,51.74643],[22.25319,51.74589]]}},{"type":"Feature","properties":{"numer":"1349L","klasa":"","kat":"powiatowa"},"geometry":{"type":"LineString","coordinates":[[22.124410770858525,51.723014576783555],[22.12426,51.72284],[22.12335,51.7222],[22.12146,51.71933],[22.11957,51.71685],[22.118869342105263,51.71607460526316]]}},{"type":"Feature","properties":{"numer":"1348L","klasa":"droga zbiorcza","kat":"powiatowa"},"geometry":{"type":"LineString","coordinates":[[22.13098882453153,51.71701124361157],[22.13162,51.71655]]}},{"type":"Feature","properties":{"numer":"1348L","klasa":"droga zbiorcza","kat":"powiatowa"},"geometry":{"type":"LineString","coordinates":[[22.2279,51.66878],[22.2295,51.66848],[22.233661754147626,51.667955735480625]]}},{"type":"Feature","properties":{"numer":"1348L","klasa":"droga zbiorcza","kat":"powiatowa"},"geometry":{"type":"LineString","coordinates":[[22.20121,51.68688],[22.20645,51.68392],[22.20782,51.68291],[22.20912,51.68156],[22.21285,51.67678],[22.2137,51.67597],[22.21475,51.67516],[22.21587,51.67443],[22.22334,51.67014],[22.22578,51.66922],[22.2279,51.66878]]}},{"type":"Feature","properties":{"numer":"1359L","klasa":"droga gĹ‚Ăłwna","kat":"powiatowa"},"geometry":{"type":"LineString","coordinates":[[22.25071,51.70793],[22.251111888844864,51.70739672441739]]}},{"type":"Feature","properties":{"numer":"1359L","klasa":"droga gĹ‚Ăłwna","kat":"powiatowa"},"geometry":{"type":"LineString","coordinates":[[22.25277551736192,51.68853145012818],[22.25342,51.68759],[22.25371,51.68689],[22.25374,51.68392],[22.25351,51.68151],[22.25265,51.67785],[22.24881248540506,51.6727186947702]]}},{"type":"Feature","properties":{"numer":"1361L","klasa":"droga zbiorcza","kat":"powiatowa"},"geometry":{"type":"LineString","coordinates":[[22.20568,51.69781],[22.20572,51.69684],[22.20559,51.6961],[22.20383,51.69086],[22.20228,51.68796],[22.20121,51.68688]]}},{"type":"Feature","properties":{"numer":"1361L","klasa":"droga zbiorcza","kat":"powiatowa"},"geometry":{"type":"LineString","coordinates":[[22.20568,51.69786],[22.20568,51.69781]]}},{"type":"Feature","properties":{"numer":"1361L","klasa":"droga zbiorcza","kat":"powiatowa"},"geometry":{"type":"LineString","coordinates":[[22.20864,51.7005],[22.20842,51.69979],[22.20818,51.69956],[22.20652,51.6992],[22.20586,51.69878],[22.20571,51.6985],[22.20568,51.69786]]}},{"type":"Feature","properties":{"numer":"1360L","klasa":"droga gĹ‚Ăłwna","kat":"powiatowa"},"geometry":{"type":"LineString","coordinates":[[22.20864,51.7005],[22.21097,51.70036],[22.21513,51.70046],[22.22001,51.70244],[22.22506,51.70353],[22.22604,51.70383],[22.23083,51.7063],[22.23134,51.70649],[22.23776,51.70765],[22.24397,51.70889],[22.24927,51.70939]]}},{"type":"Feature","properties":{"numer":"1360L","klasa":"droga gĹ‚Ăłwna","kat":"powiatowa"},"geometry":{"type":"LineString","coordinates":[[22.25034,51.71044],[22.25401903970161,51.71021224992324]]}},{"type":"Feature","properties":{"numer":"1359L","klasa":"droga gĹ‚Ăłwna","kat":"powiatowa"},"geometry":{"type":"LineString","coordinates":[[22.26401,51.74132],[22.26343,51.73843],[22.26206,51.73563],[22.26056,51.7298],[22.25623,51.71872],[22.2559,51.71817],[22.25455,51.71672],[22.25301,51.71477],[22.25034,51.71044]]}},{"type":"Feature","properties":{"numer":"1358L","klasa":"droga zbiorcza","kat":"powiatowa"},"geometry":{"type":"LineString","coordinates":[[22.302003398542357,51.718209119653025],[22.28615,51.72179],[22.28608,51.72239],[22.29415,51.73427],[22.2943,51.73645],[22.29359,51.73767],[22.29295,51.738],[22.29016,51.73886],[22.28714,51.7401],[22.28415,51.74182],[22.28337,51.74206],[22.28065,51.74266],[22.27578,51.74355],[22.2752,51.74348],[22.27351,51.74305],[22.27188,51.74282],[22.27105,51.74283],[22.26766,51.74321],[22.2645,51.74315]]}},{"type":"Feature","properties":{"numer":"1359L","klasa":"droga gĹ‚Ăłwna","kat":"powiatowa"},"geometry":{"type":"LineString","coordinates":[[22.26402,51.74137],[22.26401,51.74132]]}},{"type":"Feature","properties":{"numer":"1359L","klasa":"droga gĹ‚Ăłwna","kat":"powiatowa"},"geometry":{"type":"LineString","coordinates":[[22.26424,51.74282],[22.26402,51.74137]]}},{"type":"Feature","properties":{"numer":"1359L","klasa":"droga gĹ‚Ăłwna","kat":"powiatowa"},"geometry":{"type":"LineString","coordinates":[[22.26411,51.74306],[22.26424,51.74282]]}},{"type":"Feature","properties":{"numer":"1358L","klasa":"droga zbiorcza","kat":"powiatowa"},"geometry":{"type":"LineString","coordinates":[[22.2645,51.74315],[22.26411,51.74306]]}},{"type":"Feature","properties":{"numer":"1359L","klasa":"droga gĹ‚Ăłwna","kat":"powiatowa"},"geometry":{"type":"LineString","coordinates":[[22.26365,51.74319],[22.26411,51.74306]]}},{"type":"Feature","properties":{"numer":"1359L","klasa":"droga gĹ‚Ăłwna","kat":"powiatowa"},"geometry":{"type":"LineString","coordinates":[[22.25068,51.70797],[22.25071,51.70793]]}},{"type":"Feature","properties":{"numer":"1359L","klasa":"droga gĹ‚Ăłwna","kat":"powiatowa"},"geometry":{"type":"LineString","coordinates":[[22.24987,51.70913],[22.25068,51.70797]]}},{"type":"Feature","properties":{"numer":"1359L","klasa":"droga gĹ‚Ăłwna","kat":"powiatowa"},"geometry":{"type":"LineString","coordinates":[[22.2498,51.70935],[22.24987,51.70913]]}},{"type":"Feature","properties":{"numer":"1359L","klasa":"droga gĹ‚Ăłwna","kat":"powiatowa"},"geometry":{"type":"LineString","coordinates":[[22.24974,51.70943],[22.2498,51.70935]]}},{"type":"Feature","properties":{"numer":"1360L","klasa":"droga gĹ‚Ăłwna","kat":"powiatowa"},"geometry":{"type":"LineString","coordinates":[[22.24927,51.70939],[22.2496,51.70942]]}},{"type":"Feature","properties":{"numer":"1360L","klasa":"droga gĹ‚Ăłwna","kat":"powiatowa"},"geometry":{"type":"LineString","coordinates":[[22.2496,51.70942],[22.24974,51.70943]]}},{"type":"Feature","properties":{"numer":"1359L,1360L","klasa":"droga gĹ‚Ăłwna","kat":"powiatowa"},"geometry":{"type":"LineString","coordinates":[[22.24978,51.70952],[22.24974,51.70943]]}},{"type":"Feature","properties":{"numer":"1359L,1360L","klasa":"droga gĹ‚Ăłwna","kat":"powiatowa"},"geometry":{"type":"LineString","coordinates":[[22.24988,51.70972],[22.24978,51.70952]]}},{"type":"Feature","properties":{"numer":"1359L,1360L","klasa":"droga gĹ‚Ăłwna","kat":"powiatowa"},"geometry":{"type":"LineString","coordinates":[[22.24991,51.70976],[22.24988,51.70972]]}},{"type":"Feature","properties":{"numer":"1359L,1360L","klasa":"droga gĹ‚Ăłwna","kat":"powiatowa"},"geometry":{"type":"LineString","coordinates":[[22.25034,51.71044],[22.24991,51.70976]]}},{"type":"Feature","properties":{"numer":"1359L","klasa":"droga gĹ‚Ăłwna","kat":"powiatowa"},"geometry":{"type":"LineString","coordinates":[[22.25733,51.7452],[22.25774,51.74412],[22.25817,51.7438],[22.26365,51.74319]]}},{"type":"Feature","properties":{"numer":"1350L","klasa":"droga gĹ‚Ăłwna","kat":"powiatowa"},"geometry":{"type":"LineString","coordinates":[[22.25319,51.74589],[22.25531,51.74563],[22.25691,51.74523],[22.25733,51.7452]]}},{"type":"Feature","properties":{"numer":"1359L","klasa":"droga gĹ‚Ăłwna","kat":"powiatowa"},"geometry":{"type":"LineString","coordinates":[[22.26181,51.7532],[22.25736,51.74632],[22.25719,51.74581],[22.25733,51.7452]]}},{"type":"Feature","properties":{"numer":"1359L","klasa":"droga gĹ‚Ăłwna","kat":"powiatowa"},"geometry":{"type":"LineString","coordinates":[[22.26195,51.75343],[22.26181,51.7532]]}},{"type":"Feature","properties":{"numer":"1357L","klasa":"droga gĹ‚Ăłwna","kat":"powiatowa"},"geometry":{"type":"LineString","coordinates":[[22.26195,51.75343],[22.26232,51.75355]]}},{"type":"Feature","properties":{"numer":"1359L","klasa":"droga gĹ‚Ăłwna","kat":"powiatowa"},"geometry":{"type":"LineString","coordinates":[[22.26195,51.75343],[22.26155,51.7536]]}},{"type":"Feature","properties":{"numer":"1357L","klasa":"droga gĹ‚Ăłwna","kat":"powiatowa"},"geometry":{"type":"LineString","coordinates":[[22.26232,51.75355],[22.26245,51.75389],[22.26991266847346,51.76197786543334]]}},{"type":"Feature","properties":{"numer":"1359L","klasa":"droga gĹ‚Ăłwna","kat":"powiatowa"},"geometry":{"type":"LineString","coordinates":[[22.229926260366923,51.75964905503895],[22.23045,51.75957],[22.23679,51.75982],[22.23801,51.7598],[22.23969,51.75965],[22.2437,51.75902],[22.24941,51.75871],[22.25323,51.75736],[22.26155,51.7536]]}}]}