{"type":"FeatureCollection","features":[{"type":"Feature","properties":{"numer":"2515L","klasa":"","kat":"powiatowa"},"geometry":{"type":"LineString","coordinates":[[22.17525,51.50442],[22.17519995252939,51.504253334739026]]}},{"type":"Feature","properties":{"numer":"2515L","klasa":"","kat":"powiatowa"},"geometry":{"type":"LineString","coordinates":[[22.17527,51.50449],[22.17525,51.50442]]}},{"type":"Feature","properties":{"numer":"112817L","klasa":"droga lokalna","kat":"powiatowa"},"geometry":{"type":"LineString","coordinates":[[22.13088,51.51973],[22.1343,51.51993]]}},{"type":"Feature","properties":{"numer":"112817L","klasa":"droga lokalna","kat":"powiatowa"},"geometry":{"type":"LineString","coordinates":[[22.1343,51.51993],[22.1374,51.52009]]}},{"type":"Feature","properties":{"numer":"112817L","klasa":"droga lokalna","kat":"powiatowa"},"geometry":{"type":"LineString","coordinates":[[22.1374,51.52009],[22.14401,51.52048]]}},{"type":"Feature","properties":{"numer":"112817L","klasa":"droga lokalna","kat":"powiatowa"},"geometry":{"type":"LineString","coordinates":[[22.14401,51.52048],[22.14413,51.52053]]}},{"type":"Feature","properties":{"numer":"2515L","klasa":"","kat":"powiatowa"},"geometry":{"type":"LineString","coordinates":[[22.14898,51.53864],[22.1528,51.53752],[22.15338,51.53721],[22.15369,51.53666],[22.15406,51.53524],[22.15431,51.5348],[22.15474,51.53434],[22.16385,51.5264],[22.17017,51.52109],[22.171,51.52057],[22.1729,51.5199],[22.17408,51.51925],[22.17791,51.51554],[22.17809,51.51515],[22.17805,51.51486],[22.17527,51.50449]]}},{"type":"Feature","properties":{"numer":"112816L","klasa":"droga lokalna","kat":"powiatowa"},"geometry":{"type":"LineString","coordinates":[[22.14413,51.52053],[22.14532,51.52453]]}},{"type":"Feature","properties":{"numer":"112816L","klasa":"droga lokalna","kat":"powiatowa"},"geometry":{"type":"LineString","coordinates":[[22.14532,51.52453],[22.14534,51.52506],[22.14497,51.5276]]}},{"type":"Feature","properties":{"numer":"112816L","klasa":"droga lokalna","kat":"powiatowa"},"geometry":{"type":"LineString","coordinates":[[22.14497,51.5276],[22.1448,51.52895]]}},{"type":"Feature","properties":{"numer":"112816L","klasa":"droga lokalna","kat":"powiatowa"},"geometry":{"type":"LineString","coordinates":[[22.1448,51.52895],[22.14458,51.53058]]}},{"type":"Feature","properties":{"numer":"112816L","klasa":"droga lokalna","kat":"powiatowa"},"geometry":{"type":"LineString","coordinates":[[22.14458,51.53058],[22.14435,51.53239]]}},{"type":"Feature","properties":{"numer":"112816L","klasa":"droga lokalna","kat":"powiatowa"},"geometry":{"type":"LineString","coordinates":[[22.14435,51.53239],[22.14381,51.53657]]}},{"type":"Feature","properties":{"numer":"112816L","klasa":"droga lokalna","kat":"powiatowa"},"geometry":{"type":"LineString","coordinates":[[22.14381,51.53657],[22.14374,51.53742]]}},{"type":"Feature","properties":{"numer":"112816L","klasa":"droga lokalna","kat":"powiatowa"},"geometry":{"type":"LineString","coordinates":[[22.14374,51.53742],[22.14405,51.53786],[22.14469,51.53802]]}},{"type":"Feature","properties":{"numer":"112816L","klasa":"droga lokalna","kat":"powiatowa"},"geometry":{"type":"LineString","coordinates":[[22.14469,51.53802],[22.14536,51.53805]]}},{"type":"Feature","properties":{"numer":"1518L","klasa":"droga zbiorcza","kat":"powiatowa"},"geometry":{"type":"LineString","coordinates":[[22.226081282867042,51.51579937992397],[22.22685,51.52142],[22.22691,51.52328],[22.22726,51.52453]]}},{"type":"Feature","properties":{"numer":"1518L","klasa":"droga zbiorcza","kat":"powiatowa"},"geometry":{"type":"LineString","coordinates":[[22.22726,51.52453],[22.22607,51.52607],[22.22274,51.53174],[22.22238,51.53251],[22.22219,51.53334]]}},{"type":"Feature","properties":{"numer":"1516L","klasa":"droga gĹ‚Ăłwna","kat":"powiatowa"},"geometry":{"type":"LineString","coordinates":[[22.22388,51.53319],[22.2256,51.53343],[22.22643,51.53343],[22.24094,51.53133],[22.24452,51.53071],[22.25093,51.52934],[22.26172,51.52718]]}},{"type":"Feature","properties":{"numer":"1516L","klasa":"droga gĹ‚Ăłwna","kat":"powiatowa"},"geometry":{"type":"LineString","coordinates":[[22.22375,51.53319],[22.22388,51.53319]]}},{"type":"Feature","properties":{"numer":"1516L","klasa":"droga gĹ‚Ăłwna","kat":"powiatowa"},"geometry":{"type":"LineString","coordinates":[[22.22375,51.53319],[22.22303,51.53319],[22.22219,51.53334]]}},{"type":"Feature","properties":{"numer":"1518L","klasa":"droga zbiorcza","kat":"powiatowa"},"geometry":{"type":"LineString","coordinates":[[22.22219,51.53334],[22.22259,51.53658],[22.2235,51.53913],[22.22391,51.53983],[22.22604,51.54239],[22.22623,51.54286],[22.22628,51.54474],[22.22615,51.54609],[22.22509,51.54832]]}},{"type":"Feature","properties":{"numer":"1515L","klasa":"","kat":"powiatowa"},"geometry":{"type":"LineString","coordinates":[[22.23825,51.54745],[22.23839,51.54737],[22.23946,51.54719],[22.24857,51.54364],[22.248895388966677,51.543648562867546]]}},{"type":"Feature","properties":{"numer":"1516L","klasa":"droga zbiorcza","kat":"powiatowa"},"geometry":{"type":"LineString","coordinates":[[22.26172,51.52718],[22.261720518853696,51.527179912518854]]}},{"type":"Feature","properties":{"numer":"1515L","klasa":"","kat":"powiatowa"},"geometry":{"type":"LineString","coordinates":[[22.22509,51.54832],[22.22787,51.5479],[22.22942,51.54741],[22.23023,51.54724],[22.23271,51.54705],[22.23482,51.54659],[22.23565,51.54672],[22.23616,51.54718],[22.23748,51.54749],[22.23802,51.54755]]}},{"type":"Feature","properties":{"numer":"1515L","klasa":"","kat":"powiatowa"},"geometry":{"type":"LineString","coordinates":[[22.23802,51.54755],[22.23825,51.54745]]}},{"type":"Feature","properties":{"numer":"1518L","klasa":"droga zbiorcza","kat":"powiatowa"},"geometry":{"type":"LineString","coordinates":[[22.22509,51.54832],[22.22309,51.55241],[22.21986,51.55863],[22.2198,51.56279],[22.22005,51.56382]]}},{"type":"Feature","properties":{"numer":"1505L","klasa":"","kat":"powiatowa"},"geometry":{"type":"LineString","coordinates":[[22.22156,51.57099],[22.22253782990639,51.570606475142064]]}},{"type":"Feature","properties":{"numer":"1518L","klasa":"droga zbiorcza","kat":"powiatowa"},"geometry":{"type":"LineString","coordinates":[[22.22005,51.56382],[22.22009,51.5639]]}},{"type":"Feature","properties":{"numer":"1518L","klasa":"droga zbiorcza","kat":"powiatowa"},"geometry":{"type":"LineString","coordinates":[[22.22009,51.5639],[22.22058,51.56522],[22.22143,51.56667],[22.22157,51.5677],[22.22156,51.57099]]}},{"type":"Feature","properties":{"numer":"1518L","klasa":"droga zbiorcza","kat":"powiatowa"},"geometry":{"type":"LineString","coordinates":[[22.22156,51.57099],[22.21949,51.57181],[22.21632,51.57201],[22.21247,51.57276],[22.20842,51.57431],[22.20676,51.57544],[22.20349,51.57625],[22.20318,51.57653],[22.20057,51.57998]]}},{"type":"Feature","properties":{"numer":"2514L","klasa":"","kat":"powiatowa"},"geometry":{"type":"LineString","coordinates":[[22.12759784387896,51.504988340784045],[22.12811,51.50562],[22.13059,51.51926],[22.13067,51.51955],[22.13088,51.51973]]}},{"type":"Feature","properties":{"numer":"1516L","klasa":"droga gĹ‚Ăłwna","kat":"powiatowa"},"geometry":{"type":"LineString","coordinates":[[22.09075,51.53761],[22.090716357049203,51.53757801370966]]}},{"type":"Feature","properties":{"numer":"1516L","klasa":"droga gĹ‚Ăłwna","kat":"powiatowa"},"geometry":{"type":"LineString","coordinates":[[22.09084,51.5377],[22.09075,51.53761]]}},{"type":"Feature","properties":{"numer":"1516L","klasa":"droga gĹ‚Ăłwna","kat":"powiatowa"},"geometry":{"type":"LineString","coordinates":[[22.12986,51.55758],[22.12902,51.55728],[22.12429,51.55503],[22.12071,51.55288],[22.1149,51.54823],[22.10542,51.54239],[22.09175,51.53819],[22.09123,51.53799],[22.09084,51.5377]]}},{"type":"Feature","properties":{"numer":"2500L","klasa":"droga zbiorcza","kat":"powiatowa"},"geometry":{"type":"LineString","coordinates":[[22.10341,51.55953],[22.10068,51.55933],[22.10011,51.55944],[22.09645,51.56051],[22.09246,51.56115],[22.0917,51.56122],[22.0909,51.56116],[22.08954,51.5609],[22.08172,51.55793],[22.076010730389072,51.555926627549695]]}},{"type":"Feature","properties":{"numer":"112816L","klasa":"droga lokalna","kat":"powiatowa"},"geometry":{"type":"LineString","coordinates":[[22.14536,51.53805],[22.14749,51.5383]]}},{"type":"Feature","properties":{"numer":"1516L","klasa":"droga gĹ‚Ăłwna","kat":"powiatowa"},"geometry":{"type":"LineString","coordinates":[[22.22219,51.53334],[22.21964,51.5343],[22.21095,51.53484],[22.20455,51.53589],[22.20359,51.53591],[22.19638,51.53564],[22.19482,51.5357],[22.18788,51.53782],[22.18003,51.54041],[22.16886,51.54285],[22.16825,51.54303],[22.16731,51.54346]]}},{"type":"Feature","properties":{"numer":"112816L","klasa":"droga lokalna","kat":"powiatowa"},"geometry":{"type":"LineString","coordinates":[[22.14749,51.5383],[22.14875,51.53875]]}},{"type":"Feature","properties":{"numer":"2515L","klasa":"","kat":"powiatowa"},"geometry":{"type":"LineString","coordinates":[[22.14891,51.53866],[22.14898,51.53864]]}},{"type":"Feature","properties":{"numer":"2515L","klasa":"","kat":"powiatowa"},"geometry":{"type":"LineString","coordinates":[[22.14875,51.53875],[22.14891,51.53866]]}},{"type":"Feature","properties":{"numer":"1516L","klasa":"droga gĹ‚Ăłwna","kat":"powiatowa"},"geometry":{"type":"LineString","coordinates":[[22.16731,51.54346],[22.16701,51.54359]]}},{"type":"Feature","properties":{"numer":"2515L","klasa":"","kat":"powiatowa"},"geometry":{"type":"LineString","coordinates":[[22.13919,51.55697],[22.13967,51.55548],[22.14056,51.55417],[22.14158,51.5508],[22.14188,51.55011],[22.1428,51.54859],[22.14809,51.54178],[22.14853,51.53903],[22.14875,51.53875]]}},{"type":"Feature","properties":{"numer":"1516L","klasa":"droga gĹ‚Ăłwna","kat":"powiatowa"},"geometry":{"type":"LineString","coordinates":[[22.16701,51.54359],[22.15798,51.5481],[22.15489,51.54986],[22.15311,51.55121],[22.15164,51.55286],[22.15092,51.55356],[22.15039,51.5539],[22.14797,51.55496],[22.1453,51.55587],[22.14146,51.55666],[22.13919,51.55697]]}},{"type":"Feature","properties":{"numer":"1516L","klasa":"droga gĹ‚Ăłwna","kat":"powiatowa"},"geometry":{"type":"LineString","coordinates":[[22.13509,51.55759],[22.13651,51.55766],[22.13688,51.55727],[22.13919,51.55697]]}},{"type":"Feature","properties":{"numer":"1516L","klasa":"droga gĹ‚Ăłwna","kat":"powiatowa"},"geometry":{"type":"LineString","coordinates":[[22.12986,51.55758],[22.13048,51.55764],[22.13342,51.55754],[22.13509,51.55759]]}},{"type":"Feature","properties":{"numer":"2500L","klasa":"droga zbiorcza","kat":"powiatowa"},"geometry":{"type":"LineString","coordinates":[[22.10354,51.55953],[22.10484,51.55947],[22.10868,51.55871],[22.11098,51.55838],[22.11403,51.55769],[22.11491,51.55756],[22.12252,51.55703],[22.12986,51.55758]]}},{"type":"Feature","properties":{"numer":"2500L","klasa":"droga zbiorcza","kat":"powiatowa"},"geometry":{"type":"LineString","coordinates":[[22.10341,51.55953],[22.10354,51.55953]]}},{"type":"Feature","properties":{"numer":"1434L","klasa":"droga zbiorcza","kat":"powiatowa"},"geometry":{"type":"LineString","coordinates":[[22.13057,51.56794],[22.129852255389718,51.56933960199005]]}},{"type":"Feature","properties":{"numer":"1434L","klasa":"droga zbiorcza","kat":"powiatowa"},"geometry":{"type":"LineString","coordinates":[[22.13509,51.55759],[22.13552,51.55895],[22.13531,51.55978],[22.13322,51.56277],[22.13057,51.56794]]}}]}