{"type":"FeatureCollection","features":[{"type":"Feature","properties":{"numer":"102975L","klasa":"droga dojazdowa","kat":"powiatowa"},"geometry":{"type":"LineString","coordinates":[[21.88262,51.53977],[21.88339,51.53969]]}},{"type":"Feature","properties":{"numer":"103021L","klasa":"droga dojazdowa","kat":"powiatowa"},"geometry":{"type":"LineString","coordinates":[[21.88264,51.53985],[21.88262,51.53977]]}},{"type":"Feature","properties":{"numer":"103023L","klasa":"droga dojazdowa","kat":"powiatowa"},"geometry":{"type":"LineString","coordinates":[[21.88339,51.53969],[21.88354,51.5401]]}},{"type":"Feature","properties":{"numer":"1436L","klasa":"droga gĹ‚Ăłwna","kat":"powiatowa"},"geometry":{"type":"LineString","coordinates":[[21.889862724184347,51.568174592013335],[21.88478,51.56889],[21.88456,51.569]]}},{"type":"Feature","properties":{"numer":"801","klasa":"droga gĹ‚Ăłwna","kat":"wojewodzka"},"geometry":{"type":"LineString","coordinates":[[21.84674,51.55827],[21.84681,51.55885],[21.84654,51.55939]]}},{"type":"Feature","properties":{"numer":"48","klasa":"droga gĹ‚Ăłwna ruchu przyĹ›pieszonego","kat":"krajowa"},"geometry":{"type":"LineString","coordinates":[[21.84837,51.55906],[21.84849,51.55905]]}},{"type":"Feature","properties":{"numer":"48","klasa":"droga gĹ‚Ăłwna ruchu przyĹ›pieszonego","kat":"krajowa"},"geometry":{"type":"LineString","coordinates":[[21.84825,51.55906],[21.84837,51.55906]]}},{"type":"Feature","properties":{"numer":"48","klasa":"droga gĹ‚Ăłwna ruchu przyĹ›pieszonego","kat":"krajowa"},"geometry":{"type":"LineString","coordinates":[[21.84802,51.55908],[21.84825,51.55906]]}},{"type":"Feature","properties":{"numer":"48","klasa":"droga gĹ‚Ăłwna ruchu przyĹ›pieszonego","kat":"krajowa"},"geometry":{"type":"LineString","coordinates":[[21.84704,51.55924],[21.84802,51.55908]]}},{"type":"Feature","properties":{"numer":"48","klasa":"droga gĹ‚Ăłwna ruchu przyĹ›pieszonego","kat":"krajowa"},"geometry":{"type":"LineString","coordinates":[[21.84667,51.55934],[21.84704,51.55924]]}},{"type":"Feature","properties":{"numer":"48","klasa":"droga gĹ‚Ăłwna ruchu przyĹ›pieszonego","kat":"krajowa"},"geometry":{"type":"LineString","coordinates":[[21.84654,51.55939],[21.84667,51.55934]]}},{"type":"Feature","properties":{"numer":"48","klasa":"droga gĹ‚Ăłwna ruchu przyĹ›pieszonego","kat":"krajowa"},"geometry":{"type":"LineString","coordinates":[[21.84641,51.55944],[21.84654,51.55939]]}},{"type":"Feature","properties":{"numer":"48","klasa":"droga gĹ‚Ăłwna ruchu przyĹ›pieszonego","kat":"krajowa"},"geometry":{"type":"LineString","coordinates":[[21.84849,51.55905],[21.84926,51.55908],[21.85035,51.55927],[21.85701,51.56081]]}},{"type":"Feature","properties":{"numer":"1442L","klasa":"droga zbiorcza","kat":"powiatowa"},"geometry":{"type":"LineString","coordinates":[[21.8645,51.56415],[21.86509,51.56426],[21.86554,51.56419],[21.86592,51.5639],[21.86633,51.56339]]}},{"type":"Feature","properties":{"numer":"1442L","klasa":"droga zbiorcza","kat":"powiatowa"},"geometry":{"type":"LineString","coordinates":[[21.86359,51.56365],[21.86392,51.56398],[21.86434,51.56411]]}},{"type":"Feature","properties":{"numer":"1441L","klasa":"droga zbiorcza","kat":"powiatowa"},"geometry":{"type":"LineString","coordinates":[[21.8615,51.56448],[21.86359,51.56365]]}},{"type":"Feature","properties":{"numer":"102996L,1442L","klasa":"droga zbiorcza","kat":"powiatowa"},"geometry":{"type":"LineString","coordinates":[[21.86434,51.56411],[21.8645,51.56415]]}},{"type":"Feature","properties":{"numer":"1441L","klasa":"droga zbiorcza","kat":"powiatowa"},"geometry":{"type":"LineString","coordinates":[[21.8615,51.56448],[21.86145,51.5645]]}},{"type":"Feature","properties":{"numer":"1441L","klasa":"droga zbiorcza","kat":"powiatowa"},"geometry":{"type":"LineString","coordinates":[[21.85755,51.56608],[21.86145,51.5645]]}},{"type":"Feature","properties":{"numer":"48","klasa":"droga gĹ‚Ăłwna ruchu przyĹ›pieszonego","kat":"krajowa"},"geometry":{"type":"LineString","coordinates":[[21.87248,51.56439],[21.8774,51.56626]]}},{"type":"Feature","properties":{"numer":"1440L","klasa":"droga zbiorcza","kat":"powiatowa"},"geometry":{"type":"LineString","coordinates":[[21.86707,51.56714],[21.87016,51.56533],[21.87248,51.56439]]}},{"type":"Feature","properties":{"numer":"103016L","klasa":"droga lokalna","kat":"powiatowa"},"geometry":{"type":"LineString","coordinates":[[21.8774,51.56626],[21.87731,51.56648],[21.87734,51.56717],[21.87776,51.56777],[21.87806,51.56797]]}},{"type":"Feature","properties":{"numer":"48","klasa":"droga gĹ‚Ăłwna ruchu przyĹ›pieszonego","kat":"krajowa"},"geometry":{"type":"LineString","coordinates":[[21.8774,51.56626],[21.88456,51.569]]}},{"type":"Feature","properties":{"numer":"801","klasa":"droga gĹ‚Ăłwna","kat":"wojewodzka"},"geometry":{"type":"LineString","coordinates":[[21.841331483131576,51.546373915936336],[21.84117,51.54665]]}},{"type":"Feature","properties":{"numer":"801","klasa":"droga gĹ‚Ăłwna","kat":"wojewodzka"},"geometry":{"type":"LineString","coordinates":[[21.84239,51.55263],[21.84169,51.5524],[21.83991,51.55207],[21.83962,51.55192],[21.83949,51.55171],[21.83954,51.55144],[21.84058,51.54957],[21.84041,51.54843],[21.84046,51.54796],[21.84117,51.54665]]}},{"type":"Feature","properties":{"numer":"103023L","klasa":"droga dojazdowa","kat":"powiatowa"},"geometry":{"type":"LineString","coordinates":[[21.88371,51.54033],[21.88354,51.5401]]}},{"type":"Feature","properties":{"numer":"103021L","klasa":"droga dojazdowa","kat":"powiatowa"},"geometry":{"type":"LineString","coordinates":[[21.88299,51.5406],[21.88264,51.53985]]}},{"type":"Feature","properties":{"numer":"1439L","klasa":"droga gĹ‚Ăłwna","kat":"powiatowa"},"geometry":{"type":"LineString","coordinates":[[21.88299,51.5406],[21.88371,51.54033]]}},{"type":"Feature","properties":{"numer":"1439L","klasa":"droga gĹ‚Ăłwna","kat":"powiatowa"},"geometry":{"type":"LineString","coordinates":[[21.86106,51.55198],[21.86541,51.55065],[21.87229,51.54804],[21.87268,51.54772],[21.87305,51.54693],[21.87342,51.54671],[21.87798,51.54595],[21.87828,51.54535],[21.87843,51.54455],[21.88056,51.54174],[21.88249,51.54076],[21.88299,51.5406]]}},{"type":"Feature","properties":{"numer":"1439L","klasa":"droga gĹ‚Ăłwna","kat":"powiatowa"},"geometry":{"type":"LineString","coordinates":[[21.86106,51.55198],[21.86096,51.55201]]}},{"type":"Feature","properties":{"numer":"1439L","klasa":"droga gĹ‚Ăłwna","kat":"powiatowa"},"geometry":{"type":"LineString","coordinates":[[21.85211,51.55536],[21.84849,51.55526],[21.84792,51.55514],[21.84748,51.55485],[21.84496,51.55243],[21.84455,51.55189],[21.84435,51.55178],[21.84396,51.5518],[21.84239,51.55263]]}},{"type":"Feature","properties":{"numer":"1439L","klasa":"droga gĹ‚Ăłwna","kat":"powiatowa"},"geometry":{"type":"LineString","coordinates":[[21.85211,51.55536],[21.85224,51.55511],[21.85353,51.55433],[21.85416,51.55406],[21.86096,51.55201]]}},{"type":"Feature","properties":{"numer":"1445L","klasa":"droga zbiorcza","kat":"powiatowa"},"geometry":{"type":"LineString","coordinates":[[21.85253,51.55641],[21.85211,51.55536]]}},{"type":"Feature","properties":{"numer":"1440L","klasa":"droga zbiorcza","kat":"powiatowa"},"geometry":{"type":"LineString","coordinates":[[21.85253,51.55641],[21.85166,51.55659],[21.84933,51.55795],[21.84904,51.55818],[21.84837,51.55906]]}},{"type":"Feature","properties":{"numer":"1445L","klasa":"droga zbiorcza","kat":"powiatowa"},"geometry":{"type":"LineString","coordinates":[[21.85701,51.56081],[21.85687,51.56042],[21.85484,51.55896],[21.85253,51.55641]]}},{"type":"Feature","properties":{"numer":"801","klasa":"droga gĹ‚Ăłwna","kat":"wojewodzka"},"geometry":{"type":"LineString","coordinates":[[21.84674,51.55827],[21.84649,51.55566],[21.84632,51.55505],[21.84502,51.55401],[21.84333,51.55321],[21.84239,51.55263]]}},{"type":"Feature","properties":{"numer":"48","klasa":"droga gĹ‚Ăłwna","kat":"krajowa"},"geometry":{"type":"LineString","coordinates":[[21.82748,51.55984],[21.827279675247095,51.559744818073206]]}},{"type":"Feature","properties":{"numer":"801","klasa":"droga gĹ‚Ăłwna","kat":"wojewodzka"},"geometry":{"type":"LineString","coordinates":[[21.84422,51.56069],[21.84653,51.55887],[21.84674,51.55827]]}},{"type":"Feature","properties":{"numer":"48","klasa":"droga gĹ‚Ăłwna ruchu przyĹ›pieszonego","kat":"krajowa"},"geometry":{"type":"LineString","coordinates":[[21.84422,51.56069],[21.84555,51.55985],[21.84641,51.55944]]}},{"type":"Feature","properties":{"numer":"801","klasa":"droga gĹ‚Ăłwna","kat":"wojewodzka"},"geometry":{"type":"LineString","coordinates":[[21.84654,51.55939],[21.84514,51.56079]]}},{"type":"Feature","properties":{"numer":"48","klasa":"droga gĹ‚Ăłwna ruchu przyĹ›pieszonego","kat":"krajowa"},"geometry":{"type":"LineString","coordinates":[[21.82748,51.55984],[21.82904,51.56058]]}},{"type":"Feature","properties":{"numer":"48,801","klasa":"droga gĹ‚Ăłwna ruchu przyĹ›pieszonego","kat":"gminna"},"geometry":{"type":"LineString","coordinates":[[21.84422,51.56069],[21.84416,51.56074]]}},{"type":"Feature","properties":{"numer":"48,801","klasa":"droga gĹ‚Ăłwna ruchu przyĹ›pieszonego","kat":"gminna"},"geometry":{"type":"LineString","coordinates":[[21.84416,51.56074],[21.84408,51.56079]]}},{"type":"Feature","properties":{"numer":"801","klasa":"droga gĹ‚Ăłwna","kat":"wojewodzka"},"geometry":{"type":"LineString","coordinates":[[21.84514,51.56079],[21.84489,51.56094],[21.84465,51.56097],[21.84416,51.56074]]}},{"type":"Feature","properties":{"numer":"48,801","klasa":"droga gĹ‚Ăłwna ruchu przyĹ›pieszonego","kat":"gminna"},"geometry":{"type":"LineString","coordinates":[[21.84408,51.56079],[21.84344,51.5612]]}},{"type":"Feature","properties":{"numer":"48,801","klasa":"droga gĹ‚Ăłwna ruchu przyĹ›pieszonego","kat":"gminna"},"geometry":{"type":"LineString","coordinates":[[21.84344,51.5612],[21.84317,51.56138]]}},{"type":"Feature","properties":{"numer":"48,801","klasa":"droga gĹ‚Ăłwna ruchu przyĹ›pieszonego","kat":"gminna"},"geometry":{"type":"LineString","coordinates":[[21.84317,51.56138],[21.84296,51.56151]]}},{"type":"Feature","properties":{"numer":"48","klasa":"droga gĹ‚Ăłwna ruchu przyĹ›pieszonego","kat":"krajowa"},"geometry":{"type":"LineString","coordinates":[[21.84267,51.56153],[21.84296,51.56151]]}},{"type":"Feature","properties":{"numer":"48","klasa":"droga gĹ‚Ăłwna ruchu przyĹ›pieszonego","kat":"krajowa"},"geometry":{"type":"LineString","coordinates":[[21.8422,51.56153],[21.84267,51.56153]]}},{"type":"Feature","properties":{"numer":"801","klasa":"droga gĹ‚Ăłwna","kat":"wojewodzka"},"geometry":{"type":"LineString","coordinates":[[21.84296,51.56151],[21.84289,51.56168]]}},{"type":"Feature","properties":{"numer":"801","klasa":"droga gĹ‚Ăłwna","kat":"wojewodzka"},"geometry":{"type":"LineString","coordinates":[[21.84289,51.56168],[21.84284,51.56189]]}},{"type":"Feature","properties":{"numer":"48","klasa":"droga gĹ‚Ăłwna ruchu przyĹ›pieszonego","kat":"krajowa"},"geometry":{"type":"LineString","coordinates":[[21.85701,51.56081],[21.86103,51.56173]]}},{"type":"Feature","properties":{"numer":"48","klasa":"droga gĹ‚Ăłwna ruchu przyĹ›pieszonego","kat":"krajowa"},"geometry":{"type":"LineString","coordinates":[[21.86103,51.56173],[21.8611,51.56174]]}},{"type":"Feature","properties":{"numer":"48","klasa":"droga gĹ‚Ăłwna ruchu przyĹ›pieszonego","kat":"krajowa"},"geometry":{"type":"LineString","coordinates":[[21.8611,51.56174],[21.86132,51.56179]]}},{"type":"Feature","properties":{"numer":"48","klasa":"droga gĹ‚Ăłwna ruchu przyĹ›pieszonego","kat":"krajowa"},"geometry":{"type":"LineString","coordinates":[[21.86132,51.56179],[21.86393,51.56239]]}},{"type":"Feature","properties":{"numer":"1440L","klasa":"droga zbiorcza","kat":"powiatowa"},"geometry":{"type":"LineString","coordinates":[[21.84837,51.55906],[21.84492,51.56273],[21.84447,51.56365],[21.84441,51.5641],[21.84479,51.56509],[21.84608,51.5661]]}},{"type":"Feature","properties":{"numer":"48","klasa":"droga gĹ‚Ăłwna ruchu przyĹ›pieszonego","kat":"krajowa"},"geometry":{"type":"LineString","coordinates":[[21.86393,51.56239],[21.8666,51.563]]}},{"type":"Feature","properties":{"numer":"1442L","klasa":"droga zbiorcza","kat":"powiatowa"},"geometry":{"type":"LineString","coordinates":[[21.86393,51.56239],[21.86344,51.56336],[21.86359,51.56365]]}},{"type":"Feature","properties":{"numer":"103005L,1442L","klasa":"droga zbiorcza","kat":"powiatowa"},"geometry":{"type":"LineString","coordinates":[[21.86633,51.56339],[21.8666,51.563]]}},{"type":"Feature","properties":{"numer":"1445L","klasa":"droga zbiorcza","kat":"powiatowa"},"geometry":{"type":"LineString","coordinates":[[21.85755,51.56608],[21.85743,51.56517],[21.85719,51.56467],[21.85706,51.564],[21.85695,51.56152],[21.85701,51.56081]]}},{"type":"Feature","properties":{"numer":"48","klasa":"droga gĹ‚Ăłwna ruchu przyĹ›pieszonego","kat":"krajowa"},"geometry":{"type":"LineString","coordinates":[[21.8666,51.563],[21.87248,51.56439]]}},{"type":"Feature","properties":{"numer":"48","klasa":"droga gĹ‚Ăłwna ruchu przyĹ›pieszonego","kat":"krajowa"},"geometry":{"type":"LineString","coordinates":[[21.8332,51.56337],[21.8312,51.56159],[21.82904,51.56058]]}},{"type":"Feature","properties":{"numer":"48","klasa":"droga gĹ‚Ăłwna ruchu przyĹ›pieszonego","kat":"krajowa"},"geometry":{"type":"LineString","coordinates":[[21.8422,51.56153],[21.83836,51.56142],[21.83782,51.56146],[21.83721,51.56167],[21.83544,51.56276]]}},{"type":"Feature","properties":{"numer":"48,801","klasa":"droga gĹ‚Ăłwna ruchu przyĹ›pieszonego","kat":"gminna"},"geometry":{"type":"LineString","coordinates":[[21.83544,51.56276],[21.83527,51.56285]]}},{"type":"Feature","properties":{"numer":"48","klasa":"droga gĹ‚Ăłwna ruchu przyĹ›pieszonego","kat":"krajowa"},"geometry":{"type":"LineString","coordinates":[[21.83527,51.56285],[21.83464,51.56327],[21.8344,51.56363]]}},{"type":"Feature","properties":{"numer":"48","klasa":"droga gĹ‚Ăłwna ruchu przyĹ›pieszonego","kat":"krajowa"},"geometry":{"type":"LineString","coordinates":[[21.83433,51.56362],[21.8332,51.56337]]}},{"type":"Feature","properties":{"numer":"48","klasa":"droga gĹ‚Ăłwna ruchu przyĹ›pieszonego","kat":"krajowa"},"geometry":{"type":"LineString","coordinates":[[21.8344,51.56363],[21.83433,51.56362]]}},{"type":"Feature","properties":{"numer":"","klasa":"droga gĹ‚Ăłwna","kat":"gminna"},"geometry":{"type":"LineString","coordinates":[[21.8344,51.56363],[21.83409,51.5649]]}},{"type":"Feature","properties":{"numer":"801","klasa":"droga gĹ‚Ăłwna","kat":"wojewodzka"},"geometry":{"type":"LineString","coordinates":[[21.84025,51.56789],[21.84187,51.56616],[21.84236,51.56529],[21.84283,51.56383],[21.84284,51.56189]]}},{"type":"Feature","properties":{"numer":"","klasa":"droga gĹ‚Ăłwna","kat":"gminna"},"geometry":{"type":"LineString","coordinates":[[21.83409,51.5649],[21.83379,51.56523]]}},{"type":"Feature","properties":{"numer":"831","klasa":"droga zbiorcza","kat":"wojewodzka"},"geometry":{"type":"LineString","coordinates":[[21.83379,51.56523],[21.83396,51.56539],[21.83325,51.56828],[21.83344,51.56872],[21.83447,51.57022]]}},{"type":"Feature","properties":{"numer":"103016L","klasa":"droga lokalna","kat":"powiatowa"},"geometry":{"type":"LineString","coordinates":[[21.87806,51.56797],[21.87827,51.56805]]}},{"type":"Feature","properties":{"numer":"1443L","klasa":"droga zbiorcza","kat":"powiatowa"},"geometry":{"type":"LineString","coordinates":[[21.87803,51.56814],[21.87806,51.56797]]}},{"type":"Feature","properties":{"numer":"1443L","klasa":"droga zbiorcza","kat":"powiatowa"},"geometry":{"type":"LineString","coordinates":[[21.87803,51.56814],[21.87827,51.56805]]}},{"type":"Feature","properties":{"numer":"1443L","klasa":"droga zbiorcza","kat":"powiatowa"},"geometry":{"type":"LineString","coordinates":[[21.86707,51.56714],[21.86855,51.5678],[21.86977,51.56795],[21.87099,51.56795],[21.87144,51.56803],[21.87436,51.56872],[21.87562,51.56915],[21.87603,51.56907],[21.87803,51.56814]]}},{"type":"Feature","properties":{"numer":"1445L","klasa":"droga zbiorcza","kat":"powiatowa"},"geometry":{"type":"LineString","coordinates":[[21.84608,51.5661],[21.84696,51.56635],[21.84782,51.56675],[21.85185,51.5688],[21.85421,51.57007],[21.85432,51.57022]]}},{"type":"Feature","properties":{"numer":"1445L","klasa":"droga zbiorcza","kat":"powiatowa"},"geometry":{"type":"LineString","coordinates":[[21.85755,51.56608],[21.85808,51.56703],[21.85803,51.56742],[21.85698,51.5686],[21.85594,51.5694],[21.85517,51.57034]]}},{"type":"Feature","properties":{"numer":"1440L","klasa":"droga zbiorcza","kat":"powiatowa"},"geometry":{"type":"LineString","coordinates":[[21.85199,51.57235],[21.84669,51.5666],[21.84608,51.5661]]}},{"type":"Feature","properties":{"numer":"1440L","klasa":"droga zbiorcza","kat":"powiatowa"},"geometry":{"type":"LineString","coordinates":[[21.8603,51.57278],[21.86247,51.57043],[21.86529,51.5682],[21.86707,51.56714]]}},{"type":"Feature","properties":{"numer":"48","klasa":"droga gĹ‚Ăłwna ruchu przyĹ›pieszonego","kat":"krajowa"},"geometry":{"type":"LineString","coordinates":[[21.89106,51.57149],[21.88456,51.569]]}},{"type":"Feature","properties":{"numer":"1438L,1445L","klasa":"droga gĹ‚Ăłwna","kat":"powiatowa"},"geometry":{"type":"LineString","coordinates":[[21.85432,51.57022],[21.85498,51.57036]]}},{"type":"Feature","properties":{"numer":"1438L,1445L","klasa":"droga gĹ‚Ăłwna","kat":"powiatowa"},"geometry":{"type":"LineString","coordinates":[[21.85498,51.57036],[21.85517,51.57034]]}},{"type":"Feature","properties":{"numer":"1438L","klasa":"droga gĹ‚Ăłwna","kat":"powiatowa"},"geometry":{"type":"LineString","coordinates":[[21.85498,51.57036],[21.855,51.57063]]}},{"type":"Feature","properties":{"numer":"1438L","klasa":"droga gĹ‚Ăłwna","kat":"powiatowa"},"geometry":{"type":"LineString","coordinates":[[21.85432,51.57022],[21.85404,51.5704],[21.85377,51.57129],[21.85199,51.57235]]}},{"type":"Feature","properties":{"numer":"48","klasa":"droga gĹ‚Ăłwna ruchu przyĹ›pieszonego","kat":"krajowa"},"geometry":{"type":"LineString","coordinates":[[21.89112,51.57151],[21.89106,51.57149]]}},{"type":"Feature","properties":{"numer":"1438L","klasa":"droga gĹ‚Ăłwna","kat":"powiatowa"},"geometry":{"type":"LineString","coordinates":[[21.855,51.57063],[21.8556,51.5716],[21.85704,51.5725],[21.85846,51.57417]]}},{"type":"Feature","properties":{"numer":"1440L","klasa":"droga zbiorcza","kat":"powiatowa"},"geometry":{"type":"LineString","coordinates":[[21.8603,51.57278],[21.86023,51.57285]]}},{"type":"Feature","properties":{"numer":"1440L","klasa":"droga zbiorcza","kat":"powiatowa"},"geometry":{"type":"LineString","coordinates":[[21.85896,51.57429],[21.86023,51.57285]]}},{"type":"Feature","properties":{"numer":"1440L","klasa":"droga zbiorcza","kat":"powiatowa"},"geometry":{"type":"LineString","coordinates":[[21.85879,51.57448],[21.85789,51.57541],[21.85571,51.57604],[21.85547,51.57602],[21.85499,51.57562],[21.85199,51.57235]]}},{"type":"Feature","properties":{"numer":"1438L","klasa":"droga gĹ‚Ăłwna","kat":"powiatowa"},"geometry":{"type":"LineString","coordinates":[[21.85846,51.57417],[21.85875,51.57433]]}},{"type":"Feature","properties":{"numer":"1440L","klasa":"droga zbiorcza","kat":"powiatowa"},"geometry":{"type":"LineString","coordinates":[[21.85886,51.57439],[21.85896,51.57429]]}},{"type":"Feature","properties":{"numer":"48","klasa":"droga gĹ‚Ăłwna ruchu przyĹ›pieszonego","kat":"krajowa"},"geometry":{"type":"LineString","coordinates":[[21.93277462311558,51.58739345477387],[21.89112,51.57151]]}},{"type":"Feature","properties":{"numer":"801","klasa":"droga gĹ‚Ăłwna","kat":"wojewodzka"},"geometry":{"type":"LineString","coordinates":[[21.83934,51.56884],[21.84025,51.56789]]}},{"type":"Feature","properties":{"numer":"801","klasa":"droga gĹ‚Ăłwna","kat":"wojewodzka"},"geometry":{"type":"LineString","coordinates":[[21.83846,51.56978],[21.83934,51.56884]]}},{"type":"Feature","properties":{"numer":"1444L","klasa":"droga zbiorcza","kat":"powiatowa"},"geometry":{"type":"LineString","coordinates":[[21.842,51.56624],[21.84159,51.56781],[21.84131,51.56808],[21.83976,51.56911],[21.83951,51.56939],[21.83947,51.57101],[21.83831,51.57315],[21.83755,51.57401]]}},{"type":"Feature","properties":{"numer":"801","klasa":"droga gĹ‚Ăłwna","kat":"wojewodzka"},"geometry":{"type":"LineString","coordinates":[[21.83626,51.57156],[21.83693,51.5712],[21.83747,51.5708],[21.83846,51.56978]]}},{"type":"Feature","properties":{"numer":"831","klasa":"droga zbiorcza","kat":"wojewodzka"},"geometry":{"type":"LineString","coordinates":[[21.83447,51.57022],[21.83533,51.57146]]}},{"type":"Feature","properties":{"numer":"","klasa":"droga gĹ‚Ăłwna","kat":"gminna"},"geometry":{"type":"LineString","coordinates":[[21.83379,51.56523],[21.82687,51.56989],[21.81672,51.57563],[21.81519854985804,51.57640439079081]]}},{"type":"Feature","properties":{"numer":"831","klasa":"droga zbiorcza","kat":"wojewodzka"},"geometry":{"type":"LineString","coordinates":[[21.83533,51.57146],[21.83557,51.57168]]}},{"type":"Feature","properties":{"numer":"801","klasa":"droga gĹ‚Ăłwna","kat":"wojewodzka"},"geometry":{"type":"LineString","coordinates":[[21.83593,51.57172],[21.83626,51.57156]]}},{"type":"Feature","properties":{"numer":"831","klasa":"droga zbiorcza","kat":"wojewodzka"},"geometry":{"type":"LineString","coordinates":[[21.83557,51.57168],[21.83572,51.57183]]}},{"type":"Feature","properties":{"numer":"801","klasa":"droga gĹ‚Ăłwna","kat":"wojewodzka"},"geometry":{"type":"LineString","coordinates":[[21.83572,51.57183],[21.83593,51.57172]]}},{"type":"Feature","properties":{"numer":"801","klasa":"droga gĹ‚Ăłwna","kat":"wojewodzka"},"geometry":{"type":"LineString","coordinates":[[21.83548,51.57192],[21.83572,51.57183]]}},{"type":"Feature","properties":{"numer":"831","klasa":"droga zbiorcza","kat":"wojewodzka"},"geometry":{"type":"LineString","coordinates":[[21.83572,51.57183],[21.83578,51.572]]}},{"type":"Feature","properties":{"numer":"801","klasa":"droga gĹ‚Ăłwna","kat":"wojewodzka"},"geometry":{"type":"LineString","coordinates":[[21.83509,51.57208],[21.83548,51.57192]]}},{"type":"Feature","properties":{"numer":"831","klasa":"droga zbiorcza","kat":"wojewodzka"},"geometry":{"type":"LineString","coordinates":[[21.83578,51.572],[21.83589,51.57225]]}},{"type":"Feature","properties":{"numer":"831","klasa":"droga zbiorcza","kat":"wojewodzka"},"geometry":{"type":"LineString","coordinates":[[21.83589,51.57225],[21.83655,51.57304]]}},{"type":"Feature","properties":{"numer":"831","klasa":"droga zbiorcza","kat":"wojewodzka"},"geometry":{"type":"LineString","coordinates":[[21.83655,51.57304],[21.83755,51.57401]]}},{"type":"Feature","properties":{"numer":"831","klasa":"droga zbiorcza","kat":"wojewodzka"},"geometry":{"type":"LineString","coordinates":[[21.83755,51.57401],[21.83808,51.57459],[21.83801,51.57488]]}},{"type":"Feature","properties":{"numer":"801","klasa":"droga gĹ‚Ăłwna","kat":"wojewodzka"},"geometry":{"type":"LineString","coordinates":[[21.82063,51.57724],[21.82234,51.5767],[21.8339,51.57257],[21.83509,51.57208]]}},{"type":"Feature","properties":{"numer":"1438L","klasa":"droga gĹ‚Ăłwna","kat":"powiatowa"},"geometry":{"type":"LineString","coordinates":[[21.83752,51.57499],[21.83801,51.57488]]}},{"type":"Feature","properties":{"numer":"1438L","klasa":"droga gĹ‚Ăłwna","kat":"powiatowa"},"geometry":{"type":"LineString","coordinates":[[21.83752,51.57499],[21.83751,51.57528]]}},{"type":"Feature","properties":{"numer":"1438L","klasa":"droga gĹ‚Ăłwna","kat":"powiatowa"},"geometry":{"type":"LineString","coordinates":[[21.85199,51.57235],[21.84804,51.57473],[21.84611,51.5755],[21.84556,51.5759],[21.84071,51.57773],[21.83962,51.57824],[21.83929,51.5782],[21.83802,51.57721],[21.83803,51.57632],[21.83741,51.57584],[21.83751,51.57528]]}},{"type":"Feature","properties":{"numer":"801","klasa":"droga gĹ‚Ăłwna","kat":"wojewodzka"},"geometry":{"type":"LineString","coordinates":[[21.81453823118771,51.57678043329642],[21.81501,51.57706]]}},{"type":"Feature","properties":{"numer":"801","klasa":"droga gĹ‚Ăłwna","kat":"wojewodzka"},"geometry":{"type":"LineString","coordinates":[[21.81793,51.57755],[21.81573,51.57731],[21.81501,51.57706]]}},{"type":"Feature","properties":{"numer":"801","klasa":"droga gĹ‚Ăłwna","kat":"wojewodzka"},"geometry":{"type":"LineString","coordinates":[[21.81988,51.5774],[21.82063,51.57724]]}},{"type":"Feature","properties":{"numer":"801","klasa":"droga gĹ‚Ăłwna","kat":"wojewodzka"},"geometry":{"type":"LineString","coordinates":[[21.81793,51.57755],[21.81988,51.5774]]}},{"type":"Feature","properties":{"numer":"1438L","klasa":"droga gĹ‚Ăłwna","kat":"powiatowa"},"geometry":{"type":"LineString","coordinates":[[21.82003,51.57769],[21.81988,51.5774]]}},{"type":"Feature","properties":{"numer":"1438L","klasa":"droga gĹ‚Ăłwna","kat":"powiatowa"},"geometry":{"type":"LineString","coordinates":[[21.82047,51.57799],[21.82678,51.58032],[21.82729,51.58041],[21.82853962987013,51.579490461038965]]}},{"type":"Feature","properties":{"numer":"1438L","klasa":"droga gĹ‚Ăłwna","kat":"powiatowa"},"geometry":{"type":"LineString","coordinates":[[21.831072151287554,51.5773540638412],[21.83131,51.57714],[21.8334,51.57591],[21.8344,51.57558],[21.83752,51.57499]]}},{"type":"Feature","properties":{"numer":"1438L","klasa":"droga gĹ‚Ăłwna","kat":"powiatowa"},"geometry":{"type":"LineString","coordinates":[[21.82047,51.57799],[21.8198,51.5778],[21.81839,51.57762]]}},{"type":"Feature","properties":{"numer":"1438L","klasa":"droga gĹ‚Ăłwna","kat":"powiatowa"},"geometry":{"type":"LineString","coordinates":[[21.82003,51.57769],[21.82047,51.57799]]}},{"type":"Feature","properties":{"numer":"1438L","klasa":"droga gĹ‚Ăłwna","kat":"powiatowa"},"geometry":{"type":"LineString","coordinates":[[21.85875,51.57433],[21.85886,51.57439]]}},{"type":"Feature","properties":{"numer":"1438L","klasa":"droga gĹ‚Ăłwna","kat":"powiatowa"},"geometry":{"type":"LineString","coordinates":[[21.85886,51.57439],[21.85901,51.57445]]}},{"type":"Feature","properties":{"numer":"1440L","klasa":"droga zbiorcza","kat":"powiatowa"},"geometry":{"type":"LineString","coordinates":[[21.85886,51.57439],[21.85879,51.57448]]}},{"type":"Feature","properties":{"numer":"1438L","klasa":"droga gĹ‚Ăłwna","kat":"powiatowa"},"geometry":{"type":"LineString","coordinates":[[21.85901,51.57445],[21.85936,51.57459]]}},{"type":"Feature","properties":{"numer":"1438L","klasa":"droga gĹ‚Ăłwna","kat":"powiatowa"},"geometry":{"type":"LineString","coordinates":[[21.85936,51.57459],[21.85986,51.57485],[21.86007,51.57516],[21.86198,51.58013],[21.86273,51.58142]]}},{"type":"Feature","properties":{"numer":"1438L","klasa":"droga gĹ‚Ăłwna","kat":"powiatowa"},"geometry":{"type":"LineString","coordinates":[[21.86273,51.58142],[21.86275,51.58147]]}},{"type":"Feature","properties":{"numer":"1438L","klasa":"droga gĹ‚Ăłwna","kat":"powiatowa"},"geometry":{"type":"LineString","coordinates":[[21.86275,51.58147],[21.86432,51.58418],[21.86424,51.58899],[21.86437,51.58942],[21.86777,51.59248],[21.86966,51.5933],[21.87101,51.59556],[21.87248,51.59692],[21.87364,51.59772],[21.875,51.59831],[21.8771,51.59888],[21.88479,51.60063],[21.8865,51.60094],[21.88792,51.60094],[21.88915,51.60118],[21.89408,51.60235],[21.89749,51.60331],[21.897827404878047,51.603320224390245]]}}]}