{"type":"FeatureCollection","features":[{"type":"Feature","properties":{"numer":"3503L","klasa":"","kat":"powiatowa"},"geometry":{"type":"LineString","coordinates":[[23.31717,50.56968],[23.32036,50.56866],[23.32538,50.56767],[23.3261,50.56745]]}},{"type":"Feature","properties":{"numer":"3503L","klasa":"","kat":"powiatowa"},"geometry":{"type":"LineString","coordinates":[[23.31717,50.56968],[23.31856,50.57122],[23.32009,50.57201],[23.32111,50.57282],[23.32291,50.574],[23.32407,50.57529],[23.3247,50.57576],[23.32529,50.57683],[23.32591,50.57881],[23.32637,50.57934],[23.32684,50.57966],[23.32708,50.58003],[23.32746,50.58037],[23.32796,50.58103],[23.32819,50.58153],[23.32849,50.58168],[23.32898,50.58172],[23.33172,50.58128]]}},{"type":"Feature","properties":{"numer":"3503L","klasa":"","kat":"powiatowa"},"geometry":{"type":"LineString","coordinates":[[23.33172,50.58128],[23.33505,50.58082],[23.33517,50.58119],[23.33596,50.58193],[23.34097,50.58242],[23.34204,50.58266],[23.34261,50.58294],[23.34527,50.58475],[23.34625,50.58517],[23.34832,50.58557],[23.3514,50.58603],[23.35201,50.58606]]}},{"type":"Feature","properties":{"numer":"3266L","klasa":"droga zbiorcza","kat":"powiatowa"},"geometry":{"type":"LineString","coordinates":[[23.32954,50.5997],[23.3328,50.59411],[23.33326,50.59363],[23.33431,50.5931],[23.33833,50.59199],[23.33919,50.59183],[23.34905,50.59231],[23.34981,50.59225],[23.35075,50.59195],[23.35119,50.5914],[23.35157,50.5902],[23.35201,50.58606]]}},{"type":"Feature","properties":{"numer":"3265L","klasa":"droga zbiorcza","kat":"powiatowa"},"geometry":{"type":"LineString","coordinates":[[23.37224,50.6042],[23.36189,50.60209],[23.36095,50.60196],[23.36049,50.60204],[23.3579,50.60291],[23.35721,50.60296],[23.35602,50.60274],[23.35569,50.60278],[23.35339,50.60358],[23.35214,50.60411],[23.3506,50.60512],[23.34788,50.6058],[23.34667,50.60587],[23.34225,50.60518],[23.34165,50.60496],[23.34126,50.60471],[23.34092,50.60427],[23.34083,50.60383],[23.34139,50.60222],[23.34141,50.60176],[23.34109,50.60119],[23.34053,50.60085],[23.33964,50.60067],[23.33163,50.60008],[23.32954,50.5997]]}},{"type":"Feature","properties":{"numer":"3265L","klasa":"droga zbiorcza","kat":"powiatowa"},"geometry":{"type":"LineString","coordinates":[[23.32954,50.5997],[23.32542,50.59901],[23.32467,50.59897],[23.32394,50.59909],[23.32343,50.59927],[23.32302,50.59951],[23.32258,50.59994],[23.31976,50.60453],[23.31945,50.60544],[23.31952,50.6058],[23.31977,50.60625],[23.32097,50.60758],[23.3213,50.60809],[23.32153,50.60943],[23.32146,50.60959],[23.319076801801774,50.60975220720721]]}},{"type":"Feature","properties":{"numer":"3265L","klasa":"droga zbiorcza","kat":"powiatowa"},"geometry":{"type":"LineString","coordinates":[[23.31252269268161,50.61014393362206],[23.31134211827669,50.61014025582018]]}},{"type":"Feature","properties":{"numer":"3506L","klasa":"","kat":"powiatowa"},"geometry":{"type":"LineString","coordinates":[[23.471197128712873,50.545970891089105],[23.470985596330273,50.54594444954128]]}},{"type":"Feature","properties":{"numer":"3507L","klasa":"droga zbiorcza","kat":"powiatowa"},"geometry":{"type":"LineString","coordinates":[[23.50893,50.56734],[23.50905,50.56528],[23.50867,50.56445],[23.50864,50.56417],[23.50895,50.56351],[23.50949,50.56286],[23.50997,50.56182],[23.51108,50.56102],[23.51126,50.56079],[23.5114,50.56025],[23.51142,50.55909],[23.5116,50.55879],[23.51213,50.55849],[23.51268,50.55832],[23.51588,50.55778],[23.5168,50.55734],[23.51723,50.55688],[23.51798614340162,50.555151672224866]]}},{"type":"Feature","properties":{"numer":"3502L","klasa":"droga gĹ‚Ăłwna","kat":"powiatowa"},"geometry":{"type":"LineString","coordinates":[[23.50893,50.56734],[23.51106,50.56718],[23.51268,50.56733],[23.51535,50.56772],[23.51772,50.56758],[23.51979,50.56769],[23.52205,50.5673],[23.523920781149126,50.567338974607274]]}},{"type":"Feature","properties":{"numer":"17,E372","klasa":"droga gĹ‚Ăłwna ruchu przyĹ›pieszonego","kat":"gminna"},"geometry":{"type":"LineString","coordinates":[[23.38703,50.56324],[23.387038387096773,50.56321623655914]]}},{"type":"Feature","properties":{"numer":"3503L","klasa":"","kat":"powiatowa"},"geometry":{"type":"LineString","coordinates":[[23.387024201649176,50.563235907046476],[23.38703,50.56324]]}},{"type":"Feature","properties":{"numer":"3503L","klasa":"","kat":"powiatowa"},"geometry":{"type":"LineString","coordinates":[[23.3261,50.56745],[23.32671,50.56705],[23.32856,50.56479],[23.32895,50.56457],[23.32954,50.56447],[23.337466100000015,50.56427565]]}},{"type":"Feature","properties":{"numer":"3503L","klasa":"","kat":"powiatowa"},"geometry":{"type":"LineString","coordinates":[[23.341815636026187,50.56480178355196],[23.3466,50.56573],[23.34744,50.56567],[23.34878,50.56522],[23.34946,50.56507],[23.35233,50.56494],[23.35401,50.56496],[23.35560962616822,50.564828429016465]]}},{"type":"Feature","properties":{"numer":"3503L","klasa":"","kat":"powiatowa"},"geometry":{"type":"LineString","coordinates":[[23.356471392275925,50.564790812241924],[23.36083,50.56539],[23.360834517628813,50.56539017047656]]}},{"type":"Feature","properties":{"numer":"3503L","klasa":"","kat":"powiatowa"},"geometry":{"type":"LineString","coordinates":[[23.36131596369223,50.56540833825254],[23.36189,50.56543],[23.36545,50.56515],[23.3697,50.56455],[23.37887,50.56292],[23.379981992659893,50.5626993210443]]}},{"type":"Feature","properties":{"numer":"3503L","klasa":"","kat":"powiatowa"},"geometry":{"type":"LineString","coordinates":[[23.384104460559556,50.56216239917657],[23.38468,50.56224],[23.38533,50.56242],[23.38602559973782,50.562716652829366]]}},{"type":"Feature","properties":{"numer":"17,E372","klasa":"droga gĹ‚Ăłwna ruchu przyĹ›pieszonego","kat":"gminna"},"geometry":{"type":"LineString","coordinates":[[23.38738,50.56992],[23.38627,50.56679],[23.38615,50.56619],[23.3862,50.56573],[23.38703,50.56324]]}},{"type":"Feature","properties":{"numer":"3502L","klasa":"droga gĹ‚Ăłwna","kat":"powiatowa"},"geometry":{"type":"LineString","coordinates":[[23.38738,50.56992],[23.38935,50.56974],[23.39085,50.5694],[23.39282,50.56907],[23.39481,50.569],[23.39685,50.56847],[23.40028,50.56837],[23.40264,50.56816],[23.4034,50.56796],[23.40444,50.56739],[23.4049,50.56726],[23.40621,50.56741],[23.40771,50.56772],[23.40893,50.56774],[23.41246,50.56801],[23.41592,50.56815],[23.41892,50.56809],[23.4216,50.56817],[23.43267,50.56731],[23.43401,50.56728],[23.44525,50.56793],[23.44628,50.56819],[23.45019,50.56956],[23.45113,50.56973],[23.45731,50.56998],[23.46192,50.56922],[23.46721,50.56897],[23.46813,50.56907],[23.47184,50.56997],[23.47223,50.56997],[23.47335,50.56979],[23.47431,50.56976],[23.4767,50.57005],[23.48128,50.57041],[23.48263,50.57076],[23.48386,50.57092],[23.49237,50.57143],[23.49605,50.57137],[23.49675,50.57126],[23.49756,50.57094],[23.5007,50.56949],[23.5028,50.56836],[23.50386,50.56816],[23.50641,50.56803],[23.50893,50.56734]]}},{"type":"Feature","properties":{"numer":"17,E372","klasa":"droga gĹ‚Ăłwna ruchu przyĹ›pieszonego","kat":"gminna"},"geometry":{"type":"LineString","coordinates":[[23.38141,50.58724],[23.38126,50.58683],[23.38129,50.5859],[23.38298,50.57918],[23.38341,50.57847],[23.38467,50.57736],[23.38498,50.57673],[23.38499,50.57592],[23.38447,50.57399],[23.38457,50.57304],[23.38489,50.57233],[23.38517,50.57196],[23.38599,50.57126],[23.38716,50.57056],[23.38736,50.57028],[23.38738,50.56992]]}},{"type":"Feature","properties":{"numer":"3266L","klasa":"droga zbiorcza","kat":"powiatowa"},"geometry":{"type":"LineString","coordinates":[[23.35201,50.58606],[23.35295,50.58594],[23.35509,50.58533],[23.35829,50.58509],[23.3601,50.58504],[23.36297,50.58471],[23.36348,50.5848],[23.36709,50.58621],[23.3705,50.58672],[23.37211,50.58681],[23.37316,50.58722],[23.37528,50.58722],[23.37875,50.58696],[23.38141,50.58724]]}},{"type":"Feature","properties":{"numer":"3501L","klasa":"","kat":"powiatowa"},"geometry":{"type":"LineString","coordinates":[[23.4852377090209,50.592660489548955],[23.48453,50.59248],[23.48092,50.59224],[23.47847,50.59197],[23.47357,50.59183],[23.47145,50.59202],[23.46211,50.59181],[23.46116,50.59151],[23.45886,50.58997],[23.45447,50.58772],[23.45323,50.58722],[23.45231,50.58655],[23.44877,50.58567],[23.44681,50.58557],[23.44445,50.58508],[23.4437,50.58477],[23.44018,50.58249],[23.43938,50.58238],[23.42745,50.58511],[23.42491,50.58593],[23.42224,50.58627],[23.42052,50.58664],[23.41656,50.58674],[23.41239,50.58644],[23.41036,50.58646],[23.41024,50.58998],[23.41055,50.59255],[23.41017,50.59441]]}},{"type":"Feature","properties":{"numer":"17,E372","klasa":"droga gĹ‚Ăłwna ruchu przyĹ›pieszonego","kat":"gminna"},"geometry":{"type":"LineString","coordinates":[[23.38276,50.58876],[23.38141,50.58724]]}},{"type":"Feature","properties":{"numer":"3266L","klasa":"droga zbiorcza","kat":"powiatowa"},"geometry":{"type":"LineString","coordinates":[[23.38276,50.58876],[23.38419,50.58916],[23.38821,50.58992],[23.38891,50.59016],[23.39128,50.59159],[23.39135,50.5918],[23.39125,50.59237],[23.39143,50.59288],[23.39366,50.5949],[23.39451,50.59547],[23.39542,50.59578],[23.39668,50.59591],[23.40071,50.59573],[23.40152,50.59558],[23.40408,50.5949],[23.40931,50.5944],[23.41017,50.59441]]}},{"type":"Feature","properties":{"numer":"3266L","klasa":"droga zbiorcza","kat":"powiatowa"},"geometry":{"type":"LineString","coordinates":[[23.41017,50.59441],[23.41176,50.59468],[23.41228743967828,50.59491680965147]]}},{"type":"Feature","properties":{"numer":"17,E372","klasa":"droga gĹ‚Ăłwna ruchu przyĹ›pieszonego","kat":"gminna"},"geometry":{"type":"LineString","coordinates":[[23.37455,50.60405],[23.37858,50.59673],[23.37954,50.5928],[23.37988,50.59198],[23.3802,50.59148],[23.38063,50.59108],[23.38217,50.59036],[23.38267,50.58999],[23.38293,50.58947],[23.38276,50.58876]]}},{"type":"Feature","properties":{"numer":"3265L","klasa":"","kat":"powiatowa"},"geometry":{"type":"LineString","coordinates":[[23.40224,50.60254],[23.402412875558536,50.6025384139857]]}},{"type":"Feature","properties":{"numer":"112063L","klasa":"droga lokalna","kat":"powiatowa"},"geometry":{"type":"LineString","coordinates":[[23.40199,50.6031],[23.40215,50.60257]]}},{"type":"Feature","properties":{"numer":"3265L","klasa":"droga zbiorcza","kat":"powiatowa"},"geometry":{"type":"LineString","coordinates":[[23.39578,50.60395],[23.3967,50.6038],[23.40215,50.60257]]}},{"type":"Feature","properties":{"numer":"3265L","klasa":"droga zbiorcza","kat":"powiatowa"},"geometry":{"type":"LineString","coordinates":[[23.37478,50.60441],[23.37694,50.60454],[23.37775,50.60449],[23.38154,50.60381],[23.38492,50.60302],[23.38567,50.60295],[23.38662,50.603],[23.39326,50.60384],[23.39578,50.60395]]}},{"type":"Feature","properties":{"numer":"110930L","klasa":"droga lokalna","kat":"powiatowa"},"geometry":{"type":"LineString","coordinates":[[23.40199,50.6031],[23.401862640716885,50.60342264351722]]}},{"type":"Feature","properties":{"numer":"110930L","klasa":"droga lokalna","kat":"powiatowa"},"geometry":{"type":"LineString","coordinates":[[23.401653376768422,50.60375893149666],[23.400998720000004,50.60473739698924]]}},{"type":"Feature","properties":{"numer":"3265L","klasa":"droga zbiorcza","kat":"powiatowa"},"geometry":{"type":"LineString","coordinates":[[23.37455,50.60405],[23.3742,50.60397]]}},{"type":"Feature","properties":{"numer":"3265L","klasa":"droga zbiorcza","kat":"powiatowa"},"geometry":{"type":"LineString","coordinates":[[23.3742,50.60397],[23.37339,50.60389],[23.37224,50.6042]]}},{"type":"Feature","properties":{"numer":"17,E372","klasa":"droga gĹ‚Ăłwna ruchu przyĹ›pieszonego","kat":"gminna"},"geometry":{"type":"LineString","coordinates":[[23.37437,50.60437],[23.37455,50.60405]]}},{"type":"Feature","properties":{"numer":"3265L","klasa":"droga zbiorcza","kat":"powiatowa"},"geometry":{"type":"LineString","coordinates":[[23.37437,50.60437],[23.37478,50.60441]]}},{"type":"Feature","properties":{"numer":"3265SL","klasa":"droga zbiorcza","kat":"powiatowa"},"geometry":{"type":"LineString","coordinates":[[23.3741,50.60459],[23.37224,50.6042]]}},{"type":"Feature","properties":{"numer":"112063L","klasa":"droga lokalna","kat":"powiatowa"},"geometry":{"type":"LineString","coordinates":[[23.39995,50.60561],[23.40022,50.60532],[23.400809221651517,50.60493572500988]]}},{"type":"Feature","properties":{"numer":"110930L","klasa":"droga lokalna","kat":"powiatowa"},"geometry":{"type":"LineString","coordinates":[[23.39995,50.60561],[23.39939,50.60614]]}},{"type":"Feature","properties":{"numer":"112063L","klasa":"droga lokalna","kat":"powiatowa"},"geometry":{"type":"LineString","coordinates":[[23.39891,50.60659],[23.39939,50.60614]]}},{"type":"Feature","properties":{"numer":"3267L","klasa":"","kat":"powiatowa"},"geometry":{"type":"LineString","coordinates":[[23.39536520727044,50.60883600127551],[23.39459,50.6087],[23.39454,50.60863],[23.3947,50.60616],[23.39578,50.60395]]}},{"type":"Feature","properties":{"numer":"110930L","klasa":"droga lokalna","kat":"powiatowa"},"geometry":{"type":"LineString","coordinates":[[23.39891,50.60659],[23.39836,50.60747]]}},{"type":"Feature","properties":{"numer":"112063L","klasa":"droga lokalna","kat":"powiatowa"},"geometry":{"type":"LineString","coordinates":[[23.398305560640733,50.60754258581236],[23.39836,50.60747]]}},{"type":"Feature","properties":{"numer":"112063L","klasa":"droga lokalna","kat":"powiatowa"},"geometry":{"type":"LineString","coordinates":[[23.396070198841556,50.60891634668362],[23.396380074644284,50.608805346396075]]}},{"type":"Feature","properties":{"numer":"112063L","klasa":"droga lokalna","kat":"powiatowa"},"geometry":{"type":"LineString","coordinates":[[23.39723109867753,50.608247232960316],[23.39739,50.60811],[23.39768235294118,50.60795129411765]]}},{"type":"Feature","properties":{"numer":"17,E372","klasa":"droga gĹ‚Ăłwna ruchu przyĹ›pieszonego","kat":"gminna"},"geometry":{"type":"LineString","coordinates":[[23.374470998488754,50.61122006378941],[23.37312,50.61101],[23.37257,50.61076],[23.37224,50.61033],[23.37227,50.60995],[23.37246,50.60967],[23.37373,50.60901],[23.37423,50.60848],[23.37427,50.60798],[23.37376,50.60671],[23.37369,50.60603],[23.37384,50.6054],[23.37437,50.60437]]}}]}