{"type":"FeatureCollection","features":[{"type":"Feature","properties":{"numer":"3246L","klasa":"droga gĹ‚Ăłwna","kat":"powiatowa"},"geometry":{"type":"LineString","coordinates":[[23.36064,50.70796],[23.360631802510593,50.70782474142475]]}},{"type":"Feature","properties":{"numer":"3269L","klasa":"droga zbiorcza","kat":"powiatowa"},"geometry":{"type":"LineString","coordinates":[[23.4395,50.70229],[23.42784,50.69398],[23.42338,50.69105],[23.42213,50.69016],[23.4205,50.68876],[23.418617633330197,50.68624893774285]]}},{"type":"Feature","properties":{"numer":"3272L","klasa":"droga zbiorcza","kat":"powiatowa"},"geometry":{"type":"LineString","coordinates":[[23.44797,50.69913],[23.44779,50.69874],[23.44557,50.69596],[23.44446,50.69418],[23.44402,50.69227],[23.44424,50.69101],[23.44416,50.68977],[23.44833636188057,50.679254694552476]]}},{"type":"Feature","properties":{"numer":"3272L","klasa":"droga zbiorcza","kat":"powiatowa"},"geometry":{"type":"LineString","coordinates":[[23.44019,50.70226],[23.44343,50.70044],[23.44643,50.69969],[23.44797,50.69913]]}},{"type":"Feature","properties":{"numer":"3271L","klasa":"droga zbiorcza","kat":"powiatowa"},"geometry":{"type":"LineString","coordinates":[[23.4395,50.70229],[23.44019,50.70226]]}},{"type":"Feature","properties":{"numer":"3271L,3272L","klasa":"droga zbiorcza","kat":"powiatowa"},"geometry":{"type":"LineString","coordinates":[[23.44109,50.70505],[23.44019,50.70226]]}},{"type":"Feature","properties":{"numer":"3271L","klasa":"droga zbiorcza","kat":"powiatowa"},"geometry":{"type":"LineString","coordinates":[[23.44109,50.70505],[23.44847,50.70538],[23.44894,50.70534],[23.45427,50.70376],[23.46054,50.70067],[23.46092,50.70055],[23.46418,50.70084],[23.47113,50.701],[23.47524475134921,50.700510580236]]}},{"type":"Feature","properties":{"numer":"3271L","klasa":"droga zbiorcza","kat":"powiatowa"},"geometry":{"type":"LineString","coordinates":[[23.37405,50.71706],[23.37254,50.71004],[23.37256,50.70977],[23.37273,50.70947],[23.37307,50.70921],[23.37354,50.70904],[23.38321,50.70734],[23.39007,50.70553],[23.40139,50.70367],[23.40968,50.70329],[23.43435,50.70252],[23.4395,50.70229]]}},{"type":"Feature","properties":{"numer":"3246L","klasa":"droga zbiorcza","kat":"powiatowa"},"geometry":{"type":"LineString","coordinates":[[23.36126,50.71682],[23.35987,50.71],[23.35997,50.70933],[23.36064,50.70796]]}},{"type":"Feature","properties":{"numer":"3272L","klasa":"droga zbiorcza","kat":"powiatowa"},"geometry":{"type":"LineString","coordinates":[[23.43909,50.72419],[23.44075,50.71991],[23.44143,50.71657],[23.44133,50.71614],[23.43947,50.71237],[23.43934,50.71188],[23.43897,50.70973],[23.43925,50.70723],[23.43922,50.70602],[23.43927,50.70579],[23.43942,50.70566],[23.44109,50.70505]]}},{"type":"Feature","properties":{"numer":"3246L,74","klasa":"droga gĹ‚Ăłwna ruchu przyĹ›pieszonego","kat":"powiatowa"},"geometry":{"type":"LineString","coordinates":[[23.36126,50.71682],[23.36256,50.71684]]}},{"type":"Feature","properties":{"numer":"74","klasa":"droga gĹ‚Ăłwna ruchu przyĹ›pieszonego","kat":"krajowa"},"geometry":{"type":"LineString","coordinates":[[23.36256,50.71684],[23.37405,50.71706]]}},{"type":"Feature","properties":{"numer":"74","klasa":"droga gĹ‚Ăłwna ruchu przyĹ›pieszonego","kat":"krajowa"},"geometry":{"type":"LineString","coordinates":[[23.37405,50.71706],[23.39418,50.71745],[23.43782,50.724]]}},{"type":"Feature","properties":{"numer":"74","klasa":"droga gĹ‚Ăłwna ruchu przyĹ›pieszonego","kat":"krajowa"},"geometry":{"type":"LineString","coordinates":[[23.43782,50.724],[23.43909,50.72419]]}},{"type":"Feature","properties":{"numer":"3246L","klasa":"droga zbiorcza","kat":"powiatowa"},"geometry":{"type":"LineString","coordinates":[[23.36428,50.7427],[23.36454,50.74009],[23.36526,50.73816],[23.36385,50.72314],[23.36256,50.71684]]}},{"type":"Feature","properties":{"numer":"74","klasa":"droga gĹ‚Ăłwna ruchu przyĹ›pieszonego","kat":"krajowa"},"geometry":{"type":"LineString","coordinates":[[23.43909,50.72419],[23.4442,50.725],[23.44613,50.72554],[23.44813,50.72642],[23.45353,50.72937],[23.4546,50.72983],[23.45618,50.73031],[23.45783,50.73063],[23.45922,50.73076],[23.460654057533368,50.73079047372258]]}},{"type":"Feature","properties":{"numer":"3245L","klasa":"droga zbiorcza","kat":"powiatowa"},"geometry":{"type":"LineString","coordinates":[[23.43446,50.74449],[23.43419,50.74301],[23.43421,50.74256],[23.43607,50.73606],[23.43605,50.73549],[23.43568,50.73397],[23.43568,50.73338],[23.43712,50.72874],[23.43782,50.724]]}},{"type":"Feature","properties":{"numer":"74","klasa":"droga gĹ‚Ăłwna ruchu przyĹ›pieszonego","kat":"krajowa"},"geometry":{"type":"LineString","coordinates":[[23.36126,50.71682],[23.34403,50.71651],[23.33994,50.7172],[23.33936,50.71708],[23.33787,50.71647],[23.3373,50.71639],[23.32701749593947,50.7162029662967]]}},{"type":"Feature","properties":{"numer":"3246L","klasa":"droga zbiorcza","kat":"powiatowa"},"geometry":{"type":"LineString","coordinates":[[23.36427,50.74276],[23.36428,50.7427]]}},{"type":"Feature","properties":{"numer":"3286L","klasa":"droga gĹ‚Ăłwna","kat":"powiatowa"},"geometry":{"type":"LineString","coordinates":[[23.43446,50.74449],[23.461575507750954,50.74530118994367]]}},{"type":"Feature","properties":{"numer":"3246L","klasa":"droga zbiorcza","kat":"powiatowa"},"geometry":{"type":"LineString","coordinates":[[23.36352,50.74962],[23.36427,50.74276]]}},{"type":"Feature","properties":{"numer":"3286L","klasa":"droga gĹ‚Ăłwna","kat":"powiatowa"},"geometry":{"type":"LineString","coordinates":[[23.37018,50.75025],[23.38805,50.75189],[23.38983,50.75197],[23.39071,50.75167],[23.39498,50.74945],[23.39605,50.7491],[23.43343,50.74457],[23.43446,50.74449]]}},{"type":"Feature","properties":{"numer":"3286L","klasa":"droga gĹ‚Ăłwna","kat":"powiatowa"},"geometry":{"type":"LineString","coordinates":[[23.36352,50.74962],[23.37018,50.75025]]}},{"type":"Feature","properties":{"numer":"3241L","klasa":"","kat":"powiatowa"},"geometry":{"type":"LineString","coordinates":[[23.37018,50.75025],[23.37329,50.76282]]}},{"type":"Feature","properties":{"numer":"3241L","klasa":"","kat":"powiatowa"},"geometry":{"type":"LineString","coordinates":[[23.37329,50.76282],[23.38953,50.76113],[23.3951,50.76116],[23.39716,50.7613],[23.39955,50.76167],[23.40231,50.76223],[23.40275,50.76263],[23.40297,50.7632],[23.40434,50.77411],[23.40417,50.77563],[23.40422,50.77637],[23.40503,50.78033],[23.40513,50.78191],[23.40535,50.78199],[23.42611,50.78144]]}},{"type":"Feature","properties":{"numer":"3241L","klasa":"droga zbiorcza","kat":"powiatowa"},"geometry":{"type":"LineString","coordinates":[[23.42611,50.78144],[23.42677,50.77738]]}},{"type":"Feature","properties":{"numer":"3240L","klasa":"droga zbiorcza","kat":"powiatowa"},"geometry":{"type":"LineString","coordinates":[[23.42677,50.77738],[23.43672,50.7771],[23.43733,50.77704],[23.43734790646853,50.77703650786713]]}},{"type":"Feature","properties":{"numer":"3241L","klasa":"","kat":"powiatowa"},"geometry":{"type":"LineString","coordinates":[[23.42611,50.78144],[23.42797,50.78688],[23.42799,50.78828],[23.42768,50.79006],[23.42671,50.79183],[23.42675,50.79235],[23.42726,50.79393],[23.42716,50.79478],[23.42697,50.79512],[23.42653,50.79544],[23.42456,50.79612],[23.42404,50.7964],[23.42317,50.79745],[23.42143,50.79867],[23.42101,50.79932]]}},{"type":"Feature","properties":{"numer":"3286L","klasa":"droga gĹ‚Ăłwna","kat":"powiatowa"},"geometry":{"type":"LineString","coordinates":[[23.30667,50.76511],[23.30918,50.76325],[23.30969,50.763],[23.34633,50.75157],[23.35285,50.75025],[23.35543,50.74992],[23.36071,50.7494],[23.36352,50.74962]]}},{"type":"Feature","properties":{"numer":"3286L","klasa":"droga gĹ‚Ăłwna","kat":"powiatowa"},"geometry":{"type":"LineString","coordinates":[[23.305790874747352,50.76513110564408],[23.30609,50.76515],[23.30667,50.76511]]}},{"type":"Feature","properties":{"numer":"3244L","klasa":"droga zbiorcza","kat":"powiatowa"},"geometry":{"type":"LineString","coordinates":[[23.37329,50.76282],[23.35686,50.76454],[23.35591,50.76469],[23.35536,50.76496],[23.35503,50.76539],[23.35435,50.76847],[23.34133,50.77025],[23.33798,50.77052],[23.32453,50.77226],[23.32256,50.77236],[23.31336,50.77334],[23.31316,50.77329],[23.31304,50.77314],[23.31162,50.76792],[23.31075,50.7656],[23.31034,50.76544],[23.30861,50.76539],[23.30667,50.76511]]}},{"type":"Feature","properties":{"numer":"3241L","klasa":"","kat":"powiatowa"},"geometry":{"type":"LineString","coordinates":[[23.42101,50.79932],[23.42066,50.8014],[23.4209,50.80368]]}},{"type":"Feature","properties":{"numer":"3243L","klasa":"droga zbiorcza","kat":"powiatowa"},"geometry":{"type":"LineString","coordinates":[[23.411970615570308,50.80443101388051],[23.41293,50.80423],[23.4139,50.80377],[23.41462,50.80353],[23.41512,50.80316],[23.41536,50.80258],[23.41512,50.80195],[23.415109058075704,50.80188122219012]]}},{"type":"Feature","properties":{"numer":"3243L","klasa":"droga zbiorcza","kat":"powiatowa"},"geometry":{"type":"LineString","coordinates":[[23.414841157129885,50.80019727338783],[23.41484,50.80019],[23.41491,50.79998],[23.41522,50.79966],[23.41616,50.7994],[23.41725,50.79948],[23.42101,50.79932]]}},{"type":"Feature","properties":{"numer":"3241L","klasa":"","kat":"powiatowa"},"geometry":{"type":"LineString","coordinates":[[23.4209,50.80368],[23.42089600559014,50.803692482530806]]}}]}