{"type":"FeatureCollection","features":[{"type":"Feature","properties":{"numer":"3204L","klasa":"droga zbiorcza","kat":"powiatowa"},"geometry":{"type":"LineString","coordinates":[[22.99073,50.78019],[22.989138165611216,50.77825134135891]]}},{"type":"Feature","properties":{"numer":"3205L","klasa":"droga gĹ‚Ăłwna","kat":"powiatowa"},"geometry":{"type":"LineString","coordinates":[[23.023078948299545,50.77562048464815],[23.02343,50.776],[23.02659,50.77881],[23.02798,50.7795],[23.02963,50.78013],[23.03144,50.78128],[23.03637,50.78242],[23.03837,50.78366],[23.03879,50.78405],[23.03927,50.78577],[23.03929,50.78881],[23.04163,50.79389],[23.04207,50.79444],[23.04345,50.79559],[23.0449,50.79627],[23.04511,50.79658],[23.04519,50.7979],[23.0432,50.80381],[23.04321,50.80403]]}},{"type":"Feature","properties":{"numer":"3204L","klasa":"droga zbiorcza","kat":"powiatowa"},"geometry":{"type":"LineString","coordinates":[[22.99084,50.78031],[22.99073,50.78019]]}},{"type":"Feature","properties":{"numer":"3204L","klasa":"droga zbiorcza","kat":"powiatowa"},"geometry":{"type":"LineString","coordinates":[[23.02268,50.80266],[23.00956,50.79036],[23.00917,50.79014],[23.00877,50.79007],[23.00278,50.7899],[23.00252,50.78979],[23.00226,50.78717],[22.99548,50.78451],[22.99463,50.78411],[22.99173,50.78187],[22.99149,50.78152],[22.99121,50.78076],[22.99084,50.78031]]}},{"type":"Feature","properties":{"numer":"3203L","klasa":"droga zbiorcza","kat":"powiatowa"},"geometry":{"type":"LineString","coordinates":[[22.95615,50.80412],[22.9541,50.79966],[22.95357,50.79888],[22.95282,50.79786],[22.9517,50.79742],[22.95149,50.79725],[22.951507494841337,50.79719051753946]]}},{"type":"Feature","properties":{"numer":"837","klasa":"droga zbiorcza","kat":"wojewodzka"},"geometry":{"type":"LineString","coordinates":[[23.09497,50.80106],[23.09053,50.80022],[23.08639,50.79898],[23.08533,50.79889],[23.0455,50.80377]]}},{"type":"Feature","properties":{"numer":"3204L","klasa":"droga zbiorcza","kat":"powiatowa"},"geometry":{"type":"LineString","coordinates":[[23.0455,50.80377],[23.04321,50.80403]]}},{"type":"Feature","properties":{"numer":"3203L","klasa":"droga zbiorcza","kat":"powiatowa"},"geometry":{"type":"LineString","coordinates":[[23.02268,50.80266],[23.0088,50.8041],[23.00081,50.80526]]}},{"type":"Feature","properties":{"numer":"3204L","klasa":"droga zbiorcza","kat":"powiatowa"},"geometry":{"type":"LineString","coordinates":[[23.03673,50.80487],[23.03244,50.80513],[23.02797,50.80576],[23.02661,50.80614],[23.02619,50.80594],[23.02268,50.80266]]}},{"type":"Feature","properties":{"numer":"3204L","klasa":"droga zbiorcza","kat":"powiatowa"},"geometry":{"type":"LineString","coordinates":[[23.04321,50.80403],[23.03977,50.80467],[23.03694,50.80486]]}},{"type":"Feature","properties":{"numer":"3204L","klasa":"droga zbiorcza","kat":"powiatowa"},"geometry":{"type":"LineString","coordinates":[[23.03673,50.80487],[23.03694,50.80486]]}},{"type":"Feature","properties":{"numer":"3203L","klasa":"droga zbiorcza","kat":"powiatowa"},"geometry":{"type":"LineString","coordinates":[[23.00074,50.80529],[23.00081,50.80526]]}},{"type":"Feature","properties":{"numer":"837","klasa":"droga zbiorcza","kat":"wojewodzka"},"geometry":{"type":"LineString","coordinates":[[23.0455,50.80377],[23.04453,50.80413],[23.04394,50.8046],[23.04107,50.80864]]}},{"type":"Feature","properties":{"numer":"3203L","klasa":"droga zbiorcza","kat":"powiatowa"},"geometry":{"type":"LineString","coordinates":[[23.00074,50.80529],[22.99949,50.80594],[22.99903,50.80607],[22.99512,50.80654],[22.9903,50.80668],[22.98674,50.80692],[22.98584,50.80719],[22.98181,50.80886],[22.98068,50.80904],[22.97128,50.81017],[22.96745,50.81163],[22.96507,50.81226],[22.96083,50.80335],[22.96067,50.80329],[22.96029,50.80335],[22.95615,50.80412]]}},{"type":"Feature","properties":{"numer":"837","klasa":"droga zbiorcza","kat":"wojewodzka"},"geometry":{"type":"LineString","coordinates":[[23.0408,50.80902],[23.04107,50.80864]]}},{"type":"Feature","properties":{"numer":"837","klasa":"droga zbiorcza","kat":"wojewodzka"},"geometry":{"type":"LineString","coordinates":[[23.0408,50.80902],[23.03581,50.81613]]}},{"type":"Feature","properties":{"numer":"3144L","klasa":"droga zbiorcza","kat":"powiatowa"},"geometry":{"type":"LineString","coordinates":[[23.08051,50.81805],[23.07994,50.81767],[23.0799,50.81749],[23.08001,50.81704],[23.08048,50.81665],[23.08045,50.81633],[23.0807,50.81598]]}},{"type":"Feature","properties":{"numer":"3144L","klasa":"droga zbiorcza","kat":"powiatowa"},"geometry":{"type":"LineString","coordinates":[[23.08051,50.81805],[23.08063,50.81812]]}},{"type":"Feature","properties":{"numer":"837","klasa":"droga zbiorcza","kat":"wojewodzka"},"geometry":{"type":"LineString","coordinates":[[23.03581,50.81613],[23.03472,50.81767],[23.03427,50.81807],[23.02363,50.82432]]}},{"type":"Feature","properties":{"numer":"3142L","klasa":"droga zbiorcza","kat":"powiatowa"},"geometry":{"type":"LineString","coordinates":[[23.07454,50.83776],[23.07435,50.8372],[23.07387,50.83666],[23.07155,50.83555],[23.06892,50.83381],[23.03581,50.81613]]}},{"type":"Feature","properties":{"numer":"837","klasa":"droga zbiorcza","kat":"wojewodzka"},"geometry":{"type":"LineString","coordinates":[[23.02363,50.82432],[23.0168,50.82835],[23.01497,50.82925],[23.0121,50.83005],[23.01152,50.83027],[23.00642,50.83329],[23.001062734288862,50.83617538839331]]}},{"type":"Feature","properties":{"numer":"3107L","klasa":"droga zbiorcza","kat":"powiatowa"},"geometry":{"type":"LineString","coordinates":[[23.02363,50.82432],[23.0221,50.83014],[23.02221,50.8359],[23.02244,50.83792],[23.02285,50.83898],[23.02374,50.84007],[23.02365,50.84058],[23.02338,50.84093],[23.02092,50.84274],[23.019,50.84375],[23.01744,50.84436],[23.01588,50.84512],[23.01471,50.84587],[23.01421,50.84653],[23.012421331490184,50.8502067074924]]}},{"type":"Feature","properties":{"numer":"3142L","klasa":"droga zbiorcza","kat":"powiatowa"},"geometry":{"type":"LineString","coordinates":[[23.07454,50.83776],[23.07457,50.83787]]}},{"type":"Feature","properties":{"numer":"3216L","klasa":"droga zbiorcza","kat":"powiatowa"},"geometry":{"type":"LineString","coordinates":[[23.1146,50.78021],[23.11422,50.77998],[23.11366,50.77947],[23.11311,50.77802],[23.11162,50.7767],[23.1106,50.77313],[23.11044,50.77193],[23.10994,50.77096],[23.10864,50.76909],[23.10845,50.7689],[23.10809,50.76878],[23.10649,50.76854],[23.10099,50.76829],[23.10071,50.76818],[23.09352876096051,50.75627111192618]]}},{"type":"Feature","properties":{"numer":"3145L","klasa":"","kat":"powiatowa"},"geometry":{"type":"LineString","coordinates":[[23.15613163533312,50.78197578525255],[23.15618,50.78205]]}},{"type":"Feature","properties":{"numer":"837","klasa":"droga zbiorcza","kat":"wojewodzka"},"geometry":{"type":"LineString","coordinates":[[23.14125976826224,50.77434058957627],[23.13576,50.77489],[23.13492,50.77502],[23.12667,50.77708],[23.11633,50.77927],[23.11542,50.77971],[23.11498,50.78028]]}},{"type":"Feature","properties":{"numer":"3216L","klasa":"droga zbiorcza","kat":"powiatowa"},"geometry":{"type":"LineString","coordinates":[[23.11498,50.78028],[23.1146,50.78021]]}},{"type":"Feature","properties":{"numer":"837","klasa":"droga zbiorcza","kat":"wojewodzka"},"geometry":{"type":"LineString","coordinates":[[23.11498,50.78028],[23.11488,50.7807],[23.11494,50.78105],[23.11663,50.78535],[23.11694,50.78694],[23.11668,50.78756],[23.11239,50.79037],[23.1056,50.7961],[23.09844,50.79979]]}},{"type":"Feature","properties":{"numer":"837","klasa":"droga zbiorcza","kat":"wojewodzka"},"geometry":{"type":"LineString","coordinates":[[23.09844,50.79979],[23.09608,50.80099],[23.09554,50.8011],[23.09497,50.80106]]}},{"type":"Feature","properties":{"numer":"3220L","klasa":"droga gĹ‚Ăłwna","kat":"powiatowa"},"geometry":{"type":"LineString","coordinates":[[23.09844,50.79979],[23.09937,50.8011],[23.10028,50.80166],[23.10093,50.80185],[23.102,50.80185],[23.10441,50.80223]]}},{"type":"Feature","properties":{"numer":"3220L","klasa":"droga gĹ‚Ăłwna","kat":"powiatowa"},"geometry":{"type":"LineString","coordinates":[[23.10474,50.80229],[23.10441,50.80223]]}},{"type":"Feature","properties":{"numer":"3220L","klasa":"droga gĹ‚Ăłwna","kat":"powiatowa"},"geometry":{"type":"LineString","coordinates":[[23.10474,50.80229],[23.10605,50.80258],[23.10832,50.80287],[23.12522,50.80325],[23.12576,50.80337],[23.12608,50.80357],[23.12645,50.80454]]}},{"type":"Feature","properties":{"numer":"3220L","klasa":"droga gĹ‚Ăłwna","kat":"powiatowa"},"geometry":{"type":"LineString","coordinates":[[23.12645,50.80454],[23.12648,50.80466]]}},{"type":"Feature","properties":{"numer":"3144L","klasa":"droga zbiorcza","kat":"powiatowa"},"geometry":{"type":"LineString","coordinates":[[23.0807,50.81598],[23.08242,50.8146],[23.08514,50.81287],[23.08735,50.81098],[23.09061,50.80934],[23.0922,50.80776],[23.09271,50.80695],[23.09309,50.80488],[23.09497,50.80106]]}},{"type":"Feature","properties":{"numer":"3145L","klasa":"droga zbiorcza","kat":"powiatowa"},"geometry":{"type":"LineString","coordinates":[[23.15618,50.78205],[23.15877,50.78367],[23.15855,50.79172]]}},{"type":"Feature","properties":{"numer":"3145L","klasa":"droga zbiorcza","kat":"powiatowa"},"geometry":{"type":"LineString","coordinates":[[23.15855,50.79172],[23.158460924908127,50.796776724446325]]}},{"type":"Feature","properties":{"numer":"3101L","klasa":"","kat":"powiatowa"},"geometry":{"type":"LineString","coordinates":[[22.936929962015697,50.80778763231198],[22.93741,50.80762],[22.93854,50.80739],[22.95615,50.80412]]}},{"type":"Feature","properties":{"numer":"3220L","klasa":"droga gĹ‚Ăłwna","kat":"powiatowa"},"geometry":{"type":"LineString","coordinates":[[23.12648,50.80466],[23.12699,50.80609],[23.1273,50.80635],[23.12798,50.80659],[23.128070264900604,50.8066111258278]]}},{"type":"Feature","properties":{"numer":"3220L","klasa":"droga gĹ‚Ăłwna","kat":"powiatowa"},"geometry":{"type":"LineString","coordinates":[[23.12952801546642,50.80689127984534],[23.13053099048482,50.807025358103004]]}},{"type":"Feature","properties":{"numer":"3221L","klasa":"","kat":"powiatowa"},"geometry":{"type":"LineString","coordinates":[[23.11583,50.82887],[23.11584,50.82879],[23.12078,50.82686],[23.12153249097473,50.826532490974735]]}},{"type":"Feature","properties":{"numer":"3144L","klasa":"droga zbiorcza","kat":"powiatowa"},"geometry":{"type":"LineString","coordinates":[[23.0964,50.8411],[23.09573,50.83818],[23.09566,50.83715],[23.09583,50.83653],[23.09578,50.83633],[23.08895,50.82908],[23.08625,50.82599],[23.08602,50.82566],[23.08457,50.82197],[23.08288,50.81817],[23.08261,50.81799],[23.08217,50.81791],[23.08192,50.81797],[23.08154,50.81827],[23.08137,50.81831],[23.08113,50.81832],[23.08063,50.81812]]}},{"type":"Feature","properties":{"numer":"3221L","klasa":"","kat":"powiatowa"},"geometry":{"type":"LineString","coordinates":[[23.11583,50.82887],[23.1158,50.82906],[23.11879,50.83219],[23.11786,50.8328],[23.11193,50.83647],[23.10886,50.83778],[23.10809,50.83822],[23.09917,50.84047],[23.0964,50.8411]]}},{"type":"Feature","properties":{"numer":"3144L","klasa":"droga zbiorcza","kat":"powiatowa"},"geometry":{"type":"LineString","coordinates":[[23.09696,50.84346],[23.0964,50.8411]]}},{"type":"Feature","properties":{"numer":"3144L","klasa":"droga zbiorcza","kat":"powiatowa"},"geometry":{"type":"LineString","coordinates":[[23.097427625343634,50.84539019822692],[23.09696,50.84346]]}},{"type":"Feature","properties":{"numer":"3142L","klasa":"droga zbiorcza","kat":"powiatowa"},"geometry":{"type":"LineString","coordinates":[[23.078698432428915,50.85222625931915],[23.07846,50.85144],[23.07876,50.84929],[23.0784,50.848],[23.07839,50.84746],[23.07928,50.8463],[23.0799,50.84522],[23.08002,50.84479],[23.07994,50.8444],[23.07925,50.84266],[23.07869,50.84177],[23.0783,50.84148],[23.07609,50.84027],[23.07544,50.83902],[23.07472,50.83828],[23.07457,50.83787]]}}]}