{"type":"FeatureCollection","features":[{"type":"Feature","properties":{"numer":"844","klasa":"droga gĹ‚Ăłwna","kat":"wojewodzka"},"geometry":{"type":"LineString","coordinates":[[23.53024,51.11059],[23.53025980978886,51.11058165794246]]}},{"type":"Feature","properties":{"numer":"1839L","klasa":"droga zbiorcza","kat":"powiatowa"},"geometry":{"type":"LineString","coordinates":[[23.522138684876662,51.11386324689199],[23.52216,51.11398]]}},{"type":"Feature","properties":{"numer":"1925L","klasa":"","kat":"powiatowa"},"geometry":{"type":"LineString","coordinates":[[23.48522,51.11633],[23.48663,51.11147],[23.48749,51.10888],[23.4881,51.10654],[23.488746063651586,51.104914639866]]}},{"type":"Feature","properties":{"numer":"104955L","klasa":"droga lokalna","kat":"powiatowa"},"geometry":{"type":"LineString","coordinates":[[23.53024,51.11062],[23.53024,51.11059]]}},{"type":"Feature","properties":{"numer":"844","klasa":"droga gĹ‚Ăłwna","kat":"wojewodzka"},"geometry":{"type":"LineString","coordinates":[[23.52216,51.11398],[23.53024,51.11059]]}},{"type":"Feature","properties":{"numer":"104955L","klasa":"droga lokalna","kat":"powiatowa"},"geometry":{"type":"LineString","coordinates":[[23.530322637109542,51.11096749964012],[23.53024,51.11062]]}},{"type":"Feature","properties":{"numer":"104666L","klasa":"droga lokalna","kat":"powiatowa"},"geometry":{"type":"LineString","coordinates":[[23.483360131608805,51.11339132894638],[23.4828,51.11341]]}},{"type":"Feature","properties":{"numer":"104666L","klasa":"droga lokalna","kat":"powiatowa"},"geometry":{"type":"LineString","coordinates":[[23.4828,51.11341],[23.4817,51.11346]]}},{"type":"Feature","properties":{"numer":"104666L","klasa":"droga lokalna","kat":"powiatowa"},"geometry":{"type":"LineString","coordinates":[[23.4817,51.11346],[23.481687733333207,51.11346046666667]]}},{"type":"Feature","properties":{"numer":"104865L","klasa":"droga lokalna","kat":"powiatowa"},"geometry":{"type":"LineString","coordinates":[[23.47464619047617,51.11388605442177],[23.47457,51.11391]]}},{"type":"Feature","properties":{"numer":"104865L","klasa":"droga lokalna","kat":"powiatowa"},"geometry":{"type":"LineString","coordinates":[[23.47457,51.11391],[23.47394,51.11413]]}},{"type":"Feature","properties":{"numer":"112709L","klasa":"droga lokalna","kat":"powiatowa"},"geometry":{"type":"LineString","coordinates":[[23.456774218629736,51.114359697844485],[23.45644,51.11454]]}},{"type":"Feature","properties":{"numer":"104865L","klasa":"droga lokalna","kat":"powiatowa"},"geometry":{"type":"LineString","coordinates":[[23.47394,51.11413],[23.47267,51.11448]]}},{"type":"Feature","properties":{"numer":"105060L","klasa":"droga lokalna","kat":"powiatowa"},"geometry":{"type":"LineString","coordinates":[[23.48423,51.11641],[23.483916991321117,51.11511324975891]]}},{"type":"Feature","properties":{"numer":"105060L","klasa":"droga lokalna","kat":"powiatowa"},"geometry":{"type":"LineString","coordinates":[[23.48424,51.11646],[23.48423,51.11641]]}},{"type":"Feature","properties":{"numer":"105060L","klasa":"droga lokalna","kat":"powiatowa"},"geometry":{"type":"LineString","coordinates":[[23.48457,51.11772],[23.48424,51.11646]]}},{"type":"Feature","properties":{"numer":"1925L","klasa":"","kat":"powiatowa"},"geometry":{"type":"LineString","coordinates":[[23.48522,51.11633],[23.48472,51.11795]]}},{"type":"Feature","properties":{"numer":"112709L","klasa":"droga lokalna","kat":"powiatowa"},"geometry":{"type":"LineString","coordinates":[[23.45644,51.11454],[23.45636,51.11456]]}},{"type":"Feature","properties":{"numer":"112709L","klasa":"droga lokalna","kat":"powiatowa"},"geometry":{"type":"LineString","coordinates":[[23.45636,51.11456],[23.45632,51.11457]]}},{"type":"Feature","properties":{"numer":"112709L","klasa":"droga lokalna","kat":"powiatowa"},"geometry":{"type":"LineString","coordinates":[[23.45632,51.11457],[23.45628,51.11459]]}},{"type":"Feature","properties":{"numer":"104865L","klasa":"droga lokalna","kat":"powiatowa"},"geometry":{"type":"LineString","coordinates":[[23.47267,51.11448],[23.47137,51.11498],[23.47013,51.11569]]}},{"type":"Feature","properties":{"numer":"104865L","klasa":"droga lokalna","kat":"powiatowa"},"geometry":{"type":"LineString","coordinates":[[23.47013,51.11569],[23.47007,51.11572]]}},{"type":"Feature","properties":{"numer":"1832L","klasa":"droga zbiorcza","kat":"powiatowa"},"geometry":{"type":"LineString","coordinates":[[23.44914,51.11794],[23.45253,51.11604],[23.45387179911437,51.1154744907947]]}},{"type":"Feature","properties":{"numer":"1832L","klasa":"droga zbiorcza","kat":"powiatowa"},"geometry":{"type":"LineString","coordinates":[[23.455754821520948,51.11475123900672],[23.45628,51.11459]]}},{"type":"Feature","properties":{"numer":"104865L","klasa":"droga lokalna","kat":"powiatowa"},"geometry":{"type":"LineString","coordinates":[[23.47007,51.11572],[23.46887,51.11642],[23.46852,51.11687]]}},{"type":"Feature","properties":{"numer":"843","klasa":"droga zbiorcza","kat":"wojewodzka"},"geometry":{"type":"LineString","coordinates":[[23.46641,51.12041],[23.46592,51.11981],[23.46407,51.11861],[23.46197,51.11687],[23.46192188773389,51.116808382536384]]}},{"type":"Feature","properties":{"numer":"104865L","klasa":"droga lokalna","kat":"powiatowa"},"geometry":{"type":"LineString","coordinates":[[23.46852,51.11687],[23.46822,51.11733]]}},{"type":"Feature","properties":{"numer":"104865L","klasa":"droga lokalna","kat":"powiatowa"},"geometry":{"type":"LineString","coordinates":[[23.46822,51.11733],[23.46816,51.11743]]}},{"type":"Feature","properties":{"numer":"104865L","klasa":"droga lokalna","kat":"powiatowa"},"geometry":{"type":"LineString","coordinates":[[23.46816,51.11743],[23.46778,51.11801]]}},{"type":"Feature","properties":{"numer":"104865L","klasa":"droga lokalna","kat":"powiatowa"},"geometry":{"type":"LineString","coordinates":[[23.46778,51.11801],[23.46762,51.11825]]}},{"type":"Feature","properties":{"numer":"1832L","klasa":"droga zbiorcza","kat":"powiatowa"},"geometry":{"type":"LineString","coordinates":[[23.44789110294115,51.118598333333345],[23.44914,51.11794]]}},{"type":"Feature","properties":{"numer":"104865L","klasa":"droga lokalna","kat":"powiatowa"},"geometry":{"type":"LineString","coordinates":[[23.46762,51.11825],[23.46742,51.11864]]}},{"type":"Feature","properties":{"numer":"104865L","klasa":"droga lokalna","kat":"powiatowa"},"geometry":{"type":"LineString","coordinates":[[23.46742,51.11864],[23.46743,51.11925]]}},{"type":"Feature","properties":{"numer":"104865L","klasa":"droga lokalna","kat":"powiatowa"},"geometry":{"type":"LineString","coordinates":[[23.46743,51.11925],[23.4671,51.11995]]}},{"type":"Feature","properties":{"numer":"104865L","klasa":"droga lokalna","kat":"powiatowa"},"geometry":{"type":"LineString","coordinates":[[23.4671,51.11995],[23.46696,51.12009]]}},{"type":"Feature","properties":{"numer":"105060L","klasa":"droga lokalna","kat":"powiatowa"},"geometry":{"type":"LineString","coordinates":[[23.48462,51.11784],[23.48457,51.11772]]}},{"type":"Feature","properties":{"numer":"105060L","klasa":"droga lokalna","kat":"powiatowa"},"geometry":{"type":"LineString","coordinates":[[23.48472,51.11795],[23.48462,51.11784]]}},{"type":"Feature","properties":{"numer":"1925L","klasa":"","kat":"powiatowa"},"geometry":{"type":"LineString","coordinates":[[23.48472,51.11795],[23.48423,51.1195]]}},{"type":"Feature","properties":{"numer":"844","klasa":"droga gĹ‚Ăłwna","kat":"wojewodzka"},"geometry":{"type":"LineString","coordinates":[[23.49674,51.12455],[23.49902,51.12372],[23.52216,51.11398]]}},{"type":"Feature","properties":{"numer":"1925L","klasa":"","kat":"powiatowa"},"geometry":{"type":"LineString","coordinates":[[23.48399,51.12027],[23.48423,51.1195]]}},{"type":"Feature","properties":{"numer":"1898L","klasa":"","kat":"powiatowa"},"geometry":{"type":"LineString","coordinates":[[23.48423,51.1195],[23.48458,51.11965],[23.48525,51.12027],[23.48527,51.12045]]}},{"type":"Feature","properties":{"numer":"1933L","klasa":"droga gĹ‚Ăłwna","kat":"powiatowa"},"geometry":{"type":"LineString","coordinates":[[23.48399,51.12027],[23.48128,51.12003],[23.47574,51.11982]]}},{"type":"Feature","properties":{"numer":"1898L","klasa":"","kat":"powiatowa"},"geometry":{"type":"LineString","coordinates":[[23.48527,51.12045],[23.48399,51.12027]]}},{"type":"Feature","properties":{"numer":"1925L","klasa":"droga zbiorcza","kat":"powiatowa"},"geometry":{"type":"LineString","coordinates":[[23.48399,51.12027],[23.48349,51.12194]]}},{"type":"Feature","properties":{"numer":"104865L","klasa":"droga lokalna","kat":"powiatowa"},"geometry":{"type":"LineString","coordinates":[[23.46696,51.12009],[23.46682,51.1202]]}},{"type":"Feature","properties":{"numer":"104865L","klasa":"droga lokalna","kat":"powiatowa"},"geometry":{"type":"LineString","coordinates":[[23.46682,51.1202],[23.46641,51.12041]]}},{"type":"Feature","properties":{"numer":"1933L","klasa":"droga gĹ‚Ăłwna","kat":"powiatowa"},"geometry":{"type":"LineString","coordinates":[[23.47574,51.11982],[23.47406,51.1199],[23.47289,51.12007],[23.46921,51.12103],[23.46707,51.1215]]}},{"type":"Feature","properties":{"numer":"843","klasa":"droga zbiorcza","kat":"wojewodzka"},"geometry":{"type":"LineString","coordinates":[[23.46707,51.1215],[23.46641,51.12041]]}},{"type":"Feature","properties":{"numer":"1932L","klasa":"droga gĹ‚Ăłwna","kat":"powiatowa"},"geometry":{"type":"LineString","coordinates":[[23.45995,51.12324],[23.46707,51.1215]]}},{"type":"Feature","properties":{"numer":"104872L","klasa":"droga lokalna","kat":"powiatowa"},"geometry":{"type":"LineString","coordinates":[[23.48233,51.12183],[23.48153,51.12174]]}},{"type":"Feature","properties":{"numer":"104872L","klasa":"droga lokalna","kat":"powiatowa"},"geometry":{"type":"LineString","coordinates":[[23.48349,51.12194],[23.48233,51.12183]]}},{"type":"Feature","properties":{"numer":"104809L","klasa":"droga lokalna","kat":"powiatowa"},"geometry":{"type":"LineString","coordinates":[[23.48153,51.12174],[23.48123,51.1226]]}},{"type":"Feature","properties":{"numer":"104809L","klasa":"droga lokalna","kat":"powiatowa"},"geometry":{"type":"LineString","coordinates":[[23.48123,51.1226],[23.48049,51.12261],[23.47858,51.1229]]}},{"type":"Feature","properties":{"numer":"104809L","klasa":"droga lokalna","kat":"powiatowa"},"geometry":{"type":"LineString","coordinates":[[23.47858,51.1229],[23.47693,51.1229]]}},{"type":"Feature","properties":{"numer":"104809L","klasa":"droga lokalna","kat":"powiatowa"},"geometry":{"type":"LineString","coordinates":[[23.47693,51.1229],[23.47589,51.1229]]}},{"type":"Feature","properties":{"numer":"104809L","klasa":"droga lokalna","kat":"powiatowa"},"geometry":{"type":"LineString","coordinates":[[23.47589,51.1229],[23.47415,51.12291]]}},{"type":"Feature","properties":{"numer":"104809L","klasa":"droga lokalna","kat":"powiatowa"},"geometry":{"type":"LineString","coordinates":[[23.47415,51.12291],[23.47349,51.123]]}},{"type":"Feature","properties":{"numer":"843","klasa":"droga zbiorcza","kat":"wojewodzka"},"geometry":{"type":"LineString","coordinates":[[23.46707,51.1215],[23.46854,51.12499]]}},{"type":"Feature","properties":{"numer":"1932L","klasa":"droga gĹ‚Ăłwna","kat":"powiatowa"},"geometry":{"type":"LineString","coordinates":[[23.46025,51.12369],[23.45995,51.12324]]}},{"type":"Feature","properties":{"numer":"1832L","klasa":"droga zbiorcza","kat":"powiatowa"},"geometry":{"type":"LineString","coordinates":[[23.44577,51.12845],[23.44324,51.1257],[23.44319,51.12536],[23.44354,51.12365],[23.44426,51.12065],[23.44776621184925,51.11866737881505]]}},{"type":"Feature","properties":{"numer":"104729L","klasa":"droga lokalna","kat":"powiatowa"},"geometry":{"type":"LineString","coordinates":[[23.46025,51.12369],[23.46003,51.12399]]}},{"type":"Feature","properties":{"numer":"104729L","klasa":"droga lokalna","kat":"powiatowa"},"geometry":{"type":"LineString","coordinates":[[23.46003,51.12399],[23.45967,51.12447]]}},{"type":"Feature","properties":{"numer":"104809L","klasa":"droga lokalna","kat":"powiatowa"},"geometry":{"type":"LineString","coordinates":[[23.47349,51.123],[23.4734,51.12368]]}},{"type":"Feature","properties":{"numer":"1898L","klasa":"","kat":"powiatowa"},"geometry":{"type":"LineString","coordinates":[[23.48527,51.12045],[23.48672,51.12302],[23.48788,51.12472],[23.48987,51.12698]]}},{"type":"Feature","properties":{"numer":"104809L","klasa":"droga lokalna","kat":"powiatowa"},"geometry":{"type":"LineString","coordinates":[[23.4734,51.12368],[23.47331,51.12385]]}},{"type":"Feature","properties":{"numer":"1925L","klasa":"droga zbiorcza","kat":"powiatowa"},"geometry":{"type":"LineString","coordinates":[[23.48349,51.12194],[23.4824,51.1262]]}},{"type":"Feature","properties":{"numer":"104809L","klasa":"droga lokalna","kat":"powiatowa"},"geometry":{"type":"LineString","coordinates":[[23.47331,51.12385],[23.47329,51.12462]]}},{"type":"Feature","properties":{"numer":"104773L","klasa":"droga lokalna","kat":"powiatowa"},"geometry":{"type":"LineString","coordinates":[[23.47209,51.12469],[23.47329,51.12462]]}},{"type":"Feature","properties":{"numer":"104729L","klasa":"droga lokalna","kat":"powiatowa"},"geometry":{"type":"LineString","coordinates":[[23.45967,51.12447],[23.45933,51.12494]]}},{"type":"Feature","properties":{"numer":"104773L","klasa":"droga lokalna","kat":"powiatowa"},"geometry":{"type":"LineString","coordinates":[[23.47169,51.12472],[23.47209,51.12469]]}},{"type":"Feature","properties":{"numer":"104773L","klasa":"droga lokalna","kat":"powiatowa"},"geometry":{"type":"LineString","coordinates":[[23.471,51.12476],[23.47169,51.12472]]}},{"type":"Feature","properties":{"numer":"104773L","klasa":"droga lokalna","kat":"powiatowa"},"geometry":{"type":"LineString","coordinates":[[23.46996,51.12482],[23.471,51.12476]]}},{"type":"Feature","properties":{"numer":"104773L","klasa":"droga lokalna","kat":"powiatowa"},"geometry":{"type":"LineString","coordinates":[[23.46943,51.12487],[23.46996,51.12482]]}},{"type":"Feature","properties":{"numer":"104773L","klasa":"droga lokalna","kat":"powiatowa"},"geometry":{"type":"LineString","coordinates":[[23.46922,51.1249],[23.46943,51.12487]]}},{"type":"Feature","properties":{"numer":"104773L","klasa":"droga lokalna","kat":"powiatowa"},"geometry":{"type":"LineString","coordinates":[[23.46854,51.12499],[23.46922,51.1249]]}},{"type":"Feature","properties":{"numer":"1892L","klasa":"","kat":"powiatowa"},"geometry":{"type":"LineString","coordinates":[[23.49674,51.12455],[23.49699,51.12483]]}},{"type":"Feature","properties":{"numer":"844","klasa":"droga gĹ‚Ăłwna","kat":"wojewodzka"},"geometry":{"type":"LineString","coordinates":[[23.49392,51.12554],[23.49674,51.12455]]}},{"type":"Feature","properties":{"numer":"104809L","klasa":"droga lokalna","kat":"powiatowa"},"geometry":{"type":"LineString","coordinates":[[23.47329,51.12462],[23.47339,51.1253],[23.47362,51.12563]]}},{"type":"Feature","properties":{"numer":"104809L","klasa":"droga lokalna","kat":"powiatowa"},"geometry":{"type":"LineString","coordinates":[[23.47362,51.12563],[23.474,51.1261]]}},{"type":"Feature","properties":{"numer":"104813L","klasa":"droga lokalna","kat":"powiatowa"},"geometry":{"type":"LineString","coordinates":[[23.48188,51.12614],[23.4824,51.1262]]}},{"type":"Feature","properties":{"numer":"104813L","klasa":"droga lokalna","kat":"powiatowa"},"geometry":{"type":"LineString","coordinates":[[23.4802,51.12624],[23.48188,51.12614]]}},{"type":"Feature","properties":{"numer":"104813L","klasa":"droga lokalna","kat":"powiatowa"},"geometry":{"type":"LineString","coordinates":[[23.474,51.1261],[23.47456,51.12641]]}},{"type":"Feature","properties":{"numer":"844","klasa":"droga gĹ‚Ăłwna","kat":"wojewodzka"},"geometry":{"type":"LineString","coordinates":[[23.48987,51.12698],[23.49392,51.12554]]}},{"type":"Feature","properties":{"numer":"104813L","klasa":"droga lokalna","kat":"powiatowa"},"geometry":{"type":"LineString","coordinates":[[23.47887,51.12637],[23.4802,51.12624]]}},{"type":"Feature","properties":{"numer":"843","klasa":"droga zbiorcza","kat":"wojewodzka"},"geometry":{"type":"LineString","coordinates":[[23.46854,51.12499],[23.46873,51.12546]]}},{"type":"Feature","properties":{"numer":"104864L","klasa":"droga lokalna","kat":"powiatowa"},"geometry":{"type":"LineString","coordinates":[[23.46873,51.12546],[23.46811,51.12554]]}},{"type":"Feature","properties":{"numer":"104729L","klasa":"droga lokalna","kat":"powiatowa"},"geometry":{"type":"LineString","coordinates":[[23.45933,51.12494],[23.45919,51.12576],[23.45901,51.12609]]}},{"type":"Feature","properties":{"numer":"104864L","klasa":"droga lokalna","kat":"powiatowa"},"geometry":{"type":"LineString","coordinates":[[23.46811,51.12554],[23.46787,51.12557]]}},{"type":"Feature","properties":{"numer":"104864L","klasa":"droga lokalna","kat":"powiatowa"},"geometry":{"type":"LineString","coordinates":[[23.46787,51.12557],[23.46742,51.12563]]}},{"type":"Feature","properties":{"numer":"104864L","klasa":"droga lokalna","kat":"powiatowa"},"geometry":{"type":"LineString","coordinates":[[23.46742,51.12563],[23.46585,51.1258]]}},{"type":"Feature","properties":{"numer":"104864L","klasa":"droga lokalna","kat":"powiatowa"},"geometry":{"type":"LineString","coordinates":[[23.46585,51.1258],[23.46552,51.12586]]}},{"type":"Feature","properties":{"numer":"104864L","klasa":"droga lokalna","kat":"powiatowa"},"geometry":{"type":"LineString","coordinates":[[23.46552,51.12586],[23.4654,51.12641]]}},{"type":"Feature","properties":{"numer":"104864L","klasa":"droga lokalna","kat":"powiatowa"},"geometry":{"type":"LineString","coordinates":[[23.4654,51.12641],[23.46526,51.12656]]}},{"type":"Feature","properties":{"numer":"","klasa":"droga wewnÄ™trzna","kat":"gminna"},"geometry":{"type":"LineString","coordinates":[[23.4802,51.12624],[23.48027,51.12641]]}},{"type":"Feature","properties":{"numer":"1925L","klasa":"droga zbiorcza","kat":"powiatowa"},"geometry":{"type":"LineString","coordinates":[[23.4824,51.1262],[23.4823,51.12658]]}},{"type":"Feature","properties":{"numer":"104813L","klasa":"droga lokalna","kat":"powiatowa"},"geometry":{"type":"LineString","coordinates":[[23.47765,51.12649],[23.47887,51.12637]]}},{"type":"Feature","properties":{"numer":"104813L","klasa":"droga lokalna","kat":"powiatowa"},"geometry":{"type":"LineString","coordinates":[[23.47456,51.12641],[23.47467,51.1265]]}},{"type":"Feature","properties":{"numer":"104813L","klasa":"droga lokalna","kat":"powiatowa"},"geometry":{"type":"LineString","coordinates":[[23.47676,51.12658],[23.47765,51.12649]]}},{"type":"Feature","properties":{"numer":"","klasa":"droga wewnÄ™trzna","kat":"gminna"},"geometry":{"type":"LineString","coordinates":[[23.48027,51.12641],[23.48048,51.12668]]}},{"type":"Feature","properties":{"numer":"","klasa":"droga wewnÄ™trzna","kat":"gminna"},"geometry":{"type":"LineString","coordinates":[[23.48127,51.12659],[23.4823,51.12658]]}},{"type":"Feature","properties":{"numer":"104813L","klasa":"droga lokalna","kat":"powiatowa"},"geometry":{"type":"LineString","coordinates":[[23.47467,51.1265],[23.47494,51.12669]]}},{"type":"Feature","properties":{"numer":"104813L","klasa":"droga lokalna","kat":"powiatowa"},"geometry":{"type":"LineString","coordinates":[[23.47643,51.12662],[23.47676,51.12658]]}},{"type":"Feature","properties":{"numer":"","klasa":"droga wewnÄ™trzna","kat":"gminna"},"geometry":{"type":"LineString","coordinates":[[23.48048,51.12668],[23.48127,51.12659]]}},{"type":"Feature","properties":{"numer":"104864L","klasa":"droga lokalna","kat":"powiatowa"},"geometry":{"type":"LineString","coordinates":[[23.46526,51.12656],[23.46433,51.12693]]}},{"type":"Feature","properties":{"numer":"104864L","klasa":"droga lokalna","kat":"powiatowa"},"geometry":{"type":"LineString","coordinates":[[23.46433,51.12693],[23.46422,51.12697]]}},{"type":"Feature","properties":{"numer":"104864L","klasa":"droga lokalna","kat":"powiatowa"},"geometry":{"type":"LineString","coordinates":[[23.46422,51.12697],[23.46348,51.12726]]}},{"type":"Feature","properties":{"numer":"104729L","klasa":"droga lokalna","kat":"powiatowa"},"geometry":{"type":"LineString","coordinates":[[23.45901,51.12609],[23.45882,51.12638],[23.45878,51.12667],[23.45924,51.12837]]}},{"type":"Feature","properties":{"numer":"104864L","klasa":"droga lokalna","kat":"powiatowa"},"geometry":{"type":"LineString","coordinates":[[23.46348,51.12726],[23.46329,51.12734]]}},{"type":"Feature","properties":{"numer":"843","klasa":"droga zbiorcza","kat":"wojewodzka"},"geometry":{"type":"LineString","coordinates":[[23.46873,51.12546],[23.46978,51.1281],[23.47041,51.12936]]}},{"type":"Feature","properties":{"numer":"104864L","klasa":"droga lokalna","kat":"powiatowa"},"geometry":{"type":"LineString","coordinates":[[23.46329,51.12734],[23.46283,51.12753]]}},{"type":"Feature","properties":{"numer":"104864L","klasa":"droga lokalna","kat":"powiatowa"},"geometry":{"type":"LineString","coordinates":[[23.46283,51.12753],[23.46279,51.12755]]}},{"type":"Feature","properties":{"numer":"104813L","klasa":"droga lokalna","kat":"powiatowa"},"geometry":{"type":"LineString","coordinates":[[23.47494,51.12669],[23.47523,51.12674],[23.47643,51.12662]]}},{"type":"Feature","properties":{"numer":"1925L","klasa":"droga zbiorcza","kat":"powiatowa"},"geometry":{"type":"LineString","coordinates":[[23.4823,51.12658],[23.48198,51.12781]]}},{"type":"Feature","properties":{"numer":"844","klasa":"droga gĹ‚Ăłwna","kat":"wojewodzka"},"geometry":{"type":"LineString","coordinates":[[23.48465,51.12884],[23.48987,51.12698]]}},{"type":"Feature","properties":{"numer":"1892L","klasa":"","kat":"powiatowa"},"geometry":{"type":"LineString","coordinates":[[23.49699,51.12483],[23.49929,51.1274],[23.49982,51.12832],[23.50007,51.13138]]}},{"type":"Feature","properties":{"numer":"844","klasa":"droga gĹ‚Ăłwna","kat":"wojewodzka"},"geometry":{"type":"LineString","coordinates":[[23.48198,51.12781],[23.48266,51.12791],[23.48361,51.12819],[23.48435,51.12858],[23.48465,51.12884]]}},{"type":"Feature","properties":{"numer":"844","klasa":"droga gĹ‚Ăłwna","kat":"wojewodzka"},"geometry":{"type":"LineString","coordinates":[[23.47041,51.12936],[23.47234,51.12874],[23.47392,51.12841],[23.48059,51.1278],[23.48198,51.12781]]}},{"type":"Feature","properties":{"numer":"1931L","klasa":"","kat":"powiatowa"},"geometry":{"type":"LineString","coordinates":[[23.48435,51.12894],[23.48465,51.12884]]}},{"type":"Feature","properties":{"numer":"104771L","klasa":"droga dojazdowa","kat":"powiatowa"},"geometry":{"type":"LineString","coordinates":[[23.48045,51.12894],[23.4805,51.12908]]}},{"type":"Feature","properties":{"numer":"1931L","klasa":"","kat":"powiatowa"},"geometry":{"type":"LineString","coordinates":[[23.48393,51.12909],[23.48435,51.12894]]}},{"type":"Feature","properties":{"numer":"1931L","klasa":"","kat":"powiatowa"},"geometry":{"type":"LineString","coordinates":[[23.48115,51.13003],[23.48393,51.12909]]}},{"type":"Feature","properties":{"numer":"104864L","klasa":"droga lokalna","kat":"powiatowa"},"geometry":{"type":"LineString","coordinates":[[23.46279,51.12755],[23.46235,51.1278]]}},{"type":"Feature","properties":{"numer":"104864L","klasa":"droga lokalna","kat":"powiatowa"},"geometry":{"type":"LineString","coordinates":[[23.46235,51.1278],[23.46085,51.12821]]}},{"type":"Feature","properties":{"numer":"104761L","klasa":"droga lokalna","kat":"powiatowa"},"geometry":{"type":"LineString","coordinates":[[23.46235,51.1278],[23.4629,51.12837]]}},{"type":"Feature","properties":{"numer":"1902L","klasa":"","kat":"powiatowa"},"geometry":{"type":"LineString","coordinates":[[23.46085,51.12821],[23.45924,51.12837]]}},{"type":"Feature","properties":{"numer":"1902L","klasa":"","kat":"powiatowa"},"geometry":{"type":"LineString","coordinates":[[23.45282,51.12868],[23.44995,51.12832],[23.447,51.12815],[23.44635,51.12824],[23.44577,51.12845]]}},{"type":"Feature","properties":{"numer":"1902L","klasa":"","kat":"powiatowa"},"geometry":{"type":"LineString","coordinates":[[23.45924,51.12837],[23.45668,51.12862]]}},{"type":"Feature","properties":{"numer":"1902L","klasa":"","kat":"powiatowa"},"geometry":{"type":"LineString","coordinates":[[23.45655,51.12863],[23.45668,51.12862]]}},{"type":"Feature","properties":{"numer":"104761L","klasa":"droga lokalna","kat":"powiatowa"},"geometry":{"type":"LineString","coordinates":[[23.4629,51.12837],[23.46343,51.12888]]}},{"type":"Feature","properties":{"numer":"104771L","klasa":"droga dojazdowa","kat":"powiatowa"},"geometry":{"type":"LineString","coordinates":[[23.4805,51.12908],[23.48103,51.13004]]}},{"type":"Feature","properties":{"numer":"104731L","klasa":"droga lokalna","kat":"powiatowa"},"geometry":{"type":"LineString","coordinates":[[23.49041,51.12979],[23.49133,51.12963]]}},{"type":"Feature","properties":{"numer":"104731L","klasa":"droga lokalna","kat":"powiatowa"},"geometry":{"type":"LineString","coordinates":[[23.4903,51.12981],[23.49041,51.12979]]}},{"type":"Feature","properties":{"numer":"104731L","klasa":"droga lokalna","kat":"powiatowa"},"geometry":{"type":"LineString","coordinates":[[23.4899,51.12987],[23.4903,51.12981]]}},{"type":"Feature","properties":{"numer":"104731L","klasa":"droga lokalna","kat":"powiatowa"},"geometry":{"type":"LineString","coordinates":[[23.48947,51.12994],[23.4899,51.12987]]}},{"type":"Feature","properties":{"numer":"1907L","klasa":"","kat":"powiatowa"},"geometry":{"type":"LineString","coordinates":[[23.48098,51.13003],[23.48103,51.13004]]}},{"type":"Feature","properties":{"numer":"1931L","klasa":"","kat":"powiatowa"},"geometry":{"type":"LineString","coordinates":[[23.48106,51.13006],[23.48115,51.13003]]}},{"type":"Feature","properties":{"numer":"104771L","klasa":"droga dojazdowa","kat":"powiatowa"},"geometry":{"type":"LineString","coordinates":[[23.48103,51.13004],[23.48103,51.13006]]}},{"type":"Feature","properties":{"numer":"1907L","klasa":"","kat":"powiatowa"},"geometry":{"type":"LineString","coordinates":[[23.48103,51.13004],[23.48106,51.13006]]}},{"type":"Feature","properties":{"numer":"104681L","klasa":"droga lokalna","kat":"powiatowa"},"geometry":{"type":"LineString","coordinates":[[23.48947,51.12994],[23.48958,51.13023]]}},{"type":"Feature","properties":{"numer":"1902L","klasa":"","kat":"powiatowa"},"geometry":{"type":"LineString","coordinates":[[23.45655,51.12863],[23.45282,51.12868]]}},{"type":"Feature","properties":{"numer":"104761L","klasa":"droga lokalna","kat":"powiatowa"},"geometry":{"type":"LineString","coordinates":[[23.46343,51.12888],[23.46384,51.1291]]}},{"type":"Feature","properties":{"numer":"104761L","klasa":"droga lokalna","kat":"powiatowa"},"geometry":{"type":"LineString","coordinates":[[23.46384,51.1291],[23.46484,51.1295]]}},{"type":"Feature","properties":{"numer":"104761L","klasa":"droga lokalna","kat":"powiatowa"},"geometry":{"type":"LineString","coordinates":[[23.46484,51.1295],[23.46548,51.12976]]}},{"type":"Feature","properties":{"numer":"104761L","klasa":"droga lokalna","kat":"powiatowa"},"geometry":{"type":"LineString","coordinates":[[23.46548,51.12976],[23.46617,51.13005]]}},{"type":"Feature","properties":{"numer":"844","klasa":"droga gĹ‚Ăłwna","kat":"wojewodzka"},"geometry":{"type":"LineString","coordinates":[[23.46693,51.13077],[23.46926,51.12976],[23.47041,51.12936]]}},{"type":"Feature","properties":{"numer":"104761L","klasa":"droga lokalna","kat":"powiatowa"},"geometry":{"type":"LineString","coordinates":[[23.46617,51.13005],[23.46632,51.13013]]}},{"type":"Feature","properties":{"numer":"1902L","klasa":"","kat":"powiatowa"},"geometry":{"type":"LineString","coordinates":[[23.46496,51.13227],[23.46213,51.13139],[23.46135,51.13008],[23.46085,51.12821]]}},{"type":"Feature","properties":{"numer":"1930L","klasa":"droga zbiorcza","kat":"powiatowa"},"geometry":{"type":"LineString","coordinates":[[23.48465,51.12884],[23.4863,51.13071],[23.48686,51.13094],[23.48897,51.13136],[23.48966,51.13169]]}},{"type":"Feature","properties":{"numer":"104681L","klasa":"droga lokalna","kat":"powiatowa"},"geometry":{"type":"LineString","coordinates":[[23.48958,51.13023],[23.48989,51.13108]]}},{"type":"Feature","properties":{"numer":"1907L","klasa":"","kat":"powiatowa"},"geometry":{"type":"LineString","coordinates":[[23.47623,51.13144],[23.47746,51.13124],[23.48098,51.13003]]}},{"type":"Feature","properties":{"numer":"1893L","klasa":"","kat":"powiatowa"},"geometry":{"type":"LineString","coordinates":[[23.47746,51.13218],[23.47824,51.13154],[23.47951,51.1307],[23.48103,51.13006]]}},{"type":"Feature","properties":{"numer":"1885L","klasa":"droga zbiorcza","kat":"powiatowa"},"geometry":{"type":"LineString","coordinates":[[23.51045,51.13117],[23.50514,51.13128]]}},{"type":"Feature","properties":{"numer":"1885L","klasa":"droga zbiorcza","kat":"powiatowa"},"geometry":{"type":"LineString","coordinates":[[23.50514,51.13128],[23.50007,51.13138]]}},{"type":"Feature","properties":{"numer":"104681L","klasa":"droga lokalna","kat":"powiatowa"},"geometry":{"type":"LineString","coordinates":[[23.48989,51.13108],[23.48966,51.13169]]}},{"type":"Feature","properties":{"numer":"1892L","klasa":"","kat":"powiatowa"},"geometry":{"type":"LineString","coordinates":[[23.50007,51.13138],[23.50007,51.13139]]}},{"type":"Feature","properties":{"numer":"1877L","klasa":"droga zbiorcza","kat":"powiatowa"},"geometry":{"type":"LineString","coordinates":[[23.50007,51.13138],[23.49711,51.13146]]}},{"type":"Feature","properties":{"numer":"104761L","klasa":"droga lokalna","kat":"powiatowa"},"geometry":{"type":"LineString","coordinates":[[23.46632,51.13013],[23.46677,51.13055]]}},{"type":"Feature","properties":{"numer":"104761L","klasa":"droga lokalna","kat":"powiatowa"},"geometry":{"type":"LineString","coordinates":[[23.46677,51.13055],[23.46689,51.13071]]}},{"type":"Feature","properties":{"numer":"1832L","klasa":"droga zbiorcza","kat":"powiatowa"},"geometry":{"type":"LineString","coordinates":[[23.44297,51.13293],[23.44174,51.13194],[23.4417,51.13175],[23.44249,51.13081],[23.44359,51.13],[23.44382,51.12939],[23.44426,51.12918],[23.44453,51.12893],[23.44577,51.12845]]}},{"type":"Feature","properties":{"numer":"104852L","klasa":"droga dojazdowa","kat":"powiatowa"},"geometry":{"type":"LineString","coordinates":[[23.46689,51.13071],[23.46693,51.13077]]}},{"type":"Feature","properties":{"numer":"844","klasa":"droga gĹ‚Ăłwna","kat":"wojewodzka"},"geometry":{"type":"LineString","coordinates":[[23.46496,51.13227],[23.46536,51.13169],[23.46586,51.13129],[23.46693,51.13077]]}},{"type":"Feature","properties":{"numer":"1912L","klasa":"","kat":"powiatowa"},"geometry":{"type":"LineString","coordinates":[[23.47246,51.13195],[23.47095,51.1323]]}},{"type":"Feature","properties":{"numer":"1912L","klasa":"","kat":"powiatowa"},"geometry":{"type":"LineString","coordinates":[[23.47095,51.1323],[23.46937,51.13307]]}},{"type":"Feature","properties":{"numer":"1877L","klasa":"droga zbiorcza","kat":"powiatowa"},"geometry":{"type":"LineString","coordinates":[[23.49711,51.13146],[23.4917,51.13157]]}},{"type":"Feature","properties":{"numer":"1877L","klasa":"droga zbiorcza","kat":"powiatowa"},"geometry":{"type":"LineString","coordinates":[[23.4917,51.13157],[23.48966,51.13169]]}},{"type":"Feature","properties":{"numer":"1907L","klasa":"","kat":"powiatowa"},"geometry":{"type":"LineString","coordinates":[[23.47246,51.13195],[23.47623,51.13144]]}},{"type":"Feature","properties":{"numer":"1915L","klasa":"","kat":"powiatowa"},"geometry":{"type":"LineString","coordinates":[[23.48949,51.13174],[23.48966,51.13169]]}},{"type":"Feature","properties":{"numer":"1917L","klasa":"","kat":"powiatowa"},"geometry":{"type":"LineString","coordinates":[[23.48983,51.13183],[23.48966,51.13169]]}},{"type":"Feature","properties":{"numer":"1915L","klasa":"","kat":"powiatowa"},"geometry":{"type":"LineString","coordinates":[[23.48949,51.13174],[23.48893,51.13189]]}},{"type":"Feature","properties":{"numer":"104824L","klasa":"droga lokalna","kat":"powiatowa"},"geometry":{"type":"LineString","coordinates":[[23.50514,51.13128],[23.50514,51.13247]]}},{"type":"Feature","properties":{"numer":"1917L","klasa":"","kat":"powiatowa"},"geometry":{"type":"LineString","coordinates":[[23.49026,51.13213],[23.48983,51.13183]]}},{"type":"Feature","properties":{"numer":"1893L","klasa":"","kat":"powiatowa"},"geometry":{"type":"LineString","coordinates":[[23.47468,51.13255],[23.47688,51.13236],[23.47746,51.13218]]}},{"type":"Feature","properties":{"numer":"1893L","klasa":"","kat":"powiatowa"},"geometry":{"type":"LineString","coordinates":[[23.47338,51.13263],[23.4742,51.13246],[23.47468,51.13255]]}},{"type":"Feature","properties":{"numer":"104824L","klasa":"droga lokalna","kat":"powiatowa"},"geometry":{"type":"LineString","coordinates":[[23.50514,51.13247],[23.50514,51.13299]]}},{"type":"Feature","properties":{"numer":"1917L","klasa":"","kat":"powiatowa"},"geometry":{"type":"LineString","coordinates":[[23.49284,51.13338],[23.49026,51.13213]]}},{"type":"Feature","properties":{"numer":"1879L","klasa":"","kat":"powiatowa"},"geometry":{"type":"LineString","coordinates":[[23.50007,51.13139],[23.50014,51.13299],[23.50006,51.13443]]}},{"type":"Feature","properties":{"numer":"1915L","klasa":"","kat":"powiatowa"},"geometry":{"type":"LineString","coordinates":[[23.48893,51.13189],[23.48464,51.13417]]}},{"type":"Feature","properties":{"numer":"1917L","klasa":"","kat":"powiatowa"},"geometry":{"type":"LineString","coordinates":[[23.4936,51.13362],[23.49284,51.13338]]}},{"type":"Feature","properties":{"numer":"1897L","klasa":"","kat":"powiatowa"},"geometry":{"type":"LineString","coordinates":[[23.47803,51.13365],[23.47711,51.13363],[23.47487,51.13399]]}},{"type":"Feature","properties":{"numer":"1911L","klasa":"","kat":"powiatowa"},"geometry":{"type":"LineString","coordinates":[[23.48437,51.13417],[23.47994,51.13408],[23.4784,51.13368],[23.47803,51.13365]]}},{"type":"Feature","properties":{"numer":"1900L","klasa":"","kat":"powiatowa"},"geometry":{"type":"LineString","coordinates":[[23.4936,51.13362],[23.49375,51.13352],[23.49513,51.13355],[23.4951,51.13439]]}},{"type":"Feature","properties":{"numer":"1900L","klasa":"","kat":"powiatowa"},"geometry":{"type":"LineString","coordinates":[[23.49354,51.13435],[23.4936,51.13362]]}},{"type":"Feature","properties":{"numer":"1897L","klasa":"","kat":"powiatowa"},"geometry":{"type":"LineString","coordinates":[[23.47487,51.13399],[23.47384,51.13399]]}},{"type":"Feature","properties":{"numer":"1902L","klasa":"","kat":"powiatowa"},"geometry":{"type":"LineString","coordinates":[[23.46814,51.13344],[23.46635,51.13269],[23.46496,51.13227]]}},{"type":"Feature","properties":{"numer":"1893L","klasa":"","kat":"powiatowa"},"geometry":{"type":"LineString","coordinates":[[23.47094,51.13325],[23.47338,51.13263]]}},{"type":"Feature","properties":{"numer":"","klasa":"droga wewnÄ™trzna","kat":"gminna"},"geometry":{"type":"LineString","coordinates":[[23.43342,51.13327],[23.433419537145493,51.13326998296241]]}},{"type":"Feature","properties":{"numer":"1912L","klasa":"","kat":"powiatowa"},"geometry":{"type":"LineString","coordinates":[[23.46937,51.13307],[23.46852,51.13321],[23.46814,51.13344]]}},{"type":"Feature","properties":{"numer":"1893L","klasa":"","kat":"powiatowa"},"geometry":{"type":"LineString","coordinates":[[23.47084,51.13329],[23.47094,51.13325]]}},{"type":"Feature","properties":{"numer":"1893L","klasa":"","kat":"powiatowa"},"geometry":{"type":"LineString","coordinates":[[23.47018,51.13359],[23.47084,51.13329]]}},{"type":"Feature","properties":{"numer":"1893L","klasa":"","kat":"powiatowa"},"geometry":{"type":"LineString","coordinates":[[23.47008,51.13364],[23.47018,51.13359]]}},{"type":"Feature","properties":{"numer":"104884L","klasa":"droga lokalna","kat":"powiatowa"},"geometry":{"type":"LineString","coordinates":[[23.44297,51.13293],[23.44257,51.13447]]}},{"type":"Feature","properties":{"numer":"844","klasa":"droga gĹ‚Ăłwna","kat":"wojewodzka"},"geometry":{"type":"LineString","coordinates":[[23.46536,51.13519],[23.46445,51.13463],[23.4641,51.13407],[23.46415,51.13352],[23.46496,51.13227]]}},{"type":"Feature","properties":{"numer":"1911L","klasa":"","kat":"powiatowa"},"geometry":{"type":"LineString","coordinates":[[23.48464,51.13417],[23.48437,51.13417]]}},{"type":"Feature","properties":{"numer":"104819L","klasa":"droga lokalna","kat":"powiatowa"},"geometry":{"type":"LineString","coordinates":[[23.48713,51.13422],[23.48464,51.13417]]}},{"type":"Feature","properties":{"numer":"104819L","klasa":"droga lokalna","kat":"powiatowa"},"geometry":{"type":"LineString","coordinates":[[23.48756,51.13423],[23.48713,51.13422]]}},{"type":"Feature","properties":{"numer":"1888L","klasa":"","kat":"powiatowa"},"geometry":{"type":"LineString","coordinates":[[23.47384,51.13399],[23.4736,51.13446]]}},{"type":"Feature","properties":{"numer":"104819L","klasa":"droga lokalna","kat":"powiatowa"},"geometry":{"type":"LineString","coordinates":[[23.48958,51.13427],[23.48756,51.13423]]}},{"type":"Feature","properties":{"numer":"1915L","klasa":"","kat":"powiatowa"},"geometry":{"type":"LineString","coordinates":[[23.48437,51.13417],[23.48423,51.13439]]}},{"type":"Feature","properties":{"numer":"104819L","klasa":"droga lokalna","kat":"powiatowa"},"geometry":{"type":"LineString","coordinates":[[23.49129,51.13431],[23.48958,51.13427]]}},{"type":"Feature","properties":{"numer":"104819L","klasa":"droga lokalna","kat":"powiatowa"},"geometry":{"type":"LineString","coordinates":[[23.49204,51.13432],[23.49129,51.13431]]}},{"type":"Feature","properties":{"numer":"104819L","klasa":"droga lokalna","kat":"powiatowa"},"geometry":{"type":"LineString","coordinates":[[23.49253,51.13433],[23.49204,51.13432]]}},{"type":"Feature","properties":{"numer":"104819L","klasa":"droga lokalna","kat":"powiatowa"},"geometry":{"type":"LineString","coordinates":[[23.49354,51.13435],[23.49253,51.13433]]}},{"type":"Feature","properties":{"numer":"1883L","klasa":"","kat":"powiatowa"},"geometry":{"type":"LineString","coordinates":[[23.47117,51.13376],[23.47093,51.13376]]}},{"type":"Feature","properties":{"numer":"1883L","klasa":"","kat":"powiatowa"},"geometry":{"type":"LineString","coordinates":[[23.47093,51.13376],[23.47077,51.13378]]}},{"type":"Feature","properties":{"numer":"1883L","klasa":"","kat":"powiatowa"},"geometry":{"type":"LineString","coordinates":[[23.47208,51.1339],[23.47117,51.13376]]}},{"type":"Feature","properties":{"numer":"1912L","klasa":"","kat":"powiatowa"},"geometry":{"type":"LineString","coordinates":[[23.46814,51.13344],[23.4668,51.1343]]}},{"type":"Feature","properties":{"numer":"1897L","klasa":"","kat":"powiatowa"},"geometry":{"type":"LineString","coordinates":[[23.47384,51.13399],[23.47264,51.13399],[23.47208,51.1339]]}},{"type":"Feature","properties":{"numer":"1896L","klasa":"","kat":"powiatowa"},"geometry":{"type":"LineString","coordinates":[[23.47077,51.13378],[23.47084,51.13397],[23.47159,51.13451]]}},{"type":"Feature","properties":{"numer":"1893L","klasa":"","kat":"powiatowa"},"geometry":{"type":"LineString","coordinates":[[23.46825,51.13524],[23.47008,51.13364]]}},{"type":"Feature","properties":{"numer":"1912L","klasa":"","kat":"powiatowa"},"geometry":{"type":"LineString","coordinates":[[23.4668,51.1343],[23.46536,51.13519]]}},{"type":"Feature","properties":{"numer":"1896L","klasa":"","kat":"powiatowa"},"geometry":{"type":"LineString","coordinates":[[23.47159,51.13451],[23.47272,51.13535]]}},{"type":"Feature","properties":{"numer":"1888L","klasa":"","kat":"powiatowa"},"geometry":{"type":"LineString","coordinates":[[23.47314,51.1348],[23.47272,51.13535]]}},{"type":"Feature","properties":{"numer":"1911L","klasa":"","kat":"powiatowa"},"geometry":{"type":"LineString","coordinates":[[23.49432,51.13438],[23.49354,51.13435]]}},{"type":"Feature","properties":{"numer":"1891L","klasa":"","kat":"powiatowa"},"geometry":{"type":"LineString","coordinates":[[23.4951,51.13439],[23.49432,51.13438]]}},{"type":"Feature","properties":{"numer":"1891L","klasa":"","kat":"powiatowa"},"geometry":{"type":"LineString","coordinates":[[23.50006,51.13443],[23.49938,51.13448],[23.4951,51.13439]]}},{"type":"Feature","properties":{"numer":"1914L","klasa":"","kat":"powiatowa"},"geometry":{"type":"LineString","coordinates":[[23.4736,51.13446],[23.47499,51.13469]]}},{"type":"Feature","properties":{"numer":"1888L","klasa":"","kat":"powiatowa"},"geometry":{"type":"LineString","coordinates":[[23.4736,51.13446],[23.47314,51.1348]]}},{"type":"Feature","properties":{"numer":"104824L","klasa":"droga lokalna","kat":"powiatowa"},"geometry":{"type":"LineString","coordinates":[[23.50502,51.13461],[23.50501,51.13476]]}},{"type":"Feature","properties":{"numer":"1915L","klasa":"","kat":"powiatowa"},"geometry":{"type":"LineString","coordinates":[[23.48423,51.13439],[23.48267,51.13526]]}},{"type":"Feature","properties":{"numer":"104824L","klasa":"droga lokalna","kat":"powiatowa"},"geometry":{"type":"LineString","coordinates":[[23.50501,51.13476],[23.50499,51.1351]]}},{"type":"Feature","properties":{"numer":"1905L","klasa":"droga zbiorcza","kat":"powiatowa"},"geometry":{"type":"LineString","coordinates":[[23.49424,51.13578],[23.49432,51.13438]]}},{"type":"Feature","properties":{"numer":"104824L","klasa":"droga lokalna","kat":"powiatowa"},"geometry":{"type":"LineString","coordinates":[[23.50499,51.1351],[23.50498,51.13527]]}},{"type":"Feature","properties":{"numer":"1909L","klasa":"","kat":"powiatowa"},"geometry":{"type":"LineString","coordinates":[[23.50847,51.13589],[23.50801,51.1353],[23.5074,51.13493],[23.50636,51.13467],[23.50502,51.13461]]}},{"type":"Feature","properties":{"numer":"104824L","klasa":"droga lokalna","kat":"powiatowa"},"geometry":{"type":"LineString","coordinates":[[23.50498,51.13527],[23.50493,51.13601]]}},{"type":"Feature","properties":{"numer":"1926L","klasa":"","kat":"powiatowa"},"geometry":{"type":"LineString","coordinates":[[23.49999,51.13591],[23.49424,51.13578]]}},{"type":"Feature","properties":{"numer":"1843L","klasa":"droga zbiorcza","kat":"powiatowa"},"geometry":{"type":"LineString","coordinates":[[23.55438125752199,51.145077489584935],[23.55456,51.14483],[23.55562,51.14433],[23.55691496993988,51.14344396793587]]}},{"type":"Feature","properties":{"numer":"1926L","klasa":"","kat":"powiatowa"},"geometry":{"type":"LineString","coordinates":[[23.50847,51.13589],[23.50493,51.13601]]}},{"type":"Feature","properties":{"numer":"1926L","klasa":"","kat":"powiatowa"},"geometry":{"type":"LineString","coordinates":[[23.50493,51.13601],[23.49999,51.13591]]}},{"type":"Feature","properties":{"numer":"1914L","klasa":"","kat":"powiatowa"},"geometry":{"type":"LineString","coordinates":[[23.47499,51.13469],[23.47538,51.13482],[23.47688,51.13728]]}},{"type":"Feature","properties":{"numer":"1896L","klasa":"","kat":"powiatowa"},"geometry":{"type":"LineString","coordinates":[[23.47272,51.13535],[23.47488,51.13706],[23.47586,51.13733],[23.47578,51.13763]]}},{"type":"Feature","properties":{"numer":"1916L","klasa":"","kat":"powiatowa"},"geometry":{"type":"LineString","coordinates":[[23.48267,51.13526],[23.48272,51.13836]]}},{"type":"Feature","properties":{"numer":"1914L","klasa":"","kat":"powiatowa"},"geometry":{"type":"LineString","coordinates":[[23.47688,51.13728],[23.47704,51.13768]]}},{"type":"Feature","properties":{"numer":"1899L","klasa":"","kat":"powiatowa"},"geometry":{"type":"LineString","coordinates":[[23.46823,51.13524],[23.46825,51.13524]]}},{"type":"Feature","properties":{"numer":"1899L","klasa":"","kat":"powiatowa"},"geometry":{"type":"LineString","coordinates":[[23.46825,51.13524],[23.46886,51.13549],[23.46953,51.13554]]}},{"type":"Feature","properties":{"numer":"844","klasa":"droga gĹ‚Ăłwna","kat":"wojewodzka"},"geometry":{"type":"LineString","coordinates":[[23.46713,51.13615],[23.46536,51.13519]]}},{"type":"Feature","properties":{"numer":"1893L","klasa":"","kat":"powiatowa"},"geometry":{"type":"LineString","coordinates":[[23.46825,51.13524],[23.46713,51.13615]]}},{"type":"Feature","properties":{"numer":"1901L","klasa":"","kat":"powiatowa"},"geometry":{"type":"LineString","coordinates":[[23.47073,51.13615],[23.46953,51.13554]]}},{"type":"Feature","properties":{"numer":"1901L","klasa":"","kat":"powiatowa"},"geometry":{"type":"LineString","coordinates":[[23.47212,51.13722],[23.47073,51.13615]]}},{"type":"Feature","properties":{"numer":"844","klasa":"droga gĹ‚Ăłwna","kat":"wojewodzka"},"geometry":{"type":"LineString","coordinates":[[23.46831,51.13724],[23.46713,51.13615]]}},{"type":"Feature","properties":{"numer":"812","klasa":"droga gĹ‚Ăłwna ruchu przyĹ›pieszonego","kat":"wojewodzka"},"geometry":{"type":"LineString","coordinates":[[23.43371,51.14545],[23.42733,51.14359],[23.427276546679867,51.14357991861589]]}},{"type":"Feature","properties":{"numer":"1893L","klasa":"","kat":"powiatowa"},"geometry":{"type":"LineString","coordinates":[[23.46713,51.13615],[23.46549,51.13698],[23.46232,51.13766],[23.46042,51.13824]]}},{"type":"Feature","properties":{"numer":"1901L","klasa":"","kat":"powiatowa"},"geometry":{"type":"LineString","coordinates":[[23.47249,51.13747],[23.47212,51.13722]]}},{"type":"Feature","properties":{"numer":"1901L","klasa":"","kat":"powiatowa"},"geometry":{"type":"LineString","coordinates":[[23.47262,51.13757],[23.47249,51.13747]]}},{"type":"Feature","properties":{"numer":"1922L","klasa":"droga zbiorcza","kat":"powiatowa"},"geometry":{"type":"LineString","coordinates":[[23.44422,51.13502],[23.44847,51.13647],[23.45457,51.13901],[23.45479,51.13923],[23.45488,51.13973],[23.45512,51.14006]]}},{"type":"Feature","properties":{"numer":"1901L","klasa":"","kat":"powiatowa"},"geometry":{"type":"LineString","coordinates":[[23.47329,51.13756],[23.47283,51.13756]]}},{"type":"Feature","properties":{"numer":"1901L","klasa":"","kat":"powiatowa"},"geometry":{"type":"LineString","coordinates":[[23.47283,51.13756],[23.47262,51.13757]]}},{"type":"Feature","properties":{"numer":"844","klasa":"droga gĹ‚Ăłwna","kat":"wojewodzka"},"geometry":{"type":"LineString","coordinates":[[23.46915,51.1381],[23.46831,51.13724]]}},{"type":"Feature","properties":{"numer":"1929L","klasa":"droga zbiorcza","kat":"powiatowa"},"geometry":{"type":"LineString","coordinates":[[23.47262,51.13757],[23.47174,51.13774],[23.47119,51.13794],[23.46972,51.13881]]}},{"type":"Feature","properties":{"numer":"1893L","klasa":"","kat":"powiatowa"},"geometry":{"type":"LineString","coordinates":[[23.46026,51.1383],[23.46042,51.13824]]}},{"type":"Feature","properties":{"numer":"844","klasa":"droga gĹ‚Ăłwna","kat":"wojewodzka"},"geometry":{"type":"LineString","coordinates":[[23.46954,51.13856],[23.46915,51.1381]]}},{"type":"Feature","properties":{"numer":"1929L","klasa":"droga zbiorcza","kat":"powiatowa"},"geometry":{"type":"LineString","coordinates":[[23.46972,51.13881],[23.46901,51.13913],[23.4687,51.13908],[23.46847,51.13893],[23.46843,51.13861],[23.46915,51.1381]]}},{"type":"Feature","properties":{"numer":"1901L","klasa":"","kat":"powiatowa"},"geometry":{"type":"LineString","coordinates":[[23.47578,51.13763],[23.47329,51.13756]]}},{"type":"Feature","properties":{"numer":"1901L","klasa":"","kat":"powiatowa"},"geometry":{"type":"LineString","coordinates":[[23.47621,51.13764],[23.47578,51.13763]]}},{"type":"Feature","properties":{"numer":"1901L","klasa":"","kat":"powiatowa"},"geometry":{"type":"LineString","coordinates":[[23.47702,51.13768],[23.47621,51.13764]]}},{"type":"Feature","properties":{"numer":"1901L","klasa":"","kat":"powiatowa"},"geometry":{"type":"LineString","coordinates":[[23.47704,51.13768],[23.47702,51.13768]]}},{"type":"Feature","properties":{"numer":"1905L","klasa":"droga zbiorcza","kat":"powiatowa"},"geometry":{"type":"LineString","coordinates":[[23.49397,51.14005],[23.49424,51.13578]]}},{"type":"Feature","properties":{"numer":"1909L","klasa":"","kat":"powiatowa"},"geometry":{"type":"LineString","coordinates":[[23.51007,51.14032],[23.50847,51.13589]]}},{"type":"Feature","properties":{"numer":"1887L","klasa":"droga zbiorcza","kat":"powiatowa"},"geometry":{"type":"LineString","coordinates":[[23.48262,51.13878],[23.48148,51.13809],[23.48085,51.13787],[23.47704,51.13768]]}},{"type":"Feature","properties":{"numer":"1882L","klasa":"","kat":"powiatowa"},"geometry":{"type":"LineString","coordinates":[[23.51007,51.14032],[23.51666,51.14025],[23.536,51.13736],[23.53959,51.13669]]}},{"type":"Feature","properties":{"numer":"1916L","klasa":"","kat":"powiatowa"},"geometry":{"type":"LineString","coordinates":[[23.48272,51.13836],[23.48262,51.13878]]}},{"type":"Feature","properties":{"numer":"1887L","klasa":"droga zbiorcza","kat":"powiatowa"},"geometry":{"type":"LineString","coordinates":[[23.49397,51.14005],[23.4893,51.13919],[23.48335,51.13895],[23.48262,51.13878]]}},{"type":"Feature","properties":{"numer":"1887L","klasa":"droga zbiorcza","kat":"powiatowa"},"geometry":{"type":"LineString","coordinates":[[23.50541,51.14135],[23.50024,51.14121],[23.49397,51.14005]]}},{"type":"Feature","properties":{"numer":"1823L","klasa":"droga zbiorcza","kat":"powiatowa"},"geometry":{"type":"LineString","coordinates":[[23.48109,51.14237],[23.48046,51.14069],[23.4805,51.14045],[23.48097,51.1399],[23.48102,51.13914]]}},{"type":"Feature","properties":{"numer":"1887L","klasa":"droga zbiorcza","kat":"powiatowa"},"geometry":{"type":"LineString","coordinates":[[23.51007,51.14032],[23.50933,51.14055],[23.50858,51.14113],[23.50799,51.14135],[23.50541,51.14135]]}},{"type":"Feature","properties":{"numer":"105081L","klasa":"droga lokalna","kat":"powiatowa"},"geometry":{"type":"LineString","coordinates":[[23.50541,51.14135],[23.50558,51.14183]]}},{"type":"Feature","properties":{"numer":"105081L","klasa":"droga lokalna","kat":"powiatowa"},"geometry":{"type":"LineString","coordinates":[[23.50558,51.14183],[23.50568,51.14244]]}},{"type":"Feature","properties":{"numer":"104896L","klasa":"","kat":"powiatowa"},"geometry":{"type":"LineString","coordinates":[[23.47846,51.14241],[23.48109,51.14237]]}},{"type":"Feature","properties":{"numer":"104896L","klasa":"droga dojazdowa","kat":"powiatowa"},"geometry":{"type":"LineString","coordinates":[[23.4779,51.14247],[23.47846,51.14241]]}},{"type":"Feature","properties":{"numer":"12,E373","klasa":"droga gĹ‚Ăłwna ruchu przyĹ›pieszonego","kat":"gminna"},"geometry":{"type":"LineString","coordinates":[[23.49341,51.14247],[23.48928,51.14225],[23.48574,51.14227],[23.48492,51.14238],[23.48388,51.14274]]}},{"type":"Feature","properties":{"numer":"1823L","klasa":"droga zbiorcza","kat":"powiatowa"},"geometry":{"type":"LineString","coordinates":[[23.48388,51.14274],[23.48303,51.14232],[23.48109,51.14237]]}},{"type":"Feature","properties":{"numer":"844","klasa":"droga gĹ‚Ăłwna","kat":"wojewodzka"},"geometry":{"type":"LineString","coordinates":[[23.46972,51.13881],[23.46954,51.13856]]}},{"type":"Feature","properties":{"numer":"1893L","klasa":"","kat":"powiatowa"},"geometry":{"type":"LineString","coordinates":[[23.45512,51.14006],[23.46026,51.1383]]}},{"type":"Feature","properties":{"numer":"1893L","klasa":"","kat":"powiatowa"},"geometry":{"type":"LineString","coordinates":[[23.45486,51.14015],[23.45512,51.14006]]}},{"type":"Feature","properties":{"numer":"844","klasa":"droga gĹ‚Ăłwna","kat":"wojewodzka"},"geometry":{"type":"LineString","coordinates":[[23.47101,51.14207],[23.47009,51.13949],[23.46972,51.13881]]}},{"type":"Feature","properties":{"numer":"105078L","klasa":"droga zbiorcza","kat":"powiatowa"},"geometry":{"type":"LineString","coordinates":[[23.43626,51.1418],[23.43541,51.14209],[23.4351,51.14235],[23.43488,51.14275]]}},{"type":"Feature","properties":{"numer":"1920L","klasa":"droga zbiorcza","kat":"powiatowa"},"geometry":{"type":"LineString","coordinates":[[23.45486,51.14015],[23.45602,51.1447]]}},{"type":"Feature","properties":{"numer":"844","klasa":"droga gĹ‚Ăłwna","kat":"wojewodzka"},"geometry":{"type":"LineString","coordinates":[[23.47101,51.14207],[23.47146,51.14324]]}},{"type":"Feature","properties":{"numer":"105078L","klasa":"droga zbiorcza","kat":"powiatowa"},"geometry":{"type":"LineString","coordinates":[[23.43488,51.14275],[23.4348,51.14291]]}},{"type":"Feature","properties":{"numer":"105078L","klasa":"droga zbiorcza","kat":"powiatowa"},"geometry":{"type":"LineString","coordinates":[[23.4348,51.14291],[23.43473,51.1431]]}},{"type":"Feature","properties":{"numer":"1893L","klasa":"","kat":"powiatowa"},"geometry":{"type":"LineString","coordinates":[[23.43673,51.14625],[23.45486,51.14015]]}},{"type":"Feature","properties":{"numer":"12,E373","klasa":"droga gĹ‚Ăłwna ruchu przyĹ›pieszonego","kat":"gminna"},"geometry":{"type":"LineString","coordinates":[[23.535118729683493,51.14152509837468],[23.53418,51.14145],[23.51467,51.14186],[23.51417,51.14195],[23.51364,51.14216],[23.512,51.14332],[23.51122,51.14368]]}},{"type":"Feature","properties":{"numer":"104896L","klasa":"droga dojazdowa","kat":"powiatowa"},"geometry":{"type":"LineString","coordinates":[[23.47656,51.14271],[23.4779,51.14247]]}},{"type":"Feature","properties":{"numer":"105081L","klasa":"droga lokalna","kat":"powiatowa"},"geometry":{"type":"LineString","coordinates":[[23.50568,51.14244],[23.50568,51.14278]]}},{"type":"Feature","properties":{"numer":"12,E373","klasa":"droga gĹ‚Ăłwna ruchu przyĹ›pieszonego","kat":"gminna"},"geometry":{"type":"LineString","coordinates":[[23.50243,51.14293],[23.49341,51.14247]]}},{"type":"Feature","properties":{"numer":"104896L","klasa":"droga dojazdowa","kat":"powiatowa"},"geometry":{"type":"LineString","coordinates":[[23.47506,51.14288],[23.47656,51.14271]]}},{"type":"Feature","properties":{"numer":"104896L","klasa":"droga dojazdowa","kat":"powiatowa"},"geometry":{"type":"LineString","coordinates":[[23.4744,51.14295],[23.47506,51.14288]]}},{"type":"Feature","properties":{"numer":"105081L","klasa":"","kat":"powiatowa"},"geometry":{"type":"LineString","coordinates":[[23.50568,51.14278],[23.50562,51.1431]]}},{"type":"Feature","properties":{"numer":"12,E373","klasa":"droga gĹ‚Ăłwna ruchu przyĹ›pieszonego","kat":"gminna"},"geometry":{"type":"LineString","coordinates":[[23.50562,51.1431],[23.50243,51.14293]]}},{"type":"Feature","properties":{"numer":"104896L","klasa":"droga dojazdowa","kat":"powiatowa"},"geometry":{"type":"LineString","coordinates":[[23.47396,51.14329],[23.47413,51.14307],[23.4744,51.14295]]}},{"type":"Feature","properties":{"numer":"12,E373","klasa":"droga gĹ‚Ăłwna ruchu przyĹ›pieszonego","kat":"gminna"},"geometry":{"type":"LineString","coordinates":[[23.47396,51.14329],[23.47277,51.14313],[23.47146,51.14324]]}},{"type":"Feature","properties":{"numer":"12,E373","klasa":"droga gĹ‚Ăłwna ruchu przyĹ›pieszonego","kat":"gminna"},"geometry":{"type":"LineString","coordinates":[[23.47146,51.14324],[23.47021,51.14336]]}},{"type":"Feature","properties":{"numer":"12,E373","klasa":"droga gĹ‚Ăłwna ruchu przyĹ›pieszonego","kat":"gminna"},"geometry":{"type":"LineString","coordinates":[[23.47021,51.14336],[23.46987,51.14339]]}},{"type":"Feature","properties":{"numer":"105078L","klasa":"droga zbiorcza","kat":"powiatowa"},"geometry":{"type":"LineString","coordinates":[[23.43473,51.1431],[23.43435,51.14398]]}},{"type":"Feature","properties":{"numer":"12,E373","klasa":"droga gĹ‚Ăłwna ruchu przyĹ›pieszonego","kat":"gminna"},"geometry":{"type":"LineString","coordinates":[[23.46987,51.14339],[23.45602,51.1447]]}},{"type":"Feature","properties":{"numer":"105078L","klasa":"droga zbiorcza","kat":"powiatowa"},"geometry":{"type":"LineString","coordinates":[[23.43435,51.14398],[23.43411,51.14454]]}},{"type":"Feature","properties":{"numer":"105078L","klasa":"droga zbiorcza","kat":"powiatowa"},"geometry":{"type":"LineString","coordinates":[[23.43411,51.14454],[23.43371,51.14545]]}},{"type":"Feature","properties":{"numer":"12,E373","klasa":"droga gĹ‚Ăłwna ruchu przyĹ›pieszonego","kat":"gminna"},"geometry":{"type":"LineString","coordinates":[[23.45602,51.1447],[23.44653,51.14561]]}},{"type":"Feature","properties":{"numer":"812","klasa":"droga gĹ‚Ăłwna ruchu przyĹ›pieszonego","kat":"wojewodzka"},"geometry":{"type":"LineString","coordinates":[[23.43673,51.14625],[23.43371,51.14545]]}},{"type":"Feature","properties":{"numer":"12,E373","klasa":"droga gĹ‚Ăłwna ruchu przyĹ›pieszonego","kat":"gminna"},"geometry":{"type":"LineString","coordinates":[[23.44653,51.14561],[23.43881,51.14636],[23.43749,51.14644],[23.43673,51.14625]]}},{"type":"Feature","properties":{"numer":"12,E373","klasa":"droga gĹ‚Ăłwna ruchu przyĹ›pieszonego","kat":"gminna"},"geometry":{"type":"LineString","coordinates":[[23.51046,51.14387],[23.50956,51.14394],[23.50876,51.14389],[23.50654,51.14325],[23.50562,51.1431]]}},{"type":"Feature","properties":{"numer":"12,E373","klasa":"droga gĹ‚Ăłwna ruchu przyĹ›pieszonego","kat":"gminna"},"geometry":{"type":"LineString","coordinates":[[23.48388,51.14274],[23.48327,51.14391],[23.48313,51.14442]]}},{"type":"Feature","properties":{"numer":"12,E373","klasa":"droga gĹ‚Ăłwna ruchu przyĹ›pieszonego","kat":"gminna"},"geometry":{"type":"LineString","coordinates":[[23.51122,51.14368],[23.51046,51.14387]]}},{"type":"Feature","properties":{"numer":"12,E373","klasa":"droga gĹ‚Ăłwna ruchu przyĹ›pieszonego","kat":"gminna"},"geometry":{"type":"LineString","coordinates":[[23.47905,51.14478],[23.47792,51.1448],[23.47701,51.14465],[23.47396,51.14329]]}},{"type":"Feature","properties":{"numer":"1881L","klasa":"droga zbiorcza","kat":"powiatowa"},"geometry":{"type":"LineString","coordinates":[[23.4843,51.14598],[23.48751,51.14571],[23.49337,51.14596],[23.4935,51.14586],[23.49341,51.14247]]}},{"type":"Feature","properties":{"numer":"12,E373","klasa":"droga gĹ‚Ăłwna ruchu przyĹ›pieszonego","kat":"gminna"},"geometry":{"type":"LineString","coordinates":[[23.48313,51.14442],[23.48179,51.14469],[23.47945,51.14477]]}},{"type":"Feature","properties":{"numer":"12,E373","klasa":"droga gĹ‚Ăłwna ruchu przyĹ›pieszonego","kat":"gminna"},"geometry":{"type":"LineString","coordinates":[[23.47945,51.14477],[23.47905,51.14478]]}},{"type":"Feature","properties":{"numer":"1823L","klasa":"droga zbiorcza","kat":"powiatowa"},"geometry":{"type":"LineString","coordinates":[[23.4843,51.14598],[23.4839,51.1449],[23.48313,51.14442]]}},{"type":"Feature","properties":{"numer":"1823L","klasa":"droga zbiorcza","kat":"powiatowa"},"geometry":{"type":"LineString","coordinates":[[23.48472,51.14741],[23.4843,51.14598]]}},{"type":"Feature","properties":{"numer":"1921L","klasa":"","kat":"powiatowa"},"geometry":{"type":"LineString","coordinates":[[23.48472,51.14741],[23.49053,51.1477],[23.49233,51.14766]]}},{"type":"Feature","properties":{"numer":"1823L","klasa":"droga zbiorcza","kat":"powiatowa"},"geometry":{"type":"LineString","coordinates":[[23.4865,51.15182],[23.48621,51.15121],[23.48543,51.14853],[23.48472,51.14741]]}},{"type":"Feature","properties":{"numer":"104789L,1823L","klasa":"droga zbiorcza","kat":"powiatowa"},"geometry":{"type":"LineString","coordinates":[[23.48653,51.15186],[23.4865,51.15182]]}},{"type":"Feature","properties":{"numer":"1823L","klasa":"droga zbiorcza","kat":"powiatowa"},"geometry":{"type":"LineString","coordinates":[[23.489680734495067,51.154855064094676],[23.48822,51.154],[23.48653,51.15186]]}},{"type":"Feature","properties":{"numer":"1920L","klasa":"droga zbiorcza","kat":"powiatowa"},"geometry":{"type":"LineString","coordinates":[[23.45602,51.1447],[23.45695,51.14858],[23.45714,51.14891],[23.45762,51.14927]]}},{"type":"Feature","properties":{"numer":"1886L","klasa":"","kat":"powiatowa"},"geometry":{"type":"LineString","coordinates":[[23.43671,51.14966],[23.43864,51.14971],[23.43996,51.1499],[23.44369,51.14991],[23.4445,51.14983],[23.44505,51.14967],[23.44535,51.14952],[23.44561,51.14921],[23.44573,51.14741],[23.44654,51.14593],[23.44653,51.14561]]}},{"type":"Feature","properties":{"numer":"812","klasa":"droga gĹ‚Ăłwna ruchu przyĹ›pieszonego","kat":"wojewodzka"},"geometry":{"type":"LineString","coordinates":[[23.43671,51.14966],[23.43682,51.14717],[23.43673,51.14625]]}},{"type":"Feature","properties":{"numer":"1880L","klasa":"droga zbiorcza","kat":"powiatowa"},"geometry":{"type":"LineString","coordinates":[[23.45762,51.14927],[23.45823,51.14967],[23.45949,51.15109],[23.4598,51.15232]]}},{"type":"Feature","properties":{"numer":"12,E373","klasa":"droga gĹ‚Ăłwna ruchu przyĹ›pieszonego","kat":"gminna"},"geometry":{"type":"LineString","coordinates":[[23.425883635914076,51.149910671761255],[23.43673,51.14625]]}},{"type":"Feature","properties":{"numer":"1880L","klasa":"droga zbiorcza","kat":"powiatowa"},"geometry":{"type":"LineString","coordinates":[[23.46352,51.16644],[23.46327,51.16632],[23.45917,51.16277],[23.45802,51.16106],[23.45651,51.15923],[23.45534,51.15741],[23.45537,51.15718],[23.45608,51.1562],[23.45655,51.15498],[23.45948,51.15272],[23.4598,51.15232]]}},{"type":"Feature","properties":{"numer":"812","klasa":"droga gĹ‚Ăłwna ruchu przyĹ›pieszonego","kat":"wojewodzka"},"geometry":{"type":"LineString","coordinates":[[23.436460839332693,51.155304701843434],[23.43671,51.14966]]}},{"type":"Feature","properties":{"numer":"105051L","klasa":"droga lokalna","kat":"powiatowa"},"geometry":{"type":"LineString","coordinates":[[23.4636436492103,51.166404671654206],[23.46352,51.16644]]}}]}