{"type":"FeatureCollection","features":[{"type":"Feature","properties":{"numer":"1409F","klasa":"droga gĹ‚Ăłwna","kat":"powiatowa"},"geometry":{"type":"LineString","coordinates":[[15.20871,52.76354],[15.208715803737647,52.76353147143062]]}},{"type":"Feature","properties":{"numer":"1410F","klasa":"droga zbiorcza","kat":"powiatowa"},"geometry":{"type":"LineString","coordinates":[[15.1549,52.78488],[15.14776,52.78349],[15.14624,52.78313],[15.14523,52.78279],[15.14318,52.78191],[15.1396,52.78085],[15.13236,52.78027],[15.12818,52.78005],[15.127925080334963,52.780029792953385]]}},{"type":"Feature","properties":{"numer":"1394F","klasa":"droga zbiorcza","kat":"powiatowa"},"geometry":{"type":"LineString","coordinates":[[15.115117567567566,52.78770864864865],[15.11475,52.78826]]}},{"type":"Feature","properties":{"numer":"1410F","klasa":"droga zbiorcza","kat":"powiatowa"},"geometry":{"type":"LineString","coordinates":[[15.21318,52.78938],[15.21294,52.78936]]}},{"type":"Feature","properties":{"numer":"1410F","klasa":"droga zbiorcza","kat":"powiatowa"},"geometry":{"type":"LineString","coordinates":[[15.21261,52.78959],[15.21294,52.78936]]}},{"type":"Feature","properties":{"numer":"1410F","klasa":"droga zbiorcza","kat":"powiatowa"},"geometry":{"type":"LineString","coordinates":[[15.21261,52.78959],[15.21318,52.78938]]}},{"type":"Feature","properties":{"numer":"1410F","klasa":"droga zbiorcza","kat":"powiatowa"},"geometry":{"type":"LineString","coordinates":[[15.21132,52.79001],[15.21261,52.78959]]}},{"type":"Feature","properties":{"numer":"1410F","klasa":"droga zbiorcza","kat":"powiatowa"},"geometry":{"type":"LineString","coordinates":[[15.21124,52.79004],[15.21132,52.79001]]}},{"type":"Feature","properties":{"numer":"151","klasa":"droga zbiorcza","kat":"wojewodzka"},"geometry":{"type":"LineString","coordinates":[[15.21424,52.79117],[15.21318,52.78938]]}},{"type":"Feature","properties":{"numer":"1406F","klasa":"droga zbiorcza","kat":"powiatowa"},"geometry":{"type":"LineString","coordinates":[[15.21424,52.79117],[15.2147,52.79106]]}},{"type":"Feature","properties":{"numer":"1406F","klasa":"droga zbiorcza","kat":"powiatowa"},"geometry":{"type":"LineString","coordinates":[[15.2147,52.79106],[15.21435,52.79132]]}},{"type":"Feature","properties":{"numer":"151","klasa":"droga zbiorcza","kat":"wojewodzka"},"geometry":{"type":"LineString","coordinates":[[15.21435,52.79132],[15.21424,52.79117]]}},{"type":"Feature","properties":{"numer":"1410F","klasa":"droga zbiorcza","kat":"powiatowa"},"geometry":{"type":"LineString","coordinates":[[15.18336,52.79821],[15.18236,52.79794],[15.18125,52.79794],[15.18069,52.79783],[15.17812,52.79552],[15.17706,52.79493],[15.17643,52.79478],[15.17135,52.79426],[15.1695,52.79399],[15.16303,52.79226],[15.16099,52.79064],[15.15916,52.78891],[15.15776,52.78796],[15.15625,52.78608],[15.15508,52.78515],[15.1549,52.78488]]}},{"type":"Feature","properties":{"numer":"1417F","klasa":"droga zbiorcza","kat":"powiatowa"},"geometry":{"type":"LineString","coordinates":[[15.1549,52.78488],[15.15497,52.78165],[15.15428,52.77729],[15.1545,52.77707],[15.16077,52.77314],[15.16109,52.77271],[15.16188596548418,52.770033566059446]]}},{"type":"Feature","properties":{"numer":"1409F","klasa":"droga zbiorcza","kat":"powiatowa"},"geometry":{"type":"LineString","coordinates":[[15.20316,52.77719],[15.20698,52.77186],[15.20717,52.77095],[15.20754,52.76998],[15.207,52.76843],[15.207,52.76811],[15.20781,52.76659],[15.20776,52.76499],[15.20871,52.76354]]}},{"type":"Feature","properties":{"numer":"151","klasa":"droga zbiorcza","kat":"wojewodzka"},"geometry":{"type":"LineString","coordinates":[[15.21776,52.78356],[15.22011,52.78235],[15.22532,52.78034],[15.2263,52.77983],[15.22732,52.77899],[15.22947,52.77648],[15.2299,52.77542],[15.22997,52.77369],[15.229969507176838,52.77368708412963]]}},{"type":"Feature","properties":{"numer":"1409F","klasa":"droga zbiorcza","kat":"powiatowa"},"geometry":{"type":"LineString","coordinates":[[15.20313,52.77724],[15.20316,52.77719]]}},{"type":"Feature","properties":{"numer":"1409F","klasa":"droga zbiorcza","kat":"powiatowa"},"geometry":{"type":"LineString","coordinates":[[15.21776,52.78356],[15.21618,52.78364],[15.21493,52.78383],[15.21364,52.78385],[15.21196,52.78381],[15.21064,52.7836],[15.20902,52.78375],[15.20849,52.78363],[15.20795,52.78296],[15.20427,52.77938],[15.20394,52.77923],[15.20191,52.77886],[15.20168,52.77875],[15.20174,52.77852],[15.20313,52.77724]]}},{"type":"Feature","properties":{"numer":"151","klasa":"droga zbiorcza","kat":"wojewodzka"},"geometry":{"type":"LineString","coordinates":[[15.21309,52.78916],[15.2129,52.7886],[15.21294,52.78786],[15.21441,52.78545],[15.21478,52.78515],[15.21776,52.78356]]}},{"type":"Feature","properties":{"numer":"1410F","klasa":"droga zbiorcza","kat":"powiatowa"},"geometry":{"type":"LineString","coordinates":[[15.21294,52.78936],[15.21309,52.78916]]}},{"type":"Feature","properties":{"numer":"151","klasa":"droga zbiorcza","kat":"wojewodzka"},"geometry":{"type":"LineString","coordinates":[[15.21318,52.78938],[15.21309,52.78916]]}},{"type":"Feature","properties":{"numer":"1404F","klasa":"droga zbiorcza","kat":"powiatowa"},"geometry":{"type":"LineString","coordinates":[[15.337351837164807,52.775512247079995],[15.33713,52.77582],[15.33412,52.78053],[15.33377,52.78163],[15.33356,52.7828],[15.33384,52.78966],[15.33211,52.79256],[15.33145,52.79292],[15.32937,52.79363],[15.32699,52.79411],[15.32483,52.79464],[15.32438,52.79483],[15.32424,52.79515]]}},{"type":"Feature","properties":{"numer":"1406F","klasa":"droga zbiorcza","kat":"powiatowa"},"geometry":{"type":"LineString","coordinates":[[15.2707,52.79331],[15.287367950793769,52.77141464528346]]}},{"type":"Feature","properties":{"numer":"22","klasa":"droga gĹ‚Ăłwna ruchu przyĹ›pieszonego","kat":"krajowa"},"geometry":{"type":"LineString","coordinates":[[15.291338131344501,52.77387554967057],[15.32353,52.79498]]}},{"type":"Feature","properties":{"numer":"1404F","klasa":"droga zbiorcza","kat":"powiatowa"},"geometry":{"type":"LineString","coordinates":[[15.2707,52.79331],[15.27166,52.79325],[15.27278,52.79307],[15.27565,52.79324],[15.32201,52.79655]]}},{"type":"Feature","properties":{"numer":"22","klasa":"droga gĹ‚Ăłwna ruchu przyĹ›pieszonego","kat":"krajowa"},"geometry":{"type":"LineString","coordinates":[[15.32353,52.79498],[15.32424,52.79515]]}},{"type":"Feature","properties":{"numer":"22","klasa":"droga gĹ‚Ăłwna ruchu przyĹ›pieszonego","kat":"krajowa"},"geometry":{"type":"LineString","coordinates":[[15.32424,52.79515],[15.32488,52.79536]]}},{"type":"Feature","properties":{"numer":"1404F","klasa":"droga zbiorcza","kat":"powiatowa"},"geometry":{"type":"LineString","coordinates":[[15.32416,52.79546],[15.32424,52.79515]]}},{"type":"Feature","properties":{"numer":"1404F","klasa":"droga zbiorcza","kat":"powiatowa"},"geometry":{"type":"LineString","coordinates":[[15.32201,52.79655],[15.32247,52.79646],[15.32416,52.79546]]}},{"type":"Feature","properties":{"numer":"1412F","klasa":"droga zbiorcza","kat":"powiatowa"},"geometry":{"type":"LineString","coordinates":[[15.361455607646397,52.80648754058184],[15.36146,52.80653]]}},{"type":"Feature","properties":{"numer":"1411F","klasa":"droga zbiorcza","kat":"powiatowa"},"geometry":{"type":"LineString","coordinates":[[15.32201,52.79655],[15.32197,52.79673],[15.32081,52.79743],[15.3197,52.80022],[15.31576,52.80245]]}},{"type":"Feature","properties":{"numer":"22","klasa":"droga gĹ‚Ăłwna ruchu przyĹ›pieszonego","kat":"krajowa"},"geometry":{"type":"LineString","coordinates":[[15.32488,52.79536],[15.32729,52.7956],[15.32841,52.79585],[15.35995,52.80592],[15.36146,52.80653]]}},{"type":"Feature","properties":{"numer":"1405F","klasa":"droga zbiorcza","kat":"powiatowa"},"geometry":{"type":"LineString","coordinates":[[15.390247104869372,52.817835491107566],[15.39027,52.81797]]}},{"type":"Feature","properties":{"numer":"22","klasa":"droga gĹ‚Ăłwna ruchu przyĹ›pieszonego","kat":"krajowa"},"geometry":{"type":"LineString","coordinates":[[15.36146,52.80653],[15.37259,52.81215],[15.39027,52.81797]]}},{"type":"Feature","properties":{"numer":"22","klasa":"droga gĹ‚Ăłwna ruchu przyĹ›pieszonego","kat":"krajowa"},"geometry":{"type":"LineString","coordinates":[[15.39027,52.81797],[15.39138,52.81834]]}},{"type":"Feature","properties":{"numer":"22","klasa":"droga gĹ‚Ăłwna ruchu przyĹ›pieszonego","kat":"krajowa"},"geometry":{"type":"LineString","coordinates":[[15.39138,52.81834],[15.39144,52.81836]]}},{"type":"Feature","properties":{"numer":"22","klasa":"droga gĹ‚Ăłwna ruchu przyĹ›pieszonego","kat":"krajowa"},"geometry":{"type":"LineString","coordinates":[[15.39144,52.81836],[15.39183,52.81843]]}},{"type":"Feature","properties":{"numer":"22","klasa":"droga gĹ‚Ăłwna ruchu przyĹ›pieszonego","kat":"krajowa"},"geometry":{"type":"LineString","coordinates":[[15.39183,52.81843],[15.39342,52.81849],[15.3942,52.81867]]}},{"type":"Feature","properties":{"numer":"1405F","klasa":"droga zbiorcza","kat":"powiatowa"},"geometry":{"type":"LineString","coordinates":[[15.39227,52.81913],[15.39228,52.81897],[15.39183,52.81843]]}},{"type":"Feature","properties":{"numer":"1405F","klasa":"droga zbiorcza","kat":"powiatowa"},"geometry":{"type":"LineString","coordinates":[[15.3942,52.81867],[15.39392,52.81881],[15.39227,52.81913]]}},{"type":"Feature","properties":{"numer":"1411F","klasa":"droga zbiorcza","kat":"powiatowa"},"geometry":{"type":"LineString","coordinates":[[15.31576,52.80245],[15.31529,52.80269],[15.31145,52.8041],[15.30743,52.8058],[15.30431,52.80733],[15.29779,52.81076],[15.29648,52.81101],[15.29372,52.81139],[15.2922,52.81139],[15.29048,52.81128],[15.29041,52.81134],[15.29117,52.81198],[15.2913,52.81225],[15.29063,52.81379],[15.29025,52.8171],[15.29033,52.81732],[15.29185,52.81902],[15.29179,52.8202],[15.29235,52.82117],[15.29202,52.82177],[15.29194,52.8222],[15.2922,52.82346],[15.29192,52.82377],[15.27981,52.83174],[15.27936,52.83224],[15.27857,52.83403]]}},{"type":"Feature","properties":{"numer":"1411F","klasa":"droga zbiorcza","kat":"powiatowa"},"geometry":{"type":"LineString","coordinates":[[15.27857,52.83403],[15.27742,52.83661]]}},{"type":"Feature","properties":{"numer":"1407F","klasa":"droga zbiorcza","kat":"powiatowa"},"geometry":{"type":"LineString","coordinates":[[15.35787,52.84537],[15.35832,52.84534],[15.35979,52.84614],[15.3607,52.84647]]}},{"type":"Feature","properties":{"numer":"1407F","klasa":"droga zbiorcza","kat":"powiatowa"},"geometry":{"type":"LineString","coordinates":[[15.3607,52.84647],[15.36142,52.84675]]}},{"type":"Feature","properties":{"numer":"1407F","klasa":"droga zbiorcza","kat":"powiatowa"},"geometry":{"type":"LineString","coordinates":[[15.36142,52.84675],[15.36249,52.84736]]}},{"type":"Feature","properties":{"numer":"1407F","klasa":"droga zbiorcza","kat":"powiatowa"},"geometry":{"type":"LineString","coordinates":[[15.36249,52.84736],[15.36654,52.84984]]}},{"type":"Feature","properties":{"numer":"1405F","klasa":"droga zbiorcza","kat":"powiatowa"},"geometry":{"type":"LineString","coordinates":[[15.36654,52.84984],[15.35053,52.8593]]}},{"type":"Feature","properties":{"numer":"1408F","klasa":"droga zbiorcza","kat":"powiatowa"},"geometry":{"type":"LineString","coordinates":[[15.33638,52.85984],[15.33648,52.85962],[15.34066,52.85698],[15.34133,52.85664],[15.3433,52.85597],[15.34359,52.85579],[15.34365,52.85565]]}},{"type":"Feature","properties":{"numer":"1408F","klasa":"droga zbiorcza","kat":"powiatowa"},"geometry":{"type":"LineString","coordinates":[[15.35053,52.8593],[15.34811,52.86082],[15.34328,52.86349],[15.34272,52.86365],[15.34113,52.86376],[15.34065,52.8637],[15.3395,52.86298],[15.33779,52.8614],[15.33638,52.85984]]}},{"type":"Feature","properties":{"numer":"1405F","klasa":"droga zbiorcza","kat":"powiatowa"},"geometry":{"type":"LineString","coordinates":[[15.35053,52.8593],[15.35025,52.86002],[15.34595,52.87942],[15.34699,52.88436],[15.34504,52.88478],[15.34292,52.88511],[15.34164,52.88518],[15.34049,52.88514],[15.33879,52.88534],[15.33757,52.88574],[15.3369,52.88587],[15.33593,52.88583],[15.3345,52.88535],[15.33391,52.88524],[15.33124,52.88498],[15.32497,52.88535],[15.32406,52.88554],[15.32192,52.88636],[15.31726,52.88797],[15.31669,52.88798],[15.31499,52.88724],[15.30853,52.88402],[15.30655,52.8831],[15.30607,52.88296],[15.29724,52.88077],[15.2949,52.88052],[15.29309,52.88015],[15.29206,52.88015],[15.2896,52.88055],[15.28913,52.88051],[15.28824,52.87978],[15.28692,52.87943],[15.28647,52.87919],[15.28549,52.87842],[15.28536,52.87803],[15.28545,52.87756],[15.28583,52.87694],[15.28709,52.87584],[15.28732,52.87547],[15.28733,52.87507],[15.28674,52.87425],[15.28715,52.87324],[15.28732,52.87252],[15.28731,52.87076],[15.28875,52.8677],[15.28853,52.86718],[15.2883,52.86699],[15.28619,52.86631],[15.28392,52.86462],[15.28193,52.86352],[15.28046,52.86283],[15.27646,52.86169],[15.26878,52.85968],[15.26958,52.85847],[15.2725,52.85589],[15.27233,52.85567],[15.26957,52.85405],[15.26825,52.85287],[15.26794,52.85243],[15.26772,52.85172],[15.26761,52.85047],[15.26776,52.85007],[15.26821,52.84956],[15.26828,52.84912],[15.26734,52.84724],[15.26725,52.84642],[15.26759,52.84615],[15.26924,52.84602],[15.27128,52.84539],[15.27178,52.8451],[15.27282,52.84427],[15.27371,52.84318],[15.27485,52.84217],[15.27742,52.83661]]}},{"type":"Feature","properties":{"numer":"119","klasa":"droga gĹ‚Ăłwna","kat":"wojewodzka"},"geometry":{"type":"LineString","coordinates":[[15.11475,52.78826],[15.115857978971965,52.78741272196262]]}},{"type":"Feature","properties":{"numer":"119","klasa":"droga gĹ‚Ăłwna","kat":"wojewodzka"},"geometry":{"type":"LineString","coordinates":[[15.112327682403478,52.78998188841199],[15.11475,52.78826]]}},{"type":"Feature","properties":{"numer":"E65,S3","klasa":"droga ekspresowa","kat":"krajowa"},"geometry":{"type":"LineString","coordinates":[[15.06750653932697,52.8296052475684],[15.07915,52.81901],[15.08153,52.81707],[15.08384,52.81541],[15.08689,52.8135],[15.08956,52.81208],[15.09737,52.80818],[15.10062,52.8064],[15.10382,52.80438],[15.1071,52.80193],[15.10914,52.80018],[15.11125,52.79809],[15.11326,52.79573],[15.11422,52.79443],[15.11614,52.79137],[15.118089970897223,52.787976356287174]]}},{"type":"Feature","properties":{"numer":"E65,S3","klasa":"droga ekspresowa","kat":"krajowa"},"geometry":{"type":"LineString","coordinates":[[15.119748565066763,52.78508981183485],[15.120539972927025,52.78371248035104]]}},{"type":"Feature","properties":{"numer":"1406F","klasa":"droga zbiorcza","kat":"powiatowa"},"geometry":{"type":"LineString","coordinates":[[15.2147,52.79106],[15.21581,52.7904],[15.21707,52.79009],[15.21816,52.79025],[15.2197,52.79085],[15.22038,52.79098],[15.22092,52.79095],[15.22266,52.79053],[15.22375,52.79052],[15.22528,52.79081],[15.22995,52.79205],[15.2371,52.7925],[15.24425,52.79379],[15.24466,52.79392],[15.24513,52.79424],[15.24702,52.79713],[15.24742,52.79737],[15.24794,52.79748],[15.2606,52.79524],[15.26539,52.79448],[15.26777,52.794],[15.2707,52.79331]]}},{"type":"Feature","properties":{"numer":"1410F","klasa":"droga zbiorcza","kat":"powiatowa"},"geometry":{"type":"LineString","coordinates":[[15.21124,52.79004],[15.21003,52.79042],[15.20523,52.79167],[15.19918,52.79351],[15.19474,52.7959],[15.19243,52.79747],[15.19031,52.79868],[15.18925,52.79944],[15.18806,52.80009],[15.18775,52.80013],[15.18722,52.80003],[15.18611,52.7994],[15.18529,52.79952],[15.18498,52.79948],[15.1835,52.79827]]}},{"type":"Feature","properties":{"numer":"151","klasa":"droga zbiorcza","kat":"wojewodzka"},"geometry":{"type":"LineString","coordinates":[[15.21814,52.80399],[15.21881,52.80067],[15.21871,52.79985],[15.21689,52.79497],[15.21435,52.79132]]}},{"type":"Feature","properties":{"numer":"1410F","klasa":"droga zbiorcza","kat":"powiatowa"},"geometry":{"type":"LineString","coordinates":[[15.1835,52.79827],[15.18336,52.79821]]}},{"type":"Feature","properties":{"numer":"1405F","klasa":"droga zbiorcza","kat":"powiatowa"},"geometry":{"type":"LineString","coordinates":[[15.27742,52.83661],[15.26665,52.83374],[15.26599,52.83332],[15.25968,52.82841],[15.25319,52.82697],[15.24851,52.82267],[15.24842,52.82222],[15.24853,52.82098],[15.24772,52.81884],[15.24742,52.81853],[15.2374,52.81301],[15.22714,52.80941],[15.22182,52.80587],[15.21987,52.80494],[15.21814,52.80399]]}},{"type":"Feature","properties":{"numer":"151","klasa":"droga zbiorcza","kat":"wojewodzka"},"geometry":{"type":"LineString","coordinates":[[15.20453,52.865],[15.19985,52.8561],[15.19956,52.85527],[15.20015,52.84234],[15.20045,52.84161],[15.20602,52.83272],[15.20676,52.83195],[15.21289,52.82644],[15.21363,52.82551],[15.21814,52.80399]]}},{"type":"Feature","properties":{"numer":"151","klasa":"droga gĹ‚Ăłwna","kat":"wojewodzka"},"geometry":{"type":"LineString","coordinates":[[15.204547461750956,52.86503882941989],[15.20453,52.865]]}},{"type":"Feature","properties":{"numer":"22","klasa":"droga gĹ‚Ăłwna ruchu przyĹ›pieszonego","kat":"krajowa"},"geometry":{"type":"LineString","coordinates":[[15.3942,52.81867],[15.41135,52.8239],[15.41243,52.82442],[15.41411,52.82573],[15.41493,52.8261],[15.41587,52.82622],[15.41755,52.82605],[15.4187,52.82604],[15.42054,52.82614],[15.4215,52.82628],[15.422985760173576,52.826704246641775]]}},{"type":"Feature","properties":{"numer":"1405F","klasa":"droga zbiorcza","kat":"powiatowa"},"geometry":{"type":"LineString","coordinates":[[15.39227,52.81913],[15.39118,52.81956],[15.38896,52.82076],[15.38391,52.82396],[15.3808,52.82633],[15.37977,52.82731],[15.37628,52.83202],[15.37592,52.83269],[15.37624,52.8334],[15.37757,52.83483],[15.37819,52.83565],[15.37827,52.83589],[15.37819,52.83625],[15.37561,52.84002],[15.3699,52.84786],[15.36654,52.84984]]}},{"type":"Feature","properties":{"numer":"1407F","klasa":"droga zbiorcza","kat":"powiatowa"},"geometry":{"type":"LineString","coordinates":[[15.36654,52.84984],[15.3841,52.86068],[15.38553,52.86165],[15.38632,52.86207],[15.4039,52.87294],[15.41767,52.88159],[15.42007,52.88321],[15.42231,52.88544],[15.42350100542776,52.88646227965883]]}}]}