{"type":"FeatureCollection","features":[{"type":"Feature","properties":{"numer":"1292F","klasa":"","kat":"powiatowa"},"geometry":{"type":"LineString","coordinates":[[14.87904,52.53663],[14.87937,52.53435],[14.87926,52.53371],[14.87643,52.53037],[14.87543,52.52845],[14.87371,52.52442],[14.87374,52.52426],[14.87302,52.52282],[14.87219,52.52057],[14.871,52.51859],[14.87047,52.51798],[14.86867,52.51688],[14.86775,52.51589],[14.86753,52.51575],[14.86693,52.51558],[14.865913001365696,52.51293779766578]]}},{"type":"Feature","properties":{"numer":"134","klasa":"droga zbiorcza","kat":"wojewodzka"},"geometry":{"type":"LineString","coordinates":[[14.94670499865748,52.545882253027564],[14.930668078430742,52.52927437176365]]}},{"type":"Feature","properties":{"numer":"1292F","klasa":"","kat":"powiatowa"},"geometry":{"type":"LineString","coordinates":[[14.87942,52.53679],[14.87904,52.53663]]}},{"type":"Feature","properties":{"numer":"1292F","klasa":"","kat":"powiatowa"},"geometry":{"type":"LineString","coordinates":[[14.87948,52.53682],[14.87942,52.53679]]}},{"type":"Feature","properties":{"numer":"1291F","klasa":"droga zbiorcza","kat":"powiatowa"},"geometry":{"type":"LineString","coordinates":[[14.80553,52.56336],[14.80572,52.56307],[14.80569,52.56269],[14.80693,52.55991],[14.80821,52.55875],[14.80907,52.55768],[14.80978,52.55712],[14.81001,52.55676],[14.80981,52.5558],[14.80993,52.55184],[14.8121,52.54482],[14.82257,52.53053],[14.82447,52.52754],[14.82547,52.52538],[14.82529,52.52175],[14.82504,52.52127],[14.8235,52.51938],[14.82327,52.51893],[14.82327,52.51849],[14.82354,52.51696],[14.82386,52.51628],[14.82424,52.5159],[14.82528,52.51518],[14.82546,52.5148],[14.82707,52.5085],[14.827212443839347,52.50818978897209]]}},{"type":"Feature","properties":{"numer":"22","klasa":"droga gĹ‚Ăłwna ruchu przyĹ›pieszonego","kat":"krajowa"},"geometry":{"type":"LineString","coordinates":[[14.780637555659935,52.54800612531705],[14.78066,52.54802]]}},{"type":"Feature","properties":{"numer":"22","klasa":"droga gĹ‚Ăłwna ruchu przyĹ›pieszonego","kat":"krajowa"},"geometry":{"type":"LineString","coordinates":[[14.78064,52.54803],[14.79776,52.55869],[14.80553,52.56336]]}},{"type":"Feature","properties":{"numer":"22","klasa":"droga gĹ‚Ăłwna ruchu przyĹ›pieszonego","kat":"krajowa"},"geometry":{"type":"LineString","coordinates":[[14.86705,52.55917],[14.85327,52.56061],[14.8237,52.56386],[14.82094,52.56393],[14.80787,52.56372]]}},{"type":"Feature","properties":{"numer":"22","klasa":"droga gĹ‚Ăłwna ruchu przyĹ›pieszonego","kat":"krajowa"},"geometry":{"type":"LineString","coordinates":[[14.80763,52.56371],[14.8064,52.56357],[14.80553,52.56336]]}},{"type":"Feature","properties":{"numer":"22","klasa":"droga gĹ‚Ăłwna ruchu przyĹ›pieszonego","kat":"krajowa"},"geometry":{"type":"LineString","coordinates":[[14.80763,52.56371],[14.80787,52.56372]]}},{"type":"Feature","properties":{"numer":"005132F","klasa":"droga lokalna","kat":"powiatowa"},"geometry":{"type":"LineString","coordinates":[[14.80553,52.56664],[14.80494,52.56658]]}},{"type":"Feature","properties":{"numer":"1285F","klasa":"droga zbiorcza","kat":"powiatowa"},"geometry":{"type":"LineString","coordinates":[[14.8408,52.56652],[14.84088,52.56674]]}},{"type":"Feature","properties":{"numer":"005443F","klasa":"droga lokalna","kat":"powiatowa"},"geometry":{"type":"LineString","coordinates":[[14.80474,52.56769],[14.80494,52.56658]]}},{"type":"Feature","properties":{"numer":"005114F","klasa":"droga lokalna","kat":"powiatowa"},"geometry":{"type":"LineString","coordinates":[[14.80559,52.56763],[14.80547,52.56718],[14.80553,52.56664]]}},{"type":"Feature","properties":{"numer":"005443F","klasa":"droga lokalna","kat":"powiatowa"},"geometry":{"type":"LineString","coordinates":[[14.80466,52.56815],[14.80474,52.56769]]}},{"type":"Feature","properties":{"numer":"005114F","klasa":"droga lokalna","kat":"powiatowa"},"geometry":{"type":"LineString","coordinates":[[14.80588,52.56831],[14.80559,52.56763]]}},{"type":"Feature","properties":{"numer":"005443F","klasa":"droga lokalna","kat":"powiatowa"},"geometry":{"type":"LineString","coordinates":[[14.80454,52.5682],[14.80466,52.56815]]}},{"type":"Feature","properties":{"numer":"1285F","klasa":"droga zbiorcza","kat":"powiatowa"},"geometry":{"type":"LineString","coordinates":[[14.80695,52.57006],[14.8071,52.57017],[14.80738,52.57019],[14.80908,52.57006],[14.81017,52.56985],[14.81111,52.56942],[14.81256,52.56906],[14.82913,52.56761],[14.83121,52.56735],[14.83544,52.56661],[14.83739,52.56663],[14.84034,52.5664],[14.84063,52.56643],[14.8408,52.56652]]}},{"type":"Feature","properties":{"numer":"005114F","klasa":"droga lokalna","kat":"powiatowa"},"geometry":{"type":"LineString","coordinates":[[14.80626,52.56912],[14.80588,52.56831]]}},{"type":"Feature","properties":{"numer":"1285F","klasa":"droga zbiorcza","kat":"powiatowa"},"geometry":{"type":"LineString","coordinates":[[14.80454,52.5682],[14.80434,52.56841],[14.80447,52.56973],[14.80489,52.56986],[14.80662,52.56988]]}},{"type":"Feature","properties":{"numer":"005114F","klasa":"droga lokalna","kat":"powiatowa"},"geometry":{"type":"LineString","coordinates":[[14.80662,52.56988],[14.80626,52.56912]]}},{"type":"Feature","properties":{"numer":"1285F","klasa":"droga zbiorcza","kat":"powiatowa"},"geometry":{"type":"LineString","coordinates":[[14.80662,52.56988],[14.80683,52.56989],[14.80695,52.57]]}},{"type":"Feature","properties":{"numer":"1285F","klasa":"droga zbiorcza","kat":"powiatowa"},"geometry":{"type":"LineString","coordinates":[[14.80695,52.57],[14.80695,52.57006]]}},{"type":"Feature","properties":{"numer":"1285F","klasa":"droga zbiorcza","kat":"powiatowa"},"geometry":{"type":"LineString","coordinates":[[14.84088,52.56674],[14.84373,52.57471]]}},{"type":"Feature","properties":{"numer":"1285F","klasa":"droga zbiorcza","kat":"powiatowa"},"geometry":{"type":"LineString","coordinates":[[14.84373,52.57471],[14.84376,52.57477]]}},{"type":"Feature","properties":{"numer":"1285F","klasa":"droga zbiorcza","kat":"powiatowa"},"geometry":{"type":"LineString","coordinates":[[14.84376,52.57477],[14.84742,52.58487]]}},{"type":"Feature","properties":{"numer":"1285F","klasa":"droga zbiorcza","kat":"powiatowa"},"geometry":{"type":"LineString","coordinates":[[14.84742,52.58487],[14.84746,52.58494]]}},{"type":"Feature","properties":{"numer":"1292F","klasa":"","kat":"powiatowa"},"geometry":{"type":"LineString","coordinates":[[14.88021,52.53721],[14.87948,52.53682]]}},{"type":"Feature","properties":{"numer":"1292F","klasa":"","kat":"powiatowa"},"geometry":{"type":"LineString","coordinates":[[14.88193,52.53805],[14.8815,52.53772],[14.88093,52.53759],[14.88021,52.53721]]}},{"type":"Feature","properties":{"numer":"1292F","klasa":"","kat":"powiatowa"},"geometry":{"type":"LineString","coordinates":[[14.86705,52.55917],[14.86838,52.55566],[14.86866,52.55543],[14.86971,52.55492],[14.86992,52.55463],[14.87051,52.54847],[14.8707,52.548],[14.87251,52.54617],[14.87552,52.54368],[14.87937,52.53995],[14.88087,52.53868],[14.88193,52.53805]]}},{"type":"Feature","properties":{"numer":"22","klasa":"droga gĹ‚Ăłwna ruchu przyĹ›pieszonego","kat":"krajowa"},"geometry":{"type":"LineString","coordinates":[[14.88292,52.56095],[14.87612,52.55964],[14.87412,52.55933],[14.87108,52.55909],[14.86944,52.55906],[14.86705,52.55917]]}},{"type":"Feature","properties":{"numer":"22","klasa":"droga gĹ‚Ăłwna ruchu przyĹ›pieszonego","kat":"krajowa"},"geometry":{"type":"LineString","coordinates":[[14.88745,52.56104],[14.88441,52.56105],[14.88292,52.56095]]}},{"type":"Feature","properties":{"numer":"22","klasa":"droga gĹ‚Ăłwna ruchu przyĹ›pieszonego","kat":"krajowa"},"geometry":{"type":"LineString","coordinates":[[14.88975,52.56103],[14.88745,52.56104]]}},{"type":"Feature","properties":{"numer":"22","klasa":"droga gĹ‚Ăłwna ruchu przyĹ›pieszonego","kat":"krajowa"},"geometry":{"type":"LineString","coordinates":[[14.88975,52.56103],[14.90208,52.56097],[14.90835,52.56137]]}},{"type":"Feature","properties":{"numer":"22","klasa":"droga gĹ‚Ăłwna ruchu przyĹ›pieszonego","kat":"krajowa"},"geometry":{"type":"LineString","coordinates":[[14.90835,52.56137],[14.90845,52.56138]]}},{"type":"Feature","properties":{"numer":"22","klasa":"droga gĹ‚Ăłwna ruchu przyĹ›pieszonego","kat":"krajowa"},"geometry":{"type":"LineString","coordinates":[[14.90845,52.56138],[14.90855,52.56138]]}},{"type":"Feature","properties":{"numer":"005149F","klasa":"droga lokalna","kat":"powiatowa"},"geometry":{"type":"LineString","coordinates":[[14.90863,52.56147],[14.90845,52.56138]]}},{"type":"Feature","properties":{"numer":"22","klasa":"droga gĹ‚Ăłwna ruchu przyĹ›pieszonego","kat":"krajowa"},"geometry":{"type":"LineString","coordinates":[[14.88824,52.562],[14.88765,52.56167],[14.88745,52.56104]]}},{"type":"Feature","properties":{"numer":"005149F","klasa":"droga lokalna","kat":"powiatowa"},"geometry":{"type":"LineString","coordinates":[[14.90902,52.5617],[14.90863,52.56147]]}},{"type":"Feature","properties":{"numer":"22","klasa":"droga gĹ‚Ăłwna ruchu przyĹ›pieszonego","kat":"krajowa"},"geometry":{"type":"LineString","coordinates":[[14.90855,52.56138],[14.90989,52.56146],[14.9112,52.56144],[14.91727,52.56098],[14.92028,52.56108],[14.92216,52.56134],[14.92417,52.5618],[14.92971,52.56374]]}},{"type":"Feature","properties":{"numer":"005149F","klasa":"droga lokalna","kat":"powiatowa"},"geometry":{"type":"LineString","coordinates":[[14.91128,52.56304],[14.90902,52.5617]]}},{"type":"Feature","properties":{"numer":"005159F","klasa":"droga lokalna","kat":"powiatowa"},"geometry":{"type":"LineString","coordinates":[[14.89319,52.56296],[14.88824,52.562]]}},{"type":"Feature","properties":{"numer":"005149F","klasa":"droga lokalna","kat":"powiatowa"},"geometry":{"type":"LineString","coordinates":[[14.91213,52.56362],[14.91128,52.56304]]}},{"type":"Feature","properties":{"numer":"005159F","klasa":"droga lokalna","kat":"powiatowa"},"geometry":{"type":"LineString","coordinates":[[14.89778,52.56385],[14.89319,52.56296]]}},{"type":"Feature","properties":{"numer":"22","klasa":"droga gĹ‚Ăłwna ruchu przyĹ›pieszonego","kat":"krajowa"},"geometry":{"type":"LineString","coordinates":[[14.92971,52.56374],[14.93125,52.56411]]}},{"type":"Feature","properties":{"numer":"005159F","klasa":"droga lokalna","kat":"powiatowa"},"geometry":{"type":"LineString","coordinates":[[14.89939,52.56416],[14.89778,52.56385]]}},{"type":"Feature","properties":{"numer":"22","klasa":"droga gĹ‚Ăłwna ruchu przyĹ›pieszonego","kat":"krajowa"},"geometry":{"type":"LineString","coordinates":[[14.94761,52.56408],[14.94752,52.56408]]}},{"type":"Feature","properties":{"numer":"22","klasa":"droga gĹ‚Ăłwna ruchu przyĹ›pieszonego","kat":"krajowa"},"geometry":{"type":"LineString","coordinates":[[14.93125,52.56411],[14.93188,52.56424]]}},{"type":"Feature","properties":{"numer":"22","klasa":"droga gĹ‚Ăłwna ruchu przyĹ›pieszonego","kat":"krajowa"},"geometry":{"type":"LineString","coordinates":[[14.93109,52.56425],[14.93125,52.56411]]}},{"type":"Feature","properties":{"numer":"22","klasa":"droga gĹ‚Ăłwna ruchu przyĹ›pieszonego","kat":"krajowa"},"geometry":{"type":"LineString","coordinates":[[14.92971,52.56374],[14.9304,52.56412],[14.93052,52.56442],[14.9304,52.56465]]}},{"type":"Feature","properties":{"numer":"22","klasa":"droga gĹ‚Ăłwna ruchu przyĹ›pieszonego","kat":"krajowa"},"geometry":{"type":"LineString","coordinates":[[14.93422,52.56458],[14.93332,52.56438],[14.93315,52.56428],[14.93296,52.56396],[14.93284,52.56396],[14.93256,52.56421],[14.93188,52.56424]]}},{"type":"Feature","properties":{"numer":"005159F","klasa":"droga lokalna","kat":"powiatowa"},"geometry":{"type":"LineString","coordinates":[[14.90073,52.56442],[14.89939,52.56416]]}},{"type":"Feature","properties":{"numer":"22","klasa":"droga gĹ‚Ăłwna ruchu przyĹ›pieszonego","kat":"krajowa"},"geometry":{"type":"LineString","coordinates":[[14.93422,52.56458],[14.93543,52.56465],[14.93768,52.56462],[14.94752,52.56408]]}},{"type":"Feature","properties":{"numer":"22","klasa":"droga gĹ‚Ăłwna ruchu przyĹ›pieszonego","kat":"krajowa"},"geometry":{"type":"LineString","coordinates":[[14.93188,52.56424],[14.93422,52.56458]]}},{"type":"Feature","properties":{"numer":"","klasa":"droga lokalna","kat":"gminna"},"geometry":{"type":"LineString","coordinates":[[14.9306,52.56464],[14.93109,52.56425]]}},{"type":"Feature","properties":{"numer":"22","klasa":"droga gĹ‚Ăłwna ruchu przyĹ›pieszonego","kat":"krajowa"},"geometry":{"type":"LineString","coordinates":[[14.954752646471372,52.563921494673764],[14.95461,52.5639],[14.9521,52.56383],[14.94761,52.56408]]}},{"type":"Feature","properties":{"numer":"22","klasa":"droga gĹ‚Ăłwna ruchu przyĹ›pieszonego","kat":"krajowa"},"geometry":{"type":"LineString","coordinates":[[14.9306,52.56464],[14.932,52.56444],[14.93422,52.56458]]}},{"type":"Feature","properties":{"numer":"005159F","klasa":"droga lokalna","kat":"powiatowa"},"geometry":{"type":"LineString","coordinates":[[14.90194,52.56466],[14.90073,52.56442]]}},{"type":"Feature","properties":{"numer":"005149F","klasa":"droga lokalna","kat":"powiatowa"},"geometry":{"type":"LineString","coordinates":[[14.91414,52.5656],[14.91356,52.5649],[14.91213,52.56362]]}},{"type":"Feature","properties":{"numer":"22","klasa":"droga gĹ‚Ăłwna ruchu przyĹ›pieszonego","kat":"krajowa"},"geometry":{"type":"LineString","coordinates":[[14.9304,52.56465],[14.9306,52.56464]]}},{"type":"Feature","properties":{"numer":"","klasa":"droga lokalna","kat":"gminna"},"geometry":{"type":"LineString","coordinates":[[14.93044,52.56474],[14.9306,52.56464]]}},{"type":"Feature","properties":{"numer":"22","klasa":"droga gĹ‚Ăłwna ruchu przyĹ›pieszonego","kat":"krajowa"},"geometry":{"type":"LineString","coordinates":[[14.9304,52.56465],[14.93044,52.56474]]}},{"type":"Feature","properties":{"numer":"005159F","klasa":"droga lokalna","kat":"powiatowa"},"geometry":{"type":"LineString","coordinates":[[14.90321,52.56491],[14.90194,52.56466]]}},{"type":"Feature","properties":{"numer":"","klasa":"droga lokalna","kat":"gminna"},"geometry":{"type":"LineString","coordinates":[[14.93015,52.5649],[14.93044,52.56474]]}},{"type":"Feature","properties":{"numer":"005159F","klasa":"droga lokalna","kat":"powiatowa"},"geometry":{"type":"LineString","coordinates":[[14.90444,52.56511],[14.90321,52.56491]]}},{"type":"Feature","properties":{"numer":"005159F","klasa":"droga lokalna","kat":"powiatowa"},"geometry":{"type":"LineString","coordinates":[[14.90645,52.56543],[14.90444,52.56511]]}},{"type":"Feature","properties":{"numer":"005159F","klasa":"droga lokalna","kat":"powiatowa"},"geometry":{"type":"LineString","coordinates":[[14.92865,52.56519],[14.92128,52.56571]]}},{"type":"Feature","properties":{"numer":"005159F","klasa":"droga lokalna","kat":"powiatowa"},"geometry":{"type":"LineString","coordinates":[[14.90791,52.56566],[14.90645,52.56543]]}},{"type":"Feature","properties":{"numer":"005159F","klasa":"droga lokalna","kat":"powiatowa"},"geometry":{"type":"LineString","coordinates":[[14.92128,52.56571],[14.92016,52.56592]]}},{"type":"Feature","properties":{"numer":"005159F","klasa":"droga lokalna","kat":"powiatowa"},"geometry":{"type":"LineString","coordinates":[[14.91003,52.566],[14.90791,52.56566]]}},{"type":"Feature","properties":{"numer":"005159F","klasa":"droga lokalna","kat":"powiatowa"},"geometry":{"type":"LineString","coordinates":[[14.92016,52.56592],[14.91969,52.56609]]}},{"type":"Feature","properties":{"numer":"005159F","klasa":"droga lokalna","kat":"powiatowa"},"geometry":{"type":"LineString","coordinates":[[14.91141,52.56622],[14.91003,52.566]]}},{"type":"Feature","properties":{"numer":"005149F","klasa":"droga lokalna","kat":"powiatowa"},"geometry":{"type":"LineString","coordinates":[[14.91423,52.56668],[14.91414,52.5656]]}},{"type":"Feature","properties":{"numer":"005159F","klasa":"droga lokalna","kat":"powiatowa"},"geometry":{"type":"LineString","coordinates":[[14.91969,52.56609],[14.91904,52.56631]]}},{"type":"Feature","properties":{"numer":"005159F","klasa":"droga lokalna","kat":"powiatowa"},"geometry":{"type":"LineString","coordinates":[[14.91423,52.56668],[14.91141,52.56622]]}},{"type":"Feature","properties":{"numer":"005159F","klasa":"droga lokalna","kat":"powiatowa"},"geometry":{"type":"LineString","coordinates":[[14.91904,52.56631],[14.9171,52.56661]]}},{"type":"Feature","properties":{"numer":"005159F","klasa":"droga lokalna","kat":"powiatowa"},"geometry":{"type":"LineString","coordinates":[[14.9171,52.56661],[14.91656,52.56666]]}},{"type":"Feature","properties":{"numer":"005159F","klasa":"droga lokalna","kat":"powiatowa"},"geometry":{"type":"LineString","coordinates":[[14.91656,52.56666],[14.91536,52.56677]]}},{"type":"Feature","properties":{"numer":"005159F","klasa":"droga lokalna","kat":"powiatowa"},"geometry":{"type":"LineString","coordinates":[[14.91536,52.56677],[14.91423,52.56668]]}},{"type":"Feature","properties":{"numer":"1289F","klasa":"droga zbiorcza","kat":"powiatowa"},"geometry":{"type":"LineString","coordinates":[[14.91423,52.56668],[14.91435,52.56719],[14.91469,52.56772],[14.91497,52.56847],[14.91526,52.5696],[14.91523,52.56984],[14.91454,52.57041],[14.91431,52.57072]]}},{"type":"Feature","properties":{"numer":"1289F","klasa":"droga zbiorcza","kat":"powiatowa"},"geometry":{"type":"LineString","coordinates":[[14.91431,52.57072],[14.91425,52.57084]]}},{"type":"Feature","properties":{"numer":"1289F","klasa":"droga zbiorcza","kat":"powiatowa"},"geometry":{"type":"LineString","coordinates":[[14.91428,52.57134],[14.91418,52.57113],[14.91425,52.57084]]}},{"type":"Feature","properties":{"numer":"1289F","klasa":"droga zbiorcza","kat":"powiatowa"},"geometry":{"type":"LineString","coordinates":[[14.91437,52.57146],[14.91428,52.57134]]}},{"type":"Feature","properties":{"numer":"1289F","klasa":"droga zbiorcza","kat":"powiatowa"},"geometry":{"type":"LineString","coordinates":[[14.92235,52.58691],[14.92258,52.5865],[14.92259,52.58621],[14.91715,52.57768],[14.91559,52.57286],[14.91437,52.57146]]}},{"type":"Feature","properties":{"numer":"1285F","klasa":"droga zbiorcza","kat":"powiatowa"},"geometry":{"type":"LineString","coordinates":[[14.84746,52.58494],[14.84747,52.58499],[14.8722,52.59017]]}},{"type":"Feature","properties":{"numer":"1285F","klasa":"droga zbiorcza","kat":"powiatowa"},"geometry":{"type":"LineString","coordinates":[[14.8722,52.59017],[14.88521,52.59287]]}},{"type":"Feature","properties":{"numer":"1289F","klasa":"droga zbiorcza","kat":"powiatowa"},"geometry":{"type":"LineString","coordinates":[[14.91513,52.5976],[14.91627,52.5968],[14.92235,52.58691]]}},{"type":"Feature","properties":{"numer":"1285F","klasa":"droga zbiorcza","kat":"powiatowa"},"geometry":{"type":"LineString","coordinates":[[14.88521,52.59287],[14.88533,52.5929]]}},{"type":"Feature","properties":{"numer":"1284F","klasa":"","kat":"powiatowa"},"geometry":{"type":"LineString","coordinates":[[14.935680370620705,52.59324542927952],[14.93395,52.59307],[14.93249,52.59248],[14.931,52.59212],[14.92895,52.59061],[14.92746,52.59023],[14.92637,52.58974],[14.92527,52.58899],[14.9239,52.58784],[14.92235,52.58691]]}},{"type":"Feature","properties":{"numer":"1285F","klasa":"droga zbiorcza","kat":"powiatowa"},"geometry":{"type":"LineString","coordinates":[[14.88533,52.5929],[14.8958,52.59503],[14.89837,52.59535],[14.89877,52.5955],[14.90528,52.59698],[14.90819,52.59737],[14.90956,52.59796],[14.91202,52.59943]]}},{"type":"Feature","properties":{"numer":"1285F,1289F","klasa":"droga zbiorcza","kat":"powiatowa"},"geometry":{"type":"LineString","coordinates":[[14.91373,52.59841],[14.91513,52.5976]]}},{"type":"Feature","properties":{"numer":"1285F,1289F","klasa":"droga zbiorcza","kat":"powiatowa"},"geometry":{"type":"LineString","coordinates":[[14.91358,52.59851],[14.91373,52.59841]]}},{"type":"Feature","properties":{"numer":"1285F,1289F","klasa":"droga zbiorcza","kat":"powiatowa"},"geometry":{"type":"LineString","coordinates":[[14.91202,52.59943],[14.91358,52.59851]]}},{"type":"Feature","properties":{"numer":"1286F","klasa":"","kat":"powiatowa"},"geometry":{"type":"LineString","coordinates":[[14.89388,52.60912],[14.88414,52.6073],[14.88276,52.60697],[14.8722,52.59017]]}},{"type":"Feature","properties":{"numer":"1289F","klasa":"droga zbiorcza","kat":"powiatowa"},"geometry":{"type":"LineString","coordinates":[[14.89767,52.60333],[14.91076,52.60009],[14.91119,52.59993],[14.91202,52.59943]]}},{"type":"Feature","properties":{"numer":"1289F","klasa":"droga zbiorcza","kat":"powiatowa"},"geometry":{"type":"LineString","coordinates":[[14.89757,52.60336],[14.89767,52.60333]]}},{"type":"Feature","properties":{"numer":"1289F","klasa":"droga zbiorcza","kat":"powiatowa"},"geometry":{"type":"LineString","coordinates":[[14.89388,52.60912],[14.89409,52.6049],[14.89422,52.6045],[14.89461,52.60414],[14.89757,52.60336]]}},{"type":"Feature","properties":{"numer":"1285F","klasa":"droga zbiorcza","kat":"powiatowa"},"geometry":{"type":"LineString","coordinates":[[14.91513,52.5976],[14.91994,52.60175],[14.92004,52.60197],[14.92016,52.60356],[14.92032,52.60407],[14.92082,52.60467],[14.92361,52.6066],[14.92464,52.60721],[14.92605,52.60799],[14.9292,52.60944],[14.92981,52.60988],[14.93066,52.61077],[14.93206,52.6126],[14.93244,52.6132],[14.93372,52.61592],[14.933721522362985,52.61592153986142]]}},{"type":"Feature","properties":{"numer":"1286F","klasa":"","kat":"powiatowa"},"geometry":{"type":"LineString","coordinates":[[14.90254,52.61078],[14.89388,52.60912]]}},{"type":"Feature","properties":{"numer":"1286F","klasa":"","kat":"powiatowa"},"geometry":{"type":"LineString","coordinates":[[14.90254,52.61078],[14.90257,52.61078]]}},{"type":"Feature","properties":{"numer":"1286F","klasa":"","kat":"powiatowa"},"geometry":{"type":"LineString","coordinates":[[14.90257,52.61078],[14.9026,52.61079]]}},{"type":"Feature","properties":{"numer":"1286F","klasa":"","kat":"powiatowa"},"geometry":{"type":"LineString","coordinates":[[14.9026,52.61079],[14.90273,52.61081]]}},{"type":"Feature","properties":{"numer":"1289F","klasa":"droga zbiorcza","kat":"powiatowa"},"geometry":{"type":"LineString","coordinates":[[14.89356,52.61729],[14.89388,52.60912]]}},{"type":"Feature","properties":{"numer":"1286F","klasa":"","kat":"powiatowa"},"geometry":{"type":"LineString","coordinates":[[14.90273,52.61081],[14.93065,52.61609]]}},{"type":"Feature","properties":{"numer":"1286F","klasa":"","kat":"powiatowa"},"geometry":{"type":"LineString","coordinates":[[14.93065,52.61609],[14.93083,52.61612]]}},{"type":"Feature","properties":{"numer":"1286F","klasa":"","kat":"powiatowa"},"geometry":{"type":"LineString","coordinates":[[14.93083,52.61612],[14.93100112741058,52.61615094857426]]}},{"type":"Feature","properties":{"numer":"1289F","klasa":"droga zbiorcza","kat":"powiatowa"},"geometry":{"type":"LineString","coordinates":[[14.89356,52.61736551724138],[14.89356,52.61729]]}}]}