{"type":"FeatureCollection","features":[{"type":"Feature","properties":{"numer":"1099F","klasa":"droga zbiorcza","kat":"powiatowa"},"geometry":{"type":"LineString","coordinates":[[14.903168619876142,51.74711774402831],[14.90318,51.74718],[14.90338,51.74734],[14.905367232684355,51.74797198212577]]}},{"type":"Feature","properties":{"numer":"1099F","klasa":"droga zbiorcza","kat":"powiatowa"},"geometry":{"type":"LineString","coordinates":[[14.908177422602575,51.7483751472439],[14.90856,51.74853],[14.90952,51.74914],[14.90994,51.74929],[14.91381,51.74961],[14.91476,51.74985],[14.91551,51.75018],[14.91722,51.75014],[14.91876,51.75098],[14.91975,51.75163],[14.92117,51.7532],[14.92381,51.75563],[14.92675,51.75778],[14.9275,51.75842],[14.93107,51.76191],[14.93115,51.76216],[14.93091,51.76383],[14.93118,51.76541],[14.93125,51.76658],[14.93226,51.76892],[14.9322,51.76929],[14.93174,51.77003],[14.93348,51.77051],[14.94348,51.77396],[14.94572,51.77497],[14.94823,51.77541],[14.95014,51.77564],[14.95381,51.7759],[14.95598,51.77583],[14.95706,51.77586],[14.95797,51.77602],[14.96017,51.77686]]}},{"type":"Feature","properties":{"numer":"1125F","klasa":"","kat":"powiatowa"},"geometry":{"type":"LineString","coordinates":[[14.95634,51.76025],[14.95597,51.75958],[14.95601,51.75935],[14.95732,51.75807],[14.9577,51.75748],[14.95792,51.75667],[14.957827838474172,51.75502338073854]]}},{"type":"Feature","properties":{"numer":"3202F","klasa":"","kat":"powiatowa"},"geometry":{"type":"LineString","coordinates":[[14.95634,51.76025],[14.95638,51.76002],[14.9566,51.7599],[14.95952,51.76022],[14.95974,51.76097],[14.96024,51.76161],[14.96234,51.76301],[14.96352,51.7644],[14.964,51.765],[14.96433,51.76627],[14.96571,51.76731],[14.9664,51.76796],[14.96763,51.7696],[14.96794,51.77045],[14.96814,51.7715],[14.96962,51.77412],[14.96959,51.77506],[14.96914,51.77584]]}},{"type":"Feature","properties":{"numer":"101832F","klasa":"droga lokalna","kat":"powiatowa"},"geometry":{"type":"LineString","coordinates":[[14.96914,51.77584],[14.96903,51.77643]]}},{"type":"Feature","properties":{"numer":"101832F","klasa":"droga lokalna","kat":"powiatowa"},"geometry":{"type":"LineString","coordinates":[[14.96903,51.77643],[14.96906,51.77673]]}},{"type":"Feature","properties":{"numer":"287","klasa":"droga zbiorcza","kat":"wojewodzka"},"geometry":{"type":"LineString","coordinates":[[14.97846,51.78169],[14.98694125930068,51.77837058433115]]}},{"type":"Feature","properties":{"numer":"101832F","klasa":"droga lokalna","kat":"powiatowa"},"geometry":{"type":"LineString","coordinates":[[14.96906,51.77673],[14.96926,51.7774]]}},{"type":"Feature","properties":{"numer":"1125F","klasa":"","kat":"powiatowa"},"geometry":{"type":"LineString","coordinates":[[14.96017,51.77686],[14.95954,51.77487],[14.95883,51.77408],[14.9572,51.77162],[14.95675,51.77139],[14.955,51.77102],[14.95489,51.77094],[14.95634,51.76025]]}},{"type":"Feature","properties":{"numer":"1125F","klasa":"","kat":"powiatowa"},"geometry":{"type":"LineString","coordinates":[[14.96017,51.77686],[14.96138,51.778],[14.96236,51.7797],[14.96295,51.78024],[14.96382,51.78078]]}},{"type":"Feature","properties":{"numer":"101832F","klasa":"droga lokalna","kat":"powiatowa"},"geometry":{"type":"LineString","coordinates":[[14.96792,51.77961],[14.96772,51.77983]]}},{"type":"Feature","properties":{"numer":"3207F","klasa":"droga zbiorcza","kat":"powiatowa"},"geometry":{"type":"LineString","coordinates":[[14.96382,51.78078],[14.9637,51.78098]]}},{"type":"Feature","properties":{"numer":"1125F","klasa":"","kat":"powiatowa"},"geometry":{"type":"LineString","coordinates":[[14.96382,51.78078],[14.96431,51.78106]]}},{"type":"Feature","properties":{"numer":"3207F","klasa":"droga zbiorcza","kat":"powiatowa"},"geometry":{"type":"LineString","coordinates":[[14.9637,51.78098],[14.96431,51.78106]]}},{"type":"Feature","properties":{"numer":"3207F","klasa":"droga zbiorcza","kat":"powiatowa"},"geometry":{"type":"LineString","coordinates":[[14.94268,51.7805],[14.94586,51.7814],[14.94869,51.7816]]}},{"type":"Feature","properties":{"numer":"1125F","klasa":"","kat":"powiatowa"},"geometry":{"type":"LineString","coordinates":[[14.96431,51.78106],[14.96477,51.78131]]}},{"type":"Feature","properties":{"numer":"3207F","klasa":"droga zbiorcza","kat":"powiatowa"},"geometry":{"type":"LineString","coordinates":[[14.94869,51.7816],[14.95576,51.78183],[14.96002,51.78137],[14.96144,51.78084],[14.9637,51.78098]]}},{"type":"Feature","properties":{"numer":"1125F","klasa":"","kat":"powiatowa"},"geometry":{"type":"LineString","coordinates":[[14.96477,51.78131],[14.96559,51.78205],[14.96593,51.78285],[14.96643,51.78329],[14.9675,51.78548]]}},{"type":"Feature","properties":{"numer":"101832F","klasa":"droga lokalna","kat":"powiatowa"},"geometry":{"type":"LineString","coordinates":[[14.96926,51.7774],[14.96927,51.77811]]}},{"type":"Feature","properties":{"numer":"1127F","klasa":"","kat":"powiatowa"},"geometry":{"type":"LineString","coordinates":[[15.01793,51.77788],[15.01808,51.77787]]}},{"type":"Feature","properties":{"numer":"1127F","klasa":"","kat":"powiatowa"},"geometry":{"type":"LineString","coordinates":[[15.01617,51.77832],[15.01793,51.77788]]}},{"type":"Feature","properties":{"numer":"1127F","klasa":"","kat":"powiatowa"},"geometry":{"type":"LineString","coordinates":[[15.013476911187439,51.77821815260059],[15.01359,51.77823]]}},{"type":"Feature","properties":{"numer":"1127F","klasa":"","kat":"powiatowa"},"geometry":{"type":"LineString","coordinates":[[15.01359,51.77823],[15.01376,51.77825]]}},{"type":"Feature","properties":{"numer":"1127F","klasa":"","kat":"powiatowa"},"geometry":{"type":"LineString","coordinates":[[15.01376,51.77825],[15.01521,51.77837],[15.01607,51.77834]]}},{"type":"Feature","properties":{"numer":"1127F","klasa":"","kat":"powiatowa"},"geometry":{"type":"LineString","coordinates":[[15.01607,51.77834],[15.01617,51.77832]]}},{"type":"Feature","properties":{"numer":"101832F","klasa":"droga lokalna","kat":"powiatowa"},"geometry":{"type":"LineString","coordinates":[[14.96927,51.77811],[14.96792,51.77961]]}},{"type":"Feature","properties":{"numer":"1127F","klasa":"","kat":"powiatowa"},"geometry":{"type":"LineString","coordinates":[[15.02319,51.78251],[15.02342,51.78204],[15.02345,51.7817],[15.02321,51.78114],[15.02281,51.78067],[15.02077,51.77924],[15.02031,51.77855],[15.01914,51.77799],[15.01874,51.77789],[15.01808,51.77787]]}},{"type":"Feature","properties":{"numer":"3201F","klasa":"","kat":"powiatowa"},"geometry":{"type":"LineString","coordinates":[[14.97694,51.78352],[14.97828,51.78244],[14.97849,51.78196],[14.97846,51.78169]]}},{"type":"Feature","properties":{"numer":"287","klasa":"droga zbiorcza","kat":"wojewodzka"},"geometry":{"type":"LineString","coordinates":[[14.97175,51.78435],[14.97846,51.78169]]}},{"type":"Feature","properties":{"numer":"1127F","klasa":"","kat":"powiatowa"},"geometry":{"type":"LineString","coordinates":[[15.02319,51.78251],[15.02288,51.78321],[15.02291,51.78398]]}},{"type":"Feature","properties":{"numer":"287","klasa":"droga zbiorcza","kat":"wojewodzka"},"geometry":{"type":"LineString","coordinates":[[14.97077,51.78446],[14.97175,51.78435]]}},{"type":"Feature","properties":{"numer":"1127F","klasa":"","kat":"powiatowa"},"geometry":{"type":"LineString","coordinates":[[15.02291,51.78398],[15.02418,51.78502]]}},{"type":"Feature","properties":{"numer":"","klasa":"droga zbiorcza","kat":"powiatowa"},"geometry":{"type":"LineString","coordinates":[[14.97218,51.78519],[14.97175,51.78435]]}},{"type":"Feature","properties":{"numer":"287","klasa":"droga zbiorcza","kat":"wojewodzka"},"geometry":{"type":"LineString","coordinates":[[14.96819,51.78539],[14.96961,51.78474],[14.97077,51.78446]]}},{"type":"Feature","properties":{"numer":"3201F","klasa":"","kat":"powiatowa"},"geometry":{"type":"LineString","coordinates":[[14.97539,51.7868],[14.97654,51.78455],[14.97694,51.78352]]}},{"type":"Feature","properties":{"numer":"","klasa":"droga zbiorcza","kat":"powiatowa"},"geometry":{"type":"LineString","coordinates":[[14.97246,51.78622],[14.97218,51.78519]]}},{"type":"Feature","properties":{"numer":"","klasa":"droga zbiorcza","kat":"powiatowa"},"geometry":{"type":"LineString","coordinates":[[14.96939,51.78656],[14.96845,51.78563]]}},{"type":"Feature","properties":{"numer":"","klasa":"droga zbiorcza","kat":"powiatowa"},"geometry":{"type":"LineString","coordinates":[[14.97246,51.78629],[14.97246,51.78622]]}},{"type":"Feature","properties":{"numer":"","klasa":"droga zbiorcza","kat":"powiatowa"},"geometry":{"type":"LineString","coordinates":[[14.97244,51.78637],[14.97246,51.78629]]}},{"type":"Feature","properties":{"numer":"","klasa":"droga zbiorcza","kat":"powiatowa"},"geometry":{"type":"LineString","coordinates":[[14.97241,51.78646],[14.97244,51.78637]]}},{"type":"Feature","properties":{"numer":"","klasa":"droga zbiorcza","kat":"powiatowa"},"geometry":{"type":"LineString","coordinates":[[14.96939,51.78656],[14.96945,51.78664]]}},{"type":"Feature","properties":{"numer":"","klasa":"droga zbiorcza","kat":"powiatowa"},"geometry":{"type":"LineString","coordinates":[[14.96948,51.78668],[14.96945,51.78664]]}},{"type":"Feature","properties":{"numer":"","klasa":"droga zbiorcza","kat":"powiatowa"},"geometry":{"type":"LineString","coordinates":[[14.97218,51.78693],[14.97241,51.78646]]}},{"type":"Feature","properties":{"numer":"3201F","klasa":"","kat":"powiatowa"},"geometry":{"type":"LineString","coordinates":[[14.97536,51.78688],[14.97539,51.7868]]}},{"type":"Feature","properties":{"numer":"287","klasa":"droga zbiorcza","kat":"wojewodzka"},"geometry":{"type":"LineString","coordinates":[[14.9675,51.78548],[14.96819,51.78539]]}},{"type":"Feature","properties":{"numer":"","klasa":"droga zbiorcza","kat":"powiatowa"},"geometry":{"type":"LineString","coordinates":[[14.96845,51.78563],[14.96819,51.78539]]}},{"type":"Feature","properties":{"numer":"287","klasa":"droga zbiorcza","kat":"wojewodzka"},"geometry":{"type":"LineString","coordinates":[[14.96639,51.78572],[14.9675,51.78548]]}},{"type":"Feature","properties":{"numer":"289","klasa":"droga zbiorcza","kat":"wojewodzka"},"geometry":{"type":"LineString","coordinates":[[14.860289457218462,51.78625931079094],[14.88773,51.78578],[14.89378,51.78546],[14.89887,51.78561],[14.90003,51.78546]]}},{"type":"Feature","properties":{"numer":"287","klasa":"droga zbiorcza","kat":"wojewodzka"},"geometry":{"type":"LineString","coordinates":[[14.96307,51.78612],[14.96639,51.78572]]}},{"type":"Feature","properties":{"numer":"287","klasa":"droga zbiorcza","kat":"wojewodzka"},"geometry":{"type":"LineString","coordinates":[[14.96209,51.78646],[14.96299,51.78639],[14.96559,51.78601],[14.96639,51.78572]]}},{"type":"Feature","properties":{"numer":"287","klasa":"droga zbiorcza","kat":"wojewodzka"},"geometry":{"type":"LineString","coordinates":[[14.96209,51.78646],[14.96307,51.78612]]}},{"type":"Feature","properties":{"numer":"289","klasa":"droga zbiorcza","kat":"wojewodzka"},"geometry":{"type":"LineString","coordinates":[[14.90003,51.78546],[14.90482,51.78415],[14.90665,51.78387],[14.91571,51.78402],[14.92181,51.7843],[14.92871,51.7857],[14.93113,51.78668],[14.93719,51.78964]]}},{"type":"Feature","properties":{"numer":"","klasa":"droga zbiorcza","kat":"powiatowa"},"geometry":{"type":"LineString","coordinates":[[14.96981,51.78719],[14.96948,51.78668]]}},{"type":"Feature","properties":{"numer":"","klasa":"droga zbiorcza","kat":"powiatowa"},"geometry":{"type":"LineString","coordinates":[[14.97216,51.78695],[14.97218,51.78693]]}},{"type":"Feature","properties":{"numer":"","klasa":"droga zbiorcza","kat":"powiatowa"},"geometry":{"type":"LineString","coordinates":[[14.97214,51.78699],[14.97216,51.78695]]}},{"type":"Feature","properties":{"numer":"3201F","klasa":"","kat":"powiatowa"},"geometry":{"type":"LineString","coordinates":[[14.97501,51.78766],[14.97536,51.78688]]}},{"type":"Feature","properties":{"numer":"","klasa":"droga zbiorcza","kat":"powiatowa"},"geometry":{"type":"LineString","coordinates":[[14.97198,51.78766],[14.97214,51.78699]]}},{"type":"Feature","properties":{"numer":"","klasa":"droga zbiorcza","kat":"powiatowa"},"geometry":{"type":"LineString","coordinates":[[14.96981,51.78719],[14.97015,51.78733],[14.97016,51.78759]]}},{"type":"Feature","properties":{"numer":"","klasa":"droga zbiorcza","kat":"powiatowa"},"geometry":{"type":"LineString","coordinates":[[14.96981,51.78719],[14.97016,51.78759]]}},{"type":"Feature","properties":{"numer":"3201F","klasa":"","kat":"powiatowa"},"geometry":{"type":"LineString","coordinates":[[14.97493,51.78769],[14.97501,51.78766]]}},{"type":"Feature","properties":{"numer":"","klasa":"droga zbiorcza","kat":"powiatowa"},"geometry":{"type":"LineString","coordinates":[[14.97226,51.78772],[14.97198,51.78766]]}},{"type":"Feature","properties":{"numer":"3201F","klasa":"","kat":"powiatowa"},"geometry":{"type":"LineString","coordinates":[[14.97489,51.7877],[14.97493,51.78769]]}},{"type":"Feature","properties":{"numer":"","klasa":"droga zbiorcza","kat":"powiatowa"},"geometry":{"type":"LineString","coordinates":[[14.97261,51.78773],[14.97226,51.78772]]}},{"type":"Feature","properties":{"numer":"","klasa":"droga zbiorcza","kat":"powiatowa"},"geometry":{"type":"LineString","coordinates":[[14.97016,51.78759],[14.97007,51.78787]]}},{"type":"Feature","properties":{"numer":"","klasa":"droga zbiorcza","kat":"powiatowa"},"geometry":{"type":"LineString","coordinates":[[14.97264,51.78801],[14.97261,51.78773]]}},{"type":"Feature","properties":{"numer":"","klasa":"droga zbiorcza","kat":"powiatowa"},"geometry":{"type":"LineString","coordinates":[[14.97203,51.78829],[14.97226,51.78772]]}},{"type":"Feature","properties":{"numer":"","klasa":"droga zbiorcza","kat":"powiatowa"},"geometry":{"type":"LineString","coordinates":[[14.97007,51.78787],[14.97133,51.78816]]}},{"type":"Feature","properties":{"numer":"","klasa":"droga zbiorcza","kat":"powiatowa"},"geometry":{"type":"LineString","coordinates":[[14.97264,51.78801],[14.97229,51.78834]]}},{"type":"Feature","properties":{"numer":"","klasa":"droga zbiorcza","kat":"powiatowa"},"geometry":{"type":"LineString","coordinates":[[14.97274,51.78842],[14.97264,51.78801]]}},{"type":"Feature","properties":{"numer":"","klasa":"droga zbiorcza","kat":"powiatowa"},"geometry":{"type":"LineString","coordinates":[[14.97133,51.78816],[14.97203,51.78829]]}},{"type":"Feature","properties":{"numer":"","klasa":"droga zbiorcza","kat":"powiatowa"},"geometry":{"type":"LineString","coordinates":[[14.97203,51.78829],[14.97229,51.78834]]}},{"type":"Feature","properties":{"numer":"","klasa":"droga zbiorcza","kat":"powiatowa"},"geometry":{"type":"LineString","coordinates":[[14.97229,51.78834],[14.97274,51.78842]]}},{"type":"Feature","properties":{"numer":"","klasa":"droga zbiorcza","kat":"powiatowa"},"geometry":{"type":"LineString","coordinates":[[14.97306,51.7892],[14.97274,51.78842]]}},{"type":"Feature","properties":{"numer":"","klasa":"droga zbiorcza","kat":"powiatowa"},"geometry":{"type":"LineString","coordinates":[[14.97309,51.78929],[14.97306,51.7892]]}},{"type":"Feature","properties":{"numer":"","klasa":"droga zbiorcza","kat":"powiatowa"},"geometry":{"type":"LineString","coordinates":[[14.9734,51.79005],[14.97309,51.78929]]}},{"type":"Feature","properties":{"numer":"","klasa":"droga zbiorcza","kat":"powiatowa"},"geometry":{"type":"LineString","coordinates":[[14.97344,51.79028],[14.9734,51.79005]]}},{"type":"Feature","properties":{"numer":"","klasa":"droga zbiorcza","kat":"powiatowa"},"geometry":{"type":"LineString","coordinates":[[14.97344,51.79028],[14.97345,51.79034]]}},{"type":"Feature","properties":{"numer":"","klasa":"droga zbiorcza","kat":"powiatowa"},"geometry":{"type":"LineString","coordinates":[[14.97347,51.79046],[14.97345,51.79034]]}},{"type":"Feature","properties":{"numer":"","klasa":"droga zbiorcza","kat":"powiatowa"},"geometry":{"type":"LineString","coordinates":[[14.9735,51.79063],[14.97347,51.79046]]}},{"type":"Feature","properties":{"numer":"","klasa":"droga zbiorcza","kat":"powiatowa"},"geometry":{"type":"LineString","coordinates":[[14.97406,51.79192],[14.9735,51.79063]]}},{"type":"Feature","properties":{"numer":"","klasa":"droga zbiorcza","kat":"powiatowa"},"geometry":{"type":"LineString","coordinates":[[14.9742,51.79268],[14.97406,51.79192]]}},{"type":"Feature","properties":{"numer":"101865F","klasa":"droga lokalna","kat":"powiatowa"},"geometry":{"type":"LineString","coordinates":[[14.9742,51.79268],[14.97432,51.79271]]}},{"type":"Feature","properties":{"numer":"101865F","klasa":"droga lokalna","kat":"powiatowa"},"geometry":{"type":"LineString","coordinates":[[14.97453,51.79274],[14.97432,51.79271]]}},{"type":"Feature","properties":{"numer":"101865F","klasa":"droga lokalna","kat":"powiatowa"},"geometry":{"type":"LineString","coordinates":[[14.97665,51.79286],[14.97453,51.79274]]}},{"type":"Feature","properties":{"numer":"101865F","klasa":"droga lokalna","kat":"powiatowa"},"geometry":{"type":"LineString","coordinates":[[14.97868,51.79301],[14.97665,51.79286]]}},{"type":"Feature","properties":{"numer":"","klasa":"droga zbiorcza","kat":"powiatowa"},"geometry":{"type":"LineString","coordinates":[[14.97381,51.79337],[14.9742,51.79268]]}},{"type":"Feature","properties":{"numer":"1127F","klasa":"","kat":"powiatowa"},"geometry":{"type":"LineString","coordinates":[[15.02418,51.78502],[15.0281,51.78823],[15.03508,51.79431],[15.03595,51.79477],[15.04028,51.79628],[15.04096,51.7967],[15.0413,51.79708],[15.04348,51.80053],[15.04359,51.8011]]}},{"type":"Feature","properties":{"numer":"101865F","klasa":"droga lokalna","kat":"powiatowa"},"geometry":{"type":"LineString","coordinates":[[14.98109,51.7935],[14.97984,51.79315],[14.97868,51.79301]]}},{"type":"Feature","properties":{"numer":"101865F","klasa":"droga lokalna","kat":"powiatowa"},"geometry":{"type":"LineString","coordinates":[[14.98129,51.79356],[14.98109,51.7935]]}},{"type":"Feature","properties":{"numer":"101865F","klasa":"droga lokalna","kat":"powiatowa"},"geometry":{"type":"LineString","coordinates":[[14.98401,51.79433],[14.98129,51.79356]]}},{"type":"Feature","properties":{"numer":"","klasa":"droga zbiorcza","kat":"powiatowa"},"geometry":{"type":"LineString","coordinates":[[14.97365,51.79464],[14.97381,51.79337]]}},{"type":"Feature","properties":{"numer":"101865F","klasa":"droga lokalna","kat":"powiatowa"},"geometry":{"type":"LineString","coordinates":[[14.9876,51.79536],[14.98401,51.79433]]}},{"type":"Feature","properties":{"numer":"287","klasa":"droga zbiorcza","kat":"wojewodzka"},"geometry":{"type":"LineString","coordinates":[[14.9378,51.78923],[14.93882,51.78856],[14.93948,51.78832],[14.94006,51.78822],[14.94051,51.78818],[14.9437,51.78834],[14.94481,51.78832],[14.94705,51.78821],[14.94997,51.78793],[14.95456,51.78781],[14.95815,51.78726],[14.96028,51.78661],[14.96209,51.78646]]}},{"type":"Feature","properties":{"numer":"287","klasa":"droga zbiorcza","kat":"wojewodzka"},"geometry":{"type":"LineString","coordinates":[[14.93725,51.78967],[14.9378,51.78923]]}},{"type":"Feature","properties":{"numer":"289","klasa":"droga gĹ‚Ăłwna","kat":"wojewodzka"},"geometry":{"type":"LineString","coordinates":[[14.93725,51.78967],[14.93719,51.78964]]}},{"type":"Feature","properties":{"numer":"289","klasa":"droga gĹ‚Ăłwna","kat":"wojewodzka"},"geometry":{"type":"LineString","coordinates":[[14.94449,51.79257],[14.94284,51.79221],[14.94162,51.79179],[14.93725,51.78967]]}},{"type":"Feature","properties":{"numer":"289","klasa":"droga gĹ‚Ăłwna","kat":"wojewodzka"},"geometry":{"type":"LineString","coordinates":[[14.94492,51.79262],[14.94449,51.79257]]}},{"type":"Feature","properties":{"numer":"289","klasa":"droga gĹ‚Ăłwna","kat":"wojewodzka"},"geometry":{"type":"LineString","coordinates":[[14.94854,51.79293],[14.94492,51.79262]]}},{"type":"Feature","properties":{"numer":"1131F","klasa":"","kat":"powiatowa"},"geometry":{"type":"LineString","coordinates":[[14.91532,51.80022],[14.91655,51.79941],[14.91667,51.79923],[14.91641,51.79779],[14.91644,51.79738],[14.91457,51.79611],[14.91083,51.79462],[14.90841,51.79394],[14.90673,51.79299],[14.90279,51.78862],[14.90249,51.78758],[14.90251,51.78589],[14.9022,51.78575],[14.90064,51.78564],[14.90003,51.78546]]}},{"type":"Feature","properties":{"numer":"289","klasa":"droga gĹ‚Ăłwna","kat":"wojewodzka"},"geometry":{"type":"LineString","coordinates":[[14.94874,51.79295],[14.94854,51.79293]]}},{"type":"Feature","properties":{"numer":"289","klasa":"droga gĹ‚Ăłwna","kat":"wojewodzka"},"geometry":{"type":"LineString","coordinates":[[14.97231,51.8007],[14.96415,51.80056],[14.96269,51.80038],[14.96137,51.80007],[14.9599,51.79951],[14.95842,51.79865],[14.95752,51.79786],[14.95545,51.79537],[14.95445,51.7946],[14.95384,51.79424],[14.95297,51.79383],[14.95148,51.79335],[14.94992,51.79305],[14.94874,51.79295]]}},{"type":"Feature","properties":{"numer":"1131F","klasa":"","kat":"powiatowa"},"geometry":{"type":"LineString","coordinates":[[14.91532,51.80022],[14.91522,51.80028]]}},{"type":"Feature","properties":{"numer":"","klasa":"droga zbiorcza","kat":"powiatowa"},"geometry":{"type":"LineString","coordinates":[[14.97355,51.79591],[14.97365,51.79464]]}},{"type":"Feature","properties":{"numer":"101865F","klasa":"","kat":"powiatowa"},"geometry":{"type":"LineString","coordinates":[[14.9876,51.79536],[14.98844,51.7956]]}},{"type":"Feature","properties":{"numer":"289","klasa":"droga zbiorcza","kat":"wojewodzka"},"geometry":{"type":"LineString","coordinates":[[14.98909,51.79579],[14.98844,51.7956]]}},{"type":"Feature","properties":{"numer":"289","klasa":"droga zbiorcza","kat":"wojewodzka"},"geometry":{"type":"LineString","coordinates":[[14.98967,51.79593],[14.98909,51.79579]]}},{"type":"Feature","properties":{"numer":"289","klasa":"droga gĹ‚Ăłwna","kat":"wojewodzka"},"geometry":{"type":"LineString","coordinates":[[14.98844,51.7956],[14.98798,51.79618]]}},{"type":"Feature","properties":{"numer":"","klasa":"droga zbiorcza","kat":"powiatowa"},"geometry":{"type":"LineString","coordinates":[[14.97351,51.79808],[14.97355,51.79591]]}},{"type":"Feature","properties":{"numer":"289","klasa":"droga gĹ‚Ăłwna","kat":"wojewodzka"},"geometry":{"type":"LineString","coordinates":[[14.98798,51.79618],[14.98674,51.79746],[14.9853,51.79847],[14.98356,51.79935],[14.98169,51.8]]}},{"type":"Feature","properties":{"numer":"","klasa":"droga zbiorcza","kat":"powiatowa"},"geometry":{"type":"LineString","coordinates":[[14.97349,51.7989],[14.97351,51.79808]]}},{"type":"Feature","properties":{"numer":"","klasa":"droga zbiorcza","kat":"powiatowa"},"geometry":{"type":"LineString","coordinates":[[14.97348,51.80013],[14.97349,51.7989]]}},{"type":"Feature","properties":{"numer":"289","klasa":"droga gĹ‚Ăłwna","kat":"wojewodzka"},"geometry":{"type":"LineString","coordinates":[[14.98151,51.80005],[14.98169,51.8]]}},{"type":"Feature","properties":{"numer":"289","klasa":"droga gĹ‚Ăłwna","kat":"wojewodzka"},"geometry":{"type":"LineString","coordinates":[[14.98151,51.80005],[14.98008,51.80039],[14.97824,51.80065],[14.97688,51.80074],[14.97474,51.80073]]}},{"type":"Feature","properties":{"numer":"","klasa":"droga zbiorcza","kat":"powiatowa"},"geometry":{"type":"LineString","coordinates":[[14.97348,51.80013],[14.97348,51.80072]]}},{"type":"Feature","properties":{"numer":"289","klasa":"droga gĹ‚Ăłwna","kat":"wojewodzka"},"geometry":{"type":"LineString","coordinates":[[14.97231,51.8007],[14.97348,51.80072]]}},{"type":"Feature","properties":{"numer":"289","klasa":"droga gĹ‚Ăłwna","kat":"wojewodzka"},"geometry":{"type":"LineString","coordinates":[[14.97348,51.80072],[14.97474,51.80073]]}},{"type":"Feature","properties":{"numer":"287","klasa":"droga zbiorcza","kat":"wojewodzka"},"geometry":{"type":"LineString","coordinates":[[14.97348,51.80072],[14.9735,51.80137]]}},{"type":"Feature","properties":{"numer":"1127F","klasa":"","kat":"powiatowa"},"geometry":{"type":"LineString","coordinates":[[15.04359,51.8011],[15.04344,51.80158],[15.04361,51.80235],[15.04466,51.80271],[15.04487,51.80298]]}},{"type":"Feature","properties":{"numer":"289","klasa":"droga zbiorcza","kat":"wojewodzka"},"geometry":{"type":"LineString","coordinates":[[15.04509,51.80886],[15.04359,51.80847],[15.04062,51.80797],[15.02468,51.80316],[15.02099,51.80086],[15.02051,51.80064],[15.01594,51.79896],[15.01246,51.79814],[15.00872,51.79693],[15.00793,51.79681],[15.00287,51.79645],[15.00018,51.79655],[14.99734,51.79607],[14.99358,51.79561],[14.99284,51.79562],[14.98967,51.79593]]}},{"type":"Feature","properties":{"numer":"287","klasa":"droga zbiorcza","kat":"wojewodzka"},"geometry":{"type":"LineString","coordinates":[[14.97362,51.80384],[14.9735,51.80137]]}},{"type":"Feature","properties":{"numer":"287","klasa":"droga zbiorcza","kat":"wojewodzka"},"geometry":{"type":"LineString","coordinates":[[14.97363,51.80389],[14.97362,51.80384]]}},{"type":"Feature","properties":{"numer":"287","klasa":"droga zbiorcza","kat":"wojewodzka"},"geometry":{"type":"LineString","coordinates":[[14.97365,51.80413],[14.97363,51.80389]]}},{"type":"Feature","properties":{"numer":"1131F","klasa":"","kat":"powiatowa"},"geometry":{"type":"LineString","coordinates":[[14.91522,51.80028],[14.915,51.80041]]}},{"type":"Feature","properties":{"numer":"1131F","klasa":"","kat":"powiatowa"},"geometry":{"type":"LineString","coordinates":[[14.9149,51.8006],[14.915,51.80041]]}},{"type":"Feature","properties":{"numer":"1131F","klasa":"","kat":"powiatowa"},"geometry":{"type":"LineString","coordinates":[[14.92728,51.80589],[14.92323,51.80469],[14.92034,51.80413],[14.91995,51.80391],[14.91881,51.80282],[14.91703,51.80232],[14.91692,51.80213],[14.91699,51.80166],[14.91685,51.80147],[14.91645,51.80136],[14.91527,51.80122],[14.915,51.80107],[14.9148,51.80082],[14.9149,51.8006]]}},{"type":"Feature","properties":{"numer":"1131F","klasa":"","kat":"powiatowa"},"geometry":{"type":"LineString","coordinates":[[14.92728,51.80589],[14.92767,51.80602]]}},{"type":"Feature","properties":{"numer":"1130F","klasa":"","kat":"powiatowa"},"geometry":{"type":"LineString","coordinates":[[14.96619,51.80631],[14.96626,51.80629]]}},{"type":"Feature","properties":{"numer":"1131F","klasa":"","kat":"powiatowa"},"geometry":{"type":"LineString","coordinates":[[14.92767,51.80602],[14.92955,51.80678],[14.93202,51.80906],[14.93218,51.80929],[14.9323,51.80993]]}},{"type":"Feature","properties":{"numer":"1130F","klasa":"","kat":"powiatowa"},"geometry":{"type":"LineString","coordinates":[[14.96619,51.80631],[14.96605,51.80633],[14.96454,51.80588],[14.95824,51.80665],[14.95256,51.80586],[14.95213,51.80585],[14.9513,51.80628],[14.94901,51.80793],[14.94289,51.8102],[14.94102,51.81016],[14.93752,51.81051],[14.93303,51.81039]]}},{"type":"Feature","properties":{"numer":"1130F","klasa":"","kat":"powiatowa"},"geometry":{"type":"LineString","coordinates":[[14.93303,51.81039],[14.93252,51.81019],[14.9323,51.80993]]}},{"type":"Feature","properties":{"numer":"1131F","klasa":"","kat":"powiatowa"},"geometry":{"type":"LineString","coordinates":[[14.9323,51.80993],[14.93219,51.8105]]}},{"type":"Feature","properties":{"numer":"1130F","klasa":"","kat":"powiatowa"},"geometry":{"type":"LineString","coordinates":[[14.93303,51.81039],[14.93251,51.81041],[14.93219,51.8105]]}},{"type":"Feature","properties":{"numer":"1130F","klasa":"","kat":"powiatowa"},"geometry":{"type":"LineString","coordinates":[[14.97365,51.80413],[14.96876,51.80577],[14.96626,51.80629]]}},{"type":"Feature","properties":{"numer":"1128F","klasa":"","kat":"powiatowa"},"geometry":{"type":"LineString","coordinates":[[15.00884,51.81475],[15.00851,51.81441],[15.00737,51.81159],[15.00703,51.80884],[15.00736,51.80763],[15.00696,51.806],[15.00597,51.80371],[15.00514,51.8033],[15.00059,51.80057],[14.99779,51.79958],[14.99238,51.79696],[14.98967,51.79593]]}},{"type":"Feature","properties":{"numer":"1127F","klasa":"","kat":"powiatowa"},"geometry":{"type":"LineString","coordinates":[[15.04487,51.80298],[15.04563,51.80401],[15.04585,51.80449],[15.04633,51.80755],[15.04631,51.80903]]}},{"type":"Feature","properties":{"numer":"287","klasa":"droga zbiorcza","kat":"wojewodzka"},"geometry":{"type":"LineString","coordinates":[[14.97238,51.81036],[14.97319,51.80737],[14.97365,51.80413]]}},{"type":"Feature","properties":{"numer":"289","klasa":"droga zbiorcza","kat":"wojewodzka"},"geometry":{"type":"LineString","coordinates":[[15.04631,51.80903],[15.04509,51.80886]]}},{"type":"Feature","properties":{"numer":"287","klasa":"droga zbiorcza","kat":"wojewodzka"},"geometry":{"type":"LineString","coordinates":[[14.97236,51.81046],[14.97238,51.81036]]}},{"type":"Feature","properties":{"numer":"1129F","klasa":"","kat":"powiatowa"},"geometry":{"type":"LineString","coordinates":[[15.04509,51.80886],[15.03967,51.80921],[15.03947,51.80928],[15.03665,51.81166],[15.02955,51.81262],[15.02858,51.81356],[15.02584,51.81307],[15.02218,51.81367],[15.02065,51.81437],[15.01802,51.81479],[15.01528,51.81483],[15.01242,51.81499],[15.01168,51.81494],[15.01041,51.81463],[15.00884,51.81475]]}},{"type":"Feature","properties":{"numer":"287","klasa":"droga zbiorcza","kat":"wojewodzka"},"geometry":{"type":"LineString","coordinates":[[14.97968,51.82391],[14.97981,51.82315],[14.97971,51.82282],[14.97686,51.81783],[14.97254,51.81118],[14.97238,51.81086],[14.97236,51.81046]]}},{"type":"Feature","properties":{"numer":"1129F","klasa":"","kat":"powiatowa"},"geometry":{"type":"LineString","coordinates":[[15.00884,51.81475],[15.00505,51.81481],[15.00442,51.81492],[15.00224,51.81674],[15.00191,51.81684],[15.00058,51.81703],[14.99921,51.81774],[14.99506,51.819],[14.98952,51.82096],[14.98396,51.82264]]}},{"type":"Feature","properties":{"numer":"1129F","klasa":"","kat":"powiatowa"},"geometry":{"type":"LineString","coordinates":[[14.98396,51.82264],[14.98388,51.82266]]}},{"type":"Feature","properties":{"numer":"289","klasa":"droga zbiorcza","kat":"wojewodzka"},"geometry":{"type":"LineString","coordinates":[[15.10227,51.79986],[15.10215,51.7999]]}},{"type":"Feature","properties":{"numer":"289","klasa":"droga zbiorcza","kat":"wojewodzka"},"geometry":{"type":"LineString","coordinates":[[15.10227,51.79986],[15.10229049468441,51.799856773984864]]}},{"type":"Feature","properties":{"numer":"289","klasa":"droga zbiorcza","kat":"wojewodzka"},"geometry":{"type":"LineString","coordinates":[[15.10215,51.7999],[15.09308,51.80265],[15.08871,51.80353],[15.08544,51.80375],[15.08004,51.8044],[15.06644,51.80551],[15.0609,51.80637],[15.05073,51.80868],[15.04898,51.8089],[15.04631,51.80903]]}},{"type":"Feature","properties":{"numer":"1127F","klasa":"","kat":"powiatowa"},"geometry":{"type":"LineString","coordinates":[[15.04631,51.80903],[15.04797,51.8132],[15.05086,51.81739],[15.0511,51.8212],[15.05103,51.82154],[15.05071,51.82193]]}},{"type":"Feature","properties":{"numer":"1127F","klasa":"","kat":"powiatowa"},"geometry":{"type":"LineString","coordinates":[[15.05029,51.8259],[15.05029,51.82456],[15.05049,51.82349],[15.05022,51.82274],[15.05038,51.82233],[15.05071,51.82193]]}},{"type":"Feature","properties":{"numer":"1127F","klasa":"","kat":"powiatowa"},"geometry":{"type":"LineString","coordinates":[[15.05936,51.83866],[15.05872,51.83755],[15.0576,51.836],[15.05666,51.83496],[15.05446,51.83328],[15.05226,51.83179],[15.05181,51.83135],[15.05041,51.82874],[15.05029,51.8259]]}},{"type":"Feature","properties":{"numer":"1129F","klasa":"","kat":"powiatowa"},"geometry":{"type":"LineString","coordinates":[[14.98388,51.82266],[14.97968,51.82391]]}},{"type":"Feature","properties":{"numer":"1128F","klasa":"","kat":"powiatowa"},"geometry":{"type":"LineString","coordinates":[[15.00884,51.81475],[15.00875,51.81653],[15.00884,51.81708],[15.01231,51.82717],[15.01262,51.83028],[15.01295,51.8306],[15.01425,51.83101],[15.01445,51.83123],[15.01521,51.83275],[15.01531,51.83356],[15.01529,51.83519],[15.01544,51.83565],[15.0159,51.83648],[15.0167,51.83743]]}},{"type":"Feature","properties":{"numer":"1129F,287","klasa":"droga zbiorcza","kat":"powiatowa"},"geometry":{"type":"LineString","coordinates":[[14.97828,51.82927],[14.97841,51.82748],[14.97947,51.82524],[14.97968,51.82391]]}},{"type":"Feature","properties":{"numer":"287","klasa":"droga zbiorcza","kat":"wojewodzka"},"geometry":{"type":"LineString","coordinates":[[14.99898,51.85665],[14.99025,51.84741],[14.98268,51.83812],[14.98178,51.83724],[14.98065,51.83645],[14.98001,51.83586],[14.97938,51.8345],[14.97926,51.83273],[14.97842,51.83132],[14.97826,51.83024],[14.97828,51.82927]]}},{"type":"Feature","properties":{"numer":"1128F","klasa":"","kat":"powiatowa"},"geometry":{"type":"LineString","coordinates":[[15.02774,51.85541],[15.01826,51.84063],[15.0167,51.83743]]}},{"type":"Feature","properties":{"numer":"1127F","klasa":"","kat":"powiatowa"},"geometry":{"type":"LineString","coordinates":[[15.04634,51.8477],[15.04648,51.84768]]}},{"type":"Feature","properties":{"numer":"1127F","klasa":"","kat":"powiatowa"},"geometry":{"type":"LineString","coordinates":[[15.03276,51.85311],[15.03304,51.85262],[15.03419,51.85177],[15.03729,51.84957],[15.0382,51.84913],[15.03923,51.84886],[15.04634,51.8477]]}},{"type":"Feature","properties":{"numer":"1127F","klasa":"","kat":"powiatowa"},"geometry":{"type":"LineString","coordinates":[[15.03105,51.85469],[15.03182,51.8543],[15.03247,51.85376],[15.03276,51.85311]]}},{"type":"Feature","properties":{"numer":"1128F","klasa":"","kat":"powiatowa"},"geometry":{"type":"LineString","coordinates":[[15.03297,51.85465],[15.03105,51.85469]]}},{"type":"Feature","properties":{"numer":"1127F,1128F","klasa":"","kat":"powiatowa"},"geometry":{"type":"LineString","coordinates":[[15.02774,51.85541],[15.03105,51.85469]]}},{"type":"Feature","properties":{"numer":"1131F","klasa":"","kat":"powiatowa"},"geometry":{"type":"LineString","coordinates":[[14.93988,51.84199],[14.93923,51.84075],[14.93718,51.83928],[14.93653,51.83908],[14.92858,51.83735],[14.92815,51.83722],[14.92772,51.83697],[14.92751,51.83671],[14.927,51.83529],[14.92666,51.83491],[14.92458,51.83362],[14.92277,51.83111],[14.92186,51.8283],[14.92176,51.82702],[14.92184,51.82629],[14.92228,51.82604],[14.92378,51.82554],[14.92441,51.82492],[14.92689,51.8233],[14.92753,51.82251],[14.92849,51.8203],[14.93041,51.81818],[14.93059,51.81761],[14.93091,51.8127],[14.93142,51.81144],[14.93219,51.8105]]}},{"type":"Feature","properties":{"numer":"1129F","klasa":"","kat":"powiatowa"},"geometry":{"type":"LineString","coordinates":[[14.93988,51.84199],[14.94429,51.8391],[14.94513,51.83885],[14.95069,51.83779],[14.95493,51.83687],[14.96456,51.83297],[14.96563,51.83237],[14.96753,51.83075],[14.96816,51.83035],[14.9731,51.82996],[14.97638,51.82934],[14.97828,51.82927]]}},{"type":"Feature","properties":{"numer":"1129F,1131F","klasa":"","kat":"powiatowa"},"geometry":{"type":"LineString","coordinates":[[14.9375,51.84419],[14.94,51.84371],[14.93988,51.84199]]}},{"type":"Feature","properties":{"numer":"1129F","klasa":"","kat":"powiatowa"},"geometry":{"type":"LineString","coordinates":[[14.93616,51.84443],[14.9375,51.84419]]}},{"type":"Feature","properties":{"numer":"1129F","klasa":"","kat":"powiatowa"},"geometry":{"type":"LineString","coordinates":[[14.93608,51.84445],[14.93616,51.84443]]}},{"type":"Feature","properties":{"numer":"1129F","klasa":"","kat":"powiatowa"},"geometry":{"type":"LineString","coordinates":[[14.93695,51.85839],[14.93259,51.84721],[14.93275,51.84646],[14.93305,51.84599],[14.93357,51.84546],[14.93495,51.84483],[14.93608,51.84445]]}},{"type":"Feature","properties":{"numer":"1131F","klasa":"","kat":"powiatowa"},"geometry":{"type":"LineString","coordinates":[[14.96696,51.87371],[14.96782,51.87313],[14.96949,51.87131],[14.96962,51.87092],[14.96801,51.86691],[14.9675,51.86614],[14.96691,51.86571],[14.9651,51.86508],[14.96442,51.86456],[14.96434,51.86429],[14.96441,51.86405],[14.96506,51.8633],[14.96521,51.86295],[14.96525,51.86235],[14.96511,51.86171],[14.96414,51.86078],[14.96283,51.85971],[14.96222,51.85847],[14.96195,51.85739],[14.95853,51.8542],[14.95715,51.85474],[14.95658,51.85468],[14.95407,51.85272],[14.9514,51.8509],[14.95037,51.84547],[14.94986,51.84529],[14.94478,51.84417],[14.94409,51.84414],[14.94135,51.8443],[14.9375,51.84419]]}},{"type":"Feature","properties":{"numer":"1129F","klasa":"","kat":"powiatowa"},"geometry":{"type":"LineString","coordinates":[[14.93733,51.86305],[14.93712,51.85957],[14.93695,51.85839]]}},{"type":"Feature","properties":{"numer":"1129F","klasa":"","kat":"powiatowa"},"geometry":{"type":"LineString","coordinates":[[14.93332,51.86654],[14.93425,51.86562],[14.93668,51.86384],[14.93715,51.86338],[14.93733,51.86305]]}},{"type":"Feature","properties":{"numer":"1131F","klasa":"","kat":"powiatowa"},"geometry":{"type":"LineString","coordinates":[[14.93733,51.86305],[14.93812,51.86324],[14.93879,51.86381],[14.94629,51.87231],[14.94826,51.87438],[14.94856,51.87488],[14.94881,51.87595],[14.94899,51.87623],[14.94949,51.87647],[14.95043,51.87668]]}},{"type":"Feature","properties":{"numer":"1127F","klasa":"","kat":"powiatowa"},"geometry":{"type":"LineString","coordinates":[[15.0576,51.84263],[15.05792,51.84203],[15.05755,51.84051],[15.05774,51.84034],[15.05931,51.83995],[15.05965,51.83977],[15.05962,51.83935],[15.05936,51.83866]]}},{"type":"Feature","properties":{"numer":"1127F","klasa":"","kat":"powiatowa"},"geometry":{"type":"LineString","coordinates":[[15.04648,51.84768],[15.04971,51.84716],[15.05055,51.84691],[15.05539,51.8442],[15.0576,51.84263]]}},{"type":"Feature","properties":{"numer":"1128F","klasa":"","kat":"powiatowa"},"geometry":{"type":"LineString","coordinates":[[15.05007,51.85752],[15.05001,51.85753]]}},{"type":"Feature","properties":{"numer":"1128F","klasa":"","kat":"powiatowa"},"geometry":{"type":"LineString","coordinates":[[15.069080256271919,51.872787910516784],[15.06901,51.87199],[15.05872,51.86567],[15.05798,51.86512],[15.05199,51.86153],[15.05163,51.86089],[15.05126,51.86064],[15.05052,51.85848],[15.05007,51.85752]]}},{"type":"Feature","properties":{"numer":"1127F","klasa":"","kat":"powiatowa"},"geometry":{"type":"LineString","coordinates":[[15.02066,51.85581],[15.02176,51.85612],[15.02445,51.85614],[15.02571,51.85575],[15.02774,51.85541]]}},{"type":"Feature","properties":{"numer":"1127F","klasa":"","kat":"powiatowa"},"geometry":{"type":"LineString","coordinates":[[15.01481,51.8561],[15.01912,51.85575],[15.02066,51.85581]]}},{"type":"Feature","properties":{"numer":"1127F","klasa":"","kat":"powiatowa"},"geometry":{"type":"LineString","coordinates":[[15.01472,51.85611],[15.01481,51.8561]]}},{"type":"Feature","properties":{"numer":"1128F","klasa":"","kat":"powiatowa"},"geometry":{"type":"LineString","coordinates":[[15.03297,51.85465],[15.03427,51.85464],[15.04057,51.85498],[15.04097,51.85762],[15.04121,51.85768],[15.04508,51.85762]]}},{"type":"Feature","properties":{"numer":"1127F","klasa":"","kat":"powiatowa"},"geometry":{"type":"LineString","coordinates":[[14.99898,51.85665],[15.00115,51.85593],[15.00218,51.85568],[15.00761,51.85581],[15.01167,51.85631],[15.01472,51.85611]]}},{"type":"Feature","properties":{"numer":"1128F","klasa":"","kat":"powiatowa"},"geometry":{"type":"LineString","coordinates":[[15.04514,51.85762],[15.05001,51.85753]]}},{"type":"Feature","properties":{"numer":"1128F","klasa":"","kat":"powiatowa"},"geometry":{"type":"LineString","coordinates":[[15.04508,51.85762],[15.04514,51.85762]]}},{"type":"Feature","properties":{"numer":"287","klasa":"droga zbiorcza","kat":"wojewodzka"},"geometry":{"type":"LineString","coordinates":[[15.033384898252931,51.88026665352849],[15.03127,51.88012],[15.03012,51.8799],[15.02908,51.87955],[15.02603,51.87825],[15.02265,51.87742],[15.02205,51.87719],[15.02125,51.87672],[15.01446,51.87241],[15.00508,51.86438],[15.00436,51.86346],[15.00373,51.86174],[14.99898,51.85665]]}},{"type":"Feature","properties":{"numer":"1131F","klasa":"","kat":"powiatowa"},"geometry":{"type":"LineString","coordinates":[[14.9669,51.87375],[14.96696,51.87371]]}},{"type":"Feature","properties":{"numer":"1131F","klasa":"","kat":"powiatowa"},"geometry":{"type":"LineString","coordinates":[[14.95448,51.87693],[14.9549,51.87657],[14.95731,51.8762],[14.96106,51.8751],[14.96158,51.87498],[14.96445,51.87468],[14.96635,51.87406],[14.9669,51.87375]]}},{"type":"Feature","properties":{"numer":"1131F","klasa":"","kat":"powiatowa"},"geometry":{"type":"LineString","coordinates":[[14.95064,51.87672],[14.95154,51.87684],[14.9529,51.87683],[14.95421,51.87703]]}},{"type":"Feature","properties":{"numer":"1131F","klasa":"","kat":"powiatowa"},"geometry":{"type":"LineString","coordinates":[[14.95421,51.87703],[14.95448,51.87693]]}},{"type":"Feature","properties":{"numer":"1131F","klasa":"","kat":"powiatowa"},"geometry":{"type":"LineString","coordinates":[[14.9544,51.87707],[14.95448,51.87693]]}},{"type":"Feature","properties":{"numer":"000302F","klasa":"droga lokalna","kat":"powiatowa"},"geometry":{"type":"LineString","coordinates":[[14.9543,51.87706],[14.95421,51.87703]]}},{"type":"Feature","properties":{"numer":"000302F","klasa":"droga lokalna","kat":"powiatowa"},"geometry":{"type":"LineString","coordinates":[[14.9544,51.87707],[14.9543,51.87706]]}},{"type":"Feature","properties":{"numer":"1129F","klasa":"","kat":"powiatowa"},"geometry":{"type":"LineString","coordinates":[[14.93332,51.86654],[14.92845,51.87097],[14.920924033745004,51.87657953983462]]}}]}