{"type":"FeatureCollection","features":[{"type":"Feature","properties":{"numer":"2101E","klasa":"","kat":"powiatowa"},"geometry":{"type":"LineString","coordinates":[[19.69085,52.15097],[19.69225,52.14971],[19.69863,52.14662],[19.69893,52.14635]]}},{"type":"Feature","properties":{"numer":"2100E","klasa":"droga zbiorcza","kat":"powiatowa"},"geometry":{"type":"LineString","coordinates":[[19.68727,52.15113],[19.69085,52.15097]]}},{"type":"Feature","properties":{"numer":"2100E","klasa":"droga zbiorcza","kat":"powiatowa"},"geometry":{"type":"LineString","coordinates":[[19.69085,52.15097],[19.69286,52.15095],[19.70139734610681,52.15203067672238]]}},{"type":"Feature","properties":{"numer":"102035E","klasa":"droga lokalna","kat":"powiatowa"},"geometry":{"type":"LineString","coordinates":[[19.65637,52.13494],[19.658396517223473,52.13341262494979]]}},{"type":"Feature","properties":{"numer":"2104E","klasa":"droga zbiorcza","kat":"powiatowa"},"geometry":{"type":"LineString","coordinates":[[19.65637,52.13494],[19.66117,52.14166],[19.65569,52.14425],[19.65265,52.15283]]}},{"type":"Feature","properties":{"numer":"2100E","klasa":"droga zbiorcza","kat":"powiatowa"},"geometry":{"type":"LineString","coordinates":[[19.66997,52.15386],[19.68115,52.15194],[19.68271,52.1514],[19.68727,52.15113]]}},{"type":"Feature","properties":{"numer":"2100E","klasa":"droga zbiorcza","kat":"powiatowa"},"geometry":{"type":"LineString","coordinates":[[19.65265,52.15283],[19.65752,52.15386],[19.66068,52.15442],[19.66315,52.15474],[19.66553,52.15462],[19.66997,52.15386]]}},{"type":"Feature","properties":{"numer":"2104E","klasa":"droga zbiorcza","kat":"powiatowa"},"geometry":{"type":"LineString","coordinates":[[19.65265,52.15283],[19.64984,52.15698],[19.64889,52.15858],[19.64887,52.1594],[19.64958,52.16025],[19.64951,52.16055],[19.64707,52.16177],[19.64562,52.16237],[19.6437,52.16331],[19.64124,52.16482],[19.64149,52.16524],[19.6439,52.16749],[19.64661,52.17028],[19.64712,52.17542]]}},{"type":"Feature","properties":{"numer":"2103E","klasa":"","kat":"powiatowa"},"geometry":{"type":"LineString","coordinates":[[19.66997,52.15386],[19.67131,52.15985],[19.67141,52.16483],[19.67165,52.16544],[19.67108,52.16616],[19.66979,52.1673],[19.66838,52.16888],[19.66237,52.17216],[19.64712,52.17542]]}},{"type":"Feature","properties":{"numer":"2104E","klasa":"droga zbiorcza","kat":"powiatowa"},"geometry":{"type":"LineString","coordinates":[[19.64712,52.17542],[19.64772,52.18275],[19.64773,52.1842]]}},{"type":"Feature","properties":{"numer":"92","klasa":"droga gĹ‚Ăłwna ruchu przyĹ›pieszonego","kat":"krajowa"},"geometry":{"type":"LineString","coordinates":[[19.64784,52.1842],[19.67085,52.18517],[19.67303,52.18521],[19.67409,52.18503],[19.68456,52.18252]]}},{"type":"Feature","properties":{"numer":"92","klasa":"droga gĹ‚Ăłwna ruchu przyĹ›pieszonego","kat":"krajowa"},"geometry":{"type":"LineString","coordinates":[[19.64773,52.1842],[19.64784,52.1842]]}},{"type":"Feature","properties":{"numer":"92","klasa":"droga gĹ‚Ăłwna ruchu przyĹ›pieszonego","kat":"krajowa"},"geometry":{"type":"LineString","coordinates":[[19.62839,52.19023],[19.64482,52.18441],[19.64616,52.18416],[19.64773,52.1842]]}},{"type":"Feature","properties":{"numer":"2101E","klasa":"","kat":"powiatowa"},"geometry":{"type":"LineString","coordinates":[[19.6889,52.17224],[19.68936,52.17136],[19.68921,52.17111],[19.68862,52.17089],[19.6885,52.17076],[19.68852,52.16875],[19.68794,52.1618],[19.68727,52.15113]]}},{"type":"Feature","properties":{"numer":"2732E","klasa":"","kat":"powiatowa"},"geometry":{"type":"LineString","coordinates":[[19.68896,52.17227],[19.688972593687733,52.17227771871183]]}},{"type":"Feature","properties":{"numer":"2732E","klasa":"droga zbiorcza","kat":"powiatowa"},"geometry":{"type":"LineString","coordinates":[[19.6889,52.17224],[19.68896,52.17227]]}},{"type":"Feature","properties":{"numer":"2101E","klasa":"","kat":"powiatowa"},"geometry":{"type":"LineString","coordinates":[[19.68456,52.18252],[19.68451,52.17989],[19.6866,52.17665],[19.6889,52.17224]]}},{"type":"Feature","properties":{"numer":"92","klasa":"droga gĹ‚Ăłwna ruchu przyĹ›pieszonego","kat":"krajowa"},"geometry":{"type":"LineString","coordinates":[[19.701164469438673,52.17852211828068],[19.69122,52.18091]]}},{"type":"Feature","properties":{"numer":"92","klasa":"droga gĹ‚Ăłwna ruchu przyĹ›pieszonego","kat":"krajowa"},"geometry":{"type":"LineString","coordinates":[[19.69122,52.18091],[19.68456,52.18252]]}},{"type":"Feature","properties":{"numer":"102053E","klasa":"droga lokalna","kat":"powiatowa"},"geometry":{"type":"LineString","coordinates":[[19.69122,52.18091],[19.69325,52.18472]]}},{"type":"Feature","properties":{"numer":"102053E","klasa":"droga lokalna","kat":"powiatowa"},"geometry":{"type":"LineString","coordinates":[[19.69325,52.18472],[19.69492,52.18803]]}},{"type":"Feature","properties":{"numer":"102053E","klasa":"droga lokalna","kat":"powiatowa"},"geometry":{"type":"LineString","coordinates":[[19.69492,52.18803],[19.69464,52.19016],[19.69467,52.19123]]}},{"type":"Feature","properties":{"numer":"102053E","klasa":"droga lokalna","kat":"powiatowa"},"geometry":{"type":"LineString","coordinates":[[19.69467,52.19123],[19.69479,52.19272]]}},{"type":"Feature","properties":{"numer":"2102E","klasa":"","kat":"powiatowa"},"geometry":{"type":"LineString","coordinates":[[19.69479,52.19272],[19.694887276101934,52.192910661159786]]}},{"type":"Feature","properties":{"numer":"2736E","klasa":"droga zbiorcza","kat":"powiatowa"},"geometry":{"type":"LineString","coordinates":[[19.55166,52.12493],[19.55148966517837,52.12332006120203]]}},{"type":"Feature","properties":{"numer":"2736E","klasa":"droga zbiorcza","kat":"powiatowa"},"geometry":{"type":"LineString","coordinates":[[19.55167,52.12501],[19.55166,52.12493]]}},{"type":"Feature","properties":{"numer":"2736E","klasa":"droga zbiorcza","kat":"powiatowa"},"geometry":{"type":"LineString","coordinates":[[19.55167,52.12501],[19.55336,52.12906]]}},{"type":"Feature","properties":{"numer":"2717E","klasa":"droga zbiorcza","kat":"powiatowa"},"geometry":{"type":"LineString","coordinates":[[19.60537,52.12772],[19.60616,52.12767],[19.60907,52.12794],[19.61012,52.12793],[19.61818,52.12731],[19.62343,52.12718],[19.62985,52.1267],[19.640025200333067,52.126116582293825]]}},{"type":"Feature","properties":{"numer":"2717E","klasa":"droga zbiorcza","kat":"powiatowa"},"geometry":{"type":"LineString","coordinates":[[19.55252,52.13738],[19.58572,52.12988],[19.59016,52.12933],[19.60537,52.12772]]}},{"type":"Feature","properties":{"numer":"2107E","klasa":"","kat":"powiatowa"},"geometry":{"type":"LineString","coordinates":[[19.58993,52.15674],[19.58855,52.15413],[19.59142,52.15135],[19.59246,52.14813],[19.5957,52.14613],[19.59905,52.14351],[19.59946,52.14237],[19.60086,52.13989],[19.60122,52.1368],[19.60118,52.13546],[19.60127,52.13505],[19.60365,52.13053],[19.60537,52.12772]]}},{"type":"Feature","properties":{"numer":"2105E","klasa":"","kat":"powiatowa"},"geometry":{"type":"LineString","coordinates":[[19.58932,52.15772],[19.58982,52.1571],[19.58993,52.15674]]}},{"type":"Feature","properties":{"numer":"2105E","klasa":"","kat":"powiatowa"},"geometry":{"type":"LineString","coordinates":[[19.57067,52.15981],[19.57462,52.15908],[19.58932,52.15772]]}},{"type":"Feature","properties":{"numer":"2107E","klasa":"","kat":"powiatowa"},"geometry":{"type":"LineString","coordinates":[[19.58685,52.16789],[19.58752,52.16587],[19.58932,52.15772]]}},{"type":"Feature","properties":{"numer":"2736E","klasa":"droga zbiorcza","kat":"powiatowa"},"geometry":{"type":"LineString","coordinates":[[19.55341,52.12934],[19.55336,52.12906]]}},{"type":"Feature","properties":{"numer":"2736E","klasa":"droga zbiorcza","kat":"powiatowa"},"geometry":{"type":"LineString","coordinates":[[19.55341,52.12934],[19.55337,52.13118],[19.55378,52.13321]]}},{"type":"Feature","properties":{"numer":"2736E","klasa":"droga zbiorcza","kat":"powiatowa"},"geometry":{"type":"LineString","coordinates":[[19.55378,52.13321],[19.55388,52.13368]]}},{"type":"Feature","properties":{"numer":"2736E","klasa":"droga zbiorcza","kat":"powiatowa"},"geometry":{"type":"LineString","coordinates":[[19.55242,52.13729],[19.5521,52.13669],[19.55205,52.1362],[19.55214,52.13583],[19.5523,52.13558],[19.55275,52.13521],[19.55373,52.13457],[19.55397,52.13418],[19.55388,52.13368]]}},{"type":"Feature","properties":{"numer":"2717E,2736E","klasa":"droga zbiorcza","kat":"powiatowa"},"geometry":{"type":"LineString","coordinates":[[19.55242,52.13729],[19.55252,52.13738]]}},{"type":"Feature","properties":{"numer":"2736E","klasa":"droga zbiorcza","kat":"powiatowa"},"geometry":{"type":"LineString","coordinates":[[19.55252,52.13738],[19.55458,52.14031],[19.55442,52.14053],[19.55337,52.14087]]}},{"type":"Feature","properties":{"numer":"2717E","klasa":"droga zbiorcza","kat":"powiatowa"},"geometry":{"type":"LineString","coordinates":[[19.55159,52.14145],[19.54906,52.13851],[19.54905,52.13839],[19.54953,52.13804],[19.55133,52.13735],[19.5519,52.13726],[19.55242,52.13729]]}},{"type":"Feature","properties":{"numer":"2717E","klasa":"droga zbiorcza","kat":"powiatowa"},"geometry":{"type":"LineString","coordinates":[[19.55159,52.14145],[19.55337,52.14087]]}},{"type":"Feature","properties":{"numer":"2717E","klasa":"droga zbiorcza","kat":"powiatowa"},"geometry":{"type":"LineString","coordinates":[[19.5395,52.15302],[19.54549,52.14537],[19.54637,52.14397],[19.54735,52.14281],[19.55159,52.14145]]}},{"type":"Feature","properties":{"numer":"2736E","klasa":"droga zbiorcza","kat":"powiatowa"},"geometry":{"type":"LineString","coordinates":[[19.55337,52.14087],[19.56819,52.15829],[19.57067,52.15981]]}},{"type":"Feature","properties":{"numer":"2736E","klasa":"droga zbiorcza","kat":"powiatowa"},"geometry":{"type":"LineString","coordinates":[[19.57067,52.15981],[19.57338,52.16148],[19.57728,52.16456],[19.58314,52.16635],[19.58685,52.16789]]}},{"type":"Feature","properties":{"numer":"2736E","klasa":"droga zbiorcza","kat":"powiatowa"},"geometry":{"type":"LineString","coordinates":[[19.58685,52.16789],[19.58698,52.16796]]}},{"type":"Feature","properties":{"numer":"2736E","klasa":"droga zbiorcza","kat":"powiatowa"},"geometry":{"type":"LineString","coordinates":[[19.58698,52.16796],[19.588,52.16856]]}},{"type":"Feature","properties":{"numer":"2105E","klasa":"","kat":"powiatowa"},"geometry":{"type":"LineString","coordinates":[[19.58993,52.15674],[19.59522,52.15751],[19.59892,52.15927],[19.60749,52.16353],[19.60836,52.1649],[19.60869,52.16526],[19.6089,52.16535],[19.61153,52.16567],[19.62392,52.16766],[19.62453,52.16792],[19.62723,52.17335],[19.62839,52.19023]]}},{"type":"Feature","properties":{"numer":"2736E","klasa":"droga zbiorcza","kat":"powiatowa"},"geometry":{"type":"LineString","coordinates":[[19.588,52.16856],[19.58924,52.16933],[19.58965,52.16984],[19.59023,52.17026],[19.59262,52.17152],[19.59481,52.17303],[19.59973,52.17738],[19.60153,52.17838],[19.61232,52.19593]]}},{"type":"Feature","properties":{"numer":"92","klasa":"droga gĹ‚Ăłwna ruchu przyĹ›pieszonego","kat":"krajowa"},"geometry":{"type":"LineString","coordinates":[[19.61232,52.19593],[19.62839,52.19023]]}},{"type":"Feature","properties":{"numer":"92","klasa":"droga gĹ‚Ăłwna ruchu przyĹ›pieszonego","kat":"krajowa"},"geometry":{"type":"LineString","coordinates":[[19.58446,52.20581],[19.61232,52.19593]]}},{"type":"Feature","properties":{"numer":"2736E","klasa":"droga zbiorcza","kat":"powiatowa"},"geometry":{"type":"LineString","coordinates":[[19.61232,52.19593],[19.61265,52.19655],[19.61302,52.20618],[19.6134,52.21113]]}},{"type":"Feature","properties":{"numer":"92","klasa":"droga gĹ‚Ăłwna ruchu przyĹ›pieszonego","kat":"krajowa"},"geometry":{"type":"LineString","coordinates":[[19.57783,52.20782],[19.58095,52.20703],[19.58446,52.20581]]}},{"type":"Feature","properties":{"numer":"92","klasa":"droga gĹ‚Ăłwna ruchu przyĹ›pieszonego","kat":"krajowa"},"geometry":{"type":"LineString","coordinates":[[19.57591,52.20829],[19.57783,52.20782]]}},{"type":"Feature","properties":{"numer":"2112E","klasa":"droga zbiorcza","kat":"powiatowa"},"geometry":{"type":"LineString","coordinates":[[19.509688817633737,52.17373770899735],[19.50971,52.17375],[19.51039,52.17453],[19.51226,52.17846]]}},{"type":"Feature","properties":{"numer":"2161E","klasa":"droga zbiorcza","kat":"powiatowa"},"geometry":{"type":"LineString","coordinates":[[19.506649840551148,52.178713566528764],[19.51226,52.17846]]}},{"type":"Feature","properties":{"numer":"2105E","klasa":"","kat":"powiatowa"},"geometry":{"type":"LineString","coordinates":[[19.5395,52.15302],[19.55483,52.15765],[19.55497,52.15775],[19.55494,52.15856],[19.55506,52.15869],[19.56375,52.16113],[19.57067,52.15981]]}},{"type":"Feature","properties":{"numer":"2717E","klasa":"droga zbiorcza","kat":"powiatowa"},"geometry":{"type":"LineString","coordinates":[[19.52148,52.17774],[19.52492,52.17153],[19.5395,52.15302]]}},{"type":"Feature","properties":{"numer":"2112E","klasa":"droga zbiorcza","kat":"powiatowa"},"geometry":{"type":"LineString","coordinates":[[19.51226,52.17846],[19.5182,52.17827],[19.52148,52.17774]]}},{"type":"Feature","properties":{"numer":"2112E","klasa":"droga zbiorcza","kat":"powiatowa"},"geometry":{"type":"LineString","coordinates":[[19.52148,52.17774],[19.5255,52.17753],[19.54623,52.18503],[19.54813,52.18531]]}},{"type":"Feature","properties":{"numer":"102025E","klasa":"droga zbiorcza","kat":"powiatowa"},"geometry":{"type":"LineString","coordinates":[[19.54813,52.18531],[19.54823,52.18533]]}},{"type":"Feature","properties":{"numer":"2111E","klasa":"","kat":"powiatowa"},"geometry":{"type":"LineString","coordinates":[[19.53671,52.21255],[19.53587,52.21058],[19.5363,52.20412],[19.51579,52.18509],[19.51458,52.18327],[19.51226,52.17846]]}},{"type":"Feature","properties":{"numer":"2112E","klasa":"droga zbiorcza","kat":"powiatowa"},"geometry":{"type":"LineString","coordinates":[[19.54823,52.18533],[19.5488,52.18572],[19.55509,52.19186],[19.55638,52.19279],[19.5688,52.19457],[19.56905,52.19468],[19.57591,52.20829]]}},{"type":"Feature","properties":{"numer":"92","klasa":"droga gĹ‚Ăłwna ruchu przyĹ›pieszonego","kat":"krajowa"},"geometry":{"type":"LineString","coordinates":[[19.53671,52.21255],[19.57265,52.209],[19.57363,52.20885],[19.57591,52.20829]]}},{"type":"Feature","properties":{"numer":"92","klasa":"droga gĹ‚Ăłwna ruchu przyĹ›pieszonego","kat":"krajowa"},"geometry":{"type":"LineString","coordinates":[[19.53569,52.21266],[19.53671,52.21255]]}},{"type":"Feature","properties":{"numer":"2111E","klasa":"","kat":"powiatowa"},"geometry":{"type":"LineString","coordinates":[[19.53569,52.21266],[19.53768,52.22019],[19.54224,52.22717],[19.54225875644753,52.22718425490012]]}},{"type":"Feature","properties":{"numer":"2104E","klasa":"droga zbiorcza","kat":"powiatowa"},"geometry":{"type":"LineString","coordinates":[[19.61419,52.21308],[19.6175,52.21263],[19.61831,52.21241],[19.61941,52.21226],[19.6286,52.21135],[19.63073,52.21073],[19.63106,52.21048],[19.63212,52.20861],[19.6343,52.20729],[19.63643,52.20534],[19.63735,52.20397],[19.64028,52.20172],[19.64103,52.20152],[19.64621,52.20061],[19.64863,52.20076],[19.64877,52.20069],[19.64784,52.1842]]}},{"type":"Feature","properties":{"numer":"2119E","klasa":"droga zbiorcza","kat":"powiatowa"},"geometry":{"type":"LineString","coordinates":[[19.63045,52.21128],[19.65716787547106,52.21133905435059]]}},{"type":"Feature","properties":{"numer":"92","klasa":"droga gĹ‚Ăłwna ruchu przyĹ›pieszonego","kat":"krajowa"},"geometry":{"type":"LineString","coordinates":[[19.49937942895387,52.21624607279918],[19.53569,52.21266]]}},{"type":"Feature","properties":{"numer":"2104E","klasa":"droga zbiorcza","kat":"powiatowa"},"geometry":{"type":"LineString","coordinates":[[19.58446,52.20581],[19.58514,52.20724],[19.58529,52.20745],[19.58547,52.20751],[19.6005,52.20943],[19.60952,52.2109],[19.6134,52.21113]]}},{"type":"Feature","properties":{"numer":"2104E","klasa":"droga zbiorcza","kat":"powiatowa"},"geometry":{"type":"LineString","coordinates":[[19.6134,52.21113],[19.61419,52.21308]]}},{"type":"Feature","properties":{"numer":"2736E","klasa":"droga zbiorcza","kat":"powiatowa"},"geometry":{"type":"LineString","coordinates":[[19.61419,52.21308],[19.615351191618092,52.216175345126544]]}},{"type":"Feature","properties":{"numer":"583","klasa":"droga zbiorcza","kat":"wojewodzka"},"geometry":{"type":"LineString","coordinates":[[19.57783,52.20782],[19.57883,52.20853],[19.58848,52.2146],[19.59577,52.2232],[19.595832513418184,52.22325390187588]]}},{"type":"Feature","properties":{"numer":"","klasa":"droga lokalna","kat":"gminna"},"geometry":{"type":"LineString","coordinates":[[19.50701,52.23368],[19.50943,52.23335],[19.51102,52.23329]]}},{"type":"Feature","properties":{"numer":"","klasa":"droga lokalna","kat":"gminna"},"geometry":{"type":"LineString","coordinates":[[19.5027,52.23459],[19.50522,52.23397],[19.50701,52.23368]]}},{"type":"Feature","properties":{"numer":"102152E","klasa":"droga lokalna","kat":"powiatowa"},"geometry":{"type":"LineString","coordinates":[[19.502699832993414,52.23459008019492],[19.5027,52.23459]]}},{"type":"Feature","properties":{"numer":"2127E","klasa":"","kat":"powiatowa"},"geometry":{"type":"LineString","coordinates":[[19.51097621802002,52.23337],[19.51102,52.23329]]}}]}