{"type":"FeatureCollection","features":[{"type":"Feature","properties":{"numer":"2506E","klasa":"droga gĹ‚Ăłwna","kat":"powiatowa"},"geometry":{"type":"LineString","coordinates":[[19.11524079402498,52.12480050220097],[19.093703880509423,52.13376906182118]]}},{"type":"Feature","properties":{"numer":"2172E","klasa":"droga gĹ‚Ăłwna","kat":"powiatowa"},"geometry":{"type":"LineString","coordinates":[[19.067235029055915,52.16809802092292],[19.08513,52.18272]]}},{"type":"Feature","properties":{"numer":"2500E","klasa":"droga zbiorcza","kat":"powiatowa"},"geometry":{"type":"LineString","coordinates":[[19.08513,52.18272],[19.10347,52.1794],[19.11269,52.178],[19.11818,52.17708],[19.12182,52.17656],[19.12228,52.17633],[19.1228,52.17558]]}},{"type":"Feature","properties":{"numer":"2172E","klasa":"droga gĹ‚Ăłwna","kat":"powiatowa"},"geometry":{"type":"LineString","coordinates":[[19.08513,52.18272],[19.10621023112462,52.19990203760229]]}},{"type":"Feature","properties":{"numer":"91","klasa":"droga gĹ‚Ăłwna ruchu przyĹ›pieszonego","kat":"krajowa"},"geometry":{"type":"LineString","coordinates":[[19.189619808329592,52.109717043560906],[19.18919,52.11639]]}},{"type":"Feature","properties":{"numer":"2502E","klasa":"droga zbiorcza","kat":"powiatowa"},"geometry":{"type":"LineString","coordinates":[[19.18171,52.15478],[19.17627,52.15542],[19.1752,52.15549],[19.1686,52.15432],[19.16346,52.15412],[19.15339,52.15054],[19.15319,52.15061],[19.15283,52.15171],[19.15262,52.15177],[19.14988,52.15094],[19.1477,52.15039],[19.13077,52.14913],[19.12203,52.14856]]}},{"type":"Feature","properties":{"numer":"91","klasa":"droga gĹ‚Ăłwna ruchu przyĹ›pieszonego","kat":"krajowa"},"geometry":{"type":"LineString","coordinates":[[19.18171,52.15478],[19.18116,52.15592],[19.18092,52.15691],[19.18006,52.16618]]}},{"type":"Feature","properties":{"numer":"91","klasa":"droga gĹ‚Ăłwna ruchu przyĹ›pieszonego","kat":"krajowa"},"geometry":{"type":"LineString","coordinates":[[19.18006,52.16618],[19.17952,52.1722]]}},{"type":"Feature","properties":{"numer":"2500E","klasa":"droga zbiorcza","kat":"powiatowa"},"geometry":{"type":"LineString","coordinates":[[19.1228,52.17558],[19.14046,52.16846],[19.14156,52.16816],[19.1422,52.16808],[19.14805,52.16831],[19.15225,52.1681],[19.15655,52.16844],[19.16104,52.16841],[19.16654,52.16852],[19.16779,52.16883],[19.17952,52.1722]]}},{"type":"Feature","properties":{"numer":"91","klasa":"droga gĹ‚Ăłwna ruchu przyĹ›pieszonego","kat":"krajowa"},"geometry":{"type":"LineString","coordinates":[[19.17952,52.1722],[19.17783966577575,52.19141650945443]]}},{"type":"Feature","properties":{"numer":"91","klasa":"droga gĹ‚Ăłwna ruchu przyĹ›pieszonego","kat":"krajowa"},"geometry":{"type":"LineString","coordinates":[[19.177655095136465,52.19352728205172],[19.17725,52.19816]]}},{"type":"Feature","properties":{"numer":"91","klasa":"droga gĹ‚Ăłwna ruchu przyĹ›pieszonego","kat":"krajowa"},"geometry":{"type":"LineString","coordinates":[[19.17725,52.19816],[19.176556067141405,52.206082400135635]]}},{"type":"Feature","properties":{"numer":"2501E","klasa":"droga zbiorcza","kat":"powiatowa"},"geometry":{"type":"LineString","coordinates":[[19.12203,52.14856],[19.12221,52.1473],[19.12256,52.14649],[19.12283,52.14616],[19.12378,52.14542],[19.12401,52.1451],[19.12763,52.13292],[19.12902,52.13033],[19.12981,52.12794],[19.129688303304277,52.12624004928162]]}},{"type":"Feature","properties":{"numer":"2501E","klasa":"droga zbiorcza","kat":"powiatowa"},"geometry":{"type":"LineString","coordinates":[[19.12203,52.14856],[19.12252,52.17286],[19.1228,52.17558]]}},{"type":"Feature","properties":{"numer":"2504E","klasa":"droga zbiorcza","kat":"powiatowa"},"geometry":{"type":"LineString","coordinates":[[19.18919,52.11639],[19.19894,52.11724],[19.19913,52.11749],[19.19953,52.1201],[19.19967,52.12037],[19.20656,52.12457],[19.20685,52.1247],[19.20726,52.12475],[19.210079092844598,52.124819977481955]]}},{"type":"Feature","properties":{"numer":"91","klasa":"droga gĹ‚Ăłwna ruchu przyĹ›pieszonego","kat":"krajowa"},"geometry":{"type":"LineString","coordinates":[[19.18919,52.11639],[19.18716,52.14371],[19.18683,52.14467],[19.18171,52.15478]]}},{"type":"Feature","properties":{"numer":"2502E","klasa":"droga zbiorcza","kat":"powiatowa"},"geometry":{"type":"LineString","coordinates":[[19.20667,52.16416],[19.20653,52.16111],[19.20646,52.16103],[19.19998,52.16026],[19.19563,52.1568],[19.19038,52.156],[19.18709,52.15565],[19.1836,52.15475],[19.18294,52.15471],[19.18171,52.15478]]}},{"type":"Feature","properties":{"numer":"2503E","klasa":"droga zbiorcza","kat":"powiatowa"},"geometry":{"type":"LineString","coordinates":[[19.20667,52.16416],[19.18756,52.16398],[19.18667,52.16416],[19.18006,52.16618]]}},{"type":"Feature","properties":{"numer":"2503E","klasa":"droga zbiorcza","kat":"powiatowa"},"geometry":{"type":"LineString","coordinates":[[19.22036877877205,52.16491118415835],[19.2164,52.16373],[19.21523,52.16345],[19.21475,52.16343],[19.21364,52.16361],[19.21158,52.16367],[19.20667,52.16416]]}},{"type":"Feature","properties":{"numer":"2168E","klasa":"droga zbiorcza","kat":"powiatowa"},"geometry":{"type":"LineString","coordinates":[[19.17725,52.19816],[19.17964,52.1984],[19.18144,52.19833],[19.186074135075593,52.197328483628354]]}},{"type":"Feature","properties":{"numer":"2500E","klasa":"droga zbiorcza","kat":"powiatowa"},"geometry":{"type":"LineString","coordinates":[[19.068830057309135,52.18520687670046],[19.06893,52.18519],[19.08313,52.18347],[19.08513,52.18272]]}},{"type":"Feature","properties":{"numer":"2174E","klasa":"","kat":"powiatowa"},"geometry":{"type":"LineString","coordinates":[[19.070990097298743,52.19536677908017],[19.07821911373764,52.199826329496304]]}}]}