{"type":"FeatureCollection","features":[{"type":"Feature","properties":{"numer":"726","klasa":"droga gĹ‚Ăłwna","kat":"wojewodzka"},"geometry":{"type":"LineString","coordinates":[[20.2558,51.46644],[20.26273,51.45643],[20.262769949090323,51.45639193403178]]}},{"type":"Feature","properties":{"numer":"3140E","klasa":"droga zbiorcza","kat":"powiatowa"},"geometry":{"type":"LineString","coordinates":[[20.25232,51.47498],[20.25265,51.47494],[20.25695,51.47281],[20.25748,51.47272],[20.27214,51.47177],[20.27252,51.47194],[20.27328,51.47339]]}},{"type":"Feature","properties":{"numer":"3140E","klasa":"droga zbiorcza","kat":"powiatowa"},"geometry":{"type":"LineString","coordinates":[[20.27328,51.47339],[20.27333,51.47346]]}},{"type":"Feature","properties":{"numer":"3104E","klasa":"droga zbiorcza","kat":"powiatowa"},"geometry":{"type":"LineString","coordinates":[[20.252218404691046,51.46387097916728],[20.2558,51.46644]]}},{"type":"Feature","properties":{"numer":"726","klasa":"droga gĹ‚Ăłwna","kat":"wojewodzka"},"geometry":{"type":"LineString","coordinates":[[20.25232,51.47498],[20.2558,51.46644]]}},{"type":"Feature","properties":{"numer":"726","klasa":"droga gĹ‚Ăłwna","kat":"wojewodzka"},"geometry":{"type":"LineString","coordinates":[[20.25232,51.47498],[20.25188,51.47629],[20.2496,51.48147]]}},{"type":"Feature","properties":{"numer":"726","klasa":"droga gĹ‚Ăłwna","kat":"wojewodzka"},"geometry":{"type":"LineString","coordinates":[[20.2496,51.48147],[20.24951,51.48168]]}},{"type":"Feature","properties":{"numer":"726","klasa":"droga gĹ‚Ăłwna","kat":"wojewodzka"},"geometry":{"type":"LineString","coordinates":[[20.24951,51.48168],[20.2462,51.48851],[20.24579,51.4909]]}},{"type":"Feature","properties":{"numer":"726","klasa":"droga gĹ‚Ăłwna","kat":"wojewodzka"},"geometry":{"type":"LineString","coordinates":[[20.24579,51.4909],[20.245787118644067,51.49094033898305]]}},{"type":"Feature","properties":{"numer":"3140E","klasa":"droga zbiorcza","kat":"powiatowa"},"geometry":{"type":"LineString","coordinates":[[20.27333,51.47346],[20.2737,51.47395],[20.27566,51.47536]]}},{"type":"Feature","properties":{"numer":"3140E","klasa":"droga zbiorcza","kat":"powiatowa"},"geometry":{"type":"LineString","coordinates":[[20.27566,51.47536],[20.28101,51.47903],[20.28131,51.47933]]}},{"type":"Feature","properties":{"numer":"3140E","klasa":"droga zbiorcza","kat":"powiatowa"},"geometry":{"type":"LineString","coordinates":[[20.28131,51.47933],[20.28217,51.48067],[20.28203,51.4833],[20.2823,51.48353],[20.28716,51.48549],[20.29013,51.48679],[20.29548,51.48876],[20.29931,51.48994],[20.30111,51.49028],[20.30242,51.49085],[20.30348,51.49104],[20.30471,51.49162],[20.30643,51.49266],[20.30676,51.49298],[20.30793,51.49476],[20.30965,51.49677],[20.31057,51.49816],[20.31276,51.50078],[20.31583,51.50551],[20.31721,51.50684],[20.31811,51.50798],[20.31972,51.50964],[20.3204,51.51015],[20.32419,51.51257],[20.32906,51.51541],[20.33341,51.51712],[20.34493,51.51883]]}},{"type":"Feature","properties":{"numer":"48","klasa":"droga gĹ‚Ăłwna","kat":"krajowa"},"geometry":{"type":"LineString","coordinates":[[20.25265005082384,51.518257030084435],[20.25293,51.51819],[20.25422,51.51757],[20.25694,51.51658],[20.26321,51.51448],[20.26639,51.51377],[20.26709,51.51367],[20.26795,51.51366],[20.28842,51.51658],[20.30826,51.52418],[20.30918,51.52444],[20.31823,51.5247],[20.32917,51.52396],[20.33472,51.52426],[20.34738,51.52464],[20.3481,51.5248],[20.34859,51.52505]]}},{"type":"Feature","properties":{"numer":"3140E","klasa":"droga zbiorcza","kat":"powiatowa"},"geometry":{"type":"LineString","coordinates":[[20.34493,51.51883],[20.34547,51.51892],[20.34767,51.52293]]}},{"type":"Feature","properties":{"numer":"48","klasa":"droga gĹ‚Ăłwna","kat":"krajowa"},"geometry":{"type":"LineString","coordinates":[[20.4515,51.52382],[20.45148,51.52383],[20.43559,51.52829],[20.41246,51.53286],[20.4078,51.53416],[20.40109,51.53455],[20.39138,51.53331],[20.37875,51.53337],[20.37007,51.53225],[20.36738,51.5318],[20.36536,51.53183],[20.36484,51.5319],[20.36368,51.53289]]}},{"type":"Feature","properties":{"numer":"3100E","klasa":"droga zbiorcza","kat":"powiatowa"},"geometry":{"type":"LineString","coordinates":[[20.36368,51.53289],[20.36388,51.53314],[20.36421,51.53448],[20.36433,51.53644],[20.36375,51.53741],[20.3624,51.53914],[20.36225,51.54053],[20.36402,51.54349],[20.36558,51.547],[20.37357,51.55338],[20.374,51.55383],[20.37551,51.55578],[20.37679,51.55766],[20.39281,51.57744],[20.40479,51.58569]]}},{"type":"Feature","properties":{"numer":"3100E","klasa":"droga zbiorcza","kat":"powiatowa"},"geometry":{"type":"LineString","coordinates":[[20.4051,51.58589],[20.41227,51.59071],[20.41648,51.59391],[20.42609,51.59809],[20.42829,51.59972]]}},{"type":"Feature","properties":{"numer":"48","klasa":"droga gĹ‚Ăłwna","kat":"krajowa"},"geometry":{"type":"LineString","coordinates":[[20.451501700173882,51.52381949968609],[20.4515,51.52382]]}},{"type":"Feature","properties":{"numer":"1686W","klasa":"droga zbiorcza","kat":"powiatowa"},"geometry":{"type":"LineString","coordinates":[[20.42829,51.59972],[20.428292312437986,51.59972208186252]]}},{"type":"Feature","properties":{"numer":"3140E","klasa":"droga zbiorcza","kat":"powiatowa"},"geometry":{"type":"LineString","coordinates":[[20.34767,51.52293],[20.34826,51.52424],[20.34874,51.52497],[20.34859,51.52505]]}},{"type":"Feature","properties":{"numer":"48","klasa":"droga gĹ‚Ăłwna","kat":"krajowa"},"geometry":{"type":"LineString","coordinates":[[20.34859,51.52505],[20.35196,51.528],[20.35276,51.52887],[20.35482,51.5297],[20.35985,51.53304],[20.36077,51.53334],[20.36129,51.53343],[20.36323,51.53305],[20.36368,51.53289]]}}]}