{"type":"FeatureCollection","features":[{"type":"Feature","properties":{"numer":"3510E","klasa":"droga zbiorcza","kat":"powiatowa"},"geometry":{"type":"LineString","coordinates":[[19.00676,51.07825],[19.00784,51.07785],[19.01057,51.07626],[19.01108,51.07613],[19.01303,51.07629],[19.01603,51.07671],[19.01786,51.07684],[19.03172,51.07703]]}},{"type":"Feature","properties":{"numer":"3512E","klasa":"droga zbiorcza","kat":"powiatowa"},"geometry":{"type":"LineString","coordinates":[[19.00676,51.07825],[19.01635,51.09216],[19.0223,51.10128]]}},{"type":"Feature","properties":{"numer":"109157E,3512E","klasa":"droga zbiorcza","kat":"powiatowa"},"geometry":{"type":"LineString","coordinates":[[19.0223,51.10128],[19.02292,51.10224]]}},{"type":"Feature","properties":{"numer":"3512E","klasa":"droga zbiorcza","kat":"powiatowa"},"geometry":{"type":"LineString","coordinates":[[19.02292,51.10224],[19.02771,51.10958],[19.02815,51.1105]]}},{"type":"Feature","properties":{"numer":"42","klasa":"droga gĹ‚Ăłwna","kat":"krajowa"},"geometry":{"type":"LineString","coordinates":[[19.03432,51.10797],[19.02828,51.11057]]}},{"type":"Feature","properties":{"numer":"3511E,3512E","klasa":"droga zbiorcza","kat":"powiatowa"},"geometry":{"type":"LineString","coordinates":[[19.02815,51.1105],[19.02828,51.11057]]}},{"type":"Feature","properties":{"numer":"42","klasa":"droga gĹ‚Ăłwna","kat":"krajowa"},"geometry":{"type":"LineString","coordinates":[[19.02828,51.11057],[19.02588,51.11237],[19.0095,51.1298],[18.99982,51.13989],[18.99952,51.14042],[18.99966,51.14177]]}},{"type":"Feature","properties":{"numer":"42","klasa":"droga gĹ‚Ăłwna","kat":"krajowa"},"geometry":{"type":"LineString","coordinates":[[19.07439,51.10105],[19.07506,51.10085],[19.07899,51.09915],[19.09166519925459,51.0933528158448]]}},{"type":"Feature","properties":{"numer":"42","klasa":"droga gĹ‚Ăłwna","kat":"krajowa"},"geometry":{"type":"LineString","coordinates":[[19.07245,51.10086],[19.06192,51.09853],[19.05543,51.09947]]}},{"type":"Feature","properties":{"numer":"109170E","klasa":"","kat":"powiatowa"},"geometry":{"type":"LineString","coordinates":[[19.07241,51.10101],[19.07245,51.10086]]}},{"type":"Feature","properties":{"numer":"42","klasa":"droga gĹ‚Ăłwna","kat":"krajowa"},"geometry":{"type":"LineString","coordinates":[[19.07245,51.10086],[19.07364,51.10109],[19.07439,51.10105]]}},{"type":"Feature","properties":{"numer":"3516E","klasa":"droga zbiorcza","kat":"powiatowa"},"geometry":{"type":"LineString","coordinates":[[19.086718242801712,51.10321267476797],[19.07439,51.10105]]}},{"type":"Feature","properties":{"numer":"3513E","klasa":"droga zbiorcza","kat":"powiatowa"},"geometry":{"type":"LineString","coordinates":[[19.0774,51.12328],[19.07805,51.12281],[19.07825,51.12256],[19.08023,51.11855],[19.08372,51.11212],[19.08372201206988,51.112114609171265]]}},{"type":"Feature","properties":{"numer":"3513E","klasa":"droga zbiorcza","kat":"powiatowa"},"geometry":{"type":"LineString","coordinates":[[19.085561354166675,51.10654526041664],[19.08584,51.10557],[19.086368906082075,51.10421898989905]]}},{"type":"Feature","properties":{"numer":"109170E,3514E","klasa":"droga zbiorcza","kat":"powiatowa"},"geometry":{"type":"LineString","coordinates":[[19.07246,51.11533],[19.07212,51.11491]]}},{"type":"Feature","properties":{"numer":"3514E","klasa":"droga zbiorcza","kat":"powiatowa"},"geometry":{"type":"LineString","coordinates":[[19.0774,51.12328],[19.07246,51.11533]]}},{"type":"Feature","properties":{"numer":"3510E","klasa":"droga zbiorcza","kat":"powiatowa"},"geometry":{"type":"LineString","coordinates":[[19.03172,51.07703],[19.03358,51.07667],[19.03641,51.07589],[19.03788,51.07519],[19.03878,51.07497],[19.04058,51.07437],[19.04204,51.0738],[19.04198,51.06584],[19.04357,51.06584],[19.04451,51.06554],[19.04517,51.06543],[19.04805,51.06529],[19.04986,51.0656],[19.05516,51.0652],[19.05853,51.06546],[19.06141,51.06472],[19.06406,51.06432],[19.06721,51.06432],[19.06826,51.06443],[19.0692,51.06441],[19.07484,51.06351],[19.076818273033062,51.06314001763886]]}},{"type":"Feature","properties":{"numer":"42","klasa":"droga gĹ‚Ăłwna","kat":"krajowa"},"geometry":{"type":"LineString","coordinates":[[19.05543,51.09947],[19.05524,51.0995]]}},{"type":"Feature","properties":{"numer":"42","klasa":"droga gĹ‚Ăłwna","kat":"krajowa"},"geometry":{"type":"LineString","coordinates":[[19.05524,51.0995],[19.05359,51.09976],[19.05309,51.09993],[19.03432,51.10797]]}},{"type":"Feature","properties":{"numer":"3514E","klasa":"droga zbiorcza","kat":"powiatowa"},"geometry":{"type":"LineString","coordinates":[[19.07212,51.11491],[19.07154,51.11475],[19.04167,51.10937],[19.03432,51.10797]]}},{"type":"Feature","properties":{"numer":"3513E","klasa":"droga zbiorcza","kat":"powiatowa"},"geometry":{"type":"LineString","coordinates":[[19.03969,51.13996],[19.05005,51.13751],[19.05744,51.13553],[19.06147,51.13475],[19.0654,51.13188],[19.0672,51.1304],[19.0727,51.12626],[19.07309,51.12603],[19.07331,51.126],[19.07411,51.1263]]}},{"type":"Feature","properties":{"numer":"1500E","klasa":"droga zbiorcza","kat":"powiatowa"},"geometry":{"type":"LineString","coordinates":[[19.02153,51.14714],[19.02875,51.14707],[19.04111,51.14824],[19.04896,51.15029]]}},{"type":"Feature","properties":{"numer":"3510E","klasa":"droga zbiorcza","kat":"powiatowa"},"geometry":{"type":"LineString","coordinates":[[18.96154,51.08899],[18.96374,51.0882],[18.9652,51.08746],[18.96657,51.08713],[18.96748,51.0867],[18.96874,51.08634],[18.97124,51.08527],[18.97191,51.08484]]}},{"type":"Feature","properties":{"numer":"3510E","klasa":"droga zbiorcza","kat":"powiatowa"},"geometry":{"type":"LineString","coordinates":[[18.96601,51.1028],[18.9649,51.10202],[18.96555,51.10158],[18.96799,51.10104],[18.96847,51.10074],[18.96855,51.09744],[18.96577,51.09499],[18.9651,51.094],[18.9641,51.09306],[18.96369,51.09192],[18.96331,51.09145],[18.96184,51.09057],[18.96137,51.08936],[18.96137,51.08919],[18.96154,51.08899]]}},{"type":"Feature","properties":{"numer":"3512E","klasa":"droga zbiorcza","kat":"powiatowa"},"geometry":{"type":"LineString","coordinates":[[19.00106,51.07141],[19.00034,51.07079]]}},{"type":"Feature","properties":{"numer":"3512E","klasa":"droga zbiorcza","kat":"powiatowa"},"geometry":{"type":"LineString","coordinates":[[19.00106,51.07141],[19.00342,51.07345],[19.00676,51.07825]]}},{"type":"Feature","properties":{"numer":"3510E","klasa":"droga zbiorcza","kat":"powiatowa"},"geometry":{"type":"LineString","coordinates":[[18.97191,51.08484],[18.9739,51.08396],[18.98159,51.08117],[18.98307,51.08028],[18.98804,51.07885],[18.98963,51.07852],[18.99591,51.07673],[18.99626,51.07671],[18.99654,51.07682],[18.99734,51.07812],[18.9984,51.07933],[18.99912,51.08001],[18.9994,51.08018],[19.0,51.0801],[19.00676,51.07825]]}},{"type":"Feature","properties":{"numer":"3511E","klasa":"droga zbiorcza","kat":"powiatowa"},"geometry":{"type":"LineString","coordinates":[[18.97013,51.10488],[18.9779,51.10367]]}},{"type":"Feature","properties":{"numer":"3511E","klasa":"droga zbiorcza","kat":"powiatowa"},"geometry":{"type":"LineString","coordinates":[[18.9779,51.10367],[18.98516,51.10272],[18.98562,51.10271],[18.98588,51.10284],[18.9868,51.10418],[18.98698,51.10475],[18.9872,51.10488],[19.0065,51.10695],[19.02514,51.10974],[19.02815,51.1105]]}},{"type":"Feature","properties":{"numer":"3510E","klasa":"droga zbiorcza","kat":"powiatowa"},"geometry":{"type":"LineString","coordinates":[[18.98757,51.1415],[18.98574,51.13733],[18.98211,51.13133],[18.98,51.12803],[18.97305,51.11548],[18.97044,51.11002],[18.96717,51.10538]]}},{"type":"Feature","properties":{"numer":"109419E,42","klasa":"droga gĹ‚Ăłwna","kat":"powiatowa"},"geometry":{"type":"LineString","coordinates":[[18.99968,51.14205],[18.99966,51.14177]]}},{"type":"Feature","properties":{"numer":"42","klasa":"droga gĹ‚Ăłwna","kat":"krajowa"},"geometry":{"type":"LineString","coordinates":[[18.99972,51.14289],[18.99968,51.14205]]}},{"type":"Feature","properties":{"numer":"42","klasa":"droga gĹ‚Ăłwna","kat":"krajowa"},"geometry":{"type":"LineString","coordinates":[[18.99903,51.14489],[18.99959,51.14457],[18.99975,51.14434],[18.99972,51.14289]]}},{"type":"Feature","properties":{"numer":"3510E","klasa":"droga zbiorcza","kat":"powiatowa"},"geometry":{"type":"LineString","coordinates":[[18.98805,51.14671],[18.98819,51.14619],[18.98773,51.14437],[18.98757,51.1415]]}},{"type":"Feature","properties":{"numer":"42","klasa":"droga gĹ‚Ăłwna","kat":"krajowa"},"geometry":{"type":"LineString","coordinates":[[18.9935,51.14662],[18.99574,51.14586],[18.99758,51.14539],[18.99903,51.14489]]}},{"type":"Feature","properties":{"numer":"3500E","klasa":"droga zbiorcza","kat":"powiatowa"},"geometry":{"type":"LineString","coordinates":[[18.99903,51.14489],[19.00141,51.14705],[19.0017,51.14721]]}},{"type":"Feature","properties":{"numer":"109426E","klasa":"droga lokalna","kat":"powiatowa"},"geometry":{"type":"LineString","coordinates":[[18.9935,51.14662],[18.99369,51.14686]]}},{"type":"Feature","properties":{"numer":"42","klasa":"droga gĹ‚Ăłwna","kat":"krajowa"},"geometry":{"type":"LineString","coordinates":[[18.99103,51.14741],[18.9935,51.14662]]}},{"type":"Feature","properties":{"numer":"42","klasa":"droga gĹ‚Ăłwna","kat":"krajowa"},"geometry":{"type":"LineString","coordinates":[[18.98805,51.14671],[18.99103,51.14741]]}},{"type":"Feature","properties":{"numer":"109426E","klasa":"droga lokalna","kat":"powiatowa"},"geometry":{"type":"LineString","coordinates":[[18.99369,51.14686],[18.99409,51.14731],[18.99423,51.14735]]}},{"type":"Feature","properties":{"numer":"3500E","klasa":"droga zbiorcza","kat":"powiatowa"},"geometry":{"type":"LineString","coordinates":[[19.0017,51.14721],[19.00185,51.14728]]}},{"type":"Feature","properties":{"numer":"1500E","klasa":"droga zbiorcza","kat":"powiatowa"},"geometry":{"type":"LineString","coordinates":[[19.00185,51.14728],[19.00203,51.14729]]}},{"type":"Feature","properties":{"numer":"109455E","klasa":"droga lokalna","kat":"powiatowa"},"geometry":{"type":"LineString","coordinates":[[19.0006,51.14731],[19.00107,51.14731]]}},{"type":"Feature","properties":{"numer":"109455E","klasa":"droga lokalna","kat":"powiatowa"},"geometry":{"type":"LineString","coordinates":[[18.99865,51.14733],[19.0006,51.14731]]}},{"type":"Feature","properties":{"numer":"109455E","klasa":"droga lokalna","kat":"powiatowa"},"geometry":{"type":"LineString","coordinates":[[18.99769,51.14733],[18.99865,51.14733]]}},{"type":"Feature","properties":{"numer":"109455E","klasa":"droga lokalna","kat":"powiatowa"},"geometry":{"type":"LineString","coordinates":[[18.99742,51.14733],[18.99769,51.14733]]}},{"type":"Feature","properties":{"numer":"109455E","klasa":"droga lokalna","kat":"powiatowa"},"geometry":{"type":"LineString","coordinates":[[18.99695,51.14734],[18.99742,51.14733]]}},{"type":"Feature","properties":{"numer":"3500E","klasa":"droga zbiorcza","kat":"powiatowa"},"geometry":{"type":"LineString","coordinates":[[19.00185,51.14728],[19.00186,51.14739]]}},{"type":"Feature","properties":{"numer":"109455E","klasa":"droga lokalna","kat":"powiatowa"},"geometry":{"type":"LineString","coordinates":[[18.99654,51.14734],[18.99695,51.14734]]}},{"type":"Feature","properties":{"numer":"109455E","klasa":"droga lokalna","kat":"powiatowa"},"geometry":{"type":"LineString","coordinates":[[18.99606,51.14735],[18.99654,51.14734]]}},{"type":"Feature","properties":{"numer":"109428E,109455E","klasa":"droga lokalna","kat":"powiatowa"},"geometry":{"type":"LineString","coordinates":[[18.99517,51.14735],[18.99529,51.14735]]}},{"type":"Feature","properties":{"numer":"109455E","klasa":"droga lokalna","kat":"powiatowa"},"geometry":{"type":"LineString","coordinates":[[18.99529,51.14735],[18.99606,51.14735]]}},{"type":"Feature","properties":{"numer":"109455E","klasa":"droga lokalna","kat":"powiatowa"},"geometry":{"type":"LineString","coordinates":[[18.9947,51.14736],[18.99517,51.14735]]}},{"type":"Feature","properties":{"numer":"109455E","klasa":"droga lokalna","kat":"powiatowa"},"geometry":{"type":"LineString","coordinates":[[18.99423,51.14735],[18.9947,51.14736]]}},{"type":"Feature","properties":{"numer":"4536E","klasa":"droga zbiorcza","kat":"powiatowa"},"geometry":{"type":"LineString","coordinates":[[18.98991,51.14807],[18.99103,51.14741]]}},{"type":"Feature","properties":{"numer":"109408E,4536E","klasa":"droga zbiorcza","kat":"powiatowa"},"geometry":{"type":"LineString","coordinates":[[18.98982,51.14812],[18.98991,51.14807]]}},{"type":"Feature","properties":{"numer":"4536E","klasa":"droga zbiorcza","kat":"powiatowa"},"geometry":{"type":"LineString","coordinates":[[18.98595,51.15018],[18.98982,51.14812]]}},{"type":"Feature","properties":{"numer":"3513E","klasa":"droga zbiorcza","kat":"powiatowa"},"geometry":{"type":"LineString","coordinates":[[19.02153,51.14714],[19.02457,51.1456],[19.02662,51.14486],[19.03261,51.14172],[19.03969,51.13996]]}},{"type":"Feature","properties":{"numer":"1500E","klasa":"droga zbiorcza","kat":"powiatowa"},"geometry":{"type":"LineString","coordinates":[[19.02153,51.14714],[19.00477,51.14732],[19.00203,51.14729]]}},{"type":"Feature","properties":{"numer":"3500E","klasa":"droga zbiorcza","kat":"powiatowa"},"geometry":{"type":"LineString","coordinates":[[19.00186,51.14739],[19.020130547934826,51.16423881849185]]}},{"type":"Feature","properties":{"numer":"109161E,3510E","klasa":"droga zbiorcza","kat":"powiatowa"},"geometry":{"type":"LineString","coordinates":[[18.96627,51.10299],[18.96601,51.1028]]}},{"type":"Feature","properties":{"numer":"3510E","klasa":"droga zbiorcza","kat":"powiatowa"},"geometry":{"type":"LineString","coordinates":[[18.96717,51.10538],[18.96703,51.10517],[18.96655,51.10327],[18.96627,51.10299]]}},{"type":"Feature","properties":{"numer":"3511E","klasa":"droga zbiorcza","kat":"powiatowa"},"geometry":{"type":"LineString","coordinates":[[18.96717,51.10538],[18.97013,51.10488]]}},{"type":"Feature","properties":{"numer":"42","klasa":"droga gĹ‚Ăłwna","kat":"krajowa"},"geometry":{"type":"LineString","coordinates":[[18.94741181987839,51.13658339467095],[18.98805,51.14671]]}},{"type":"Feature","properties":{"numer":"109431E,4536E","klasa":"droga zbiorcza","kat":"powiatowa"},"geometry":{"type":"LineString","coordinates":[[18.98591,51.15019],[18.98595,51.15018]]}},{"type":"Feature","properties":{"numer":"4536E","klasa":"droga zbiorcza","kat":"powiatowa"},"geometry":{"type":"LineString","coordinates":[[18.96136,51.15655],[18.96182,51.15625],[18.96509,51.15489],[18.96587,51.15464],[18.9668,51.15461],[18.9691,51.15468],[18.9805,51.15319],[18.98102,51.153],[18.98591,51.15019]]}},{"type":"Feature","properties":{"numer":"3513E,3514E","klasa":"droga zbiorcza","kat":"powiatowa"},"geometry":{"type":"LineString","coordinates":[[19.07701,51.12356],[19.0774,51.12328]]}},{"type":"Feature","properties":{"numer":"3513E,3514E","klasa":"droga zbiorcza","kat":"powiatowa"},"geometry":{"type":"LineString","coordinates":[[19.07411,51.1263],[19.07701,51.12356]]}},{"type":"Feature","properties":{"numer":"3514E","klasa":"droga zbiorcza","kat":"powiatowa"},"geometry":{"type":"LineString","coordinates":[[19.07411,51.1263],[19.08031,51.12952],[19.08215,51.13015],[19.082383787369928,51.130261260254365]]}},{"type":"Feature","properties":{"numer":"3515E","klasa":"droga zbiorcza","kat":"powiatowa"},"geometry":{"type":"LineString","coordinates":[[19.07611183786599,51.146986587794686],[19.04896,51.15029]]}},{"type":"Feature","properties":{"numer":"1500E","klasa":"droga zbiorcza","kat":"powiatowa"},"geometry":{"type":"LineString","coordinates":[[19.04896,51.15029],[19.04992,51.15055],[19.05099,51.151],[19.05394,51.15341],[19.05508,51.154],[19.07687,51.16076],[19.077609135413816,51.160998489505445]]}},{"type":"Feature","properties":{"numer":"4527E","klasa":"droga zbiorcza","kat":"powiatowa"},"geometry":{"type":"LineString","coordinates":[[18.94225943001376,51.16249627221225],[18.94455,51.16166],[18.94625,51.16123],[18.94747,51.16101],[18.95039,51.16067],[18.95354,51.15968],[18.96049,51.15678],[18.96112,51.15655],[18.96136,51.15655]]}},{"type":"Feature","properties":{"numer":"4536E","klasa":"droga zbiorcza","kat":"powiatowa"},"geometry":{"type":"LineString","coordinates":[[18.95150226992886,51.17233652560293],[18.95725,51.16763],[18.95813,51.16682],[18.95851,51.16592],[18.96097,51.15729],[18.96136,51.15655]]}}]}