{"type":"FeatureCollection","features":[{"type":"Feature","properties":{"numer":"1526E","klasa":"droga zbiorcza","kat":"powiatowa"},"geometry":{"type":"LineString","coordinates":[[19.95574,51.47216],[19.95377,51.46783]]}},{"type":"Feature","properties":{"numer":"1526E","klasa":"droga zbiorcza","kat":"powiatowa"},"geometry":{"type":"LineString","coordinates":[[19.95797,51.47703],[19.95574,51.47216]]}},{"type":"Feature","properties":{"numer":"1526E","klasa":"","kat":"powiatowa"},"geometry":{"type":"LineString","coordinates":[[19.958031573381554,51.477019716699935],[19.95803,51.47702]]}},{"type":"Feature","properties":{"numer":"1526E","klasa":"droga zbiorcza","kat":"powiatowa"},"geometry":{"type":"LineString","coordinates":[[19.95803,51.47702],[19.95797,51.47703]]}},{"type":"Feature","properties":{"numer":"4333E","klasa":"","kat":"powiatowa"},"geometry":{"type":"LineString","coordinates":[[19.95606,51.47756],[19.95797,51.47703]]}},{"type":"Feature","properties":{"numer":"1522E","klasa":"droga zbiorcza","kat":"powiatowa"},"geometry":{"type":"LineString","coordinates":[[19.857785964629638,51.43533713315173],[19.86598,51.43753],[19.86875,51.43791],[19.87289,51.43827],[19.87356,51.43842],[19.89001,51.44817],[19.89017,51.44851],[19.88935,51.45186],[19.88919,51.45443],[19.89022,51.46497]]}},{"type":"Feature","properties":{"numer":"1522E","klasa":"droga zbiorcza","kat":"powiatowa"},"geometry":{"type":"LineString","coordinates":[[19.89022,51.46497],[19.89145,51.47623]]}},{"type":"Feature","properties":{"numer":"1522E","klasa":"droga zbiorcza","kat":"powiatowa"},"geometry":{"type":"LineString","coordinates":[[19.89145,51.47623],[19.89146,51.47634]]}},{"type":"Feature","properties":{"numer":"110531E,4333E","klasa":"droga zbiorcza","kat":"powiatowa"},"geometry":{"type":"LineString","coordinates":[[19.89162,51.47631],[19.89146,51.47634]]}},{"type":"Feature","properties":{"numer":"1522E","klasa":"droga zbiorcza","kat":"powiatowa"},"geometry":{"type":"LineString","coordinates":[[19.89147,51.47645],[19.89146,51.47634]]}},{"type":"Feature","properties":{"numer":"1522E","klasa":"droga zbiorcza","kat":"powiatowa"},"geometry":{"type":"LineString","coordinates":[[19.8931,51.49145],[19.89147,51.47645]]}},{"type":"Feature","properties":{"numer":"1526E","klasa":"droga zbiorcza","kat":"powiatowa"},"geometry":{"type":"LineString","coordinates":[[19.95377,51.46783],[19.95343,51.46709],[19.9531,51.46693],[19.94116,51.46376],[19.94099,51.46358],[19.93996,51.4594],[19.92421,51.45669],[19.91759,51.45369],[19.91686,51.45347],[19.9161,51.45358],[19.91376,51.45459],[19.90255,51.45876],[19.9022,51.45901],[19.90173,51.45976],[19.90126,51.46007],[19.89022,51.46497]]}},{"type":"Feature","properties":{"numer":"4333E","klasa":"droga zbiorcza","kat":"powiatowa"},"geometry":{"type":"LineString","coordinates":[[19.89162,51.47631],[19.90901,51.47346],[19.90959,51.47344],[19.9135,51.47484],[19.91574,51.47552],[19.91656,51.47562],[19.918,51.47545],[19.91875,51.47547],[19.92275,51.47673],[19.92602,51.47729],[19.9265,51.47751],[19.93244,51.481],[19.932725847723056,51.48105081737299]]}},{"type":"Feature","properties":{"numer":"4333E","klasa":"droga zbiorcza","kat":"powiatowa"},"geometry":{"type":"LineString","coordinates":[[19.943737248755685,51.48007340910314],[19.9483,51.47965],[19.95606,51.47756]]}},{"type":"Feature","properties":{"numer":"E67,S8","klasa":"droga ekspresowa","kat":"krajowa"},"geometry":{"type":"LineString","coordinates":[[19.90261,51.51291],[19.90261398276208,51.51291175287842]]}},{"type":"Feature","properties":{"numer":"E67,S8","klasa":"droga ekspresowa","kat":"krajowa"},"geometry":{"type":"LineString","coordinates":[[19.77902,51.45901],[19.7651,51.44996],[19.76217,51.44837],[19.759258466386555,51.44715768907563]]}},{"type":"Feature","properties":{"numer":"1533E","klasa":"droga zbiorcza","kat":"powiatowa"},"geometry":{"type":"LineString","coordinates":[[19.77932,51.45931],[19.77902,51.45901]]}},{"type":"Feature","properties":{"numer":"E67,S8","klasa":"droga ekspresowa","kat":"krajowa"},"geometry":{"type":"LineString","coordinates":[[19.78069,51.4601],[19.77902,51.45901]]}},{"type":"Feature","properties":{"numer":"1533E","klasa":"droga zbiorcza","kat":"powiatowa"},"geometry":{"type":"LineString","coordinates":[[19.77932,51.45931],[19.78054,51.46022]]}},{"type":"Feature","properties":{"numer":"1533E","klasa":"droga zbiorcza","kat":"powiatowa"},"geometry":{"type":"LineString","coordinates":[[19.78054,51.46022],[19.78069,51.4601]]}},{"type":"Feature","properties":{"numer":"1533E","klasa":"droga zbiorcza","kat":"powiatowa"},"geometry":{"type":"LineString","coordinates":[[19.78039,51.46031],[19.78054,51.46022]]}},{"type":"Feature","properties":{"numer":"1913E","klasa":"droga zbiorcza","kat":"powiatowa"},"geometry":{"type":"LineString","coordinates":[[19.825043021116834,51.437662542846226],[19.82981,51.46467]]}},{"type":"Feature","properties":{"numer":"E67,S8","klasa":"droga ekspresowa","kat":"krajowa"},"geometry":{"type":"LineString","coordinates":[[19.80857,51.47818],[19.80732,51.47737]]}},{"type":"Feature","properties":{"numer":"1913E","klasa":"droga zbiorcza","kat":"powiatowa"},"geometry":{"type":"LineString","coordinates":[[19.82981,51.46467],[19.83382,51.48703],[19.83442,51.49101]]}},{"type":"Feature","properties":{"numer":"E67,S8","klasa":"droga ekspresowa","kat":"krajowa"},"geometry":{"type":"LineString","coordinates":[[19.81775,51.48416],[19.80857,51.47818]]}},{"type":"Feature","properties":{"numer":"E67,S8","klasa":"droga ekspresowa","kat":"krajowa"},"geometry":{"type":"LineString","coordinates":[[19.81969,51.48542],[19.81775,51.48416]]}},{"type":"Feature","properties":{"numer":"E67,S8","klasa":"droga ekspresowa","kat":"krajowa"},"geometry":{"type":"LineString","coordinates":[[19.83204,51.49277],[19.8307,51.49231],[19.82932,51.49166],[19.82853,51.4912],[19.81969,51.48542]]}},{"type":"Feature","properties":{"numer":"1913E","klasa":"droga zbiorcza","kat":"powiatowa"},"geometry":{"type":"LineString","coordinates":[[19.83442,51.49101],[19.83446,51.49131]]}},{"type":"Feature","properties":{"numer":"1913E","klasa":"droga zbiorcza","kat":"powiatowa"},"geometry":{"type":"LineString","coordinates":[[19.83446,51.49131],[19.83448,51.49148],[19.83423,51.49154]]}},{"type":"Feature","properties":{"numer":"1913E","klasa":"droga zbiorcza","kat":"powiatowa"},"geometry":{"type":"LineString","coordinates":[[19.8339,51.49165],[19.83423,51.49154]]}},{"type":"Feature","properties":{"numer":"1533E","klasa":"droga zbiorcza","kat":"powiatowa"},"geometry":{"type":"LineString","coordinates":[[19.76070506796894,51.47500770980497],[19.76932,51.47123],[19.76973,51.47111],[19.77068,51.47108],[19.77238,51.46915],[19.77339,51.46574],[19.77391,51.46505]]}},{"type":"Feature","properties":{"numer":"1533E","klasa":"droga zbiorcza","kat":"powiatowa"},"geometry":{"type":"LineString","coordinates":[[19.78054,51.46022],[19.78293,51.46164]]}},{"type":"Feature","properties":{"numer":"E67,S8","klasa":"droga ekspresowa","kat":"krajowa"},"geometry":{"type":"LineString","coordinates":[[19.78333,51.46181],[19.78069,51.4601]]}},{"type":"Feature","properties":{"numer":"1533E","klasa":"droga zbiorcza","kat":"powiatowa"},"geometry":{"type":"LineString","coordinates":[[19.77753,51.46223],[19.77778,51.4622],[19.78039,51.46031]]}},{"type":"Feature","properties":{"numer":"1533E","klasa":"droga zbiorcza","kat":"powiatowa"},"geometry":{"type":"LineString","coordinates":[[19.78293,51.46164],[19.78333,51.46181]]}},{"type":"Feature","properties":{"numer":"1533E","klasa":"droga zbiorcza","kat":"powiatowa"},"geometry":{"type":"LineString","coordinates":[[19.77648,51.46315],[19.77711,51.46269],[19.77753,51.46223]]}},{"type":"Feature","properties":{"numer":"1533E","klasa":"droga zbiorcza","kat":"powiatowa"},"geometry":{"type":"LineString","coordinates":[[19.77391,51.46505],[19.77648,51.46315]]}},{"type":"Feature","properties":{"numer":"E67,S8","klasa":"droga ekspresowa","kat":"krajowa"},"geometry":{"type":"LineString","coordinates":[[19.80732,51.47737],[19.78333,51.46181]]}},{"type":"Feature","properties":{"numer":"1536E","klasa":"droga zbiorcza","kat":"powiatowa"},"geometry":{"type":"LineString","coordinates":[[19.757046018216553,51.504475049709576],[19.75743,51.50455],[19.76691,51.50572],[19.76767,51.50593],[19.76894,51.50641],[19.77276,51.50755],[19.77681,51.50814]]}},{"type":"Feature","properties":{"numer":"1531E","klasa":"droga zbiorcza","kat":"powiatowa"},"geometry":{"type":"LineString","coordinates":[[19.77681,51.50814],[19.78294,51.50708],[19.78946,51.50577],[19.79733,51.50435],[19.80332,51.50384],[19.8043,51.50386],[19.80604,51.50407],[19.80817,51.50457],[19.81049,51.50493],[19.8153,51.50493],[19.81905,51.50484],[19.82437,51.5054]]}},{"type":"Feature","properties":{"numer":"1509E","klasa":"droga zbiorcza","kat":"powiatowa"},"geometry":{"type":"LineString","coordinates":[[19.76082,51.51611],[19.75159,51.51063],[19.75157249766224,51.51061695904245]]}},{"type":"Feature","properties":{"numer":"1531E","klasa":"droga zbiorcza","kat":"powiatowa"},"geometry":{"type":"LineString","coordinates":[[19.740662390131035,51.52601269468005],[19.74341,51.52472],[19.76082,51.51611]]}},{"type":"Feature","properties":{"numer":"1913E","klasa":"droga zbiorcza","kat":"powiatowa"},"geometry":{"type":"LineString","coordinates":[[19.83275,51.49278],[19.83334,51.49199],[19.8339,51.49165]]}},{"type":"Feature","properties":{"numer":"E67,S8","klasa":"droga ekspresowa","kat":"krajowa"},"geometry":{"type":"LineString","coordinates":[[19.83272,51.49295],[19.83204,51.49277]]}},{"type":"Feature","properties":{"numer":"1913E","klasa":"droga zbiorcza","kat":"powiatowa"},"geometry":{"type":"LineString","coordinates":[[19.83275,51.49278],[19.83272,51.49295]]}},{"type":"Feature","properties":{"numer":"1913E","klasa":"droga zbiorcza","kat":"powiatowa"},"geometry":{"type":"LineString","coordinates":[[19.83272,51.49295],[19.83268,51.49314]]}},{"type":"Feature","properties":{"numer":"E67,S8","klasa":"droga ekspresowa","kat":"krajowa"},"geometry":{"type":"LineString","coordinates":[[19.83394,51.49323],[19.83272,51.49295]]}},{"type":"Feature","properties":{"numer":"1913E","klasa":"droga zbiorcza","kat":"powiatowa"},"geometry":{"type":"LineString","coordinates":[[19.83268,51.49314],[19.83272,51.49357],[19.83295,51.49395]]}},{"type":"Feature","properties":{"numer":"1913E","klasa":"droga zbiorcza","kat":"powiatowa"},"geometry":{"type":"LineString","coordinates":[[19.83295,51.49395],[19.83315,51.49416]]}},{"type":"Feature","properties":{"numer":"1913E","klasa":"droga zbiorcza","kat":"powiatowa"},"geometry":{"type":"LineString","coordinates":[[19.83315,51.49416],[19.83336,51.49448]]}},{"type":"Feature","properties":{"numer":"1913E","klasa":"droga zbiorcza","kat":"powiatowa"},"geometry":{"type":"LineString","coordinates":[[19.83338,51.49468],[19.83336,51.49448]]}},{"type":"Feature","properties":{"numer":"E67,S8","klasa":"droga ekspresowa","kat":"krajowa"},"geometry":{"type":"LineString","coordinates":[[19.84921,51.49686],[19.84392,51.49552],[19.83394,51.49323]]}},{"type":"Feature","properties":{"numer":"E67,S8","klasa":"droga ekspresowa","kat":"krajowa"},"geometry":{"type":"LineString","coordinates":[[19.84981,51.49701],[19.84921,51.49686]]}},{"type":"Feature","properties":{"numer":"1913E","klasa":"droga zbiorcza","kat":"powiatowa"},"geometry":{"type":"LineString","coordinates":[[19.83056,51.50173],[19.83338,51.49468]]}},{"type":"Feature","properties":{"numer":"E67,S8","klasa":"droga ekspresowa","kat":"krajowa"},"geometry":{"type":"LineString","coordinates":[[19.86402,51.50111],[19.86062,51.49992],[19.84981,51.49701]]}},{"type":"Feature","properties":{"numer":"110506E,1913E","klasa":"droga zbiorcza","kat":"powiatowa"},"geometry":{"type":"LineString","coordinates":[[19.83048,51.50213],[19.83056,51.50173]]}},{"type":"Feature","properties":{"numer":"1913E","klasa":"droga zbiorcza","kat":"powiatowa"},"geometry":{"type":"LineString","coordinates":[[19.83018,51.50361],[19.83048,51.50213]]}},{"type":"Feature","properties":{"numer":"1913E","klasa":"droga zbiorcza","kat":"powiatowa"},"geometry":{"type":"LineString","coordinates":[[19.83012,51.50383],[19.83018,51.50361]]}},{"type":"Feature","properties":{"numer":"1913E","klasa":"droga zbiorcza","kat":"powiatowa"},"geometry":{"type":"LineString","coordinates":[[19.8301,51.50493],[19.83012,51.50383]]}},{"type":"Feature","properties":{"numer":"1511E","klasa":"droga zbiorcza","kat":"powiatowa"},"geometry":{"type":"LineString","coordinates":[[19.82542,51.50533],[19.82716,51.5052],[19.82916,51.50495],[19.8301,51.50493]]}},{"type":"Feature","properties":{"numer":"1511E","klasa":"droga zbiorcza","kat":"powiatowa"},"geometry":{"type":"LineString","coordinates":[[19.82542,51.50533],[19.8251,51.50535]]}},{"type":"Feature","properties":{"numer":"1511E","klasa":"droga zbiorcza","kat":"powiatowa"},"geometry":{"type":"LineString","coordinates":[[19.82437,51.5054],[19.8251,51.50535]]}},{"type":"Feature","properties":{"numer":"110530E,1522E","klasa":"droga zbiorcza","kat":"powiatowa"},"geometry":{"type":"LineString","coordinates":[[19.8931,51.49148],[19.8931,51.49145]]}},{"type":"Feature","properties":{"numer":"1522E","klasa":"droga zbiorcza","kat":"powiatowa"},"geometry":{"type":"LineString","coordinates":[[19.89651,51.50964],[19.89743,51.50846],[19.89744,51.50827],[19.89729,51.50803],[19.89701,51.50786],[19.89655,51.5078],[19.89481,51.50791],[19.8931,51.49148]]}},{"type":"Feature","properties":{"numer":"E67,S8","klasa":"droga ekspresowa","kat":"krajowa"},"geometry":{"type":"LineString","coordinates":[[19.87111,51.50369],[19.86847,51.5028],[19.86402,51.50111]]}},{"type":"Feature","properties":{"numer":"E67,S8","klasa":"droga ekspresowa","kat":"krajowa"},"geometry":{"type":"LineString","coordinates":[[19.89466,51.50925],[19.89047,51.50729],[19.88844,51.5066],[19.88572,51.50611],[19.88072,51.50577],[19.87856,51.50551],[19.87622,51.50501],[19.87111,51.50369]]}},{"type":"Feature","properties":{"numer":"E67,S8","klasa":"droga ekspresowa","kat":"krajowa"},"geometry":{"type":"LineString","coordinates":[[19.89466,51.50925],[19.89622,51.51]]}},{"type":"Feature","properties":{"numer":"1522E","klasa":"droga zbiorcza","kat":"powiatowa"},"geometry":{"type":"LineString","coordinates":[[19.89622,51.51],[19.89651,51.50964]]}},{"type":"Feature","properties":{"numer":"1522E","klasa":"droga zbiorcza","kat":"powiatowa"},"geometry":{"type":"LineString","coordinates":[[19.89622,51.51],[19.89592,51.51037]]}},{"type":"Feature","properties":{"numer":"E67,S8","klasa":"droga ekspresowa","kat":"krajowa"},"geometry":{"type":"LineString","coordinates":[[19.89622,51.51],[19.8972,51.51047]]}},{"type":"Feature","properties":{"numer":"E67,S8","klasa":"droga ekspresowa","kat":"krajowa"},"geometry":{"type":"LineString","coordinates":[[19.8972,51.51047],[19.90261,51.51291]]}},{"type":"Feature","properties":{"numer":"1522E","klasa":"droga zbiorcza","kat":"powiatowa"},"geometry":{"type":"LineString","coordinates":[[19.89515,51.51334],[19.89524,51.51144],[19.89592,51.51037]]}},{"type":"Feature","properties":{"numer":"1522E","klasa":"droga zbiorcza","kat":"powiatowa"},"geometry":{"type":"LineString","coordinates":[[19.89515,51.51334],[19.89514,51.5134]]}},{"type":"Feature","properties":{"numer":"1522E","klasa":"droga zbiorcza","kat":"powiatowa"},"geometry":{"type":"LineString","coordinates":[[19.89514,51.5134],[19.89508,51.51372]]}},{"type":"Feature","properties":{"numer":"1522E","klasa":"droga zbiorcza","kat":"powiatowa"},"geometry":{"type":"LineString","coordinates":[[19.89508,51.51372],[19.89502,51.51382]]}},{"type":"Feature","properties":{"numer":"1522E","klasa":"droga zbiorcza","kat":"powiatowa"},"geometry":{"type":"LineString","coordinates":[[19.89318031635719,51.51609960799218],[19.89502,51.51382]]}},{"type":"Feature","properties":{"numer":"4325E","klasa":"","kat":"powiatowa"},"geometry":{"type":"LineString","coordinates":[[19.87085,51.51658],[19.870892625058016,51.51658855400824]]}},{"type":"Feature","properties":{"numer":"1913E","klasa":"droga zbiorcza","kat":"powiatowa"},"geometry":{"type":"LineString","coordinates":[[19.88513551590814,51.55137488098011],[19.88499,51.55126],[19.85248,51.52073],[19.84251,51.51276],[19.83906,51.51021]]}},{"type":"Feature","properties":{"numer":"1913E","klasa":"droga zbiorcza","kat":"powiatowa"},"geometry":{"type":"LineString","coordinates":[[19.83671,51.50871],[19.83468,51.50674],[19.83388,51.50617],[19.83312,51.50579],[19.83044,51.50511],[19.8301,51.50493]]}},{"type":"Feature","properties":{"numer":"1913E","klasa":"droga zbiorcza","kat":"powiatowa"},"geometry":{"type":"LineString","coordinates":[[19.83671,51.50871],[19.837,51.50898]]}},{"type":"Feature","properties":{"numer":"1913E","klasa":"droga zbiorcza","kat":"powiatowa"},"geometry":{"type":"LineString","coordinates":[[19.83798,51.50987],[19.837,51.50898]]}},{"type":"Feature","properties":{"numer":"1913E","klasa":"droga zbiorcza","kat":"powiatowa"},"geometry":{"type":"LineString","coordinates":[[19.83798,51.50987],[19.83811,51.50994]]}},{"type":"Feature","properties":{"numer":"1913E","klasa":"droga zbiorcza","kat":"powiatowa"},"geometry":{"type":"LineString","coordinates":[[19.83906,51.51021],[19.83811,51.50994]]}},{"type":"Feature","properties":{"numer":"4332E","klasa":"droga zbiorcza","kat":"powiatowa"},"geometry":{"type":"LineString","coordinates":[[19.87084,51.51661],[19.83906,51.51021]]}},{"type":"Feature","properties":{"numer":"1531E","klasa":"droga zbiorcza","kat":"powiatowa"},"geometry":{"type":"LineString","coordinates":[[19.76082,51.51611],[19.76937,51.51186],[19.774,51.50973],[19.77681,51.50814]]}},{"type":"Feature","properties":{"numer":"1511E","klasa":"droga zbiorcza","kat":"powiatowa"},"geometry":{"type":"LineString","coordinates":[[19.77499,51.53128],[19.77645,51.53124],[19.77731,51.53096],[19.79743,51.51957],[19.81568,51.50965],[19.82043,51.50629],[19.82272,51.5057],[19.82437,51.5054]]}},{"type":"Feature","properties":{"numer":"1509E","klasa":"droga zbiorcza","kat":"powiatowa"},"geometry":{"type":"LineString","coordinates":[[19.76082,51.51611],[19.76902,51.52097],[19.7737,51.52876],[19.77499,51.53128]]}},{"type":"Feature","properties":{"numer":"1511E","klasa":"droga zbiorcza","kat":"powiatowa"},"geometry":{"type":"LineString","coordinates":[[19.759372254173698,51.533322518579865],[19.76716,51.53216],[19.77331,51.53133],[19.77499,51.53128]]}},{"type":"Feature","properties":{"numer":"1509E","klasa":"droga zbiorcza","kat":"powiatowa"},"geometry":{"type":"LineString","coordinates":[[19.7823,51.53856],[19.78037,51.53799],[19.77881,51.53719],[19.77847,51.53697],[19.77785,51.53627],[19.77717,51.53584],[19.77685,51.53536],[19.77499,51.53128]]}},{"type":"Feature","properties":{"numer":"1509E","klasa":"droga zbiorcza","kat":"powiatowa"},"geometry":{"type":"LineString","coordinates":[[19.7823,51.53856],[19.78242,51.5386]]}},{"type":"Feature","properties":{"numer":"1509E","klasa":"droga zbiorcza","kat":"powiatowa"},"geometry":{"type":"LineString","coordinates":[[19.78242,51.5386],[19.78434,51.5392]]}},{"type":"Feature","properties":{"numer":"1509E","klasa":"droga zbiorcza","kat":"powiatowa"},"geometry":{"type":"LineString","coordinates":[[19.78434,51.5392],[19.78483,51.53942]]}},{"type":"Feature","properties":{"numer":"1509E","klasa":"droga zbiorcza","kat":"powiatowa"},"geometry":{"type":"LineString","coordinates":[[19.786244931506847,51.54063712328767],[19.7857,51.53998],[19.78483,51.53942]]}}]}