{"type":"FeatureCollection","features":[{"type":"Feature","properties":{"numer":"12,1540E,91","klasa":"droga gĹ‚Ăłwna ruchu przyĹ›pieszonego","kat":"gminna"},"geometry":{"type":"LineString","coordinates":[[19.66963,51.44584],[19.6695,51.4452]]}},{"type":"Feature","properties":{"numer":"12,91","klasa":"droga gĹ‚Ăłwna ruchu przyĹ›pieszonego","kat":"gminna"},"geometry":{"type":"LineString","coordinates":[[19.66976,51.44643],[19.66963,51.44584]]}},{"type":"Feature","properties":{"numer":"12,91","klasa":"droga gĹ‚Ăłwna ruchu przyĹ›pieszonego","kat":"gminna"},"geometry":{"type":"LineString","coordinates":[[19.66996,51.4496],[19.67014,51.44851],[19.66976,51.44643]]}},{"type":"Feature","properties":{"numer":"12,91","klasa":"droga gĹ‚Ăłwna ruchu przyĹ›pieszonego","kat":"gminna"},"geometry":{"type":"LineString","coordinates":[[19.66938,51.45095],[19.66996,51.4496]]}},{"type":"Feature","properties":{"numer":"12,91","klasa":"droga gĹ‚Ăłwna ruchu przyĹ›pieszonego","kat":"gminna"},"geometry":{"type":"LineString","coordinates":[[19.66765,51.45438],[19.66938,51.45095]]}},{"type":"Feature","properties":{"numer":"12,91","klasa":"droga gĹ‚Ăłwna ruchu przyĹ›pieszonego","kat":"gminna"},"geometry":{"type":"LineString","coordinates":[[19.66765,51.45438],[19.66572,51.45815]]}},{"type":"Feature","properties":{"numer":"8,A1,E75","klasa":"autostrada","kat":"krajowa"},"geometry":{"type":"LineString","coordinates":[[19.62026727966206,51.483726404479704],[19.61323,51.49155],[19.61057,51.49483],[19.60904,51.49695]]}},{"type":"Feature","properties":{"numer":"8,A1,E75","klasa":"autostrada","kat":"krajowa"},"geometry":{"type":"LineString","coordinates":[[19.60904,51.49695],[19.60838,51.49793]]}},{"type":"Feature","properties":{"numer":"8,A1,E75","klasa":"autostrada","kat":"krajowa"},"geometry":{"type":"LineString","coordinates":[[19.60838,51.49793],[19.60633,51.50123],[19.60459,51.50447],[19.60298,51.50809],[19.60187,51.51109]]}},{"type":"Feature","properties":{"numer":"A1,S8,E67,E75","klasa":"autostrada","kat":"krajowa"},"geometry":{"type":"LineString","coordinates":[[19.60187,51.51109],[19.601864979243743,51.51110749500634]]}},{"type":"Feature","properties":{"numer":"8,A1,E75","klasa":"autostrada","kat":"krajowa"},"geometry":{"type":"LineString","coordinates":[[19.600895828593043,51.51448865327262],[19.60037,51.51684],[19.59984,51.5201]]}},{"type":"Feature","properties":{"numer":"2932E","klasa":"droga zbiorcza","kat":"powiatowa"},"geometry":{"type":"LineString","coordinates":[[19.598829976908647,51.520226497330064],[19.59981,51.52047]]}},{"type":"Feature","properties":{"numer":"8,A1,E75","klasa":"autostrada","kat":"krajowa"},"geometry":{"type":"LineString","coordinates":[[19.59984,51.5201],[19.59981,51.52047]]}},{"type":"Feature","properties":{"numer":"8,A1,E75","klasa":"autostrada","kat":"krajowa"},"geometry":{"type":"LineString","coordinates":[[19.59981,51.52047],[19.59976,51.52087]]}},{"type":"Feature","properties":{"numer":"8,A1,E75","klasa":"autostrada","kat":"krajowa"},"geometry":{"type":"LineString","coordinates":[[19.59976,51.52087],[19.59962220877353,51.52227743895613]]}},{"type":"Feature","properties":{"numer":"12,91","klasa":"droga gĹ‚Ăłwna ruchu przyĹ›pieszonego","kat":"gminna"},"geometry":{"type":"LineString","coordinates":[[19.63028,51.52991],[19.63339,51.52249],[19.63496,51.51907],[19.65072,51.48759],[19.66572,51.45815]]}},{"type":"Feature","properties":{"numer":"1531E","klasa":"droga zbiorcza","kat":"powiatowa"},"geometry":{"type":"LineString","coordinates":[[19.63028,51.52991],[19.63309,51.52976],[19.64693,51.52751],[19.66986,51.52398],[19.67009,51.52409],[19.67137,51.53062]]}},{"type":"Feature","properties":{"numer":"1531E","klasa":"droga zbiorcza","kat":"powiatowa"},"geometry":{"type":"LineString","coordinates":[[19.67137,51.53062],[19.67138,51.53068]]}},{"type":"Feature","properties":{"numer":"12,91","klasa":"droga gĹ‚Ăłwna ruchu przyĹ›pieszonego","kat":"gminna"},"geometry":{"type":"LineString","coordinates":[[19.6296,51.53143],[19.63028,51.52991]]}},{"type":"Feature","properties":{"numer":"12,2932E,91","klasa":"droga gĹ‚Ăłwna ruchu przyĹ›pieszonego","kat":"gminna"},"geometry":{"type":"LineString","coordinates":[[19.62942,51.5316],[19.6296,51.53143]]}},{"type":"Feature","properties":{"numer":"2932E","klasa":"droga zbiorcza","kat":"powiatowa"},"geometry":{"type":"LineString","coordinates":[[19.6296,51.53143],[19.63014,51.53162],[19.6319,51.53344],[19.63262,51.53404],[19.6406,51.53982],[19.6437,51.54202],[19.64647,51.54361],[19.6479,51.54514]]}},{"type":"Feature","properties":{"numer":"106607E,2932E","klasa":"droga zbiorcza","kat":"powiatowa"},"geometry":{"type":"LineString","coordinates":[[19.6479,51.54514],[19.64817,51.54511],[19.65182,51.54394]]}},{"type":"Feature","properties":{"numer":"2932E","klasa":"droga zbiorcza","kat":"powiatowa"},"geometry":{"type":"LineString","coordinates":[[19.65182,51.54394],[19.65206,51.54399],[19.65215,51.54415],[19.65818,51.55671]]}},{"type":"Feature","properties":{"numer":"2932E","klasa":"droga zbiorcza","kat":"powiatowa"},"geometry":{"type":"LineString","coordinates":[[19.65818,51.55671],[19.65821,51.55678]]}},{"type":"Feature","properties":{"numer":"2932E","klasa":"droga zbiorcza","kat":"powiatowa"},"geometry":{"type":"LineString","coordinates":[[19.59981,51.52047],[19.60424,51.52155],[19.61051,51.52286],[19.61188,51.52332],[19.61218,51.5235]]}},{"type":"Feature","properties":{"numer":"2932E","klasa":"droga zbiorcza","kat":"powiatowa"},"geometry":{"type":"LineString","coordinates":[[19.61218,51.5235],[19.61221,51.52356]]}},{"type":"Feature","properties":{"numer":"2932E","klasa":"droga zbiorcza","kat":"powiatowa"},"geometry":{"type":"LineString","coordinates":[[19.61221,51.52356],[19.61232,51.52394],[19.61257,51.52412],[19.61444,51.52492],[19.61732,51.52631],[19.61874,51.52721],[19.62451,51.53013],[19.62657,51.53104],[19.62785,51.53128],[19.62859,51.53151],[19.62942,51.5316]]}},{"type":"Feature","properties":{"numer":"12,91","klasa":"droga gĹ‚Ăłwna ruchu przyĹ›pieszonego","kat":"gminna"},"geometry":{"type":"LineString","coordinates":[[19.61172,51.54418],[19.61364,51.54286],[19.62055,51.53851],[19.62437,51.53595],[19.62554,51.53499],[19.62813,51.53245],[19.62942,51.5316]]}},{"type":"Feature","properties":{"numer":"12,91","klasa":"droga gĹ‚Ăłwna ruchu przyĹ›pieszonego","kat":"gminna"},"geometry":{"type":"LineString","coordinates":[[19.61172,51.54418],[19.60964,51.54548]]}},{"type":"Feature","properties":{"numer":"12,91","klasa":"droga gĹ‚Ăłwna ruchu przyĹ›pieszonego","kat":"gminna"},"geometry":{"type":"LineString","coordinates":[[19.60964,51.54548],[19.609548273640485,51.54553429391133]]}},{"type":"Feature","properties":{"numer":"1534E","klasa":"droga zbiorcza","kat":"powiatowa"},"geometry":{"type":"LineString","coordinates":[[19.6965,51.44367],[19.6964757518797,51.44348948621554]]}},{"type":"Feature","properties":{"numer":"716","klasa":"droga gĹ‚Ăłwna ruchu przyĹ›pieszonego","kat":"wojewodzka"},"geometry":{"type":"LineString","coordinates":[[19.72405875945537,51.445865582450836],[19.7241,51.44597]]}},{"type":"Feature","properties":{"numer":"12,1540E,91","klasa":"droga gĹ‚Ăłwna ruchu przyĹ›pieszonego","kat":"gminna"},"geometry":{"type":"LineString","coordinates":[[19.6695,51.4452],[19.66912754911412,51.443158682644686]]}},{"type":"Feature","properties":{"numer":"716","klasa":"droga zbiorcza","kat":"wojewodzka"},"geometry":{"type":"LineString","coordinates":[[19.72361,51.44863],[19.72417,51.44656],[19.7241,51.44597]]}},{"type":"Feature","properties":{"numer":"716","klasa":"droga zbiorcza","kat":"wojewodzka"},"geometry":{"type":"LineString","coordinates":[[19.72358,51.44874],[19.72361,51.44863]]}},{"type":"Feature","properties":{"numer":"716","klasa":"droga zbiorcza","kat":"wojewodzka"},"geometry":{"type":"LineString","coordinates":[[19.71037,51.49708],[19.71383,51.48446],[19.71593,51.47634],[19.72358,51.44874]]}},{"type":"Feature","properties":{"numer":"1533E","klasa":"droga zbiorcza","kat":"powiatowa"},"geometry":{"type":"LineString","coordinates":[[19.71037,51.49708],[19.76070506796894,51.47500770980497]]}},{"type":"Feature","properties":{"numer":"716","klasa":"droga zbiorcza","kat":"wojewodzka"},"geometry":{"type":"LineString","coordinates":[[19.71184,51.50035],[19.71016,51.49807],[19.71037,51.49708]]}},{"type":"Feature","properties":{"numer":"716","klasa":"droga zbiorcza","kat":"wojewodzka"},"geometry":{"type":"LineString","coordinates":[[19.71188,51.5004],[19.71184,51.50035]]}},{"type":"Feature","properties":{"numer":"716","klasa":"droga zbiorcza","kat":"wojewodzka"},"geometry":{"type":"LineString","coordinates":[[19.71225,51.50082],[19.71188,51.5004]]}},{"type":"Feature","properties":{"numer":"716","klasa":"droga zbiorcza","kat":"wojewodzka"},"geometry":{"type":"LineString","coordinates":[[19.71229,51.50087],[19.71225,51.50082]]}},{"type":"Feature","properties":{"numer":"716","klasa":"droga zbiorcza","kat":"wojewodzka"},"geometry":{"type":"LineString","coordinates":[[19.71427,51.5031],[19.71229,51.50087]]}},{"type":"Feature","properties":{"numer":"1536E","klasa":"droga zbiorcza","kat":"powiatowa"},"geometry":{"type":"LineString","coordinates":[[19.71427,51.5031],[19.73507,51.50202],[19.73886,51.50188],[19.74114,51.5021],[19.74302,51.50205],[19.74552,51.50229],[19.74703,51.50252]]}},{"type":"Feature","properties":{"numer":"1536E","klasa":"droga zbiorcza","kat":"powiatowa"},"geometry":{"type":"LineString","coordinates":[[19.74703,51.50252],[19.757046018216553,51.504475049709576]]}},{"type":"Feature","properties":{"numer":"1509E","klasa":"droga zbiorcza","kat":"powiatowa"},"geometry":{"type":"LineString","coordinates":[[19.751471268878582,51.510541533674235],[19.74751,51.50759],[19.74688,51.50377],[19.74703,51.50252]]}},{"type":"Feature","properties":{"numer":"716","klasa":"droga zbiorcza","kat":"wojewodzka"},"geometry":{"type":"LineString","coordinates":[[19.71483,51.52912],[19.71704,51.52238],[19.71371,51.50435],[19.71372,51.50411],[19.71427,51.5031]]}},{"type":"Feature","properties":{"numer":"1531E","klasa":"droga zbiorcza","kat":"powiatowa"},"geometry":{"type":"LineString","coordinates":[[19.71423,51.53049],[19.72443,51.52979],[19.73431,51.527],[19.73799,51.52727],[19.740662390131035,51.52601269468005]]}},{"type":"Feature","properties":{"numer":"716","klasa":"droga gĹ‚Ăłwna","kat":"wojewodzka"},"geometry":{"type":"LineString","coordinates":[[19.71423,51.53049],[19.71441,51.53033],[19.71483,51.52912]]}},{"type":"Feature","properties":{"numer":"1531E,716","klasa":"droga gĹ‚Ăłwna","kat":"powiatowa"},"geometry":{"type":"LineString","coordinates":[[19.71275,51.53099],[19.71304,51.53079],[19.71423,51.53049]]}},{"type":"Feature","properties":{"numer":"1531E","klasa":"droga zbiorcza","kat":"powiatowa"},"geometry":{"type":"LineString","coordinates":[[19.70756,51.53165],[19.71027,51.53138],[19.71136,51.53136],[19.71239,51.53098],[19.71275,51.53099]]}},{"type":"Feature","properties":{"numer":"1531E","klasa":"droga zbiorcza","kat":"powiatowa"},"geometry":{"type":"LineString","coordinates":[[19.70756,51.53165],[19.70748,51.53165]]}},{"type":"Feature","properties":{"numer":"1531E","klasa":"droga zbiorcza","kat":"powiatowa"},"geometry":{"type":"LineString","coordinates":[[19.67138,51.53068],[19.67181,51.53299],[19.67191,51.53315],[19.67206,51.53321],[19.70002,51.53203],[19.70748,51.53165]]}},{"type":"Feature","properties":{"numer":"716","klasa":"droga gĹ‚Ăłwna","kat":"wojewodzka"},"geometry":{"type":"LineString","coordinates":[[19.71403,51.53914],[19.71386,51.53717],[19.71301,51.53448],[19.71274,51.53314],[19.71275,51.53099]]}},{"type":"Feature","properties":{"numer":"1511E","klasa":"droga zbiorcza","kat":"powiatowa"},"geometry":{"type":"LineString","coordinates":[[19.71403,51.53914],[19.71635,51.53831],[19.71722,51.53807],[19.7202,51.53771],[19.72688,51.53672],[19.73444,51.53648]]}},{"type":"Feature","properties":{"numer":"716","klasa":"droga gĹ‚Ăłwna","kat":"wojewodzka"},"geometry":{"type":"LineString","coordinates":[[19.71041,51.54616],[19.71008,51.54255],[19.71029,51.54181],[19.71065,51.54142],[19.71268,51.53974],[19.71403,51.53914]]}},{"type":"Feature","properties":{"numer":"2932E","klasa":"droga zbiorcza","kat":"powiatowa"},"geometry":{"type":"LineString","coordinates":[[19.65821,51.55678],[19.65915,51.55874]]}},{"type":"Feature","properties":{"numer":"2932E","klasa":"droga zbiorcza","kat":"powiatowa"},"geometry":{"type":"LineString","coordinates":[[19.65915,51.55874],[19.66082,51.56224]]}},{"type":"Feature","properties":{"numer":"2932E","klasa":"droga zbiorcza","kat":"powiatowa"},"geometry":{"type":"LineString","coordinates":[[19.66082,51.56224],[19.66135,51.56324],[19.66152178041543,51.56345779302671]]}},{"type":"Feature","properties":{"numer":"1511E","klasa":"droga zbiorcza","kat":"powiatowa"},"geometry":{"type":"LineString","coordinates":[[19.73444,51.53648],[19.73956,51.53628],[19.759372254173698,51.533322518579865]]}},{"type":"Feature","properties":{"numer":"110055E,716","klasa":"droga gĹ‚Ăłwna","kat":"powiatowa"},"geometry":{"type":"LineString","coordinates":[[19.71047,51.54691],[19.71041,51.54616]]}},{"type":"Feature","properties":{"numer":"1508E","klasa":"droga zbiorcza","kat":"powiatowa"},"geometry":{"type":"LineString","coordinates":[[19.746730857998255,51.55765088073673],[19.74631,51.55585],[19.74619,51.55568],[19.74478,51.55538],[19.74339,51.5548],[19.74247,51.55456],[19.73944,51.55283],[19.73711,51.55164],[19.7363,51.55126],[19.73505,51.55092],[19.73483,51.55074],[19.7347,51.55002],[19.73481,51.54907],[19.73445,51.54677],[19.73415,51.54312],[19.73377,51.54085],[19.73342,51.53774],[19.73444,51.53648]]}},{"type":"Feature","properties":{"numer":"716","klasa":"droga gĹ‚Ăłwna","kat":"wojewodzka"},"geometry":{"type":"LineString","coordinates":[[19.71047,51.54691],[19.71044,51.54747]]}},{"type":"Feature","properties":{"numer":"716","klasa":"droga zbiorcza","kat":"wojewodzka"},"geometry":{"type":"LineString","coordinates":[[19.71044,51.54747],[19.710599546988785,51.55009977450481]]}}]}