{"type":"FeatureCollection","features":[{"type":"Feature","properties":{"numer":"3719E","klasa":"","kat":"powiatowa"},"geometry":{"type":"LineString","coordinates":[[19.13403108242206,51.82435462368245],[19.12646,51.83756],[19.12108,51.84974]]}},{"type":"Feature","properties":{"numer":"3707E","klasa":"droga zbiorcza","kat":"powiatowa"},"geometry":{"type":"LineString","coordinates":[[19.10189,51.88277],[19.10209,51.88285],[19.11055,51.88378],[19.11271,51.88412],[19.12881,51.88548],[19.1432,51.88684],[19.14802,51.88683],[19.15452,51.88651],[19.15563,51.88758],[19.15958,51.89207],[19.18088,51.91681]]}},{"type":"Feature","properties":{"numer":"5137E","klasa":"droga zbiorcza","kat":"powiatowa"},"geometry":{"type":"LineString","coordinates":[[19.12938,51.93083],[19.12611,51.93486],[19.12587,51.93546]]}},{"type":"Feature","properties":{"numer":"5137E","klasa":"droga zbiorcza","kat":"powiatowa"},"geometry":{"type":"LineString","coordinates":[[19.12587,51.93546],[19.12585,51.93554]]}},{"type":"Feature","properties":{"numer":"72","klasa":"droga gĹ‚Ăłwna","kat":"krajowa"},"geometry":{"type":"LineString","coordinates":[[19.12047,51.86356],[19.12806,51.86203],[19.152067516433863,51.85693376157843]]}},{"type":"Feature","properties":{"numer":"3705E","klasa":"droga zbiorcza","kat":"powiatowa"},"geometry":{"type":"LineString","coordinates":[[19.12938,51.93083],[19.1308,51.93092],[19.13191,51.93108],[19.13795407816715,51.93265112868679]]}},{"type":"Feature","properties":{"numer":"3707E","klasa":"","kat":"powiatowa"},"geometry":{"type":"LineString","coordinates":[[19.180925516061066,51.916863174318955],[19.18088,51.91681]]}},{"type":"Feature","properties":{"numer":"3706E","klasa":"droga zbiorcza","kat":"powiatowa"},"geometry":{"type":"LineString","coordinates":[[19.09883,51.82518],[19.094030131339476,51.820071426093676]]}},{"type":"Feature","properties":{"numer":"3706E","klasa":"droga zbiorcza","kat":"powiatowa"},"geometry":{"type":"LineString","coordinates":[[19.0989,51.82525],[19.09883,51.82518]]}},{"type":"Feature","properties":{"numer":"3706E","klasa":"droga zbiorcza","kat":"powiatowa"},"geometry":{"type":"LineString","coordinates":[[19.12108,51.84974],[19.11632,51.84386],[19.0989,51.82525]]}},{"type":"Feature","properties":{"numer":"3706E","klasa":"droga zbiorcza","kat":"powiatowa"},"geometry":{"type":"LineString","coordinates":[[19.12108,51.84974],[19.12054,51.85096],[19.11822,51.8533]]}},{"type":"Feature","properties":{"numer":"3706E","klasa":"droga zbiorcza","kat":"powiatowa"},"geometry":{"type":"LineString","coordinates":[[19.11822,51.8533],[19.11815,51.8534]]}},{"type":"Feature","properties":{"numer":"3706E","klasa":"droga zbiorcza","kat":"powiatowa"},"geometry":{"type":"LineString","coordinates":[[19.11815,51.8534],[19.11805,51.85387],[19.11815,51.85488],[19.11912,51.86291]]}},{"type":"Feature","properties":{"numer":"3706E","klasa":"droga zbiorcza","kat":"powiatowa"},"geometry":{"type":"LineString","coordinates":[[19.11912,51.86291],[19.11913,51.86298]]}},{"type":"Feature","properties":{"numer":"3707E","klasa":"droga zbiorcza","kat":"powiatowa"},"geometry":{"type":"LineString","coordinates":[[19.07322,51.8726],[19.07297,51.867],[19.0769,51.85917],[19.07742,51.85454],[19.07737,51.85423],[19.0744,51.85425],[19.07376,51.85413],[19.07032,51.85316],[19.06382,51.85231],[19.05963,51.85164],[19.05915,51.85139],[19.05719,51.84971],[19.05645,51.84918],[19.05195,51.84828],[19.04974,51.84762],[19.04603,51.84565],[19.04413,51.84424],[19.04329,51.84383],[19.04047,51.84303],[19.03902,51.8427],[19.03502,51.84218],[19.031124658267593,51.84137600789837]]}},{"type":"Feature","properties":{"numer":"72","klasa":"droga gĹ‚Ăłwna","kat":"krajowa"},"geometry":{"type":"LineString","coordinates":[[19.07322,51.8726],[19.03788512335716,51.87914641687802]]}},{"type":"Feature","properties":{"numer":"3706E","klasa":"droga zbiorcza","kat":"powiatowa"},"geometry":{"type":"LineString","coordinates":[[19.11923,51.8638],[19.11913,51.86298]]}},{"type":"Feature","properties":{"numer":"72","klasa":"droga gĹ‚Ăłwna","kat":"krajowa"},"geometry":{"type":"LineString","coordinates":[[19.12035,51.86359],[19.12047,51.86356]]}},{"type":"Feature","properties":{"numer":"72","klasa":"droga gĹ‚Ăłwna","kat":"krajowa"},"geometry":{"type":"LineString","coordinates":[[19.11923,51.8638],[19.12035,51.86359]]}},{"type":"Feature","properties":{"numer":"72","klasa":"droga gĹ‚Ăłwna","kat":"krajowa"},"geometry":{"type":"LineString","coordinates":[[19.07578,51.87213],[19.0977,51.868],[19.11923,51.8638]]}},{"type":"Feature","properties":{"numer":"3706E","klasa":"droga zbiorcza","kat":"powiatowa"},"geometry":{"type":"LineString","coordinates":[[19.10224,51.88208],[19.11912,51.8649],[19.11928,51.86464],[19.11923,51.8638]]}},{"type":"Feature","properties":{"numer":"3706E,3707E","klasa":"droga zbiorcza","kat":"powiatowa"},"geometry":{"type":"LineString","coordinates":[[19.10189,51.88277],[19.1021,51.88252],[19.10224,51.88208]]}},{"type":"Feature","properties":{"numer":"3706E","klasa":"droga zbiorcza","kat":"powiatowa"},"geometry":{"type":"LineString","coordinates":[[19.08617,51.91735],[19.08589,51.91655],[19.08619,51.91434],[19.08991,51.90471],[19.10141,51.88327],[19.1016,51.88298],[19.10189,51.88277]]}},{"type":"Feature","properties":{"numer":"3705E","klasa":"droga zbiorcza","kat":"powiatowa"},"geometry":{"type":"LineString","coordinates":[[19.08617,51.91735],[19.08671,51.91804],[19.08712,51.91832],[19.10178,51.92644],[19.10247,51.92675],[19.10634,51.92812],[19.11068,51.92943],[19.11185,51.92971],[19.12938,51.93083]]}},{"type":"Feature","properties":{"numer":"3705E","klasa":"droga zbiorcza","kat":"powiatowa"},"geometry":{"type":"LineString","coordinates":[[19.07994,51.91633],[19.07717,51.91568],[19.06301,51.91297],[19.038365864395885,51.908312376285345]]}},{"type":"Feature","properties":{"numer":"3706E","klasa":"droga zbiorcza","kat":"powiatowa"},"geometry":{"type":"LineString","coordinates":[[19.045471896793487,51.930405990464614],[19.04661,51.93035],[19.05372,51.92953],[19.05581,51.92937],[19.05658,51.92923],[19.05823,51.92881],[19.05977,51.92777],[19.06141,51.9275],[19.06386,51.92694]]}},{"type":"Feature","properties":{"numer":"72","klasa":"droga gĹ‚Ăłwna","kat":"krajowa"},"geometry":{"type":"LineString","coordinates":[[19.07578,51.87213],[19.07322,51.8726]]}},{"type":"Feature","properties":{"numer":"3707E","klasa":"droga zbiorcza","kat":"powiatowa"},"geometry":{"type":"LineString","coordinates":[[19.10224,51.88208],[19.10151,51.88175],[19.09616,51.87832],[19.09344,51.87683],[19.08505,51.87428],[19.08263,51.87348],[19.07578,51.87213]]}},{"type":"Feature","properties":{"numer":"3705E,3706E","klasa":"droga zbiorcza","kat":"powiatowa"},"geometry":{"type":"LineString","coordinates":[[19.08617,51.91735],[19.08527,51.91725],[19.08258,51.91676],[19.0808,51.91655],[19.07994,51.91633]]}},{"type":"Feature","properties":{"numer":"3706E","klasa":"droga zbiorcza","kat":"powiatowa"},"geometry":{"type":"LineString","coordinates":[[19.06386,51.92694],[19.0659,51.92614],[19.06878,51.92423],[19.07017,51.92315],[19.07032,51.92293],[19.07012,51.92209],[19.07025,51.92162],[19.0719,51.91998],[19.07365,51.91876],[19.07503,51.91785],[19.07605,51.91732],[19.07715,51.91696],[19.07994,51.91633]]}},{"type":"Feature","properties":{"numer":"3703E","klasa":"","kat":"powiatowa"},"geometry":{"type":"LineString","coordinates":[[19.06386,51.92694],[19.06409,51.92748],[19.06458,51.92774],[19.06479,51.92798],[19.07005,51.93756],[19.07338,51.94088],[19.07401,51.94188],[19.07337,51.94218],[19.0689,51.94343],[19.06827,51.94352],[19.06779998568899,51.943515480631625]]}},{"type":"Feature","properties":{"numer":"A2,E30","klasa":"autostrada","kat":"krajowa"},"geometry":{"type":"LineString","coordinates":[[19.132110333721386,51.95733371556073],[19.1341,51.95669],[19.13814,51.95555],[19.14201,51.95463],[19.145898581765774,51.95382164436051]]}},{"type":"Feature","properties":{"numer":"5137E","klasa":"droga zbiorcza","kat":"powiatowa"},"geometry":{"type":"LineString","coordinates":[[19.12585,51.93554],[19.12565,51.93642],[19.12539,51.93701],[19.12297,51.94009],[19.12152,51.94406],[19.12043,51.94591],[19.12023,51.94669],[19.12145,51.95575],[19.122348134311594,51.956729782885375]]}}]}