{"type":"FeatureCollection","features":[{"type":"Feature","properties":{"numer":"3509E","klasa":"droga zbiorcza","kat":"powiatowa"},"geometry":{"type":"LineString","coordinates":[[19.46629,51.107],[19.47132,51.10471],[19.471509274766053,51.10458734995159]]}},{"type":"Feature","properties":{"numer":"3509E","klasa":"droga zbiorcza","kat":"powiatowa"},"geometry":{"type":"LineString","coordinates":[[19.465925042016803,51.10705092436975],[19.46629,51.107]]}},{"type":"Feature","properties":{"numer":"3509E","klasa":"droga zbiorcza","kat":"powiatowa"},"geometry":{"type":"LineString","coordinates":[[19.465,51.10756],[19.46515810769231,51.10739821538461]]}},{"type":"Feature","properties":{"numer":"91","klasa":"droga gĹ‚Ăłwna ruchu przyĹ›pieszonego","kat":"krajowa"},"geometry":{"type":"LineString","coordinates":[[19.465547540514777,51.10722186844614],[19.46573,51.10738],[19.466,51.1079]]}},{"type":"Feature","properties":{"numer":"91","klasa":"droga gĹ‚Ăłwna ruchu przyĹ›pieszonego","kat":"krajowa"},"geometry":{"type":"LineString","coordinates":[[19.472761305453453,51.12016538974898],[19.466,51.1079]]}},{"type":"Feature","properties":{"numer":"3928E","klasa":"droga zbiorcza","kat":"powiatowa"},"geometry":{"type":"LineString","coordinates":[[19.422679874808672,51.10760831160315],[19.41585,51.12763],[19.41516,51.13075],[19.41531,51.13111],[19.41711,51.13261],[19.41703,51.13294],[19.4165,51.13322]]}},{"type":"Feature","properties":{"numer":"A1,E75","klasa":"autostrada","kat":"krajowa"},"geometry":{"type":"LineString","coordinates":[[19.39847,51.11604],[19.41612,51.13288]]}},{"type":"Feature","properties":{"numer":"3509E","klasa":"droga zbiorcza","kat":"powiatowa"},"geometry":{"type":"LineString","coordinates":[[19.42385,51.1391],[19.44082,51.12578],[19.44358,51.12342],[19.44439,51.12287],[19.46167,51.10925],[19.465,51.10756]]}},{"type":"Feature","properties":{"numer":"A1,E75","klasa":"autostrada","kat":"krajowa"},"geometry":{"type":"LineString","coordinates":[[19.4295,51.14407],[19.43878,51.15094]]}},{"type":"Feature","properties":{"numer":"A1,E75","klasa":"autostrada","kat":"krajowa"},"geometry":{"type":"LineString","coordinates":[[19.398364969957083,51.115939115879826],[19.39847,51.11604]]}},{"type":"Feature","properties":{"numer":"3947E","klasa":"droga zbiorcza","kat":"powiatowa"},"geometry":{"type":"LineString","coordinates":[[19.368028542875194,51.13590090058009],[19.37121,51.13193],[19.37802,51.1291],[19.3783,51.12891],[19.37938,51.12687],[19.38477,51.12095],[19.38579,51.11961],[19.38626,51.1188],[19.38774,51.11546],[19.38776929120803,51.11535045088196]]}},{"type":"Feature","properties":{"numer":"3509E","klasa":"droga zbiorcza","kat":"powiatowa"},"geometry":{"type":"LineString","coordinates":[[19.38845,51.15605],[19.40278,51.14827],[19.4054,51.1468],[19.40615,51.14626],[19.40658,51.14613],[19.40698,51.14617],[19.40785,51.14604],[19.40894,51.14574],[19.40969,51.14534],[19.41096,51.14441]]}},{"type":"Feature","properties":{"numer":"3509E","klasa":"droga zbiorcza","kat":"powiatowa"},"geometry":{"type":"LineString","coordinates":[[19.38646,51.15712],[19.38845,51.15605]]}},{"type":"Feature","properties":{"numer":"A1,E75","klasa":"autostrada","kat":"krajowa"},"geometry":{"type":"LineString","coordinates":[[19.41612,51.13288],[19.4165,51.13322]]}},{"type":"Feature","properties":{"numer":"A1,E75","klasa":"autostrada","kat":"krajowa"},"geometry":{"type":"LineString","coordinates":[[19.4165,51.13322],[19.41687,51.13356]]}},{"type":"Feature","properties":{"numer":"A1,E75","klasa":"autostrada","kat":"krajowa"},"geometry":{"type":"LineString","coordinates":[[19.41687,51.13356],[19.42355,51.13933]]}},{"type":"Feature","properties":{"numer":"3928E","klasa":"droga zbiorcza","kat":"powiatowa"},"geometry":{"type":"LineString","coordinates":[[19.4165,51.13322],[19.41469,51.13403],[19.41421,51.13449],[19.41096,51.14441]]}},{"type":"Feature","properties":{"numer":"3509E","klasa":"droga zbiorcza","kat":"powiatowa"},"geometry":{"type":"LineString","coordinates":[[19.42355,51.13933],[19.42385,51.1391]]}},{"type":"Feature","properties":{"numer":"3509E","klasa":"droga zbiorcza","kat":"powiatowa"},"geometry":{"type":"LineString","coordinates":[[19.42329,51.13953],[19.42355,51.13933]]}},{"type":"Feature","properties":{"numer":"A1,E75","klasa":"autostrada","kat":"krajowa"},"geometry":{"type":"LineString","coordinates":[[19.42355,51.13933],[19.42863,51.14341]]}},{"type":"Feature","properties":{"numer":"3509E","klasa":"droga zbiorcza","kat":"powiatowa"},"geometry":{"type":"LineString","coordinates":[[19.41277,51.14601],[19.41754,51.14405],[19.42329,51.13953]]}},{"type":"Feature","properties":{"numer":"A1,E75","klasa":"autostrada","kat":"krajowa"},"geometry":{"type":"LineString","coordinates":[[19.42863,51.14341],[19.4295,51.14407]]}},{"type":"Feature","properties":{"numer":"3509E,3928E","klasa":"droga zbiorcza","kat":"powiatowa"},"geometry":{"type":"LineString","coordinates":[[19.41096,51.14441],[19.41124,51.14454]]}},{"type":"Feature","properties":{"numer":"A1,E75","klasa":"autostrada","kat":"krajowa"},"geometry":{"type":"LineString","coordinates":[[19.43878,51.15094],[19.43975,51.15164]]}},{"type":"Feature","properties":{"numer":"A1,E75","klasa":"autostrada","kat":"krajowa"},"geometry":{"type":"LineString","coordinates":[[19.43975,51.15164],[19.44451,51.1551]]}},{"type":"Feature","properties":{"numer":"A1,E75","klasa":"autostrada","kat":"krajowa"},"geometry":{"type":"LineString","coordinates":[[19.44451,51.1551],[19.44575,51.15601]]}},{"type":"Feature","properties":{"numer":"A1,E75","klasa":"autostrada","kat":"krajowa"},"geometry":{"type":"LineString","coordinates":[[19.44575,51.15601],[19.44732970050844,51.15715048471287]]}},{"type":"Feature","properties":{"numer":"3928E","klasa":"droga zbiorcza","kat":"powiatowa"},"geometry":{"type":"LineString","coordinates":[[19.43086,51.16733],[19.43101,51.16738]]}},{"type":"Feature","properties":{"numer":"3928E","klasa":"droga zbiorcza","kat":"powiatowa"},"geometry":{"type":"LineString","coordinates":[[19.43101,51.16738],[19.431549199195107,51.1675422832529]]}},{"type":"Feature","properties":{"numer":"3509E,3928E","klasa":"droga zbiorcza","kat":"powiatowa"},"geometry":{"type":"LineString","coordinates":[[19.41124,51.14454],[19.41127,51.14458]]}},{"type":"Feature","properties":{"numer":"3509E,3928E","klasa":"droga zbiorcza","kat":"powiatowa"},"geometry":{"type":"LineString","coordinates":[[19.41127,51.14458],[19.41277,51.14601]]}},{"type":"Feature","properties":{"numer":"3928E","klasa":"droga zbiorcza","kat":"powiatowa"},"geometry":{"type":"LineString","coordinates":[[19.41277,51.14601],[19.41652,51.14964],[19.41779,51.15224],[19.41893,51.15507],[19.42105,51.15941],[19.42858,51.16642],[19.42913,51.16678],[19.43086,51.16733]]}},{"type":"Feature","properties":{"numer":"3915E","klasa":"droga zbiorcza","kat":"powiatowa"},"geometry":{"type":"LineString","coordinates":[[19.403665462060054,51.196101721870946],[19.40665,51.1874],[19.407,51.18687],[19.40798,51.18588],[19.40904,51.18531],[19.409429261240014,51.18519766286362]]}},{"type":"Feature","properties":{"numer":"3509E","klasa":"droga zbiorcza","kat":"powiatowa"},"geometry":{"type":"LineString","coordinates":[[19.362065212819694,51.16369802489955],[19.37883,51.16347],[19.37899,51.16335],[19.37885,51.16139],[19.37893,51.16122],[19.38646,51.15712]]}}]}