{"type":"FeatureCollection","features":[{"type":"Feature","properties":{"numer":"A1,E75","klasa":"autostrada","kat":"krajowa"},"geometry":{"type":"LineString","coordinates":[[19.36461,51.06525],[19.36501,51.06588]]}},{"type":"Feature","properties":{"numer":"A1,E75","klasa":"autostrada","kat":"krajowa"},"geometry":{"type":"LineString","coordinates":[[19.36501,51.06588],[19.36782,51.0708],[19.368812589730176,51.07277540025119]]}},{"type":"Feature","properties":{"numer":"A1,E75","klasa":"autostrada","kat":"krajowa"},"geometry":{"type":"LineString","coordinates":[[19.37929341523569,51.0948973654546],[19.379511917494277,51.09525330022919]]}},{"type":"Feature","properties":{"numer":"A1,E75","klasa":"autostrada","kat":"krajowa"},"geometry":{"type":"LineString","coordinates":[[19.37965266603839,51.09548257612614],[19.37978,51.09569],[19.38202,51.09884]]}},{"type":"Feature","properties":{"numer":"A1,E75","klasa":"autostrada","kat":"krajowa"},"geometry":{"type":"LineString","coordinates":[[19.38202,51.09884],[19.38263,51.09961]]}},{"type":"Feature","properties":{"numer":"A1,E75","klasa":"autostrada","kat":"krajowa"},"geometry":{"type":"LineString","coordinates":[[19.38263,51.09961],[19.38477,51.10228],[19.38769,51.10551]]}},{"type":"Feature","properties":{"numer":"3927E","klasa":"droga zbiorcza","kat":"powiatowa"},"geometry":{"type":"LineString","coordinates":[[19.39101,51.10436],[19.39066,51.10437],[19.39,51.10463],[19.38989,51.10478],[19.38995,51.10528]]}},{"type":"Feature","properties":{"numer":"3927E","klasa":"","kat":"powiatowa"},"geometry":{"type":"LineString","coordinates":[[19.38802,51.10585],[19.38935,51.10537],[19.38995,51.10528]]}},{"type":"Feature","properties":{"numer":"A1,E75","klasa":"autostrada","kat":"krajowa"},"geometry":{"type":"LineString","coordinates":[[19.38769,51.10551],[19.38802,51.10585]]}},{"type":"Feature","properties":{"numer":"A1,E75","klasa":"autostrada","kat":"krajowa"},"geometry":{"type":"LineString","coordinates":[[19.38802,51.10585],[19.38849,51.10636]]}},{"type":"Feature","properties":{"numer":"3947E","klasa":"droga zbiorcza","kat":"powiatowa"},"geometry":{"type":"LineString","coordinates":[[19.411554779466137,51.091222181992634],[19.39523,51.10284],[19.39128,51.10417],[19.39101,51.10436]]}},{"type":"Feature","properties":{"numer":"3947E","klasa":"droga zbiorcza","kat":"powiatowa"},"geometry":{"type":"LineString","coordinates":[[19.3919,51.10926],[19.3926,51.10872],[19.39284,51.10841],[19.39304,51.10793],[19.39304,51.1076],[19.39282,51.10706],[19.3913,51.10534],[19.39101,51.10436]]}},{"type":"Feature","properties":{"numer":"A1,E75","klasa":"autostrada","kat":"krajowa"},"geometry":{"type":"LineString","coordinates":[[19.38849,51.10636],[19.39163,51.10946]]}},{"type":"Feature","properties":{"numer":"3947E","klasa":"droga zbiorcza","kat":"powiatowa"},"geometry":{"type":"LineString","coordinates":[[19.3919,51.10926],[19.39163,51.10946]]}},{"type":"Feature","properties":{"numer":"3947E","klasa":"droga zbiorcza","kat":"powiatowa"},"geometry":{"type":"LineString","coordinates":[[19.39163,51.10946],[19.39107,51.10986]]}},{"type":"Feature","properties":{"numer":"A1,E75","klasa":"autostrada","kat":"krajowa"},"geometry":{"type":"LineString","coordinates":[[19.39163,51.10946],[19.39771,51.11531]]}},{"type":"Feature","properties":{"numer":"A1,E75","klasa":"autostrada","kat":"krajowa"},"geometry":{"type":"LineString","coordinates":[[19.39771,51.11531],[19.398306078612045,51.115882549193145]]}},{"type":"Feature","properties":{"numer":"3947E","klasa":"droga zbiorcza","kat":"powiatowa"},"geometry":{"type":"LineString","coordinates":[[19.38776929120803,51.11535045088196],[19.38874,51.11172],[19.38925,51.11118],[19.39107,51.10986]]}},{"type":"Feature","properties":{"numer":"1921E,42","klasa":"droga gĹ‚Ăłwna","kat":"powiatowa"},"geometry":{"type":"LineString","coordinates":[[19.30617,51.08124],[19.30636,51.0812]]}},{"type":"Feature","properties":{"numer":"42","klasa":"droga gĹ‚Ăłwna","kat":"krajowa"},"geometry":{"type":"LineString","coordinates":[[19.228639084216685,51.07655203461964],[19.25135,51.07152],[19.25493,51.07048],[19.25911,51.07012],[19.26126,51.07033],[19.26194,51.07047],[19.2622,51.0706],[19.2626,51.07255],[19.26277,51.07277],[19.26301,51.07287],[19.28872,51.07971],[19.2895,51.07998],[19.2951,51.08237],[19.29645,51.08273],[19.29739,51.08289],[19.2988,51.08281],[19.30617,51.08124]]}},{"type":"Feature","properties":{"numer":"A1,E75","klasa":"autostrada","kat":"krajowa"},"geometry":{"type":"LineString","coordinates":[[19.348345727817726,51.04496916267562],[19.35064,51.04728],[19.35371,51.05059]]}},{"type":"Feature","properties":{"numer":"A1,E75","klasa":"autostrada","kat":"krajowa"},"geometry":{"type":"LineString","coordinates":[[19.35371,51.05059],[19.35589,51.05315]]}},{"type":"Feature","properties":{"numer":"A1,E75","klasa":"autostrada","kat":"krajowa"},"geometry":{"type":"LineString","coordinates":[[19.35589,51.05315],[19.35988,51.05822],[19.36184,51.06099],[19.36461,51.06525]]}},{"type":"Feature","properties":{"numer":"1921E","klasa":"droga zbiorcza","kat":"powiatowa"},"geometry":{"type":"LineString","coordinates":[[19.35092,51.08038],[19.35102,51.07951],[19.35092,51.07873],[19.35045,51.07815],[19.34408,51.06608],[19.34347,51.06623],[19.34084,51.06736],[19.33507,51.06819],[19.32096,51.06816],[19.306,51.07219],[19.30436,51.07321],[19.30335,51.07399],[19.30319,51.07425],[19.30356,51.07579],[19.30479,51.07721],[19.30617,51.08124]]}},{"type":"Feature","properties":{"numer":"42","klasa":"droga gĹ‚Ăłwna","kat":"krajowa"},"geometry":{"type":"LineString","coordinates":[[19.30636,51.0812],[19.32125,51.07812],[19.32193,51.07801],[19.32452,51.0778],[19.3283,51.07794],[19.33209,51.07786],[19.33372,51.07801],[19.33561,51.07836],[19.33711,51.07844],[19.33821,51.07847],[19.34174,51.07834],[19.3441,51.07847],[19.3451,51.07865],[19.35092,51.08038]]}},{"type":"Feature","properties":{"numer":"42","klasa":"droga gĹ‚Ăłwna","kat":"krajowa"},"geometry":{"type":"LineString","coordinates":[[19.35092,51.08038],[19.35434,51.08136],[19.35693,51.08085],[19.366060768027808,51.08036573343223]]}},{"type":"Feature","properties":{"numer":"3927E","klasa":"","kat":"powiatowa"},"geometry":{"type":"LineString","coordinates":[[19.35259490229519,51.10997161650914],[19.35331,51.10981],[19.36555,51.10824],[19.36586,51.10832],[19.369,51.11104],[19.37652,51.10808],[19.37687,51.1082],[19.379,51.11017],[19.37938,51.11024],[19.38371,51.10764],[19.38802,51.10585]]}},{"type":"Feature","properties":{"numer":"1921E","klasa":"droga zbiorcza","kat":"powiatowa"},"geometry":{"type":"LineString","coordinates":[[19.30636,51.0812],[19.30667,51.08372],[19.30386,51.09502],[19.30119,51.10289],[19.30118,51.10317],[19.30133,51.1034]]}},{"type":"Feature","properties":{"numer":"3522E","klasa":"","kat":"powiatowa"},"geometry":{"type":"LineString","coordinates":[[19.300757556818173,51.10362159090909],[19.30133,51.1034]]}},{"type":"Feature","properties":{"numer":"1921E","klasa":"droga zbiorcza","kat":"powiatowa"},"geometry":{"type":"LineString","coordinates":[[19.30133,51.1034],[19.301403863636363,51.10351818181818]]}}]}