{"type":"FeatureCollection","features":[{"type":"Feature","properties":{"numer":"3947E","klasa":"droga zbiorcza","kat":"powiatowa"},"geometry":{"type":"LineString","coordinates":[[19.36718,51.13696],[19.368028542875194,51.13590090058009]]}},{"type":"Feature","properties":{"numer":"3947E","klasa":"droga zbiorcza","kat":"powiatowa"},"geometry":{"type":"LineString","coordinates":[[19.3671,51.13707],[19.36718,51.13696]]}},{"type":"Feature","properties":{"numer":"3927E","klasa":"","kat":"powiatowa"},"geometry":{"type":"LineString","coordinates":[[19.30954,51.12569],[19.3114,51.12542],[19.31264,51.12516],[19.31314,51.12499],[19.32175,51.1211],[19.32311,51.12018],[19.33942,51.11303],[19.34039,51.11273],[19.35259490229519,51.10997161650914]]}},{"type":"Feature","properties":{"numer":"3947E","klasa":"droga zbiorcza","kat":"powiatowa"},"geometry":{"type":"LineString","coordinates":[[19.3286,51.14854],[19.33715,51.14807],[19.33948,51.14809],[19.3399,51.14801],[19.34191,51.14713],[19.34874,51.14363],[19.35185,51.14209],[19.3522,51.14198],[19.35554,51.1417],[19.35719,51.14199],[19.35905,51.14264],[19.36193,51.14275],[19.36242,51.1427],[19.36285,51.14246],[19.3671,51.13707]]}},{"type":"Feature","properties":{"numer":"1921E,3947E","klasa":"droga zbiorcza","kat":"powiatowa"},"geometry":{"type":"LineString","coordinates":[[19.3286,51.14854],[19.32664,51.14876],[19.32608,51.1487]]}},{"type":"Feature","properties":{"numer":"1921E","klasa":"droga zbiorcza","kat":"powiatowa"},"geometry":{"type":"LineString","coordinates":[[19.33603,51.17274],[19.32938,51.16444],[19.32727,51.15902],[19.3273,51.15848],[19.32853,51.15611],[19.32869,51.15372],[19.3286,51.14854]]}},{"type":"Feature","properties":{"numer":"3522E","klasa":"","kat":"powiatowa"},"geometry":{"type":"LineString","coordinates":[[19.28066,51.10714],[19.28110375125622,51.10699663420953]]}},{"type":"Feature","properties":{"numer":"3522E","klasa":"droga zbiorcza","kat":"powiatowa"},"geometry":{"type":"LineString","coordinates":[[19.28064182443487,51.10714586017725],[19.28066,51.10714]]}},{"type":"Feature","properties":{"numer":"1921E","klasa":"droga zbiorcza","kat":"powiatowa"},"geometry":{"type":"LineString","coordinates":[[19.301473095262804,51.103628952420486],[19.30183,51.1042],[19.30814,51.12391],[19.30864,51.1257]]}},{"type":"Feature","properties":{"numer":"1921E,3927E","klasa":"droga zbiorcza","kat":"powiatowa"},"geometry":{"type":"LineString","coordinates":[[19.30864,51.1257],[19.30954,51.12569]]}},{"type":"Feature","properties":{"numer":"3927E","klasa":"","kat":"powiatowa"},"geometry":{"type":"LineString","coordinates":[[19.29081,51.14713],[19.2913,51.14251],[19.29147,51.1417],[19.29165,51.14138],[19.30059,51.13052],[19.30086,51.12996],[19.30088,51.12866],[19.30076,51.1279],[19.30084,51.12759],[19.30118,51.12735],[19.30352,51.12675],[19.30538,51.12601],[19.30609,51.12581],[19.30671,51.12571],[19.30864,51.1257]]}},{"type":"Feature","properties":{"numer":"1921E","klasa":"droga zbiorcza","kat":"powiatowa"},"geometry":{"type":"LineString","coordinates":[[19.32608,51.1487],[19.326,51.14833],[19.32514,51.1471],[19.31206,51.12903],[19.30954,51.12569]]}},{"type":"Feature","properties":{"numer":"3519E","klasa":"droga zbiorcza","kat":"powiatowa"},"geometry":{"type":"LineString","coordinates":[[19.24735,51.14676],[19.247431338853378,51.1466140319728]]}},{"type":"Feature","properties":{"numer":"3519E","klasa":"","kat":"powiatowa"},"geometry":{"type":"LineString","coordinates":[[19.24735,51.14676],[19.247,51.14691],[19.24241,51.14815],[19.23364,51.15024],[19.23344213872832,51.15033893063584]]}},{"type":"Feature","properties":{"numer":"109257E,3947E","klasa":"droga zbiorcza","kat":"powiatowa"},"geometry":{"type":"LineString","coordinates":[[19.25055,51.16349],[19.25074,51.16344]]}},{"type":"Feature","properties":{"numer":"3947E","klasa":"droga zbiorcza","kat":"powiatowa"},"geometry":{"type":"LineString","coordinates":[[19.239490680134452,51.167561342776786],[19.25055,51.16349]]}},{"type":"Feature","properties":{"numer":"3947E","klasa":"droga zbiorcza","kat":"powiatowa"},"geometry":{"type":"LineString","coordinates":[[19.29081,51.14713],[19.29221,51.14709],[19.31096,51.1473],[19.31166,51.1474],[19.31367,51.14797],[19.31675,51.14798],[19.31856,51.14873],[19.319,51.14883],[19.32608,51.1487]]}},{"type":"Feature","properties":{"numer":"3947E","klasa":"droga zbiorcza","kat":"powiatowa"},"geometry":{"type":"LineString","coordinates":[[19.25074,51.16344],[19.26459,51.16114],[19.26537,51.16096],[19.26571,51.16075],[19.27003,51.15708],[19.27677,51.15335],[19.2779,51.15275],[19.29081,51.14713]]}},{"type":"Feature","properties":{"numer":"3509E","klasa":"droga zbiorcza","kat":"powiatowa"},"geometry":{"type":"LineString","coordinates":[[19.305206915298566,51.177972053698284],[19.30522,51.17797]]}},{"type":"Feature","properties":{"numer":"3509E","klasa":"droga zbiorcza","kat":"powiatowa"},"geometry":{"type":"LineString","coordinates":[[19.33789,51.17247],[19.3382,51.17227],[19.33919,51.17129],[19.35389,51.16501],[19.35457,51.16477],[19.36192,51.1637],[19.362065212819694,51.16369802489955]]}},{"type":"Feature","properties":{"numer":"3509E","klasa":"droga zbiorcza","kat":"powiatowa"},"geometry":{"type":"LineString","coordinates":[[19.33789,51.17247],[19.33781,51.17253]]}},{"type":"Feature","properties":{"numer":"1921E,3509E","klasa":"droga zbiorcza","kat":"powiatowa"},"geometry":{"type":"LineString","coordinates":[[19.33767,51.17252],[19.33781,51.17253]]}},{"type":"Feature","properties":{"numer":"1921E","klasa":"droga zbiorcza","kat":"powiatowa"},"geometry":{"type":"LineString","coordinates":[[19.33784,51.17263],[19.33781,51.17253]]}},{"type":"Feature","properties":{"numer":"1921E,3509E","klasa":"droga zbiorcza","kat":"powiatowa"},"geometry":{"type":"LineString","coordinates":[[19.33603,51.17274],[19.33735,51.17252],[19.33767,51.17252]]}},{"type":"Feature","properties":{"numer":"1921E","klasa":"droga zbiorcza","kat":"powiatowa"},"geometry":{"type":"LineString","coordinates":[[19.33784,51.17263],[19.33756,51.17378],[19.3378,51.17645]]}},{"type":"Feature","properties":{"numer":"3509E","klasa":"","kat":"powiatowa"},"geometry":{"type":"LineString","coordinates":[[19.30522,51.17797],[19.32611,51.17449],[19.33603,51.17274]]}},{"type":"Feature","properties":{"numer":"1921E","klasa":"droga zbiorcza","kat":"powiatowa"},"geometry":{"type":"LineString","coordinates":[[19.3378,51.17645],[19.33133,51.18176],[19.33058,51.18226],[19.32877,51.18315],[19.32331,51.18794],[19.323297864829424,51.18794994608098]]}},{"type":"Feature","properties":{"numer":"3915E","klasa":"droga zbiorcza","kat":"powiatowa"},"geometry":{"type":"LineString","coordinates":[[19.3378,51.17645],[19.33911,51.18958],[19.339422455383,51.19078693549905]]}}]}