{"type":"FeatureCollection","features":[{"type":"Feature","properties":{"numer":"704","klasa":"droga zbiorcza","kat":"wojewodzka"},"geometry":{"type":"LineString","coordinates":[[19.8173,51.86134],[19.81815,51.85794],[19.81938,51.8543],[19.81933,51.85391],[19.81765,51.85265],[19.81615,51.85181],[19.81566,51.85139],[19.80095,51.83347],[19.80079267415958,51.833366164945325]]}},{"type":"Feature","properties":{"numer":"5103E","klasa":"droga zbiorcza","kat":"powiatowa"},"geometry":{"type":"LineString","coordinates":[[19.82804851736674,51.859129708612244],[19.82195,51.86132],[19.82034,51.86167]]}},{"type":"Feature","properties":{"numer":"704","klasa":"droga zbiorcza","kat":"wojewodzka"},"geometry":{"type":"LineString","coordinates":[[19.8173,51.86134],[19.81965,51.86151]]}},{"type":"Feature","properties":{"numer":"704","klasa":"droga zbiorcza","kat":"wojewodzka"},"geometry":{"type":"LineString","coordinates":[[19.81996,51.86154],[19.81965,51.86151]]}},{"type":"Feature","properties":{"numer":"704","klasa":"droga zbiorcza","kat":"wojewodzka"},"geometry":{"type":"LineString","coordinates":[[19.81996,51.86154],[19.82034,51.86167]]}},{"type":"Feature","properties":{"numer":"5101E","klasa":"droga zbiorcza","kat":"powiatowa"},"geometry":{"type":"LineString","coordinates":[[19.8173,51.86134],[19.81718,51.86168],[19.81604,51.86354]]}},{"type":"Feature","properties":{"numer":"5101E","klasa":"droga zbiorcza","kat":"powiatowa"},"geometry":{"type":"LineString","coordinates":[[19.816,51.8636],[19.81604,51.86354]]}},{"type":"Feature","properties":{"numer":"704","klasa":"droga zbiorcza","kat":"wojewodzka"},"geometry":{"type":"LineString","coordinates":[[19.82034,51.86167],[19.82779,51.8648],[19.83097,51.86543],[19.83115,51.86567],[19.83111,51.86643],[19.83145,51.86674],[19.8372,51.86732],[19.83783,51.86746]]}},{"type":"Feature","properties":{"numer":"1320E","klasa":"","kat":"powiatowa"},"geometry":{"type":"LineString","coordinates":[[19.83783,51.86746],[19.84296,51.86769],[19.84536,51.86799],[19.84714,51.86804],[19.856313563413178,51.867461666654386]]}},{"type":"Feature","properties":{"numer":"704","klasa":"droga zbiorcza","kat":"wojewodzka"},"geometry":{"type":"LineString","coordinates":[[19.85824,51.88891],[19.85826,51.88892]]}},{"type":"Feature","properties":{"numer":"704","klasa":"droga zbiorcza","kat":"wojewodzka"},"geometry":{"type":"LineString","coordinates":[[19.85826,51.88892],[19.86253,51.89288],[19.86293,51.89348],[19.86417,51.90272]]}},{"type":"Feature","properties":{"numer":"2933E","klasa":"","kat":"powiatowa"},"geometry":{"type":"LineString","coordinates":[[19.8716,51.9021],[19.871634487720016,51.902101521517054]]}},{"type":"Feature","properties":{"numer":"2933E","klasa":"droga zbiorcza","kat":"powiatowa"},"geometry":{"type":"LineString","coordinates":[[19.86417,51.90272],[19.87104,51.9021],[19.8716,51.9021]]}},{"type":"Feature","properties":{"numer":"704","klasa":"droga zbiorcza","kat":"wojewodzka"},"geometry":{"type":"LineString","coordinates":[[19.86417,51.90272],[19.86616432719788,51.91803777360387]]}},{"type":"Feature","properties":{"numer":"2937E","klasa":"droga zbiorcza","kat":"powiatowa"},"geometry":{"type":"LineString","coordinates":[[19.76269,51.87809],[19.759788582560407,51.865566534929116]]}},{"type":"Feature","properties":{"numer":"5103E","klasa":"droga zbiorcza","kat":"powiatowa"},"geometry":{"type":"LineString","coordinates":[[19.737743032514665,51.88297174159414],[19.75511,51.87882],[19.75591,51.87868],[19.76269,51.87809]]}},{"type":"Feature","properties":{"numer":"5103E","klasa":"droga zbiorcza","kat":"powiatowa"},"geometry":{"type":"LineString","coordinates":[[19.76269,51.87809],[19.76901,51.87748],[19.76988,51.8773],[19.79135,51.86923],[19.81558,51.86155],[19.81639,51.86138],[19.8173,51.86134]]}},{"type":"Feature","properties":{"numer":"5101E","klasa":"droga zbiorcza","kat":"powiatowa"},"geometry":{"type":"LineString","coordinates":[[19.77862,51.90337],[19.77966,51.90208],[19.78251,51.8996],[19.78287,51.89936],[19.78455,51.89869],[19.78518,51.8983],[19.79359,51.89133],[19.79418,51.8906],[19.79627,51.88533],[19.79657,51.8848],[19.79714,51.88425],[19.80125,51.88159],[19.80501,51.87762],[19.8109,51.87018],[19.81474,51.8656],[19.816,51.8636]]}},{"type":"Feature","properties":{"numer":"2937E","klasa":"droga zbiorcza","kat":"powiatowa"},"geometry":{"type":"LineString","coordinates":[[19.75418,51.91413],[19.74766,51.90104],[19.7631,51.88149],[19.76326,51.88046],[19.76269,51.87809]]}},{"type":"Feature","properties":{"numer":"2936E","klasa":"droga zbiorcza","kat":"powiatowa"},"geometry":{"type":"LineString","coordinates":[[19.78073,51.90404],[19.77862,51.90337]]}},{"type":"Feature","properties":{"numer":"2936E","klasa":"droga zbiorcza","kat":"powiatowa"},"geometry":{"type":"LineString","coordinates":[[19.78073,51.90404],[19.78087,51.90408]]}},{"type":"Feature","properties":{"numer":"5101E","klasa":"droga zbiorcza","kat":"powiatowa"},"geometry":{"type":"LineString","coordinates":[[19.77246,51.9102],[19.77447,51.90879],[19.77862,51.90337]]}},{"type":"Feature","properties":{"numer":"5101E","klasa":"droga zbiorcza","kat":"powiatowa"},"geometry":{"type":"LineString","coordinates":[[19.77238,51.91026],[19.77246,51.9102]]}},{"type":"Feature","properties":{"numer":"5101E","klasa":"droga zbiorcza","kat":"powiatowa"},"geometry":{"type":"LineString","coordinates":[[19.76476,51.91838],[19.76771,51.91492],[19.77027,51.91172],[19.77238,51.91026]]}},{"type":"Feature","properties":{"numer":"5101E","klasa":"droga zbiorcza","kat":"powiatowa"},"geometry":{"type":"LineString","coordinates":[[19.76399,51.91927],[19.76476,51.91838]]}},{"type":"Feature","properties":{"numer":"2937E","klasa":"droga zbiorcza","kat":"powiatowa"},"geometry":{"type":"LineString","coordinates":[[19.75944,51.92421],[19.75905,51.92384],[19.75867,51.92321],[19.75504,51.91598]]}},{"type":"Feature","properties":{"numer":"A2,E30","klasa":"autostrada","kat":"krajowa"},"geometry":{"type":"LineString","coordinates":[[19.68592,51.89694],[19.6939,51.89737],[19.69731,51.89766],[19.70257,51.89827],[19.70699,51.89893],[19.71069,51.89958],[19.71576,51.9006],[19.7226,51.90229],[19.72992,51.90453],[19.73324,51.90569],[19.73707,51.90718],[19.74027,51.90852],[19.74489,51.91062],[19.75952,51.91742],[19.76399,51.91927]]}},{"type":"Feature","properties":{"numer":"1150E","klasa":"droga zbiorcza","kat":"powiatowa"},"geometry":{"type":"LineString","coordinates":[[19.68608,51.89729],[19.6882,51.9016],[19.69911,51.91198],[19.69991,51.91252],[19.71301,51.91871],[19.71376,51.91894],[19.71829,51.91977],[19.721,51.92008],[19.7498,51.92611],[19.75094,51.92643],[19.75326,51.92731],[19.75338,51.92744]]}},{"type":"Feature","properties":{"numer":"5101E","klasa":"droga zbiorcza","kat":"powiatowa"},"geometry":{"type":"LineString","coordinates":[[19.724175230448104,51.946462675361076],[19.72948,51.94217],[19.73826,51.93486],[19.74435,51.9318],[19.75287,51.92762],[19.75338,51.92744]]}},{"type":"Feature","properties":{"numer":"704","klasa":"droga zbiorcza","kat":"wojewodzka"},"geometry":{"type":"LineString","coordinates":[[19.83783,51.86746],[19.83826,51.86772],[19.8447,51.87384],[19.85357,51.88442],[19.85465,51.88556]]}},{"type":"Feature","properties":{"numer":"704","klasa":"droga zbiorcza","kat":"wojewodzka"},"geometry":{"type":"LineString","coordinates":[[19.85465,51.88556],[19.85824,51.88891]]}},{"type":"Feature","properties":{"numer":"2936E","klasa":"droga zbiorcza","kat":"powiatowa"},"geometry":{"type":"LineString","coordinates":[[19.85465,51.88556],[19.85422,51.88577],[19.85401,51.88602],[19.84591,51.89711],[19.84361,51.89998],[19.83916,51.89934],[19.83766,51.89904],[19.8372,51.89887],[19.83491,51.89737],[19.8341,51.89707],[19.82626,51.89541],[19.82493,51.89543],[19.82197,51.89582],[19.81619,51.89621],[19.81577,51.89635],[19.81469,51.89705],[19.81431,51.89719],[19.81003,51.89749],[19.8072,51.89804],[19.805,51.89864],[19.80227,51.89853],[19.79638,51.89929],[19.79578,51.8995],[19.78902,51.90308],[19.7852,51.90569],[19.78477,51.9056],[19.78087,51.90408]]}},{"type":"Feature","properties":{"numer":"5101E","klasa":"droga zbiorcza","kat":"powiatowa"},"geometry":{"type":"LineString","coordinates":[[19.75944,51.92421],[19.75995,51.9235],[19.7618,51.92179],[19.76399,51.91927]]}},{"type":"Feature","properties":{"numer":"5101E","klasa":"droga zbiorcza","kat":"powiatowa"},"geometry":{"type":"LineString","coordinates":[[19.75338,51.92744],[19.75493,51.92701],[19.75605,51.9265],[19.75811,51.92523],[19.75944,51.92421]]}},{"type":"Feature","properties":{"numer":"2935E","klasa":"droga zbiorcza","kat":"powiatowa"},"geometry":{"type":"LineString","coordinates":[[19.84326666110758,51.93580978428936],[19.8216,51.93441],[19.81773,51.93432],[19.81537,51.93445],[19.81376,51.93104],[19.81343,51.93054],[19.81099,51.929],[19.8097,51.92844],[19.80317,51.92655],[19.79564,51.92459],[19.79502,51.92454],[19.79071,51.92478],[19.78503,51.92354],[19.78345,51.92314],[19.77994,51.92206],[19.77934,51.92179],[19.7784,51.92117],[19.77336,51.92013],[19.77234,51.92036],[19.77048,51.9205],[19.76914,51.92041],[19.76854,51.9203],[19.76714,51.91981],[19.76549,51.9187],[19.76476,51.91838]]}},{"type":"Feature","properties":{"numer":"A2,E30","klasa":"autostrada","kat":"krajowa"},"geometry":{"type":"LineString","coordinates":[[19.76399,51.91927],[19.7699,51.92151],[19.77329,51.92265],[19.79157,51.92847],[19.79617,51.93015],[19.79979,51.93161],[19.82494,51.94245],[19.82983,51.94466],[19.8336,51.94667],[19.83586,51.94806],[19.83794,51.94947],[19.84021288753378,51.95121837502599]]}},{"type":"Feature","properties":{"numer":"1150E","klasa":"droga zbiorcza","kat":"powiatowa"},"geometry":{"type":"LineString","coordinates":[[19.68592,51.89694],[19.68432,51.89342],[19.68384524202367,51.891958245178145]]}},{"type":"Feature","properties":{"numer":"A2,E30","klasa":"autostrada","kat":"krajowa"},"geometry":{"type":"LineString","coordinates":[[19.67906354372831,51.89669469920843],[19.68592,51.89694]]}},{"type":"Feature","properties":{"numer":"1150E","klasa":"droga zbiorcza","kat":"powiatowa"},"geometry":{"type":"LineString","coordinates":[[19.68592,51.89694],[19.68608,51.89729]]}}]}