{"type":"FeatureCollection","features":[{"type":"Feature","properties":{"numer":"1307K","klasa":"droga zbiorcza","kat":"powiatowa"},"geometry":{"type":"LineString","coordinates":[[20.944256259011976,50.249060486905805],[20.94376,50.25137],[20.94544,50.25503]]}},{"type":"Feature","properties":{"numer":"1307K,1308K","klasa":"droga zbiorcza","kat":"powiatowa"},"geometry":{"type":"LineString","coordinates":[[20.94583,50.25588],[20.94544,50.25503]]}},{"type":"Feature","properties":{"numer":"1307K","klasa":"droga zbiorcza","kat":"powiatowa"},"geometry":{"type":"LineString","coordinates":[[20.9481,50.26413],[20.94804,50.26312],[20.94583,50.25588]]}},{"type":"Feature","properties":{"numer":"1308K","klasa":"droga zbiorcza","kat":"powiatowa"},"geometry":{"type":"LineString","coordinates":[[20.94544,50.25503],[20.94025,50.25636],[20.93693,50.25713],[20.9337,50.258],[20.93071,50.25958],[20.92871,50.26012],[20.92714,50.26046],[20.92488,50.26154],[20.92233,50.26233],[20.92049,50.26272],[20.91338,50.26558],[20.907197763360458,50.26677084066417]]}},{"type":"Feature","properties":{"numer":"1307K,180142K","klasa":"droga zbiorcza","kat":"powiatowa"},"geometry":{"type":"LineString","coordinates":[[20.94811,50.2642],[20.9481,50.26413]]}},{"type":"Feature","properties":{"numer":"1307K","klasa":"droga zbiorcza","kat":"powiatowa"},"geometry":{"type":"LineString","coordinates":[[20.95163,50.2713],[20.95156,50.27025],[20.9511,50.26907],[20.95082,50.26861],[20.94901,50.26641],[20.94822,50.26471],[20.94811,50.2642]]}},{"type":"Feature","properties":{"numer":"1325K","klasa":"droga zbiorcza","kat":"powiatowa"},"geometry":{"type":"LineString","coordinates":[[21.025995057217912,50.264787646668076],[21.02507,50.26509],[21.02221,50.26576],[21.01969,50.26614],[21.01799,50.26661]]}},{"type":"Feature","properties":{"numer":"","klasa":"droga zbiorcza","kat":"powiatowa"},"geometry":{"type":"LineString","coordinates":[[20.95173,50.27403],[20.95163,50.2713]]}},{"type":"Feature","properties":{"numer":"1303K","klasa":"droga zbiorcza","kat":"powiatowa"},"geometry":{"type":"LineString","coordinates":[[20.94531,50.2821],[20.94348,50.2827],[20.94289,50.28277],[20.94242,50.28263],[20.94121,50.28192],[20.94026,50.28169],[20.93687,50.28177],[20.93084,50.28138],[20.92974,50.28121],[20.92854,50.28079],[20.92183,50.27707],[20.92116,50.27677],[20.918381179766996,50.27589468072556]]}},{"type":"Feature","properties":{"numer":"1307K","klasa":"droga zbiorcza","kat":"powiatowa"},"geometry":{"type":"LineString","coordinates":[[20.94688,50.28157],[20.94676,50.28086],[20.94717,50.27937],[20.94792,50.27892],[20.94825,50.27813],[20.95019,50.27588],[20.95161,50.27493],[20.95173,50.27465],[20.95173,50.27403]]}},{"type":"Feature","properties":{"numer":"1303K","klasa":"droga zbiorcza","kat":"powiatowa"},"geometry":{"type":"LineString","coordinates":[[20.94688,50.28157],[20.9478,50.28151],[20.95013,50.28152],[20.95089,50.28167]]}},{"type":"Feature","properties":{"numer":"1303K,1307K","klasa":"droga zbiorcza","kat":"powiatowa"},"geometry":{"type":"LineString","coordinates":[[20.94531,50.2821],[20.94688,50.28157]]}},{"type":"Feature","properties":{"numer":"1308K","klasa":"droga zbiorcza","kat":"powiatowa"},"geometry":{"type":"LineString","coordinates":[[20.94583,50.25588],[20.9536,50.25706],[20.97072,50.25881],[20.97084,50.25886],[20.97082,50.25947],[20.97142,50.26136]]}},{"type":"Feature","properties":{"numer":"1308K,180142K","klasa":"droga zbiorcza","kat":"powiatowa"},"geometry":{"type":"LineString","coordinates":[[20.97142,50.26136],[20.97183,50.26142],[20.98092,50.26062],[20.98217,50.26046],[20.98379,50.26007],[20.9857,50.25998],[20.98814,50.26027],[20.98973,50.26035],[20.99078,50.26048],[20.99254,50.26095],[20.99766,50.26201]]}},{"type":"Feature","properties":{"numer":"1325K","klasa":"droga zbiorcza","kat":"powiatowa"},"geometry":{"type":"LineString","coordinates":[[20.95089,50.28167],[20.95104,50.28157],[20.95219,50.28142],[20.95343,50.28109],[20.95566,50.28001],[20.95645,50.27972],[20.95869,50.2796],[20.95985,50.27944],[20.96504,50.27847],[20.97384,50.27622],[20.9746,50.27595],[20.97636,50.27503],[20.97712,50.27475],[20.98618,50.27213],[20.98776,50.27127],[20.98939,50.27076],[20.99235,50.27004],[20.99439,50.26964],[20.99552,50.26947],[20.99664,50.26952]]}},{"type":"Feature","properties":{"numer":"1303K","klasa":"droga zbiorcza","kat":"powiatowa"},"geometry":{"type":"LineString","coordinates":[[20.95089,50.28167],[20.95238,50.28312],[20.95291,50.28349],[20.96022,50.28673],[20.96111,50.2872],[20.96327,50.2886],[20.96471,50.28922],[20.96596,50.28949],[20.97434,50.2908],[20.97688,50.29091],[20.98101,50.2908],[20.9817,50.29086],[20.98238,50.29115],[20.98475,50.29295],[20.98579,50.29358],[20.99099,50.29541],[20.9919,50.29564],[20.99317,50.29571],[20.99644,50.29539],[20.99733,50.29541],[21.00129,50.2962],[21.00913748202309,50.297280742642435]]}},{"type":"Feature","properties":{"numer":"1307K","klasa":"droga zbiorcza","kat":"powiatowa"},"geometry":{"type":"LineString","coordinates":[[21.011181959562713,50.302987625484896],[21.01103,50.30363],[21.0111,50.30439],[21.01083,50.30444],[21.00864,50.30442],[21.00704,50.30465],[21.00574,50.30468],[21.00515,50.30478],[21.00421,50.30507],[21.003,50.30571],[21.00062,50.30645],[20.99927,50.30708],[20.9965,50.30811],[20.99491,50.30768],[20.99166,50.30724],[20.98981,50.30681],[20.98458,50.30633],[20.98346,50.30649],[20.98197,50.30699],[20.97944,50.30737],[20.97789,50.30684],[20.97537,50.30617],[20.97515,50.30626],[20.97418,50.3072],[20.97209,50.30831],[20.97169,50.30843],[20.96777,50.30804],[20.96524,50.30747],[20.96489,50.30748],[20.96365,50.30777],[20.96262,50.30777],[20.9576,50.30534],[20.95639,50.30466],[20.95459,50.30154],[20.95472,50.30082],[20.95468,50.30012],[20.95457,50.29983],[20.95433,50.29962],[20.9518,50.29828],[20.95015,50.29774],[20.94734,50.29714],[20.94658,50.29646],[20.94635,50.2951],[20.94585,50.28932],[20.94586,50.2861],[20.94485,50.28329],[20.94494,50.2828],[20.94531,50.2821]]}},{"type":"Feature","properties":{"numer":"1308K","klasa":"droga zbiorcza","kat":"powiatowa"},"geometry":{"type":"LineString","coordinates":[[20.99766,50.26201],[20.99733,50.26267],[20.99666,50.26346],[20.99657,50.2637],[20.99635,50.26604],[20.99664,50.26952]]}},{"type":"Feature","properties":{"numer":"","klasa":"droga zbiorcza","kat":"powiatowa"},"geometry":{"type":"LineString","coordinates":[[21.01799,50.26661],[21.01638,50.26707]]}},{"type":"Feature","properties":{"numer":"1325K","klasa":"droga zbiorcza","kat":"powiatowa"},"geometry":{"type":"LineString","coordinates":[[20.99664,50.26952],[21.00163,50.26978],[21.00221,50.26974],[21.00729,50.26889],[21.00969,50.26832],[21.01638,50.26707]]}}]}