{"type":"FeatureCollection","features":[{"type":"Feature","properties":{"numer":"1461K","klasa":"","kat":"powiatowa"},"geometry":{"type":"LineString","coordinates":[[21.01953534088247,49.74162050058571],[21.0209,49.74239],[21.02291,49.74323],[21.02276,49.74356],[21.02096,49.74472],[21.01992,49.74584],[21.01868,49.7467],[21.01849,49.74694],[21.01846,49.74721],[21.01877,49.74846],[21.01959,49.74957],[21.02039,49.75017],[21.02179,49.75087],[21.02247,49.7513],[21.02312,49.75188],[21.02322,49.75229]]}},{"type":"Feature","properties":{"numer":"1391K","klasa":"droga zbiorcza","kat":"powiatowa"},"geometry":{"type":"LineString","coordinates":[[21.02361,49.75557],[21.01849,49.75656],[21.01678,49.75669],[21.01443,49.75702],[21.01097,49.75719],[21.00554,49.7576],[21.00191,49.75827],[21.00143,49.75851],[21.001197696189593,49.75869034111597]]}},{"type":"Feature","properties":{"numer":"977","klasa":"droga gĹ‚Ăłwna","kat":"wojewodzka"},"geometry":{"type":"LineString","coordinates":[[21.122213757992853,49.6967667170996],[21.12135,49.69908],[21.1195,49.7013],[21.11817,49.70369]]}},{"type":"Feature","properties":{"numer":"977","klasa":"droga gĹ‚Ăłwna","kat":"wojewodzka"},"geometry":{"type":"LineString","coordinates":[[21.11787,49.70387],[21.11817,49.70369]]}},{"type":"Feature","properties":{"numer":"977","klasa":"droga gĹ‚Ăłwna","kat":"wojewodzka"},"geometry":{"type":"LineString","coordinates":[[21.11759,49.70391],[21.11698,49.7038]]}},{"type":"Feature","properties":{"numer":"977","klasa":"droga gĹ‚Ăłwna","kat":"wojewodzka"},"geometry":{"type":"LineString","coordinates":[[21.11776,49.70397],[21.11787,49.70387]]}},{"type":"Feature","properties":{"numer":"977","klasa":"droga gĹ‚Ăłwna","kat":"wojewodzka"},"geometry":{"type":"LineString","coordinates":[[21.11776,49.70397],[21.11759,49.70391]]}},{"type":"Feature","properties":{"numer":"979","klasa":"droga gĹ‚Ăłwna","kat":"wojewodzka"},"geometry":{"type":"LineString","coordinates":[[21.11795,49.70395],[21.11776,49.70397]]}},{"type":"Feature","properties":{"numer":"979","klasa":"droga gĹ‚Ăłwna","kat":"wojewodzka"},"geometry":{"type":"LineString","coordinates":[[21.11836,49.70397],[21.11795,49.70395]]}},{"type":"Feature","properties":{"numer":"1391K","klasa":"droga zbiorcza","kat":"powiatowa"},"geometry":{"type":"LineString","coordinates":[[21.11776,49.70397],[21.11774,49.70409]]}},{"type":"Feature","properties":{"numer":"979","klasa":"droga gĹ‚Ăłwna","kat":"wojewodzka"},"geometry":{"type":"LineString","coordinates":[[21.11836,49.70397],[21.12984,49.70538],[21.131380797722077,49.70537723375633]]}},{"type":"Feature","properties":{"numer":"1474K","klasa":"droga zbiorcza","kat":"powiatowa"},"geometry":{"type":"LineString","coordinates":[[21.089577297473365,49.75953301101381],[21.09349,49.75769],[21.09824,49.75507],[21.09973,49.75397],[21.10265,49.75079],[21.10697,49.74781],[21.10974,49.7456],[21.11066,49.74514],[21.1127,49.7445],[21.11338,49.74409],[21.11558,49.74196],[21.11775,49.74035],[21.12026,49.73777],[21.12406,49.73592],[21.125,49.7354],[21.12644,49.73445],[21.12773,49.73388],[21.13556,49.73079],[21.137153087908416,49.72998968095597]]}},{"type":"Feature","properties":{"numer":"1391K","klasa":"droga zbiorcza","kat":"powiatowa"},"geometry":{"type":"LineString","coordinates":[[21.08313,49.74224],[21.08254,49.74261],[21.08063,49.74341],[21.07972,49.74392],[21.07892,49.74454],[21.07727,49.74498],[21.07598,49.74567],[21.07353,49.74635],[21.0729,49.74631],[21.07129,49.74549],[21.06956,49.74477],[21.06923,49.74466],[21.06894,49.74466],[21.0654,49.74586],[21.06416,49.74604],[21.06281,49.74634],[21.06027,49.74725],[21.05678,49.74811],[21.05323,49.74858],[21.04525,49.74889],[21.0436,49.74911],[21.04009,49.75067],[21.0369,49.75183],[21.03508,49.7527],[21.03418,49.75336],[21.03288,49.75469],[21.03182,49.75533],[21.02919,49.75604],[21.02676,49.75713],[21.02589,49.75737],[21.02514,49.75745],[21.02459,49.75722],[21.02402,49.7566],[21.02392,49.75592],[21.02361,49.75557]]}},{"type":"Feature","properties":{"numer":"1389K","klasa":"","kat":"powiatowa"},"geometry":{"type":"LineString","coordinates":[[21.07460584236422,49.75292126137101],[21.0763,49.75126],[21.08002,49.74901],[21.08214,49.74736],[21.08429,49.74637],[21.08432,49.74614],[21.08342,49.74522],[21.08393,49.74409],[21.08396,49.74377]]}},{"type":"Feature","properties":{"numer":"1462K","klasa":"droga zbiorcza","kat":"powiatowa"},"geometry":{"type":"LineString","coordinates":[[21.046092627000302,49.73579418431084],[21.04392,49.73712],[21.03992,49.73997],[21.03664,49.7418],[21.03288,49.7445],[21.02938,49.74772],[21.02776,49.7488],[21.02631,49.7495],[21.02579,49.74984],[21.02322,49.75229]]}},{"type":"Feature","properties":{"numer":"270875K","klasa":"droga lokalna","kat":"powiatowa"},"geometry":{"type":"LineString","coordinates":[[21.02322,49.75229],[21.02432,49.75332]]}},{"type":"Feature","properties":{"numer":"270875K","klasa":"droga lokalna","kat":"powiatowa"},"geometry":{"type":"LineString","coordinates":[[21.02432,49.75332],[21.02517,49.75439]]}},{"type":"Feature","properties":{"numer":"1462K","klasa":"droga zbiorcza","kat":"powiatowa"},"geometry":{"type":"LineString","coordinates":[[21.02322,49.75229],[21.02283,49.75272],[21.02274,49.75303],[21.02341,49.75426],[21.02364,49.75551]]}},{"type":"Feature","properties":{"numer":"270875K","klasa":"droga lokalna","kat":"powiatowa"},"geometry":{"type":"LineString","coordinates":[[21.02517,49.75439],[21.02388,49.75541],[21.02364,49.75551]]}},{"type":"Feature","properties":{"numer":"1462K","klasa":"droga zbiorcza","kat":"powiatowa"},"geometry":{"type":"LineString","coordinates":[[21.02364,49.75551],[21.02361,49.75557]]}},{"type":"Feature","properties":{"numer":"1391K","klasa":"droga zbiorcza","kat":"powiatowa"},"geometry":{"type":"LineString","coordinates":[[21.11774,49.70409],[21.11765,49.70432]]}},{"type":"Feature","properties":{"numer":"977","klasa":"droga gĹ‚Ăłwna","kat":"wojewodzka"},"geometry":{"type":"LineString","coordinates":[[21.11698,49.7038],[21.11022,49.70295],[21.09932,49.70132],[21.09843,49.70127],[21.0966,49.70139],[21.09546,49.70158],[21.094953729560572,49.701735188426156]]}},{"type":"Feature","properties":{"numer":"977","klasa":"droga gĹ‚Ăłwna","kat":"wojewodzka"},"geometry":{"type":"LineString","coordinates":[[21.091051615532677,49.7034057998415],[21.08981,49.70403],[21.08930897810219,49.70420744525548]]}},{"type":"Feature","properties":{"numer":"1391K","klasa":"droga zbiorcza","kat":"powiatowa"},"geometry":{"type":"LineString","coordinates":[[21.11765,49.70432],[21.11687,49.70524],[21.11474,49.70834],[21.11379,49.70916],[21.11278,49.71395],[21.11287,49.7161],[21.11277,49.7169],[21.11245,49.71769],[21.11096,49.71937],[21.10941,49.72062],[21.10805,49.72238],[21.10583,49.72326],[21.10434,49.72445],[21.1027,49.72599],[21.10176,49.72731],[21.09978,49.72891],[21.09969,49.72914],[21.09974,49.72966],[21.09961,49.72989],[21.098,49.73071],[21.09723,49.73137],[21.09631,49.73257],[21.09489,49.73406],[21.09297,49.73515],[21.09235,49.73592],[21.09128,49.73672],[21.09065,49.73736],[21.09005,49.73846],[21.0896,49.73897],[21.08863,49.73957],[21.08646,49.74004],[21.08575,49.74047],[21.08497,49.74076],[21.08361,49.74177],[21.08313,49.74224]]}},{"type":"Feature","properties":{"numer":"1389K","klasa":"","kat":"powiatowa"},"geometry":{"type":"LineString","coordinates":[[21.08394,49.7437],[21.08373,49.74288],[21.08313,49.74224]]}},{"type":"Feature","properties":{"numer":"1389K","klasa":"","kat":"powiatowa"},"geometry":{"type":"LineString","coordinates":[[21.08396,49.74377],[21.08394,49.7437]]}}]}