{"type":"FeatureCollection","features":[{"type":"Feature","properties":{"numer":"1489K","klasa":"droga zbiorcza","kat":"powiatowa"},"geometry":{"type":"LineString","coordinates":[[21.28572,49.63657],[21.28582,49.63598],[21.28538,49.63533],[21.28517,49.63387],[21.28363,49.63156],[21.28342,49.63102],[21.28343362973761,49.6308210058309]]}},{"type":"Feature","properties":{"numer":"1489K","klasa":"droga zbiorcza","kat":"powiatowa"},"geometry":{"type":"LineString","coordinates":[[21.28568,49.63676],[21.28572,49.63657]]}},{"type":"Feature","properties":{"numer":"1489K","klasa":"droga zbiorcza","kat":"powiatowa"},"geometry":{"type":"LineString","coordinates":[[21.29258,49.64682],[21.29266,49.64588],[21.29223,49.64514],[21.29216,49.64426],[21.29108,49.64196],[21.29032,49.64123],[21.28961,49.64022],[21.28839,49.63981],[21.2867,49.63858],[21.28568,49.63699],[21.28568,49.63676]]}},{"type":"Feature","properties":{"numer":"993","klasa":"droga gĹ‚Ăłwna","kat":"wojewodzka"},"geometry":{"type":"LineString","coordinates":[[21.26753,49.65537],[21.27084,49.65469],[21.27224,49.65431],[21.27502,49.65322],[21.27813,49.65178],[21.28019,49.65113],[21.2852,49.65061],[21.28656,49.65036],[21.28786,49.64998],[21.28944,49.6494],[21.29042,49.64883]]}},{"type":"Feature","properties":{"numer":"993","klasa":"droga gĹ‚Ăłwna","kat":"wojewodzka"},"geometry":{"type":"LineString","coordinates":[[21.26744,49.65539],[21.26753,49.65537]]}},{"type":"Feature","properties":{"numer":"993","klasa":"droga gĹ‚Ăłwna","kat":"wojewodzka"},"geometry":{"type":"LineString","coordinates":[[21.23244,49.65413],[21.24879,49.65401],[21.25182,49.6545],[21.25266,49.65471],[21.25314,49.65501],[21.25414,49.65636],[21.25463,49.65661],[21.25551,49.6568]]}},{"type":"Feature","properties":{"numer":"993","klasa":"droga gĹ‚Ăłwna","kat":"wojewodzka"},"geometry":{"type":"LineString","coordinates":[[21.25551,49.6568],[21.257,49.65697],[21.25938,49.65696],[21.26138,49.65683],[21.26267,49.65662],[21.26744,49.65539]]}},{"type":"Feature","properties":{"numer":"993","klasa":"droga gĹ‚Ăłwna","kat":"wojewodzka"},"geometry":{"type":"LineString","coordinates":[[21.3613,49.63697],[21.361481340329835,49.63684592503748]]}},{"type":"Feature","properties":{"numer":"993","klasa":"droga gĹ‚Ăłwna","kat":"wojewodzka"},"geometry":{"type":"LineString","coordinates":[[21.36096,49.63719],[21.3613,49.63697]]}},{"type":"Feature","properties":{"numer":"993","klasa":"droga gĹ‚Ăłwna","kat":"wojewodzka"},"geometry":{"type":"LineString","coordinates":[[21.36096,49.63719],[21.35987,49.63771],[21.35482,49.63947],[21.35266,49.64098],[21.35093,49.64162],[21.34733,49.64229],[21.34365,49.64271]]}},{"type":"Feature","properties":{"numer":"993","klasa":"droga gĹ‚Ăłwna","kat":"wojewodzka"},"geometry":{"type":"LineString","coordinates":[[21.33595,49.64068],[21.3361,49.64065]]}},{"type":"Feature","properties":{"numer":"993","klasa":"droga gĹ‚Ăłwna","kat":"wojewodzka"},"geometry":{"type":"LineString","coordinates":[[21.3361,49.64065],[21.33698,49.64053],[21.33773,49.64062],[21.33836,49.64084],[21.34171,49.64237],[21.34251,49.64259],[21.34349,49.64271]]}},{"type":"Feature","properties":{"numer":"993","klasa":"droga gĹ‚Ăłwna","kat":"wojewodzka"},"geometry":{"type":"LineString","coordinates":[[21.34349,49.64271],[21.34365,49.64271]]}},{"type":"Feature","properties":{"numer":"993","klasa":"droga gĹ‚Ăłwna","kat":"wojewodzka"},"geometry":{"type":"LineString","coordinates":[[21.29306,49.64692],[21.29384,49.64676],[21.30071,49.64601],[21.30407,49.64634],[21.30504,49.64636],[21.30621,49.64626],[21.3074,49.64604],[21.30969,49.64547],[21.31409,49.64492],[21.31701,49.64441],[21.32038,49.64365],[21.32363,49.64271],[21.32994,49.64138],[21.33058,49.64131],[21.33296,49.64144],[21.33595,49.64068]]}},{"type":"Feature","properties":{"numer":"1489K","klasa":"droga zbiorcza","kat":"powiatowa"},"geometry":{"type":"LineString","coordinates":[[21.29258,49.64682],[21.29264,49.64705]]}},{"type":"Feature","properties":{"numer":"993","klasa":"droga gĹ‚Ăłwna","kat":"wojewodzka"},"geometry":{"type":"LineString","coordinates":[[21.2929,49.64697],[21.29306,49.64692]]}},{"type":"Feature","properties":{"numer":"993","klasa":"droga gĹ‚Ăłwna","kat":"wojewodzka"},"geometry":{"type":"LineString","coordinates":[[21.29264,49.64705],[21.2929,49.64697]]}},{"type":"Feature","properties":{"numer":"993","klasa":"droga gĹ‚Ăłwna","kat":"wojewodzka"},"geometry":{"type":"LineString","coordinates":[[21.29042,49.64883],[21.2918,49.64751],[21.29264,49.64705]]}},{"type":"Feature","properties":{"numer":"1480K","klasa":"droga zbiorcza","kat":"powiatowa"},"geometry":{"type":"LineString","coordinates":[[21.29123,49.672],[21.29101,49.67127],[21.29002,49.6691],[21.28782,49.6636],[21.2875,49.66018],[21.28759,49.65947],[21.29042,49.64883]]}},{"type":"Feature","properties":{"numer":"993","klasa":"droga gĹ‚Ăłwna","kat":"wojewodzka"},"geometry":{"type":"LineString","coordinates":[[21.230907931238264,49.654139351386135],[21.23244,49.65413]]}},{"type":"Feature","properties":{"numer":"270556K,270708K","klasa":"droga zbiorcza","kat":"powiatowa"},"geometry":{"type":"LineString","coordinates":[[21.23244,49.65413],[21.23214733593191,49.65539506403628]]}},{"type":"Feature","properties":{"numer":"270556K,270708K","klasa":"droga zbiorcza","kat":"powiatowa"},"geometry":{"type":"LineString","coordinates":[[21.233109183843435,49.656389233812206],[21.23311,49.65639]]}},{"type":"Feature","properties":{"numer":"270556K,270708K","klasa":"droga zbiorcza","kat":"powiatowa"},"geometry":{"type":"LineString","coordinates":[[21.23311,49.65639],[21.233121527377456,49.65641005763677]]}},{"type":"Feature","properties":{"numer":"270556K,270708K","klasa":"droga zbiorcza","kat":"powiatowa"},"geometry":{"type":"LineString","coordinates":[[21.233890503597124,49.6577073381295],[21.23429,49.65824],[21.23449,49.65871]]}},{"type":"Feature","properties":{"numer":"270556K,270708K","klasa":"droga zbiorcza","kat":"powiatowa"},"geometry":{"type":"LineString","coordinates":[[21.23449,49.65871],[21.234503717232492,49.65874184357543]]}},{"type":"Feature","properties":{"numer":"1485K","klasa":"droga zbiorcza","kat":"powiatowa"},"geometry":{"type":"LineString","coordinates":[[21.25220018399207,49.67715546462644],[21.25221,49.67638],[21.25285,49.67524],[21.25317,49.67168],[21.25335,49.67084],[21.25621,49.66299],[21.25599,49.66249],[21.25456,49.66165],[21.25441,49.66144],[21.25499,49.65966],[21.25551,49.6568]]}},{"type":"Feature","properties":{"numer":"1480K","klasa":"droga zbiorcza","kat":"powiatowa"},"geometry":{"type":"LineString","coordinates":[[21.29085,49.67271],[21.28811,49.67299],[21.28777,49.67314],[21.2867,49.67398],[21.28629,49.67418],[21.28595,49.67425],[21.27575,49.67456],[21.27029,49.6746],[21.267860725416444,49.674471746372916]]}},{"type":"Feature","properties":{"numer":"1480K","klasa":"droga zbiorcza","kat":"powiatowa"},"geometry":{"type":"LineString","coordinates":[[21.267726824359904,49.67446467706248],[21.26707,49.67443],[21.26585,49.67464],[21.264774692874674,49.67494027444254]]}},{"type":"Feature","properties":{"numer":"1480K","klasa":"droga zbiorcza","kat":"powiatowa"},"geometry":{"type":"LineString","coordinates":[[21.260350916905814,49.67572535816609],[21.25589,49.67691]]}},{"type":"Feature","properties":{"numer":"1480K","klasa":"droga zbiorcza","kat":"powiatowa"},"geometry":{"type":"LineString","coordinates":[[21.25589,49.67691],[21.25416,49.67682],[21.252329030256007,49.67714695888285]]}},{"type":"Feature","properties":{"numer":"1482K","klasa":"","kat":"powiatowa"},"geometry":{"type":"LineString","coordinates":[[21.25589,49.67691],[21.255890374838614,49.67691185789574]]}},{"type":"Feature","properties":{"numer":"1482K","klasa":"","kat":"powiatowa"},"geometry":{"type":"LineString","coordinates":[[21.295,49.69408],[21.29345,49.69363],[21.28898,49.69255],[21.28588,49.69134],[21.28398,49.69082],[21.28259,49.69051],[21.27715849864105,49.6896307012977]]}},{"type":"Feature","properties":{"numer":"270717K","klasa":"droga lokalna","kat":"powiatowa"},"geometry":{"type":"LineString","coordinates":[[21.33712,49.66793],[21.33761,49.66809]]}},{"type":"Feature","properties":{"numer":"270717K","klasa":"droga lokalna","kat":"powiatowa"},"geometry":{"type":"LineString","coordinates":[[21.33519,49.6684],[21.33652,49.66795],[21.33712,49.66793]]}},{"type":"Feature","properties":{"numer":"270717K","klasa":"droga lokalna","kat":"powiatowa"},"geometry":{"type":"LineString","coordinates":[[21.34141,49.66827],[21.343308291925467,49.66841463176575]]}},{"type":"Feature","properties":{"numer":"270717K","klasa":"droga lokalna","kat":"powiatowa"},"geometry":{"type":"LineString","coordinates":[[21.34141,49.66827],[21.34085,49.66858]]}},{"type":"Feature","properties":{"numer":"270717K","klasa":"droga lokalna","kat":"powiatowa"},"geometry":{"type":"LineString","coordinates":[[21.33497,49.66847],[21.33519,49.6684]]}},{"type":"Feature","properties":{"numer":"270717K","klasa":"droga lokalna","kat":"powiatowa"},"geometry":{"type":"LineString","coordinates":[[21.34079,49.66861],[21.34047,49.66876],[21.34004,49.6688],[21.33761,49.66809]]}},{"type":"Feature","properties":{"numer":"270717K","klasa":"droga lokalna","kat":"powiatowa"},"geometry":{"type":"LineString","coordinates":[[21.34079,49.66861],[21.34085,49.66858]]}},{"type":"Feature","properties":{"numer":"1481K","klasa":"","kat":"powiatowa"},"geometry":{"type":"LineString","coordinates":[[21.31307,49.67269],[21.31365,49.67263],[21.32088,49.67292],[21.32447,49.67245],[21.33024,49.67108],[21.33172,49.67016],[21.3329,49.66867],[21.33337,49.66855],[21.33497,49.66847]]}},{"type":"Feature","properties":{"numer":"1481K","klasa":"","kat":"powiatowa"},"geometry":{"type":"LineString","coordinates":[[21.29123,49.672],[21.29503,49.67117],[21.29529,49.67124],[21.29553,49.67165],[21.29584,49.67188],[21.29618,49.67199],[21.29658,49.672]]}},{"type":"Feature","properties":{"numer":"1481K","klasa":"","kat":"powiatowa"},"geometry":{"type":"LineString","coordinates":[[21.29658,49.672],[21.29675,49.67198]]}},{"type":"Feature","properties":{"numer":"1480K","klasa":"droga zbiorcza","kat":"powiatowa"},"geometry":{"type":"LineString","coordinates":[[21.29136,49.67261],[21.29123,49.672]]}},{"type":"Feature","properties":{"numer":"1481K","klasa":"","kat":"powiatowa"},"geometry":{"type":"LineString","coordinates":[[21.29675,49.67198],[21.29847,49.67176],[21.30022,49.67138],[21.30054,49.67139],[21.30073,49.67151],[21.30195,49.67334],[21.30218,49.67351],[21.30601,49.67389],[21.30729,49.67388],[21.30952,49.67356],[21.31307,49.67269]]}},{"type":"Feature","properties":{"numer":"1480K","klasa":"droga zbiorcza","kat":"powiatowa"},"geometry":{"type":"LineString","coordinates":[[21.29085,49.67271],[21.29136,49.67261]]}},{"type":"Feature","properties":{"numer":"1480K","klasa":"droga zbiorcza","kat":"powiatowa"},"geometry":{"type":"LineString","coordinates":[[21.2914,49.67275],[21.29136,49.67261]]}},{"type":"Feature","properties":{"numer":"1478K","klasa":"","kat":"powiatowa"},"geometry":{"type":"LineString","coordinates":[[21.31307,49.67269],[21.31546,49.67506],[21.31574,49.67523],[21.31687,49.67532],[21.31775,49.67566],[21.31916,49.676],[21.32037,49.67593],[21.32249,49.67601],[21.32374,49.67597],[21.32446,49.67617],[21.3256,49.67666],[21.32753,49.67807],[21.32914,49.68],[21.32944,49.68002],[21.33262,49.67943],[21.33303,49.67941],[21.33465,49.68001],[21.33654,49.68044],[21.33696,49.68079]]}},{"type":"Feature","properties":{"numer":"1477K","klasa":"droga zbiorcza","kat":"powiatowa"},"geometry":{"type":"LineString","coordinates":[[21.29229,49.68239],[21.29182,49.68157],[21.29163,49.68027],[21.29193,49.67536],[21.2914,49.67275]]}},{"type":"Feature","properties":{"numer":"1477K","klasa":"droga zbiorcza","kat":"powiatowa"},"geometry":{"type":"LineString","coordinates":[[21.29236,49.6825],[21.29229,49.68239]]}},{"type":"Feature","properties":{"numer":"1478K","klasa":"","kat":"powiatowa"},"geometry":{"type":"LineString","coordinates":[[21.33696,49.68079],[21.33701,49.68084],[21.33453,49.68331],[21.33416,49.6842],[21.33353,49.685],[21.3335,49.68567],[21.33324,49.68676],[21.33273,49.6876],[21.3329,49.689],[21.33315,49.68915],[21.33438,49.68904],[21.33618,49.6895],[21.33858,49.68958],[21.34395,49.69022]]}},{"type":"Feature","properties":{"numer":"1870R","klasa":"droga zbiorcza","kat":"powiatowa"},"geometry":{"type":"LineString","coordinates":[[21.34668797296046,49.68969728493379],[21.34669,49.68971],[21.347,49.69028]]}},{"type":"Feature","properties":{"numer":"1477K","klasa":"droga zbiorcza","kat":"powiatowa"},"geometry":{"type":"LineString","coordinates":[[21.295,49.69408],[21.2955,49.69339],[21.29557,49.69295],[21.29459,49.69144],[21.29434,49.69088],[21.29424,49.69002],[21.29442,49.68839],[21.29349,49.68732],[21.29327,49.68642],[21.29324,49.68569],[21.29377,49.68499],[21.29384,49.6846],[21.29331,49.68403],[21.29236,49.6825]]}},{"type":"Feature","properties":{"numer":"1478K","klasa":"","kat":"powiatowa"},"geometry":{"type":"LineString","coordinates":[[21.34395,49.69022],[21.34569,49.69043],[21.34684,49.6904],[21.347,49.69028]]}},{"type":"Feature","properties":{"numer":"1477K","klasa":"droga zbiorcza","kat":"powiatowa"},"geometry":{"type":"LineString","coordinates":[[21.29434,49.69564],[21.295,49.69408]]}},{"type":"Feature","properties":{"numer":"1477K","klasa":"droga zbiorcza","kat":"powiatowa"},"geometry":{"type":"LineString","coordinates":[[21.29428,49.69584],[21.29434,49.69564]]}},{"type":"Feature","properties":{"numer":"1477K","klasa":"droga zbiorcza","kat":"powiatowa"},"geometry":{"type":"LineString","coordinates":[[21.29437,49.69601],[21.29428,49.69584]]}},{"type":"Feature","properties":{"numer":"1477K","klasa":"droga zbiorcza","kat":"powiatowa"},"geometry":{"type":"LineString","coordinates":[[21.29472,49.69614],[21.29437,49.69601]]}},{"type":"Feature","properties":{"numer":"1477K","klasa":"droga zbiorcza","kat":"powiatowa"},"geometry":{"type":"LineString","coordinates":[[21.321994512000305,49.714318323806225],[21.32022,49.71399],[21.3194,49.71368],[21.3188,49.71327],[21.31692,49.7115],[21.31444,49.71046],[21.31316,49.70945],[21.31153,49.70797],[21.30911,49.70533],[21.30867,49.70458],[21.30777,49.70254],[21.30611,49.70066],[21.30582,49.69982],[21.30556,49.69949],[21.30095,49.69754],[21.29948,49.69701],[21.29803,49.69682],[21.29665,49.69636],[21.29472,49.69614]]}}]}