{"type":"FeatureCollection","features":[{"type":"Feature","properties":{"numer":"1579K","klasa":"droga zbiorcza","kat":"powiatowa"},"geometry":{"type":"LineString","coordinates":[[20.53873586762075,49.58284960644007],[20.53881,49.58335],[20.53834,49.58492],[20.53509,49.58695],[20.5347,49.58731],[20.53466,49.58758],[20.53475,49.58786],[20.5359,49.5893],[20.5364,49.59053],[20.53693,49.59152],[20.53695,49.59184]]}},{"type":"Feature","properties":{"numer":"1579K","klasa":"droga zbiorcza","kat":"powiatowa"},"geometry":{"type":"LineString","coordinates":[[20.53675,49.5923],[20.53695,49.59184]]}},{"type":"Feature","properties":{"numer":"1579K","klasa":"droga zbiorcza","kat":"powiatowa"},"geometry":{"type":"LineString","coordinates":[[20.53453,49.59431],[20.53675,49.5923]]}},{"type":"Feature","properties":{"numer":"1580K","klasa":"droga zbiorcza","kat":"powiatowa"},"geometry":{"type":"LineString","coordinates":[[20.48482,49.59042],[20.48743,49.589],[20.488291183981428,49.5887299245502]]}},{"type":"Feature","properties":{"numer":"1580K","klasa":"droga zbiorcza","kat":"powiatowa"},"geometry":{"type":"LineString","coordinates":[[20.4891428,49.588457],[20.49026,49.58782],[20.49529,49.58567],[20.49711,49.58441],[20.50173,49.58153],[20.512962086246738,49.57871968242723]]}},{"type":"Feature","properties":{"numer":"1580K","klasa":"droga zbiorcza","kat":"powiatowa"},"geometry":{"type":"LineString","coordinates":[[20.48437,49.59055],[20.48482,49.59042]]}},{"type":"Feature","properties":{"numer":"1580K","klasa":"droga zbiorcza","kat":"powiatowa"},"geometry":{"type":"LineString","coordinates":[[20.484,49.59057],[20.48437,49.59055]]}},{"type":"Feature","properties":{"numer":"1545K","klasa":"droga zbiorcza","kat":"powiatowa"},"geometry":{"type":"LineString","coordinates":[[20.49547,49.60177],[20.49408,49.60103],[20.49283,49.59988],[20.49247,49.5989],[20.49198,49.59797],[20.4913,49.59727],[20.49038,49.59591],[20.48972,49.59539],[20.48857,49.59505],[20.48827,49.59487],[20.48713,49.59264],[20.48659,49.59181],[20.48625,49.59147],[20.48542,49.59124],[20.48482,49.59042]]}},{"type":"Feature","properties":{"numer":"1610K","klasa":"droga zbiorcza","kat":"powiatowa"},"geometry":{"type":"LineString","coordinates":[[20.49577,49.60186],[20.49662,49.60084],[20.49838,49.599],[20.49881,49.59868],[20.50067,49.59783],[20.50167,49.59752],[20.50341,49.59729],[20.5058,49.59682],[20.50847,49.59595],[20.51201,49.59503],[20.5125,49.59481],[20.51359,49.59406],[20.51426,49.59377],[20.51501,49.59354],[20.51598,49.59344],[20.51776,49.59344],[20.51991,49.59296],[20.52149,49.59291],[20.52402,49.59322],[20.52626,49.59332],[20.52793,49.59362],[20.53025,49.59373],[20.53296,49.59413],[20.53422,49.59458]]}},{"type":"Feature","properties":{"numer":"1580K","klasa":"droga zbiorcza","kat":"powiatowa"},"geometry":{"type":"LineString","coordinates":[[20.45527,49.60785],[20.45613,49.60763],[20.45658,49.60737],[20.45739,49.60586],[20.45793,49.60528],[20.46173,49.60299],[20.46352,49.60174],[20.46494,49.60088],[20.46686,49.59905],[20.46817,49.59819],[20.47137,49.59555],[20.47226,49.59493],[20.47306,49.59372],[20.47327,49.59354],[20.475604969886753,49.59266124789208]]}},{"type":"Feature","properties":{"numer":"1580K","klasa":"droga zbiorcza","kat":"powiatowa"},"geometry":{"type":"LineString","coordinates":[[20.47959677115492,49.59153643948389],[20.47997,49.59148],[20.48152,49.59096],[20.4823,49.59088],[20.48337,49.59061],[20.484,49.59057]]}},{"type":"Feature","properties":{"numer":"1580K","klasa":"droga zbiorcza","kat":"powiatowa"},"geometry":{"type":"LineString","coordinates":[[20.42283,49.62019],[20.42303,49.62017]]}},{"type":"Feature","properties":{"numer":"1580K","klasa":"droga zbiorcza","kat":"powiatowa"},"geometry":{"type":"LineString","coordinates":[[20.37669975,49.63436],[20.37684,49.63436],[20.37798,49.63478],[20.37868,49.63482],[20.37989,49.63446],[20.38175,49.63407],[20.38297,49.63349],[20.38426,49.63301],[20.38622,49.63266],[20.38794,49.63269],[20.38876,49.63257],[20.39336,49.63141],[20.39591,49.63032],[20.3982,49.62956],[20.39973,49.62894],[20.40167,49.62849],[20.40401,49.62817],[20.40579,49.62782],[20.40821,49.62702],[20.40917,49.62638],[20.40956,49.62585],[20.41159,49.6251],[20.41191,49.6248],[20.41291,49.62343],[20.41448,49.62221],[20.41605,49.62141],[20.41759,49.6209],[20.42066,49.62068],[20.42283,49.62019]]}},{"type":"Feature","properties":{"numer":"1609K","klasa":"droga zbiorcza","kat":"powiatowa"},"geometry":{"type":"LineString","coordinates":[[20.386497945712524,49.64220348680152],[20.38649,49.64219],[20.38559,49.64128],[20.38176,49.63921],[20.37938,49.63818],[20.37793,49.63711],[20.37761,49.63675],[20.37661,49.63488],[20.37654167778601,49.634796061279964]]}},{"type":"Feature","properties":{"numer":"1580K","klasa":"droga zbiorcza","kat":"powiatowa"},"geometry":{"type":"LineString","coordinates":[[20.45492,49.60791],[20.45527,49.60785]]}},{"type":"Feature","properties":{"numer":"1580K","klasa":"droga zbiorcza","kat":"powiatowa"},"geometry":{"type":"LineString","coordinates":[[20.42303,49.62017],[20.42441,49.62017],[20.42703,49.61963],[20.42737,49.61949],[20.42832,49.61883],[20.42868,49.6187],[20.43047,49.61873],[20.43203,49.61839],[20.43425,49.61734],[20.43574,49.61643],[20.43778,49.61482],[20.43846,49.61375],[20.43887,49.61347],[20.4408,49.61287],[20.44205,49.61265],[20.44277,49.61243],[20.44439,49.61162],[20.44574,49.61108],[20.44696,49.61033],[20.44909,49.60948],[20.45161,49.60884],[20.45341,49.60822],[20.45492,49.60791]]}},{"type":"Feature","properties":{"numer":"1610K","klasa":"droga zbiorcza","kat":"powiatowa"},"geometry":{"type":"LineString","coordinates":[[20.442901085980996,49.644239500759156],[20.44312,49.64415],[20.44432,49.64332],[20.44479,49.64255],[20.44599,49.6419],[20.44625,49.64167],[20.44827,49.63904],[20.44875,49.63862],[20.44939,49.63827],[20.45063,49.63814],[20.4511,49.63788],[20.45138,49.63708],[20.45212,49.63628],[20.45219,49.63544],[20.45298,49.63474],[20.45365,49.63375],[20.45397,49.6335],[20.45519,49.63303],[20.4562,49.63228],[20.45638,49.63206],[20.45641,49.63168],[20.45625,49.63122],[20.45655,49.63067],[20.45667,49.62929],[20.45644,49.62863],[20.457,49.62755],[20.4566,49.62582],[20.45664,49.62554],[20.45684,49.62536],[20.45779,49.62486],[20.45823,49.62445],[20.45905,49.62315],[20.45974,49.6225],[20.46013,49.62174],[20.46121,49.62102],[20.46403,49.61876],[20.46511,49.61804],[20.46679,49.61728],[20.46916,49.61666],[20.46958,49.61649],[20.47024,49.61609],[20.47146,49.61511],[20.47351,49.61464],[20.47493,49.61386],[20.47675,49.61329],[20.48592,49.60955],[20.48657,49.60922],[20.48869,49.6077],[20.49127,49.60665]]}},{"type":"Feature","properties":{"numer":"1579K","klasa":"droga zbiorcza","kat":"powiatowa"},"geometry":{"type":"LineString","coordinates":[[20.53432,49.5945],[20.53453,49.59431]]}},{"type":"Feature","properties":{"numer":"1579K","klasa":"droga zbiorcza","kat":"powiatowa"},"geometry":{"type":"LineString","coordinates":[[20.53422,49.59458],[20.53432,49.5945]]}},{"type":"Feature","properties":{"numer":"1579K","klasa":"droga zbiorcza","kat":"powiatowa"},"geometry":{"type":"LineString","coordinates":[[20.51287,49.61365],[20.51303,49.61317],[20.51685,49.60708],[20.51765,49.6052],[20.51806,49.60466],[20.51948,49.6038],[20.52867,49.59663],[20.52952,49.59625],[20.53345,49.59508],[20.53422,49.59458]]}},{"type":"Feature","properties":{"numer":"1545K","klasa":"droga zbiorcza","kat":"powiatowa"},"geometry":{"type":"LineString","coordinates":[[20.51511,49.61318],[20.51764,49.61262],[20.5183,49.61262],[20.51951,49.61298],[20.52148,49.61402],[20.52178,49.61407],[20.52334,49.61344],[20.52764,49.61212],[20.52812,49.61204],[20.52971,49.61213],[20.53138,49.61183],[20.53163,49.61137],[20.53201,49.61096],[20.5331,49.61063],[20.53369,49.61008],[20.53438,49.60969],[20.53635,49.60912],[20.53888,49.60857],[20.54126,49.60788],[20.54374,49.60674],[20.543780239503285,49.60672617860539]]}},{"type":"Feature","properties":{"numer":"1545K","klasa":"droga zbiorcza","kat":"powiatowa"},"geometry":{"type":"LineString","coordinates":[[20.49566,49.60183],[20.49547,49.60177]]}},{"type":"Feature","properties":{"numer":"1545K","klasa":"droga zbiorcza","kat":"powiatowa"},"geometry":{"type":"LineString","coordinates":[[20.49566,49.60183],[20.49577,49.60186]]}},{"type":"Feature","properties":{"numer":"1610K","klasa":"droga zbiorcza","kat":"powiatowa"},"geometry":{"type":"LineString","coordinates":[[20.49127,49.60665],[20.49155,49.6065],[20.49454,49.60403],[20.49484,49.60365],[20.49577,49.60186]]}},{"type":"Feature","properties":{"numer":"1545K","klasa":"droga zbiorcza","kat":"powiatowa"},"geometry":{"type":"LineString","coordinates":[[20.49127,49.60665],[20.49177,49.60688],[20.49258,49.60689],[20.4933,49.60672],[20.49457,49.60623],[20.49482,49.6062],[20.49508,49.60627],[20.49623,49.60696],[20.49725,49.60743],[20.49746,49.60762],[20.49732,49.60784],[20.49602,49.60851],[20.49591,49.60866],[20.49601,49.60883],[20.49674,49.6092],[20.4985,49.61031],[20.49965,49.61084],[20.50043,49.61156],[20.5019,49.61226],[20.50325,49.61302],[20.5045,49.61351],[20.50486,49.61358],[20.5061,49.61361],[20.50725,49.61379],[20.50982,49.61357],[20.51079,49.61374],[20.51257,49.61356],[20.51287,49.61365]]}},{"type":"Feature","properties":{"numer":"1545K","klasa":"droga zbiorcza","kat":"powiatowa"},"geometry":{"type":"LineString","coordinates":[[20.51472,49.61327],[20.51511,49.61318]]}},{"type":"Feature","properties":{"numer":"1545K","klasa":"droga zbiorcza","kat":"powiatowa"},"geometry":{"type":"LineString","coordinates":[[20.51287,49.61365],[20.51472,49.61327]]}},{"type":"Feature","properties":{"numer":"1579K","klasa":"droga zbiorcza","kat":"powiatowa"},"geometry":{"type":"LineString","coordinates":[[20.50636,49.63279],[20.50705,49.63231],[20.50725,49.63203],[20.50745,49.62937],[20.50793,49.62703],[20.50841,49.62632],[20.50967,49.62514],[20.51079,49.62377],[20.5109,49.62251],[20.51132,49.62113],[20.51109,49.61929],[20.51134,49.61793],[20.51156,49.61737],[20.51277,49.61591],[20.51294,49.61558],[20.51287,49.61365]]}},{"type":"Feature","properties":{"numer":"1579K","klasa":"droga zbiorcza","kat":"powiatowa"},"geometry":{"type":"LineString","coordinates":[[20.50629,49.63287],[20.50636,49.63279]]}},{"type":"Feature","properties":{"numer":"1579K","klasa":"droga zbiorcza","kat":"powiatowa"},"geometry":{"type":"LineString","coordinates":[[20.50391,49.63527],[20.50459,49.63404],[20.50629,49.63287]]}},{"type":"Feature","properties":{"numer":"1579K","klasa":"droga zbiorcza","kat":"powiatowa"},"geometry":{"type":"LineString","coordinates":[[20.50387,49.63535],[20.50391,49.63527]]}},{"type":"Feature","properties":{"numer":"1546K","klasa":"droga zbiorcza","kat":"powiatowa"},"geometry":{"type":"LineString","coordinates":[[20.50431,49.64103],[20.50543,49.64056],[20.50581,49.64067],[20.50666,49.6411],[20.50695,49.64111],[20.5073,49.64101],[20.50904,49.64025],[20.51013,49.63935],[20.5127,49.63845],[20.51564,49.6368],[20.51714,49.63649],[20.51931,49.63524],[20.52081,49.63467],[20.5250273304244,49.63421534356019]]}},{"type":"Feature","properties":{"numer":"1579K","klasa":"droga zbiorcza","kat":"powiatowa"},"geometry":{"type":"LineString","coordinates":[[20.504,49.6412],[20.50299,49.64035],[20.50247,49.6395],[20.50234,49.63898],[20.50245,49.63839],[20.50346,49.63643],[20.50387,49.63535]]}},{"type":"Feature","properties":{"numer":"1546K","klasa":"droga zbiorcza","kat":"powiatowa"},"geometry":{"type":"LineString","coordinates":[[20.50412,49.64113],[20.50431,49.64103]]}},{"type":"Feature","properties":{"numer":"1546K","klasa":"droga zbiorcza","kat":"powiatowa"},"geometry":{"type":"LineString","coordinates":[[20.504,49.6412],[20.50412,49.64113]]}},{"type":"Feature","properties":{"numer":"1579K","klasa":"droga zbiorcza","kat":"powiatowa"},"geometry":{"type":"LineString","coordinates":[[20.50196,49.64952],[20.50271,49.6493],[20.50311,49.64903],[20.50397,49.64776],[20.50454,49.64613],[20.50482,49.64441],[20.50501,49.64207],[20.50473,49.6417],[20.504,49.6412]]}},{"type":"Feature","properties":{"numer":"1579K","klasa":"droga zbiorcza","kat":"powiatowa"},"geometry":{"type":"LineString","coordinates":[[20.50182,49.64957],[20.50196,49.64952]]}},{"type":"Feature","properties":{"numer":"1579K","klasa":"droga zbiorcza","kat":"powiatowa"},"geometry":{"type":"LineString","coordinates":[[20.48782,49.65995],[20.49099,49.65718],[20.49312,49.65602],[20.49673,49.65298],[20.50002,49.65097],[20.50049,49.65061],[20.50121,49.64984],[20.50182,49.64957]]}},{"type":"Feature","properties":{"numer":"1579K","klasa":"droga zbiorcza","kat":"powiatowa"},"geometry":{"type":"LineString","coordinates":[[20.48766,49.66026],[20.48782,49.65995]]}},{"type":"Feature","properties":{"numer":"1579K","klasa":"droga zbiorcza","kat":"powiatowa"},"geometry":{"type":"LineString","coordinates":[[20.481931076272424,49.66655018229546],[20.48199,49.6665],[20.48278,49.66543],[20.48396,49.66423],[20.48589,49.66174],[20.48717,49.66093],[20.48766,49.66026]]}}]}