{"type":"FeatureCollection","features":[{"type":"Feature","properties":{"numer":"1632K","klasa":"droga zbiorcza","kat":"powiatowa"},"geometry":{"type":"LineString","coordinates":[[20.23609,49.75592],[20.24063,49.75553],[20.2418,49.75554],[20.24356,49.75567],[20.24515,49.75547],[20.24566,49.75552],[20.24673,49.75582],[20.2483,49.7556],[20.25163,49.75597],[20.25272,49.75597],[20.25559,49.75549],[20.25751,49.75541],[20.26083,49.75464],[20.26294,49.75446],[20.26348,49.75434],[20.26532,49.75379],[20.26672,49.75314],[20.269,49.75255],[20.27219,49.75149],[20.27299,49.75115],[20.27345,49.75107],[20.274,49.75108],[20.27434,49.75098],[20.27448,49.75066],[20.27416,49.75027],[20.27414,49.7501],[20.2749,49.74921],[20.27529,49.74781],[20.275992469249978,49.747042886340516]]}},{"type":"Feature","properties":{"numer":"1622K","klasa":"droga zbiorcza","kat":"powiatowa"},"geometry":{"type":"LineString","coordinates":[[20.1911,49.77154],[20.18992,49.76972],[20.189748519212745,49.769388615187495]]}},{"type":"Feature","properties":{"numer":"1622K","klasa":"droga zbiorcza","kat":"powiatowa"},"geometry":{"type":"LineString","coordinates":[[20.19114,49.77161],[20.1911,49.77154]]}},{"type":"Feature","properties":{"numer":"1620K","klasa":"droga zbiorcza","kat":"powiatowa"},"geometry":{"type":"LineString","coordinates":[[20.22342396214647,49.75458910999357],[20.22473,49.7547],[20.22504,49.75457],[20.225295705312742,49.75424610660386]]}},{"type":"Feature","properties":{"numer":"1620K","klasa":"droga zbiorcza","kat":"powiatowa"},"geometry":{"type":"LineString","coordinates":[[20.23165863505747,49.756478850574716],[20.23166,49.75648]]}},{"type":"Feature","properties":{"numer":"1632K","klasa":"droga zbiorcza","kat":"powiatowa"},"geometry":{"type":"LineString","coordinates":[[20.23606583657587,49.7559226848249],[20.23609,49.75592]]}},{"type":"Feature","properties":{"numer":"1632K","klasa":"droga zbiorcza","kat":"powiatowa"},"geometry":{"type":"LineString","coordinates":[[20.23166,49.75648],[20.23166717670956,49.75647796885579]]}},{"type":"Feature","properties":{"numer":"1632K","klasa":"droga zbiorcza","kat":"powiatowa"},"geometry":{"type":"LineString","coordinates":[[20.23639,49.77496],[20.23537,49.77377],[20.23404,49.77293],[20.23287,49.77254],[20.23231,49.77226],[20.22732,49.76825],[20.22681,49.76749],[20.22672,49.76411],[20.22764,49.76138],[20.22769,49.75984],[20.22806,49.75929],[20.22983,49.75724],[20.23046,49.75687],[20.23166,49.75648]]}},{"type":"Feature","properties":{"numer":"1621K","klasa":"droga zbiorcza","kat":"powiatowa"},"geometry":{"type":"LineString","coordinates":[[20.20138,49.78283],[20.20545,49.78405],[20.20599,49.78411],[20.2063,49.78398],[20.21626,49.77763],[20.21674,49.7774],[20.22713,49.77751],[20.22815,49.77758],[20.2294,49.77719],[20.231,49.77681],[20.23216,49.77602],[20.2333,49.77561],[20.23388,49.77548],[20.23518,49.7755],[20.23639,49.77496]]}},{"type":"Feature","properties":{"numer":"1632K","klasa":"droga zbiorcza","kat":"powiatowa"},"geometry":{"type":"LineString","coordinates":[[20.24597,49.7998],[20.24641,49.79942],[20.24644,49.79881],[20.24594,49.79824],[20.24422,49.7971],[20.24384,49.79673],[20.24261,49.79413],[20.24176,49.79149],[20.24179,49.78997],[20.24147,49.78903],[20.2414,49.78715],[20.24162,49.78208],[20.24173,49.7806],[20.24237,49.77934],[20.24235,49.7787],[20.24188,49.77813],[20.24035,49.7768],[20.23964,49.77647],[20.23765,49.77587],[20.23639,49.77496]]}},{"type":"Feature","properties":{"numer":"1618K","klasa":"droga zbiorcza","kat":"powiatowa"},"geometry":{"type":"LineString","coordinates":[[20.24597,49.7998],[20.24701,49.79983],[20.24747,49.79994],[20.24861,49.80073],[20.24934,49.80099],[20.25096,49.80081],[20.25301,49.80087],[20.25352,49.80095]]}},{"type":"Feature","properties":{"numer":"1618K","klasa":"droga zbiorcza","kat":"powiatowa"},"geometry":{"type":"LineString","coordinates":[[20.2536,49.80097],[20.25352,49.80095]]}},{"type":"Feature","properties":{"numer":"1622K","klasa":"droga zbiorcza","kat":"powiatowa"},"geometry":{"type":"LineString","coordinates":[[20.19085,49.78088],[20.19091,49.78057],[20.19072,49.77822],[20.19117,49.77692],[20.1915,49.7743],[20.19114,49.77161]]}},{"type":"Feature","properties":{"numer":"1621K","klasa":"droga zbiorcza","kat":"powiatowa"},"geometry":{"type":"LineString","coordinates":[[20.19085,49.78088],[20.19653,49.78179],[20.198,49.78225],[20.20138,49.78283]]}},{"type":"Feature","properties":{"numer":"1622K","klasa":"droga zbiorcza","kat":"powiatowa"},"geometry":{"type":"LineString","coordinates":[[20.17578,49.79818],[20.17656,49.79831],[20.17751,49.79814],[20.17828,49.7977],[20.179,49.79682],[20.18157,49.79299],[20.18219,49.78952],[20.18264,49.78905],[20.18405,49.78835],[20.18444,49.78798],[20.18457,49.78764],[20.18449,49.78654],[20.18456,49.78621],[20.18593,49.78399],[20.1874,49.78299],[20.1892,49.78226],[20.19085,49.78088]]}},{"type":"Feature","properties":{"numer":"1623K","klasa":"droga zbiorcza","kat":"powiatowa"},"geometry":{"type":"LineString","coordinates":[[20.194077505050828,49.80547986547157],[20.19415,49.80518],[20.19534,49.80361],[20.19553,49.80348],[20.19609,49.80333],[20.19624,49.80316],[20.19605,49.80278],[20.1946,49.80155],[20.19299,49.79835],[20.19248,49.79774],[20.19261,49.79736],[20.19351,49.79584],[20.19417,49.79416],[20.19417,49.79356],[20.19447,49.79219],[20.19419,49.79031],[20.19421,49.78979],[20.19455,49.78918],[20.19505,49.78867],[20.19684,49.78721],[20.19793,49.78645],[20.19857,49.78582],[20.19919,49.78547],[20.20138,49.78283]]}},{"type":"Feature","properties":{"numer":"1622K","klasa":"droga zbiorcza","kat":"powiatowa"},"geometry":{"type":"LineString","coordinates":[[20.17578,49.79818],[20.17537,49.79806]]}},{"type":"Feature","properties":{"numer":"1622K","klasa":"droga zbiorcza","kat":"powiatowa"},"geometry":{"type":"LineString","coordinates":[[20.172332956381258,49.800957851373184],[20.17234,49.80078],[20.17284,49.7991],[20.17308,49.79866],[20.17356,49.79835],[20.1745,49.79802],[20.17495,49.79799],[20.17537,49.79806]]}},{"type":"Feature","properties":{"numer":"1618K","klasa":"droga zbiorcza","kat":"powiatowa"},"geometry":{"type":"LineString","coordinates":[[20.26933,49.80428],[20.26794,49.80427],[20.26696,49.80415],[20.26584,49.80441],[20.26545,49.80441],[20.26497,49.80416],[20.2643,49.80343],[20.26401,49.80327],[20.26363,49.80326],[20.26265,49.80356],[20.2619,49.80347],[20.25765,49.80218],[20.25635,49.80147],[20.2536,49.80097]]}},{"type":"Feature","properties":{"numer":"1632K","klasa":"droga zbiorcza","kat":"powiatowa"},"geometry":{"type":"LineString","coordinates":[[20.23832,49.82486307692307],[20.23832,49.82478],[20.23815,49.82459],[20.23604,49.82286],[20.23573,49.82169],[20.23557,49.82143],[20.23525,49.82134],[20.23377,49.82128],[20.23289,49.82107],[20.23032,49.81976],[20.22921,49.81902],[20.22809,49.81806],[20.22744,49.81725],[20.22635,49.81623],[20.22625,49.81596],[20.22694,49.81516],[20.22784,49.81311],[20.22806,49.81279],[20.22992,49.81174],[20.23219,49.81018],[20.23314,49.80941],[20.23412,49.80839],[20.23477,49.8079],[20.23656,49.80705],[20.23892,49.80545],[20.2394,49.80468],[20.23977,49.80375],[20.23985,49.80139],[20.24032,49.80063],[20.24071,49.80044],[20.24118,49.80039],[20.24409,49.8006],[20.24597,49.7998]]}},{"type":"Feature","properties":{"numer":"1618K","klasa":"droga zbiorcza","kat":"powiatowa"},"geometry":{"type":"LineString","coordinates":[[20.29397,49.79165],[20.29486,49.79047],[20.29526,49.79018],[20.29614,49.7897],[20.29764,49.78934],[20.29759,49.78838],[20.29792,49.78785],[20.29957,49.78711],[20.30052,49.78619],[20.30211,49.7849],[20.30407,49.78363],[20.30495,49.78287],[20.30574,49.78172],[20.30647,49.78029],[20.30792,49.77845],[20.308364227488152,49.77736018957346]]}},{"type":"Feature","properties":{"numer":"1618K","klasa":"droga zbiorcza","kat":"powiatowa"},"geometry":{"type":"LineString","coordinates":[[20.29397,49.79165],[20.29391,49.79173]]}},{"type":"Feature","properties":{"numer":"1618K","klasa":"droga zbiorcza","kat":"powiatowa"},"geometry":{"type":"LineString","coordinates":[[20.29383,49.79332],[20.29366,49.79223],[20.29391,49.79173]]}},{"type":"Feature","properties":{"numer":"1618K","klasa":"droga zbiorcza","kat":"powiatowa"},"geometry":{"type":"LineString","coordinates":[[20.29382,49.79337],[20.29383,49.79332]]}},{"type":"Feature","properties":{"numer":"1618K","klasa":"droga zbiorcza","kat":"powiatowa"},"geometry":{"type":"LineString","coordinates":[[20.26972,49.80428],[20.27115,49.80427],[20.27175,49.80417],[20.27238,49.80395],[20.27315,49.80353],[20.27528,49.80216],[20.27795,49.79976],[20.27852,49.7991],[20.28052,49.79774],[20.28124,49.79735],[20.28235,49.79689],[20.28571,49.79592],[20.28702,49.79542],[20.28895,49.79486],[20.29166,49.79395],[20.29356,49.79357],[20.29382,49.79337]]}},{"type":"Feature","properties":{"numer":"1618K","klasa":"droga zbiorcza","kat":"powiatowa"},"geometry":{"type":"LineString","coordinates":[[20.26933,49.80428],[20.26972,49.80428]]}},{"type":"Feature","properties":{"numer":"1619K","klasa":"droga zbiorcza","kat":"powiatowa"},"geometry":{"type":"LineString","coordinates":[[20.31190400840504,49.80124889400307],[20.31264,49.80014],[20.3132,49.79972],[20.31533134939757,49.799001289156635]]}},{"type":"Feature","properties":{"numer":"1619K","klasa":"droga zbiorcza","kat":"powiatowa"},"geometry":{"type":"LineString","coordinates":[[20.315931398601407,49.79876604259377],[20.31688,49.79824],[20.318299397811348,49.7977293629825]]}}]}