{"type":"FeatureCollection","features":[{"type":"Feature","properties":{"numer":"1173K","klasa":"droga zbiorcza","kat":"powiatowa"},"geometry":{"type":"LineString","coordinates":[[19.942,50.27762],[19.94125,50.27746],[19.94073,50.27725],[19.9371,50.27548],[19.93624,50.27545],[19.93456,50.27522],[19.93266,50.27518],[19.93193611789818,50.27502992688133]]}},{"type":"Feature","properties":{"numer":"1172K","klasa":"droga zbiorcza","kat":"powiatowa"},"geometry":{"type":"LineString","coordinates":[[19.92248,50.28352],[19.9227,50.2833],[19.92409,50.28267],[19.92544,50.28146],[19.92582,50.28084],[19.92627,50.2795],[19.9268,50.27874],[19.92892,50.27665],[19.93105047440222,50.27497992472708]]}},{"type":"Feature","properties":{"numer":"1171K","klasa":"droga zbiorcza","kat":"powiatowa"},"geometry":{"type":"LineString","coordinates":[[19.92074,50.28363],[19.92248,50.28352]]}},{"type":"Feature","properties":{"numer":"1171K","klasa":"droga zbiorcza","kat":"powiatowa"},"geometry":{"type":"LineString","coordinates":[[19.92052,50.28364],[19.92074,50.28363]]}},{"type":"Feature","properties":{"numer":"1172K","klasa":"droga zbiorcza","kat":"powiatowa"},"geometry":{"type":"LineString","coordinates":[[19.932929644076204,50.27254373107331],[19.93298,50.27236],[19.93358,50.27161],[19.9352,50.27029],[19.93694,50.26936],[19.93865,50.2682],[19.93961,50.26718],[19.940307061416227,50.26681548164473]]}},{"type":"Feature","properties":{"numer":"1173K","klasa":"","kat":"powiatowa"},"geometry":{"type":"LineString","coordinates":[[19.94202206610399,50.277622567247555],[19.942,50.27762]]}},{"type":"Feature","properties":{"numer":"1207K","klasa":"droga zbiorcza","kat":"powiatowa"},"geometry":{"type":"LineString","coordinates":[[19.95786,50.29896],[19.95873,50.29899],[19.96316,50.29815],[19.96681,50.29788],[19.97037,50.29813],[19.97443,50.29818],[19.98007,50.29758],[19.98293,50.29755],[19.98712,50.29698],[19.98772,50.29703]]}},{"type":"Feature","properties":{"numer":"1207K,140145K","klasa":"droga zbiorcza","kat":"powiatowa"},"geometry":{"type":"LineString","coordinates":[[19.95442,50.29872],[19.95786,50.29896]]}},{"type":"Feature","properties":{"numer":"1171K","klasa":"droga zbiorcza","kat":"powiatowa"},"geometry":{"type":"LineString","coordinates":[[19.91044964605488,50.278685698831566],[19.91129,50.2802],[19.9122,50.2815],[19.91276,50.28186],[19.914,50.28228],[19.91552,50.28314],[19.91591,50.28328],[19.91826,50.28368],[19.92036,50.28364]]}},{"type":"Feature","properties":{"numer":"1150K","klasa":"droga zbiorcza","kat":"powiatowa"},"geometry":{"type":"LineString","coordinates":[[19.913532317058174,50.291495685647526],[19.91392,50.29122],[19.91744,50.28942],[19.92032,50.28745]]}},{"type":"Feature","properties":{"numer":"1151K","klasa":"droga zbiorcza","kat":"powiatowa"},"geometry":{"type":"LineString","coordinates":[[19.83297506608429,50.352526007998186],[19.83222,50.34849],[19.83092,50.34612],[19.830835042430877,50.346040706268816]]}},{"type":"Feature","properties":{"numer":"1152K","klasa":"droga zbiorcza","kat":"powiatowa"},"geometry":{"type":"LineString","coordinates":[[19.849695074476124,50.361163809644026],[19.84985,50.36116]]}},{"type":"Feature","properties":{"numer":"1207K","klasa":"droga zbiorcza","kat":"powiatowa"},"geometry":{"type":"LineString","coordinates":[[20.02243,50.29416],[20.022528286407702,50.29415584287097]]}},{"type":"Feature","properties":{"numer":"1207K","klasa":"droga zbiorcza","kat":"powiatowa"},"geometry":{"type":"LineString","coordinates":[[19.98818,50.29822],[19.98911,50.2982],[19.99373,50.29773],[19.99842,50.29715],[19.99933,50.29719],[20.0021,50.29755],[20.00311,50.29758],[20.00381,50.29751],[20.01139,50.29645],[20.01208,50.29624],[20.01337,50.29558],[20.01404,50.29539],[20.01972,50.29436],[20.02243,50.29416]]}},{"type":"Feature","properties":{"numer":"1174K","klasa":"droga zbiorcza","kat":"powiatowa"},"geometry":{"type":"LineString","coordinates":[[20.022571436156852,50.29562487448169],[20.02243,50.29416]]}},{"type":"Feature","properties":{"numer":"1207K,140124K","klasa":"droga zbiorcza","kat":"powiatowa"},"geometry":{"type":"LineString","coordinates":[[19.98772,50.29703],[19.98791,50.29786],[19.98818,50.29822]]}},{"type":"Feature","properties":{"numer":"1205K","klasa":"droga zbiorcza","kat":"powiatowa"},"geometry":{"type":"LineString","coordinates":[[19.96627,50.31602],[19.966469082568786,50.315957431192665]]}},{"type":"Feature","properties":{"numer":"1205K","klasa":"droga zbiorcza","kat":"powiatowa"},"geometry":{"type":"LineString","coordinates":[[19.967334209115283,50.31563947870122],[19.967380329670327,50.3154754945055]]}},{"type":"Feature","properties":{"numer":"140145K","klasa":"droga lokalna","kat":"powiatowa"},"geometry":{"type":"LineString","coordinates":[[19.95723,50.31555],[19.95772,50.31453],[19.95831,50.31405],[19.95924,50.31356],[19.9594,50.31312]]}},{"type":"Feature","properties":{"numer":"140145K","klasa":"droga lokalna","kat":"powiatowa"},"geometry":{"type":"LineString","coordinates":[[19.95722,50.31569],[19.95723,50.31555]]}},{"type":"Feature","properties":{"numer":"140125K","klasa":"droga lokalna","kat":"powiatowa"},"geometry":{"type":"LineString","coordinates":[[19.96549,50.316],[19.96627,50.31602]]}},{"type":"Feature","properties":{"numer":"140145K","klasa":"droga lokalna","kat":"powiatowa"},"geometry":{"type":"LineString","coordinates":[[19.95811,50.31682],[19.95727,50.31632],[19.95722,50.31569]]}},{"type":"Feature","properties":{"numer":"140125K","klasa":"droga lokalna","kat":"powiatowa"},"geometry":{"type":"LineString","coordinates":[[19.96103,50.31674],[19.96549,50.316]]}},{"type":"Feature","properties":{"numer":"140145K","klasa":"droga lokalna","kat":"powiatowa"},"geometry":{"type":"LineString","coordinates":[[19.95813,50.31683],[19.95811,50.31682]]}},{"type":"Feature","properties":{"numer":"140125K","klasa":"droga lokalna","kat":"powiatowa"},"geometry":{"type":"LineString","coordinates":[[19.95813,50.31683],[19.95863,50.31713],[19.96103,50.31674]]}},{"type":"Feature","properties":{"numer":"1204K","klasa":"droga zbiorcza","kat":"powiatowa"},"geometry":{"type":"LineString","coordinates":[[19.95613,50.33593],[19.96033,50.3352],[19.96155,50.33493],[19.96364,50.3351],[19.96486,50.33509],[19.96881,50.33478],[19.9704,50.33455],[19.980924966546013,50.33363838872436]]}},{"type":"Feature","properties":{"numer":"1204K","klasa":"droga zbiorcza","kat":"powiatowa"},"geometry":{"type":"LineString","coordinates":[[19.95588,50.33597],[19.95613,50.33593]]}},{"type":"Feature","properties":{"numer":"1171K","klasa":"droga zbiorcza","kat":"powiatowa"},"geometry":{"type":"LineString","coordinates":[[19.92036,50.28364],[19.92052,50.28364]]}},{"type":"Feature","properties":{"numer":"1172K","klasa":"droga zbiorcza","kat":"powiatowa"},"geometry":{"type":"LineString","coordinates":[[19.92079,50.28715],[19.9207,50.28686],[19.92077,50.28655],[19.92186,50.28511],[19.92248,50.28352]]}},{"type":"Feature","properties":{"numer":"1150K","klasa":"droga zbiorcza","kat":"powiatowa"},"geometry":{"type":"LineString","coordinates":[[19.92039,50.2874],[19.92079,50.28715]]}},{"type":"Feature","properties":{"numer":"1150K","klasa":"droga zbiorcza","kat":"powiatowa"},"geometry":{"type":"LineString","coordinates":[[19.92032,50.28745],[19.92039,50.2874]]}},{"type":"Feature","properties":{"numer":"1172K","klasa":"droga zbiorcza","kat":"powiatowa"},"geometry":{"type":"LineString","coordinates":[[19.92289,50.28949],[19.92126,50.28817],[19.92079,50.28715]]}},{"type":"Feature","properties":{"numer":"1172K","klasa":"droga zbiorcza","kat":"powiatowa"},"geometry":{"type":"LineString","coordinates":[[19.92297,50.28956],[19.92289,50.28949]]}},{"type":"Feature","properties":{"numer":"1172K","klasa":"droga zbiorcza","kat":"powiatowa"},"geometry":{"type":"LineString","coordinates":[[19.92651,50.29463],[19.92683,50.29409],[19.92685,50.29388],[19.92671,50.29366],[19.92469,50.29091],[19.92297,50.28956]]}},{"type":"Feature","properties":{"numer":"1172K","klasa":"droga zbiorcza","kat":"powiatowa"},"geometry":{"type":"LineString","coordinates":[[19.92644,50.29472],[19.92651,50.29463]]}},{"type":"Feature","properties":{"numer":"1172K","klasa":"droga zbiorcza","kat":"powiatowa"},"geometry":{"type":"LineString","coordinates":[[19.92754,50.30769],[19.92656,50.29811],[19.92646,50.2978],[19.92537,50.29649],[19.92544,50.29615],[19.92644,50.29472]]}},{"type":"Feature","properties":{"numer":"1207K","klasa":"droga zbiorcza","kat":"powiatowa"},"geometry":{"type":"LineString","coordinates":[[19.92754,50.30769],[19.93648,50.30267],[19.93673,50.30231],[19.93702,50.3004],[19.93727,50.29983],[19.93748,50.29971],[19.95442,50.29872]]}},{"type":"Feature","properties":{"numer":"140145K","klasa":"droga lokalna","kat":"powiatowa"},"geometry":{"type":"LineString","coordinates":[[19.95794,50.29924],[19.95786,50.29896]]}},{"type":"Feature","properties":{"numer":"140145K","klasa":"droga lokalna","kat":"powiatowa"},"geometry":{"type":"LineString","coordinates":[[19.95918,50.30136],[19.95862,50.29997],[19.95803,50.29945],[19.95794,50.29924]]}},{"type":"Feature","properties":{"numer":"140145K","klasa":"droga lokalna","kat":"powiatowa"},"geometry":{"type":"LineString","coordinates":[[19.9599,50.30368],[19.95918,50.30136]]}},{"type":"Feature","properties":{"numer":"140145K","klasa":"droga lokalna","kat":"powiatowa"},"geometry":{"type":"LineString","coordinates":[[19.96004,50.30415],[19.9599,50.30368]]}},{"type":"Feature","properties":{"numer":"140145K","klasa":"droga lokalna","kat":"powiatowa"},"geometry":{"type":"LineString","coordinates":[[19.96051,50.30601],[19.96004,50.30415]]}},{"type":"Feature","properties":{"numer":"140145K","klasa":"droga lokalna","kat":"powiatowa"},"geometry":{"type":"LineString","coordinates":[[19.961,50.30734],[19.96051,50.30601]]}},{"type":"Feature","properties":{"numer":"140145K","klasa":"droga lokalna","kat":"powiatowa"},"geometry":{"type":"LineString","coordinates":[[19.96097,50.3111],[19.96158,50.31062],[19.96202,50.30958],[19.96193,50.30911],[19.961,50.30734]]}},{"type":"Feature","properties":{"numer":"140145K","klasa":"droga lokalna","kat":"powiatowa"},"geometry":{"type":"LineString","coordinates":[[19.96072,50.31126],[19.96097,50.3111]]}},{"type":"Feature","properties":{"numer":"140145K","klasa":"droga lokalna","kat":"powiatowa"},"geometry":{"type":"LineString","coordinates":[[19.95939,50.31307],[19.95934,50.31269],[19.95945,50.31238],[19.95996,50.31183],[19.96072,50.31126]]}},{"type":"Feature","properties":{"numer":"140145K","klasa":"droga lokalna","kat":"powiatowa"},"geometry":{"type":"LineString","coordinates":[[19.9594,50.31312],[19.95939,50.31307]]}},{"type":"Feature","properties":{"numer":"1172K","klasa":"droga zbiorcza","kat":"powiatowa"},"geometry":{"type":"LineString","coordinates":[[19.92777,50.31569],[19.92803,50.31386],[19.92804,50.31279],[19.92754,50.30769]]}},{"type":"Feature","properties":{"numer":"1172K","klasa":"droga zbiorcza","kat":"powiatowa"},"geometry":{"type":"LineString","coordinates":[[19.92645,50.33688],[19.92641,50.33555],[19.92564,50.33393],[19.92503,50.33349],[19.92467,50.33284],[19.92464,50.33256],[19.92711,50.3183],[19.92775,50.31651],[19.92777,50.31569]]}},{"type":"Feature","properties":{"numer":"1204K","klasa":"droga zbiorcza","kat":"powiatowa"},"geometry":{"type":"LineString","coordinates":[[19.9289,50.33751],[19.92963,50.33743],[19.9321,50.33766],[19.93654,50.33713],[19.93843,50.33683],[19.94171,50.33673],[19.94586,50.33635],[19.94667,50.33637],[19.9483,50.33659],[19.94965,50.33664],[19.95179,50.33639],[19.95325,50.33611],[19.95467,50.33611],[19.95588,50.33597]]}},{"type":"Feature","properties":{"numer":"1204K","klasa":"droga zbiorcza","kat":"powiatowa"},"geometry":{"type":"LineString","coordinates":[[19.92645,50.33688],[19.92648,50.33707],[19.92666,50.33717]]}},{"type":"Feature","properties":{"numer":"1172K","klasa":"droga zbiorcza","kat":"powiatowa"},"geometry":{"type":"LineString","coordinates":[[19.92629,50.3372],[19.92645,50.33688]]}},{"type":"Feature","properties":{"numer":"1204K","klasa":"droga zbiorcza","kat":"powiatowa"},"geometry":{"type":"LineString","coordinates":[[19.92629,50.3372],[19.92666,50.33717]]}},{"type":"Feature","properties":{"numer":"1172K","klasa":"droga zbiorcza","kat":"powiatowa"},"geometry":{"type":"LineString","coordinates":[[19.92629,50.3372],[19.92627,50.33724]]}},{"type":"Feature","properties":{"numer":"1172K","klasa":"droga zbiorcza","kat":"powiatowa"},"geometry":{"type":"LineString","coordinates":[[19.92627,50.33724],[19.92624,50.33729]]}},{"type":"Feature","properties":{"numer":"1204K","klasa":"droga zbiorcza","kat":"powiatowa"},"geometry":{"type":"LineString","coordinates":[[19.92666,50.33717],[19.92881,50.33751]]}},{"type":"Feature","properties":{"numer":"1204K","klasa":"droga zbiorcza","kat":"powiatowa"},"geometry":{"type":"LineString","coordinates":[[19.92881,50.33751],[19.9289,50.33751]]}},{"type":"Feature","properties":{"numer":"1155K","klasa":"droga zbiorcza","kat":"powiatowa"},"geometry":{"type":"LineString","coordinates":[[19.873242814834313,50.312678468981126],[19.88172,50.32024],[19.88373,50.32034],[19.88546,50.32033],[19.8873,50.32071],[19.88788,50.32112]]}},{"type":"Feature","properties":{"numer":"1155K","klasa":"droga zbiorcza","kat":"powiatowa"},"geometry":{"type":"LineString","coordinates":[[19.88794,50.32116],[19.88869,50.32187],[19.88902,50.32193],[19.89154,50.32145],[19.89509,50.32113],[19.89676,50.32032],[19.89833,50.31999],[19.90337,50.31979],[19.9061,50.31946],[19.90923,50.31951],[19.92265,50.316],[19.92777,50.31569]]}},{"type":"Feature","properties":{"numer":"1155K","klasa":"droga zbiorcza","kat":"powiatowa"},"geometry":{"type":"LineString","coordinates":[[19.88788,50.32112],[19.88794,50.32116]]}},{"type":"Feature","properties":{"numer":"1153K","klasa":"droga zbiorcza","kat":"powiatowa"},"geometry":{"type":"LineString","coordinates":[[19.82958359695426,50.34371387418492],[19.82966,50.3437],[19.83063,50.34342],[19.83468,50.34035],[19.84354,50.33611],[19.84375,50.33636],[19.84497,50.34028],[19.8462,50.34028],[19.84831,50.34005],[19.86043,50.34172],[19.86186,50.34198],[19.86258,50.34192],[19.86388,50.34149],[19.86534,50.34154],[19.86646,50.3412],[19.867,50.34111],[19.86775,50.34118],[19.86899,50.34157],[19.86932,50.34157],[19.87023,50.34088],[19.87224,50.34022],[19.87515,50.33965],[19.87697,50.33947],[19.88189,50.33991],[19.88291,50.33994],[19.88987,50.33988],[19.89453,50.33962],[19.8949,50.33966],[19.89589,50.33995],[19.90271,50.34026],[19.90342,50.34015],[19.90459,50.33956],[19.90507,50.33945],[19.90871,50.33995],[19.91263,50.34004],[19.91704,50.33938],[19.91781,50.33935]]}},{"type":"Feature","properties":{"numer":"783","klasa":"droga gĹ‚Ăłwna","kat":"wojewodzka"},"geometry":{"type":"LineString","coordinates":[[19.90118,50.36456],[19.9042,50.36415],[19.91832,50.36308]]}},{"type":"Feature","properties":{"numer":"783","klasa":"droga gĹ‚Ăłwna","kat":"wojewodzka"},"geometry":{"type":"LineString","coordinates":[[19.86258,50.36426],[19.87567,50.36411],[19.89996,50.3646],[19.90101,50.36457]]}},{"type":"Feature","properties":{"numer":"783","klasa":"droga gĹ‚Ăłwna","kat":"wojewodzka"},"geometry":{"type":"LineString","coordinates":[[19.90101,50.36457],[19.90118,50.36456]]}},{"type":"Feature","properties":{"numer":"1172K","klasa":"droga zbiorcza","kat":"powiatowa"},"geometry":{"type":"LineString","coordinates":[[19.92624,50.33729],[19.92559,50.3383]]}},{"type":"Feature","properties":{"numer":"1172K","klasa":"droga zbiorcza","kat":"powiatowa"},"geometry":{"type":"LineString","coordinates":[[19.92559,50.3383],[19.92554,50.33835]]}},{"type":"Feature","properties":{"numer":"1172K","klasa":"droga zbiorcza","kat":"powiatowa"},"geometry":{"type":"LineString","coordinates":[[19.92554,50.33835],[19.92505,50.33899]]}},{"type":"Feature","properties":{"numer":"1153K","klasa":"droga zbiorcza","kat":"powiatowa"},"geometry":{"type":"LineString","coordinates":[[19.91847,50.33957],[19.91937,50.33949],[19.92219,50.33897],[19.92505,50.33899]]}},{"type":"Feature","properties":{"numer":"1153K,140146K","klasa":"droga zbiorcza","kat":"powiatowa"},"geometry":{"type":"LineString","coordinates":[[19.91781,50.33935],[19.91847,50.33957]]}},{"type":"Feature","properties":{"numer":"1172K","klasa":"droga zbiorcza","kat":"powiatowa"},"geometry":{"type":"LineString","coordinates":[[19.92505,50.33899],[19.92362,50.34083],[19.92258,50.34148],[19.92233,50.34173],[19.91789,50.34851],[19.91657,50.35123],[19.91654,50.35257]]}},{"type":"Feature","properties":{"numer":"1172K,140113K","klasa":"droga zbiorcza","kat":"powiatowa"},"geometry":{"type":"LineString","coordinates":[[19.91654,50.35257],[19.91655,50.35319]]}},{"type":"Feature","properties":{"numer":"1172K","klasa":"droga zbiorcza","kat":"powiatowa"},"geometry":{"type":"LineString","coordinates":[[19.91655,50.35319],[19.91662,50.35492],[19.91718,50.35615],[19.9168,50.35901],[19.91832,50.36308]]}},{"type":"Feature","properties":{"numer":"783","klasa":"droga gĹ‚Ăłwna","kat":"wojewodzka"},"geometry":{"type":"LineString","coordinates":[[19.91832,50.36308],[19.92147481743769,50.36284315184402]]}},{"type":"Feature","properties":{"numer":"783","klasa":"droga gĹ‚Ăłwna","kat":"wojewodzka"},"geometry":{"type":"LineString","coordinates":[[19.85340637325384,50.36517056110819],[19.85341,50.36517],[19.86258,50.36426]]}},{"type":"Feature","properties":{"numer":"1174K","klasa":"droga zbiorcza","kat":"powiatowa"},"geometry":{"type":"LineString","coordinates":[[19.86258,50.36426],[19.86371,50.36797],[19.86528,50.37115],[19.86567,50.37223],[19.8656,50.37324],[19.86577,50.37364],[19.86658,50.37442],[19.86739,50.37556],[19.86782,50.3757],[19.86937,50.37563],[19.86956,50.37573],[19.86978,50.37612]]}},{"type":"Feature","properties":{"numer":"1174K","klasa":"droga zbiorcza","kat":"powiatowa"},"geometry":{"type":"LineString","coordinates":[[19.86978,50.37612],[19.86982,50.37619]]}},{"type":"Feature","properties":{"numer":"1174K","klasa":"droga zbiorcza","kat":"powiatowa"},"geometry":{"type":"LineString","coordinates":[[19.86982,50.37619],[19.87009,50.37679],[19.87027,50.3769],[19.87151,50.37687],[19.87961,50.377],[19.88261,50.37717],[19.88292,50.37724],[19.88301,50.37729],[19.88236,50.37863],[19.88218,50.37981],[19.88318,50.3825],[19.88345,50.38274],[19.88379,50.3828],[19.88842,50.38214],[19.88942,50.38193],[19.89227,50.38017],[19.89265,50.38003],[19.895826801490156,50.380064343799894]]}},{"type":"Feature","properties":{"numer":"1176K","klasa":"droga zbiorcza","kat":"powiatowa"},"geometry":{"type":"LineString","coordinates":[[19.87749732412602,50.39419864372033],[19.877981124714676,50.39406846856194]]}},{"type":"Feature","properties":{"numer":"1176K","klasa":"droga zbiorcza","kat":"powiatowa"},"geometry":{"type":"LineString","coordinates":[[19.88073811071204,50.393326652414345],[19.8808,50.39331],[19.88513,50.39303],[19.8866,50.39282],[19.89003,50.39251],[19.890812321187585,50.39251460188934]]}},{"type":"Feature","properties":{"numer":"120699K","klasa":"droga zbiorcza","kat":"powiatowa"},"geometry":{"type":"LineString","coordinates":[[19.850016270281127,50.39075852406746],[19.85015,50.39073]]}}]}