{"type":"FeatureCollection","features":[{"type":"Feature","properties":{"numer":"783","klasa":"droga gĹ‚Ăłwna","kat":"wojewodzka"},"geometry":{"type":"LineString","coordinates":[[19.92147481743769,50.36284315184402],[19.92165,50.36283]]}},{"type":"Feature","properties":{"numer":"1175K","klasa":"droga zbiorcza","kat":"powiatowa"},"geometry":{"type":"LineString","coordinates":[[19.93052,50.37436],[19.92405,50.36905],[19.92378,50.36858],[19.92165,50.36283]]}},{"type":"Feature","properties":{"numer":"1174K","klasa":"droga zbiorcza","kat":"powiatowa"},"geometry":{"type":"LineString","coordinates":[[19.895826801490156,50.380064343799894],[19.89635,50.38007],[19.89888,50.38001],[19.90661,50.37882],[19.91035,50.37801],[19.91836,50.37735],[19.92133,50.3773],[19.92296,50.37742],[19.92517,50.37701],[19.92634,50.37657],[19.92802,50.37616],[19.93006,50.37537],[19.93113,50.37486]]}},{"type":"Feature","properties":{"numer":"1176K","klasa":"droga zbiorcza","kat":"powiatowa"},"geometry":{"type":"LineString","coordinates":[[19.85737,50.39878],[19.85747,50.3987],[19.86507,50.39674],[19.87022,50.3955],[19.87608,50.39458],[19.87749732412602,50.39419864372033]]}},{"type":"Feature","properties":{"numer":"1176K","klasa":"droga zbiorcza","kat":"powiatowa"},"geometry":{"type":"LineString","coordinates":[[19.877981124714676,50.39406846856194],[19.88073811071204,50.393326652414345]]}},{"type":"Feature","properties":{"numer":"1176K","klasa":"droga zbiorcza","kat":"powiatowa"},"geometry":{"type":"LineString","coordinates":[[19.890812321187585,50.39251460188934],[19.89173,50.39252]]}},{"type":"Feature","properties":{"numer":"140042K","klasa":"droga lokalna","kat":"powiatowa"},"geometry":{"type":"LineString","coordinates":[[19.85872,50.39887],[19.85851,50.39872],[19.85831,50.3987],[19.8575,50.39893]]}},{"type":"Feature","properties":{"numer":"140042K","klasa":"droga lokalna","kat":"powiatowa"},"geometry":{"type":"LineString","coordinates":[[19.85888,50.39918],[19.85872,50.39887]]}},{"type":"Feature","properties":{"numer":"140042K","klasa":"droga lokalna","kat":"powiatowa"},"geometry":{"type":"LineString","coordinates":[[19.8589,50.3994],[19.85888,50.39918]]}},{"type":"Feature","properties":{"numer":"140042K","klasa":"droga lokalna","kat":"powiatowa"},"geometry":{"type":"LineString","coordinates":[[19.8589,50.40092],[19.85821,50.40027],[19.85783,50.39977],[19.8579,50.39966],[19.8589,50.3994]]}},{"type":"Feature","properties":{"numer":"140042K","klasa":"droga lokalna","kat":"powiatowa"},"geometry":{"type":"LineString","coordinates":[[19.86207,50.40146],[19.86156,50.40128],[19.86086,50.40123],[19.8589,50.40092]]}},{"type":"Feature","properties":{"numer":"140042K","klasa":"droga lokalna","kat":"powiatowa"},"geometry":{"type":"LineString","coordinates":[[19.86214,50.40176],[19.86207,50.40146]]}},{"type":"Feature","properties":{"numer":"783","klasa":"droga gĹ‚Ăłwna","kat":"wojewodzka"},"geometry":{"type":"LineString","coordinates":[[19.92165,50.36283],[19.944874359234547,50.3610372956016]]}},{"type":"Feature","properties":{"numer":"1174K","klasa":"droga zbiorcza","kat":"powiatowa"},"geometry":{"type":"LineString","coordinates":[[19.93113,50.37486],[19.93263,50.37412],[19.93362,50.37382],[19.93493,50.37329],[19.93705,50.37204],[19.93872,50.37126],[19.94077,50.37046],[19.94253,50.36995],[19.950793756639303,50.36794365523902]]}},{"type":"Feature","properties":{"numer":"1174K","klasa":"droga zbiorcza","kat":"powiatowa"},"geometry":{"type":"LineString","coordinates":[[19.952084545454603,50.36757727272726],[19.95232,50.36751],[19.952422310606032,50.36749178030304]]}},{"type":"Feature","properties":{"numer":"1186K","klasa":"droga zbiorcza","kat":"powiatowa"},"geometry":{"type":"LineString","coordinates":[[19.98114691110285,50.37914155786779],[19.98108,50.37925],[19.98055,50.37971],[19.97833,50.38101],[19.95721,50.39019]]}},{"type":"Feature","properties":{"numer":"1186K","klasa":"droga zbiorcza","kat":"powiatowa"},"geometry":{"type":"LineString","coordinates":[[19.94841,50.39567],[19.95045,50.3944],[19.9519,50.39252],[19.95721,50.39019]]}},{"type":"Feature","properties":{"numer":"1188K","klasa":"droga zbiorcza","kat":"powiatowa"},"geometry":{"type":"LineString","coordinates":[[19.95721,50.39019],[19.95965,50.39225],[19.95987,50.39256],[19.9592,50.39287],[19.96334,50.39659],[19.96526,50.39857],[19.96547,50.39853],[19.96812,50.3969],[19.96837,50.39682]]}},{"type":"Feature","properties":{"numer":"1189K","klasa":"droga zbiorcza","kat":"powiatowa"},"geometry":{"type":"LineString","coordinates":[[19.96837,50.39682],[19.96857,50.39661],[19.97109,50.39498],[19.97229,50.39393]]}},{"type":"Feature","properties":{"numer":"1189K","klasa":"droga zbiorcza","kat":"powiatowa"},"geometry":{"type":"LineString","coordinates":[[19.97229,50.39393],[19.97267,50.39412],[19.97627,50.39716],[19.97792,50.39843],[19.97809,50.39843],[19.97898,50.39804],[19.97955,50.39802],[19.98238,50.39767]]}},{"type":"Feature","properties":{"numer":"1188K","klasa":"droga zbiorcza","kat":"powiatowa"},"geometry":{"type":"LineString","coordinates":[[19.97223146079607,50.409048223402436],[19.97226,50.40874],[19.96853,50.397],[19.96837,50.39682]]}},{"type":"Feature","properties":{"numer":"1185K","klasa":"droga zbiorcza","kat":"powiatowa"},"geometry":{"type":"LineString","coordinates":[[19.94457,50.39786],[19.9454,50.39816],[19.94697,50.3994],[19.95014,50.40129],[19.95057,50.40164],[19.95328,50.40503],[19.9533,50.40524],[19.95281,50.40568],[19.95305,50.40585],[19.9537,50.40581],[19.95395,50.40591],[19.96256,50.41692]]}},{"type":"Feature","properties":{"numer":"1187K","klasa":"droga zbiorcza","kat":"powiatowa"},"geometry":{"type":"LineString","coordinates":[[19.98163,50.37934],[19.98157993292092,50.37909967802042]]}},{"type":"Feature","properties":{"numer":"1187K","klasa":"droga zbiorcza","kat":"powiatowa"},"geometry":{"type":"LineString","coordinates":[[19.98187847061638,50.38430138824655],[19.98185,50.38429],[19.98175,50.38404]]}},{"type":"Feature","properties":{"numer":"1187K","klasa":"droga zbiorcza","kat":"powiatowa"},"geometry":{"type":"LineString","coordinates":[[19.98175,50.38404],[19.98163,50.37934]]}},{"type":"Feature","properties":{"numer":"1189K","klasa":"droga zbiorcza","kat":"powiatowa"},"geometry":{"type":"LineString","coordinates":[[19.982387542992953,50.39766847425824],[19.98238,50.39767]]}},{"type":"Feature","properties":{"numer":"140042K","klasa":"droga lokalna","kat":"powiatowa"},"geometry":{"type":"LineString","coordinates":[[19.851411904829696,50.40407406982952],[19.85357,50.4037],[19.85515,50.40326],[19.8564,50.40304],[19.85807,50.40245],[19.85955,50.4022]]}},{"type":"Feature","properties":{"numer":"140042K","klasa":"droga lokalna","kat":"powiatowa"},"geometry":{"type":"LineString","coordinates":[[19.8525,50.40699],[19.85264,50.40621],[19.852595228426395,50.40615403553299]]}},{"type":"Feature","properties":{"numer":"1138K","klasa":"droga zbiorcza","kat":"powiatowa"},"geometry":{"type":"LineString","coordinates":[[19.8525,50.40699],[19.852473373493975,50.40699]]}},{"type":"Feature","properties":{"numer":"140041K","klasa":"droga lokalna","kat":"powiatowa"},"geometry":{"type":"LineString","coordinates":[[19.8575,50.39893],[19.85737,50.39878]]}},{"type":"Feature","properties":{"numer":"1175K","klasa":"droga zbiorcza","kat":"powiatowa"},"geometry":{"type":"LineString","coordinates":[[19.93066,50.37448],[19.93052,50.37436]]}},{"type":"Feature","properties":{"numer":"1175K","klasa":"droga zbiorcza","kat":"powiatowa"},"geometry":{"type":"LineString","coordinates":[[19.93113,50.37486],[19.93066,50.37448]]}},{"type":"Feature","properties":{"numer":"1175K","klasa":"droga zbiorcza","kat":"powiatowa"},"geometry":{"type":"LineString","coordinates":[[19.93113,50.37486],[19.93164,50.37536],[19.93565,50.3812],[19.93843,50.38393],[19.93854,50.38429],[19.93855,50.38864],[19.94269,50.39485],[19.94306,50.39563]]}},{"type":"Feature","properties":{"numer":"1176K","klasa":"droga zbiorcza","kat":"powiatowa"},"geometry":{"type":"LineString","coordinates":[[19.89173,50.39252],[19.89447,50.3925],[19.90116,50.39142],[19.91023,50.39097],[19.91144,50.39076],[19.91247,50.3905],[19.91556,50.38948],[19.91714,50.38914],[19.91791,50.38932],[19.91853,50.38967],[19.91906,50.38982],[19.92027,50.38992],[19.92153,50.39016],[19.92349,50.39009],[19.9238,50.39016],[19.92627,50.39196],[19.93106,50.39581],[19.93159,50.39611],[19.93491,50.39613],[19.94306,50.39563]]}},{"type":"Feature","properties":{"numer":"1175K","klasa":"droga zbiorcza","kat":"powiatowa"},"geometry":{"type":"LineString","coordinates":[[19.94306,50.39563],[19.945,50.39539],[19.9463,50.39534],[19.9481,50.39555],[19.94841,50.39567]]}},{"type":"Feature","properties":{"numer":"1186K","klasa":"droga zbiorcza","kat":"powiatowa"},"geometry":{"type":"LineString","coordinates":[[19.94841,50.39567],[19.94801,50.39599],[19.94694,50.39645],[19.94457,50.39786]]}},{"type":"Feature","properties":{"numer":"1186K","klasa":"droga zbiorcza","kat":"powiatowa"},"geometry":{"type":"LineString","coordinates":[[19.94457,50.39786],[19.94402,50.39828],[19.94293,50.39952],[19.94254,50.39978],[19.93788,50.40147],[19.93313,50.40384]]}},{"type":"Feature","properties":{"numer":"1186K","klasa":"droga zbiorcza","kat":"powiatowa"},"geometry":{"type":"LineString","coordinates":[[19.93313,50.40384],[19.93243,50.40444],[19.92943,50.40846],[19.92307,50.41203]]}},{"type":"Feature","properties":{"numer":"1186K","klasa":"droga zbiorcza","kat":"powiatowa"},"geometry":{"type":"LineString","coordinates":[[19.92307,50.41203],[19.92298,50.41208]]}},{"type":"Feature","properties":{"numer":"1180K","klasa":"droga zbiorcza","kat":"powiatowa"},"geometry":{"type":"LineString","coordinates":[[19.94038,50.4207],[19.93956,50.41885],[19.9395,50.41809],[19.94164,50.4122],[19.9416,50.41147],[19.94028,50.40933],[19.93973,50.40871],[19.93313,50.40384]]}},{"type":"Feature","properties":{"numer":"1177K","klasa":"droga zbiorcza","kat":"powiatowa"},"geometry":{"type":"LineString","coordinates":[[19.89173,50.39252],[19.89198,50.39318],[19.89383,50.39664],[19.89658,50.39761],[19.89845,50.39789],[19.9008,50.3988],[19.90359,50.39884],[19.90586,50.39866],[19.91013,50.39814],[19.91148,50.39822],[19.91338,50.39877],[19.9159,50.39867],[19.91639,50.39875],[19.9162,50.40747],[19.91594,50.40875],[19.9156,50.40905],[19.91384,50.4099],[19.91224,50.41101],[19.9116,50.41112],[19.9106,50.41109],[19.91032,50.41124]]}},{"type":"Feature","properties":{"numer":"140042K","klasa":"droga lokalna","kat":"powiatowa"},"geometry":{"type":"LineString","coordinates":[[19.85955,50.4022],[19.86214,50.40176]]}},{"type":"Feature","properties":{"numer":"1138K","klasa":"droga zbiorcza","kat":"powiatowa"},"geometry":{"type":"LineString","coordinates":[[19.9092,50.41089],[19.90733,50.40977],[19.90437,50.40843],[19.89932,50.4065],[19.89503,50.40519],[19.89261,50.40433],[19.89066,50.40386],[19.88808,50.40266],[19.88745,50.40248],[19.86699,50.40428],[19.86316,50.40505],[19.8593,50.40601],[19.8525,50.40699]]}},{"type":"Feature","properties":{"numer":"1138K,1177K","klasa":"droga zbiorcza","kat":"powiatowa"},"geometry":{"type":"LineString","coordinates":[[19.90988,50.41108],[19.9092,50.41089]]}},{"type":"Feature","properties":{"numer":"1138K","klasa":"droga zbiorcza","kat":"powiatowa"},"geometry":{"type":"LineString","coordinates":[[19.90988,50.41108],[19.91043,50.41129],[19.91089,50.41156],[19.91114,50.41176],[19.91132,50.41207],[19.91078,50.41455],[19.9108,50.41496],[19.91105,50.41549],[19.91187,50.41603],[19.91453,50.41732]]}},{"type":"Feature","properties":{"numer":"1177K","klasa":"droga zbiorcza","kat":"powiatowa"},"geometry":{"type":"LineString","coordinates":[[19.9092,50.41089],[19.90609,50.41032],[19.90442,50.41142],[19.90346,50.41263],[19.90234,50.41371],[19.90022,50.41466],[19.89976,50.41494],[19.89714,50.41721],[19.89597,50.41792],[19.89552,50.4183],[19.89508,50.41918],[19.8939,50.4207],[19.89351,50.4215],[19.89357,50.42193],[19.89399,50.4223],[19.89501,50.42251],[19.8951,50.42278],[19.89486,50.42289],[19.89412,50.42293],[19.89379,50.42302],[19.89274,50.42356],[19.89242,50.42398]]}},{"type":"Feature","properties":{"numer":"1186K","klasa":"droga zbiorcza","kat":"powiatowa"},"geometry":{"type":"LineString","coordinates":[[19.91453,50.41732],[19.91445,50.41738]]}},{"type":"Feature","properties":{"numer":"1186K","klasa":"droga zbiorcza","kat":"powiatowa"},"geometry":{"type":"LineString","coordinates":[[19.91445,50.41738],[19.91439,50.41742]]}},{"type":"Feature","properties":{"numer":"1186K","klasa":"droga zbiorcza","kat":"powiatowa"},"geometry":{"type":"LineString","coordinates":[[19.91439,50.41742],[19.91176,50.41921],[19.90946,50.42154],[19.90441,50.42464],[19.90369,50.42475],[19.89939,50.42433],[19.89812,50.42429],[19.89678,50.42436]]}},{"type":"Feature","properties":{"numer":"1137K","klasa":"droga zbiorcza","kat":"powiatowa"},"geometry":{"type":"LineString","coordinates":[[19.843485099160265,50.42219371091656],[19.85548,50.42095],[19.85896,50.42121],[19.86687,50.42109],[19.86917,50.42131],[19.87221,50.42176],[19.87698,50.42231],[19.88612,50.42329],[19.88999,50.42385],[19.89049,50.42387]]}},{"type":"Feature","properties":{"numer":"1137K","klasa":"droga zbiorcza","kat":"powiatowa"},"geometry":{"type":"LineString","coordinates":[[19.89067,50.42386],[19.89049,50.42387]]}},{"type":"Feature","properties":{"numer":"1137K","klasa":"droga zbiorcza","kat":"powiatowa"},"geometry":{"type":"LineString","coordinates":[[19.89242,50.42398],[19.89162,50.42386],[19.89067,50.42386]]}},{"type":"Feature","properties":{"numer":"1137K","klasa":"droga zbiorcza","kat":"powiatowa"},"geometry":{"type":"LineString","coordinates":[[19.89678,50.42436],[19.8948,50.42442],[19.89242,50.42398]]}},{"type":"Feature","properties":{"numer":"1186K","klasa":"droga zbiorcza","kat":"powiatowa"},"geometry":{"type":"LineString","coordinates":[[19.89678,50.42436],[19.89634,50.42526]]}},{"type":"Feature","properties":{"numer":"1186K","klasa":"droga zbiorcza","kat":"powiatowa"},"geometry":{"type":"LineString","coordinates":[[19.89634,50.42526],[19.8963,50.42534]]}},{"type":"Feature","properties":{"numer":"1186K","klasa":"droga zbiorcza","kat":"powiatowa"},"geometry":{"type":"LineString","coordinates":[[19.8963,50.42534],[19.89604,50.4258],[19.89568,50.42613],[19.88853,50.43105]]}},{"type":"Feature","properties":{"numer":"1179K","klasa":"droga zbiorcza","kat":"powiatowa"},"geometry":{"type":"LineString","coordinates":[[19.88853,50.43105],[19.89132,50.43147],[19.89601,50.43188],[19.89904,50.4324],[19.9021,50.43317],[19.90632,50.43438],[19.90939,50.43533],[19.91061,50.43588]]}},{"type":"Feature","properties":{"numer":"1186K","klasa":"droga zbiorcza","kat":"powiatowa"},"geometry":{"type":"LineString","coordinates":[[19.88853,50.43105],[19.88535,50.43388],[19.88428,50.43561],[19.88028,50.43864],[19.88003,50.43904],[19.87981,50.4399],[19.87991,50.44039]]}},{"type":"Feature","properties":{"numer":"1179K","klasa":"droga zbiorcza","kat":"powiatowa"},"geometry":{"type":"LineString","coordinates":[[19.91078,50.43598],[19.91061,50.43588]]}},{"type":"Feature","properties":{"numer":"1186K","klasa":"droga zbiorcza","kat":"powiatowa"},"geometry":{"type":"LineString","coordinates":[[19.87991,50.44039],[19.87996,50.44047]]}},{"type":"Feature","properties":{"numer":"1186K","klasa":"droga zbiorcza","kat":"powiatowa"},"geometry":{"type":"LineString","coordinates":[[19.92298,50.41208],[19.91927,50.41415],[19.91453,50.41732]]}},{"type":"Feature","properties":{"numer":"1180K","klasa":"droga zbiorcza","kat":"powiatowa"},"geometry":{"type":"LineString","coordinates":[[19.9404,50.42074],[19.94038,50.4207]]}},{"type":"Feature","properties":{"numer":"1180K","klasa":"droga zbiorcza","kat":"powiatowa"},"geometry":{"type":"LineString","coordinates":[[19.94266,50.42582],[19.9404,50.42074]]}},{"type":"Feature","properties":{"numer":"1180K","klasa":"droga zbiorcza","kat":"powiatowa"},"geometry":{"type":"LineString","coordinates":[[19.94286,50.42654],[19.94266,50.42582]]}},{"type":"Feature","properties":{"numer":"1180K","klasa":"droga zbiorcza","kat":"powiatowa"},"geometry":{"type":"LineString","coordinates":[[19.94287,50.42659],[19.94286,50.42654]]}},{"type":"Feature","properties":{"numer":"1180K","klasa":"droga zbiorcza","kat":"powiatowa"},"geometry":{"type":"LineString","coordinates":[[19.94022,50.43468],[19.94285,50.43253],[19.94332,50.43192],[19.94338,50.43102],[19.94287,50.42659]]}},{"type":"Feature","properties":{"numer":"1180K","klasa":"droga zbiorcza","kat":"powiatowa"},"geometry":{"type":"LineString","coordinates":[[19.92995,50.44214],[19.93012,50.44175],[19.93057,50.44123],[19.93409,50.43771],[19.93457,50.43745],[19.93836,50.4361],[19.94022,50.43468]]}},{"type":"Feature","properties":{"numer":"1179K","klasa":"droga zbiorcza","kat":"powiatowa"},"geometry":{"type":"LineString","coordinates":[[19.91078,50.43598],[19.91227,50.43677],[19.91234,50.43691],[19.91048,50.43823],[19.91012,50.43876],[19.91018,50.43907],[19.91427,50.44109],[19.91658,50.44233],[19.91837,50.44379],[19.91848,50.44461],[19.91905,50.44544],[19.92044,50.44492],[19.92372,50.44429],[19.92478,50.44371],[19.9291,50.44247],[19.92995,50.44214]]}},{"type":"Feature","properties":{"numer":"1180K","klasa":"droga zbiorcza","kat":"powiatowa"},"geometry":{"type":"LineString","coordinates":[[19.937616646297368,50.45139416003761],[19.93745,50.45112],[19.93026,50.44328],[19.92996,50.44276],[19.92995,50.44214]]}},{"type":"Feature","properties":{"numer":"1186K","klasa":"droga zbiorcza","kat":"powiatowa"},"geometry":{"type":"LineString","coordinates":[[19.87996,50.44047],[19.88023,50.44085]]}},{"type":"Feature","properties":{"numer":"1186K","klasa":"droga zbiorcza","kat":"powiatowa"},"geometry":{"type":"LineString","coordinates":[[19.88023,50.44085],[19.88026,50.44088]]}},{"type":"Feature","properties":{"numer":"1186K","klasa":"droga zbiorcza","kat":"powiatowa"},"geometry":{"type":"LineString","coordinates":[[19.88026,50.44088],[19.88033,50.44111],[19.88019,50.44134],[19.87857,50.44273],[19.87817,50.44318],[19.87726,50.44506]]}},{"type":"Feature","properties":{"numer":"1178K","klasa":"droga zbiorcza","kat":"powiatowa"},"geometry":{"type":"LineString","coordinates":[[19.87726,50.44506],[19.87645,50.44498],[19.8751,50.44495],[19.850799177543507,50.444800179886215]]}},{"type":"Feature","properties":{"numer":"1186K","klasa":"droga zbiorcza","kat":"powiatowa"},"geometry":{"type":"LineString","coordinates":[[19.87726,50.44506],[19.87691,50.44681],[19.8773,50.4485],[19.877042946103423,50.449229701383835]]}},{"type":"Feature","properties":{"numer":"1182K","klasa":"droga zbiorcza","kat":"powiatowa"},"geometry":{"type":"LineString","coordinates":[[19.99156,50.43253],[19.991565929526125,50.43246922235723]]}},{"type":"Feature","properties":{"numer":"1185K","klasa":"droga zbiorcza","kat":"powiatowa"},"geometry":{"type":"LineString","coordinates":[[19.96885,50.42111],[19.96945,50.42148],[19.97098,50.42216],[19.97289,50.42363],[19.97657,50.42603],[19.97991,50.42784],[19.98075,50.42821],[19.98539,50.42948],[19.98691,50.4305],[19.98877,50.43137],[19.98902,50.43159],[19.98968,50.43271]]}},{"type":"Feature","properties":{"numer":"1181K","klasa":"droga zbiorcza","kat":"powiatowa"},"geometry":{"type":"LineString","coordinates":[[19.98968,50.43271],[19.99156,50.43253]]}},{"type":"Feature","properties":{"numer":"1182K","klasa":"droga zbiorcza","kat":"powiatowa"},"geometry":{"type":"LineString","coordinates":[[19.99710278968877,50.437674824897826],[19.99625,50.43751],[19.99536,50.4372],[19.99485,50.43676],[19.99449,50.43605],[19.9942,50.43573],[19.99259,50.43438],[19.99173,50.433],[19.99156,50.43253]]}},{"type":"Feature","properties":{"numer":"1184K","klasa":"droga zbiorcza","kat":"powiatowa"},"geometry":{"type":"LineString","coordinates":[[19.96256,50.41692],[19.97384,50.41475],[19.97392451194539,50.414646707622296]]}},{"type":"Feature","properties":{"numer":"1184K,1185K","klasa":"droga zbiorcza","kat":"powiatowa"},"geometry":{"type":"LineString","coordinates":[[19.96256,50.41692],[19.96284,50.41729],[19.96332,50.41837],[19.9637,50.41853],[19.96457,50.4186]]}},{"type":"Feature","properties":{"numer":"1185K","klasa":"droga zbiorcza","kat":"powiatowa"},"geometry":{"type":"LineString","coordinates":[[19.96457,50.4186],[19.96483,50.4186],[19.96515,50.41873],[19.96885,50.42111]]}},{"type":"Feature","properties":{"numer":"1184K","klasa":"droga zbiorcza","kat":"powiatowa"},"geometry":{"type":"LineString","coordinates":[[19.96457,50.4186],[19.96435,50.41872],[19.9632,50.41897],[19.95748,50.42],[19.95387,50.42158],[19.94701,50.42436],[19.9442,50.42538],[19.94266,50.42582]]}},{"type":"Feature","properties":{"numer":"1181K","klasa":"droga zbiorcza","kat":"powiatowa"},"geometry":{"type":"LineString","coordinates":[[19.94022,50.43468],[19.9417,50.4353],[19.94349,50.43589],[19.94404,50.43601],[19.94514,50.43606],[19.94535,50.43591],[19.94556,50.43385],[19.94582,50.43372],[19.95185,50.43503],[19.95641,50.43547],[19.95696,50.43576],[19.95864,50.43727],[19.96104,50.43805],[19.96183,50.43813],[19.97976,50.43458],[19.98031,50.43453],[19.9824,50.43459],[19.98278,50.43449],[19.98421,50.43381],[19.9873,50.43301],[19.98829,50.4328],[19.98968,50.43271]]}}]}