{"type":"FeatureCollection","features":[{"type":"Feature","properties":{"numer":"7,E77","klasa":"droga gĹ‚Ăłwna ruchu przyĹ›pieszonego","kat":"gminna"},"geometry":{"type":"LineString","coordinates":[[19.79275,49.57167],[19.78991,49.57112],[19.78023,49.56834],[19.77898,49.56788],[19.77362,49.56533],[19.77274,49.56476],[19.77198,49.56394],[19.77036,49.56082],[19.77003,49.56053],[19.76952,49.56034],[19.76647,49.55969],[19.76418,49.55949],[19.76351,49.55936],[19.76287,49.55915],[19.76223,49.55883],[19.759360281238337,49.55699481934991]]}},{"type":"Feature","properties":{"numer":"7,E77","klasa":"droga gĹ‚Ăłwna ruchu przyĹ›pieszonego","kat":"gminna"},"geometry":{"type":"LineString","coordinates":[[19.79283,49.57168],[19.79275,49.57167]]}},{"type":"Feature","properties":{"numer":"7,E77","klasa":"droga gĹ‚Ăłwna ruchu przyĹ›pieszonego","kat":"gminna"},"geometry":{"type":"LineString","coordinates":[[19.80828,49.57439],[19.79283,49.57168]]}},{"type":"Feature","properties":{"numer":"1678K","klasa":"droga zbiorcza","kat":"powiatowa"},"geometry":{"type":"LineString","coordinates":[[19.844477978054293,49.548871581942436],[19.84444,49.54943],[19.84455,49.55009],[19.844888375088466,49.55103892144375]]}},{"type":"Feature","properties":{"numer":"1678K","klasa":"droga zbiorcza","kat":"powiatowa"},"geometry":{"type":"LineString","coordinates":[[19.84483971865231,49.55552461965959],[19.84453,49.55717],[19.84456,49.55751],[19.84475,49.55773],[19.84638,49.55843],[19.84650046623243,49.558442907096335]]}},{"type":"Feature","properties":{"numer":"7,E77","klasa":"droga gĹ‚Ăłwna ruchu przyĹ›pieszonego","kat":"gminna"},"geometry":{"type":"LineString","coordinates":[[19.80835,49.5744],[19.80828,49.57439]]}},{"type":"Feature","properties":{"numer":"7,E77","klasa":"droga gĹ‚Ăłwna ruchu przyĹ›pieszonego","kat":"gminna"},"geometry":{"type":"LineString","coordinates":[[19.82739,49.57707],[19.82409,49.57715],[19.82349,49.5771],[19.82292,49.57698],[19.82156,49.57641],[19.82057,49.57613],[19.81426,49.57542],[19.80835,49.5744]]}},{"type":"Feature","properties":{"numer":"7,E77","klasa":"droga gĹ‚Ăłwna ruchu przyĹ›pieszonego","kat":"gminna"},"geometry":{"type":"LineString","coordinates":[[19.8628,49.57708],[19.85724,49.57631],[19.84352,49.57575],[19.83358,49.57693]]}},{"type":"Feature","properties":{"numer":"7,E77","klasa":"droga gĹ‚Ăłwna ruchu przyĹ›pieszonego","kat":"gminna"},"geometry":{"type":"LineString","coordinates":[[19.82749,49.57707],[19.82739,49.57707]]}},{"type":"Feature","properties":{"numer":"7,E77","klasa":"droga gĹ‚Ăłwna ruchu przyĹ›pieszonego","kat":"gminna"},"geometry":{"type":"LineString","coordinates":[[19.83358,49.57693],[19.83067,49.57724],[19.82749,49.57707]]}},{"type":"Feature","properties":{"numer":"1669K","klasa":"droga zbiorcza","kat":"powiatowa"},"geometry":{"type":"LineString","coordinates":[[19.83402,49.5797],[19.83358,49.57693]]}},{"type":"Feature","properties":{"numer":"1669K","klasa":"droga zbiorcza","kat":"powiatowa"},"geometry":{"type":"LineString","coordinates":[[19.83404,49.57987],[19.83402,49.5797]]}},{"type":"Feature","properties":{"numer":"1669K","klasa":"droga zbiorcza","kat":"powiatowa"},"geometry":{"type":"LineString","coordinates":[[19.8381,49.59347],[19.83909,49.59149],[19.83959,49.58848],[19.83952,49.588],[19.83937,49.58773],[19.83818,49.58647],[19.83728,49.585],[19.834,49.5829],[19.83387,49.58254],[19.83415,49.58071],[19.83404,49.57987]]}},{"type":"Feature","properties":{"numer":"1669K","klasa":"droga zbiorcza","kat":"powiatowa"},"geometry":{"type":"LineString","coordinates":[[19.83809,49.59351],[19.8381,49.59347]]}},{"type":"Feature","properties":{"numer":"1669K","klasa":"droga zbiorcza","kat":"powiatowa"},"geometry":{"type":"LineString","coordinates":[[19.83794,49.59385],[19.83809,49.59351]]}},{"type":"Feature","properties":{"numer":"1669K","klasa":"droga zbiorcza","kat":"powiatowa"},"geometry":{"type":"LineString","coordinates":[[19.83794,49.59385],[19.83792,49.59389]]}},{"type":"Feature","properties":{"numer":"1669K","klasa":"droga zbiorcza","kat":"powiatowa"},"geometry":{"type":"LineString","coordinates":[[19.837595207986688,49.59464784803106],[19.83792,49.59389]]}},{"type":"Feature","properties":{"numer":"7,E77","klasa":"droga gĹ‚Ăłwna ruchu przyĹ›pieszonego","kat":"gminna"},"geometry":{"type":"LineString","coordinates":[[19.863,49.57711],[19.8628,49.57708]]}},{"type":"Feature","properties":{"numer":"7,E77","klasa":"droga gĹ‚Ăłwna ruchu przyĹ›pieszonego","kat":"gminna"},"geometry":{"type":"LineString","coordinates":[[19.864749828941275,49.577363038989056],[19.863,49.57711]]}},{"type":"Feature","properties":{"numer":"1665K","klasa":"droga zbiorcza","kat":"powiatowa"},"geometry":{"type":"LineString","coordinates":[[19.866825155807366,49.578013654390936],[19.8663,49.57866],[19.86432,49.58209],[19.86323,49.58317],[19.86318,49.58342],[19.86334,49.58421],[19.86254,49.58491],[19.86227,49.58528],[19.86224,49.58563],[19.86243,49.58639],[19.86161,49.5889],[19.86179,49.59022],[19.86164,49.59101],[19.86271,49.59172],[19.86349,49.59208],[19.8651,49.59245],[19.86717,49.5931],[19.86858,49.59322],[19.87004,49.59292],[19.87141419766594,49.59296804886944]]}}]}