{"type":"FeatureCollection","features":[{"type":"Feature","properties":{"numer":"1636K","klasa":"droga zbiorcza","kat":"powiatowa"},"geometry":{"type":"LineString","coordinates":[[20.54802,49.40602],[20.54818,49.40606]]}},{"type":"Feature","properties":{"numer":"1636K","klasa":"droga zbiorcza","kat":"powiatowa"},"geometry":{"type":"LineString","coordinates":[[20.54818,49.40606],[20.55085,49.40667],[20.5534,49.4066],[20.5538,49.40679]]}},{"type":"Feature","properties":{"numer":"1636K","klasa":"droga zbiorcza","kat":"powiatowa"},"geometry":{"type":"LineString","coordinates":[[20.54802,49.40602],[20.54756,49.40597],[20.54694,49.4061],[20.54606,49.40691],[20.54533,49.4073],[20.54452,49.40758],[20.54354,49.40774],[20.54284,49.40795],[20.54166,49.40801],[20.54018,49.40765],[20.53959,49.40773]]}},{"type":"Feature","properties":{"numer":"1636K","klasa":"droga zbiorcza","kat":"powiatowa"},"geometry":{"type":"LineString","coordinates":[[20.53959,49.40773],[20.53951,49.40776]]}},{"type":"Feature","properties":{"numer":"1636K","klasa":"droga zbiorcza","kat":"powiatowa"},"geometry":{"type":"LineString","coordinates":[[20.53951,49.40776],[20.53807,49.40818]]}},{"type":"Feature","properties":{"numer":"1636K","klasa":"droga zbiorcza","kat":"powiatowa"},"geometry":{"type":"LineString","coordinates":[[20.53807,49.40818],[20.53798,49.4082]]}},{"type":"Feature","properties":{"numer":"1636K","klasa":"droga zbiorcza","kat":"powiatowa"},"geometry":{"type":"LineString","coordinates":[[20.53798,49.4082],[20.53654,49.40867],[20.53094,49.40937],[20.53057,49.40956],[20.53003,49.4102]]}},{"type":"Feature","properties":{"numer":"1636K","klasa":"droga zbiorcza","kat":"powiatowa"},"geometry":{"type":"LineString","coordinates":[[20.52966,49.41048],[20.53003,49.4102]]}},{"type":"Feature","properties":{"numer":"1636K","klasa":"droga zbiorcza","kat":"powiatowa"},"geometry":{"type":"LineString","coordinates":[[20.52966,49.41048],[20.52927,49.41061],[20.5286,49.41055],[20.52704,49.41059],[20.52596,49.41087],[20.52504,49.41095]]}},{"type":"Feature","properties":{"numer":"1636K","klasa":"droga zbiorcza","kat":"powiatowa"},"geometry":{"type":"LineString","coordinates":[[20.52504,49.41095],[20.52443,49.41096]]}},{"type":"Feature","properties":{"numer":"1636K","klasa":"droga zbiorcza","kat":"powiatowa"},"geometry":{"type":"LineString","coordinates":[[20.51477,49.41584],[20.5152,49.41575]]}},{"type":"Feature","properties":{"numer":"1636K","klasa":"droga zbiorcza","kat":"powiatowa"},"geometry":{"type":"LineString","coordinates":[[20.49194,49.42034],[20.49212,49.42023],[20.49247,49.42016],[20.49498,49.42016],[20.49598,49.42024],[20.498,49.42],[20.49987,49.42019],[20.50097,49.41993],[20.50187,49.41982],[20.50299,49.42],[20.50354,49.41997],[20.50388,49.41984],[20.50461,49.41907],[20.50495,49.4189],[20.50882,49.41813],[20.50992,49.41771],[20.51229,49.41703],[20.51411,49.41603],[20.51477,49.41584]]}},{"type":"Feature","properties":{"numer":"1636K","klasa":"droga zbiorcza","kat":"powiatowa"},"geometry":{"type":"LineString","coordinates":[[20.49174,49.42051],[20.49194,49.42034]]}},{"type":"Feature","properties":{"numer":"1636K","klasa":"droga zbiorcza","kat":"powiatowa"},"geometry":{"type":"LineString","coordinates":[[20.48283,49.42482],[20.48297,49.42464],[20.48331,49.42452],[20.48421,49.4247],[20.48473,49.4246],[20.48524,49.42411],[20.4865,49.42328],[20.48739,49.42286],[20.48828,49.42258],[20.48987,49.42101],[20.49048,49.42078],[20.49174,49.42051]]}},{"type":"Feature","properties":{"numer":"1636K","klasa":"droga zbiorcza","kat":"powiatowa"},"geometry":{"type":"LineString","coordinates":[[20.4827,49.42499],[20.48283,49.42482]]}},{"type":"Feature","properties":{"numer":"1636K","klasa":"droga zbiorcza","kat":"powiatowa"},"geometry":{"type":"LineString","coordinates":[[20.46882,49.42739],[20.46985,49.42751],[20.47037,49.4275],[20.47267,49.42724],[20.47412,49.42689],[20.47624,49.42705],[20.47705,49.427],[20.48043,49.42605],[20.48235,49.42527],[20.4827,49.42499]]}},{"type":"Feature","properties":{"numer":"1636K","klasa":"droga zbiorcza","kat":"powiatowa"},"geometry":{"type":"LineString","coordinates":[[20.52443,49.41096],[20.52427,49.41097]]}},{"type":"Feature","properties":{"numer":"1636K","klasa":"droga zbiorcza","kat":"powiatowa"},"geometry":{"type":"LineString","coordinates":[[20.52427,49.41097],[20.52383,49.41101]]}},{"type":"Feature","properties":{"numer":"1636K","klasa":"droga zbiorcza","kat":"powiatowa"},"geometry":{"type":"LineString","coordinates":[[20.52504,49.41095],[20.525,49.41107],[20.52468,49.41123]]}},{"type":"Feature","properties":{"numer":"1636K","klasa":"droga zbiorcza","kat":"powiatowa"},"geometry":{"type":"LineString","coordinates":[[20.52458,49.41126],[20.5241,49.41105],[20.52383,49.41101]]}},{"type":"Feature","properties":{"numer":"1636K","klasa":"droga zbiorcza","kat":"powiatowa"},"geometry":{"type":"LineString","coordinates":[[20.52458,49.41126],[20.52468,49.41123]]}},{"type":"Feature","properties":{"numer":"1636K","klasa":"droga zbiorcza","kat":"powiatowa"},"geometry":{"type":"LineString","coordinates":[[20.5152,49.41575],[20.51548,49.41563],[20.51573,49.4154],[20.51618,49.41452],[20.51708,49.41351],[20.51864,49.41281],[20.51954,49.41219],[20.52067,49.41173],[20.52218,49.41125],[20.52383,49.41101]]}},{"type":"Feature","properties":{"numer":"1636K","klasa":"droga zbiorcza","kat":"powiatowa"},"geometry":{"type":"LineString","coordinates":[[20.46866,49.42737],[20.46882,49.42739]]}},{"type":"Feature","properties":{"numer":"1636K","klasa":"droga zbiorcza","kat":"powiatowa"},"geometry":{"type":"LineString","coordinates":[[20.442229390950033,49.429740150546856],[20.44346,49.42726],[20.44383,49.42687],[20.44477,49.42651],[20.44664,49.42601],[20.44773,49.42583],[20.44853,49.42583],[20.45008,49.42603],[20.45156,49.42611],[20.45381,49.42608],[20.45603,49.42616],[20.45716,49.42607],[20.45867,49.42571],[20.45973,49.42574],[20.46099,49.42557],[20.46251,49.42558],[20.46345,49.42568],[20.46454,49.42599],[20.46477,49.42615],[20.46532,49.4269],[20.46591,49.42723],[20.46649,49.42734],[20.46767,49.42725],[20.46866,49.42737]]}}]}