{"type":"FeatureCollection","features":[{"type":"Feature","properties":{"numer":"783","klasa":"droga gĹ‚Ăłwna","kat":"wojewodzka"},"geometry":{"type":"LineString","coordinates":[[19.68661,50.34509],[19.68879,50.34926]]}},{"type":"Feature","properties":{"numer":"120710K","klasa":"droga zbiorcza","kat":"powiatowa"},"geometry":{"type":"LineString","coordinates":[[19.68879,50.34926],[19.68916,50.34931]]}},{"type":"Feature","properties":{"numer":"1150K","klasa":"droga zbiorcza","kat":"powiatowa"},"geometry":{"type":"LineString","coordinates":[[19.71165,50.35521],[19.71218,50.35485],[19.71473,50.35352],[19.72066,50.35133],[19.72819,50.34933],[19.7311,50.34865],[19.73359,50.34789],[19.74719,50.34445]]}},{"type":"Feature","properties":{"numer":"120710K","klasa":"droga zbiorcza","kat":"powiatowa"},"geometry":{"type":"LineString","coordinates":[[19.68916,50.34931],[19.69302,50.35041]]}},{"type":"Feature","properties":{"numer":"","klasa":"droga zbiorcza","kat":"powiatowa"},"geometry":{"type":"LineString","coordinates":[[19.7085,50.3519],[19.70797,50.3509],[19.70782,50.34977]]}},{"type":"Feature","properties":{"numer":"120710K","klasa":"droga zbiorcza","kat":"powiatowa"},"geometry":{"type":"LineString","coordinates":[[19.69302,50.35041],[19.69502,50.35097],[19.69724,50.35136]]}},{"type":"Feature","properties":{"numer":"1151K","klasa":"droga zbiorcza","kat":"powiatowa"},"geometry":{"type":"LineString","coordinates":[[19.8209900145921,50.34132008852929],[19.8248,50.34495]]}},{"type":"Feature","properties":{"numer":"1153K","klasa":"droga zbiorcza","kat":"powiatowa"},"geometry":{"type":"LineString","coordinates":[[19.79036,50.3538],[19.79349,50.35411],[19.79557,50.35399],[19.79757,50.35341],[19.80132,50.35259],[19.81059,50.35022],[19.81408,50.34927],[19.82008,50.34695],[19.82211,50.34607],[19.82367,50.34555],[19.8248,50.34495]]}},{"type":"Feature","properties":{"numer":"1151K","klasa":"droga zbiorcza","kat":"powiatowa"},"geometry":{"type":"LineString","coordinates":[[19.84037,50.36243],[19.83796,50.36188],[19.83711,50.36145],[19.83565,50.35888],[19.8347,50.35753],[19.83363,50.35494],[19.83306,50.35298],[19.83297506608429,50.352526007998186]]}},{"type":"Feature","properties":{"numer":"1151K","klasa":"droga zbiorcza","kat":"powiatowa"},"geometry":{"type":"LineString","coordinates":[[19.830835042430877,50.346040706268816],[19.83077,50.34598],[19.83055,50.34593],[19.82804,50.34589],[19.82642,50.34566],[19.82525,50.34525],[19.8248,50.34495]]}},{"type":"Feature","properties":{"numer":"1152K","klasa":"droga zbiorcza","kat":"powiatowa"},"geometry":{"type":"LineString","coordinates":[[19.84757,50.36101],[19.84863,50.36119],[19.849695074476124,50.361163809644026]]}},{"type":"Feature","properties":{"numer":"794","klasa":"droga gĹ‚Ăłwna","kat":"wojewodzka"},"geometry":{"type":"LineString","coordinates":[[19.74595,50.34097],[19.74557,50.33972],[19.74561,50.33923],[19.74572287575345,50.3390852245771]]}},{"type":"Feature","properties":{"numer":"1146K","klasa":"droga zbiorcza","kat":"powiatowa"},"geometry":{"type":"LineString","coordinates":[[19.773072072348253,50.342225315757204],[19.77345,50.34283]]}},{"type":"Feature","properties":{"numer":"1150K","klasa":"droga zbiorcza","kat":"powiatowa"},"geometry":{"type":"LineString","coordinates":[[19.74719,50.34445],[19.751872714787847,50.34330908432076]]}},{"type":"Feature","properties":{"numer":"1150K","klasa":"droga zbiorcza","kat":"powiatowa"},"geometry":{"type":"LineString","coordinates":[[19.753658359999502,50.343164840000036],[19.75508169328809,50.34305480675329]]}},{"type":"Feature","properties":{"numer":"794","klasa":"droga gĹ‚Ăłwna","kat":"wojewodzka"},"geometry":{"type":"LineString","coordinates":[[19.74597,50.34105],[19.74595,50.34097]]}},{"type":"Feature","properties":{"numer":"794","klasa":"droga gĹ‚Ăłwna","kat":"wojewodzka"},"geometry":{"type":"LineString","coordinates":[[19.74719,50.34445],[19.74675,50.34367],[19.74597,50.34105]]}},{"type":"Feature","properties":{"numer":"120587K","klasa":"droga zbiorcza","kat":"powiatowa"},"geometry":{"type":"LineString","coordinates":[[19.77345,50.34283],[19.77425,50.3442],[19.77431,50.34464]]}},{"type":"Feature","properties":{"numer":"120587K","klasa":"droga zbiorcza","kat":"powiatowa"},"geometry":{"type":"LineString","coordinates":[[19.77431,50.34464],[19.77428,50.3452],[19.77387,50.34714],[19.77318,50.34834]]}},{"type":"Feature","properties":{"numer":"120587K","klasa":"droga zbiorcza","kat":"powiatowa"},"geometry":{"type":"LineString","coordinates":[[19.77318,50.34834],[19.77302,50.34884]]}},{"type":"Feature","properties":{"numer":"120587K","klasa":"droga zbiorcza","kat":"powiatowa"},"geometry":{"type":"LineString","coordinates":[[19.77302,50.34884],[19.77295,50.34906]]}},{"type":"Feature","properties":{"numer":"","klasa":"droga zbiorcza","kat":"powiatowa"},"geometry":{"type":"LineString","coordinates":[[19.6826,50.34554],[19.68283,50.34531]]}},{"type":"Feature","properties":{"numer":"","klasa":"droga zbiorcza","kat":"powiatowa"},"geometry":{"type":"LineString","coordinates":[[19.68415,50.34529],[19.68446,50.34557]]}},{"type":"Feature","properties":{"numer":"120619K","klasa":"droga zbiorcza","kat":"powiatowa"},"geometry":{"type":"LineString","coordinates":[[19.68009,50.34538],[19.68189,50.34556]]}},{"type":"Feature","properties":{"numer":"","klasa":"droga zbiorcza","kat":"powiatowa"},"geometry":{"type":"LineString","coordinates":[[19.68238,50.34546],[19.6826,50.34554]]}},{"type":"Feature","properties":{"numer":"","klasa":"droga zbiorcza","kat":"powiatowa"},"geometry":{"type":"LineString","coordinates":[[19.68189,50.34556],[19.68238,50.34546]]}},{"type":"Feature","properties":{"numer":"","klasa":"droga zbiorcza","kat":"powiatowa"},"geometry":{"type":"LineString","coordinates":[[19.68446,50.34557],[19.68482,50.34549]]}},{"type":"Feature","properties":{"numer":"","klasa":"droga lokalna","kat":"gminna"},"geometry":{"type":"LineString","coordinates":[[19.67344,50.34698],[19.67429,50.34691],[19.67853,50.34559],[19.67948,50.34537],[19.68009,50.34538]]}},{"type":"Feature","properties":{"numer":"","klasa":"droga zbiorcza","kat":"powiatowa"},"geometry":{"type":"LineString","coordinates":[[19.6822,50.34726],[19.68251,50.34682],[19.6826,50.34554]]}},{"type":"Feature","properties":{"numer":"","klasa":"droga lokalna","kat":"gminna"},"geometry":{"type":"LineString","coordinates":[[19.67312,50.34723],[19.67319,50.34706],[19.67344,50.34698]]}},{"type":"Feature","properties":{"numer":"","klasa":"droga lokalna","kat":"gminna"},"geometry":{"type":"LineString","coordinates":[[19.67201,50.34851],[19.67233,50.34803],[19.67315,50.34745],[19.67312,50.34723]]}},{"type":"Feature","properties":{"numer":"1153K","klasa":"droga zbiorcza","kat":"powiatowa"},"geometry":{"type":"LineString","coordinates":[[19.8248,50.34495],[19.82564,50.34443],[19.82958359695426,50.34371387418492]]}},{"type":"Feature","properties":{"numer":"120706K","klasa":"droga zbiorcza","kat":"powiatowa"},"geometry":{"type":"LineString","coordinates":[[19.84407,50.36153],[19.84539,50.36122],[19.84635,50.36129],[19.84727,50.36099],[19.84757,50.36101]]}},{"type":"Feature","properties":{"numer":"120706K","klasa":"droga zbiorcza","kat":"powiatowa"},"geometry":{"type":"LineString","coordinates":[[19.84403,50.36172],[19.84407,50.36153]]}},{"type":"Feature","properties":{"numer":"120706K","klasa":"droga zbiorcza","kat":"powiatowa"},"geometry":{"type":"LineString","coordinates":[[19.8428,50.36217],[19.84399,50.36202],[19.84408,50.36197],[19.84403,50.36172]]}},{"type":"Feature","properties":{"numer":"120706K","klasa":"droga zbiorcza","kat":"powiatowa"},"geometry":{"type":"LineString","coordinates":[[19.84217,50.36225],[19.8428,50.36217]]}},{"type":"Feature","properties":{"numer":"120706K","klasa":"droga zbiorcza","kat":"powiatowa"},"geometry":{"type":"LineString","coordinates":[[19.8416,50.36231],[19.84217,50.36225]]}},{"type":"Feature","properties":{"numer":"120706K","klasa":"droga zbiorcza","kat":"powiatowa"},"geometry":{"type":"LineString","coordinates":[[19.84037,50.36243],[19.8416,50.36231]]}},{"type":"Feature","properties":{"numer":"120705K","klasa":"droga zbiorcza","kat":"powiatowa"},"geometry":{"type":"LineString","coordinates":[[19.82944,50.3631],[19.82563,50.36251],[19.82299,50.3624]]}},{"type":"Feature","properties":{"numer":"120705K","klasa":"droga zbiorcza","kat":"powiatowa"},"geometry":{"type":"LineString","coordinates":[[19.82878,50.3648],[19.82899,50.3645],[19.82944,50.3631]]}},{"type":"Feature","properties":{"numer":"1151K","klasa":"droga zbiorcza","kat":"powiatowa"},"geometry":{"type":"LineString","coordinates":[[19.841,50.36709],[19.84077,50.36604],[19.84059,50.36317],[19.84037,50.36243]]}},{"type":"Feature","properties":{"numer":"120705K","klasa":"droga zbiorcza","kat":"powiatowa"},"geometry":{"type":"LineString","coordinates":[[19.82864,50.36619],[19.82837,50.36538],[19.82878,50.3648]]}},{"type":"Feature","properties":{"numer":"783","klasa":"droga gĹ‚Ăłwna","kat":"wojewodzka"},"geometry":{"type":"LineString","coordinates":[[19.841,50.36709],[19.85341,50.36517],[19.853446055992062,50.36516642192445]]}},{"type":"Feature","properties":{"numer":"120705K","klasa":"droga zbiorcza","kat":"powiatowa"},"geometry":{"type":"LineString","coordinates":[[19.83012,50.36943],[19.82908,50.36848],[19.82899,50.36696],[19.82864,50.36619]]}},{"type":"Feature","properties":{"numer":"783","klasa":"droga gĹ‚Ăłwna","kat":"wojewodzka"},"geometry":{"type":"LineString","coordinates":[[19.83331,50.36874],[19.841,50.36709]]}},{"type":"Feature","properties":{"numer":"1149K,783","klasa":"droga gĹ‚Ăłwna","kat":"powiatowa"},"geometry":{"type":"LineString","coordinates":[[19.83012,50.36943],[19.83331,50.36874]]}},{"type":"Feature","properties":{"numer":"120669K","klasa":"droga zbiorcza","kat":"powiatowa"},"geometry":{"type":"LineString","coordinates":[[19.80863,50.37245],[19.80761,50.36931]]}},{"type":"Feature","properties":{"numer":"783","klasa":"droga gĹ‚Ăłwna","kat":"wojewodzka"},"geometry":{"type":"LineString","coordinates":[[19.81675,50.37363],[19.81697,50.37311],[19.81729,50.37269],[19.8179,50.37225],[19.81884,50.37188],[19.83012,50.36943]]}},{"type":"Feature","properties":{"numer":"120588K","klasa":"droga zbiorcza","kat":"powiatowa"},"geometry":{"type":"LineString","coordinates":[[19.80965,50.3725],[19.80863,50.37245]]}},{"type":"Feature","properties":{"numer":"120588K","klasa":"droga zbiorcza","kat":"powiatowa"},"geometry":{"type":"LineString","coordinates":[[19.81011,50.37253],[19.80965,50.3725]]}},{"type":"Feature","properties":{"numer":"120588K","klasa":"droga zbiorcza","kat":"powiatowa"},"geometry":{"type":"LineString","coordinates":[[19.81048,50.37255],[19.81011,50.37253]]}},{"type":"Feature","properties":{"numer":"120588K","klasa":"droga zbiorcza","kat":"powiatowa"},"geometry":{"type":"LineString","coordinates":[[19.81126,50.37259],[19.81048,50.37255]]}},{"type":"Feature","properties":{"numer":"120700K","klasa":"droga zbiorcza","kat":"powiatowa"},"geometry":{"type":"LineString","coordinates":[[19.84284,50.3788],[19.84291,50.37872]]}},{"type":"Feature","properties":{"numer":"120664K","klasa":"droga lokalna","kat":"powiatowa"},"geometry":{"type":"LineString","coordinates":[[19.83347,50.37885],[19.83407,50.37872]]}},{"type":"Feature","properties":{"numer":"120700K","klasa":"droga zbiorcza","kat":"powiatowa"},"geometry":{"type":"LineString","coordinates":[[19.84233,50.37916],[19.84284,50.3788]]}},{"type":"Feature","properties":{"numer":"1149K","klasa":"droga zbiorcza","kat":"powiatowa"},"geometry":{"type":"LineString","coordinates":[[19.84074,50.379],[19.84076,50.37903]]}},{"type":"Feature","properties":{"numer":"1149K","klasa":"droga zbiorcza","kat":"powiatowa"},"geometry":{"type":"LineString","coordinates":[[19.84076,50.37903],[19.84083,50.37917]]}},{"type":"Feature","properties":{"numer":"120700K","klasa":"droga zbiorcza","kat":"powiatowa"},"geometry":{"type":"LineString","coordinates":[[19.84102,50.37918],[19.84233,50.37916]]}},{"type":"Feature","properties":{"numer":"120700K","klasa":"droga zbiorcza","kat":"powiatowa"},"geometry":{"type":"LineString","coordinates":[[19.84083,50.37917],[19.84102,50.37918]]}},{"type":"Feature","properties":{"numer":"120700K","klasa":"droga zbiorcza","kat":"powiatowa"},"geometry":{"type":"LineString","coordinates":[[19.8385,50.37915],[19.83953,50.37922]]}},{"type":"Feature","properties":{"numer":"120700K","klasa":"droga zbiorcza","kat":"powiatowa"},"geometry":{"type":"LineString","coordinates":[[19.83992,50.37922],[19.84083,50.37917]]}},{"type":"Feature","properties":{"numer":"120700K","klasa":"droga zbiorcza","kat":"powiatowa"},"geometry":{"type":"LineString","coordinates":[[19.83953,50.37922],[19.83992,50.37922]]}},{"type":"Feature","properties":{"numer":"120587K","klasa":"droga zbiorcza","kat":"powiatowa"},"geometry":{"type":"LineString","coordinates":[[19.77122,50.36984],[19.77119,50.3698]]}},{"type":"Feature","properties":{"numer":"120587K","klasa":"droga zbiorcza","kat":"powiatowa"},"geometry":{"type":"LineString","coordinates":[[19.77133,50.36998],[19.77122,50.36984]]}},{"type":"Feature","properties":{"numer":"120587K","klasa":"droga zbiorcza","kat":"powiatowa"},"geometry":{"type":"LineString","coordinates":[[19.77184,50.37055],[19.77133,50.36998]]}},{"type":"Feature","properties":{"numer":"783","klasa":"droga gĹ‚Ăłwna","kat":"wojewodzka"},"geometry":{"type":"LineString","coordinates":[[19.7887,50.37244],[19.78853,50.37196],[19.78838,50.37027],[19.78794,50.36979],[19.78729,50.36953],[19.78359,50.3692],[19.7743,50.36862],[19.77117,50.36812],[19.77024,50.3681]]}},{"type":"Feature","properties":{"numer":"120587K","klasa":"droga zbiorcza","kat":"powiatowa"},"geometry":{"type":"LineString","coordinates":[[19.7719,50.37062],[19.77184,50.37055]]}},{"type":"Feature","properties":{"numer":"120587K","klasa":"droga zbiorcza","kat":"powiatowa"},"geometry":{"type":"LineString","coordinates":[[19.77208,50.37082],[19.7719,50.37062]]}},{"type":"Feature","properties":{"numer":"120587K","klasa":"droga zbiorcza","kat":"powiatowa"},"geometry":{"type":"LineString","coordinates":[[19.77226,50.37103],[19.77208,50.37082]]}},{"type":"Feature","properties":{"numer":"120587K","klasa":"droga zbiorcza","kat":"powiatowa"},"geometry":{"type":"LineString","coordinates":[[19.77243,50.37123],[19.77226,50.37103]]}},{"type":"Feature","properties":{"numer":"120587K","klasa":"droga zbiorcza","kat":"powiatowa"},"geometry":{"type":"LineString","coordinates":[[19.77261,50.37144],[19.77243,50.37123]]}},{"type":"Feature","properties":{"numer":"120587K","klasa":"droga zbiorcza","kat":"powiatowa"},"geometry":{"type":"LineString","coordinates":[[19.77382,50.37278],[19.77261,50.37144]]}},{"type":"Feature","properties":{"numer":"120588K","klasa":"droga zbiorcza","kat":"powiatowa"},"geometry":{"type":"LineString","coordinates":[[19.7824,50.37226],[19.7823,50.37228]]}},{"type":"Feature","properties":{"numer":"120588K","klasa":"droga zbiorcza","kat":"powiatowa"},"geometry":{"type":"LineString","coordinates":[[19.7823,50.37228],[19.78185,50.37237]]}},{"type":"Feature","properties":{"numer":"120588K","klasa":"droga zbiorcza","kat":"powiatowa"},"geometry":{"type":"LineString","coordinates":[[19.78397,50.37252],[19.78315,50.37226],[19.7824,50.37226]]}},{"type":"Feature","properties":{"numer":"783","klasa":"droga gĹ‚Ăłwna","kat":"wojewodzka"},"geometry":{"type":"LineString","coordinates":[[19.78874,50.37256],[19.7887,50.37244]]}},{"type":"Feature","properties":{"numer":"120588K","klasa":"droga zbiorcza","kat":"powiatowa"},"geometry":{"type":"LineString","coordinates":[[19.78874,50.37256],[19.78856,50.37257]]}},{"type":"Feature","properties":{"numer":"1144K","klasa":"droga zbiorcza","kat":"powiatowa"},"geometry":{"type":"LineString","coordinates":[[19.78893,50.37259],[19.78874,50.37256]]}},{"type":"Feature","properties":{"numer":"783","klasa":"droga gĹ‚Ăłwna","kat":"wojewodzka"},"geometry":{"type":"LineString","coordinates":[[19.78876,50.37268],[19.78874,50.37256]]}},{"type":"Feature","properties":{"numer":"120588K","klasa":"droga zbiorcza","kat":"powiatowa"},"geometry":{"type":"LineString","coordinates":[[19.78466,50.37272],[19.78434,50.3727],[19.78397,50.37252]]}},{"type":"Feature","properties":{"numer":"120588K","klasa":"droga zbiorcza","kat":"powiatowa"},"geometry":{"type":"LineString","coordinates":[[19.78944,50.37269],[19.78893,50.37259]]}},{"type":"Feature","properties":{"numer":"120588K","klasa":"droga zbiorcza","kat":"powiatowa"},"geometry":{"type":"LineString","coordinates":[[19.78856,50.37257],[19.78694,50.37278],[19.78466,50.37272]]}},{"type":"Feature","properties":{"numer":"120588K","klasa":"droga zbiorcza","kat":"powiatowa"},"geometry":{"type":"LineString","coordinates":[[19.79146,50.37274],[19.79004,50.37279],[19.78944,50.37269]]}},{"type":"Feature","properties":{"numer":"120588K","klasa":"droga zbiorcza","kat":"powiatowa"},"geometry":{"type":"LineString","coordinates":[[19.78185,50.37237],[19.77819,50.37315]]}},{"type":"Feature","properties":{"numer":"120588K","klasa":"droga zbiorcza","kat":"powiatowa"},"geometry":{"type":"LineString","coordinates":[[19.79215,50.37278],[19.79146,50.37274]]}},{"type":"Feature","properties":{"numer":"120588K","klasa":"droga zbiorcza","kat":"powiatowa"},"geometry":{"type":"LineString","coordinates":[[19.79323,50.37282],[19.79215,50.37278]]}},{"type":"Feature","properties":{"numer":"120588K","klasa":"droga zbiorcza","kat":"powiatowa"},"geometry":{"type":"LineString","coordinates":[[19.80863,50.37245],[19.80723,50.37245],[19.80587,50.37327]]}},{"type":"Feature","properties":{"numer":"120588K","klasa":"droga zbiorcza","kat":"powiatowa"},"geometry":{"type":"LineString","coordinates":[[19.79431,50.37302],[19.79323,50.37282]]}},{"type":"Feature","properties":{"numer":"120587K","klasa":"droga zbiorcza","kat":"powiatowa"},"geometry":{"type":"LineString","coordinates":[[19.77437,50.37331],[19.77382,50.37278]]}},{"type":"Feature","properties":{"numer":"120588K","klasa":"droga zbiorcza","kat":"powiatowa"},"geometry":{"type":"LineString","coordinates":[[19.79479,50.37309],[19.79431,50.37302]]}},{"type":"Feature","properties":{"numer":"120588K","klasa":"droga zbiorcza","kat":"powiatowa"},"geometry":{"type":"LineString","coordinates":[[19.79667,50.37324],[19.79479,50.37309]]}},{"type":"Feature","properties":{"numer":"120588K","klasa":"droga zbiorcza","kat":"powiatowa"},"geometry":{"type":"LineString","coordinates":[[19.79732,50.37335],[19.79667,50.37324]]}},{"type":"Feature","properties":{"numer":"120588K","klasa":"droga zbiorcza","kat":"powiatowa"},"geometry":{"type":"LineString","coordinates":[[19.81262,50.37267],[19.81126,50.37259]]}},{"type":"Feature","properties":{"numer":"120588K","klasa":"droga zbiorcza","kat":"powiatowa"},"geometry":{"type":"LineString","coordinates":[[19.81346,50.37272],[19.81262,50.37267]]}},{"type":"Feature","properties":{"numer":"120588K","klasa":"droga zbiorcza","kat":"powiatowa"},"geometry":{"type":"LineString","coordinates":[[19.81385,50.37276],[19.81346,50.37272]]}},{"type":"Feature","properties":{"numer":"120588K","klasa":"droga zbiorcza","kat":"powiatowa"},"geometry":{"type":"LineString","coordinates":[[19.81506,50.37313],[19.81385,50.37276]]}},{"type":"Feature","properties":{"numer":"120588K","klasa":"droga zbiorcza","kat":"powiatowa"},"geometry":{"type":"LineString","coordinates":[[19.81586,50.3734],[19.81506,50.37313]]}},{"type":"Feature","properties":{"numer":"120588K","klasa":"droga zbiorcza","kat":"powiatowa"},"geometry":{"type":"LineString","coordinates":[[19.81614,50.3735],[19.81586,50.3734]]}},{"type":"Feature","properties":{"numer":"1149K","klasa":"droga zbiorcza","kat":"powiatowa"},"geometry":{"type":"LineString","coordinates":[[19.83331,50.36874],[19.83381,50.3701],[19.83359,50.37164],[19.83363,50.37229],[19.83398,50.37329],[19.8344,50.37401],[19.8362,50.37832]]}},{"type":"Feature","properties":{"numer":"120588K","klasa":"droga zbiorcza","kat":"powiatowa"},"geometry":{"type":"LineString","coordinates":[[19.81675,50.37363],[19.81614,50.3735]]}},{"type":"Feature","properties":{"numer":"783","klasa":"droga gĹ‚Ăłwna","kat":"wojewodzka"},"geometry":{"type":"LineString","coordinates":[[19.8164,50.37462],[19.81675,50.37363]]}},{"type":"Feature","properties":{"numer":"783","klasa":"droga gĹ‚Ăłwna","kat":"wojewodzka"},"geometry":{"type":"LineString","coordinates":[[19.81638,50.37467],[19.8164,50.37462]]}},{"type":"Feature","properties":{"numer":"120588K","klasa":"droga zbiorcza","kat":"powiatowa"},"geometry":{"type":"LineString","coordinates":[[19.80001,50.37333],[19.79944,50.37327]]}},{"type":"Feature","properties":{"numer":"120588K","klasa":"droga zbiorcza","kat":"powiatowa"},"geometry":{"type":"LineString","coordinates":[[19.79944,50.37327],[19.7979,50.37339]]}},{"type":"Feature","properties":{"numer":"120588K","klasa":"droga zbiorcza","kat":"powiatowa"},"geometry":{"type":"LineString","coordinates":[[19.77819,50.37315],[19.77642,50.37356]]}},{"type":"Feature","properties":{"numer":"120588K","klasa":"droga zbiorcza","kat":"powiatowa"},"geometry":{"type":"LineString","coordinates":[[19.80049,50.3734],[19.80001,50.37333]]}},{"type":"Feature","properties":{"numer":"120588K","klasa":"droga zbiorcza","kat":"powiatowa"},"geometry":{"type":"LineString","coordinates":[[19.7979,50.37339],[19.79732,50.37335]]}},{"type":"Feature","properties":{"numer":"783","klasa":"droga gĹ‚Ăłwna","kat":"wojewodzka"},"geometry":{"type":"LineString","coordinates":[[19.75095,50.37732],[19.75148,50.37698],[19.75191,50.37644],[19.75231,50.37448],[19.75327,50.37284],[19.75328,50.37236],[19.75302,50.37136],[19.75317,50.37066],[19.75352,50.37022],[19.75396,50.3699],[19.75484,50.36955],[19.75543,50.36945]]}},{"type":"Feature","properties":{"numer":"120588K","klasa":"droga zbiorcza","kat":"powiatowa"},"geometry":{"type":"LineString","coordinates":[[19.80227,50.37356],[19.80049,50.3734]]}},{"type":"Feature","properties":{"numer":"120588K","klasa":"droga zbiorcza","kat":"powiatowa"},"geometry":{"type":"LineString","coordinates":[[19.80587,50.37327],[19.80508,50.37359],[19.80411,50.37372],[19.80241,50.37358]]}},{"type":"Feature","properties":{"numer":"794","klasa":"droga gĹ‚Ăłwna","kat":"wojewodzka"},"geometry":{"type":"LineString","coordinates":[[19.75719,50.37762],[19.75668,50.37366],[19.75524,50.37102],[19.75543,50.36945]]}},{"type":"Feature","properties":{"numer":"120588K","klasa":"droga zbiorcza","kat":"powiatowa"},"geometry":{"type":"LineString","coordinates":[[19.80241,50.37358],[19.80227,50.37356]]}},{"type":"Feature","properties":{"numer":"120588K","klasa":"droga zbiorcza","kat":"powiatowa"},"geometry":{"type":"LineString","coordinates":[[19.77642,50.37356],[19.77627,50.37364]]}},{"type":"Feature","properties":{"numer":"120587K","klasa":"droga zbiorcza","kat":"powiatowa"},"geometry":{"type":"LineString","coordinates":[[19.775,50.37404],[19.77437,50.37331]]}},{"type":"Feature","properties":{"numer":"120588K","klasa":"droga zbiorcza","kat":"powiatowa"},"geometry":{"type":"LineString","coordinates":[[19.77627,50.37364],[19.77551,50.3742]]}},{"type":"Feature","properties":{"numer":"120587K","klasa":"droga zbiorcza","kat":"powiatowa"},"geometry":{"type":"LineString","coordinates":[[19.77521,50.37431],[19.775,50.37404]]}},{"type":"Feature","properties":{"numer":"120592K","klasa":"droga zbiorcza","kat":"powiatowa"},"geometry":{"type":"LineString","coordinates":[[19.77437,50.37331],[19.7689,50.37508]]}},{"type":"Feature","properties":{"numer":"120588K","klasa":"droga zbiorcza","kat":"powiatowa"},"geometry":{"type":"LineString","coordinates":[[19.77551,50.3742],[19.77521,50.37431]]}},{"type":"Feature","properties":{"numer":"120702K","klasa":"droga zbiorcza","kat":"powiatowa"},"geometry":{"type":"LineString","coordinates":[[19.80212,50.375],[19.80208,50.37461],[19.80227,50.37356]]}},{"type":"Feature","properties":{"numer":"120588K","klasa":"droga zbiorcza","kat":"powiatowa"},"geometry":{"type":"LineString","coordinates":[[19.77521,50.37431],[19.77374,50.3748]]}},{"type":"Feature","properties":{"numer":"120588K","klasa":"droga zbiorcza","kat":"powiatowa"},"geometry":{"type":"LineString","coordinates":[[19.77374,50.3748],[19.77286,50.37503]]}},{"type":"Feature","properties":{"numer":"","klasa":"droga zbiorcza","kat":"powiatowa"},"geometry":{"type":"LineString","coordinates":[[19.77286,50.37503],[19.77222,50.37518]]}},{"type":"Feature","properties":{"numer":"","klasa":"droga zbiorcza","kat":"powiatowa"},"geometry":{"type":"LineString","coordinates":[[19.71598,50.37112],[19.72203,50.37193]]}},{"type":"Feature","properties":{"numer":"1121K","klasa":"droga zbiorcza","kat":"powiatowa"},"geometry":{"type":"LineString","coordinates":[[19.72307,50.37106],[19.72335,50.3721]]}},{"type":"Feature","properties":{"numer":"","klasa":"droga zbiorcza","kat":"powiatowa"},"geometry":{"type":"LineString","coordinates":[[19.72203,50.37193],[19.72335,50.3721]]}},{"type":"Feature","properties":{"numer":"","klasa":"droga zbiorcza","kat":"powiatowa"},"geometry":{"type":"LineString","coordinates":[[19.69428,50.37288],[19.69476,50.37291],[19.69766,50.37278]]}},{"type":"Feature","properties":{"numer":"783","klasa":"droga gĹ‚Ăłwna","kat":"wojewodzka"},"geometry":{"type":"LineString","coordinates":[[19.72307,50.36938],[19.72776,50.37043],[19.72857,50.37067],[19.72968,50.3711],[19.73411,50.37325],[19.73519,50.37366],[19.74816,50.37733],[19.75029,50.37761]]}},{"type":"Feature","properties":{"numer":"","klasa":"droga zbiorcza","kat":"powiatowa"},"geometry":{"type":"LineString","coordinates":[[19.69766,50.37278],[19.69934,50.37636]]}},{"type":"Feature","properties":{"numer":"1121K","klasa":"droga zbiorcza","kat":"powiatowa"},"geometry":{"type":"LineString","coordinates":[[19.72335,50.3721],[19.72344,50.37282],[19.72167,50.37984]]}},{"type":"Feature","properties":{"numer":"","klasa":"droga zbiorcza","kat":"powiatowa"},"geometry":{"type":"LineString","coordinates":[[19.69934,50.37636],[19.70025,50.37822],[19.70055,50.37847]]}},{"type":"Feature","properties":{"numer":"","klasa":"droga zbiorcza","kat":"powiatowa"},"geometry":{"type":"LineString","coordinates":[[19.70055,50.37847],[19.70413,50.37836],[19.70441,50.37841]]}},{"type":"Feature","properties":{"numer":"","klasa":"droga zbiorcza","kat":"powiatowa"},"geometry":{"type":"LineString","coordinates":[[19.70441,50.37841],[19.7048,50.38065]]}},{"type":"Feature","properties":{"numer":"","klasa":"droga zbiorcza","kat":"powiatowa"},"geometry":{"type":"LineString","coordinates":[[19.77222,50.37518],[19.77062,50.37552]]}},{"type":"Feature","properties":{"numer":"","klasa":"droga zbiorcza","kat":"powiatowa"},"geometry":{"type":"LineString","coordinates":[[19.7689,50.37508],[19.76613,50.37598]]}},{"type":"Feature","properties":{"numer":"","klasa":"droga zbiorcza","kat":"powiatowa"},"geometry":{"type":"LineString","coordinates":[[19.77062,50.37552],[19.76952,50.37585]]}},{"type":"Feature","properties":{"numer":"","klasa":"droga zbiorcza","kat":"powiatowa"},"geometry":{"type":"LineString","coordinates":[[19.76952,50.37585],[19.76762,50.37651]]}},{"type":"Feature","properties":{"numer":"120702K","klasa":"droga zbiorcza","kat":"powiatowa"},"geometry":{"type":"LineString","coordinates":[[19.80195,50.37739],[19.80223,50.37593],[19.80212,50.375]]}},{"type":"Feature","properties":{"numer":"","klasa":"droga zbiorcza","kat":"powiatowa"},"geometry":{"type":"LineString","coordinates":[[19.76613,50.37598],[19.76329,50.37685]]}},{"type":"Feature","properties":{"numer":"783","klasa":"droga gĹ‚Ăłwna","kat":"wojewodzka"},"geometry":{"type":"LineString","coordinates":[[19.79424,50.38061],[19.79298,50.37972],[19.79264,50.37926],[19.79198,50.37721],[19.79146,50.37635],[19.78905,50.37414],[19.78875,50.37346],[19.78876,50.37268]]}},{"type":"Feature","properties":{"numer":"","klasa":"droga zbiorcza","kat":"powiatowa"},"geometry":{"type":"LineString","coordinates":[[19.76762,50.37651],[19.76677,50.37679]]}},{"type":"Feature","properties":{"numer":"","klasa":"droga zbiorcza","kat":"powiatowa"},"geometry":{"type":"LineString","coordinates":[[19.76677,50.37679],[19.76639,50.37691]]}},{"type":"Feature","properties":{"numer":"","klasa":"droga zbiorcza","kat":"powiatowa"},"geometry":{"type":"LineString","coordinates":[[19.76639,50.37691],[19.76475,50.37739]]}},{"type":"Feature","properties":{"numer":"783","klasa":"droga gĹ‚Ăłwna","kat":"wojewodzka"},"geometry":{"type":"LineString","coordinates":[[19.81578,50.37536],[19.81612,50.37509],[19.81638,50.37467]]}},{"type":"Feature","properties":{"numer":"783","klasa":"droga gĹ‚Ăłwna","kat":"wojewodzka"},"geometry":{"type":"LineString","coordinates":[[19.80195,50.37739],[19.80337,50.37708],[19.81499,50.37561],[19.81578,50.37536]]}},{"type":"Feature","properties":{"numer":"120700K","klasa":"droga zbiorcza","kat":"powiatowa"},"geometry":{"type":"LineString","coordinates":[[19.81578,50.37536],[19.81748,50.3794]]}},{"type":"Feature","properties":{"numer":"120700K","klasa":"droga zbiorcza","kat":"powiatowa"},"geometry":{"type":"LineString","coordinates":[[19.85046,50.3776],[19.85049,50.3776]]}},{"type":"Feature","properties":{"numer":"120700K","klasa":"droga zbiorcza","kat":"powiatowa"},"geometry":{"type":"LineString","coordinates":[[19.84494,50.37777],[19.84543,50.37762],[19.84609,50.37754],[19.85046,50.3776]]}},{"type":"Feature","properties":{"numer":"120700K","klasa":"droga zbiorcza","kat":"powiatowa"},"geometry":{"type":"LineString","coordinates":[[19.84428,50.37814],[19.84494,50.37777]]}},{"type":"Feature","properties":{"numer":"120700K","klasa":"droga zbiorcza","kat":"powiatowa"},"geometry":{"type":"LineString","coordinates":[[19.84297,50.37865],[19.84428,50.37814]]}},{"type":"Feature","properties":{"numer":"120664K","klasa":"droga lokalna","kat":"powiatowa"},"geometry":{"type":"LineString","coordinates":[[19.83407,50.37872],[19.8362,50.37832]]}},{"type":"Feature","properties":{"numer":"120700K","klasa":"droga zbiorcza","kat":"powiatowa"},"geometry":{"type":"LineString","coordinates":[[19.84291,50.37872],[19.84297,50.37865]]}},{"type":"Feature","properties":{"numer":"1149K","klasa":"droga zbiorcza","kat":"powiatowa"},"geometry":{"type":"LineString","coordinates":[[19.8362,50.37832],[19.83684,50.3786],[19.83839,50.37898],[19.83955,50.37908],[19.8407,50.37895],[19.84074,50.379]]}},{"type":"Feature","properties":{"numer":"","klasa":"droga zbiorcza","kat":"powiatowa"},"geometry":{"type":"LineString","coordinates":[[19.76329,50.37685],[19.76069,50.37764],[19.7604,50.37766]]}},{"type":"Feature","properties":{"numer":"","klasa":"droga zbiorcza","kat":"powiatowa"},"geometry":{"type":"LineString","coordinates":[[19.75982,50.37689],[19.75719,50.37762]]}},{"type":"Feature","properties":{"numer":"","klasa":"droga zbiorcza","kat":"powiatowa"},"geometry":{"type":"LineString","coordinates":[[19.7604,50.37766],[19.75982,50.37689]]}},{"type":"Feature","properties":{"numer":"","klasa":"droga zbiorcza","kat":"powiatowa"},"geometry":{"type":"LineString","coordinates":[[19.76475,50.37739],[19.76427,50.37754]]}},{"type":"Feature","properties":{"numer":"783","klasa":"droga gĹ‚Ăłwna","kat":"wojewodzka"},"geometry":{"type":"LineString","coordinates":[[19.75029,50.37761],[19.75095,50.37732]]}},{"type":"Feature","properties":{"numer":"","klasa":"droga zbiorcza","kat":"powiatowa"},"geometry":{"type":"LineString","coordinates":[[19.76427,50.37754],[19.76388,50.37765]]}},{"type":"Feature","properties":{"numer":"","klasa":"droga zbiorcza","kat":"powiatowa"},"geometry":{"type":"LineString","coordinates":[[19.76388,50.37765],[19.76096,50.37849]]}},{"type":"Feature","properties":{"numer":"794","klasa":"droga gĹ‚Ăłwna","kat":"wojewodzka"},"geometry":{"type":"LineString","coordinates":[[19.75842,50.37942],[19.75719,50.37762]]}},{"type":"Feature","properties":{"numer":"","klasa":"droga zbiorcza","kat":"powiatowa"},"geometry":{"type":"LineString","coordinates":[[19.75029,50.37761],[19.75126,50.37814],[19.75199,50.37843],[19.75548,50.37943],[19.75627,50.37953],[19.75793,50.37949]]}},{"type":"Feature","properties":{"numer":"","klasa":"droga zbiorcza","kat":"powiatowa"},"geometry":{"type":"LineString","coordinates":[[19.76096,50.37849],[19.75888,50.3791]]}},{"type":"Feature","properties":{"numer":"","klasa":"droga zbiorcza","kat":"powiatowa"},"geometry":{"type":"LineString","coordinates":[[19.76034,50.38758],[19.76042,50.38728]]}},{"type":"Feature","properties":{"numer":"","klasa":"droga zbiorcza","kat":"powiatowa"},"geometry":{"type":"LineString","coordinates":[[19.7602,50.38815],[19.76034,50.38758]]}},{"type":"Feature","properties":{"numer":"","klasa":"droga zbiorcza","kat":"powiatowa"},"geometry":{"type":"LineString","coordinates":[[19.75822,50.38789],[19.75871,50.38797]]}},{"type":"Feature","properties":{"numer":"","klasa":"droga zbiorcza","kat":"powiatowa"},"geometry":{"type":"LineString","coordinates":[[19.75871,50.38797],[19.75913,50.38802]]}},{"type":"Feature","properties":{"numer":"","klasa":"droga zbiorcza","kat":"powiatowa"},"geometry":{"type":"LineString","coordinates":[[19.75913,50.38802],[19.75973,50.38809]]}},{"type":"Feature","properties":{"numer":"794","klasa":"droga gĹ‚Ăłwna","kat":"wojewodzka"},"geometry":{"type":"LineString","coordinates":[[19.75794,50.38825],[19.75822,50.38789]]}},{"type":"Feature","properties":{"numer":"","klasa":"droga zbiorcza","kat":"powiatowa"},"geometry":{"type":"LineString","coordinates":[[19.75973,50.38809],[19.7602,50.38815]]}},{"type":"Feature","properties":{"numer":"","klasa":"droga zbiorcza","kat":"powiatowa"},"geometry":{"type":"LineString","coordinates":[[19.76008,50.38859],[19.7602,50.38815]]}},{"type":"Feature","properties":{"numer":"1126K","klasa":"droga zbiorcza","kat":"powiatowa"},"geometry":{"type":"LineString","coordinates":[[19.75994,50.3891],[19.75794,50.38825]]}},{"type":"Feature","properties":{"numer":"","klasa":"droga zbiorcza","kat":"powiatowa"},"geometry":{"type":"LineString","coordinates":[[19.75994,50.3891],[19.76008,50.38859]]}},{"type":"Feature","properties":{"numer":"794","klasa":"droga gĹ‚Ăłwna","kat":"wojewodzka"},"geometry":{"type":"LineString","coordinates":[[19.74269,50.39421],[19.74657,50.39237],[19.75125,50.39133],[19.75572,50.39067],[19.75597,50.39053],[19.75705,50.38937],[19.75794,50.38825]]}},{"type":"Feature","properties":{"numer":"1126K","klasa":"droga zbiorcza","kat":"powiatowa"},"geometry":{"type":"LineString","coordinates":[[19.76367,50.3938],[19.76337,50.39299],[19.76343,50.39201],[19.76331,50.39178],[19.76184,50.39053],[19.76089,50.38954],[19.75994,50.3891]]}},{"type":"Feature","properties":{"numer":"","klasa":"droga zbiorcza","kat":"powiatowa"},"geometry":{"type":"LineString","coordinates":[[19.76199,50.3959],[19.76292,50.39408],[19.76317,50.39388],[19.76367,50.3938]]}},{"type":"Feature","properties":{"numer":"","klasa":"droga zbiorcza","kat":"powiatowa"},"geometry":{"type":"LineString","coordinates":[[19.74318,50.39599],[19.74365,50.39723]]}},{"type":"Feature","properties":{"numer":"","klasa":"droga zbiorcza","kat":"powiatowa"},"geometry":{"type":"LineString","coordinates":[[19.76099,50.3978],[19.76199,50.3959]]}},{"type":"Feature","properties":{"numer":"","klasa":"droga zbiorcza","kat":"powiatowa"},"geometry":{"type":"LineString","coordinates":[[19.74365,50.39723],[19.74453,50.3985],[19.74674,50.40073]]}},{"type":"Feature","properties":{"numer":"","klasa":"droga zbiorcza","kat":"powiatowa"},"geometry":{"type":"LineString","coordinates":[[19.74674,50.40073],[19.74907,50.40034]]}},{"type":"Feature","properties":{"numer":"1126K","klasa":"droga zbiorcza","kat":"powiatowa"},"geometry":{"type":"LineString","coordinates":[[19.7716,50.40815],[19.77018,50.40683],[19.76893,50.40616],[19.76822,50.40544],[19.76423,50.39755],[19.76384,50.39567],[19.76395,50.39467],[19.76367,50.3938]]}},{"type":"Feature","properties":{"numer":"120708K","klasa":"droga zbiorcza","kat":"powiatowa"},"geometry":{"type":"LineString","coordinates":[[19.79087,50.40787],[19.79969,50.40775]]}},{"type":"Feature","properties":{"numer":"120708K","klasa":"droga zbiorcza","kat":"powiatowa"},"geometry":{"type":"LineString","coordinates":[[19.78631,50.40794],[19.79087,50.40787]]}},{"type":"Feature","properties":{"numer":"","klasa":"droga zbiorcza","kat":"powiatowa"},"geometry":{"type":"LineString","coordinates":[[19.71097,50.39207],[19.71159,50.39214]]}},{"type":"Feature","properties":{"numer":"","klasa":"droga zbiorcza","kat":"powiatowa"},"geometry":{"type":"LineString","coordinates":[[19.71159,50.39214],[19.71388,50.39221]]}},{"type":"Feature","properties":{"numer":"","klasa":"droga zbiorcza","kat":"powiatowa"},"geometry":{"type":"LineString","coordinates":[[19.74269,50.39421],[19.74318,50.39599]]}},{"type":"Feature","properties":{"numer":"1120K","klasa":"droga zbiorcza","kat":"powiatowa"},"geometry":{"type":"LineString","coordinates":[[19.71142,50.39986],[19.71151,50.3995],[19.71202,50.39923],[19.71387,50.39725],[19.71422,50.39324],[19.71388,50.39221]]}},{"type":"Feature","properties":{"numer":"794","klasa":"droga gĹ‚Ăłwna","kat":"wojewodzka"},"geometry":{"type":"LineString","coordinates":[[19.71184,50.40151],[19.71219,50.40113],[19.71324,50.40041],[19.71896,50.39799],[19.72403,50.39755],[19.7259,50.39727],[19.7299,50.39663],[19.74163,50.39447],[19.74269,50.39421]]}},{"type":"Feature","properties":{"numer":"1113K","klasa":"droga zbiorcza","kat":"powiatowa"},"geometry":{"type":"LineString","coordinates":[[19.68207,50.39879],[19.68502,50.39871],[19.69217,50.3979],[19.71142,50.39986]]}},{"type":"Feature","properties":{"numer":"1113K","klasa":"droga zbiorcza","kat":"powiatowa"},"geometry":{"type":"LineString","coordinates":[[19.71142,50.39986],[19.71144,50.40119],[19.71154,50.40139],[19.71184,50.40151]]}},{"type":"Feature","properties":{"numer":"794","klasa":"droga gĹ‚Ăłwna","kat":"wojewodzka"},"geometry":{"type":"LineString","coordinates":[[19.71152,50.40242],[19.71184,50.40151]]}},{"type":"Feature","properties":{"numer":"794","klasa":"droga gĹ‚Ăłwna","kat":"wojewodzka"},"geometry":{"type":"LineString","coordinates":[[19.7115,50.40248],[19.71152,50.40242]]}},{"type":"Feature","properties":{"numer":"794","klasa":"droga gĹ‚Ăłwna","kat":"wojewodzka"},"geometry":{"type":"LineString","coordinates":[[19.70851,50.40684],[19.71112,50.40349],[19.7115,50.40248]]}},{"type":"Feature","properties":{"numer":"","klasa":"droga zbiorcza","kat":"powiatowa"},"geometry":{"type":"LineString","coordinates":[[19.67611,50.40176],[19.67696,50.40138]]}},{"type":"Feature","properties":{"numer":"","klasa":"droga zbiorcza","kat":"powiatowa"},"geometry":{"type":"LineString","coordinates":[[19.67307,50.40317],[19.67611,50.40176]]}},{"type":"Feature","properties":{"numer":"","klasa":"droga zbiorcza","kat":"powiatowa"},"geometry":{"type":"LineString","coordinates":[[19.67199,50.40389],[19.67307,50.40317]]}},{"type":"Feature","properties":{"numer":"","klasa":"droga zbiorcza","kat":"powiatowa"},"geometry":{"type":"LineString","coordinates":[[19.66855,50.40604],[19.66876,50.40534],[19.67199,50.40389]]}},{"type":"Feature","properties":{"numer":"","klasa":"droga zbiorcza","kat":"powiatowa"},"geometry":{"type":"LineString","coordinates":[[19.66855,50.40604],[19.66842,50.40695]]}},{"type":"Feature","properties":{"numer":"","klasa":"droga zbiorcza","kat":"powiatowa"},"geometry":{"type":"LineString","coordinates":[[19.66842,50.40695],[19.66842,50.40859]]}},{"type":"Feature","properties":{"numer":"","klasa":"droga zbiorcza","kat":"powiatowa"},"geometry":{"type":"LineString","coordinates":[[19.66842,50.40859],[19.6685,50.41069]]}},{"type":"Feature","properties":{"numer":"","klasa":"droga zbiorcza","kat":"powiatowa"},"geometry":{"type":"LineString","coordinates":[[19.6685,50.41069],[19.66856,50.41236]]}},{"type":"Feature","properties":{"numer":"","klasa":"droga zbiorcza","kat":"powiatowa"},"geometry":{"type":"LineString","coordinates":[[19.66856,50.41236],[19.66859,50.41295]]}},{"type":"Feature","properties":{"numer":"","klasa":"droga zbiorcza","kat":"powiatowa"},"geometry":{"type":"LineString","coordinates":[[19.66859,50.41295],[19.66862,50.41437]]}},{"type":"Feature","properties":{"numer":"140042K","klasa":"droga lokalna","kat":"powiatowa"},"geometry":{"type":"LineString","coordinates":[[19.85132,50.40409],[19.851400901902558,50.40407597700355]]}},{"type":"Feature","properties":{"numer":"140042K","klasa":"droga lokalna","kat":"powiatowa"},"geometry":{"type":"LineString","coordinates":[[19.852580125786165,50.40654358490566],[19.852629127821032,50.40627057356854]]}},{"type":"Feature","properties":{"numer":"140042K","klasa":"droga lokalna","kat":"powiatowa"},"geometry":{"type":"LineString","coordinates":[[19.852490969267148,50.406023711583934],[19.8518,50.40516],[19.85137,50.4044],[19.85132,50.40409]]}},{"type":"Feature","properties":{"numer":"1138K","klasa":"droga zbiorcza","kat":"powiatowa"},"geometry":{"type":"LineString","coordinates":[[19.852474722222222,50.40699],[19.85246,50.40699]]}},{"type":"Feature","properties":{"numer":"120698K","klasa":"droga zbiorcza","kat":"powiatowa"},"geometry":{"type":"LineString","coordinates":[[19.81702,50.41271],[19.81481,50.40726]]}},{"type":"Feature","properties":{"numer":"120698K","klasa":"droga zbiorcza","kat":"powiatowa"},"geometry":{"type":"LineString","coordinates":[[19.81746,50.41361],[19.81702,50.41271]]}},{"type":"Feature","properties":{"numer":"120698K","klasa":"droga zbiorcza","kat":"powiatowa"},"geometry":{"type":"LineString","coordinates":[[19.81832,50.4151],[19.81746,50.41361]]}},{"type":"Feature","properties":{"numer":"120698K","klasa":"droga zbiorcza","kat":"powiatowa"},"geometry":{"type":"LineString","coordinates":[[19.81823,50.41611],[19.81832,50.4151]]}},{"type":"Feature","properties":{"numer":"120698K","klasa":"droga zbiorcza","kat":"powiatowa"},"geometry":{"type":"LineString","coordinates":[[19.81805,50.41725],[19.81823,50.41611]]}},{"type":"Feature","properties":{"numer":"120698K","klasa":"droga zbiorcza","kat":"powiatowa"},"geometry":{"type":"LineString","coordinates":[[19.81776,50.41975],[19.81805,50.41725]]}},{"type":"Feature","properties":{"numer":"1137K","klasa":"droga zbiorcza","kat":"powiatowa"},"geometry":{"type":"LineString","coordinates":[[19.79792,50.41995],[19.80761,50.4202],[19.81776,50.41975]]}},{"type":"Feature","properties":{"numer":"120708K","klasa":"droga zbiorcza","kat":"powiatowa"},"geometry":{"type":"LineString","coordinates":[[19.77848,50.40804],[19.78631,50.40794]]}},{"type":"Feature","properties":{"numer":"120708K","klasa":"droga zbiorcza","kat":"powiatowa"},"geometry":{"type":"LineString","coordinates":[[19.7716,50.40815],[19.77848,50.40804]]}},{"type":"Feature","properties":{"numer":"1126K","klasa":"droga zbiorcza","kat":"powiatowa"},"geometry":{"type":"LineString","coordinates":[[19.77255,50.40907],[19.7716,50.40815]]}},{"type":"Feature","properties":{"numer":"","klasa":"droga zbiorcza","kat":"powiatowa"},"geometry":{"type":"LineString","coordinates":[[19.77255,50.40907],[19.77163,50.40939]]}},{"type":"Feature","properties":{"numer":"","klasa":"droga zbiorcza","kat":"powiatowa"},"geometry":{"type":"LineString","coordinates":[[19.77163,50.40939],[19.76914,50.41024],[19.76605,50.41035],[19.76571,50.41042]]}},{"type":"Feature","properties":{"numer":"","klasa":"droga zbiorcza","kat":"powiatowa"},"geometry":{"type":"LineString","coordinates":[[19.76571,50.41042],[19.76456,50.41112],[19.76386,50.41143],[19.76061,50.41242]]}},{"type":"Feature","properties":{"numer":"1126K","klasa":"droga zbiorcza","kat":"powiatowa"},"geometry":{"type":"LineString","coordinates":[[19.78289,50.41405],[19.78107,50.41331],[19.7753,50.41143],[19.77408,50.41076],[19.77255,50.40907]]}},{"type":"Feature","properties":{"numer":"","klasa":"droga zbiorcza","kat":"powiatowa"},"geometry":{"type":"LineString","coordinates":[[19.75372,50.41486],[19.75618,50.41461],[19.76061,50.41242]]}},{"type":"Feature","properties":{"numer":"","klasa":"droga zbiorcza","kat":"powiatowa"},"geometry":{"type":"LineString","coordinates":[[19.76147,50.41791],[19.76084,50.41629],[19.76061,50.41242]]}},{"type":"Feature","properties":{"numer":"","klasa":"droga zbiorcza","kat":"powiatowa"},"geometry":{"type":"LineString","coordinates":[[19.74301,50.41569],[19.75372,50.41486]]}},{"type":"Feature","properties":{"numer":"1126K","klasa":"droga zbiorcza","kat":"powiatowa"},"geometry":{"type":"LineString","coordinates":[[19.79792,50.41995],[19.78289,50.41405]]}},{"type":"Feature","properties":{"numer":"1135K","klasa":"droga zbiorcza","kat":"powiatowa"},"geometry":{"type":"LineString","coordinates":[[19.78289,50.41405],[19.7827,50.41446],[19.78281,50.41496],[19.78412,50.42011],[19.7848,50.42168]]}},{"type":"Feature","properties":{"numer":"","klasa":"droga zbiorcza","kat":"powiatowa"},"geometry":{"type":"LineString","coordinates":[[19.7616,50.41832],[19.76147,50.41791]]}},{"type":"Feature","properties":{"numer":"1132K","klasa":"droga zbiorcza","kat":"powiatowa"},"geometry":{"type":"LineString","coordinates":[[19.77968,50.42225],[19.78086,50.4219],[19.78376,50.42192],[19.7848,50.42168]]}},{"type":"Feature","properties":{"numer":"","klasa":"droga zbiorcza","kat":"powiatowa"},"geometry":{"type":"LineString","coordinates":[[19.77968,50.42225],[19.77944,50.42301],[19.77957,50.42365],[19.77933,50.42389]]}},{"type":"Feature","properties":{"numer":"1132K","klasa":"droga zbiorcza","kat":"powiatowa"},"geometry":{"type":"LineString","coordinates":[[19.74535,50.42458],[19.74582,50.42443],[19.74732,50.42364],[19.74786,50.42349],[19.7489,50.42338],[19.753,50.42331],[19.76465,50.42294],[19.76523,50.42308],[19.76598,50.42358],[19.76654,50.42374],[19.76795,50.4235],[19.77066,50.42263],[19.7729,50.4223],[19.77766,50.42218],[19.77968,50.42225]]}},{"type":"Feature","properties":{"numer":"","klasa":"droga zbiorcza","kat":"powiatowa"},"geometry":{"type":"LineString","coordinates":[[19.77933,50.42389],[19.77917,50.42412]]}},{"type":"Feature","properties":{"numer":"","klasa":"droga zbiorcza","kat":"powiatowa"},"geometry":{"type":"LineString","coordinates":[[19.77917,50.42412],[19.77913,50.42433]]}},{"type":"Feature","properties":{"numer":"","klasa":"droga zbiorcza","kat":"powiatowa"},"geometry":{"type":"LineString","coordinates":[[19.77913,50.42433],[19.77919,50.42461]]}},{"type":"Feature","properties":{"numer":"","klasa":"droga zbiorcza","kat":"powiatowa"},"geometry":{"type":"LineString","coordinates":[[19.77919,50.42461],[19.77931,50.42481]]}},{"type":"Feature","properties":{"numer":"1129K","klasa":"droga zbiorcza","kat":"powiatowa"},"geometry":{"type":"LineString","coordinates":[[19.70851,50.40684],[19.71441,50.40985],[19.72697,50.41302],[19.72724,50.41326],[19.72885,50.4174]]}},{"type":"Feature","properties":{"numer":"","klasa":"droga zbiorcza","kat":"powiatowa"},"geometry":{"type":"LineString","coordinates":[[19.73985,50.41549],[19.74179,50.41515]]}},{"type":"Feature","properties":{"numer":"","klasa":"droga zbiorcza","kat":"powiatowa"},"geometry":{"type":"LineString","coordinates":[[19.742,50.41514],[19.74301,50.41569]]}},{"type":"Feature","properties":{"numer":"","klasa":"droga zbiorcza","kat":"powiatowa"},"geometry":{"type":"LineString","coordinates":[[19.73977,50.4155],[19.73985,50.41549]]}},{"type":"Feature","properties":{"numer":"794","klasa":"droga gĹ‚Ăłwna","kat":"wojewodzka"},"geometry":{"type":"LineString","coordinates":[[19.70405,50.4251],[19.70497,50.42445],[19.70499,50.42416],[19.70392,50.42329],[19.70232,50.42147],[19.70152,50.42077],[19.70131,50.42044],[19.70133,50.41999],[19.7018,50.41924],[19.70185,50.41888],[19.70087,50.41427],[19.70083,50.4137],[19.7011,50.41302],[19.70156,50.41246],[19.70785,50.40749],[19.70851,50.40684]]}},{"type":"Feature","properties":{"numer":"","klasa":"droga zbiorcza","kat":"powiatowa"},"geometry":{"type":"LineString","coordinates":[[19.72885,50.4174],[19.73977,50.4155]]}},{"type":"Feature","properties":{"numer":"1129K","klasa":"droga zbiorcza","kat":"powiatowa"},"geometry":{"type":"LineString","coordinates":[[19.72885,50.4174],[19.73328,50.42389],[19.73367,50.42483],[19.73365,50.42503],[19.73352,50.42514],[19.73181,50.42584]]}},{"type":"Feature","properties":{"numer":"1132K","klasa":"droga zbiorcza","kat":"powiatowa"},"geometry":{"type":"LineString","coordinates":[[19.73181,50.42584],[19.73622,50.42559],[19.73938,50.42491],[19.74165,50.425],[19.74372,50.42482],[19.74535,50.42458]]}},{"type":"Feature","properties":{"numer":"1131K","klasa":"droga zbiorcza","kat":"powiatowa"},"geometry":{"type":"LineString","coordinates":[[19.70405,50.4251],[19.70615,50.42587],[19.70787,50.42686],[19.70993,50.42851],[19.71215,50.43326]]}},{"type":"Feature","properties":{"numer":"1132K","klasa":"droga zbiorcza","kat":"powiatowa"},"geometry":{"type":"LineString","coordinates":[[19.71215,50.43326],[19.71249,50.43334],[19.71304,50.43321],[19.71492,50.43235],[19.71569,50.43156],[19.71628,50.43073],[19.71768,50.4294],[19.71886,50.42867],[19.71919,50.42808],[19.71955,50.42786],[19.72392,50.4268],[19.72825,50.42591],[19.73181,50.42584]]}},{"type":"Feature","properties":{"numer":"1135K","klasa":"droga zbiorcza","kat":"powiatowa"},"geometry":{"type":"LineString","coordinates":[[19.7848,50.42168],[19.78674,50.42558],[19.78647,50.42799],[19.78653,50.42838]]}},{"type":"Feature","properties":{"numer":"","klasa":"droga zbiorcza","kat":"powiatowa"},"geometry":{"type":"LineString","coordinates":[[19.77931,50.42481],[19.77964,50.42509],[19.78032,50.42538]]}},{"type":"Feature","properties":{"numer":"","klasa":"droga zbiorcza","kat":"powiatowa"},"geometry":{"type":"LineString","coordinates":[[19.74535,50.42458],[19.74547,50.42659]]}},{"type":"Feature","properties":{"numer":"","klasa":"droga zbiorcza","kat":"powiatowa"},"geometry":{"type":"LineString","coordinates":[[19.78032,50.42538],[19.78202,50.42598]]}},{"type":"Feature","properties":{"numer":"","klasa":"droga zbiorcza","kat":"powiatowa"},"geometry":{"type":"LineString","coordinates":[[19.78202,50.42598],[19.78262,50.42648]]}},{"type":"Feature","properties":{"numer":"","klasa":"droga zbiorcza","kat":"powiatowa"},"geometry":{"type":"LineString","coordinates":[[19.78262,50.42648],[19.78294,50.42675],[19.78337,50.4269]]}},{"type":"Feature","properties":{"numer":"","klasa":"droga zbiorcza","kat":"powiatowa"},"geometry":{"type":"LineString","coordinates":[[19.78337,50.4269],[19.78453,50.42727]]}},{"type":"Feature","properties":{"numer":"1126K","klasa":"droga zbiorcza","kat":"powiatowa"},"geometry":{"type":"LineString","coordinates":[[19.81463356750557,50.43481151223063],[19.81323,50.4339],[19.8088,50.43028],[19.80821,50.42838],[19.80754,50.42709],[19.79792,50.41995]]}},{"type":"Feature","properties":{"numer":"","klasa":"droga zbiorcza","kat":"powiatowa"},"geometry":{"type":"LineString","coordinates":[[19.78453,50.42727],[19.78588,50.42802]]}},{"type":"Feature","properties":{"numer":"","klasa":"droga zbiorcza","kat":"powiatowa"},"geometry":{"type":"LineString","coordinates":[[19.78588,50.42802],[19.78653,50.42838]]}},{"type":"Feature","properties":{"numer":"1137K","klasa":"droga zbiorcza","kat":"powiatowa"},"geometry":{"type":"LineString","coordinates":[[19.81776,50.41975],[19.82082,50.41962],[19.82613,50.42023],[19.83294,50.42168]]}},{"type":"Feature","properties":{"numer":"120697K","klasa":"droga zbiorcza","kat":"powiatowa"},"geometry":{"type":"LineString","coordinates":[[19.8334,50.4267],[19.83294,50.42168]]}},{"type":"Feature","properties":{"numer":"120697K","klasa":"droga zbiorcza","kat":"powiatowa"},"geometry":{"type":"LineString","coordinates":[[19.83357,50.42834],[19.8334,50.4267]]}},{"type":"Feature","properties":{"numer":"120697K","klasa":"droga zbiorcza","kat":"powiatowa"},"geometry":{"type":"LineString","coordinates":[[19.83357,50.43305],[19.83357,50.42834]]}},{"type":"Feature","properties":{"numer":"120697K","klasa":"droga zbiorcza","kat":"powiatowa"},"geometry":{"type":"LineString","coordinates":[[19.83367,50.43614],[19.83357,50.43305]]}},{"type":"Feature","properties":{"numer":"120697K","klasa":"droga zbiorcza","kat":"powiatowa"},"geometry":{"type":"LineString","coordinates":[[19.83383,50.43666],[19.83367,50.43614]]}},{"type":"Feature","properties":{"numer":"120697K","klasa":"droga zbiorcza","kat":"powiatowa"},"geometry":{"type":"LineString","coordinates":[[19.8347,50.43897],[19.83383,50.43666]]}},{"type":"Feature","properties":{"numer":"1776S","klasa":"droga gĹ‚Ăłwna","kat":"powiatowa"},"geometry":{"type":"LineString","coordinates":[[19.83468037463977,50.43902233429395],[19.8347,50.43897]]}},{"type":"Feature","properties":{"numer":"120587K","klasa":"droga zbiorcza","kat":"powiatowa"},"geometry":{"type":"LineString","coordinates":[[19.77295,50.34906],[19.77249,50.34974],[19.77203,50.35099]]}},{"type":"Feature","properties":{"numer":"1146K","klasa":"droga zbiorcza","kat":"powiatowa"},"geometry":{"type":"LineString","coordinates":[[19.77295,50.34906],[19.77295,50.34932],[19.77313,50.34959],[19.77478,50.35037],[19.7754,50.35095],[19.77586,50.35111],[19.77717,50.35129]]}},{"type":"Feature","properties":{"numer":"120703K","klasa":"droga zbiorcza","kat":"powiatowa"},"geometry":{"type":"LineString","coordinates":[[19.79036,50.3538],[19.79513,50.34774]]}},{"type":"Feature","properties":{"numer":"120587K","klasa":"droga zbiorcza","kat":"powiatowa"},"geometry":{"type":"LineString","coordinates":[[19.77203,50.35099],[19.77153,50.35242]]}},{"type":"Feature","properties":{"numer":"794","klasa":"droga gĹ‚Ăłwna","kat":"wojewodzka"},"geometry":{"type":"LineString","coordinates":[[19.75511,50.35908],[19.75494,50.3585],[19.75456,50.35784],[19.7527,50.35607],[19.75114,50.35332],[19.74895,50.34721],[19.74719,50.34445]]}},{"type":"Feature","properties":{"numer":"1153K","klasa":"droga zbiorcza","kat":"powiatowa"},"geometry":{"type":"LineString","coordinates":[[19.77717,50.35129],[19.7823,50.35192],[19.78426,50.35209],[19.78714,50.35296]]}},{"type":"Feature","properties":{"numer":"120587K","klasa":"droga zbiorcza","kat":"powiatowa"},"geometry":{"type":"LineString","coordinates":[[19.77153,50.35242],[19.77129,50.35304],[19.77107,50.35327]]}},{"type":"Feature","properties":{"numer":"1153K","klasa":"droga zbiorcza","kat":"powiatowa"},"geometry":{"type":"LineString","coordinates":[[19.78714,50.35296],[19.78854,50.35359],[19.79036,50.3538]]}},{"type":"Feature","properties":{"numer":"120587K","klasa":"droga zbiorcza","kat":"powiatowa"},"geometry":{"type":"LineString","coordinates":[[19.77107,50.35327],[19.77077,50.3536]]}},{"type":"Feature","properties":{"numer":"120587K","klasa":"droga zbiorcza","kat":"powiatowa"},"geometry":{"type":"LineString","coordinates":[[19.77077,50.3536],[19.77052,50.35464],[19.77061,50.35533]]}},{"type":"Feature","properties":{"numer":"","klasa":"droga zbiorcza","kat":"powiatowa"},"geometry":{"type":"LineString","coordinates":[[19.68231,50.34957],[19.6822,50.34726]]}},{"type":"Feature","properties":{"numer":"","klasa":"droga lokalna","kat":"gminna"},"geometry":{"type":"LineString","coordinates":[[19.67089,50.34948],[19.67172,50.34897],[19.67201,50.34851]]}},{"type":"Feature","properties":{"numer":"","klasa":"droga zbiorcza","kat":"powiatowa"},"geometry":{"type":"LineString","coordinates":[[19.68237,50.35067],[19.68231,50.34957]]}},{"type":"Feature","properties":{"numer":"","klasa":"droga lokalna","kat":"gminna"},"geometry":{"type":"LineString","coordinates":[[19.66775,50.35167],[19.66862,50.35087],[19.67089,50.34948]]}},{"type":"Feature","properties":{"numer":"","klasa":"droga lokalna","kat":"gminna"},"geometry":{"type":"LineString","coordinates":[[19.6644,50.35505],[19.66508,50.35412],[19.66775,50.35167]]}},{"type":"Feature","properties":{"numer":"120676K","klasa":"droga zbiorcza","kat":"powiatowa"},"geometry":{"type":"LineString","coordinates":[[19.68294,50.35503],[19.68527,50.3549]]}},{"type":"Feature","properties":{"numer":"","klasa":"droga lokalna","kat":"gminna"},"geometry":{"type":"LineString","coordinates":[[19.66429,50.35522],[19.6644,50.35505]]}},{"type":"Feature","properties":{"numer":"","klasa":"droga zbiorcza","kat":"powiatowa"},"geometry":{"type":"LineString","coordinates":[[19.68527,50.3549],[19.68656,50.35634]]}},{"type":"Feature","properties":{"numer":"","klasa":"droga lokalna","kat":"gminna"},"geometry":{"type":"LineString","coordinates":[[19.66307,50.35619],[19.664,50.35556],[19.66429,50.35522]]}},{"type":"Feature","properties":{"numer":"783","klasa":"droga gĹ‚Ăłwna","kat":"wojewodzka"},"geometry":{"type":"LineString","coordinates":[[19.68879,50.34926],[19.69045,50.35231],[19.69174,50.35403]]}},{"type":"Feature","properties":{"numer":"120629K","klasa":"droga lokalna","kat":"powiatowa"},"geometry":{"type":"LineString","coordinates":[[19.69524,50.35242],[19.69724,50.35136]]}},{"type":"Feature","properties":{"numer":"120710K","klasa":"droga zbiorcza","kat":"powiatowa"},"geometry":{"type":"LineString","coordinates":[[19.69724,50.35136],[19.70082,50.35202],[19.70413,50.35286],[19.70582,50.35296]]}},{"type":"Feature","properties":{"numer":"","klasa":"droga zbiorcza","kat":"powiatowa"},"geometry":{"type":"LineString","coordinates":[[19.709,50.3529],[19.7085,50.3519]]}},{"type":"Feature","properties":{"numer":"120710K","klasa":"droga zbiorcza","kat":"powiatowa"},"geometry":{"type":"LineString","coordinates":[[19.70582,50.35296],[19.7087,50.35286],[19.709,50.3529]]}},{"type":"Feature","properties":{"numer":"120629K","klasa":"droga lokalna","kat":"powiatowa"},"geometry":{"type":"LineString","coordinates":[[19.69274,50.35382],[19.69524,50.35242]]}},{"type":"Feature","properties":{"numer":"120710K","klasa":"droga zbiorcza","kat":"powiatowa"},"geometry":{"type":"LineString","coordinates":[[19.709,50.3529],[19.70999,50.3547]]}},{"type":"Feature","properties":{"numer":"120629K","klasa":"droga lokalna","kat":"powiatowa"},"geometry":{"type":"LineString","coordinates":[[19.69174,50.35403],[19.69274,50.35382]]}},{"type":"Feature","properties":{"numer":"120710K","klasa":"droga zbiorcza","kat":"powiatowa"},"geometry":{"type":"LineString","coordinates":[[19.70999,50.3547],[19.71015,50.35491]]}},{"type":"Feature","properties":{"numer":"120710K","klasa":"droga zbiorcza","kat":"powiatowa"},"geometry":{"type":"LineString","coordinates":[[19.71015,50.35491],[19.71055,50.35498]]}},{"type":"Feature","properties":{"numer":"120710K","klasa":"droga zbiorcza","kat":"powiatowa"},"geometry":{"type":"LineString","coordinates":[[19.71055,50.35498],[19.71144,50.3552]]}},{"type":"Feature","properties":{"numer":"120710K","klasa":"droga zbiorcza","kat":"powiatowa"},"geometry":{"type":"LineString","coordinates":[[19.71319,50.35521],[19.71502,50.35514]]}},{"type":"Feature","properties":{"numer":"120710K","klasa":"droga zbiorcza","kat":"powiatowa"},"geometry":{"type":"LineString","coordinates":[[19.71144,50.3552],[19.71165,50.35521]]}},{"type":"Feature","properties":{"numer":"120710K","klasa":"droga zbiorcza","kat":"powiatowa"},"geometry":{"type":"LineString","coordinates":[[19.71186,50.35521],[19.71319,50.35521]]}},{"type":"Feature","properties":{"numer":"120710K","klasa":"droga zbiorcza","kat":"powiatowa"},"geometry":{"type":"LineString","coordinates":[[19.71165,50.35521],[19.71186,50.35521]]}},{"type":"Feature","properties":{"numer":"120710K","klasa":"droga zbiorcza","kat":"powiatowa"},"geometry":{"type":"LineString","coordinates":[[19.71502,50.35514],[19.71771,50.35512],[19.71839,50.35522],[19.71968,50.35557]]}},{"type":"Feature","properties":{"numer":"120710K","klasa":"droga zbiorcza","kat":"powiatowa"},"geometry":{"type":"LineString","coordinates":[[19.71968,50.35557],[19.72104,50.35593]]}},{"type":"Feature","properties":{"numer":"120710K","klasa":"droga zbiorcza","kat":"powiatowa"},"geometry":{"type":"LineString","coordinates":[[19.72104,50.35593],[19.72224,50.35615]]}},{"type":"Feature","properties":{"numer":"120710K","klasa":"droga zbiorcza","kat":"powiatowa"},"geometry":{"type":"LineString","coordinates":[[19.72224,50.35615],[19.73326,50.35749]]}},{"type":"Feature","properties":{"numer":"","klasa":"droga zbiorcza","kat":"powiatowa"},"geometry":{"type":"LineString","coordinates":[[19.68656,50.35634],[19.68878,50.35889]]}},{"type":"Feature","properties":{"numer":"120587K","klasa":"droga zbiorcza","kat":"powiatowa"},"geometry":{"type":"LineString","coordinates":[[19.77061,50.35533],[19.77069,50.35575]]}},{"type":"Feature","properties":{"numer":"120587K","klasa":"droga zbiorcza","kat":"powiatowa"},"geometry":{"type":"LineString","coordinates":[[19.77069,50.35575],[19.77069,50.35702]]}},{"type":"Feature","properties":{"numer":"120587K","klasa":"droga zbiorcza","kat":"powiatowa"},"geometry":{"type":"LineString","coordinates":[[19.77069,50.35702],[19.77075,50.35808]]}},{"type":"Feature","properties":{"numer":"1123K","klasa":"droga zbiorcza","kat":"powiatowa"},"geometry":{"type":"LineString","coordinates":[[19.77086,50.36235],[19.77287,50.36304],[19.77585,50.36338],[19.7767,50.36336],[19.77901,50.36309],[19.77947,50.36295],[19.77998,50.36268],[19.78224,50.36091],[19.78588,50.35757],[19.78623,50.3569],[19.78714,50.35296]]}},{"type":"Feature","properties":{"numer":"120587K","klasa":"droga zbiorcza","kat":"powiatowa"},"geometry":{"type":"LineString","coordinates":[[19.77075,50.35808],[19.77077,50.35832]]}},{"type":"Feature","properties":{"numer":"120587K","klasa":"droga zbiorcza","kat":"powiatowa"},"geometry":{"type":"LineString","coordinates":[[19.77077,50.35832],[19.77078,50.35867]]}},{"type":"Feature","properties":{"numer":"120710K","klasa":"droga zbiorcza","kat":"powiatowa"},"geometry":{"type":"LineString","coordinates":[[19.74578,50.35864],[19.75,50.35858]]}},{"type":"Feature","properties":{"numer":"120710K","klasa":"droga zbiorcza","kat":"powiatowa"},"geometry":{"type":"LineString","coordinates":[[19.75,50.35858],[19.75124,50.35856],[19.75234,50.35868]]}},{"type":"Feature","properties":{"numer":"120710K","klasa":"droga zbiorcza","kat":"powiatowa"},"geometry":{"type":"LineString","coordinates":[[19.74338,50.35862],[19.74578,50.35864]]}},{"type":"Feature","properties":{"numer":"120710K","klasa":"droga zbiorcza","kat":"powiatowa"},"geometry":{"type":"LineString","coordinates":[[19.75234,50.35868],[19.75291,50.35876]]}},{"type":"Feature","properties":{"numer":"120710K","klasa":"droga zbiorcza","kat":"powiatowa"},"geometry":{"type":"LineString","coordinates":[[19.73326,50.35749],[19.73684,50.35796],[19.73893,50.35811]]}},{"type":"Feature","properties":{"numer":"783","klasa":"droga gĹ‚Ăłwna","kat":"wojewodzka"},"geometry":{"type":"LineString","coordinates":[[19.69174,50.35403],[19.69758,50.3615],[19.69804,50.36198],[19.69848,50.36224]]}},{"type":"Feature","properties":{"numer":"120710K","klasa":"droga zbiorcza","kat":"powiatowa"},"geometry":{"type":"LineString","coordinates":[[19.73893,50.35811],[19.74026,50.35829]]}},{"type":"Feature","properties":{"numer":"120710K","klasa":"droga zbiorcza","kat":"powiatowa"},"geometry":{"type":"LineString","coordinates":[[19.74026,50.35829],[19.74148,50.35847],[19.74338,50.35862]]}},{"type":"Feature","properties":{"numer":"","klasa":"droga zbiorcza","kat":"powiatowa"},"geometry":{"type":"LineString","coordinates":[[19.68878,50.35889],[19.69207,50.36263],[19.69232,50.3628]]}},{"type":"Feature","properties":{"numer":"1121K","klasa":"droga zbiorcza","kat":"powiatowa"},"geometry":{"type":"LineString","coordinates":[[19.71015,50.35491],[19.71,50.35508],[19.71013,50.35628],[19.71055,50.35711],[19.7109,50.35832],[19.7114,50.35893],[19.71238,50.35961],[19.71623,50.36118],[19.71682,50.3615],[19.71858,50.3629],[19.71936,50.36514],[19.72027,50.3665],[19.71968,50.36862]]}},{"type":"Feature","properties":{"numer":"","klasa":"droga zbiorcza","kat":"powiatowa"},"geometry":{"type":"LineString","coordinates":[[19.69808,50.36262],[19.69848,50.36224]]}},{"type":"Feature","properties":{"numer":"","klasa":"droga zbiorcza","kat":"powiatowa"},"geometry":{"type":"LineString","coordinates":[[19.69624,50.36339],[19.69723,50.36313],[19.69771,50.36291],[19.69808,50.36262]]}},{"type":"Feature","properties":{"numer":"1117K","klasa":"droga zbiorcza","kat":"powiatowa"},"geometry":{"type":"LineString","coordinates":[[19.69232,50.3628],[19.69382,50.36298],[19.69582,50.36355]]}},{"type":"Feature","properties":{"numer":"","klasa":"droga zbiorcza","kat":"powiatowa"},"geometry":{"type":"LineString","coordinates":[[19.69618,50.36341],[19.69624,50.36339]]}},{"type":"Feature","properties":{"numer":"120710K","klasa":"droga zbiorcza","kat":"powiatowa"},"geometry":{"type":"LineString","coordinates":[[19.75291,50.35876],[19.75331,50.35882]]}},{"type":"Feature","properties":{"numer":"120710K","klasa":"droga zbiorcza","kat":"powiatowa"},"geometry":{"type":"LineString","coordinates":[[19.75331,50.35882],[19.7538,50.35889]]}},{"type":"Feature","properties":{"numer":"120710K","klasa":"droga zbiorcza","kat":"powiatowa"},"geometry":{"type":"LineString","coordinates":[[19.7538,50.35889],[19.75511,50.35908]]}},{"type":"Feature","properties":{"numer":"120587K","klasa":"droga zbiorcza","kat":"powiatowa"},"geometry":{"type":"LineString","coordinates":[[19.77078,50.35867],[19.77069,50.36007]]}},{"type":"Feature","properties":{"numer":"1123K","klasa":"droga zbiorcza","kat":"powiatowa"},"geometry":{"type":"LineString","coordinates":[[19.75511,50.35908],[19.75937,50.35965],[19.76723,50.36106],[19.76944,50.36179],[19.77086,50.36235]]}},{"type":"Feature","properties":{"numer":"120587K","klasa":"droga zbiorcza","kat":"powiatowa"},"geometry":{"type":"LineString","coordinates":[[19.77069,50.36007],[19.77096,50.36127],[19.77086,50.36235]]}},{"type":"Feature","properties":{"numer":"120587K","klasa":"droga zbiorcza","kat":"powiatowa"},"geometry":{"type":"LineString","coordinates":[[19.77045,50.36352],[19.77086,50.36235]]}},{"type":"Feature","properties":{"numer":"794","klasa":"droga gĹ‚Ăłwna","kat":"wojewodzka"},"geometry":{"type":"LineString","coordinates":[[19.7555,50.36904],[19.75597,50.36604],[19.75511,50.35908]]}},{"type":"Feature","properties":{"numer":"120587K","klasa":"droga zbiorcza","kat":"powiatowa"},"geometry":{"type":"LineString","coordinates":[[19.76917,50.36754],[19.7691,50.36733],[19.77045,50.36352]]}},{"type":"Feature","properties":{"numer":"120587K","klasa":"droga zbiorcza","kat":"powiatowa"},"geometry":{"type":"LineString","coordinates":[[19.76934,50.36766],[19.76917,50.36754]]}},{"type":"Feature","properties":{"numer":"1116K","klasa":"droga zbiorcza","kat":"powiatowa"},"geometry":{"type":"LineString","coordinates":[[19.66291428357089,50.35626549887472],[19.66307,50.35619]]}},{"type":"Feature","properties":{"numer":"1117K","klasa":"droga zbiorcza","kat":"powiatowa"},"geometry":{"type":"LineString","coordinates":[[19.666567741068,50.364230752977335],[19.66723,50.36401],[19.66771,50.36395],[19.67693,50.36357],[19.67969,50.36374],[19.68103,50.36376],[19.68562,50.36345],[19.68681,50.36334],[19.68817,50.36308],[19.69232,50.3628]]}},{"type":"Feature","properties":{"numer":"","klasa":"droga zbiorcza","kat":"powiatowa"},"geometry":{"type":"LineString","coordinates":[[19.69582,50.36355],[19.69618,50.36341]]}},{"type":"Feature","properties":{"numer":"","klasa":"droga zbiorcza","kat":"powiatowa"},"geometry":{"type":"LineString","coordinates":[[19.69567,50.36396],[19.69582,50.36355]]}},{"type":"Feature","properties":{"numer":"","klasa":"droga zbiorcza","kat":"powiatowa"},"geometry":{"type":"LineString","coordinates":[[19.69567,50.36396],[19.69544,50.36561]]}},{"type":"Feature","properties":{"numer":"783","klasa":"droga gĹ‚Ăłwna","kat":"wojewodzka"},"geometry":{"type":"LineString","coordinates":[[19.69848,50.36224],[19.69945,50.36261],[19.71332,50.36696],[19.71968,50.36862]]}},{"type":"Feature","properties":{"numer":"","klasa":"droga zbiorcza","kat":"powiatowa"},"geometry":{"type":"LineString","coordinates":[[19.69544,50.36561],[19.69474,50.36944]]}},{"type":"Feature","properties":{"numer":"1121K,783","klasa":"droga gĹ‚Ăłwna","kat":"powiatowa"},"geometry":{"type":"LineString","coordinates":[[19.71968,50.36862],[19.72307,50.36938]]}},{"type":"Feature","properties":{"numer":"1121K","klasa":"droga zbiorcza","kat":"powiatowa"},"geometry":{"type":"LineString","coordinates":[[19.72305,50.37099],[19.72279,50.36994],[19.72307,50.36938]]}},{"type":"Feature","properties":{"numer":"","klasa":"droga zbiorcza","kat":"powiatowa"},"geometry":{"type":"LineString","coordinates":[[19.7124,50.3707],[19.71598,50.37112]]}},{"type":"Feature","properties":{"numer":"1121K","klasa":"droga zbiorcza","kat":"powiatowa"},"geometry":{"type":"LineString","coordinates":[[19.72305,50.37099],[19.72307,50.37106]]}},{"type":"Feature","properties":{"numer":"","klasa":"droga zbiorcza","kat":"powiatowa"},"geometry":{"type":"LineString","coordinates":[[19.69474,50.36944],[19.69417,50.37264],[19.69428,50.37288]]}},{"type":"Feature","properties":{"numer":"120587K","klasa":"droga zbiorcza","kat":"powiatowa"},"geometry":{"type":"LineString","coordinates":[[19.76984,50.36783],[19.76934,50.36766]]}},{"type":"Feature","properties":{"numer":"120587K","klasa":"droga zbiorcza","kat":"powiatowa"},"geometry":{"type":"LineString","coordinates":[[19.77014,50.36798],[19.76984,50.36783]]}},{"type":"Feature","properties":{"numer":"120587K","klasa":"droga zbiorcza","kat":"powiatowa"},"geometry":{"type":"LineString","coordinates":[[19.77014,50.36798],[19.77024,50.3681]]}},{"type":"Feature","properties":{"numer":"120587K","klasa":"droga zbiorcza","kat":"powiatowa"},"geometry":{"type":"LineString","coordinates":[[19.77029,50.36824],[19.77024,50.3681]]}},{"type":"Feature","properties":{"numer":"120587K","klasa":"droga zbiorcza","kat":"powiatowa"},"geometry":{"type":"LineString","coordinates":[[19.77053,50.36845],[19.77029,50.36824]]}},{"type":"Feature","properties":{"numer":"120587K","klasa":"droga zbiorcza","kat":"powiatowa"},"geometry":{"type":"LineString","coordinates":[[19.77075,50.36877],[19.77053,50.36845]]}},{"type":"Feature","properties":{"numer":"783","klasa":"droga gĹ‚Ăłwna","kat":"wojewodzka"},"geometry":{"type":"LineString","coordinates":[[19.77024,50.3681],[19.76366,50.36834],[19.75543,50.36945]]}},{"type":"Feature","properties":{"numer":"794","klasa":"droga gĹ‚Ăłwna","kat":"wojewodzka"},"geometry":{"type":"LineString","coordinates":[[19.75545,50.36932],[19.7555,50.36904]]}},{"type":"Feature","properties":{"numer":"120587K","klasa":"droga zbiorcza","kat":"powiatowa"},"geometry":{"type":"LineString","coordinates":[[19.77119,50.3698],[19.77075,50.36877]]}},{"type":"Feature","properties":{"numer":"794","klasa":"droga gĹ‚Ăłwna","kat":"wojewodzka"},"geometry":{"type":"LineString","coordinates":[[19.75545,50.36932],[19.75543,50.36945]]}},{"type":"Feature","properties":{"numer":"783","klasa":"droga gĹ‚Ăłwna","kat":"wojewodzka"},"geometry":{"type":"LineString","coordinates":[[19.79472,50.38048],[19.79871,50.37848],[19.80195,50.37739]]}},{"type":"Feature","properties":{"numer":"","klasa":"droga zbiorcza","kat":"powiatowa"},"geometry":{"type":"LineString","coordinates":[[19.75888,50.3791],[19.75855,50.37931]]}},{"type":"Feature","properties":{"numer":"","klasa":"droga zbiorcza","kat":"powiatowa"},"geometry":{"type":"LineString","coordinates":[[19.75855,50.37931],[19.75842,50.37942]]}},{"type":"Feature","properties":{"numer":"","klasa":"droga zbiorcza","kat":"powiatowa"},"geometry":{"type":"LineString","coordinates":[[19.75793,50.37949],[19.75842,50.37942]]}},{"type":"Feature","properties":{"numer":"","klasa":"droga zbiorcza","kat":"powiatowa"},"geometry":{"type":"LineString","coordinates":[[19.76214,50.38027],[19.76223,50.37979]]}},{"type":"Feature","properties":{"numer":"","klasa":"droga zbiorcza","kat":"powiatowa"},"geometry":{"type":"LineString","coordinates":[[19.76211,50.38041],[19.76214,50.38027]]}},{"type":"Feature","properties":{"numer":"783","klasa":"droga gĹ‚Ăłwna","kat":"wojewodzka"},"geometry":{"type":"LineString","coordinates":[[19.79472,50.38048],[19.79424,50.38061]]}},{"type":"Feature","properties":{"numer":"","klasa":"droga zbiorcza","kat":"powiatowa"},"geometry":{"type":"LineString","coordinates":[[19.76203,50.38078],[19.76211,50.38041]]}},{"type":"Feature","properties":{"numer":"","klasa":"droga zbiorcza","kat":"powiatowa"},"geometry":{"type":"LineString","coordinates":[[19.79424,50.38061],[19.79373,50.38078]]}},{"type":"Feature","properties":{"numer":"794","klasa":"droga gĹ‚Ăłwna","kat":"wojewodzka"},"geometry":{"type":"LineString","coordinates":[[19.7592,50.38206],[19.75842,50.37942]]}},{"type":"Feature","properties":{"numer":"120700K","klasa":"droga zbiorcza","kat":"powiatowa"},"geometry":{"type":"LineString","coordinates":[[19.8375,50.37935],[19.8381,50.37917],[19.8385,50.37915]]}},{"type":"Feature","properties":{"numer":"120700K","klasa":"droga zbiorcza","kat":"powiatowa"},"geometry":{"type":"LineString","coordinates":[[19.83715,50.37947],[19.8375,50.37935]]}},{"type":"Feature","properties":{"numer":"120664K","klasa":"droga lokalna","kat":"powiatowa"},"geometry":{"type":"LineString","coordinates":[[19.83428,50.38033],[19.8343,50.37922],[19.83375,50.37889],[19.83347,50.37885]]}},{"type":"Feature","properties":{"numer":"120700K","klasa":"droga zbiorcza","kat":"powiatowa"},"geometry":{"type":"LineString","coordinates":[[19.81748,50.3794],[19.81753,50.38019]]}},{"type":"Feature","properties":{"numer":"120700K","klasa":"droga zbiorcza","kat":"powiatowa"},"geometry":{"type":"LineString","coordinates":[[19.83608,50.38029],[19.83611,50.38],[19.83627,50.3798],[19.83715,50.37947]]}},{"type":"Feature","properties":{"numer":"120700K","klasa":"droga zbiorcza","kat":"powiatowa"},"geometry":{"type":"LineString","coordinates":[[19.81753,50.38019],[19.81788,50.38049],[19.81953,50.38118]]}},{"type":"Feature","properties":{"numer":"120700K","klasa":"droga zbiorcza","kat":"powiatowa"},"geometry":{"type":"LineString","coordinates":[[19.83524,50.38161],[19.83545,50.38151],[19.83597,50.3809],[19.83608,50.38029]]}},{"type":"Feature","properties":{"numer":"120664K","klasa":"droga lokalna","kat":"powiatowa"},"geometry":{"type":"LineString","coordinates":[[19.83424,50.3816],[19.83428,50.38033]]}},{"type":"Feature","properties":{"numer":"120700K","klasa":"droga zbiorcza","kat":"powiatowa"},"geometry":{"type":"LineString","coordinates":[[19.82936,50.38123],[19.83099,50.38139]]}},{"type":"Feature","properties":{"numer":"120700K","klasa":"droga zbiorcza","kat":"powiatowa"},"geometry":{"type":"LineString","coordinates":[[19.83099,50.38139],[19.83151,50.38145]]}},{"type":"Feature","properties":{"numer":"","klasa":"droga zbiorcza","kat":"powiatowa"},"geometry":{"type":"LineString","coordinates":[[19.76202,50.38081],[19.76203,50.38078]]}},{"type":"Feature","properties":{"numer":"","klasa":"droga zbiorcza","kat":"powiatowa"},"geometry":{"type":"LineString","coordinates":[[19.76193,50.38127],[19.76202,50.38081]]}},{"type":"Feature","properties":{"numer":"","klasa":"droga zbiorcza","kat":"powiatowa"},"geometry":{"type":"LineString","coordinates":[[19.79112,50.38153],[19.79373,50.38078]]}},{"type":"Feature","properties":{"numer":"","klasa":"droga zbiorcza","kat":"powiatowa"},"geometry":{"type":"LineString","coordinates":[[19.76183,50.38178],[19.76193,50.38127]]}},{"type":"Feature","properties":{"numer":"","klasa":"droga zbiorcza","kat":"powiatowa"},"geometry":{"type":"LineString","coordinates":[[19.78904,50.38211],[19.79112,50.38153]]}},{"type":"Feature","properties":{"numer":"","klasa":"droga zbiorcza","kat":"powiatowa"},"geometry":{"type":"LineString","coordinates":[[19.76174,50.38225],[19.76183,50.38178]]}},{"type":"Feature","properties":{"numer":"794","klasa":"droga gĹ‚Ăłwna","kat":"wojewodzka"},"geometry":{"type":"LineString","coordinates":[[19.7592,50.38211],[19.7592,50.38206]]}},{"type":"Feature","properties":{"numer":"","klasa":"droga zbiorcza","kat":"powiatowa"},"geometry":{"type":"LineString","coordinates":[[19.76173,50.38229],[19.76174,50.38225]]}},{"type":"Feature","properties":{"numer":"","klasa":"droga zbiorcza","kat":"powiatowa"},"geometry":{"type":"LineString","coordinates":[[19.76171,50.38237],[19.76173,50.38229]]}},{"type":"Feature","properties":{"numer":"","klasa":"droga zbiorcza","kat":"powiatowa"},"geometry":{"type":"LineString","coordinates":[[19.78701,50.38268],[19.78904,50.38211]]}},{"type":"Feature","properties":{"numer":"","klasa":"droga zbiorcza","kat":"powiatowa"},"geometry":{"type":"LineString","coordinates":[[19.76165,50.38267],[19.76171,50.38237]]}},{"type":"Feature","properties":{"numer":"","klasa":"droga zbiorcza","kat":"powiatowa"},"geometry":{"type":"LineString","coordinates":[[19.76164,50.38275],[19.76165,50.38267]]}},{"type":"Feature","properties":{"numer":"","klasa":"droga zbiorcza","kat":"powiatowa"},"geometry":{"type":"LineString","coordinates":[[19.76162,50.38288],[19.76164,50.38275]]}},{"type":"Feature","properties":{"numer":"","klasa":"droga zbiorcza","kat":"powiatowa"},"geometry":{"type":"LineString","coordinates":[[19.78561,50.38308],[19.78701,50.38268]]}},{"type":"Feature","properties":{"numer":"","klasa":"droga zbiorcza","kat":"powiatowa"},"geometry":{"type":"LineString","coordinates":[[19.78406,50.38352],[19.78561,50.38308]]}},{"type":"Feature","properties":{"numer":"","klasa":"droga zbiorcza","kat":"powiatowa"},"geometry":{"type":"LineString","coordinates":[[19.78316,50.38377],[19.78406,50.38352]]}},{"type":"Feature","properties":{"numer":"794","klasa":"droga gĹ‚Ăłwna","kat":"wojewodzka"},"geometry":{"type":"LineString","coordinates":[[19.75905,50.38519],[19.7592,50.38211]]}},{"type":"Feature","properties":{"numer":"","klasa":"droga zbiorcza","kat":"powiatowa"},"geometry":{"type":"LineString","coordinates":[[19.76116,50.38442],[19.76148,50.3836],[19.76162,50.38288]]}},{"type":"Feature","properties":{"numer":"","klasa":"droga zbiorcza","kat":"powiatowa"},"geometry":{"type":"LineString","coordinates":[[19.78227,50.38402],[19.78316,50.38377]]}},{"type":"Feature","properties":{"numer":"","klasa":"droga zbiorcza","kat":"powiatowa"},"geometry":{"type":"LineString","coordinates":[[19.78135,50.38429],[19.78227,50.38402]]}},{"type":"Feature","properties":{"numer":"","klasa":"droga zbiorcza","kat":"powiatowa"},"geometry":{"type":"LineString","coordinates":[[19.77889,50.38496],[19.78135,50.38429]]}},{"type":"Feature","properties":{"numer":"","klasa":"droga zbiorcza","kat":"powiatowa"},"geometry":{"type":"LineString","coordinates":[[19.76082,50.3853],[19.76116,50.38442]]}},{"type":"Feature","properties":{"numer":"","klasa":"droga zbiorcza","kat":"powiatowa"},"geometry":{"type":"LineString","coordinates":[[19.75326,50.38486],[19.75382,50.38488]]}},{"type":"Feature","properties":{"numer":"","klasa":"droga zbiorcza","kat":"powiatowa"},"geometry":{"type":"LineString","coordinates":[[19.75322,50.3849],[19.75326,50.38486]]}},{"type":"Feature","properties":{"numer":"","klasa":"droga zbiorcza","kat":"powiatowa"},"geometry":{"type":"LineString","coordinates":[[19.76642,50.38488],[19.76739,50.3849]]}},{"type":"Feature","properties":{"numer":"","klasa":"droga zbiorcza","kat":"powiatowa"},"geometry":{"type":"LineString","coordinates":[[19.76739,50.3849],[19.76767,50.38492]]}},{"type":"Feature","properties":{"numer":"","klasa":"droga zbiorcza","kat":"powiatowa"},"geometry":{"type":"LineString","coordinates":[[19.75382,50.38488],[19.75494,50.38498]]}},{"type":"Feature","properties":{"numer":"","klasa":"droga zbiorcza","kat":"powiatowa"},"geometry":{"type":"LineString","coordinates":[[19.75494,50.38498],[19.75519,50.38498]]}},{"type":"Feature","properties":{"numer":"","klasa":"droga zbiorcza","kat":"powiatowa"},"geometry":{"type":"LineString","coordinates":[[19.77595,50.38506],[19.77889,50.38496]]}},{"type":"Feature","properties":{"numer":"","klasa":"droga zbiorcza","kat":"powiatowa"},"geometry":{"type":"LineString","coordinates":[[19.76767,50.38492],[19.76981,50.38511],[19.77101,50.38515]]}},{"type":"Feature","properties":{"numer":"","klasa":"droga zbiorcza","kat":"powiatowa"},"geometry":{"type":"LineString","coordinates":[[19.76558,50.38524],[19.76642,50.38488]]}},{"type":"Feature","properties":{"numer":"","klasa":"droga zbiorcza","kat":"powiatowa"},"geometry":{"type":"LineString","coordinates":[[19.75519,50.38498],[19.75827,50.38516]]}},{"type":"Feature","properties":{"numer":"","klasa":"droga zbiorcza","kat":"powiatowa"},"geometry":{"type":"LineString","coordinates":[[19.77382,50.3851],[19.77595,50.38506]]}},{"type":"Feature","properties":{"numer":"","klasa":"droga zbiorcza","kat":"powiatowa"},"geometry":{"type":"LineString","coordinates":[[19.77361,50.3851],[19.77382,50.3851]]}},{"type":"Feature","properties":{"numer":"","klasa":"droga zbiorcza","kat":"powiatowa"},"geometry":{"type":"LineString","coordinates":[[19.77106,50.38515],[19.77361,50.3851]]}},{"type":"Feature","properties":{"numer":"","klasa":"droga zbiorcza","kat":"powiatowa"},"geometry":{"type":"LineString","coordinates":[[19.77101,50.38515],[19.77106,50.38515]]}},{"type":"Feature","properties":{"numer":"","klasa":"droga zbiorcza","kat":"powiatowa"},"geometry":{"type":"LineString","coordinates":[[19.75827,50.38516],[19.75905,50.38519]]}},{"type":"Feature","properties":{"numer":"","klasa":"droga zbiorcza","kat":"powiatowa"},"geometry":{"type":"LineString","coordinates":[[19.76527,50.38538],[19.76558,50.38524]]}},{"type":"Feature","properties":{"numer":"1095K","klasa":"droga zbiorcza","kat":"powiatowa"},"geometry":{"type":"LineString","coordinates":[[19.75322,50.3849],[19.75547,50.38563],[19.75712,50.38584],[19.75886,50.38591]]}},{"type":"Feature","properties":{"numer":"","klasa":"droga zbiorcza","kat":"powiatowa"},"geometry":{"type":"LineString","coordinates":[[19.76078,50.3857],[19.76082,50.3853]]}},{"type":"Feature","properties":{"numer":"1095K","klasa":"droga zbiorcza","kat":"powiatowa"},"geometry":{"type":"LineString","coordinates":[[19.71481,50.38014],[19.72167,50.37984]]}},{"type":"Feature","properties":{"numer":"1095K","klasa":"droga zbiorcza","kat":"powiatowa"},"geometry":{"type":"LineString","coordinates":[[19.7048,50.38065],[19.70564,50.38053],[19.71481,50.38014]]}},{"type":"Feature","properties":{"numer":"1095K","klasa":"droga zbiorcza","kat":"powiatowa"},"geometry":{"type":"LineString","coordinates":[[19.72167,50.37984],[19.72294,50.3798],[19.72349,50.37987],[19.72575,50.38039],[19.73073,50.38177],[19.73129,50.38176],[19.7344,50.38139],[19.74722,50.38326],[19.74773,50.38337],[19.75006,50.38427],[19.7509,50.38449],[19.75266,50.38474],[19.75322,50.3849]]}},{"type":"Feature","properties":{"numer":"","klasa":"droga zbiorcza","kat":"powiatowa"},"geometry":{"type":"LineString","coordinates":[[19.7048,50.38065],[19.70524,50.38415]]}},{"type":"Feature","properties":{"numer":"","klasa":"droga zbiorcza","kat":"powiatowa"},"geometry":{"type":"LineString","coordinates":[[19.70524,50.38415],[19.70544,50.38551]]}},{"type":"Feature","properties":{"numer":"","klasa":"droga zbiorcza","kat":"powiatowa"},"geometry":{"type":"LineString","coordinates":[[19.70544,50.38551],[19.70547,50.38576]]}},{"type":"Feature","properties":{"numer":"1120K","klasa":"droga zbiorcza","kat":"powiatowa"},"geometry":{"type":"LineString","coordinates":[[19.71388,50.39221],[19.71364,50.39066],[19.71365,50.39009],[19.71452,50.38808],[19.71582,50.38558],[19.71592,50.3851],[19.71481,50.38014]]}},{"type":"Feature","properties":{"numer":"","klasa":"droga zbiorcza","kat":"powiatowa"},"geometry":{"type":"LineString","coordinates":[[19.70547,50.38576],[19.70585,50.38803]]}},{"type":"Feature","properties":{"numer":"","klasa":"droga zbiorcza","kat":"powiatowa"},"geometry":{"type":"LineString","coordinates":[[19.70585,50.38803],[19.70746,50.38806]]}},{"type":"Feature","properties":{"numer":"","klasa":"droga zbiorcza","kat":"powiatowa"},"geometry":{"type":"LineString","coordinates":[[19.70779,50.39163],[19.71097,50.39207]]}},{"type":"Feature","properties":{"numer":"794","klasa":"droga gĹ‚Ăłwna","kat":"wojewodzka"},"geometry":{"type":"LineString","coordinates":[[19.75886,50.38591],[19.75905,50.38519]]}},{"type":"Feature","properties":{"numer":"","klasa":"droga zbiorcza","kat":"powiatowa"},"geometry":{"type":"LineString","coordinates":[[19.76433,50.38583],[19.76527,50.38538]]}},{"type":"Feature","properties":{"numer":"","klasa":"droga zbiorcza","kat":"powiatowa"},"geometry":{"type":"LineString","coordinates":[[19.76073,50.38585],[19.76078,50.3857]]}},{"type":"Feature","properties":{"numer":"","klasa":"droga zbiorcza","kat":"powiatowa"},"geometry":{"type":"LineString","coordinates":[[19.76078,50.3857],[19.76333,50.3859],[19.76416,50.38588]]}},{"type":"Feature","properties":{"numer":"","klasa":"droga zbiorcza","kat":"powiatowa"},"geometry":{"type":"LineString","coordinates":[[19.76416,50.38588],[19.76433,50.38583]]}},{"type":"Feature","properties":{"numer":"","klasa":"droga zbiorcza","kat":"powiatowa"},"geometry":{"type":"LineString","coordinates":[[19.76067,50.38644],[19.76073,50.38585]]}},{"type":"Feature","properties":{"numer":"","klasa":"droga zbiorcza","kat":"powiatowa"},"geometry":{"type":"LineString","coordinates":[[19.76058,50.38671],[19.76067,50.38644]]}},{"type":"Feature","properties":{"numer":"","klasa":"droga zbiorcza","kat":"powiatowa"},"geometry":{"type":"LineString","coordinates":[[19.76049,50.38699],[19.76058,50.38671]]}},{"type":"Feature","properties":{"numer":"794","klasa":"droga gĹ‚Ăłwna","kat":"wojewodzka"},"geometry":{"type":"LineString","coordinates":[[19.75822,50.38789],[19.75857,50.38722],[19.75886,50.38591]]}},{"type":"Feature","properties":{"numer":"","klasa":"droga zbiorcza","kat":"powiatowa"},"geometry":{"type":"LineString","coordinates":[[19.76042,50.38728],[19.76049,50.38699]]}},{"type":"Feature","properties":{"numer":"120701K","klasa":"droga zbiorcza","kat":"powiatowa"},"geometry":{"type":"LineString","coordinates":[[19.83866,50.3814],[19.83735,50.38152]]}},{"type":"Feature","properties":{"numer":"120700K","klasa":"droga zbiorcza","kat":"powiatowa"},"geometry":{"type":"LineString","coordinates":[[19.83151,50.38145],[19.83276,50.38155]]}},{"type":"Feature","properties":{"numer":"120701K","klasa":"droga zbiorcza","kat":"powiatowa"},"geometry":{"type":"LineString","coordinates":[[19.83735,50.38152],[19.83524,50.38161]]}},{"type":"Feature","properties":{"numer":"120700K","klasa":"droga zbiorcza","kat":"powiatowa"},"geometry":{"type":"LineString","coordinates":[[19.83276,50.38155],[19.83424,50.3816]]}},{"type":"Feature","properties":{"numer":"120700K","klasa":"droga zbiorcza","kat":"powiatowa"},"geometry":{"type":"LineString","coordinates":[[19.81953,50.38118],[19.82121,50.38181],[19.82202,50.38197],[19.82288,50.38198]]}},{"type":"Feature","properties":{"numer":"120700K","klasa":"droga zbiorcza","kat":"powiatowa"},"geometry":{"type":"LineString","coordinates":[[19.82288,50.38198],[19.8256,50.38164],[19.82759,50.38119],[19.82936,50.38123]]}},{"type":"Feature","properties":{"numer":"120700K","klasa":"droga zbiorcza","kat":"powiatowa"},"geometry":{"type":"LineString","coordinates":[[19.83424,50.3816],[19.83507,50.38163]]}},{"type":"Feature","properties":{"numer":"120700K","klasa":"droga zbiorcza","kat":"powiatowa"},"geometry":{"type":"LineString","coordinates":[[19.83507,50.38163],[19.83524,50.38161]]}},{"type":"Feature","properties":{"numer":"","klasa":"droga zbiorcza","kat":"powiatowa"},"geometry":{"type":"LineString","coordinates":[[19.8125,50.39087],[19.8121,50.38998],[19.81182,50.38878]]}},{"type":"Feature","properties":{"numer":"1139K","klasa":"droga zbiorcza","kat":"powiatowa"},"geometry":{"type":"LineString","coordinates":[[19.81722,50.39314],[19.81711,50.39308],[19.81338,50.39277],[19.8125,50.39087]]}},{"type":"Feature","properties":{"numer":"1095K","klasa":"droga zbiorcza","kat":"powiatowa"},"geometry":{"type":"LineString","coordinates":[[19.683423491567446,50.38141455919319],[19.68991,50.38133],[19.7048,50.38065]]}},{"type":"Feature","properties":{"numer":"","klasa":"droga zbiorcza","kat":"powiatowa"},"geometry":{"type":"LineString","coordinates":[[19.6815,50.3914],[19.68189,50.38948]]}},{"type":"Feature","properties":{"numer":"1114K","klasa":"droga zbiorcza","kat":"powiatowa"},"geometry":{"type":"LineString","coordinates":[[19.663845944083576,50.3897228671985],[19.66395,50.38997],[19.66486,50.39065],[19.66513,50.39107],[19.66512978396117,50.39107097901142]]}},{"type":"Feature","properties":{"numer":"1114K","klasa":"droga zbiorcza","kat":"powiatowa"},"geometry":{"type":"LineString","coordinates":[[19.665012982621516,50.39160028128479],[19.66434,50.39465],[19.66489,50.39486]]}},{"type":"Feature","properties":{"numer":"","klasa":"droga zbiorcza","kat":"powiatowa"},"geometry":{"type":"LineString","coordinates":[[19.68041,50.39675],[19.6815,50.3914]]}},{"type":"Feature","properties":{"numer":"1113K","klasa":"droga zbiorcza","kat":"powiatowa"},"geometry":{"type":"LineString","coordinates":[[19.645526491228072,50.39414052631579],[19.64972,50.39534],[19.64986090614886,50.395356774541526]]}},{"type":"Feature","properties":{"numer":"1113K","klasa":"droga zbiorcza","kat":"powiatowa"},"geometry":{"type":"LineString","coordinates":[[19.64998717602364,50.39537180666948],[19.65056,50.39544],[19.65536,50.39558],[19.65732,50.39511],[19.66019,50.39505],[19.66233,50.39519],[19.66303,50.39501],[19.66401,50.39505],[19.66452,50.39497]]}},{"type":"Feature","properties":{"numer":"1113K","klasa":"droga zbiorcza","kat":"powiatowa"},"geometry":{"type":"LineString","coordinates":[[19.66461,50.39495],[19.66489,50.39486]]}},{"type":"Feature","properties":{"numer":"783","klasa":"droga gĹ‚Ăłwna","kat":"wojewodzka"},"geometry":{"type":"LineString","coordinates":[[19.658749477201262,50.33657380019351],[19.67702,50.33818]]}},{"type":"Feature","properties":{"numer":"783","klasa":"droga gĹ‚Ăłwna","kat":"wojewodzka"},"geometry":{"type":"LineString","coordinates":[[19.67702,50.33818],[19.67719,50.3382]]}},{"type":"Feature","properties":{"numer":"783","klasa":"droga gĹ‚Ăłwna","kat":"wojewodzka"},"geometry":{"type":"LineString","coordinates":[[19.67719,50.3382],[19.67863,50.33841],[19.68058,50.33894],[19.68173,50.33941],[19.68309,50.3402],[19.68422,50.34113],[19.68493,50.34198],[19.68661,50.34509]]}},{"type":"Feature","properties":{"numer":"","klasa":"droga zbiorcza","kat":"powiatowa"},"geometry":{"type":"LineString","coordinates":[[19.68401,50.34515],[19.68364,50.34481]]}},{"type":"Feature","properties":{"numer":"","klasa":"droga zbiorcza","kat":"powiatowa"},"geometry":{"type":"LineString","coordinates":[[19.68283,50.34531],[19.68322,50.34494],[19.68364,50.34481]]}},{"type":"Feature","properties":{"numer":"","klasa":"droga zbiorcza","kat":"powiatowa"},"geometry":{"type":"LineString","coordinates":[[19.68401,50.34515],[19.68415,50.34529]]}},{"type":"Feature","properties":{"numer":"","klasa":"droga zbiorcza","kat":"powiatowa"},"geometry":{"type":"LineString","coordinates":[[19.68482,50.34549],[19.68661,50.34509]]}},{"type":"Feature","properties":{"numer":"","klasa":"droga zbiorcza","kat":"powiatowa"},"geometry":{"type":"LineString","coordinates":[[19.68238,50.34546],[19.68283,50.34531]]}},{"type":"Feature","properties":{"numer":"1113K","klasa":"droga zbiorcza","kat":"powiatowa"},"geometry":{"type":"LineString","coordinates":[[19.66452,50.39497],[19.66461,50.39495]]}},{"type":"Feature","properties":{"numer":"1113K","klasa":"droga zbiorcza","kat":"powiatowa"},"geometry":{"type":"LineString","coordinates":[[19.66489,50.39486],[19.66563,50.39464],[19.66616,50.3946],[19.673,50.39493],[19.67439,50.39505],[19.67517,50.3953],[19.67564,50.39559],[19.67724,50.39722],[19.67772,50.39758],[19.68008,50.39833]]}},{"type":"Feature","properties":{"numer":"","klasa":"droga zbiorcza","kat":"powiatowa"},"geometry":{"type":"LineString","coordinates":[[19.68021,50.39767],[19.68041,50.39675]]}},{"type":"Feature","properties":{"numer":"","klasa":"droga zbiorcza","kat":"powiatowa"},"geometry":{"type":"LineString","coordinates":[[19.6801,50.39821],[19.68021,50.39767]]}},{"type":"Feature","properties":{"numer":"","klasa":"droga zbiorcza","kat":"powiatowa"},"geometry":{"type":"LineString","coordinates":[[19.68008,50.39833],[19.6801,50.39821]]}},{"type":"Feature","properties":{"numer":"1113K","klasa":"droga zbiorcza","kat":"powiatowa"},"geometry":{"type":"LineString","coordinates":[[19.68008,50.39833],[19.68138,50.39871],[19.68207,50.39879]]}},{"type":"Feature","properties":{"numer":"","klasa":"droga zbiorcza","kat":"powiatowa"},"geometry":{"type":"LineString","coordinates":[[19.68078,50.39971],[19.68178,50.39923],[19.68207,50.39879]]}},{"type":"Feature","properties":{"numer":"","klasa":"droga zbiorcza","kat":"powiatowa"},"geometry":{"type":"LineString","coordinates":[[19.677,50.40136],[19.68078,50.39971]]}},{"type":"Feature","properties":{"numer":"","klasa":"droga zbiorcza","kat":"powiatowa"},"geometry":{"type":"LineString","coordinates":[[19.67696,50.40138],[19.677,50.40136]]}},{"type":"Feature","properties":{"numer":"120699K","klasa":"droga zbiorcza","kat":"powiatowa"},"geometry":{"type":"LineString","coordinates":[[19.83186,50.39637],[19.84654,50.3915],[19.850058228913813,50.390749574442204]]}},{"type":"Feature","properties":{"numer":"120698K","klasa":"droga zbiorcza","kat":"powiatowa"},"geometry":{"type":"LineString","coordinates":[[19.81631,50.39643],[19.81722,50.39314]]}},{"type":"Feature","properties":{"numer":"120699K","klasa":"droga zbiorcza","kat":"powiatowa"},"geometry":{"type":"LineString","coordinates":[[19.82992,50.39699],[19.83186,50.39637]]}},{"type":"Feature","properties":{"numer":"120698K","klasa":"droga zbiorcza","kat":"powiatowa"},"geometry":{"type":"LineString","coordinates":[[19.81617,50.3991],[19.81631,50.39643]]}},{"type":"Feature","properties":{"numer":"120699K","klasa":"droga zbiorcza","kat":"powiatowa"},"geometry":{"type":"LineString","coordinates":[[19.82445,50.39878],[19.82992,50.39699]]}},{"type":"Feature","properties":{"numer":"120699K","klasa":"droga zbiorcza","kat":"powiatowa"},"geometry":{"type":"LineString","coordinates":[[19.82358,50.39906],[19.82445,50.39878]]}},{"type":"Feature","properties":{"numer":"120699K","klasa":"droga zbiorcza","kat":"powiatowa"},"geometry":{"type":"LineString","coordinates":[[19.81444,50.39891],[19.81617,50.3991]]}},{"type":"Feature","properties":{"numer":"120699K","klasa":"droga zbiorcza","kat":"powiatowa"},"geometry":{"type":"LineString","coordinates":[[19.82207,50.39921],[19.82358,50.39906]]}},{"type":"Feature","properties":{"numer":"120699K","klasa":"droga zbiorcza","kat":"powiatowa"},"geometry":{"type":"LineString","coordinates":[[19.81617,50.3991],[19.82207,50.39921]]}},{"type":"Feature","properties":{"numer":"1137K","klasa":"droga zbiorcza","kat":"powiatowa"},"geometry":{"type":"LineString","coordinates":[[19.83294,50.42168],[19.83812,50.42275],[19.843487462997306,50.42219346581825]]}},{"type":"Feature","properties":{"numer":"794","klasa":"droga gĹ‚Ăłwna","kat":"wojewodzka"},"geometry":{"type":"LineString","coordinates":[[19.69462,50.43541],[19.69452119470785,50.43544450343535]]}},{"type":"Feature","properties":{"numer":"1135K","klasa":"droga zbiorcza","kat":"powiatowa"},"geometry":{"type":"LineString","coordinates":[[19.78653,50.42838],[19.78697,50.42915],[19.78816,50.43078],[19.79059,50.43207],[19.79169,50.43318],[19.79186,50.43526],[19.7931,50.4369],[19.79347,50.43841],[19.79348,50.43884],[19.79314,50.44019],[19.79355,50.44284]]}},{"type":"Feature","properties":{"numer":"1762S","klasa":"droga gĹ‚Ăłwna","kat":"powiatowa"},"geometry":{"type":"LineString","coordinates":[[19.793667197886485,50.443284375319585],[19.79355,50.44284]]}},{"type":"Feature","properties":{"numer":"794","klasa":"droga gĹ‚Ăłwna","kat":"wojewodzka"},"geometry":{"type":"LineString","coordinates":[[19.69462,50.43541],[19.69556,50.43467],[19.69622,50.43304],[19.69662,50.43252],[19.69961,50.43091],[19.7002,50.43039],[19.70055,50.42959],[19.7007,50.42791],[19.70177,50.4263],[19.70223,50.42599],[19.70405,50.4251]]}},{"type":"Feature","properties":{"numer":"","klasa":"droga zbiorcza","kat":"powiatowa"},"geometry":{"type":"LineString","coordinates":[[19.71215,50.43326],[19.71261,50.43437]]}}]}