{"type":"FeatureCollection","features":[{"type":"Feature","properties":{"numer":"1761K","klasa":"droga zbiorcza","kat":"powiatowa"},"geometry":{"type":"LineString","coordinates":[[19.353996049171304,49.94500182435325],[19.354056337209297,49.94502000645995]]}},{"type":"Feature","properties":{"numer":"1761K","klasa":"droga zbiorcza","kat":"powiatowa"},"geometry":{"type":"LineString","coordinates":[[19.363325852475818,49.94742872128638],[19.364498168303935,49.94763985878544]]}},{"type":"Feature","properties":{"numer":"1805K","klasa":"","kat":"powiatowa"},"geometry":{"type":"LineString","coordinates":[[19.39970850410543,49.98819993859104],[19.39975,49.98859],[19.40001,49.98919],[19.401590537623235,49.99149722158794]]}},{"type":"Feature","properties":{"numer":"1805K","klasa":"","kat":"powiatowa"},"geometry":{"type":"LineString","coordinates":[[19.40182479089466,49.99190762837481],[19.40247,49.99344],[19.403298289235224,49.99448916636462]]}},{"type":"Feature","properties":{"numer":"1895K","klasa":"droga zbiorcza","kat":"powiatowa"},"geometry":{"type":"LineString","coordinates":[[19.35434173460145,50.0396963134058],[19.3544,50.03967],[19.35685,50.03966],[19.35935,50.03979],[19.36139,50.03962],[19.36608,50.04009],[19.36685,50.0401],[19.36769,50.04001],[19.36877,50.03961],[19.36962,50.03897],[19.37003,50.0382],[19.37,50.03736]]}},{"type":"Feature","properties":{"numer":"1761K","klasa":"droga zbiorcza","kat":"powiatowa"},"geometry":{"type":"LineString","coordinates":[[19.35399787337549,49.94500098200014],[19.35402121725735,49.94500753466873]]}},{"type":"Feature","properties":{"numer":"1899K","klasa":"droga zbiorcza","kat":"powiatowa"},"geometry":{"type":"LineString","coordinates":[[19.36107,49.97767],[19.36091,49.97766]]}},{"type":"Feature","properties":{"numer":"1899K","klasa":"droga zbiorcza","kat":"powiatowa"},"geometry":{"type":"LineString","coordinates":[[19.36107,49.97767],[19.36636,49.9779]]}},{"type":"Feature","properties":{"numer":"1899K","klasa":"droga zbiorcza","kat":"powiatowa"},"geometry":{"type":"LineString","coordinates":[[19.348342182493777,49.9818493027658],[19.34867,49.98153],[19.35209,49.98103],[19.3553,49.97979],[19.35673,49.9791],[19.35811,49.97781],[19.35835,49.97769],[19.35905,49.97759],[19.36091,49.97766]]}},{"type":"Feature","properties":{"numer":"1762K","klasa":"droga zbiorcza","kat":"powiatowa"},"geometry":{"type":"LineString","coordinates":[[19.36188,49.99062],[19.36144,49.98836],[19.36139,49.98712],[19.36151,49.98659],[19.36258,49.98424],[19.366,49.98005],[19.36614,49.97864],[19.36636,49.9779]]}},{"type":"Feature","properties":{"numer":"949","klasa":"droga gĹ‚Ăłwna","kat":"wojewodzka"},"geometry":{"type":"LineString","coordinates":[[19.352199117761383,49.98820458025652],[19.35326,49.9886],[19.354173435582826,49.98920895705522]]}},{"type":"Feature","properties":{"numer":"949","klasa":"droga gĹ‚Ăłwna","kat":"wojewodzka"},"geometry":{"type":"LineString","coordinates":[[19.354409132007223,49.98932886075949],[19.35502,49.98956],[19.36188,49.99062]]}},{"type":"Feature","properties":{"numer":"44","klasa":"droga gĹ‚Ăłwna","kat":"krajowa"},"geometry":{"type":"LineString","coordinates":[[19.34942472998851,50.01625967062428],[19.34959,50.01627],[19.35047,50.01619],[19.35246,50.0159],[19.35442,50.01547],[19.35818,50.01444],[19.36085,50.01392],[19.36546,50.01215],[19.37021,50.01053],[19.37133,50.01024]]}},{"type":"Feature","properties":{"numer":"1762K","klasa":"","kat":"powiatowa"},"geometry":{"type":"LineString","coordinates":[[19.3837,49.95886],[19.383735003544093,49.95882725474908]]}},{"type":"Feature","properties":{"numer":"1762K","klasa":"droga zbiorcza","kat":"powiatowa"},"geometry":{"type":"LineString","coordinates":[[19.36636,49.9779],[19.36681,49.97688],[19.36705,49.97457],[19.36723,49.97406],[19.36906,49.97213],[19.37253,49.97025],[19.37553,49.96758],[19.38031,49.96223],[19.3837,49.95886]]}},{"type":"Feature","properties":{"numer":"949","klasa":"droga gĹ‚Ăłwna","kat":"wojewodzka"},"geometry":{"type":"LineString","coordinates":[[19.36188,49.99062],[19.36335,49.99423],[19.36401,49.99511],[19.36522,49.99731],[19.36609,49.99776],[19.36842,49.99863],[19.36942,49.9989],[19.37056,49.99961],[19.37177,49.99985],[19.37218,50.00002],[19.37237,50.00025],[19.37263,50.00102],[19.37197,50.00236],[19.372,50.00267],[19.37222,50.00315],[19.37298,50.00401],[19.3735,50.00486],[19.37397,50.0053],[19.37505,50.00598],[19.37617,50.0063]]}},{"type":"Feature","properties":{"numer":"44","klasa":"droga gĹ‚Ăłwna","kat":"krajowa"},"geometry":{"type":"LineString","coordinates":[[19.3962,50.00492],[19.39643,50.00492]]}},{"type":"Feature","properties":{"numer":"44","klasa":"droga gĹ‚Ăłwna","kat":"krajowa"},"geometry":{"type":"LineString","coordinates":[[19.37617,50.0063],[19.37706,50.00601],[19.38087,50.00508],[19.38398,50.00462],[19.38824,50.00427],[19.39212,50.00409],[19.39338,50.00412],[19.39426,50.00429],[19.39539,50.00478],[19.3962,50.00492]]}},{"type":"Feature","properties":{"numer":"44","klasa":"droga gĹ‚Ăłwna","kat":"krajowa"},"geometry":{"type":"LineString","coordinates":[[19.37473,50.00791],[19.37534,50.00745],[19.37583,50.00664],[19.37617,50.0063]]}},{"type":"Feature","properties":{"numer":"44","klasa":"droga gĹ‚Ăłwna","kat":"krajowa"},"geometry":{"type":"LineString","coordinates":[[19.37435,50.00818],[19.37473,50.00791]]}},{"type":"Feature","properties":{"numer":"44","klasa":"droga gĹ‚Ăłwna","kat":"krajowa"},"geometry":{"type":"LineString","coordinates":[[19.37133,50.01024],[19.37212,50.00996],[19.37349,50.00923],[19.37378,50.00899],[19.37408,50.00844],[19.37435,50.00818]]}},{"type":"Feature","properties":{"numer":"1895K","klasa":"droga zbiorcza","kat":"powiatowa"},"geometry":{"type":"LineString","coordinates":[[19.37133,50.01024],[19.37318,50.01179],[19.3736,50.01225],[19.37368,50.01262],[19.37348,50.01342],[19.3739,50.01427],[19.37385,50.0153],[19.37419,50.01638],[19.37409,50.01663],[19.37347,50.01723],[19.373,50.01853],[19.378,50.02722],[19.37921,50.0289],[19.3793,50.02923],[19.3792,50.02965],[19.37893,50.02995],[19.3785,50.03021]]}},{"type":"Feature","properties":{"numer":"1805K","klasa":"","kat":"powiatowa"},"geometry":{"type":"LineString","coordinates":[[19.403494418356455,49.994957598719324],[19.40343,49.99543],[19.40378,49.99726],[19.40376,49.99811],[19.404096852207292,49.99909248560461]]}},{"type":"Feature","properties":{"numer":"44","klasa":"droga gĹ‚Ăłwna","kat":"krajowa"},"geometry":{"type":"LineString","coordinates":[[19.39643,50.00492],[19.39732,50.00476],[19.40246,50.00294],[19.404589590435535,50.002474461625724]]}},{"type":"Feature","properties":{"numer":"1895K","klasa":"droga zbiorcza","kat":"powiatowa"},"geometry":{"type":"LineString","coordinates":[[19.3785,50.03021],[19.37845,50.03024]]}},{"type":"Feature","properties":{"numer":"1895K","klasa":"droga zbiorcza","kat":"powiatowa"},"geometry":{"type":"LineString","coordinates":[[19.37845,50.03024],[19.37054,50.03412],[19.36993,50.03469],[19.36967,50.03512],[19.36955,50.0356],[19.36964,50.03622]]}},{"type":"Feature","properties":{"numer":"1895K","klasa":"droga zbiorcza","kat":"powiatowa"},"geometry":{"type":"LineString","coordinates":[[19.37,50.03736],[19.36964,50.03622]]}}]}