{"type":"FeatureCollection","features":[{"type":"Feature","properties":{"numer":"1001K","klasa":"droga zbiorcza","kat":"powiatowa"},"geometry":{"type":"LineString","coordinates":[[19.26177,50.05525],[19.26311,50.05461],[19.27053,50.05266],[19.27259,50.05188],[19.27318,50.05173],[19.273189780853517,50.051728166089966]]}},{"type":"Feature","properties":{"numer":"933","klasa":"droga gĹ‚Ăłwna","kat":"wojewodzka"},"geometry":{"type":"LineString","coordinates":[[19.26058,50.05308],[19.259552395165038,50.05118743282194]]}},{"type":"Feature","properties":{"numer":"933","klasa":"droga gĹ‚Ăłwna","kat":"wojewodzka"},"geometry":{"type":"LineString","coordinates":[[19.26177,50.05525],[19.26058,50.05308]]}},{"type":"Feature","properties":{"numer":"","klasa":"droga gĹ‚Ăłwna","kat":"gminna"},"geometry":{"type":"LineString","coordinates":[[19.23523,50.06273],[19.234498140083463,50.06230117583016]]}},{"type":"Feature","properties":{"numer":"","klasa":"droga gĹ‚Ăłwna","kat":"gminna"},"geometry":{"type":"LineString","coordinates":[[19.23716,50.06384],[19.236229155719183,50.063304643962844]]}},{"type":"Feature","properties":{"numer":"","klasa":"droga gĹ‚Ăłwna","kat":"gminna"},"geometry":{"type":"LineString","coordinates":[[19.23604185815724,50.063196923603385],[19.23523,50.06273]]}},{"type":"Feature","properties":{"numer":"1001K","klasa":"droga zbiorcza","kat":"powiatowa"},"geometry":{"type":"LineString","coordinates":[[19.26069,50.07203],[19.26094,50.07172],[19.26054,50.07003],[19.25801,50.06673],[19.25798,50.06484],[19.25732,50.06333],[19.2567,50.05927],[19.25683,50.05899],[19.25841,50.05696],[19.26177,50.05525]]}},{"type":"Feature","properties":{"numer":"933","klasa":"droga gĹ‚Ăłwna","kat":"wojewodzka"},"geometry":{"type":"LineString","coordinates":[[19.26285,50.07391],[19.26387,50.07308],[19.26427,50.07252],[19.26471,50.07014],[19.2666,50.06653],[19.26672,50.0659],[19.26675,50.06472],[19.26652,50.06395],[19.26226,50.05593],[19.26177,50.05525]]}},{"type":"Feature","properties":{"numer":"","klasa":"droga gĹ‚Ăłwna","kat":"gminna"},"geometry":{"type":"LineString","coordinates":[[19.23894,50.06759],[19.23867,50.06695],[19.23813,50.06457],[19.23785,50.06426],[19.23716,50.06384]]}},{"type":"Feature","properties":{"numer":"","klasa":"droga gĹ‚Ăłwna","kat":"gminna"},"geometry":{"type":"LineString","coordinates":[[19.24762,50.07153],[19.24098,50.06928],[19.23976,50.06854],[19.23894,50.06759]]}},{"type":"Feature","properties":{"numer":"1808K","klasa":"","kat":"powiatowa"},"geometry":{"type":"LineString","coordinates":[[19.23894,50.06759],[19.23846,50.06805],[19.23747,50.06854],[19.23625,50.06875],[19.23596,50.06889],[19.23601,50.06966],[19.23636,50.07061],[19.23638,50.07203],[19.23582,50.07303],[19.23461,50.07404]]}},{"type":"Feature","properties":{"numer":"","klasa":"droga gĹ‚Ăłwna","kat":"gminna"},"geometry":{"type":"LineString","coordinates":[[19.26069,50.07203],[19.25936,50.07154],[19.25788,50.07134],[19.24895,50.07155],[19.24762,50.07153]]}},{"type":"Feature","properties":{"numer":"1900K","klasa":"droga zbiorcza","kat":"powiatowa"},"geometry":{"type":"LineString","coordinates":[[19.23461,50.07404],[19.24624,50.07186],[19.24731,50.07165],[19.24762,50.07153]]}},{"type":"Feature","properties":{"numer":"","klasa":"droga gĹ‚Ăłwna","kat":"gminna"},"geometry":{"type":"LineString","coordinates":[[19.26069,50.07203],[19.2615,50.07256],[19.26285,50.07391]]}},{"type":"Feature","properties":{"numer":"1808K,1900K","klasa":"droga zbiorcza","kat":"powiatowa"},"geometry":{"type":"LineString","coordinates":[[19.23406,50.07412],[19.23461,50.07404]]}},{"type":"Feature","properties":{"numer":"1054K","klasa":"droga zbiorcza","kat":"powiatowa"},"geometry":{"type":"LineString","coordinates":[[19.28176186046511,50.07700903654486],[19.28236,50.07624],[19.28304,50.07556],[19.28345756756757,50.07532486486486]]}},{"type":"Feature","properties":{"numer":"1054K","klasa":"droga zbiorcza","kat":"powiatowa"},"geometry":{"type":"LineString","coordinates":[[19.290644240337095,50.069875097642004],[19.290693706091965,50.06985517393518]]}},{"type":"Feature","properties":{"numer":"933","klasa":"droga gĹ‚Ăłwna","kat":"wojewodzka"},"geometry":{"type":"LineString","coordinates":[[19.26285,50.07391],[19.26333,50.0745],[19.26411,50.07516],[19.26607,50.07631],[19.26684,50.07668],[19.27589,50.07948],[19.28515,50.08336],[19.285672379252915,50.08367103497501]]}},{"type":"Feature","properties":{"numer":"1900K","klasa":"droga zbiorcza","kat":"powiatowa"},"geometry":{"type":"LineString","coordinates":[[19.23406,50.07412],[19.22563,50.0737],[19.22615,50.08062],[19.22807,50.08334],[19.23099,50.08624],[19.23125,50.08637]]}},{"type":"Feature","properties":{"numer":"1808K","klasa":"","kat":"powiatowa"},"geometry":{"type":"LineString","coordinates":[[19.23406,50.07412],[19.23245,50.08079],[19.23125,50.08637]]}},{"type":"Feature","properties":{"numer":"1900K","klasa":"droga zbiorcza","kat":"powiatowa"},"geometry":{"type":"LineString","coordinates":[[19.23125,50.08637],[19.23053,50.09553],[19.23051,50.09609],[19.23067,50.09688]]}},{"type":"Feature","properties":{"numer":"780","klasa":"droga gĹ‚Ăłwna","kat":"wojewodzka"},"geometry":{"type":"LineString","coordinates":[[19.23067,50.09688],[19.23342,50.09647],[19.23494,50.09646],[19.23671,50.09675],[19.23842,50.09734]]}},{"type":"Feature","properties":{"numer":"780","klasa":"droga gĹ‚Ăłwna","kat":"wojewodzka"},"geometry":{"type":"LineString","coordinates":[[19.22569,50.09768],[19.23067,50.09688]]}},{"type":"Feature","properties":{"numer":"780","klasa":"droga gĹ‚Ăłwna","kat":"wojewodzka"},"geometry":{"type":"LineString","coordinates":[[19.225340725856313,50.09773663905033],[19.22569,50.09768]]}},{"type":"Feature","properties":{"numer":"1900K","klasa":"droga zbiorcza","kat":"powiatowa"},"geometry":{"type":"LineString","coordinates":[[19.23067,50.09688],[19.23129,50.09842],[19.23211,50.09926]]}},{"type":"Feature","properties":{"numer":"1907K","klasa":"droga zbiorcza","kat":"powiatowa"},"geometry":{"type":"LineString","coordinates":[[19.23842,50.09734],[19.23689,50.09808],[19.23518,50.09868],[19.23273,50.09896],[19.23211,50.09926]]}},{"type":"Feature","properties":{"numer":"780","klasa":"droga gĹ‚Ăłwna","kat":"wojewodzka"},"geometry":{"type":"LineString","coordinates":[[19.23842,50.09734],[19.23947,50.09766],[19.24162,50.09798],[19.24486,50.09943],[19.24612,50.09986],[19.24656,50.09994],[19.24868,50.09999]]}},{"type":"Feature","properties":{"numer":"780","klasa":"droga gĹ‚Ăłwna","kat":"wojewodzka"},"geometry":{"type":"LineString","coordinates":[[19.26816,50.10006],[19.28230842497518,50.09660725069935]]}},{"type":"Feature","properties":{"numer":"1906K","klasa":"","kat":"powiatowa"},"geometry":{"type":"LineString","coordinates":[[19.26816,50.10006],[19.27021,50.1037]]}},{"type":"Feature","properties":{"numer":"1906K,510620K","klasa":"","kat":"powiatowa"},"geometry":{"type":"LineString","coordinates":[[19.27021,50.1037],[19.27183,50.10339],[19.27206,50.10345],[19.27279,50.1039]]}},{"type":"Feature","properties":{"numer":"1004K","klasa":"droga zbiorcza","kat":"powiatowa"},"geometry":{"type":"LineString","coordinates":[[19.2728,50.1039],[19.272854656598344,50.10397191657677]]}},{"type":"Feature","properties":{"numer":"780","klasa":"droga gĹ‚Ăłwna","kat":"wojewodzka"},"geometry":{"type":"LineString","coordinates":[[19.24868,50.09999],[19.25761,50.1002],[19.26523,50.10071],[19.26589,50.10061],[19.26816,50.10006]]}},{"type":"Feature","properties":{"numer":"1902K","klasa":"droga zbiorcza","kat":"powiatowa"},"geometry":{"type":"LineString","coordinates":[[19.24868,50.09999],[19.2494,50.10167],[19.24931,50.10265],[19.24951,50.10315]]}},{"type":"Feature","properties":{"numer":"1907K","klasa":"droga zbiorcza","kat":"powiatowa"},"geometry":{"type":"LineString","coordinates":[[19.23211,50.09926],[19.23184,50.09956],[19.23194,50.10007],[19.23299,50.10261],[19.23304,50.10266],[19.23366,50.10262],[19.23399,50.10282],[19.23786,50.10763]]}},{"type":"Feature","properties":{"numer":"1903K","klasa":"","kat":"powiatowa"},"geometry":{"type":"LineString","coordinates":[[19.23786,50.10763],[19.23933,50.10741],[19.24755,50.10503],[19.24792,50.1048],[19.24893,50.10336],[19.24915,50.10323],[19.24951,50.10315]]}},{"type":"Feature","properties":{"numer":"1902K","klasa":"droga zbiorcza","kat":"powiatowa"},"geometry":{"type":"LineString","coordinates":[[19.24951,50.10315],[19.25032,50.10411],[19.24903,50.10627],[19.24761,50.10722],[19.24507,50.10817],[19.24304,50.10908],[19.24195,50.10994],[19.24169,50.11029]]}},{"type":"Feature","properties":{"numer":"1907K","klasa":"droga zbiorcza","kat":"powiatowa"},"geometry":{"type":"LineString","coordinates":[[19.23786,50.10763],[19.23836,50.1081],[19.24101,50.10951],[19.24147,50.10994],[19.24169,50.11029]]}},{"type":"Feature","properties":{"numer":"1907K","klasa":"droga zbiorcza","kat":"powiatowa"},"geometry":{"type":"LineString","coordinates":[[19.24169,50.11029],[19.2419,50.11159],[19.24298,50.11345],[19.24453,50.11458],[19.24575,50.11666],[19.24633,50.11801],[19.24982,50.12242],[19.25021,50.12327],[19.2508,50.12679],[19.25147,50.12752],[19.25256,50.12824],[19.25338,50.12992],[19.25421,50.1305],[19.2544,50.13059]]}},{"type":"Feature","properties":{"numer":"1907K","klasa":"droga zbiorcza","kat":"powiatowa"},"geometry":{"type":"LineString","coordinates":[[19.2544,50.13059],[19.25449,50.13063]]}},{"type":"Feature","properties":{"numer":"1907K","klasa":"droga zbiorcza","kat":"powiatowa"},"geometry":{"type":"LineString","coordinates":[[19.25449,50.13063],[19.2547,50.13074],[19.25497,50.1308]]}},{"type":"Feature","properties":{"numer":"1907K","klasa":"droga zbiorcza","kat":"powiatowa"},"geometry":{"type":"LineString","coordinates":[[19.25497,50.1308],[19.2553,50.13088]]}},{"type":"Feature","properties":{"numer":"6806S","klasa":"droga zbiorcza","kat":"powiatowa"},"geometry":{"type":"LineString","coordinates":[[19.26114914170107,50.132283021212245],[19.26115,50.13228]]}},{"type":"Feature","properties":{"numer":"1907K","klasa":"droga zbiorcza","kat":"powiatowa"},"geometry":{"type":"LineString","coordinates":[[19.2553,50.13088],[19.25739,50.13138],[19.2584,50.13149],[19.2599685322977,50.13139257563368]]}},{"type":"Feature","properties":{"numer":"6806S","klasa":"droga zbiorcza","kat":"powiatowa"},"geometry":{"type":"LineString","coordinates":[[19.260953414634148,50.131428292682926],[19.260775363276085,50.13138213121973]]}},{"type":"Feature","properties":{"numer":"6806S","klasa":"droga zbiorcza","kat":"powiatowa"},"geometry":{"type":"LineString","coordinates":[[19.26115,50.13228],[19.261170571428572,50.132210057142856]]}}]}