{"type":"FeatureCollection","features":[{"type":"Feature","properties":{"numer":"1257K","klasa":"droga zbiorcza","kat":"powiatowa"},"geometry":{"type":"LineString","coordinates":[[20.32316885559636,50.234128691281654],[20.32358,50.23449],[20.32633,50.23671],[20.32936,50.23904],[20.33024,50.23966],[20.33116,50.24014]]}},{"type":"Feature","properties":{"numer":"1257K,160159K","klasa":"droga zbiorcza","kat":"powiatowa"},"geometry":{"type":"LineString","coordinates":[[20.33149,50.24031],[20.33116,50.24014]]}},{"type":"Feature","properties":{"numer":"1257K","klasa":"droga zbiorcza","kat":"powiatowa"},"geometry":{"type":"LineString","coordinates":[[20.34262,50.25042],[20.34161,50.24916],[20.33903,50.24448],[20.33503,50.24216],[20.33149,50.24031]]}},{"type":"Feature","properties":{"numer":"1257K","klasa":"droga zbiorcza","kat":"powiatowa"},"geometry":{"type":"LineString","coordinates":[[20.34341,50.25087],[20.34262,50.25042]]}},{"type":"Feature","properties":{"numer":"1253K","klasa":"droga zbiorcza","kat":"powiatowa"},"geometry":{"type":"LineString","coordinates":[[20.34262,50.25042],[20.33672,50.25013],[20.33075,50.25184],[20.32706,50.25381],[20.32644,50.25406],[20.32581,50.25419],[20.32497,50.25425],[20.32268,50.25402],[20.32197,50.25411]]}},{"type":"Feature","properties":{"numer":"1253K","klasa":"droga zbiorcza","kat":"powiatowa"},"geometry":{"type":"LineString","coordinates":[[20.32197,50.25411],[20.32105,50.25451],[20.32086,50.25473],[20.32074,50.25607],[20.32105,50.25697],[20.32055,50.25817]]}},{"type":"Feature","properties":{"numer":"1257K","klasa":"droga zbiorcza","kat":"powiatowa"},"geometry":{"type":"LineString","coordinates":[[20.35335,50.26292],[20.352,50.26176],[20.35143,50.26112],[20.35065,50.25925],[20.34868,50.25542],[20.34728,50.25387],[20.34715,50.25359],[20.34709,50.2526],[20.34697,50.25239],[20.34649,50.25209],[20.34341,50.25087]]}},{"type":"Feature","properties":{"numer":"1252K","klasa":"droga zbiorcza","kat":"powiatowa"},"geometry":{"type":"LineString","coordinates":[[20.34341,50.25087],[20.34344,50.25187],[20.3429,50.25304],[20.34078,50.25513],[20.3406,50.25541],[20.34032,50.25669],[20.34103,50.25883],[20.33934,50.26057],[20.33915,50.26088],[20.33919,50.26125],[20.34023,50.26373]]}},{"type":"Feature","properties":{"numer":"1253K,160160K","klasa":"droga zbiorcza","kat":"powiatowa"},"geometry":{"type":"LineString","coordinates":[[20.31656,50.26068],[20.31726,50.26006],[20.32055,50.25817]]}},{"type":"Feature","properties":{"numer":"1259K","klasa":"droga zbiorcza","kat":"powiatowa"},"geometry":{"type":"LineString","coordinates":[[20.32197,50.25411],[20.32166,50.254],[20.32122,50.25396],[20.31925,50.25405],[20.31609,50.25379],[20.31278,50.25326],[20.31007,50.25254],[20.30503,50.25313],[20.29975,50.25254],[20.29735,50.25245],[20.29595,50.25271],[20.2948,50.25374],[20.29292,50.2533],[20.29092,50.25335],[20.28719,50.25331],[20.28241,50.25359],[20.27739,50.25337],[20.27715,50.25326]]}},{"type":"Feature","properties":{"numer":"1251K,1259K","klasa":"droga gĹ‚Ăłwna","kat":"powiatowa"},"geometry":{"type":"LineString","coordinates":[[20.27426,50.25576],[20.27442,50.25474],[20.27453,50.25459],[20.27715,50.25326]]}},{"type":"Feature","properties":{"numer":"1251K","klasa":"droga gĹ‚Ăłwna","kat":"powiatowa"},"geometry":{"type":"LineString","coordinates":[[20.27637,50.26604],[20.27499,50.26415],[20.27446,50.26311],[20.27444,50.2627],[20.27489,50.26062],[20.27441,50.2595],[20.27418,50.2568],[20.27426,50.25576]]}},{"type":"Feature","properties":{"numer":"1253K","klasa":"droga zbiorcza","kat":"powiatowa"},"geometry":{"type":"LineString","coordinates":[[20.31542,50.27125],[20.31538,50.27071],[20.31627,50.26148],[20.31656,50.26068]]}},{"type":"Feature","properties":{"numer":"1254K","klasa":"","kat":"powiatowa"},"geometry":{"type":"LineString","coordinates":[[20.31542,50.27125],[20.31367,50.2704],[20.31162,50.2697],[20.31036,50.26942],[20.3094,50.2691],[20.30783,50.26823],[20.30698,50.26751],[20.30646,50.26735],[20.29741,50.26821],[20.29546,50.26855],[20.29281,50.26872],[20.29176,50.26781],[20.29158,50.26774],[20.28918,50.26716],[20.28766,50.26654],[20.28475,50.26565],[20.28391,50.26563],[20.2797,50.26597],[20.27637,50.26604]]}},{"type":"Feature","properties":{"numer":"1251K","klasa":"droga gĹ‚Ăłwna","kat":"powiatowa"},"geometry":{"type":"LineString","coordinates":[[20.28484,50.2813],[20.28085,50.27372],[20.27637,50.26604]]}},{"type":"Feature","properties":{"numer":"1237K","klasa":"droga zbiorcza","kat":"powiatowa"},"geometry":{"type":"LineString","coordinates":[[20.30412,50.28862],[20.3055,50.28828],[20.30623,50.28795],[20.30713,50.28731],[20.30833,50.28625],[20.31086,50.28477],[20.31155,50.28454],[20.31399,50.28423],[20.31499,50.28393],[20.3158,50.28345],[20.31643,50.28283],[20.3176,50.28223],[20.31983,50.28147],[20.32124,50.28078],[20.32308,50.28004]]}},{"type":"Feature","properties":{"numer":"1251K","klasa":"droga gĹ‚Ăłwna","kat":"powiatowa"},"geometry":{"type":"LineString","coordinates":[[20.30038,50.28804],[20.29981,50.2878],[20.29883,50.28678],[20.29811,50.28639],[20.29411,50.28556],[20.28776,50.28384],[20.28719,50.28344],[20.28484,50.2813]]}},{"type":"Feature","properties":{"numer":"160163K","klasa":"droga dojazdowa","kat":"powiatowa"},"geometry":{"type":"LineString","coordinates":[[20.30362,50.28862],[20.30297,50.28844],[20.30038,50.28804]]}},{"type":"Feature","properties":{"numer":"160163K","klasa":"droga dojazdowa","kat":"powiatowa"},"geometry":{"type":"LineString","coordinates":[[20.30362,50.28862],[20.30412,50.28862]]}},{"type":"Feature","properties":{"numer":"1206T","klasa":"droga zbiorcza","kat":"powiatowa"},"geometry":{"type":"LineString","coordinates":[[20.353386122774197,50.2629608757708],[20.35335,50.26292]]}},{"type":"Feature","properties":{"numer":"1253K","klasa":"droga zbiorcza","kat":"powiatowa"},"geometry":{"type":"LineString","coordinates":[[20.32308,50.28004],[20.3221,50.27968],[20.32162,50.27937],[20.32123,50.27873],[20.32056,50.27723],[20.31974,50.27626],[20.31899,50.27564],[20.31874,50.27533],[20.31817,50.27354],[20.31794,50.27318],[20.31766,50.27288],[20.31542,50.27125]]}},{"type":"Feature","properties":{"numer":"1252K","klasa":"droga zbiorcza","kat":"powiatowa"},"geometry":{"type":"LineString","coordinates":[[20.33422,50.2838],[20.33316,50.28124],[20.33315,50.28092],[20.33348,50.2806],[20.33435,50.28025],[20.33507,50.27984],[20.33659,50.27833],[20.33762,50.2767],[20.33776,50.27632],[20.33761,50.27612]]}},{"type":"Feature","properties":{"numer":"1253K","klasa":"droga zbiorcza","kat":"powiatowa"},"geometry":{"type":"LineString","coordinates":[[20.33404,50.28404],[20.3293,50.28197],[20.32858,50.28178],[20.32573,50.28124],[20.3247,50.28087],[20.32308,50.28004]]}},{"type":"Feature","properties":{"numer":"1252K","klasa":"droga zbiorcza","kat":"powiatowa"},"geometry":{"type":"LineString","coordinates":[[20.33404,50.28404],[20.33422,50.2838]]}},{"type":"Feature","properties":{"numer":"1252K","klasa":"droga zbiorcza","kat":"powiatowa"},"geometry":{"type":"LineString","coordinates":[[20.33436,50.28419],[20.33422,50.2838]]}},{"type":"Feature","properties":{"numer":"1253K","klasa":"droga zbiorcza","kat":"powiatowa"},"geometry":{"type":"LineString","coordinates":[[20.33436,50.28419],[20.33404,50.28404]]}},{"type":"Feature","properties":{"numer":"1252K,1253K","klasa":"droga zbiorcza","kat":"powiatowa"},"geometry":{"type":"LineString","coordinates":[[20.33466,50.28434],[20.33436,50.28419]]}},{"type":"Feature","properties":{"numer":"1253K","klasa":"droga zbiorcza","kat":"powiatowa"},"geometry":{"type":"LineString","coordinates":[[20.33678,50.28555],[20.33585,50.28487],[20.33466,50.28434]]}},{"type":"Feature","properties":{"numer":"1253K","klasa":"droga zbiorcza","kat":"powiatowa"},"geometry":{"type":"LineString","coordinates":[[20.33684,50.28558],[20.33678,50.28555]]}},{"type":"Feature","properties":{"numer":"1253K","klasa":"droga zbiorcza","kat":"powiatowa"},"geometry":{"type":"LineString","coordinates":[[20.34097,50.28715],[20.34028,50.2867],[20.33903,50.28609],[20.33684,50.28558]]}},{"type":"Feature","properties":{"numer":"1252K","klasa":"droga zbiorcza","kat":"powiatowa"},"geometry":{"type":"LineString","coordinates":[[20.33466,50.28434],[20.33193,50.28479],[20.33187,50.28521],[20.33163,50.28555],[20.33017,50.28627],[20.32996,50.28651],[20.33043,50.28735],[20.33236,50.28898],[20.33237,50.28972],[20.33169,50.29133],[20.3317,50.2924],[20.33453,50.29946],[20.3266,50.30119],[20.32524,50.30157],[20.32339,50.30189],[20.32083,50.30218]]}},{"type":"Feature","properties":{"numer":"1208T","klasa":"droga zbiorcza","kat":"powiatowa"},"geometry":{"type":"LineString","coordinates":[[20.34245767946577,50.28817080133555],[20.34097,50.28715]]}},{"type":"Feature","properties":{"numer":"1251K","klasa":"droga gĹ‚Ăłwna","kat":"powiatowa"},"geometry":{"type":"LineString","coordinates":[[20.31997,50.31006],[20.32143,50.30474],[20.32135,50.30372],[20.32083,50.30218]]}},{"type":"Feature","properties":{"numer":"","klasa":"droga lokalna","kat":"gminna"},"geometry":{"type":"LineString","coordinates":[[20.29933,50.28922],[20.2995,50.28892],[20.30026,50.2883],[20.30038,50.28804]]}},{"type":"Feature","properties":{"numer":"1237K,1251K","klasa":"droga gĹ‚Ăłwna","kat":"powiatowa"},"geometry":{"type":"LineString","coordinates":[[20.30345,50.28903],[20.30362,50.28862]]}},{"type":"Feature","properties":{"numer":"1237K,1251K","klasa":"droga gĹ‚Ăłwna","kat":"powiatowa"},"geometry":{"type":"LineString","coordinates":[[20.30343,50.28907],[20.30345,50.28903]]}},{"type":"Feature","properties":{"numer":"","klasa":"droga lokalna","kat":"gminna"},"geometry":{"type":"LineString","coordinates":[[20.29931,50.28926],[20.29933,50.28922]]}},{"type":"Feature","properties":{"numer":"","klasa":"droga lokalna","kat":"gminna"},"geometry":{"type":"LineString","coordinates":[[20.29929,50.2893],[20.29931,50.28926]]}},{"type":"Feature","properties":{"numer":"1237K,1251K","klasa":"droga gĹ‚Ăłwna","kat":"powiatowa"},"geometry":{"type":"LineString","coordinates":[[20.3029,50.28999],[20.30343,50.28907]]}},{"type":"Feature","properties":{"numer":"","klasa":"droga lokalna","kat":"gminna"},"geometry":{"type":"LineString","coordinates":[[20.29896,50.28987],[20.29891,50.28981],[20.29929,50.2893]]}},{"type":"Feature","properties":{"numer":"160162K","klasa":"droga lokalna","kat":"powiatowa"},"geometry":{"type":"LineString","coordinates":[[20.30137,50.29014],[20.30043,50.29002],[20.29906,50.28995],[20.29896,50.28987]]}},{"type":"Feature","properties":{"numer":"1237K","klasa":"droga zbiorcza","kat":"powiatowa"},"geometry":{"type":"LineString","coordinates":[[20.3029,50.28999],[20.30137,50.29014]]}},{"type":"Feature","properties":{"numer":"1251K","klasa":"droga gĹ‚Ăłwna","kat":"powiatowa"},"geometry":{"type":"LineString","coordinates":[[20.32083,50.30218],[20.31779,50.29601],[20.317,50.29421],[20.3166,50.29369],[20.31532,50.29272],[20.31456,50.29234],[20.31211,50.2916],[20.31073,50.29088],[20.30808,50.29025],[20.30651,50.29],[20.3029,50.28999]]}},{"type":"Feature","properties":{"numer":"1256K","klasa":"","kat":"powiatowa"},"geometry":{"type":"LineString","coordinates":[[20.3263,50.31347],[20.32525,50.31151],[20.32464,50.31096],[20.32423,50.31082],[20.32164,50.31044],[20.3203,50.31008],[20.31997,50.31006]]}},{"type":"Feature","properties":{"numer":"1256K","klasa":"","kat":"powiatowa"},"geometry":{"type":"LineString","coordinates":[[20.329134559648832,50.313400134093165],[20.3263,50.31347]]}},{"type":"Feature","properties":{"numer":"1255K","klasa":"","kat":"powiatowa"},"geometry":{"type":"LineString","coordinates":[[20.32855991161493,50.3178137262209],[20.3263,50.31347]]}},{"type":"Feature","properties":{"numer":"1251K","klasa":"droga gĹ‚Ăłwna","kat":"powiatowa"},"geometry":{"type":"LineString","coordinates":[[20.27715,50.25326],[20.27748,50.25286],[20.27775,50.25173],[20.27809,50.24855],[20.278122866889703,50.24716959063249]]}},{"type":"Feature","properties":{"numer":"1259K","klasa":"droga zbiorcza","kat":"powiatowa"},"geometry":{"type":"LineString","coordinates":[[20.27426,50.25576],[20.27078,50.25535],[20.26879,50.25539],[20.26554,50.25651],[20.263056567157633,50.25698213552136]]}},{"type":"Feature","properties":{"numer":"1259K","klasa":"droga zbiorcza","kat":"powiatowa"},"geometry":{"type":"LineString","coordinates":[[20.260726702491453,50.2580077234978],[20.260636459127486,50.25803576027107]]}},{"type":"Feature","properties":{"numer":"1236K","klasa":"droga zbiorcza","kat":"powiatowa"},"geometry":{"type":"LineString","coordinates":[[20.2624699614546,50.30275887500805],[20.26333,50.30216],[20.26555917205693,50.2996718369987]]}},{"type":"Feature","properties":{"numer":"1236K","klasa":"droga zbiorcza","kat":"powiatowa"},"geometry":{"type":"LineString","coordinates":[[20.265767723577238,50.29941097560976],[20.26636,50.29815],[20.266451558441556,50.297615909090915]]}},{"type":"Feature","properties":{"numer":"1236K","klasa":"droga zbiorcza","kat":"powiatowa"},"geometry":{"type":"LineString","coordinates":[[20.26720336353488,50.2953181372829],[20.26727,50.29516],[20.26771,50.29354],[20.26832,50.29246],[20.27044,50.29057],[20.27291,50.28743],[20.2732,50.28721],[20.274,50.28684],[20.27469,50.28533],[20.27608,50.28449],[20.27676,50.28399],[20.27667,50.28361],[20.27676,50.2834],[20.278,50.2834],[20.28056,50.28263],[20.28296,50.28226],[20.28484,50.2813]]}},{"type":"Feature","properties":{"numer":"1237K","klasa":"droga zbiorcza","kat":"powiatowa"},"geometry":{"type":"LineString","coordinates":[[20.30137,50.29014],[20.29807,50.29066],[20.29357,50.293],[20.29274,50.29334],[20.27902,50.2966],[20.27895,50.29688],[20.27939,50.29916],[20.28195,50.30341],[20.28253,50.30419],[20.28274,50.3058],[20.28475,50.30813],[20.28486,50.30842],[20.28485,50.30888],[20.28478,50.30922],[20.28461584978242,50.309423546269805]]}},{"type":"Feature","properties":{"numer":"1251K","klasa":"droga gĹ‚Ăłwna","kat":"powiatowa"},"geometry":{"type":"LineString","coordinates":[[20.31253,50.32202],[20.31122,50.32081],[20.30982,50.32014],[20.30896,50.31927],[20.30885,50.31878],[20.30908,50.31792],[20.30984,50.31715],[20.31345,50.31536],[20.31534,50.31405],[20.31601,50.31374],[20.31844,50.31288],[20.31866,50.31262],[20.31882,50.31216],[20.31894,50.31056],[20.31914,50.31039],[20.31997,50.31006]]}}]}