{"type":"FeatureCollection","features":[{"type":"Feature","properties":{"numer":"420136K","klasa":"droga lokalna","kat":"powiatowa"},"geometry":{"type":"LineString","coordinates":[[19.9654,49.28142],[19.96474,49.28136],[19.96456,49.28142]]}},{"type":"Feature","properties":{"numer":"420211K","klasa":"droga lokalna","kat":"powiatowa"},"geometry":{"type":"LineString","coordinates":[[19.96456,49.28142],[19.96452,49.28163]]}},{"type":"Feature","properties":{"numer":"420136K","klasa":"droga lokalna","kat":"powiatowa"},"geometry":{"type":"LineString","coordinates":[[19.9654,49.28142],[19.96866,49.28181]]}},{"type":"Feature","properties":{"numer":"420136K","klasa":"droga lokalna","kat":"powiatowa"},"geometry":{"type":"LineString","coordinates":[[19.96866,49.28181],[19.96955,49.2821],[19.97016,49.28243]]}},{"type":"Feature","properties":{"numer":"420211K","klasa":"droga lokalna","kat":"powiatowa"},"geometry":{"type":"LineString","coordinates":[[19.96452,49.28163],[19.96472,49.28293]]}},{"type":"Feature","properties":{"numer":"420136K","klasa":"droga lokalna","kat":"powiatowa"},"geometry":{"type":"LineString","coordinates":[[19.97022,49.28247],[19.97016,49.28243]]}},{"type":"Feature","properties":{"numer":"420136K","klasa":"droga lokalna","kat":"powiatowa"},"geometry":{"type":"LineString","coordinates":[[19.97179,49.2834],[19.97022,49.28247]]}},{"type":"Feature","properties":{"numer":"420237K","klasa":"droga lokalna","kat":"powiatowa"},"geometry":{"type":"LineString","coordinates":[[19.96508,49.28299],[19.96472,49.28293]]}},{"type":"Feature","properties":{"numer":"420237K","klasa":"droga lokalna","kat":"powiatowa"},"geometry":{"type":"LineString","coordinates":[[19.9655,49.28412],[19.96508,49.28299]]}},{"type":"Feature","properties":{"numer":"420136K","klasa":"droga lokalna","kat":"powiatowa"},"geometry":{"type":"LineString","coordinates":[[19.97346,49.28441],[19.97179,49.2834]]}},{"type":"Feature","properties":{"numer":"1648K","klasa":"droga zbiorcza","kat":"powiatowa"},"geometry":{"type":"LineString","coordinates":[[20.01079,49.28327],[20.01084,49.28329]]}},{"type":"Feature","properties":{"numer":"1648K","klasa":"droga zbiorcza","kat":"powiatowa"},"geometry":{"type":"LineString","coordinates":[[19.9983,49.28381],[19.99849,49.28384]]}},{"type":"Feature","properties":{"numer":"1648K","klasa":"droga zbiorcza","kat":"powiatowa"},"geometry":{"type":"LineString","coordinates":[[19.99849,49.28384],[19.99926,49.2841],[20.00045,49.2847],[20.00068,49.28471],[20.00091,49.28463],[20.00099,49.28446],[20.00075,49.28408],[20.00052,49.28389],[19.9991,49.28321],[19.99907,49.28296],[19.99924,49.28287],[19.99951,49.28287],[20.00085,49.28332],[20.00201,49.28343],[20.00239,49.28367],[20.00282,49.28412],[20.0029,49.2848],[20.00301,49.28498]]}},{"type":"Feature","properties":{"numer":"1648K","klasa":"droga zbiorcza","kat":"powiatowa"},"geometry":{"type":"LineString","coordinates":[[19.99313,49.28365],[19.99469,49.28427],[19.9951,49.28435],[19.9983,49.28381]]}},{"type":"Feature","properties":{"numer":"1648K","klasa":"droga zbiorcza","kat":"powiatowa"},"geometry":{"type":"LineString","coordinates":[[20.00374,49.2851],[20.00548,49.28481],[20.00579,49.28462],[20.0065,49.28385],[20.00775,49.28326],[20.00957,49.28311],[20.01079,49.28327]]}},{"type":"Feature","properties":{"numer":"1648K","klasa":"droga zbiorcza","kat":"powiatowa"},"geometry":{"type":"LineString","coordinates":[[19.98095,49.28508],[19.98331,49.28529],[19.98537,49.2848],[19.99266,49.28367],[19.99313,49.28365]]}},{"type":"Feature","properties":{"numer":"1648K","klasa":"droga zbiorcza","kat":"powiatowa"},"geometry":{"type":"LineString","coordinates":[[20.00301,49.28498],[20.00338,49.28511],[20.00374,49.2851]]}},{"type":"Feature","properties":{"numer":"1648K","klasa":"droga zbiorcza","kat":"powiatowa"},"geometry":{"type":"LineString","coordinates":[[19.98059,49.28508],[19.98095,49.28508]]}},{"type":"Feature","properties":{"numer":"1648K","klasa":"droga zbiorcza","kat":"powiatowa"},"geometry":{"type":"LineString","coordinates":[[19.98033,49.28517],[19.98059,49.28508]]}},{"type":"Feature","properties":{"numer":"420155K","klasa":"droga lokalna","kat":"powiatowa"},"geometry":{"type":"LineString","coordinates":[[19.98033,49.28517],[19.98002,49.28526]]}},{"type":"Feature","properties":{"numer":"420136K","klasa":"","kat":"powiatowa"},"geometry":{"type":"LineString","coordinates":[[19.9737,49.28455],[19.97346,49.28441]]}},{"type":"Feature","properties":{"numer":"420261K","klasa":"droga lokalna","kat":"powiatowa"},"geometry":{"type":"LineString","coordinates":[[19.9655,49.28412],[19.96665,49.28431],[19.96791,49.28487]]}},{"type":"Feature","properties":{"numer":"420136K","klasa":"droga lokalna","kat":"powiatowa"},"geometry":{"type":"LineString","coordinates":[[19.97386,49.28467],[19.9737,49.28455]]}},{"type":"Feature","properties":{"numer":"420155K","klasa":"droga lokalna","kat":"powiatowa"},"geometry":{"type":"LineString","coordinates":[[19.97386,49.28467],[19.9741,49.28471]]}},{"type":"Feature","properties":{"numer":"420155K","klasa":"","kat":"powiatowa"},"geometry":{"type":"LineString","coordinates":[[19.9741,49.28471],[19.97453,49.28481]]}},{"type":"Feature","properties":{"numer":"420155K","klasa":"droga lokalna","kat":"powiatowa"},"geometry":{"type":"LineString","coordinates":[[19.97466,49.28484],[19.97453,49.28481]]}},{"type":"Feature","properties":{"numer":"420155K","klasa":"droga lokalna","kat":"powiatowa"},"geometry":{"type":"LineString","coordinates":[[19.97484,49.28488],[19.97466,49.28484]]}},{"type":"Feature","properties":{"numer":"420155K","klasa":"droga lokalna","kat":"powiatowa"},"geometry":{"type":"LineString","coordinates":[[19.97554,49.28504],[19.97484,49.28488]]}},{"type":"Feature","properties":{"numer":"420155K","klasa":"droga lokalna","kat":"powiatowa"},"geometry":{"type":"LineString","coordinates":[[19.97573,49.28508],[19.97554,49.28504]]}},{"type":"Feature","properties":{"numer":"420155K","klasa":"droga lokalna","kat":"powiatowa"},"geometry":{"type":"LineString","coordinates":[[19.97586,49.28511],[19.97573,49.28508]]}},{"type":"Feature","properties":{"numer":"420155K","klasa":"droga lokalna","kat":"powiatowa"},"geometry":{"type":"LineString","coordinates":[[19.97592,49.28513],[19.97586,49.28511]]}},{"type":"Feature","properties":{"numer":"420155K","klasa":"droga lokalna","kat":"powiatowa"},"geometry":{"type":"LineString","coordinates":[[19.9772,49.28542],[19.97592,49.28513]]}},{"type":"Feature","properties":{"numer":"420263K","klasa":"droga lokalna","kat":"powiatowa"},"geometry":{"type":"LineString","coordinates":[[19.96791,49.28487],[19.96702,49.28592]]}},{"type":"Feature","properties":{"numer":"420155K","klasa":"droga lokalna","kat":"powiatowa"},"geometry":{"type":"LineString","coordinates":[[19.9774,49.28546],[19.9772,49.28542]]}},{"type":"Feature","properties":{"numer":"420155K","klasa":"droga lokalna","kat":"powiatowa"},"geometry":{"type":"LineString","coordinates":[[19.97971,49.28542],[19.97925,49.2857],[19.97901,49.28575],[19.9774,49.28546]]}},{"type":"Feature","properties":{"numer":"420135K","klasa":"droga lokalna","kat":"powiatowa"},"geometry":{"type":"LineString","coordinates":[[19.97257,49.28581],[19.97229,49.28605]]}},{"type":"Feature","properties":{"numer":"420135K","klasa":"droga lokalna","kat":"powiatowa"},"geometry":{"type":"LineString","coordinates":[[19.97229,49.28605],[19.97211,49.28622]]}},{"type":"Feature","properties":{"numer":"420263K","klasa":"droga lokalna","kat":"powiatowa"},"geometry":{"type":"LineString","coordinates":[[19.96702,49.28592],[19.9664,49.28666]]}},{"type":"Feature","properties":{"numer":"420168K","klasa":"droga lokalna","kat":"powiatowa"},"geometry":{"type":"LineString","coordinates":[[19.9565,49.2864],[19.9563,49.28658],[19.95626,49.28676]]}},{"type":"Feature","properties":{"numer":"420135K","klasa":"droga lokalna","kat":"powiatowa"},"geometry":{"type":"LineString","coordinates":[[19.97211,49.28622],[19.97114,49.28707]]}},{"type":"Feature","properties":{"numer":"420263K","klasa":"droga lokalna","kat":"powiatowa"},"geometry":{"type":"LineString","coordinates":[[19.9664,49.28666],[19.96633,49.28676]]}},{"type":"Feature","properties":{"numer":"420193K","klasa":"droga lokalna","kat":"powiatowa"},"geometry":{"type":"LineString","coordinates":[[19.95781,49.28707],[19.9565,49.2864]]}},{"type":"Feature","properties":{"numer":"420168K","klasa":"droga lokalna","kat":"powiatowa"},"geometry":{"type":"LineString","coordinates":[[19.95626,49.28676],[19.95623,49.28694]]}},{"type":"Feature","properties":{"numer":"420255K","klasa":"droga lokalna","kat":"powiatowa"},"geometry":{"type":"LineString","coordinates":[[19.97114,49.28707],[19.97085,49.28706]]}},{"type":"Feature","properties":{"numer":"420168K","klasa":"droga lokalna","kat":"powiatowa"},"geometry":{"type":"LineString","coordinates":[[19.95623,49.28694],[19.95619,49.28721]]}},{"type":"Feature","properties":{"numer":"420263K","klasa":"droga lokalna","kat":"powiatowa"},"geometry":{"type":"LineString","coordinates":[[19.96633,49.28676],[19.96565,49.28743]]}},{"type":"Feature","properties":{"numer":"420193K","klasa":"droga lokalna","kat":"powiatowa"},"geometry":{"type":"LineString","coordinates":[[19.95795,49.28714],[19.95781,49.28707]]}},{"type":"Feature","properties":{"numer":"420193K","klasa":"droga lokalna","kat":"powiatowa"},"geometry":{"type":"LineString","coordinates":[[19.958,49.28717],[19.95795,49.28714]]}},{"type":"Feature","properties":{"numer":"420135K","klasa":"droga lokalna","kat":"powiatowa"},"geometry":{"type":"LineString","coordinates":[[19.97114,49.28707],[19.97097,49.28724]]}},{"type":"Feature","properties":{"numer":"420255K","klasa":"droga lokalna","kat":"powiatowa"},"geometry":{"type":"LineString","coordinates":[[19.96903,49.28755],[19.96973,49.28723],[19.97085,49.28706]]}},{"type":"Feature","properties":{"numer":"420155K","klasa":"","kat":"powiatowa"},"geometry":{"type":"LineString","coordinates":[[19.98002,49.28526],[19.97971,49.28542]]}},{"type":"Feature","properties":{"numer":"1648K","klasa":"droga zbiorcza","kat":"powiatowa"},"geometry":{"type":"LineString","coordinates":[[20.01084,49.28329],[20.0112,49.28367],[20.01138,49.2841],[20.01109,49.28639],[20.01159,49.28742],[20.01182,49.28766],[20.0129,49.288],[20.01347,49.28842],[20.01399,49.28903],[20.01439,49.28924],[20.02001,49.28946]]}},{"type":"Feature","properties":{"numer":"420208K","klasa":"droga lokalna","kat":"powiatowa"},"geometry":{"type":"LineString","coordinates":[[19.98112,49.29073],[19.98124,49.29111]]}},{"type":"Feature","properties":{"numer":"420208K","klasa":"droga lokalna","kat":"powiatowa"},"geometry":{"type":"LineString","coordinates":[[19.98124,49.29111],[19.98138,49.29145]]}},{"type":"Feature","properties":{"numer":"420208K","klasa":"droga lokalna","kat":"powiatowa"},"geometry":{"type":"LineString","coordinates":[[19.98138,49.29145],[19.98153,49.29172]]}},{"type":"Feature","properties":{"numer":"420208K","klasa":"droga lokalna","kat":"powiatowa"},"geometry":{"type":"LineString","coordinates":[[19.98153,49.29172],[19.98158,49.29179]]}},{"type":"Feature","properties":{"numer":"420208K","klasa":"droga lokalna","kat":"powiatowa"},"geometry":{"type":"LineString","coordinates":[[19.98158,49.29179],[19.98225,49.29262]]}},{"type":"Feature","properties":{"numer":"420208K","klasa":"droga lokalna","kat":"powiatowa"},"geometry":{"type":"LineString","coordinates":[[19.98225,49.29262],[19.98282,49.29331]]}},{"type":"Feature","properties":{"numer":"420208K","klasa":"droga lokalna","kat":"powiatowa"},"geometry":{"type":"LineString","coordinates":[[19.98282,49.29331],[19.98319,49.29369],[19.98365,49.29397]]}},{"type":"Feature","properties":{"numer":"420208K","klasa":"droga lokalna","kat":"powiatowa"},"geometry":{"type":"LineString","coordinates":[[19.98365,49.29397],[19.98415,49.29419]]}},{"type":"Feature","properties":{"numer":"420208K","klasa":"droga lokalna","kat":"powiatowa"},"geometry":{"type":"LineString","coordinates":[[19.98415,49.29419],[19.98534,49.29469]]}},{"type":"Feature","properties":{"numer":"420208K","klasa":"droga lokalna","kat":"powiatowa"},"geometry":{"type":"LineString","coordinates":[[19.98534,49.29469],[19.98624,49.29507]]}},{"type":"Feature","properties":{"numer":"420208K","klasa":"droga lokalna","kat":"powiatowa"},"geometry":{"type":"LineString","coordinates":[[19.98624,49.29507],[19.98688,49.29534]]}},{"type":"Feature","properties":{"numer":"420203K","klasa":"droga lokalna","kat":"powiatowa"},"geometry":{"type":"LineString","coordinates":[[19.98688,49.29534],[19.98835,49.29613]]}},{"type":"Feature","properties":{"numer":"420203K","klasa":"droga lokalna","kat":"powiatowa"},"geometry":{"type":"LineString","coordinates":[[19.98835,49.29613],[19.98869,49.29632]]}},{"type":"Feature","properties":{"numer":"420203K","klasa":"droga lokalna","kat":"powiatowa"},"geometry":{"type":"LineString","coordinates":[[19.98869,49.29632],[19.99002,49.29705]]}},{"type":"Feature","properties":{"numer":"420203K","klasa":"droga lokalna","kat":"powiatowa"},"geometry":{"type":"LineString","coordinates":[[19.99002,49.29705],[19.99151,49.29788]]}},{"type":"Feature","properties":{"numer":"420203K","klasa":"droga lokalna","kat":"powiatowa"},"geometry":{"type":"LineString","coordinates":[[19.99151,49.29788],[19.99216,49.29824]]}},{"type":"Feature","properties":{"numer":"420203K","klasa":"droga lokalna","kat":"powiatowa"},"geometry":{"type":"LineString","coordinates":[[19.99216,49.29824],[19.99302,49.29873],[19.99374,49.29945]]}},{"type":"Feature","properties":{"numer":"420203K","klasa":"droga lokalna","kat":"powiatowa"},"geometry":{"type":"LineString","coordinates":[[19.99374,49.29945],[19.99462,49.30037]]}},{"type":"Feature","properties":{"numer":"420199K","klasa":"droga lokalna","kat":"powiatowa"},"geometry":{"type":"LineString","coordinates":[[19.99462,49.30037],[19.99467,49.30043]]}},{"type":"Feature","properties":{"numer":"420199K","klasa":"droga lokalna","kat":"powiatowa"},"geometry":{"type":"LineString","coordinates":[[19.99467,49.30043],[19.99522,49.30103],[19.99533,49.3013],[19.9953,49.30169],[19.99507,49.30224]]}},{"type":"Feature","properties":{"numer":"420199K","klasa":"droga lokalna","kat":"powiatowa"},"geometry":{"type":"LineString","coordinates":[[19.99507,49.30224],[19.99498,49.30238]]}},{"type":"Feature","properties":{"numer":"420199K","klasa":"droga lokalna","kat":"powiatowa"},"geometry":{"type":"LineString","coordinates":[[19.99498,49.30238],[19.99435,49.30306]]}},{"type":"Feature","properties":{"numer":"420199K","klasa":"droga lokalna","kat":"powiatowa"},"geometry":{"type":"LineString","coordinates":[[19.99435,49.30306],[19.99415,49.30352],[19.99391,49.30471]]}},{"type":"Feature","properties":{"numer":"420199K","klasa":"droga lokalna","kat":"powiatowa"},"geometry":{"type":"LineString","coordinates":[[19.99391,49.30471],[19.99365,49.30606]]}},{"type":"Feature","properties":{"numer":"420199K","klasa":"droga lokalna","kat":"powiatowa"},"geometry":{"type":"LineString","coordinates":[[19.99365,49.30606],[19.99362,49.30649],[19.99374,49.30675]]}},{"type":"Feature","properties":{"numer":"420199K","klasa":"droga lokalna","kat":"powiatowa"},"geometry":{"type":"LineString","coordinates":[[19.99374,49.30675],[19.99426,49.3071]]}},{"type":"Feature","properties":{"numer":"420176K","klasa":"droga lokalna","kat":"powiatowa"},"geometry":{"type":"LineString","coordinates":[[19.99426,49.3071],[19.99443,49.30717]]}},{"type":"Feature","properties":{"numer":"420176K","klasa":"droga lokalna","kat":"powiatowa"},"geometry":{"type":"LineString","coordinates":[[19.99443,49.30717],[19.99482,49.30733]]}},{"type":"Feature","properties":{"numer":"420271K","klasa":"droga lokalna","kat":"powiatowa"},"geometry":{"type":"LineString","coordinates":[[19.92143,49.28372],[19.92108,49.28439]]}},{"type":"Feature","properties":{"numer":"420271K","klasa":"droga lokalna","kat":"powiatowa"},"geometry":{"type":"LineString","coordinates":[[19.92108,49.28439],[19.92084,49.28474]]}},{"type":"Feature","properties":{"numer":"420271K","klasa":"droga lokalna","kat":"powiatowa"},"geometry":{"type":"LineString","coordinates":[[19.92084,49.28474],[19.91997,49.28525]]}},{"type":"Feature","properties":{"numer":"420271K","klasa":"droga lokalna","kat":"powiatowa"},"geometry":{"type":"LineString","coordinates":[[19.91997,49.28525],[19.91942,49.28545]]}},{"type":"Feature","properties":{"numer":"420271K","klasa":"droga lokalna","kat":"powiatowa"},"geometry":{"type":"LineString","coordinates":[[19.91942,49.28545],[19.91883,49.28562],[19.91861,49.2858],[19.91852,49.28623],[19.91862,49.28634],[19.91887,49.2864]]}},{"type":"Feature","properties":{"numer":"420068K","klasa":"droga lokalna","kat":"powiatowa"},"geometry":{"type":"LineString","coordinates":[[19.91887,49.2864],[19.91914,49.28643]]}},{"type":"Feature","properties":{"numer":"420068K","klasa":"droga lokalna","kat":"powiatowa"},"geometry":{"type":"LineString","coordinates":[[19.91914,49.28643],[19.919274736605132,49.28647254840162]]}},{"type":"Feature","properties":{"numer":"420168K","klasa":"droga lokalna","kat":"powiatowa"},"geometry":{"type":"LineString","coordinates":[[19.95619,49.28721],[19.95611,49.28759]]}},{"type":"Feature","properties":{"numer":"420193K","klasa":"droga lokalna","kat":"powiatowa"},"geometry":{"type":"LineString","coordinates":[[19.95887,49.28764],[19.958,49.28717]]}},{"type":"Feature","properties":{"numer":"420135K","klasa":"droga lokalna","kat":"powiatowa"},"geometry":{"type":"LineString","coordinates":[[19.97097,49.28724],[19.97054,49.2876]]}},{"type":"Feature","properties":{"numer":"420193K","klasa":"droga lokalna","kat":"powiatowa"},"geometry":{"type":"LineString","coordinates":[[19.95919,49.28782],[19.95887,49.28764]]}},{"type":"Feature","properties":{"numer":"420168K","klasa":"droga lokalna","kat":"powiatowa"},"geometry":{"type":"LineString","coordinates":[[19.95611,49.28759],[19.95605,49.28788]]}},{"type":"Feature","properties":{"numer":"420255K","klasa":"droga lokalna","kat":"powiatowa"},"geometry":{"type":"LineString","coordinates":[[19.96667,49.28812],[19.96903,49.28755]]}},{"type":"Feature","properties":{"numer":"420168K","klasa":"droga lokalna","kat":"powiatowa"},"geometry":{"type":"LineString","coordinates":[[19.95605,49.28788],[19.9559,49.28821]]}},{"type":"Feature","properties":{"numer":"420193K","klasa":"droga lokalna","kat":"powiatowa"},"geometry":{"type":"LineString","coordinates":[[19.96038,49.28847],[19.95919,49.28782]]}},{"type":"Feature","properties":{"numer":"420168K","klasa":"droga lokalna","kat":"powiatowa"},"geometry":{"type":"LineString","coordinates":[[19.9559,49.28821],[19.95573,49.28849]]}},{"type":"Feature","properties":{"numer":"420135K","klasa":"droga lokalna","kat":"powiatowa"},"geometry":{"type":"LineString","coordinates":[[19.97054,49.2876],[19.96869,49.28923]]}},{"type":"Feature","properties":{"numer":"958","klasa":"droga gĹ‚Ăłwna","kat":"wojewodzka"},"geometry":{"type":"LineString","coordinates":[[19.92143,49.28372],[19.92344,49.28458],[19.9252,49.28505],[19.9267,49.28575],[19.92917,49.28656],[19.93253,49.28901],[19.93291,49.2896],[19.93326,49.2899],[19.93621,49.29103],[19.93786,49.29204],[19.93854,49.29227],[19.94087,49.29268],[19.94231,49.29307],[19.94276,49.29326],[19.94307,49.29351]]}},{"type":"Feature","properties":{"numer":"420061K","klasa":"droga lokalna","kat":"powiatowa"},"geometry":{"type":"LineString","coordinates":[[19.9249,49.29126],[19.924880199951232,49.29125317239698]]}},{"type":"Feature","properties":{"numer":"1656K","klasa":"droga zbiorcza","kat":"powiatowa"},"geometry":{"type":"LineString","coordinates":[[19.92516,49.29134],[19.9249,49.29126]]}},{"type":"Feature","properties":{"numer":"420206K","klasa":"droga lokalna","kat":"powiatowa"},"geometry":{"type":"LineString","coordinates":[[19.94813,49.29172],[19.94889,49.29188]]}},{"type":"Feature","properties":{"numer":"420255K","klasa":"droga lokalna","kat":"powiatowa"},"geometry":{"type":"LineString","coordinates":[[19.96667,49.28812],[19.96616,49.28825],[19.96502,49.28883]]}},{"type":"Feature","properties":{"numer":"420263K","klasa":"droga lokalna","kat":"powiatowa"},"geometry":{"type":"LineString","coordinates":[[19.96565,49.28743],[19.96498,49.28793],[19.96396,49.28834],[19.96238,49.28954]]}},{"type":"Feature","properties":{"numer":"420193K","klasa":"droga lokalna","kat":"powiatowa"},"geometry":{"type":"LineString","coordinates":[[19.96107,49.28885],[19.96038,49.28847]]}},{"type":"Feature","properties":{"numer":"420240K","klasa":"droga lokalna","kat":"powiatowa"},"geometry":{"type":"LineString","coordinates":[[19.95676,49.28897],[19.95573,49.28849]]}},{"type":"Feature","properties":{"numer":"420193K","klasa":"droga lokalna","kat":"powiatowa"},"geometry":{"type":"LineString","coordinates":[[19.96158,49.28912],[19.96107,49.28885]]}},{"type":"Feature","properties":{"numer":"420255K","klasa":"droga lokalna","kat":"powiatowa"},"geometry":{"type":"LineString","coordinates":[[19.96502,49.28883],[19.96405,49.2894]]}},{"type":"Feature","properties":{"numer":"420168K","klasa":"droga lokalna","kat":"powiatowa"},"geometry":{"type":"LineString","coordinates":[[19.95573,49.28849],[19.95494,49.28982]]}},{"type":"Feature","properties":{"numer":"420240K","klasa":"droga lokalna","kat":"powiatowa"},"geometry":{"type":"LineString","coordinates":[[19.9576,49.2894],[19.95681,49.289]]}},{"type":"Feature","properties":{"numer":"420193K","klasa":"droga lokalna","kat":"powiatowa"},"geometry":{"type":"LineString","coordinates":[[19.96238,49.28954],[19.96158,49.28912]]}},{"type":"Feature","properties":{"numer":"420135K","klasa":"droga lokalna","kat":"powiatowa"},"geometry":{"type":"LineString","coordinates":[[19.96869,49.28923],[19.96837,49.28951]]}},{"type":"Feature","properties":{"numer":"420255K","klasa":"droga lokalna","kat":"powiatowa"},"geometry":{"type":"LineString","coordinates":[[19.96405,49.2894],[19.96356,49.28968]]}},{"type":"Feature","properties":{"numer":"420240K","klasa":"droga lokalna","kat":"powiatowa"},"geometry":{"type":"LineString","coordinates":[[19.95823,49.28973],[19.9576,49.2894]]}},{"type":"Feature","properties":{"numer":"420188K","klasa":"droga lokalna","kat":"powiatowa"},"geometry":{"type":"LineString","coordinates":[[19.96405,49.2894],[19.96521,49.29003]]}},{"type":"Feature","properties":{"numer":"420193K","klasa":"droga lokalna","kat":"powiatowa"},"geometry":{"type":"LineString","coordinates":[[19.96238,49.28954],[19.96307,49.2899]]}},{"type":"Feature","properties":{"numer":"420240K","klasa":"droga lokalna","kat":"powiatowa"},"geometry":{"type":"LineString","coordinates":[[19.95891,49.29008],[19.95823,49.28973]]}},{"type":"Feature","properties":{"numer":"420168K","klasa":"droga lokalna","kat":"powiatowa"},"geometry":{"type":"LineString","coordinates":[[19.95494,49.28982],[19.95478,49.29008]]}},{"type":"Feature","properties":{"numer":"420240K","klasa":"droga lokalna","kat":"powiatowa"},"geometry":{"type":"LineString","coordinates":[[19.96004,49.29067],[19.95891,49.29008]]}},{"type":"Feature","properties":{"numer":"420188K","klasa":"droga lokalna","kat":"powiatowa"},"geometry":{"type":"LineString","coordinates":[[19.96521,49.29003],[19.96681,49.29088]]}},{"type":"Feature","properties":{"numer":"420255K","klasa":"droga lokalna","kat":"powiatowa"},"geometry":{"type":"LineString","coordinates":[[19.96307,49.2899],[19.96106,49.2912]]}},{"type":"Feature","properties":{"numer":"420168K","klasa":"droga lokalna","kat":"powiatowa"},"geometry":{"type":"LineString","coordinates":[[19.95478,49.29008],[19.95413,49.29116]]}},{"type":"Feature","properties":{"numer":"420240K","klasa":"droga lokalna","kat":"powiatowa"},"geometry":{"type":"LineString","coordinates":[[19.96032,49.29082],[19.96004,49.29067]]}},{"type":"Feature","properties":{"numer":"420240K","klasa":"droga lokalna","kat":"powiatowa"},"geometry":{"type":"LineString","coordinates":[[19.96038,49.29085],[19.96032,49.29082]]}},{"type":"Feature","properties":{"numer":"420240K","klasa":"droga lokalna","kat":"powiatowa"},"geometry":{"type":"LineString","coordinates":[[19.96106,49.2912],[19.96038,49.29085]]}},{"type":"Feature","properties":{"numer":"420135K","klasa":"droga lokalna","kat":"powiatowa"},"geometry":{"type":"LineString","coordinates":[[19.96681,49.29088],[19.96641,49.29122]]}},{"type":"Feature","properties":{"numer":"420250K","klasa":"droga lokalna","kat":"powiatowa"},"geometry":{"type":"LineString","coordinates":[[19.96106,49.2912],[19.9624,49.2919]]}},{"type":"Feature","properties":{"numer":"420135K","klasa":"droga lokalna","kat":"powiatowa"},"geometry":{"type":"LineString","coordinates":[[19.96641,49.29122],[19.96471,49.29239]]}},{"type":"Feature","properties":{"numer":"420206K","klasa":"droga lokalna","kat":"powiatowa"},"geometry":{"type":"LineString","coordinates":[[19.9505,49.29177],[19.94987,49.29166],[19.94937,49.29195]]}},{"type":"Feature","properties":{"numer":"420168K","klasa":"droga lokalna","kat":"powiatowa"},"geometry":{"type":"LineString","coordinates":[[19.95413,49.29116],[19.95326,49.29262]]}},{"type":"Feature","properties":{"numer":"420206K","klasa":"droga lokalna","kat":"powiatowa"},"geometry":{"type":"LineString","coordinates":[[19.94889,49.29188],[19.94914,49.29193]]}},{"type":"Feature","properties":{"numer":"420206K","klasa":"droga lokalna","kat":"powiatowa"},"geometry":{"type":"LineString","coordinates":[[19.94914,49.29193],[19.94937,49.29195]]}},{"type":"Feature","properties":{"numer":"420250K","klasa":"droga lokalna","kat":"powiatowa"},"geometry":{"type":"LineString","coordinates":[[19.9624,49.2919],[19.96272,49.29201]]}},{"type":"Feature","properties":{"numer":"420206K","klasa":"droga lokalna","kat":"powiatowa"},"geometry":{"type":"LineString","coordinates":[[19.95189,49.29224],[19.9505,49.29177]]}},{"type":"Feature","properties":{"numer":"420250K","klasa":"droga lokalna","kat":"powiatowa"},"geometry":{"type":"LineString","coordinates":[[19.96272,49.29201],[19.96303,49.29209]]}},{"type":"Feature","properties":{"numer":"420250K","klasa":"droga lokalna","kat":"powiatowa"},"geometry":{"type":"LineString","coordinates":[[19.96303,49.29209],[19.96356,49.29221]]}},{"type":"Feature","properties":{"numer":"420250K","klasa":"droga lokalna","kat":"powiatowa"},"geometry":{"type":"LineString","coordinates":[[19.96356,49.29221],[19.9639,49.29228]]}},{"type":"Feature","properties":{"numer":"420250K","klasa":"droga lokalna","kat":"powiatowa"},"geometry":{"type":"LineString","coordinates":[[19.9639,49.29228],[19.96441,49.29239],[19.96456,49.2925]]}},{"type":"Feature","properties":{"numer":"420206K","klasa":"droga lokalna","kat":"powiatowa"},"geometry":{"type":"LineString","coordinates":[[19.95326,49.29262],[19.95309,49.29265],[19.95189,49.29224]]}},{"type":"Feature","properties":{"numer":"420174K","klasa":"droga lokalna","kat":"powiatowa"},"geometry":{"type":"LineString","coordinates":[[19.96489,49.29252],[19.96471,49.29239]]}},{"type":"Feature","properties":{"numer":"420174K","klasa":"droga lokalna","kat":"powiatowa"},"geometry":{"type":"LineString","coordinates":[[19.96507,49.29266],[19.96489,49.29252]]}},{"type":"Feature","properties":{"numer":"420174K","klasa":"droga lokalna","kat":"powiatowa"},"geometry":{"type":"LineString","coordinates":[[19.96542,49.29295],[19.96507,49.29266]]}},{"type":"Feature","properties":{"numer":"420121K","klasa":"droga lokalna","kat":"powiatowa"},"geometry":{"type":"LineString","coordinates":[[19.95932,49.29219],[19.95794,49.29367]]}},{"type":"Feature","properties":{"numer":"420222K","klasa":"droga lokalna","kat":"powiatowa"},"geometry":{"type":"LineString","coordinates":[[19.96456,49.2925],[19.96395,49.29311],[19.96306,49.29373]]}},{"type":"Feature","properties":{"numer":"420174K","klasa":"droga lokalna","kat":"powiatowa"},"geometry":{"type":"LineString","coordinates":[[19.9651,49.29373],[19.96543,49.29311],[19.96542,49.29295]]}},{"type":"Feature","properties":{"numer":"420121K","klasa":"droga lokalna","kat":"powiatowa"},"geometry":{"type":"LineString","coordinates":[[19.95794,49.29367],[19.95734,49.29414]]}},{"type":"Feature","properties":{"numer":"420222K","klasa":"droga lokalna","kat":"powiatowa"},"geometry":{"type":"LineString","coordinates":[[19.96306,49.29373],[19.9628,49.29414]]}},{"type":"Feature","properties":{"numer":"420174K","klasa":"droga lokalna","kat":"powiatowa"},"geometry":{"type":"LineString","coordinates":[[19.9648,49.2943],[19.9651,49.29373]]}},{"type":"Feature","properties":{"numer":"420121K","klasa":"droga lokalna","kat":"powiatowa"},"geometry":{"type":"LineString","coordinates":[[19.95734,49.29414],[19.95627,49.29461]]}},{"type":"Feature","properties":{"numer":"420174K","klasa":"droga lokalna","kat":"powiatowa"},"geometry":{"type":"LineString","coordinates":[[19.96464,49.29459],[19.9648,49.2943]]}},{"type":"Feature","properties":{"numer":"420121K","klasa":"droga lokalna","kat":"powiatowa"},"geometry":{"type":"LineString","coordinates":[[19.95509,49.29507],[19.95627,49.29461]]}},{"type":"Feature","properties":{"numer":"420174K","klasa":"droga lokalna","kat":"powiatowa"},"geometry":{"type":"LineString","coordinates":[[19.96419,49.29542],[19.96464,49.29459]]}},{"type":"Feature","properties":{"numer":"420182K","klasa":"droga lokalna","kat":"powiatowa"},"geometry":{"type":"LineString","coordinates":[[19.94813,49.29172],[19.94792,49.29245],[19.94811,49.29293],[19.94806,49.29316]]}},{"type":"Feature","properties":{"numer":"1656K","klasa":"droga zbiorcza","kat":"powiatowa"},"geometry":{"type":"LineString","coordinates":[[19.92516,49.29134],[19.93171,49.29319],[19.935,49.29384]]}},{"type":"Feature","properties":{"numer":"420231K","klasa":"droga lokalna","kat":"powiatowa"},"geometry":{"type":"LineString","coordinates":[[19.94635,49.29289],[19.94806,49.29316]]}},{"type":"Feature","properties":{"numer":"420231K","klasa":"droga lokalna","kat":"powiatowa"},"geometry":{"type":"LineString","coordinates":[[19.94307,49.29351],[19.94477,49.29294],[19.9456,49.29286],[19.94635,49.29289]]}},{"type":"Feature","properties":{"numer":"1656K","klasa":"droga zbiorcza","kat":"powiatowa"},"geometry":{"type":"LineString","coordinates":[[19.935,49.29384],[19.9357,49.29397]]}},{"type":"Feature","properties":{"numer":"1656K","klasa":"droga zbiorcza","kat":"powiatowa"},"geometry":{"type":"LineString","coordinates":[[19.93576,49.29398],[19.9357,49.29397]]}},{"type":"Feature","properties":{"numer":"1656K","klasa":"droga zbiorcza","kat":"powiatowa"},"geometry":{"type":"LineString","coordinates":[[19.94391,49.29605],[19.94202,49.29568],[19.93846,49.29475],[19.93679,49.29416],[19.93576,49.29398]]}},{"type":"Feature","properties":{"numer":"958","klasa":"droga gĹ‚Ăłwna","kat":"wojewodzka"},"geometry":{"type":"LineString","coordinates":[[19.94307,49.29351],[19.94375,49.29414],[19.94532,49.29509],[19.94626,49.29575],[19.94757,49.2963],[19.94834,49.29673]]}},{"type":"Feature","properties":{"numer":"1656K","klasa":"droga zbiorcza","kat":"powiatowa"},"geometry":{"type":"LineString","coordinates":[[19.94391,49.29605],[19.94392,49.29599],[19.94371,49.29596]]}},{"type":"Feature","properties":{"numer":"1656K","klasa":"droga zbiorcza","kat":"powiatowa"},"geometry":{"type":"LineString","coordinates":[[19.94389,49.2961],[19.94391,49.29605]]}},{"type":"Feature","properties":{"numer":"420222K","klasa":"droga lokalna","kat":"powiatowa"},"geometry":{"type":"LineString","coordinates":[[19.9628,49.29414],[19.96232,49.29472],[19.96041,49.29614]]}},{"type":"Feature","properties":{"numer":"420121K","klasa":"droga lokalna","kat":"powiatowa"},"geometry":{"type":"LineString","coordinates":[[19.95509,49.29507],[19.95451,49.29536]]}},{"type":"Feature","properties":{"numer":"420121K","klasa":"droga lokalna","kat":"powiatowa"},"geometry":{"type":"LineString","coordinates":[[19.95451,49.29536],[19.95392,49.29576]]}},{"type":"Feature","properties":{"numer":"420174K","klasa":"droga lokalna","kat":"powiatowa"},"geometry":{"type":"LineString","coordinates":[[19.96397,49.29584],[19.96419,49.29542]]}},{"type":"Feature","properties":{"numer":"420174K","klasa":"droga lokalna","kat":"powiatowa"},"geometry":{"type":"LineString","coordinates":[[19.96368,49.29638],[19.96397,49.29584]]}},{"type":"Feature","properties":{"numer":"420121K","klasa":"droga lokalna","kat":"powiatowa"},"geometry":{"type":"LineString","coordinates":[[19.95392,49.29576],[19.95318,49.29653]]}},{"type":"Feature","properties":{"numer":"420121K","klasa":"droga lokalna","kat":"powiatowa"},"geometry":{"type":"LineString","coordinates":[[19.95318,49.29653],[19.95302,49.29677]]}},{"type":"Feature","properties":{"numer":"420186K","klasa":"droga lokalna","kat":"powiatowa"},"geometry":{"type":"LineString","coordinates":[[19.95705,49.29779],[19.95392,49.29576]]}},{"type":"Feature","properties":{"numer":"420121K","klasa":"droga lokalna","kat":"powiatowa"},"geometry":{"type":"LineString","coordinates":[[19.95302,49.29677],[19.95262,49.29747]]}},{"type":"Feature","properties":{"numer":"420222K","klasa":"droga lokalna","kat":"powiatowa"},"geometry":{"type":"LineString","coordinates":[[19.96041,49.29614],[19.95927,49.29699],[19.95794,49.29833]]}},{"type":"Feature","properties":{"numer":"420174K","klasa":"droga lokalna","kat":"powiatowa"},"geometry":{"type":"LineString","coordinates":[[19.96273,49.29815],[19.96368,49.29638]]}},{"type":"Feature","properties":{"numer":"958","klasa":"droga gĹ‚Ăłwna","kat":"wojewodzka"},"geometry":{"type":"LineString","coordinates":[[19.94842,49.29678],[19.94878,49.29828]]}},{"type":"Feature","properties":{"numer":"420121K","klasa":"droga lokalna","kat":"powiatowa"},"geometry":{"type":"LineString","coordinates":[[19.95262,49.29747],[19.95255,49.29759]]}},{"type":"Feature","properties":{"numer":"420121K","klasa":"droga lokalna","kat":"powiatowa"},"geometry":{"type":"LineString","coordinates":[[19.95255,49.29759],[19.95218,49.29828]]}},{"type":"Feature","properties":{"numer":"420186K","klasa":"droga lokalna","kat":"powiatowa"},"geometry":{"type":"LineString","coordinates":[[19.95794,49.29833],[19.95705,49.29779]]}},{"type":"Feature","properties":{"numer":"420174K","klasa":"droga lokalna","kat":"powiatowa"},"geometry":{"type":"LineString","coordinates":[[19.96255,49.2985],[19.96273,49.29815]]}},{"type":"Feature","properties":{"numer":"420186K","klasa":"droga lokalna","kat":"powiatowa"},"geometry":{"type":"LineString","coordinates":[[19.95813,49.29843],[19.95794,49.29833]]}},{"type":"Feature","properties":{"numer":"958","klasa":"droga gĹ‚Ăłwna","kat":"wojewodzka"},"geometry":{"type":"LineString","coordinates":[[19.94878,49.29828],[19.94887,49.2986]]}},{"type":"Feature","properties":{"numer":"420186K","klasa":"droga lokalna","kat":"powiatowa"},"geometry":{"type":"LineString","coordinates":[[19.95825,49.29849],[19.95813,49.29843]]}},{"type":"Feature","properties":{"numer":"420174K","klasa":"droga lokalna","kat":"powiatowa"},"geometry":{"type":"LineString","coordinates":[[19.96252,49.29855],[19.96255,49.2985]]}},{"type":"Feature","properties":{"numer":"420186K","klasa":"droga lokalna","kat":"powiatowa"},"geometry":{"type":"LineString","coordinates":[[19.95866,49.29866],[19.95825,49.29849]]}},{"type":"Feature","properties":{"numer":"958","klasa":"droga gĹ‚Ăłwna","kat":"wojewodzka"},"geometry":{"type":"LineString","coordinates":[[19.94887,49.2986],[19.94899,49.29892]]}},{"type":"Feature","properties":{"numer":"420186K","klasa":"droga lokalna","kat":"powiatowa"},"geometry":{"type":"LineString","coordinates":[[19.95978,49.29912],[19.95866,49.29866]]}},{"type":"Feature","properties":{"numer":"420174K","klasa":"droga lokalna","kat":"powiatowa"},"geometry":{"type":"LineString","coordinates":[[19.96212,49.2993],[19.96252,49.29855]]}},{"type":"Feature","properties":{"numer":"958","klasa":"droga gĹ‚Ăłwna","kat":"wojewodzka"},"geometry":{"type":"LineString","coordinates":[[19.94899,49.29892],[19.94908,49.29905]]}},{"type":"Feature","properties":{"numer":"958","klasa":"droga gĹ‚Ăłwna","kat":"wojewodzka"},"geometry":{"type":"LineString","coordinates":[[19.94908,49.29905],[19.94927,49.29908]]}},{"type":"Feature","properties":{"numer":"958","klasa":"droga gĹ‚Ăłwna","kat":"wojewodzka"},"geometry":{"type":"LineString","coordinates":[[19.94927,49.29908],[19.9497,49.29916]]}},{"type":"Feature","properties":{"numer":"420222K","klasa":"droga lokalna","kat":"powiatowa"},"geometry":{"type":"LineString","coordinates":[[19.95794,49.29833],[19.95759,49.29913],[19.95706,49.29994]]}},{"type":"Feature","properties":{"numer":"420186K","klasa":"droga lokalna","kat":"powiatowa"},"geometry":{"type":"LineString","coordinates":[[19.95996,49.2992],[19.95978,49.29912]]}},{"type":"Feature","properties":{"numer":"958","klasa":"droga gĹ‚Ăłwna","kat":"wojewodzka"},"geometry":{"type":"LineString","coordinates":[[19.9497,49.29916],[19.95101,49.29945]]}},{"type":"Feature","properties":{"numer":"420186K","klasa":"droga lokalna","kat":"powiatowa"},"geometry":{"type":"LineString","coordinates":[[19.96056,49.29945],[19.95996,49.2992]]}},{"type":"Feature","properties":{"numer":"420174K","klasa":"droga lokalna","kat":"powiatowa"},"geometry":{"type":"LineString","coordinates":[[19.96204,49.29946],[19.96212,49.2993]]}},{"type":"Feature","properties":{"numer":"958","klasa":"droga gĹ‚Ăłwna","kat":"wojewodzka"},"geometry":{"type":"LineString","coordinates":[[19.95169,49.29952],[19.95101,49.29945]]}},{"type":"Feature","properties":{"numer":"420186K","klasa":"droga lokalna","kat":"powiatowa"},"geometry":{"type":"LineString","coordinates":[[19.96078,49.29954],[19.96056,49.29945]]}},{"type":"Feature","properties":{"numer":"958","klasa":"droga gĹ‚Ăłwna","kat":"wojewodzka"},"geometry":{"type":"LineString","coordinates":[[19.95208,49.2996],[19.95169,49.29952]]}},{"type":"Feature","properties":{"numer":"420174K","klasa":"droga lokalna","kat":"powiatowa"},"geometry":{"type":"LineString","coordinates":[[19.96204,49.29946],[19.96179,49.29968]]}},{"type":"Feature","properties":{"numer":"420186K","klasa":"droga lokalna","kat":"powiatowa"},"geometry":{"type":"LineString","coordinates":[[19.96101,49.29964],[19.96078,49.29954]]}},{"type":"Feature","properties":{"numer":"420186K","klasa":"droga lokalna","kat":"powiatowa"},"geometry":{"type":"LineString","coordinates":[[19.96101,49.29964],[19.96137,49.29976]]}},{"type":"Feature","properties":{"numer":"958","klasa":"droga gĹ‚Ăłwna","kat":"wojewodzka"},"geometry":{"type":"LineString","coordinates":[[19.95255,49.29981],[19.95208,49.2996]]}},{"type":"Feature","properties":{"numer":"420174K","klasa":"droga lokalna","kat":"powiatowa"},"geometry":{"type":"LineString","coordinates":[[19.96179,49.29968],[19.9616,49.29983]]}},{"type":"Feature","properties":{"numer":"420186K","klasa":"droga lokalna","kat":"powiatowa"},"geometry":{"type":"LineString","coordinates":[[19.96137,49.29976],[19.9616,49.29983]]}},{"type":"Feature","properties":{"numer":"420139K","klasa":"droga lokalna","kat":"powiatowa"},"geometry":{"type":"LineString","coordinates":[[19.96158,49.30004],[19.9616,49.29983]]}},{"type":"Feature","properties":{"numer":"420222K","klasa":"droga lokalna","kat":"powiatowa"},"geometry":{"type":"LineString","coordinates":[[19.95706,49.29994],[19.95685,49.3002]]}},{"type":"Feature","properties":{"numer":"958","klasa":"droga gĹ‚Ăłwna","kat":"wojewodzka"},"geometry":{"type":"LineString","coordinates":[[19.95255,49.29981],[19.95356,49.30006],[19.95559,49.30079],[19.95605,49.30106]]}},{"type":"Feature","properties":{"numer":"420139K","klasa":"droga lokalna","kat":"powiatowa"},"geometry":{"type":"LineString","coordinates":[[19.96123,49.30091],[19.96158,49.30004]]}},{"type":"Feature","properties":{"numer":"420222K","klasa":"droga lokalna","kat":"powiatowa"},"geometry":{"type":"LineString","coordinates":[[19.95685,49.3002],[19.95605,49.30106]]}},{"type":"Feature","properties":{"numer":"420139K","klasa":"droga lokalna","kat":"powiatowa"},"geometry":{"type":"LineString","coordinates":[[19.96123,49.30091],[19.96105,49.30125]]}},{"type":"Feature","properties":{"numer":"958","klasa":"droga gĹ‚Ăłwna","kat":"wojewodzka"},"geometry":{"type":"LineString","coordinates":[[19.95605,49.30106],[19.95628,49.30123]]}},{"type":"Feature","properties":{"numer":"958","klasa":"droga gĹ‚Ăłwna","kat":"wojewodzka"},"geometry":{"type":"LineString","coordinates":[[19.95628,49.30123],[19.95639,49.30131]]}},{"type":"Feature","properties":{"numer":"420139K","klasa":"droga lokalna","kat":"powiatowa"},"geometry":{"type":"LineString","coordinates":[[19.96105,49.30125],[19.96092,49.30148]]}},{"type":"Feature","properties":{"numer":"420139K","klasa":"droga lokalna","kat":"powiatowa"},"geometry":{"type":"LineString","coordinates":[[19.96092,49.30148],[19.96061,49.30204]]}},{"type":"Feature","properties":{"numer":"420139K","klasa":"droga lokalna","kat":"powiatowa"},"geometry":{"type":"LineString","coordinates":[[19.96061,49.30204],[19.9603,49.30262]]}},{"type":"Feature","properties":{"numer":"420139K","klasa":"droga lokalna","kat":"powiatowa"},"geometry":{"type":"LineString","coordinates":[[19.9603,49.30262],[19.96005,49.30309]]}},{"type":"Feature","properties":{"numer":"958","klasa":"droga gĹ‚Ăłwna","kat":"wojewodzka"},"geometry":{"type":"LineString","coordinates":[[19.95639,49.30131],[19.95776,49.30241],[19.95855,49.30499]]}},{"type":"Feature","properties":{"numer":"420139K","klasa":"droga lokalna","kat":"powiatowa"},"geometry":{"type":"LineString","coordinates":[[19.96005,49.30309],[19.95981,49.30354]]}},{"type":"Feature","properties":{"numer":"420139K","klasa":"droga lokalna","kat":"powiatowa"},"geometry":{"type":"LineString","coordinates":[[19.95981,49.30354],[19.95957,49.30398]]}},{"type":"Feature","properties":{"numer":"420139K","klasa":"droga lokalna","kat":"powiatowa"},"geometry":{"type":"LineString","coordinates":[[19.95957,49.30398],[19.95931,49.30445]]}},{"type":"Feature","properties":{"numer":"958","klasa":"droga gĹ‚Ăłwna","kat":"wojewodzka"},"geometry":{"type":"LineString","coordinates":[[19.95855,49.30499],[19.95866,49.30514]]}},{"type":"Feature","properties":{"numer":"958","klasa":"droga gĹ‚Ăłwna","kat":"wojewodzka"},"geometry":{"type":"LineString","coordinates":[[19.95866,49.30514],[19.95877,49.30518]]}},{"type":"Feature","properties":{"numer":"47","klasa":"droga gĹ‚Ăłwna ruchu przyĹ›pieszonego","kat":"krajowa"},"geometry":{"type":"LineString","coordinates":[[19.95875,49.30527],[19.95877,49.30518]]}},{"type":"Feature","properties":{"numer":"420166K","klasa":"","kat":"powiatowa"},"geometry":{"type":"LineString","coordinates":[[19.94382,49.29628],[19.94389,49.2961]]}},{"type":"Feature","properties":{"numer":"1656K","klasa":"droga zbiorcza","kat":"powiatowa"},"geometry":{"type":"LineString","coordinates":[[19.94535,49.29639],[19.94391,49.29605]]}},{"type":"Feature","properties":{"numer":"420166K","klasa":"droga lokalna","kat":"powiatowa"},"geometry":{"type":"LineString","coordinates":[[19.94383,49.29628],[19.94382,49.29628]]}},{"type":"Feature","properties":{"numer":"420183K","klasa":"droga lokalna","kat":"powiatowa"},"geometry":{"type":"LineString","coordinates":[[19.94445,49.2964],[19.94383,49.29628]]}},{"type":"Feature","properties":{"numer":"420183K","klasa":"droga lokalna","kat":"powiatowa"},"geometry":{"type":"LineString","coordinates":[[19.94457,49.29642],[19.94445,49.2964]]}},{"type":"Feature","properties":{"numer":"420183K","klasa":"droga lokalna","kat":"powiatowa"},"geometry":{"type":"LineString","coordinates":[[19.94535,49.29639],[19.94474,49.29644]]}},{"type":"Feature","properties":{"numer":"420183K","klasa":"droga lokalna","kat":"powiatowa"},"geometry":{"type":"LineString","coordinates":[[19.94474,49.29644],[19.94457,49.29642]]}},{"type":"Feature","properties":{"numer":"958","klasa":"droga gĹ‚Ăłwna","kat":"wojewodzka"},"geometry":{"type":"LineString","coordinates":[[19.94834,49.29673],[19.94842,49.29678]]}},{"type":"Feature","properties":{"numer":"1656K","klasa":"droga zbiorcza","kat":"powiatowa"},"geometry":{"type":"LineString","coordinates":[[19.94908,49.29905],[19.94881,49.29914],[19.9484,49.29901],[19.94628,49.29693],[19.94535,49.29639]]}},{"type":"Feature","properties":{"numer":"958","klasa":"droga gĹ‚Ăłwna","kat":"wojewodzka"},"geometry":{"type":"LineString","coordinates":[[19.905370455005055,49.278265068250754],[19.90567,49.27831],[19.91181,49.28001],[19.91405,49.28101],[19.92143,49.28372]]}},{"type":"Feature","properties":{"numer":"1648K","klasa":"droga zbiorcza","kat":"powiatowa"},"geometry":{"type":"LineString","coordinates":[[20.02001,49.28946],[20.02325,49.28957],[20.02389,49.28944],[20.0261,49.2881],[20.02617,49.28768],[20.0258,49.28651],[20.02603,49.28623],[20.02658,49.28613],[20.02758,49.28645],[20.0292,49.28643],[20.039430675600773,49.28787798548132]]}},{"type":"Feature","properties":{"numer":"420176K","klasa":"droga lokalna","kat":"powiatowa"},"geometry":{"type":"LineString","coordinates":[[19.99482,49.30733],[19.99515,49.30765]]}},{"type":"Feature","properties":{"numer":"420176K","klasa":"droga lokalna","kat":"powiatowa"},"geometry":{"type":"LineString","coordinates":[[19.99515,49.30765],[19.99536,49.30813]]}},{"type":"Feature","properties":{"numer":"420176K","klasa":"droga lokalna","kat":"powiatowa"},"geometry":{"type":"LineString","coordinates":[[19.99536,49.30813],[19.99563,49.30881]]}},{"type":"Feature","properties":{"numer":"420176K","klasa":"droga lokalna","kat":"powiatowa"},"geometry":{"type":"LineString","coordinates":[[19.99563,49.30881],[19.99569,49.30905]]}},{"type":"Feature","properties":{"numer":"420176K","klasa":"droga lokalna","kat":"powiatowa"},"geometry":{"type":"LineString","coordinates":[[19.99569,49.30905],[19.9957,49.30918]]}},{"type":"Feature","properties":{"numer":"420176K","klasa":"droga lokalna","kat":"powiatowa"},"geometry":{"type":"LineString","coordinates":[[19.9957,49.30918],[19.99561,49.30963]]}},{"type":"Feature","properties":{"numer":"420176K","klasa":"droga lokalna","kat":"powiatowa"},"geometry":{"type":"LineString","coordinates":[[19.99561,49.30963],[19.99509,49.31105],[19.99462,49.31198]]}},{"type":"Feature","properties":{"numer":"420205K","klasa":"droga lokalna","kat":"powiatowa"},"geometry":{"type":"LineString","coordinates":[[19.99462,49.31198],[19.99423,49.31271]]}},{"type":"Feature","properties":{"numer":"420205K","klasa":"droga lokalna","kat":"powiatowa"},"geometry":{"type":"LineString","coordinates":[[19.99423,49.31271],[19.99399,49.31323]]}},{"type":"Feature","properties":{"numer":"420205K","klasa":"droga lokalna","kat":"powiatowa"},"geometry":{"type":"LineString","coordinates":[[19.99399,49.31323],[19.99393,49.31359]]}},{"type":"Feature","properties":{"numer":"420205K","klasa":"droga lokalna","kat":"powiatowa"},"geometry":{"type":"LineString","coordinates":[[19.99393,49.31359],[19.99396,49.31418]]}},{"type":"Feature","properties":{"numer":"420205K","klasa":"droga lokalna","kat":"powiatowa"},"geometry":{"type":"LineString","coordinates":[[19.99396,49.31418],[19.99397,49.31438]]}},{"type":"Feature","properties":{"numer":"420205K","klasa":"droga lokalna","kat":"powiatowa"},"geometry":{"type":"LineString","coordinates":[[19.99397,49.31438],[19.99396,49.31456]]}},{"type":"Feature","properties":{"numer":"420205K","klasa":"droga lokalna","kat":"powiatowa"},"geometry":{"type":"LineString","coordinates":[[19.99396,49.31456],[19.9938,49.31509]]}},{"type":"Feature","properties":{"numer":"420205K","klasa":"droga lokalna","kat":"powiatowa"},"geometry":{"type":"LineString","coordinates":[[19.9938,49.31509],[19.99342,49.31563],[19.99292,49.31603]]}},{"type":"Feature","properties":{"numer":"420205K","klasa":"droga lokalna","kat":"powiatowa"},"geometry":{"type":"LineString","coordinates":[[19.99292,49.31603],[19.99088,49.31711]]}},{"type":"Feature","properties":{"numer":"420205K","klasa":"droga lokalna","kat":"powiatowa"},"geometry":{"type":"LineString","coordinates":[[19.99088,49.31711],[19.99028,49.31755]]}},{"type":"Feature","properties":{"numer":"420205K","klasa":"droga lokalna","kat":"powiatowa"},"geometry":{"type":"LineString","coordinates":[[19.99028,49.31755],[19.99016,49.31763]]}},{"type":"Feature","properties":{"numer":"420205K","klasa":"droga lokalna","kat":"powiatowa"},"geometry":{"type":"LineString","coordinates":[[19.99016,49.31763],[19.99,49.31775]]}},{"type":"Feature","properties":{"numer":"420251K","klasa":"droga lokalna","kat":"powiatowa"},"geometry":{"type":"LineString","coordinates":[[19.99,49.31775],[19.9895,49.31834],[19.98891,49.32009]]}},{"type":"Feature","properties":{"numer":"47","klasa":"droga gĹ‚Ăłwna ruchu przyĹ›pieszonego","kat":"krajowa"},"geometry":{"type":"LineString","coordinates":[[19.95875,49.30562],[19.95875,49.30527]]}},{"type":"Feature","properties":{"numer":"47","klasa":"droga gĹ‚Ăłwna ruchu przyĹ›pieszonego","kat":"krajowa"},"geometry":{"type":"LineString","coordinates":[[19.96754,49.30959],[19.9654,49.30922],[19.96204,49.3084],[19.95913,49.30626],[19.95891,49.30606],[19.95875,49.30562]]}},{"type":"Feature","properties":{"numer":"47","klasa":"droga gĹ‚Ăłwna ruchu przyĹ›pieszonego","kat":"krajowa"},"geometry":{"type":"LineString","coordinates":[[19.96761,49.3096],[19.96754,49.30959]]}},{"type":"Feature","properties":{"numer":"47","klasa":"droga gĹ‚Ăłwna ruchu przyĹ›pieszonego","kat":"krajowa"},"geometry":{"type":"LineString","coordinates":[[19.96893,49.30976],[19.96761,49.3096]]}},{"type":"Feature","properties":{"numer":"47","klasa":"droga gĹ‚Ăłwna ruchu przyĹ›pieszonego","kat":"krajowa"},"geometry":{"type":"LineString","coordinates":[[19.98705,49.32187],[19.98578,49.32081],[19.98436,49.31923],[19.97639,49.31274],[19.97483,49.31205],[19.96893,49.30976]]}},{"type":"Feature","properties":{"numer":"47","klasa":"droga gĹ‚Ăłwna ruchu przyĹ›pieszonego","kat":"krajowa"},"geometry":{"type":"LineString","coordinates":[[19.98712,49.32193],[19.98705,49.32187]]}},{"type":"Feature","properties":{"numer":"47","klasa":"droga gĹ‚Ăłwna ruchu przyĹ›pieszonego","kat":"krajowa"},"geometry":{"type":"LineString","coordinates":[[19.9935693165276,49.327688860287594],[19.98712,49.32193]]}}]}