{"type":"FeatureCollection","features":[{"type":"Feature","properties":{"numer":"1348W","klasa":"droga zbiorcza","kat":"powiatowa"},"geometry":{"type":"LineString","coordinates":[[21.55755,51.75905],[21.55763,51.75795],[21.55679,51.75625],[21.55669,51.75587],[21.55695,51.75407],[21.5686,51.75133],[21.57789,51.74936],[21.578241444723616,51.74920860842675]]}},{"type":"Feature","properties":{"numer":"1348W","klasa":"droga zbiorcza","kat":"powiatowa"},"geometry":{"type":"LineString","coordinates":[[21.55755,51.75905],[21.55702,51.76217],[21.55703,51.76233],[21.55737,51.76255],[21.5571,51.76296]]}},{"type":"Feature","properties":{"numer":"1348W","klasa":"droga zbiorcza","kat":"powiatowa"},"geometry":{"type":"LineString","coordinates":[[21.55892,51.78093],[21.55894,51.7789],[21.55841,51.77734],[21.56045,51.7765],[21.56196,51.77528],[21.5618,51.77493],[21.56216,51.77458],[21.56272,51.77416],[21.56394,51.77352],[21.56284,51.77211],[21.5616,51.77176],[21.56133,51.77161],[21.55784,51.76934],[21.55645,51.76865]]}},{"type":"Feature","properties":{"numer":"1348W","klasa":"droga zbiorcza","kat":"powiatowa"},"geometry":{"type":"LineString","coordinates":[[21.55892,51.78325],[21.55892,51.78093]]}},{"type":"Feature","properties":{"numer":"1348W","klasa":"droga zbiorcza","kat":"powiatowa"},"geometry":{"type":"LineString","coordinates":[[21.55894,51.78339],[21.55892,51.78325]]}},{"type":"Feature","properties":{"numer":"1348W","klasa":"droga zbiorcza","kat":"powiatowa"},"geometry":{"type":"LineString","coordinates":[[21.55956,51.78554],[21.55894,51.78339]]}},{"type":"Feature","properties":{"numer":"1325W","klasa":"droga zbiorcza","kat":"powiatowa"},"geometry":{"type":"LineString","coordinates":[[21.590996224254404,51.75036663571952],[21.59107,51.75115],[21.59185,51.75369],[21.595498343135187,51.75980948755208]]}},{"type":"Feature","properties":{"numer":"1325W","klasa":"droga zbiorcza","kat":"powiatowa"},"geometry":{"type":"LineString","coordinates":[[21.596460052400342,51.762756198556986],[21.59696,51.76437],[21.597049397157324,51.765547062571464]]}},{"type":"Feature","properties":{"numer":"1346W","klasa":"droga zbiorcza","kat":"powiatowa"},"geometry":{"type":"LineString","coordinates":[[21.62867,51.79718],[21.62893,51.79708],[21.63081,51.79692],[21.63089,51.79597],[21.63104,51.79583],[21.63132,51.79576],[21.64783,51.79454],[21.64803,51.79443],[21.64799,51.79336],[21.64812,51.79316],[21.6518,51.79083],[21.65553,51.78928],[21.65567,51.78915],[21.65577,51.78881],[21.65602,51.7888],[21.65683,51.78897],[21.65949,51.78964],[21.65983,51.78961],[21.66004,51.78592],[21.65953,51.78187],[21.66042,51.77986],[21.660554696132596,51.779657955801106]]}},{"type":"Feature","properties":{"numer":"1345W","klasa":"droga zbiorcza","kat":"powiatowa"},"geometry":{"type":"LineString","coordinates":[[21.52799,51.78889],[21.52459,51.78934],[21.51758,51.79044],[21.50358,51.79149],[21.5026,51.7915],[21.50163,51.79135],[21.4863,51.78804],[21.486220414658955,51.78801652079977]]}},{"type":"Feature","properties":{"numer":"1306W","klasa":"droga zbiorcza","kat":"powiatowa"},"geometry":{"type":"LineString","coordinates":[[21.4932,51.81088],[21.49423,51.80924],[21.49465,51.80881],[21.49852,51.80643],[21.50026,51.80515],[21.50097,51.80483],[21.50175,51.80468],[21.50646,51.80432],[21.5116,51.80302],[21.51224,51.803],[21.51835,51.80335],[21.5193,51.80322],[21.5201,51.80285],[21.52428,51.79858],[21.52906,51.79346],[21.52926,51.79285],[21.52912,51.79129],[21.52799,51.78889]]}},{"type":"Feature","properties":{"numer":"1323W","klasa":"droga zbiorcza","kat":"powiatowa"},"geometry":{"type":"LineString","coordinates":[[21.4932,51.81088],[21.49506,51.8113],[21.51992,51.81802],[21.52455,51.81908],[21.52859,51.82153],[21.53576,51.82462],[21.53912,51.82829],[21.53929,51.82875],[21.53929,51.83026]]}},{"type":"Feature","properties":{"numer":"1306W","klasa":"droga zbiorcza","kat":"powiatowa"},"geometry":{"type":"LineString","coordinates":[[21.490323174805063,51.815294061996184],[21.49109,51.81425],[21.4932,51.81088]]}},{"type":"Feature","properties":{"numer":"1345W","klasa":"droga zbiorcza","kat":"powiatowa"},"geometry":{"type":"LineString","coordinates":[[21.60850182665222,51.7968316468039],[21.60928,51.79708]]}},{"type":"Feature","properties":{"numer":"1345W","klasa":"droga zbiorcza","kat":"powiatowa"},"geometry":{"type":"LineString","coordinates":[[21.61413,51.7965],[21.61422,51.79646]]}},{"type":"Feature","properties":{"numer":"1345W","klasa":"droga zbiorcza","kat":"powiatowa"},"geometry":{"type":"LineString","coordinates":[[21.60928,51.79708],[21.61005,51.79723],[21.61207,51.79726],[21.61413,51.7965]]}},{"type":"Feature","properties":{"numer":"1345W","klasa":"droga zbiorcza","kat":"powiatowa"},"geometry":{"type":"LineString","coordinates":[[21.61422,51.79646],[21.61503,51.7961],[21.61564,51.7961],[21.61979,51.79749],[21.62248,51.79775],[21.62361,51.79774],[21.62788,51.79715],[21.62843,51.79712],[21.62867,51.79718]]}},{"type":"Feature","properties":{"numer":"1345W","klasa":"droga zbiorcza","kat":"powiatowa"},"geometry":{"type":"LineString","coordinates":[[21.62867,51.79718],[21.63277,51.80107]]}},{"type":"Feature","properties":{"numer":"1345W","klasa":"droga zbiorcza","kat":"powiatowa"},"geometry":{"type":"LineString","coordinates":[[21.63277,51.80107],[21.63283,51.80113]]}},{"type":"Feature","properties":{"numer":"1326W","klasa":"droga zbiorcza","kat":"powiatowa"},"geometry":{"type":"LineString","coordinates":[[21.60928,51.79708],[21.60846,51.79967],[21.608368289768485,51.800779693801346]]}},{"type":"Feature","properties":{"numer":"1326W","klasa":"droga zbiorcza","kat":"powiatowa"},"geometry":{"type":"LineString","coordinates":[[21.608105371202587,51.80396100844869],[21.60806,51.80451],[21.607581347296918,51.80567448344182]]}},{"type":"Feature","properties":{"numer":"1326W","klasa":"droga zbiorcza","kat":"powiatowa"},"geometry":{"type":"LineString","coordinates":[[21.607408616236164,51.80623928659286],[21.60742,51.8063],[21.60706,51.80738],[21.607293517503635,51.8078985191813]]}},{"type":"Feature","properties":{"numer":"1326W","klasa":"droga zbiorcza","kat":"powiatowa"},"geometry":{"type":"LineString","coordinates":[[21.607690933391083,51.808780970206975],[21.60833,51.8102],[21.60912,51.81636],[21.60901,51.81711],[21.60847,51.81854],[21.60839,51.81932],[21.6085,51.82025],[21.60878,51.82092],[21.60953,51.82181],[21.61,51.82219],[21.61199,51.82346],[21.61338,51.82499],[21.61375,51.82605],[21.6143,51.82688],[21.61572,51.83049],[21.61599,51.83064],[21.61673,51.83074],[21.61713,51.83091],[21.61865,51.83193],[21.61998,51.83352]]}},{"type":"Feature","properties":{"numer":"1327W","klasa":"droga zbiorcza","kat":"powiatowa"},"geometry":{"type":"LineString","coordinates":[[21.61998,51.83352],[21.62915,51.83225],[21.633,51.83334],[21.63568,51.83397],[21.63848,51.83458],[21.64178,51.83515],[21.64918865726548,51.836414892703864]]}},{"type":"Feature","properties":{"numer":"1327W","klasa":"droga zbiorcza","kat":"powiatowa"},"geometry":{"type":"LineString","coordinates":[[21.613959356798535,51.83540305223535],[21.61998,51.83352]]}},{"type":"Feature","properties":{"numer":"1345W","klasa":"droga zbiorcza","kat":"powiatowa"},"geometry":{"type":"LineString","coordinates":[[21.52799,51.78889],[21.53067,51.78853],[21.53164,51.78833],[21.53804,51.78678],[21.5402,51.78575],[21.54115,51.78546],[21.54502,51.78483],[21.54663,51.78473],[21.54728,51.78477],[21.55124,51.78581],[21.55956,51.78554]]}},{"type":"Feature","properties":{"numer":"1345W","klasa":"droga zbiorcza","kat":"powiatowa"},"geometry":{"type":"LineString","coordinates":[[21.55956,51.78554],[21.56401,51.78526],[21.565,51.78528],[21.574783612113468,51.78639206629148]]}},{"type":"Feature","properties":{"numer":"1325W","klasa":"droga zbiorcza","kat":"powiatowa"},"geometry":{"type":"LineString","coordinates":[[21.57307,51.82325],[21.58378,51.80597],[21.58395731936237,51.805328521130264]]}},{"type":"Feature","properties":{"numer":"1324W","klasa":"droga zbiorcza","kat":"powiatowa"},"geometry":{"type":"LineString","coordinates":[[21.53929,51.83026],[21.57307,51.82325]]}},{"type":"Feature","properties":{"numer":"1323W","klasa":"droga zbiorcza","kat":"powiatowa"},"geometry":{"type":"LineString","coordinates":[[21.53929,51.83026],[21.53964,51.83106],[21.53999,51.83156],[21.54136,51.83308],[21.54485,51.83783],[21.545240707773285,51.83899282075383]]}},{"type":"Feature","properties":{"numer":"1325W","klasa":"droga zbiorcza","kat":"powiatowa"},"geometry":{"type":"LineString","coordinates":[[21.57512333629491,51.83919091903394],[21.57503,51.83649],[21.57501,51.83072],[21.57469,51.82848],[21.57307,51.82325]]}},{"type":"Feature","properties":{"numer":"1345W","klasa":"droga zbiorcza","kat":"powiatowa"},"geometry":{"type":"LineString","coordinates":[[21.63283,51.80113],[21.63392,51.80213],[21.6343,51.80227],[21.64354,51.80295],[21.6461,51.80439],[21.64658,51.80453],[21.64781,51.8046],[21.65402,51.80433],[21.66047,51.80504],[21.6611,51.80523],[21.67113871046571,51.8119687883403]]}}]}