{"type":"FeatureCollection","features":[{"type":"Feature","properties":{"numer":"1424W","klasa":"droga zbiorcza","kat":"powiatowa"},"geometry":{"type":"LineString","coordinates":[[19.50508044827034,52.33694902349077],[19.50477,52.33709],[19.48373,52.3429]]}},{"type":"Feature","properties":{"numer":"A1,E75","klasa":"autostrada","kat":"krajowa"},"geometry":{"type":"LineString","coordinates":[[19.34759,52.34741],[19.347595707797133,52.3474062013626]]}},{"type":"Feature","properties":{"numer":"A1,E75","klasa":"autostrada","kat":"krajowa"},"geometry":{"type":"LineString","coordinates":[[19.34759,52.34741],[19.328342341687524,52.359562207948066]]}},{"type":"Feature","properties":{"numer":"1419W","klasa":"droga zbiorcza","kat":"powiatowa"},"geometry":{"type":"LineString","coordinates":[[19.35008,52.36613],[19.35154,52.36381],[19.352,52.36267],[19.35221,52.36061],[19.35458,52.35981],[19.35484,52.35966],[19.35745,52.3576],[19.35799,52.35631],[19.35947,52.35487],[19.36032,52.35436],[19.36186,52.35371],[19.36292,52.35303]]}},{"type":"Feature","properties":{"numer":"1419W","klasa":"droga zbiorcza","kat":"powiatowa"},"geometry":{"type":"LineString","coordinates":[[19.34154,52.38404],[19.34195,52.38288],[19.34263,52.38158],[19.34779,52.37362],[19.34849,52.37233],[19.34912,52.37028],[19.34899,52.36848],[19.35008,52.36613]]}},{"type":"Feature","properties":{"numer":"581","klasa":"droga gĹ‚Ăłwna","kat":"wojewodzka"},"geometry":{"type":"LineString","coordinates":[[19.33449,52.38298],[19.33388,52.38286],[19.33168,52.38209],[19.31101,52.37484]]}},{"type":"Feature","properties":{"numer":"581","klasa":"droga gĹ‚Ăłwna","kat":"wojewodzka"},"geometry":{"type":"LineString","coordinates":[[19.34154,52.38404],[19.33595,52.38301],[19.33449,52.38298]]}},{"type":"Feature","properties":{"numer":"581","klasa":"droga gĹ‚Ăłwna","kat":"wojewodzka"},"geometry":{"type":"LineString","coordinates":[[19.31022,52.37456],[19.295030681691152,52.36919024099286]]}},{"type":"Feature","properties":{"numer":"A1,E75","klasa":"autostrada","kat":"krajowa"},"geometry":{"type":"LineString","coordinates":[[19.31062,52.3747],[19.313100595161384,52.37126011217855]]}},{"type":"Feature","properties":{"numer":"581","klasa":"droga gĹ‚Ăłwna","kat":"wojewodzka"},"geometry":{"type":"LineString","coordinates":[[19.31062,52.3747],[19.31022,52.37456]]}},{"type":"Feature","properties":{"numer":"581","klasa":"droga gĹ‚Ăłwna","kat":"wojewodzka"},"geometry":{"type":"LineString","coordinates":[[19.31101,52.37484],[19.31062,52.3747]]}},{"type":"Feature","properties":{"numer":"A1,E75","klasa":"autostrada","kat":"krajowa"},"geometry":{"type":"LineString","coordinates":[[19.304530742872874,52.38103794189803],[19.30622,52.37975],[19.30811,52.37797],[19.30902,52.37692],[19.31062,52.3747]]}},{"type":"Feature","properties":{"numer":"1413W","klasa":"droga zbiorcza","kat":"powiatowa"},"geometry":{"type":"LineString","coordinates":[[19.31628,52.38635],[19.30837,52.38521]]}},{"type":"Feature","properties":{"numer":"1426W","klasa":"droga zbiorcza","kat":"powiatowa"},"geometry":{"type":"LineString","coordinates":[[19.394965828722256,52.34390346382583],[19.39765,52.34407],[19.40148,52.34457]]}},{"type":"Feature","properties":{"numer":"140245W","klasa":"droga lokalna","kat":"powiatowa"},"geometry":{"type":"LineString","coordinates":[[19.39490915374017,52.343902414936586],[19.3945,52.34507],[19.39418,52.34761]]}},{"type":"Feature","properties":{"numer":"140245W","klasa":"droga lokalna","kat":"powiatowa"},"geometry":{"type":"LineString","coordinates":[[19.39418,52.34761],[19.39394,52.3494]]}},{"type":"Feature","properties":{"numer":"60","klasa":"droga gĹ‚Ăłwna ruchu przyĹ›pieszonego","kat":"krajowa"},"geometry":{"type":"LineString","coordinates":[[19.42064126802871,52.33876512447166],[19.42392,52.34418],[19.42466,52.34522]]}},{"type":"Feature","properties":{"numer":"1426W","klasa":"droga zbiorcza","kat":"powiatowa"},"geometry":{"type":"LineString","coordinates":[[19.40148,52.34457],[19.40208,52.34464]]}},{"type":"Feature","properties":{"numer":"1426W","klasa":"droga zbiorcza","kat":"powiatowa"},"geometry":{"type":"LineString","coordinates":[[19.40208,52.34464],[19.40403,52.3449],[19.42504,52.34727]]}},{"type":"Feature","properties":{"numer":"60","klasa":"droga gĹ‚Ăłwna ruchu przyĹ›pieszonego","kat":"krajowa"},"geometry":{"type":"LineString","coordinates":[[19.42466,52.34522],[19.42516,52.3459],[19.42532,52.34631],[19.42532,52.34668],[19.42504,52.34727]]}},{"type":"Feature","properties":{"numer":"60","klasa":"droga gĹ‚Ăłwna ruchu przyĹ›pieszonego","kat":"krajowa"},"geometry":{"type":"LineString","coordinates":[[19.42504,52.34727],[19.42467,52.34809],[19.42387,52.3516],[19.41969,52.36124]]}},{"type":"Feature","properties":{"numer":"2134E","klasa":"","kat":"powiatowa"},"geometry":{"type":"LineString","coordinates":[[19.482649423912324,52.338308838263025],[19.48265,52.33831]]}},{"type":"Feature","properties":{"numer":"2134E","klasa":"","kat":"powiatowa"},"geometry":{"type":"LineString","coordinates":[[19.48267,52.33835],[19.48265,52.33831]]}},{"type":"Feature","properties":{"numer":"1422W","klasa":"droga zbiorcza","kat":"powiatowa"},"geometry":{"type":"LineString","coordinates":[[19.48267,52.33837],[19.48373,52.3429]]}},{"type":"Feature","properties":{"numer":"1422W","klasa":"droga zbiorcza","kat":"powiatowa"},"geometry":{"type":"LineString","coordinates":[[19.48373,52.3429],[19.48414,52.34457],[19.48594,52.3497],[19.48829,52.35365]]}},{"type":"Feature","properties":{"numer":"1424W","klasa":"droga zbiorcza","kat":"powiatowa"},"geometry":{"type":"LineString","coordinates":[[19.48373,52.3429],[19.45323,52.35118],[19.45288,52.35157],[19.45295,52.35211],[19.45545,52.36136]]}},{"type":"Feature","properties":{"numer":"1425W","klasa":"droga zbiorcza","kat":"powiatowa"},"geometry":{"type":"LineString","coordinates":[[19.45545,52.36136],[19.47797,52.35618],[19.48468,52.3546],[19.48829,52.35365]]}},{"type":"Feature","properties":{"numer":"1422W","klasa":"droga zbiorcza","kat":"powiatowa"},"geometry":{"type":"LineString","coordinates":[[19.48829,52.35365],[19.49275,52.36088],[19.49304,52.36168],[19.49308,52.36232],[19.49282,52.36288],[19.48843,52.369],[19.48786,52.36996],[19.48589,52.37657]]}},{"type":"Feature","properties":{"numer":"1423W","klasa":"droga zbiorcza","kat":"powiatowa"},"geometry":{"type":"LineString","coordinates":[[19.47103,52.3755],[19.47272,52.37476],[19.47368,52.37473],[19.47484,52.37486],[19.47903,52.3756],[19.48035,52.37609],[19.48084,52.37619],[19.48509,52.37643],[19.48589,52.37657]]}},{"type":"Feature","properties":{"numer":"1427W","klasa":"droga zbiorcza","kat":"powiatowa"},"geometry":{"type":"LineString","coordinates":[[19.445313054998888,52.34685534624805],[19.42518,52.34521],[19.42466,52.34522]]}},{"type":"Feature","properties":{"numer":"1424W","klasa":"droga zbiorcza","kat":"powiatowa"},"geometry":{"type":"LineString","coordinates":[[19.45545,52.36136],[19.45625,52.36429],[19.4562,52.36448],[19.44994,52.36673],[19.44932,52.3668],[19.41969,52.36124]]}},{"type":"Feature","properties":{"numer":"1423W","klasa":"droga zbiorcza","kat":"powiatowa"},"geometry":{"type":"LineString","coordinates":[[19.43596,52.3808],[19.44172,52.37984],[19.44399,52.37905],[19.44529,52.37876],[19.44623,52.37884],[19.44833,52.37917],[19.45154,52.37948],[19.45351,52.37948],[19.4563,52.37885],[19.45807,52.37853],[19.45986,52.37774],[19.46682,52.3773],[19.47103,52.3755]]}},{"type":"Feature","properties":{"numer":"60","klasa":"droga gĹ‚Ăłwna ruchu przyĹ›pieszonego","kat":"krajowa"},"geometry":{"type":"LineString","coordinates":[[19.442676276461118,52.38911922096478],[19.44037,52.38595],[19.43596,52.3808]]}},{"type":"Feature","properties":{"numer":"140245W","klasa":"droga lokalna","kat":"powiatowa"},"geometry":{"type":"LineString","coordinates":[[19.39394,52.3494],[19.39378,52.35054]]}},{"type":"Feature","properties":{"numer":"140245W","klasa":"droga lokalna","kat":"powiatowa"},"geometry":{"type":"LineString","coordinates":[[19.39378,52.35054],[19.39354,52.35263],[19.39327,52.35309]]}},{"type":"Feature","properties":{"numer":"140245W","klasa":"droga lokalna","kat":"powiatowa"},"geometry":{"type":"LineString","coordinates":[[19.39327,52.35309],[19.39309,52.35378]]}},{"type":"Feature","properties":{"numer":"140245W","klasa":"droga lokalna","kat":"powiatowa"},"geometry":{"type":"LineString","coordinates":[[19.39309,52.35378],[19.39295,52.35434]]}},{"type":"Feature","properties":{"numer":"1419W","klasa":"droga zbiorcza","kat":"powiatowa"},"geometry":{"type":"LineString","coordinates":[[19.36292,52.35303],[19.36379,52.35332],[19.37355,52.35569],[19.37872,52.35706]]}},{"type":"Feature","properties":{"numer":"140245W","klasa":"droga lokalna","kat":"powiatowa"},"geometry":{"type":"LineString","coordinates":[[19.39295,52.35434],[19.392,52.35794]]}},{"type":"Feature","properties":{"numer":"1419W","klasa":"droga zbiorcza","kat":"powiatowa"},"geometry":{"type":"LineString","coordinates":[[19.37872,52.35706],[19.37931,52.35734],[19.3813,52.35803],[19.38247,52.35796],[19.38305,52.35749]]}},{"type":"Feature","properties":{"numer":"1419W","klasa":"droga zbiorcza","kat":"powiatowa"},"geometry":{"type":"LineString","coordinates":[[19.38305,52.35749],[19.392,52.35794]]}},{"type":"Feature","properties":{"numer":"1417W","klasa":"droga zbiorcza","kat":"powiatowa"},"geometry":{"type":"LineString","coordinates":[[19.36495,52.38261],[19.36562,52.38239],[19.369,52.38194],[19.37328,52.38166],[19.37481,52.38149],[19.37698,52.3806],[19.37816,52.37989],[19.37982,52.37872],[19.38187,52.37784],[19.3826,52.37765],[19.38357,52.3775],[19.38673,52.37749],[19.3879,52.3777],[19.3895,52.37826],[19.39007,52.37856],[19.39036,52.37847],[19.39704,52.38148],[19.39751,52.38157],[19.4022,52.38325],[19.40255,52.38361],[19.40455,52.39022],[19.40732,52.39168],[19.41089,52.3929],[19.41476,52.39438],[19.41572,52.39517],[19.41553,52.39532],[19.41388,52.39588],[19.41253,52.3967],[19.41081,52.39708],[19.41072,52.39732],[19.41072,52.39787],[19.41104,52.39903],[19.41153,52.40068],[19.41213,52.40212],[19.41407,52.40459]]}},{"type":"Feature","properties":{"numer":"581","klasa":"droga gĹ‚Ăłwna","kat":"wojewodzka"},"geometry":{"type":"LineString","coordinates":[[19.4053,52.42191],[19.39287,52.41005],[19.37805,52.3961],[19.37716,52.39572],[19.35631,52.3892]]}},{"type":"Feature","properties":{"numer":"1418W","klasa":"droga zbiorcza","kat":"powiatowa"},"geometry":{"type":"LineString","coordinates":[[19.43894,52.41609],[19.44029,52.41609],[19.44105,52.41592],[19.44524,52.41406],[19.44605,52.41374],[19.44686,52.41356],[19.44751,52.41354],[19.44816,52.41363],[19.45321,52.41486]]}},{"type":"Feature","properties":{"numer":"1418W","klasa":"droga zbiorcza","kat":"powiatowa"},"geometry":{"type":"LineString","coordinates":[[19.45321,52.41486],[19.45461,52.41505]]}},{"type":"Feature","properties":{"numer":"1418W","klasa":"droga zbiorcza","kat":"powiatowa"},"geometry":{"type":"LineString","coordinates":[[19.45461,52.41505],[19.454654646464643,52.4150603030303]]}},{"type":"Feature","properties":{"numer":"1429W","klasa":"droga zbiorcza","kat":"powiatowa"},"geometry":{"type":"LineString","coordinates":[[19.51982,52.38611],[19.52074,52.38558],[19.52531,52.38187],[19.52574,52.38127],[19.52623,52.37955],[19.52654,52.37899],[19.5272,52.37843],[19.52946,52.37709],[19.53005,52.37647],[19.53016,52.37594],[19.53,52.37547],[19.52764,52.3716],[19.52758,52.3711],[19.52786,52.37048],[19.52831515999206,52.37007431392012]]}},{"type":"Feature","properties":{"numer":"1428W","klasa":"droga zbiorcza","kat":"powiatowa"},"geometry":{"type":"LineString","coordinates":[[19.50496,52.38517],[19.50821,52.38527],[19.50841,52.38538],[19.50843,52.38786],[19.508542956705387,52.38791945089757]]}},{"type":"Feature","properties":{"numer":"1428W","klasa":"droga zbiorcza","kat":"powiatowa"},"geometry":{"type":"LineString","coordinates":[[19.51697,52.38601],[19.51881,52.386],[19.51982,52.38611]]}},{"type":"Feature","properties":{"numer":"1429W","klasa":"droga zbiorcza","kat":"powiatowa"},"geometry":{"type":"LineString","coordinates":[[19.51976830997527,52.386151896125305],[19.51982,52.38611]]}},{"type":"Feature","properties":{"numer":"573","klasa":"droga zbiorcza","kat":"wojewodzka"},"geometry":{"type":"LineString","coordinates":[[19.51796,52.39539],[19.52157,52.39498],[19.52867,52.39343],[19.53529,52.39322],[19.535512201772892,52.39314820367244]]}},{"type":"Feature","properties":{"numer":"1422W","klasa":"droga zbiorcza","kat":"powiatowa"},"geometry":{"type":"LineString","coordinates":[[19.48589,52.37657],[19.48354,52.3845]]}},{"type":"Feature","properties":{"numer":"1428W","klasa":"droga zbiorcza","kat":"powiatowa"},"geometry":{"type":"LineString","coordinates":[[19.48354,52.3845],[19.48588,52.38465],[19.50496,52.38517]]}},{"type":"Feature","properties":{"numer":"1422W","klasa":"droga zbiorcza","kat":"powiatowa"},"geometry":{"type":"LineString","coordinates":[[19.482681413352882,52.38750562949757],[19.48354,52.3845]]}},{"type":"Feature","properties":{"numer":"1416W","klasa":"droga zbiorcza","kat":"powiatowa"},"geometry":{"type":"LineString","coordinates":[[19.510886610097582,52.40372525243954],[19.51107,52.40376],[19.51297,52.40359],[19.51376,52.40327]]}},{"type":"Feature","properties":{"numer":"573","klasa":"droga zbiorcza","kat":"wojewodzka"},"geometry":{"type":"LineString","coordinates":[[19.51796,52.39539],[19.5178,52.39541]]}},{"type":"Feature","properties":{"numer":"573","klasa":"droga zbiorcza","kat":"wojewodzka"},"geometry":{"type":"LineString","coordinates":[[19.5178,52.39541],[19.51651,52.39558],[19.51552,52.39592],[19.511964145022603,52.39750685695712]]}},{"type":"Feature","properties":{"numer":"1416W","klasa":"droga zbiorcza","kat":"powiatowa"},"geometry":{"type":"LineString","coordinates":[[19.51376,52.40327],[19.51383,52.4032]]}},{"type":"Feature","properties":{"numer":"1420W","klasa":"droga zbiorcza","kat":"powiatowa"},"geometry":{"type":"LineString","coordinates":[[19.5594227394234,52.406558388379544],[19.55893,52.40681],[19.55729,52.40782],[19.55471,52.40846],[19.55463,52.40854],[19.55434,52.40966],[19.55414,52.41117],[19.55433,52.41379],[19.55492,52.41611],[19.55616,52.41941]]}},{"type":"Feature","properties":{"numer":"1416W","klasa":"droga zbiorcza","kat":"powiatowa"},"geometry":{"type":"LineString","coordinates":[[19.51383,52.4032],[19.51446,52.40189],[19.5147,52.40155],[19.51506,52.40129],[19.51536,52.40117],[19.51624,52.40118],[19.51687,52.40091],[19.51778,52.40076],[19.5179,52.40079],[19.51825,52.40296],[19.52048,52.40672],[19.51464,52.41451],[19.51377,52.41539],[19.51356,52.41582],[19.51312,52.41633],[19.51215,52.41723],[19.51039,52.41954]]}},{"type":"Feature","properties":{"numer":"1420W","klasa":"droga zbiorcza","kat":"powiatowa"},"geometry":{"type":"LineString","coordinates":[[19.55616,52.41941],[19.55609,52.41969],[19.55538,52.42077],[19.55533,52.42122],[19.5559,52.42573]]}},{"type":"Feature","properties":{"numer":"1452W","klasa":"droga zbiorcza","kat":"powiatowa"},"geometry":{"type":"LineString","coordinates":[[19.5559,52.42573],[19.5609,52.42552],[19.56177,52.42558],[19.56226465999887,52.42569294103157]]}},{"type":"Feature","properties":{"numer":"1452W","klasa":"droga zbiorcza","kat":"powiatowa"},"geometry":{"type":"LineString","coordinates":[[19.50402,52.43142],[19.52876,52.42665],[19.5559,52.42573]]}},{"type":"Feature","properties":{"numer":"1420W","klasa":"droga zbiorcza","kat":"powiatowa"},"geometry":{"type":"LineString","coordinates":[[19.5559,52.42573],[19.55332,52.44025],[19.55271,52.443],[19.55227,52.4437],[19.55199,52.44378],[19.55051,52.44331],[19.5492,52.44342],[19.54747,52.44338]]}},{"type":"Feature","properties":{"numer":"60","klasa":"droga gĹ‚Ăłwna ruchu przyĹ›pieszonego","kat":"krajowa"},"geometry":{"type":"LineString","coordinates":[[19.50437,52.43564],[19.50766,52.43768],[19.52852,52.44964]]}},{"type":"Feature","properties":{"numer":"60","klasa":"droga gĹ‚Ăłwna ruchu przyĹ›pieszonego","kat":"krajowa"},"geometry":{"type":"LineString","coordinates":[[19.495811527278054,52.429224792569656],[19.49917749530728,52.431755145678615]]}},{"type":"Feature","properties":{"numer":"1416W","klasa":"droga zbiorcza","kat":"powiatowa"},"geometry":{"type":"LineString","coordinates":[[19.51039,52.41954],[19.50728,52.42357],[19.50849,52.42402],[19.50846,52.4241],[19.50397,52.43121],[19.50402,52.43142]]}},{"type":"Feature","properties":{"numer":"60","klasa":"droga gĹ‚Ăłwna ruchu przyĹ›pieszonego","kat":"krajowa"},"geometry":{"type":"LineString","coordinates":[[19.4998,52.43223],[19.49999,52.43237]]}},{"type":"Feature","properties":{"numer":"1416W,1452W","klasa":"droga zbiorcza","kat":"powiatowa"},"geometry":{"type":"LineString","coordinates":[[19.50232,52.43368],[19.50376,52.43154],[19.50402,52.43142]]}},{"type":"Feature","properties":{"numer":"60","klasa":"droga gĹ‚Ăłwna ruchu przyĹ›pieszonego","kat":"krajowa"},"geometry":{"type":"LineString","coordinates":[[19.49999,52.43237],[19.50197,52.43387]]}},{"type":"Feature","properties":{"numer":"1452W","klasa":"droga zbiorcza","kat":"powiatowa"},"geometry":{"type":"LineString","coordinates":[[19.49791,52.43374],[19.49805,52.43381]]}},{"type":"Feature","properties":{"numer":"1416W,1452W","klasa":"droga zbiorcza","kat":"powiatowa"},"geometry":{"type":"LineString","coordinates":[[19.50197,52.43387],[19.50232,52.43368]]}},{"type":"Feature","properties":{"numer":"1416W,1452W","klasa":"droga zbiorcza","kat":"powiatowa"},"geometry":{"type":"LineString","coordinates":[[19.50145,52.43409],[19.50197,52.43387]]}},{"type":"Feature","properties":{"numer":"1452W","klasa":"droga zbiorcza","kat":"powiatowa"},"geometry":{"type":"LineString","coordinates":[[19.49805,52.43381],[19.49883,52.43417],[19.49938,52.43431],[19.49999,52.43437],[19.50072,52.43431]]}},{"type":"Feature","properties":{"numer":"1416W,1452W","klasa":"droga zbiorcza","kat":"powiatowa"},"geometry":{"type":"LineString","coordinates":[[19.50072,52.43431],[19.50145,52.43409]]}},{"type":"Feature","properties":{"numer":"60","klasa":"droga gĹ‚Ăłwna ruchu przyĹ›pieszonego","kat":"krajowa"},"geometry":{"type":"LineString","coordinates":[[19.50197,52.43387],[19.50437,52.43564]]}},{"type":"Feature","properties":{"numer":"1416W","klasa":"droga zbiorcza","kat":"powiatowa"},"geometry":{"type":"LineString","coordinates":[[19.50072,52.43431],[19.50112,52.43519],[19.50101,52.43575],[19.49853,52.43945],[19.4971,52.44185],[19.49427,52.44602]]}},{"type":"Feature","properties":{"numer":"1420W","klasa":"droga zbiorcza","kat":"powiatowa"},"geometry":{"type":"LineString","coordinates":[[19.54747,52.44338],[19.54679,52.44312],[19.54655,52.44314],[19.54642,52.44324],[19.54243,52.45232]]}},{"type":"Feature","properties":{"numer":"1466W","klasa":"droga zbiorcza","kat":"powiatowa"},"geometry":{"type":"LineString","coordinates":[[19.49427,52.44602],[19.52681,52.45034],[19.52792,52.45042],[19.52859,52.45021]]}},{"type":"Feature","properties":{"numer":"60","klasa":"droga gĹ‚Ăłwna ruchu przyĹ›pieszonego","kat":"krajowa"},"geometry":{"type":"LineString","coordinates":[[19.52852,52.44964],[19.52882,52.44981]]}},{"type":"Feature","properties":{"numer":"60","klasa":"droga gĹ‚Ăłwna ruchu przyĹ›pieszonego","kat":"krajowa"},"geometry":{"type":"LineString","coordinates":[[19.52882,52.44981],[19.52901,52.44992]]}},{"type":"Feature","properties":{"numer":"60","klasa":"droga gĹ‚Ăłwna ruchu przyĹ›pieszonego","kat":"krajowa"},"geometry":{"type":"LineString","coordinates":[[19.52901,52.44992],[19.52921,52.45003]]}},{"type":"Feature","properties":{"numer":"1466W","klasa":"droga zbiorcza","kat":"powiatowa"},"geometry":{"type":"LineString","coordinates":[[19.52882,52.45005],[19.52901,52.44992]]}},{"type":"Feature","properties":{"numer":"60","klasa":"droga gĹ‚Ăłwna ruchu przyĹ›pieszonego","kat":"krajowa"},"geometry":{"type":"LineString","coordinates":[[19.52921,52.45003],[19.52957,52.45022]]}},{"type":"Feature","properties":{"numer":"1466W","klasa":"droga zbiorcza","kat":"powiatowa"},"geometry":{"type":"LineString","coordinates":[[19.52859,52.45021],[19.52882,52.45005]]}},{"type":"Feature","properties":{"numer":"60","klasa":"droga gĹ‚Ăłwna ruchu przyĹ›pieszonego","kat":"krajowa"},"geometry":{"type":"LineString","coordinates":[[19.52957,52.45022],[19.53086,52.45071],[19.53189,52.45096],[19.53704,52.45163]]}},{"type":"Feature","properties":{"numer":"60","klasa":"droga gĹ‚Ăłwna ruchu przyĹ›pieszonego","kat":"krajowa"},"geometry":{"type":"LineString","coordinates":[[19.53704,52.45163],[19.54243,52.45232]]}},{"type":"Feature","properties":{"numer":"1418W","klasa":"droga zbiorcza","kat":"powiatowa"},"geometry":{"type":"LineString","coordinates":[[19.43282,52.41636],[19.43456,52.41585],[19.43545,52.41576],[19.43625,52.41575],[19.43894,52.41609]]}},{"type":"Feature","properties":{"numer":"1418W","klasa":"droga zbiorcza","kat":"powiatowa"},"geometry":{"type":"LineString","coordinates":[[19.43211,52.41638],[19.43269,52.41638]]}},{"type":"Feature","properties":{"numer":"1417W","klasa":"droga zbiorcza","kat":"powiatowa"},"geometry":{"type":"LineString","coordinates":[[19.43211,52.41638],[19.43174,52.41692],[19.43721,52.42254],[19.437948155613352,52.42333401603815]]}},{"type":"Feature","properties":{"numer":"1452W","klasa":"droga zbiorcza","kat":"powiatowa"},"geometry":{"type":"LineString","coordinates":[[19.497888287216878,52.43372935373215],[19.49791,52.43374]]}},{"type":"Feature","properties":{"numer":"60","klasa":"droga gĹ‚Ăłwna ruchu przyĹ›pieszonego","kat":"krajowa"},"geometry":{"type":"LineString","coordinates":[[19.499655308641977,52.43211838095238],[19.4998,52.43223]]}},{"type":"Feature","properties":{"numer":"1416W","klasa":"droga zbiorcza","kat":"powiatowa"},"geometry":{"type":"LineString","coordinates":[[19.48829,52.45924],[19.48596,52.46144],[19.4815,52.46404],[19.48124,52.4641]]}},{"type":"Feature","properties":{"numer":"1414W","klasa":"droga zbiorcza","kat":"powiatowa"},"geometry":{"type":"LineString","coordinates":[[19.48829,52.45924],[19.48829,52.45991],[19.48879,52.46051],[19.49591,52.46571],[19.49647,52.46627]]}},{"type":"Feature","properties":{"numer":"1449W","klasa":"droga zbiorcza","kat":"powiatowa"},"geometry":{"type":"LineString","coordinates":[[19.49673,52.46618],[19.49647,52.46627]]}},{"type":"Feature","properties":{"numer":"1449W","klasa":"droga zbiorcza","kat":"powiatowa"},"geometry":{"type":"LineString","coordinates":[[19.50547,52.47126],[19.50632,52.46983],[19.5061,52.46698],[19.50625,52.4659],[19.50188,52.46421],[19.49673,52.46618]]}},{"type":"Feature","properties":{"numer":"1414W","klasa":"droga zbiorcza","kat":"powiatowa"},"geometry":{"type":"LineString","coordinates":[[19.49647,52.46627],[19.49697,52.4668],[19.4982,52.46752],[19.49913,52.46821],[19.50164,52.46902],[19.50363,52.4703],[19.50499,52.47078],[19.50547,52.47126]]}},{"type":"Feature","properties":{"numer":"573","klasa":"droga zbiorcza","kat":"wojewodzka"},"geometry":{"type":"LineString","coordinates":[[19.47276,52.4865],[19.47248,52.48609],[19.47231,52.48562],[19.47188,52.48315],[19.47194,52.4824],[19.48022,52.47169],[19.48041,52.47111],[19.48014,52.46793],[19.48124,52.4641]]}},{"type":"Feature","properties":{"numer":"1414W","klasa":"droga zbiorcza","kat":"powiatowa"},"geometry":{"type":"LineString","coordinates":[[19.50547,52.47126],[19.5059,52.47202],[19.50634,52.47414],[19.50835,52.48149],[19.50495,52.48252],[19.50264,52.48366],[19.50173,52.48395],[19.49092,52.48535],[19.48686,52.486],[19.48483,52.48665],[19.48001,52.48792],[19.47538,52.4894]]}},{"type":"Feature","properties":{"numer":"1402W","klasa":"droga zbiorcza","kat":"powiatowa"},"geometry":{"type":"LineString","coordinates":[[19.47276,52.4865],[19.47138,52.48726]]}},{"type":"Feature","properties":{"numer":"1402W","klasa":"droga zbiorcza","kat":"powiatowa"},"geometry":{"type":"LineString","coordinates":[[19.47138,52.48726],[19.47128,52.48732]]}},{"type":"Feature","properties":{"numer":"573","klasa":"droga zbiorcza","kat":"wojewodzka"},"geometry":{"type":"LineString","coordinates":[[19.47538,52.4894],[19.47455,52.48787],[19.47276,52.4865]]}},{"type":"Feature","properties":{"numer":"60","klasa":"droga gĹ‚Ăłwna ruchu przyĹ›pieszonego","kat":"krajowa"},"geometry":{"type":"LineString","coordinates":[[19.54243,52.45232],[19.55297348740916,52.45399513351361]]}},{"type":"Feature","properties":{"numer":"1415W","klasa":"droga zbiorcza","kat":"powiatowa"},"geometry":{"type":"LineString","coordinates":[[19.53704,52.45163],[19.53694,52.45232],[19.53789,52.45986]]}},{"type":"Feature","properties":{"numer":"290716W","klasa":"droga lokalna","kat":"powiatowa"},"geometry":{"type":"LineString","coordinates":[[19.53347,52.49643],[19.53349923660463,52.496416225061274]]}},{"type":"Feature","properties":{"numer":"1402W","klasa":"droga zbiorcza","kat":"powiatowa"},"geometry":{"type":"LineString","coordinates":[[19.47128,52.48732],[19.47029,52.4879],[19.46687,52.48894]]}},{"type":"Feature","properties":{"numer":"573","klasa":"droga zbiorcza","kat":"wojewodzka"},"geometry":{"type":"LineString","coordinates":[[19.48039,52.49662],[19.47884,52.4939],[19.47679,52.49141],[19.47538,52.4894]]}},{"type":"Feature","properties":{"numer":"573","klasa":"droga zbiorcza","kat":"wojewodzka"},"geometry":{"type":"LineString","coordinates":[[19.48043,52.49669],[19.48039,52.49662]]}},{"type":"Feature","properties":{"numer":"573","klasa":"droga zbiorcza","kat":"wojewodzka"},"geometry":{"type":"LineString","coordinates":[[19.48118,52.4984],[19.48043,52.49669]]}},{"type":"Feature","properties":{"numer":"1401W","klasa":"droga zbiorcza","kat":"powiatowa"},"geometry":{"type":"LineString","coordinates":[[19.48118,52.4984],[19.48323,52.49853]]}},{"type":"Feature","properties":{"numer":"1401W","klasa":"droga zbiorcza","kat":"powiatowa"},"geometry":{"type":"LineString","coordinates":[[19.48323,52.49853],[19.48336,52.49854]]}},{"type":"Feature","properties":{"numer":"1401W","klasa":"droga zbiorcza","kat":"powiatowa"},"geometry":{"type":"LineString","coordinates":[[19.48336,52.49854],[19.48807,52.49886],[19.4911,52.49952],[19.49252,52.49964],[19.49342,52.49958],[19.49697,52.49889],[19.49795,52.49886],[19.4988,52.49905],[19.49935,52.49929],[19.50099,52.50065],[19.50123,52.50074],[19.502,52.50053],[19.50432,52.5001],[19.51127,52.49904],[19.5153,52.49891],[19.51734,52.49831],[19.51892,52.49767],[19.52094,52.49795],[19.52285,52.49846],[19.52562,52.49883],[19.53175,52.49736],[19.5322,52.4972],[19.53347,52.49643]]}},{"type":"Feature","properties":{"numer":"1401W,573","klasa":"droga zbiorcza","kat":"powiatowa"},"geometry":{"type":"LineString","coordinates":[[19.48142,52.4996],[19.48118,52.4984]]}},{"type":"Feature","properties":{"numer":"1401W","klasa":"droga zbiorcza","kat":"powiatowa"},"geometry":{"type":"LineString","coordinates":[[19.44863,52.50817],[19.48142,52.4996]]}},{"type":"Feature","properties":{"numer":"573","klasa":"droga zbiorcza","kat":"wojewodzka"},"geometry":{"type":"LineString","coordinates":[[19.484174359919546,52.52437585304602],[19.48538,52.52108],[19.48574,52.5197],[19.48147,52.50258],[19.48142,52.4996]]}},{"type":"Feature","properties":{"numer":"A1,E75","klasa":"autostrada","kat":"krajowa"},"geometry":{"type":"LineString","coordinates":[[19.28908,52.3932],[19.28962146692841,52.392668377924835]]}},{"type":"Feature","properties":{"numer":"1412W","klasa":"droga zbiorcza","kat":"powiatowa"},"geometry":{"type":"LineString","coordinates":[[19.31628,52.38635],[19.31519,52.39573],[19.31454,52.39626],[19.31065,52.39855],[19.31003,52.4008],[19.31034,52.40127],[19.31029,52.40182],[19.30985,52.40196],[19.3093,52.40201],[19.29608,52.40255],[19.28475,52.40503],[19.28431,52.40498],[19.281509624975833,52.4041359153296]]}},{"type":"Feature","properties":{"numer":"191419C","klasa":"droga lokalna","kat":"powiatowa"},"geometry":{"type":"LineString","coordinates":[[19.28036,52.40553],[19.28071600000007,52.405089999999916]]}},{"type":"Feature","properties":{"numer":"A1,E75","klasa":"autostrada","kat":"krajowa"},"geometry":{"type":"LineString","coordinates":[[19.28908,52.3932],[19.289077581529206,52.39320220527227]]}},{"type":"Feature","properties":{"numer":"1408W","klasa":"droga zbiorcza","kat":"powiatowa"},"geometry":{"type":"LineString","coordinates":[[19.293473684858434,52.412886086171525],[19.30384,52.41364],[19.3058,52.41387],[19.30601,52.41403],[19.30601,52.41486],[19.30617,52.4151],[19.31018,52.41588],[19.31523,52.41842],[19.31592,52.41869]]}},{"type":"Feature","properties":{"numer":"1412W","klasa":"droga zbiorcza","kat":"powiatowa"},"geometry":{"type":"LineString","coordinates":[[19.33449,52.38298],[19.33425,52.3831],[19.32256,52.38594],[19.31684,52.38626],[19.31628,52.38635]]}},{"type":"Feature","properties":{"numer":"1417W","klasa":"droga zbiorcza","kat":"powiatowa"},"geometry":{"type":"LineString","coordinates":[[19.35631,52.3892],[19.3622,52.38341],[19.36464,52.383],[19.36495,52.38261]]}},{"type":"Feature","properties":{"numer":"581","klasa":"droga gĹ‚Ăłwna","kat":"wojewodzka"},"geometry":{"type":"LineString","coordinates":[[19.35631,52.3892],[19.35183,52.38775],[19.34231,52.38425],[19.34154,52.38404]]}},{"type":"Feature","properties":{"numer":"1405W","klasa":"droga zbiorcza","kat":"powiatowa"},"geometry":{"type":"LineString","coordinates":[[19.34169,52.4057],[19.34681,52.39918],[19.3486,52.39671],[19.35631,52.3892]]}},{"type":"Feature","properties":{"numer":"1405W","klasa":"droga zbiorcza","kat":"powiatowa"},"geometry":{"type":"LineString","coordinates":[[19.31592,52.41869],[19.31611,52.41854],[19.31673,52.41752],[19.32077,52.41361],[19.3283,52.40717],[19.33688,52.40413],[19.33715,52.40414],[19.33756,52.40452],[19.33817,52.40481],[19.34169,52.4057]]}},{"type":"Feature","properties":{"numer":"1410W","klasa":"droga zbiorcza","kat":"powiatowa"},"geometry":{"type":"LineString","coordinates":[[19.36893,52.4381],[19.36271,52.4269],[19.36294,52.42583],[19.3617,52.42406],[19.36037,52.42307],[19.35788,52.41851],[19.35063,52.40626],[19.34348,52.40613],[19.34169,52.4057]]}},{"type":"Feature","properties":{"numer":"1408W","klasa":"droga zbiorcza","kat":"powiatowa"},"geometry":{"type":"LineString","coordinates":[[19.31592,52.41869],[19.31636,52.41868],[19.32185,52.41975],[19.32239,52.42005],[19.32374,52.42154],[19.32429,52.42182],[19.32854,52.42305],[19.33159,52.42366],[19.3345,52.42471],[19.33638,52.42522],[19.33923,52.42651],[19.34329,52.42812],[19.34426,52.42859],[19.34468,52.42891],[19.34659,52.43098],[19.3475,52.43182],[19.34852,52.43248],[19.35131,52.43356],[19.3521,52.43374],[19.35388,52.43369],[19.35437,52.43377],[19.35646,52.43481],[19.36893,52.4381]]}},{"type":"Feature","properties":{"numer":"1407W","klasa":"droga zbiorcza","kat":"powiatowa"},"geometry":{"type":"LineString","coordinates":[[19.3134,52.44022],[19.31681,52.4397],[19.32551,52.43815],[19.339,52.43562],[19.34035,52.43542],[19.34181,52.43499],[19.34323,52.43484],[19.34654,52.43834],[19.3467,52.43905],[19.35482,52.45099]]}},{"type":"Feature","properties":{"numer":"1405W","klasa":"droga zbiorcza","kat":"powiatowa"},"geometry":{"type":"LineString","coordinates":[[19.33168,52.45078],[19.32946,52.44871],[19.32896,52.44838],[19.32353,52.44575],[19.3178,52.44311],[19.31509,52.44209],[19.31369,52.44044],[19.3134,52.44022]]}},{"type":"Feature","properties":{"numer":"1404W","klasa":"droga zbiorcza","kat":"powiatowa"},"geometry":{"type":"LineString","coordinates":[[19.33168,52.45078],[19.33315,52.45064],[19.33528,52.45023],[19.33613,52.45277],[19.3364,52.45439],[19.33675,52.45443],[19.33912,52.45368],[19.34354,52.45276],[19.34619,52.45238],[19.34739,52.45207],[19.34899,52.45203],[19.35114,52.45174],[19.35153,52.45159],[19.35208,52.45122],[19.35482,52.45099]]}},{"type":"Feature","properties":{"numer":"2934C","klasa":"droga zbiorcza","kat":"powiatowa"},"geometry":{"type":"LineString","coordinates":[[19.28747401117299,52.43247027411995],[19.2875,52.43248]]}},{"type":"Feature","properties":{"numer":"1405W","klasa":"droga zbiorcza","kat":"powiatowa"},"geometry":{"type":"LineString","coordinates":[[19.30884,52.43782],[19.30874,52.43763],[19.3088,52.43737],[19.30985,52.43574],[19.31027,52.43442],[19.31314,52.42805],[19.31486,52.42277],[19.31499,52.42026],[19.31592,52.41869]]}},{"type":"Feature","properties":{"numer":"1406W","klasa":"droga zbiorcza","kat":"powiatowa"},"geometry":{"type":"LineString","coordinates":[[19.28751,52.43247],[19.28918,52.43308],[19.29501,52.43457],[19.29602,52.43475],[19.29739,52.43479],[19.29954,52.43519],[19.30459,52.43742],[19.30519,52.43749],[19.30615,52.43722],[19.30668,52.43721],[19.30758,52.4374],[19.30884,52.43782]]}},{"type":"Feature","properties":{"numer":"1405W","klasa":"droga zbiorcza","kat":"powiatowa"},"geometry":{"type":"LineString","coordinates":[[19.3134,52.44022],[19.31034,52.43834],[19.30884,52.43782]]}},{"type":"Feature","properties":{"numer":"1405W","klasa":"droga zbiorcza","kat":"powiatowa"},"geometry":{"type":"LineString","coordinates":[[19.337,52.4656],[19.33211,52.46248],[19.33173,52.46204],[19.33144,52.46145],[19.33149,52.46113],[19.333,52.45729],[19.3322,52.45229],[19.33168,52.45078]]}},{"type":"Feature","properties":{"numer":"265","klasa":"droga gĹ‚Ăłwna","kat":"wojewodzka"},"geometry":{"type":"LineString","coordinates":[[19.38019,52.45543],[19.36927,52.45773],[19.35839,52.45983],[19.34976,52.46173],[19.34874,52.46199],[19.337,52.4656]]}},{"type":"Feature","properties":{"numer":"265","klasa":"droga gĹ‚Ăłwna","kat":"wojewodzka"},"geometry":{"type":"LineString","coordinates":[[19.337,52.4656],[19.33314,52.46688]]}},{"type":"Feature","properties":{"numer":"265","klasa":"droga gĹ‚Ăłwna","kat":"wojewodzka"},"geometry":{"type":"LineString","coordinates":[[19.33314,52.46688],[19.333113906771096,52.46688863264011]]}},{"type":"Feature","properties":{"numer":"1404W","klasa":"droga zbiorcza","kat":"powiatowa"},"geometry":{"type":"LineString","coordinates":[[19.37041,52.48179],[19.36447,52.48414],[19.36447,52.48434],[19.3656,52.48561],[19.36245,52.48639],[19.36016,52.48714],[19.35702,52.4876],[19.354376358296623,52.48782790014685]]}},{"type":"Feature","properties":{"numer":"1419W","klasa":"droga zbiorcza","kat":"powiatowa"},"geometry":{"type":"LineString","coordinates":[[19.392,52.35794],[19.39954,52.35831],[19.4084,52.36137],[19.41418,52.36222],[19.41969,52.36124]]}},{"type":"Feature","properties":{"numer":"60","klasa":"droga gĹ‚Ăłwna ruchu przyĹ›pieszonego","kat":"krajowa"},"geometry":{"type":"LineString","coordinates":[[19.43596,52.3808],[19.41991,52.36177],[19.41969,52.36124]]}},{"type":"Feature","properties":{"numer":"1417W","klasa":"droga zbiorcza","kat":"powiatowa"},"geometry":{"type":"LineString","coordinates":[[19.43211,52.41638],[19.43206,52.41619],[19.43183,52.41604],[19.43002,52.4153],[19.42862,52.41449],[19.42795,52.41396],[19.42688,52.41287],[19.42638,52.41266],[19.42301,52.41163],[19.42168,52.41081],[19.41942,52.40905],[19.41607,52.40678],[19.41505,52.40578],[19.41407,52.40459]]}},{"type":"Feature","properties":{"numer":"581","klasa":"droga gĹ‚Ăłwna","kat":"wojewodzka"},"geometry":{"type":"LineString","coordinates":[[19.4053,52.42191],[19.40672,52.42326],[19.40739,52.42356],[19.413405999077547,52.42525248856004]]}},{"type":"Feature","properties":{"numer":"1409W","klasa":"droga zbiorcza","kat":"powiatowa"},"geometry":{"type":"LineString","coordinates":[[19.37164,52.43906],[19.39262,52.44057],[19.39597,52.4412],[19.39689,52.44128],[19.40213,52.44049],[19.40634,52.43932],[19.40787,52.43923],[19.41417,52.4384],[19.41624,52.43854],[19.42067,52.4387],[19.42175,52.43885],[19.42245,52.43901],[19.42341,52.43962],[19.42565,52.44038],[19.42787,52.44058],[19.42856,52.44073],[19.42899,52.44092],[19.4295,52.44139]]}},{"type":"Feature","properties":{"numer":"265","klasa":"droga gĹ‚Ăłwna","kat":"wojewodzka"},"geometry":{"type":"LineString","coordinates":[[19.39183,52.45281],[19.39647,52.45192],[19.39874,52.4513],[19.4295,52.44139]]}},{"type":"Feature","properties":{"numer":"1450W","klasa":"droga zbiorcza","kat":"powiatowa"},"geometry":{"type":"LineString","coordinates":[[19.41012,52.50063],[19.41025,52.50003],[19.41053,52.49954],[19.41188,52.498],[19.4115,52.497],[19.41153,52.49679],[19.41237,52.49528],[19.41287,52.49483],[19.41413,52.49405],[19.41658,52.49204],[19.41831,52.49086],[19.41856,52.49052],[19.41899,52.48908],[19.41934,52.4885],[19.41964,52.48821],[19.42145,52.487],[19.42439,52.48374],[19.4248,52.48336],[19.42594,52.48263],[19.42768,52.4807],[19.42837,52.47992],[19.42861,52.47921],[19.42858,52.47861],[19.42871,52.47821],[19.42914,52.47767],[19.4297,52.47668],[19.43016,52.47622],[19.43084,52.475],[19.43102,52.47415]]}},{"type":"Feature","properties":{"numer":"1402W","klasa":"droga zbiorcza","kat":"powiatowa"},"geometry":{"type":"LineString","coordinates":[[19.41012,52.50063],[19.41439,52.5003],[19.41512,52.50001],[19.41639,52.4999],[19.41709,52.49793],[19.41774,52.49718],[19.41831,52.49565]]}},{"type":"Feature","properties":{"numer":"1450W","klasa":"droga zbiorcza","kat":"powiatowa"},"geometry":{"type":"LineString","coordinates":[[19.41252,52.5107],[19.41066,52.51064],[19.41062,52.51052],[19.41021,52.51022],[19.40916,52.50988],[19.40888,52.5096],[19.4082,52.50833],[19.40822,52.50735],[19.40933,52.50603],[19.40947,52.50574],[19.40953,52.50517],[19.4094,52.50465],[19.40948,52.50411],[19.41014,52.50294],[19.41024,52.50251],[19.41005,52.50153],[19.41012,52.50063]]}},{"type":"Feature","properties":{"numer":"1401W","klasa":"droga zbiorcza","kat":"powiatowa"},"geometry":{"type":"LineString","coordinates":[[19.44863,52.50817],[19.43833,52.51084],[19.43541,52.51084],[19.43207,52.51074],[19.43111,52.51064],[19.42978,52.51082],[19.42764,52.51084],[19.41252,52.5107]]}},{"type":"Feature","properties":{"numer":"265","klasa":"droga gĹ‚Ăłwna","kat":"wojewodzka"},"geometry":{"type":"LineString","coordinates":[[19.4295,52.44139],[19.429724464836138,52.44131665013286]]}},{"type":"Feature","properties":{"numer":"573","klasa":"droga zbiorcza","kat":"wojewodzka"},"geometry":{"type":"LineString","coordinates":[[19.469838296422488,52.449478756388416],[19.47005,52.44972],[19.47097,52.45015],[19.4746,52.45092]]}},{"type":"Feature","properties":{"numer":"1466W","klasa":"droga zbiorcza","kat":"powiatowa"},"geometry":{"type":"LineString","coordinates":[[19.48223519999999,52.444256],[19.48228,52.44427]]}},{"type":"Feature","properties":{"numer":"1466W","klasa":"droga zbiorcza","kat":"powiatowa"},"geometry":{"type":"LineString","coordinates":[[19.48228,52.44427],[19.48343,52.44456],[19.49427,52.44602]]}},{"type":"Feature","properties":{"numer":"573","klasa":"droga zbiorcza","kat":"wojewodzka"},"geometry":{"type":"LineString","coordinates":[[19.4746,52.45092],[19.47468,52.45094]]}},{"type":"Feature","properties":{"numer":"1416W","klasa":"droga zbiorcza","kat":"powiatowa"},"geometry":{"type":"LineString","coordinates":[[19.49427,52.44602],[19.49306,52.44937],[19.49349,52.45347],[19.49345,52.454],[19.49295,52.4547],[19.48829,52.45924]]}},{"type":"Feature","properties":{"numer":"573","klasa":"droga zbiorcza","kat":"wojewodzka"},"geometry":{"type":"LineString","coordinates":[[19.48124,52.4641],[19.48303,52.45779],[19.48322,52.45693],[19.48307,52.45641],[19.48265,52.45599],[19.48072,52.45492],[19.47757,52.45193],[19.47633,52.45133],[19.47468,52.45094]]}},{"type":"Feature","properties":{"numer":"1411W","klasa":"droga zbiorcza","kat":"powiatowa"},"geometry":{"type":"LineString","coordinates":[[19.37164,52.43906],[19.37563,52.43492],[19.37688,52.43439],[19.38471,52.43154],[19.38512,52.43129],[19.38573,52.43073],[19.38801,52.42829],[19.38909,52.42744],[19.4053,52.42191]]}},{"type":"Feature","properties":{"numer":"1408W","klasa":"droga zbiorcza","kat":"powiatowa"},"geometry":{"type":"LineString","coordinates":[[19.36893,52.4381],[19.36935,52.43837],[19.37024,52.43924]]}},{"type":"Feature","properties":{"numer":"1409W","klasa":"droga zbiorcza","kat":"powiatowa"},"geometry":{"type":"LineString","coordinates":[[19.37024,52.43924],[19.37164,52.43906]]}},{"type":"Feature","properties":{"numer":"1408W","klasa":"droga zbiorcza","kat":"powiatowa"},"geometry":{"type":"LineString","coordinates":[[19.37024,52.43924],[19.38643,52.44719],[19.39183,52.45281]]}},{"type":"Feature","properties":{"numer":"1404W","klasa":"droga zbiorcza","kat":"powiatowa"},"geometry":{"type":"LineString","coordinates":[[19.35482,52.45099],[19.3683,52.4499],[19.36974,52.44985],[19.3721,52.45078],[19.37839,52.45403],[19.38019,52.45543]]}},{"type":"Feature","properties":{"numer":"265","klasa":"droga gĹ‚Ăłwna","kat":"wojewodzka"},"geometry":{"type":"LineString","coordinates":[[19.38019,52.45543],[19.38465,52.45444],[19.38804,52.45355],[19.39183,52.45281]]}},{"type":"Feature","properties":{"numer":"1404W","klasa":"droga zbiorcza","kat":"powiatowa"},"geometry":{"type":"LineString","coordinates":[[19.38019,52.45543],[19.38279,52.45768],[19.38476,52.45879],[19.3862,52.46028],[19.38952,52.4629],[19.38955,52.46447],[19.389,52.46526],[19.3879,52.46593],[19.38658,52.46651],[19.38561,52.4673],[19.37185,52.48083],[19.37041,52.48179]]}},{"type":"Feature","properties":{"numer":"1450W","klasa":"droga zbiorcza","kat":"powiatowa"},"geometry":{"type":"LineString","coordinates":[[19.444122921348317,52.45266],[19.44403,52.45266]]}},{"type":"Feature","properties":{"numer":"1450W","klasa":"droga zbiorcza","kat":"powiatowa"},"geometry":{"type":"LineString","coordinates":[[19.43102,52.47415],[19.43104,52.473],[19.4312,52.47212],[19.43447,52.46358],[19.43575,52.46107],[19.43701,52.45715],[19.4374,52.4551],[19.43773,52.45409],[19.43829,52.45352],[19.43888,52.45325],[19.439115027173916,52.45320366847826]]}},{"type":"Feature","properties":{"numer":"1450W","klasa":"droga zbiorcza","kat":"powiatowa"},"geometry":{"type":"LineString","coordinates":[[19.443839518613583,52.452663228498075],[19.44403,52.45266]]}},{"type":"Feature","properties":{"numer":"1403W","klasa":"droga zbiorcza","kat":"powiatowa"},"geometry":{"type":"LineString","coordinates":[[19.46687,52.48894],[19.46423,52.48874],[19.46198,52.48844],[19.4588,52.4862],[19.45806,52.4859],[19.43724,52.48278],[19.43213,52.4822],[19.43263,52.47609],[19.43112,52.47438],[19.43102,52.47415]]}},{"type":"Feature","properties":{"numer":"1402W","klasa":"droga zbiorcza","kat":"powiatowa"},"geometry":{"type":"LineString","coordinates":[[19.46687,52.48894],[19.44474,52.4956],[19.44364,52.49607],[19.44029,52.49816],[19.42499,52.49646],[19.41831,52.49565]]}}]}