{"type":"FeatureCollection","features":[{"type":"Feature","properties":{"numer":"1626W","klasa":"droga zbiorcza","kat":"powiatowa"},"geometry":{"type":"LineString","coordinates":[[20.87446717173881,51.82606338732267],[20.87544,51.8264]]}},{"type":"Feature","properties":{"numer":"E77,S7","klasa":"droga ekspresowa","kat":"krajowa"},"geometry":{"type":"LineString","coordinates":[[20.87965,51.82754],[20.881941798344677,51.82093997608491]]}},{"type":"Feature","properties":{"numer":"1660W","klasa":"droga zbiorcza","kat":"powiatowa"},"geometry":{"type":"LineString","coordinates":[[20.88709,51.82743],[20.88691,51.82702],[20.8866,51.82682],[20.88206,51.82517],[20.88168,51.82495],[20.88147,51.82465],[20.88147,51.82423],[20.8819,51.82229],[20.882321619211243,51.82108043668906]]}},{"type":"Feature","properties":{"numer":"730","klasa":"droga gĹ‚Ăłwna","kat":"wojewodzka"},"geometry":{"type":"LineString","coordinates":[[20.911341358461204,51.825494845405046],[20.90551,51.82669],[20.90498,51.82673],[20.89982,51.82661],[20.894376856433535,51.826960618831464]]}},{"type":"Feature","properties":{"numer":"730","klasa":"droga gĹ‚Ăłwna","kat":"wojewodzka"},"geometry":{"type":"LineString","coordinates":[[20.887316676955543,51.827415398656434],[20.88709,51.82743]]}},{"type":"Feature","properties":{"numer":"730","klasa":"droga gĹ‚Ăłwna","kat":"wojewodzka"},"geometry":{"type":"LineString","coordinates":[[20.87544,51.8264],[20.87759,51.82716],[20.87896,51.82744]]}},{"type":"Feature","properties":{"numer":"730","klasa":"droga gĹ‚Ăłwna","kat":"wojewodzka"},"geometry":{"type":"LineString","coordinates":[[20.87965,51.82754],[20.87896,51.82744]]}},{"type":"Feature","properties":{"numer":"730","klasa":"droga gĹ‚Ăłwna","kat":"wojewodzka"},"geometry":{"type":"LineString","coordinates":[[20.88709,51.82743],[20.88186,51.82774],[20.88036,51.82763]]}},{"type":"Feature","properties":{"numer":"730","klasa":"droga gĹ‚Ăłwna","kat":"wojewodzka"},"geometry":{"type":"LineString","coordinates":[[20.88036,51.82763],[20.87965,51.82754]]}},{"type":"Feature","properties":{"numer":"E77,S7","klasa":"droga ekspresowa","kat":"krajowa"},"geometry":{"type":"LineString","coordinates":[[20.87011,51.84898],[20.87352,51.84443],[20.87428,51.84312],[20.87965,51.82754]]}},{"type":"Feature","properties":{"numer":"1658W","klasa":"droga zbiorcza","kat":"powiatowa"},"geometry":{"type":"LineString","coordinates":[[20.91402,51.83538],[20.89718,51.83922],[20.89652,51.83851],[20.89617,51.83843],[20.88545,51.84082],[20.88522,51.84093],[20.8843,51.8419],[20.88147,51.84413],[20.88099,51.84441],[20.8806,51.84448],[20.87388,51.84461],[20.87356,51.84547]]}},{"type":"Feature","properties":{"numer":"1638W","klasa":"droga zbiorcza","kat":"powiatowa"},"geometry":{"type":"LineString","coordinates":[[20.86427,51.83591],[20.863330455393278,51.829501596691884]]}},{"type":"Feature","properties":{"numer":"1638W","klasa":"droga zbiorcza","kat":"powiatowa"},"geometry":{"type":"LineString","coordinates":[[20.86427,51.83592],[20.86427,51.83591]]}},{"type":"Feature","properties":{"numer":"1638W","klasa":"droga zbiorcza","kat":"powiatowa"},"geometry":{"type":"LineString","coordinates":[[20.87011,51.84898],[20.86653,51.84745],[20.86544,51.84718],[20.8646,51.83829],[20.86427,51.83592]]}},{"type":"Feature","properties":{"numer":"728","klasa":"droga gĹ‚Ăłwna","kat":"wojewodzka"},"geometry":{"type":"LineString","coordinates":[[20.84915,51.85649],[20.848603946533792,51.85607404831366]]}},{"type":"Feature","properties":{"numer":"1647W","klasa":"droga gĹ‚Ăłwna","kat":"powiatowa"},"geometry":{"type":"LineString","coordinates":[[20.87356,51.84547],[20.87211,51.84968]]}},{"type":"Feature","properties":{"numer":"1638W","klasa":"droga zbiorcza","kat":"powiatowa"},"geometry":{"type":"LineString","coordinates":[[20.87011,51.84898],[20.87211,51.84968]]}},{"type":"Feature","properties":{"numer":"1647W","klasa":"droga gĹ‚Ăłwna","kat":"powiatowa"},"geometry":{"type":"LineString","coordinates":[[20.87211,51.84968],[20.87004,51.85559]]}},{"type":"Feature","properties":{"numer":"E77,S7","klasa":"droga ekspresowa","kat":"krajowa"},"geometry":{"type":"LineString","coordinates":[[20.85459,51.86063],[20.85585,51.85992],[20.86283,51.85658],[20.864,51.85596],[20.86504,51.85525],[20.86654,51.85374],[20.87011,51.84898]]}},{"type":"Feature","properties":{"numer":"1606W","klasa":"droga zbiorcza","kat":"powiatowa"},"geometry":{"type":"LineString","coordinates":[[20.84643,51.8632],[20.838556591326586,51.861825826587186]]}},{"type":"Feature","properties":{"numer":"1606W","klasa":"droga zbiorcza","kat":"powiatowa"},"geometry":{"type":"LineString","coordinates":[[20.816687245712945,51.857751879991774],[20.81425818908347,51.85731593896261]]}},{"type":"Feature","properties":{"numer":"1604W","klasa":"droga gĹ‚Ăłwna","kat":"powiatowa"},"geometry":{"type":"LineString","coordinates":[[20.82205,51.87963],[20.80806,51.87914],[20.79609,51.87676],[20.7957,51.87684],[20.79492,51.87748],[20.79446,51.87752],[20.78806,51.8765],[20.78642,51.87616],[20.78236,51.87499],[20.772,51.87181],[20.76628116875189,51.87152865730852]]}},{"type":"Feature","properties":{"numer":"1647W","klasa":"droga gĹ‚Ăłwna","kat":"powiatowa"},"geometry":{"type":"LineString","coordinates":[[20.87004,51.85559],[20.86985,51.85615]]}},{"type":"Feature","properties":{"numer":"1647W","klasa":"droga gĹ‚Ăłwna","kat":"powiatowa"},"geometry":{"type":"LineString","coordinates":[[20.86985,51.85615],[20.86866,51.85959]]}},{"type":"Feature","properties":{"numer":"728","klasa":"droga gĹ‚Ăłwna","kat":"wojewodzka"},"geometry":{"type":"LineString","coordinates":[[20.85429,51.86038],[20.84915,51.85649]]}},{"type":"Feature","properties":{"numer":"1647W","klasa":"droga gĹ‚Ăłwna","kat":"powiatowa"},"geometry":{"type":"LineString","coordinates":[[20.86866,51.85959],[20.86852,51.86001]]}},{"type":"Feature","properties":{"numer":"1606W","klasa":"droga zbiorcza","kat":"powiatowa"},"geometry":{"type":"LineString","coordinates":[[20.84643,51.8632],[20.84739,51.86046],[20.84884,51.85686],[20.84896,51.85662],[20.84915,51.85649]]}},{"type":"Feature","properties":{"numer":"1647W","klasa":"droga gĹ‚Ăłwna","kat":"powiatowa"},"geometry":{"type":"LineString","coordinates":[[20.86852,51.86001],[20.86834,51.86047]]}},{"type":"Feature","properties":{"numer":"728","klasa":"droga gĹ‚Ăłwna","kat":"wojewodzka"},"geometry":{"type":"LineString","coordinates":[[20.85459,51.86063],[20.85429,51.86038]]}},{"type":"Feature","properties":{"numer":"728","klasa":"droga gĹ‚Ăłwna","kat":"wojewodzka"},"geometry":{"type":"LineString","coordinates":[[20.85493,51.86089],[20.85459,51.86063]]}},{"type":"Feature","properties":{"numer":"728","klasa":"droga gĹ‚Ăłwna","kat":"wojewodzka"},"geometry":{"type":"LineString","coordinates":[[20.8552,51.86108],[20.85493,51.86089]]}},{"type":"Feature","properties":{"numer":"1647W","klasa":"droga gĹ‚Ăłwna","kat":"powiatowa"},"geometry":{"type":"LineString","coordinates":[[20.86834,51.86047],[20.867,51.86449]]}},{"type":"Feature","properties":{"numer":"6605W","klasa":"droga gĹ‚Ăłwna","kat":"powiatowa"},"geometry":{"type":"LineString","coordinates":[[20.8552,51.86108],[20.86081,51.86532],[20.86134,51.86543],[20.86391,51.86544],[20.86534,51.8657]]}},{"type":"Feature","properties":{"numer":"1606W","klasa":"droga zbiorcza","kat":"powiatowa"},"geometry":{"type":"LineString","coordinates":[[20.85033,51.86423],[20.84643,51.8632]]}},{"type":"Feature","properties":{"numer":"1647W","klasa":"droga gĹ‚Ăłwna","kat":"powiatowa"},"geometry":{"type":"LineString","coordinates":[[20.867,51.86449],[20.86666,51.86551]]}},{"type":"Feature","properties":{"numer":"E77,S7","klasa":"droga ekspresowa","kat":"krajowa"},"geometry":{"type":"LineString","coordinates":[[20.85175,51.86997],[20.85079,51.86749],[20.85068,51.86624],[20.85087,51.86498],[20.85134,51.86386],[20.85214,51.86268],[20.8533,51.86154],[20.85459,51.86063]]}},{"type":"Feature","properties":{"numer":"1656W","klasa":"droga gĹ‚Ăłwna","kat":"powiatowa"},"geometry":{"type":"LineString","coordinates":[[20.8708,51.86539],[20.8699,51.86551]]}},{"type":"Feature","properties":{"numer":"160563W,1656W","klasa":"droga gĹ‚Ăłwna","kat":"powiatowa"},"geometry":{"type":"LineString","coordinates":[[20.86549,51.86547],[20.86571,51.86542],[20.86666,51.86551]]}},{"type":"Feature","properties":{"numer":"1656W","klasa":"droga gĹ‚Ăłwna","kat":"powiatowa"},"geometry":{"type":"LineString","coordinates":[[20.8699,51.86551],[20.86861,51.86562]]}},{"type":"Feature","properties":{"numer":"1656W","klasa":"droga gĹ‚Ăłwna","kat":"powiatowa"},"geometry":{"type":"LineString","coordinates":[[20.86666,51.86551],[20.86861,51.86562]]}},{"type":"Feature","properties":{"numer":"1656W","klasa":"droga gĹ‚Ăłwna","kat":"powiatowa"},"geometry":{"type":"LineString","coordinates":[[20.86534,51.8657],[20.86549,51.86547]]}},{"type":"Feature","properties":{"numer":"1647W","klasa":"droga gĹ‚Ăłwna","kat":"powiatowa"},"geometry":{"type":"LineString","coordinates":[[20.86666,51.86551],[20.86574,51.86765]]}},{"type":"Feature","properties":{"numer":"1647W","klasa":"droga gĹ‚Ăłwna","kat":"powiatowa"},"geometry":{"type":"LineString","coordinates":[[20.86574,51.86765],[20.8656,51.86797]]}},{"type":"Feature","properties":{"numer":"161509W","klasa":"droga lokalna","kat":"powiatowa"},"geometry":{"type":"LineString","coordinates":[[20.86704,51.86846],[20.86574,51.86765]]}},{"type":"Feature","properties":{"numer":"1647W","klasa":"droga gĹ‚Ăłwna","kat":"powiatowa"},"geometry":{"type":"LineString","coordinates":[[20.8656,51.86797],[20.86539,51.86832]]}},{"type":"Feature","properties":{"numer":"160526W","klasa":"droga lokalna","kat":"powiatowa"},"geometry":{"type":"LineString","coordinates":[[20.86704,51.86846],[20.86703,51.86852]]}},{"type":"Feature","properties":{"numer":"1647W","klasa":"droga gĹ‚Ăłwna","kat":"powiatowa"},"geometry":{"type":"LineString","coordinates":[[20.86539,51.86832],[20.86535,51.86884]]}},{"type":"Feature","properties":{"numer":"160526W","klasa":"droga lokalna","kat":"powiatowa"},"geometry":{"type":"LineString","coordinates":[[20.86706,51.8687],[20.86703,51.86852]]}},{"type":"Feature","properties":{"numer":"6608W","klasa":"","kat":"powiatowa"},"geometry":{"type":"LineString","coordinates":[[20.86691,51.86875],[20.86706,51.8687]]}},{"type":"Feature","properties":{"numer":"160526W","klasa":"droga lokalna","kat":"powiatowa"},"geometry":{"type":"LineString","coordinates":[[20.86706,51.8687],[20.86715,51.86882]]}},{"type":"Feature","properties":{"numer":"6608W","klasa":"","kat":"powiatowa"},"geometry":{"type":"LineString","coordinates":[[20.86691,51.86875],[20.86719,51.86887]]}},{"type":"Feature","properties":{"numer":"160526W","klasa":"droga lokalna","kat":"powiatowa"},"geometry":{"type":"LineString","coordinates":[[20.86715,51.86882],[20.86719,51.86887]]}},{"type":"Feature","properties":{"numer":"6608W","klasa":"","kat":"powiatowa"},"geometry":{"type":"LineString","coordinates":[[20.86727,51.86888],[20.86719,51.86887]]}},{"type":"Feature","properties":{"numer":"160526W","klasa":"","kat":"powiatowa"},"geometry":{"type":"LineString","coordinates":[[20.86719,51.86887],[20.86731,51.86929]]}},{"type":"Feature","properties":{"numer":"160526W","klasa":"droga lokalna","kat":"powiatowa"},"geometry":{"type":"LineString","coordinates":[[20.86731,51.86929],[20.86758,51.86991]]}},{"type":"Feature","properties":{"numer":"6608W","klasa":"","kat":"powiatowa"},"geometry":{"type":"LineString","coordinates":[[20.875,51.87074],[20.87463,51.87058],[20.86995,51.86969],[20.86727,51.86888]]}},{"type":"Feature","properties":{"numer":"50","klasa":"droga gĹ‚Ăłwna ruchu przyĹ›pieszonego","kat":"krajowa"},"geometry":{"type":"LineString","coordinates":[[20.85175,51.86997],[20.85642,51.87011]]}},{"type":"Feature","properties":{"numer":"50","klasa":"droga gĹ‚Ăłwna ruchu przyĹ›pieszonego","kat":"krajowa"},"geometry":{"type":"LineString","coordinates":[[20.85175,51.86997],[20.8481,51.86994],[20.84607,51.8703]]}},{"type":"Feature","properties":{"numer":"50","klasa":"droga gĹ‚Ăłwna ruchu przyĹ›pieszonego","kat":"krajowa"},"geometry":{"type":"LineString","coordinates":[[20.85852,51.8705],[20.85642,51.87011]]}},{"type":"Feature","properties":{"numer":"1647W","klasa":"droga gĹ‚Ăłwna","kat":"powiatowa"},"geometry":{"type":"LineString","coordinates":[[20.86535,51.86884],[20.86493,51.87235]]}},{"type":"Feature","properties":{"numer":"50","klasa":"droga gĹ‚Ăłwna ruchu przyĹ›pieszonego","kat":"krajowa"},"geometry":{"type":"LineString","coordinates":[[20.85953,51.87081],[20.85852,51.8705]]}},{"type":"Feature","properties":{"numer":"160526W","klasa":"droga lokalna","kat":"powiatowa"},"geometry":{"type":"LineString","coordinates":[[20.86758,51.86991],[20.86823,51.8714]]}},{"type":"Feature","properties":{"numer":"50","klasa":"droga gĹ‚Ăłwna ruchu przyĹ›pieszonego","kat":"krajowa"},"geometry":{"type":"LineString","coordinates":[[20.86037,51.87115],[20.85953,51.87081]]}},{"type":"Feature","properties":{"numer":"160526W","klasa":"droga lokalna","kat":"powiatowa"},"geometry":{"type":"LineString","coordinates":[[20.86823,51.8714],[20.86866,51.87221]]}},{"type":"Feature","properties":{"numer":"50","klasa":"droga gĹ‚Ăłwna ruchu przyĹ›pieszonego","kat":"krajowa"},"geometry":{"type":"LineString","coordinates":[[20.84607,51.8703],[20.84411,51.87101],[20.83836,51.87341]]}},{"type":"Feature","properties":{"numer":"50","klasa":"droga gĹ‚Ăłwna ruchu przyĹ›pieszonego","kat":"krajowa"},"geometry":{"type":"LineString","coordinates":[[20.86408,51.87264],[20.86037,51.87115]]}},{"type":"Feature","properties":{"numer":"50","klasa":"droga gĹ‚Ăłwna ruchu przyĹ›pieszonego","kat":"krajowa"},"geometry":{"type":"LineString","coordinates":[[20.87467,51.87118],[20.87365,51.87148],[20.87189,51.87228],[20.87057,51.87273]]}},{"type":"Feature","properties":{"numer":"160526W","klasa":"droga lokalna","kat":"powiatowa"},"geometry":{"type":"LineString","coordinates":[[20.86866,51.87221],[20.8691,51.87285]]}},{"type":"Feature","properties":{"numer":"1647W","klasa":"droga gĹ‚Ăłwna","kat":"powiatowa"},"geometry":{"type":"LineString","coordinates":[[20.86493,51.87235],[20.86486,51.87284]]}},{"type":"Feature","properties":{"numer":"50","klasa":"droga gĹ‚Ăłwna ruchu przyĹ›pieszonego","kat":"krajowa"},"geometry":{"type":"LineString","coordinates":[[20.86486,51.87284],[20.86408,51.87264]]}},{"type":"Feature","properties":{"numer":"50","klasa":"droga gĹ‚Ăłwna ruchu przyĹ›pieszonego","kat":"krajowa"},"geometry":{"type":"LineString","coordinates":[[20.87057,51.87273],[20.86914,51.87301]]}},{"type":"Feature","properties":{"numer":"50","klasa":"droga gĹ‚Ăłwna ruchu przyĹ›pieszonego","kat":"krajowa"},"geometry":{"type":"LineString","coordinates":[[20.86486,51.87284],[20.86505,51.87295]]}},{"type":"Feature","properties":{"numer":"1656W","klasa":"droga gĹ‚Ăłwna","kat":"powiatowa"},"geometry":{"type":"LineString","coordinates":[[20.92781,51.85433],[20.92429,51.85566],[20.92269,51.85617],[20.90059,51.86186],[20.89786,51.86302],[20.89714,51.86302],[20.89518,51.8626],[20.89344,51.86266],[20.8708,51.86539]]}},{"type":"Feature","properties":{"numer":"50","klasa":"droga gĹ‚Ăłwna ruchu przyĹ›pieszonego","kat":"krajowa"},"geometry":{"type":"LineString","coordinates":[[20.87526,51.87108],[20.87657,51.87101],[20.87767,51.87112]]}},{"type":"Feature","properties":{"numer":"50","klasa":"droga gĹ‚Ăłwna ruchu przyĹ›pieszonego","kat":"krajowa"},"geometry":{"type":"LineString","coordinates":[[20.87467,51.87118],[20.87526,51.87108]]}},{"type":"Feature","properties":{"numer":"50","klasa":"droga gĹ‚Ăłwna ruchu przyĹ›pieszonego","kat":"krajowa"},"geometry":{"type":"LineString","coordinates":[[20.87897,51.87135],[20.87767,51.87112]]}},{"type":"Feature","properties":{"numer":"161533W","klasa":"","kat":"powiatowa"},"geometry":{"type":"LineString","coordinates":[[20.87988,51.87121],[20.87979,51.87151]]}},{"type":"Feature","properties":{"numer":"50","klasa":"droga gĹ‚Ăłwna ruchu przyĹ›pieszonego","kat":"krajowa"},"geometry":{"type":"LineString","coordinates":[[20.87979,51.87151],[20.87897,51.87135]]}},{"type":"Feature","properties":{"numer":"50","klasa":"droga gĹ‚Ăłwna ruchu przyĹ›pieszonego","kat":"krajowa"},"geometry":{"type":"LineString","coordinates":[[20.882,51.8719],[20.87979,51.87151]]}},{"type":"Feature","properties":{"numer":"50","klasa":"droga gĹ‚Ăłwna ruchu przyĹ›pieszonego","kat":"krajowa"},"geometry":{"type":"LineString","coordinates":[[20.90125,51.87561],[20.882,51.8719]]}},{"type":"Feature","properties":{"numer":"50","klasa":"droga gĹ‚Ăłwna ruchu przyĹ›pieszonego","kat":"krajowa"},"geometry":{"type":"LineString","coordinates":[[20.91033,51.87601],[20.90848,51.87613],[20.9054,51.87611],[20.90384,51.87599],[20.90125,51.87561]]}},{"type":"Feature","properties":{"numer":"722","klasa":"droga gĹ‚Ăłwna","kat":"wojewodzka"},"geometry":{"type":"LineString","coordinates":[[20.87092,51.87444],[20.87759,51.8808],[20.88053,51.88276],[20.88211,51.88416],[20.88556,51.88682],[20.89061,51.89092]]}},{"type":"Feature","properties":{"numer":"1658W","klasa":"","kat":"powiatowa"},"geometry":{"type":"LineString","coordinates":[[20.91402175549694,51.83537959597581],[20.91402,51.83538]]}},{"type":"Feature","properties":{"numer":"1656W","klasa":"droga gĹ‚Ăłwna","kat":"powiatowa"},"geometry":{"type":"LineString","coordinates":[[20.953457016389308,51.84354578055187],[20.9509,51.84524],[20.94734617469588,51.84656281275209]]}},{"type":"Feature","properties":{"numer":"1656W","klasa":"droga gĹ‚Ăłwna","kat":"powiatowa"},"geometry":{"type":"LineString","coordinates":[[20.945880467994716,51.84714969922339],[20.93225,51.85262]]}},{"type":"Feature","properties":{"numer":"1655W","klasa":"droga zbiorcza","kat":"powiatowa"},"geometry":{"type":"LineString","coordinates":[[21.011011257472383,51.8501408195766],[20.98863,51.84653],[20.98837,51.84656],[20.98714,51.85053],[20.98659,51.85067],[20.98552,51.85054],[20.9763,51.85004]]}},{"type":"Feature","properties":{"numer":"1655W","klasa":"droga zbiorcza","kat":"powiatowa"},"geometry":{"type":"LineString","coordinates":[[20.97604,51.85003],[20.9763,51.85004]]}},{"type":"Feature","properties":{"numer":"1654W","klasa":"droga zbiorcza","kat":"powiatowa"},"geometry":{"type":"LineString","coordinates":[[20.96472,51.87235],[20.96495,51.87235]]}},{"type":"Feature","properties":{"numer":"1654W","klasa":"droga zbiorcza","kat":"powiatowa"},"geometry":{"type":"LineString","coordinates":[[20.96495,51.87235],[20.96705,51.87233],[20.971,51.87307]]}},{"type":"Feature","properties":{"numer":"50","klasa":"droga gĹ‚Ăłwna ruchu przyĹ›pieszonego","kat":"krajowa"},"geometry":{"type":"LineString","coordinates":[[20.956915681610248,51.886931262580056],[20.95691,51.88693]]}},{"type":"Feature","properties":{"numer":"722","klasa":"droga gĹ‚Ăłwna","kat":"wojewodzka"},"geometry":{"type":"LineString","coordinates":[[20.95671,51.925],[20.95668,51.92497]]}},{"type":"Feature","properties":{"numer":"1655W","klasa":"droga zbiorcza","kat":"powiatowa"},"geometry":{"type":"LineString","coordinates":[[20.97604,51.85003],[20.97279,51.85006],[20.9711,51.85022],[20.96909,51.85092],[20.9657,51.8519],[20.96266,51.85264],[20.96147,51.85278],[20.94882,51.85349],[20.9458,51.85353],[20.94277,51.85346],[20.93823,51.8529],[20.93225,51.85262]]}},{"type":"Feature","properties":{"numer":"1656W","klasa":"droga gĹ‚Ăłwna","kat":"powiatowa"},"geometry":{"type":"LineString","coordinates":[[20.93225,51.85262],[20.92781,51.85433]]}},{"type":"Feature","properties":{"numer":"1654W","klasa":"droga zbiorcza","kat":"powiatowa"},"geometry":{"type":"LineString","coordinates":[[20.92781,51.85433],[20.93059,51.85887],[20.93208,51.86155],[20.9327,51.86585],[20.93939,51.8683],[20.95649,51.87199],[20.95912,51.87244],[20.96085,51.87246],[20.96472,51.87235]]}},{"type":"Feature","properties":{"numer":"50","klasa":"droga gĹ‚Ăłwna ruchu przyĹ›pieszonego","kat":"krajowa"},"geometry":{"type":"LineString","coordinates":[[20.94803,51.88075],[20.94702,51.87984],[20.94589,51.87908],[20.94449,51.87838],[20.94293,51.87784],[20.94087,51.87736],[20.92467,51.87449],[20.92215,51.87432],[20.91956,51.87444],[20.91762,51.87473],[20.91245,51.87573],[20.91033,51.87601]]}},{"type":"Feature","properties":{"numer":"50","klasa":"droga gĹ‚Ăłwna ruchu przyĹ›pieszonego","kat":"krajowa"},"geometry":{"type":"LineString","coordinates":[[20.94803,51.88075],[20.95072,51.88397],[20.95179,51.88488]]}},{"type":"Feature","properties":{"numer":"1648W","klasa":"droga zbiorcza","kat":"powiatowa"},"geometry":{"type":"LineString","coordinates":[[20.93076,51.88301],[20.93064,51.88557]]}},{"type":"Feature","properties":{"numer":"1648W","klasa":"droga zbiorcza","kat":"powiatowa"},"geometry":{"type":"LineString","coordinates":[[20.93064,51.88557],[20.93065,51.88563]]}},{"type":"Feature","properties":{"numer":"50","klasa":"droga gĹ‚Ăłwna ruchu przyĹ›pieszonego","kat":"krajowa"},"geometry":{"type":"LineString","coordinates":[[20.95691,51.88693],[20.95508,51.88649],[20.9538,51.88602],[20.95253,51.88537],[20.95179,51.88488]]}},{"type":"Feature","properties":{"numer":"722","klasa":"droga gĹ‚Ăłwna","kat":"wojewodzka"},"geometry":{"type":"LineString","coordinates":[[20.94785,51.91445],[20.94515,51.91489],[20.94434,51.91488],[20.90211,51.91243],[20.90164,51.91227],[20.90148,51.91201],[20.90189,51.91001],[20.90188,51.90951]]}},{"type":"Feature","properties":{"numer":"722","klasa":"droga gĹ‚Ăłwna","kat":"wojewodzka"},"geometry":{"type":"LineString","coordinates":[[20.9482,51.91445],[20.94785,51.91445]]}},{"type":"Feature","properties":{"numer":"722","klasa":"droga gĹ‚Ăłwna","kat":"wojewodzka"},"geometry":{"type":"LineString","coordinates":[[20.95668,51.92497],[20.95017,51.91579],[20.94928,51.91477],[20.94896,51.9146],[20.9482,51.91445]]}},{"type":"Feature","properties":{"numer":"722","klasa":"droga gĹ‚Ăłwna","kat":"wojewodzka"},"geometry":{"type":"LineString","coordinates":[[20.95673795154185,51.92501863436123],[20.95671,51.925]]}},{"type":"Feature","properties":{"numer":"50","klasa":"droga gĹ‚Ăłwna ruchu przyĹ›pieszonego","kat":"krajowa"},"geometry":{"type":"LineString","coordinates":[[20.86505,51.87295],[20.86667,51.8731],[20.86836,51.87308]]}},{"type":"Feature","properties":{"numer":"50","klasa":"droga gĹ‚Ăłwna ruchu przyĹ›pieszonego","kat":"krajowa"},"geometry":{"type":"LineString","coordinates":[[20.86914,51.87301],[20.86836,51.87308]]}},{"type":"Feature","properties":{"numer":"1647W","klasa":"droga gĹ‚Ăłwna","kat":"powiatowa"},"geometry":{"type":"LineString","coordinates":[[20.86486,51.87284],[20.8648,51.87344]]}},{"type":"Feature","properties":{"numer":"722","klasa":"droga gĹ‚Ăłwna","kat":"wojewodzka"},"geometry":{"type":"LineString","coordinates":[[20.86914,51.87301],[20.86956,51.87341]]}},{"type":"Feature","properties":{"numer":"50","klasa":"droga gĹ‚Ăłwna ruchu przyĹ›pieszonego","kat":"krajowa"},"geometry":{"type":"LineString","coordinates":[[20.83836,51.87341],[20.83823,51.87347]]}},{"type":"Feature","properties":{"numer":"722","klasa":"droga gĹ‚Ăłwna","kat":"wojewodzka"},"geometry":{"type":"LineString","coordinates":[[20.86956,51.87341],[20.87022,51.87381],[20.87079,51.87432]]}},{"type":"Feature","properties":{"numer":"1647W","klasa":"droga gĹ‚Ăłwna","kat":"powiatowa"},"geometry":{"type":"LineString","coordinates":[[20.86465,51.87455],[20.8648,51.87344]]}},{"type":"Feature","properties":{"numer":"722","klasa":"droga gĹ‚Ăłwna","kat":"wojewodzka"},"geometry":{"type":"LineString","coordinates":[[20.87079,51.87432],[20.87092,51.87444]]}},{"type":"Feature","properties":{"numer":"1647W","klasa":"droga gĹ‚Ăłwna","kat":"powiatowa"},"geometry":{"type":"LineString","coordinates":[[20.86465,51.87461],[20.86465,51.87455]]}},{"type":"Feature","properties":{"numer":"50","klasa":"droga gĹ‚Ăłwna ruchu przyĹ›pieszonego","kat":"krajowa"},"geometry":{"type":"LineString","coordinates":[[20.83823,51.87347],[20.83191,51.87611]]}},{"type":"Feature","properties":{"numer":"1647W","klasa":"droga gĹ‚Ăłwna","kat":"powiatowa"},"geometry":{"type":"LineString","coordinates":[[20.86448,51.87587],[20.86465,51.87461]]}},{"type":"Feature","properties":{"numer":"1647W","klasa":"droga gĹ‚Ăłwna","kat":"powiatowa"},"geometry":{"type":"LineString","coordinates":[[20.86447,51.87599],[20.86448,51.87587]]}},{"type":"Feature","properties":{"numer":"E77,S7","klasa":"droga ekspresowa","kat":"krajowa"},"geometry":{"type":"LineString","coordinates":[[20.85601,51.8858],[20.85576,51.87872],[20.85562,51.87796],[20.85512,51.87671],[20.85175,51.86997]]}},{"type":"Feature","properties":{"numer":"1605W","klasa":"droga zbiorcza","kat":"powiatowa"},"geometry":{"type":"LineString","coordinates":[[20.83228,51.87997],[20.83239,51.87772],[20.83191,51.87611]]}},{"type":"Feature","properties":{"numer":"1647W","klasa":"droga gĹ‚Ăłwna","kat":"powiatowa"},"geometry":{"type":"LineString","coordinates":[[20.86297,51.88799],[20.86447,51.87599]]}},{"type":"Feature","properties":{"numer":"1604W","klasa":"droga gĹ‚Ăłwna","kat":"powiatowa"},"geometry":{"type":"LineString","coordinates":[[20.85564,51.8857],[20.85148,51.88458],[20.85088,51.88434],[20.84977,51.88357],[20.84846,51.88216],[20.84783,51.88186],[20.84568,51.88158],[20.84339,51.8822],[20.84271,51.88229],[20.8383,51.88151],[20.83643,51.88106],[20.83368,51.88021],[20.83228,51.87997]]}},{"type":"Feature","properties":{"numer":"1604W","klasa":"droga gĹ‚Ăłwna","kat":"powiatowa"},"geometry":{"type":"LineString","coordinates":[[20.85564,51.8857],[20.85601,51.8858]]}},{"type":"Feature","properties":{"numer":"1604W","klasa":"droga gĹ‚Ăłwna","kat":"powiatowa"},"geometry":{"type":"LineString","coordinates":[[20.85601,51.8858],[20.85637,51.88592]]}},{"type":"Feature","properties":{"numer":"1604W","klasa":"droga gĹ‚Ăłwna","kat":"powiatowa"},"geometry":{"type":"LineString","coordinates":[[20.85637,51.88592],[20.85952,51.88697],[20.86297,51.88799]]}},{"type":"Feature","properties":{"numer":"1647W","klasa":"droga gĹ‚Ăłwna","kat":"powiatowa"},"geometry":{"type":"LineString","coordinates":[[20.86202,51.89476],[20.86227,51.89378],[20.86297,51.88799]]}},{"type":"Feature","properties":{"numer":"50","klasa":"droga gĹ‚Ăłwna ruchu przyĹ›pieszonego","kat":"krajowa"},"geometry":{"type":"LineString","coordinates":[[20.83191,51.87611],[20.82335,51.87969]]}},{"type":"Feature","properties":{"numer":"1604W","klasa":"droga gĹ‚Ăłwna","kat":"powiatowa"},"geometry":{"type":"LineString","coordinates":[[20.82335,51.87969],[20.82205,51.87963]]}},{"type":"Feature","properties":{"numer":"1604W","klasa":"droga gĹ‚Ăłwna","kat":"powiatowa"},"geometry":{"type":"LineString","coordinates":[[20.82404,51.87972],[20.82335,51.87969]]}},{"type":"Feature","properties":{"numer":"1604W","klasa":"droga gĹ‚Ăłwna","kat":"powiatowa"},"geometry":{"type":"LineString","coordinates":[[20.83228,51.87997],[20.82404,51.87972]]}},{"type":"Feature","properties":{"numer":"50","klasa":"droga gĹ‚Ăłwna ruchu przyĹ›pieszonego","kat":"krajowa"},"geometry":{"type":"LineString","coordinates":[[20.82335,51.87969],[20.79762067945127,51.88962688585981]]}},{"type":"Feature","properties":{"numer":"1605W","klasa":"droga zbiorcza","kat":"powiatowa"},"geometry":{"type":"LineString","coordinates":[[20.82335,51.90346],[20.82351,51.90284],[20.82503,51.8999],[20.82608,51.89744],[20.82682,51.89192],[20.82801,51.89079],[20.82808,51.89012],[20.82831,51.88981],[20.83146,51.88868],[20.83037,51.8872],[20.83021,51.88674],[20.83194,51.88268],[20.83227,51.88142],[20.83228,51.87997]]}},{"type":"Feature","properties":{"numer":"160508W","klasa":"droga lokalna","kat":"powiatowa"},"geometry":{"type":"LineString","coordinates":[[20.82335,51.90369],[20.82335,51.90346]]}},{"type":"Feature","properties":{"numer":"160508W","klasa":"droga lokalna","kat":"powiatowa"},"geometry":{"type":"LineString","coordinates":[[20.82343,51.90463],[20.82335,51.90369]]}},{"type":"Feature","properties":{"numer":"160508W","klasa":"droga lokalna","kat":"powiatowa"},"geometry":{"type":"LineString","coordinates":[[20.8231,51.90572],[20.82335,51.90514],[20.82343,51.90463]]}},{"type":"Feature","properties":{"numer":"160508W","klasa":"droga lokalna","kat":"powiatowa"},"geometry":{"type":"LineString","coordinates":[[20.82218,51.90755],[20.8231,51.90572]]}},{"type":"Feature","properties":{"numer":"160508W","klasa":"droga lokalna","kat":"powiatowa"},"geometry":{"type":"LineString","coordinates":[[20.82159,51.90869],[20.82218,51.90755]]}},{"type":"Feature","properties":{"numer":"160508W","klasa":"droga lokalna","kat":"powiatowa"},"geometry":{"type":"LineString","coordinates":[[20.82105,51.90985],[20.82159,51.90869]]}},{"type":"Feature","properties":{"numer":"160508W","klasa":"droga lokalna","kat":"powiatowa"},"geometry":{"type":"LineString","coordinates":[[20.82015,51.9114],[20.82105,51.90985]]}},{"type":"Feature","properties":{"numer":"161623W","klasa":"droga lokalna","kat":"powiatowa"},"geometry":{"type":"LineString","coordinates":[[20.80956,51.91183],[20.8096,51.91148],[20.80973,51.9114],[20.81654,51.91205],[20.81754,51.91189],[20.81969,51.91205]]}},{"type":"Feature","properties":{"numer":"160508W","klasa":"droga lokalna","kat":"powiatowa"},"geometry":{"type":"LineString","coordinates":[[20.81969,51.91205],[20.82015,51.9114]]}},{"type":"Feature","properties":{"numer":"1648W","klasa":"droga zbiorcza","kat":"powiatowa"},"geometry":{"type":"LineString","coordinates":[[20.89061,51.89092],[20.90138,51.89155],[20.90413,51.89083],[20.90492,51.89069],[20.90569,51.89063],[20.91119,51.89064],[20.91285,51.89003],[20.91354,51.88988],[20.92004,51.88947],[20.92246,51.88923],[20.92694,51.88746],[20.93057,51.88582],[20.93067,51.88576],[20.93065,51.88563]]}},{"type":"Feature","properties":{"numer":"722","klasa":"droga gĹ‚Ăłwna","kat":"wojewodzka"},"geometry":{"type":"LineString","coordinates":[[20.89061,51.89092],[20.89318,51.89219],[20.89588,51.89368],[20.89646,51.8941],[20.89711,51.89482],[20.89743,51.89543],[20.9013,51.9054],[20.90166,51.90776]]}},{"type":"Feature","properties":{"numer":"722","klasa":"droga gĹ‚Ăłwna","kat":"wojewodzka"},"geometry":{"type":"LineString","coordinates":[[20.90166,51.90776],[20.90167,51.90781]]}},{"type":"Feature","properties":{"numer":"722","klasa":"droga gĹ‚Ăłwna","kat":"wojewodzka"},"geometry":{"type":"LineString","coordinates":[[20.90167,51.90781],[20.90187,51.90942]]}},{"type":"Feature","properties":{"numer":"722","klasa":"droga gĹ‚Ăłwna","kat":"wojewodzka"},"geometry":{"type":"LineString","coordinates":[[20.90187,51.90942],[20.90188,51.90951]]}},{"type":"Feature","properties":{"numer":"","klasa":"droga lokalna","kat":"gminna"},"geometry":{"type":"LineString","coordinates":[[20.80956,51.91183],[20.80958,51.91232],[20.80951102612159,51.91243286634649]]}},{"type":"Feature","properties":{"numer":"1647W","klasa":"droga gĹ‚Ăłwna","kat":"powiatowa"},"geometry":{"type":"LineString","coordinates":[[20.86202,51.89476],[20.86182,51.89531]]}},{"type":"Feature","properties":{"numer":"E77,S7","klasa":"droga ekspresowa","kat":"krajowa"},"geometry":{"type":"LineString","coordinates":[[20.848893634132505,51.93140968985446],[20.86061,51.89817],[20.86064,51.89695],[20.86027,51.89557],[20.85941,51.89419],[20.85714,51.89135],[20.8565,51.89024],[20.85612,51.88881],[20.85601,51.8858]]}}]}