{"type":"FeatureCollection","features":[{"type":"Feature","properties":{"numer":"48","klasa":"droga gĹ‚Ăłwna","kat":"krajowa"},"geometry":{"type":"LineString","coordinates":[[21.644793604716476,51.54802568781582],[21.64527,51.54769],[21.64744,51.54637],[21.64807,51.54607],[21.64973,51.5455],[21.65165,51.5443],[21.65343,51.54361],[21.65433,51.54316],[21.65524,51.54228],[21.65583,51.54072],[21.65692,51.54006],[21.65815,51.53855],[21.65933,51.53781]]}},{"type":"Feature","properties":{"numer":"1731W","klasa":"droga zbiorcza","kat":"powiatowa"},"geometry":{"type":"LineString","coordinates":[[21.75273,51.51941],[21.76913747069658,51.514935235264566]]}},{"type":"Feature","properties":{"numer":"1735W","klasa":"droga zbiorcza","kat":"powiatowa"},"geometry":{"type":"LineString","coordinates":[[21.79372,51.52959],[21.79377,51.52959]]}},{"type":"Feature","properties":{"numer":"1735W","klasa":"droga zbiorcza","kat":"powiatowa"},"geometry":{"type":"LineString","coordinates":[[21.79377,51.52959],[21.79853,51.52889],[21.79898,51.52888],[21.80042,51.52928],[21.80143,51.52971],[21.80199,51.5303],[21.8026,51.53128],[21.80286,51.53143],[21.80531,51.53123],[21.807,51.5312],[21.80937,51.53142]]}},{"type":"Feature","properties":{"numer":"1735W","klasa":"droga zbiorcza","kat":"powiatowa"},"geometry":{"type":"LineString","coordinates":[[21.77196,51.53187],[21.77849,51.52987],[21.79372,51.52959]]}},{"type":"Feature","properties":{"numer":"823","klasa":"droga zbiorcza","kat":"wojewodzka"},"geometry":{"type":"LineString","coordinates":[[21.81004,51.53201],[21.811518060671723,51.53111671722643]]}},{"type":"Feature","properties":{"numer":"170708W","klasa":"droga lokalna","kat":"powiatowa"},"geometry":{"type":"LineString","coordinates":[[21.81004,51.53201],[21.80937,51.53142]]}},{"type":"Feature","properties":{"numer":"691","klasa":"droga zbiorcza","kat":"wojewodzka"},"geometry":{"type":"LineString","coordinates":[[21.74048873124331,51.50932920365926],[21.74409,51.51079],[21.74694,51.51254]]}},{"type":"Feature","properties":{"numer":"691","klasa":"droga zbiorcza","kat":"wojewodzka"},"geometry":{"type":"LineString","coordinates":[[21.74694,51.51254],[21.74705,51.51261]]}},{"type":"Feature","properties":{"numer":"691","klasa":"droga zbiorcza","kat":"wojewodzka"},"geometry":{"type":"LineString","coordinates":[[21.74705,51.51261],[21.74899,51.51387],[21.75273,51.51941]]}},{"type":"Feature","properties":{"numer":"1731W","klasa":"droga zbiorcza","kat":"powiatowa"},"geometry":{"type":"LineString","coordinates":[[21.74297,51.52396],[21.75273,51.51941]]}},{"type":"Feature","properties":{"numer":"1745W","klasa":"droga zbiorcza","kat":"powiatowa"},"geometry":{"type":"LineString","coordinates":[[21.74297,51.52396],[21.74177,51.52314],[21.74041,51.52257],[21.73727,51.52155],[21.73184,51.5201]]}},{"type":"Feature","properties":{"numer":"691","klasa":"droga zbiorcza","kat":"wojewodzka"},"geometry":{"type":"LineString","coordinates":[[21.75273,51.51941],[21.75566,51.52378],[21.75923,51.52669],[21.76031,51.52726],[21.76049,51.52798],[21.76151,51.52853],[21.76775,51.53359]]}},{"type":"Feature","properties":{"numer":"1731W","klasa":"droga zbiorcza","kat":"powiatowa"},"geometry":{"type":"LineString","coordinates":[[21.74467,51.53657],[21.74416,51.53602],[21.74321,51.53527],[21.74265,51.53422],[21.7424,51.53346],[21.74225,51.53171],[21.74245,51.53049],[21.74334,51.52929],[21.74468,51.52696],[21.74456,51.52657],[21.74366,51.52493],[21.74297,51.52396]]}},{"type":"Feature","properties":{"numer":"1735W","klasa":"droga zbiorcza","kat":"powiatowa"},"geometry":{"type":"LineString","coordinates":[[21.77191,51.53205],[21.77196,51.53187]]}},{"type":"Feature","properties":{"numer":"1735W","klasa":"droga zbiorcza","kat":"powiatowa"},"geometry":{"type":"LineString","coordinates":[[21.77107,51.53216],[21.77196,51.53187]]}},{"type":"Feature","properties":{"numer":"48","klasa":"droga gĹ‚Ăłwna","kat":"krajowa"},"geometry":{"type":"LineString","coordinates":[[21.77191,51.53205],[21.77107,51.53216]]}},{"type":"Feature","properties":{"numer":"48","klasa":"droga gĹ‚Ăłwna","kat":"krajowa"},"geometry":{"type":"LineString","coordinates":[[21.77107,51.53216],[21.76982,51.53253],[21.76879,51.53312],[21.76775,51.53359]]}},{"type":"Feature","properties":{"numer":"170703W","klasa":"droga lokalna","kat":"powiatowa"},"geometry":{"type":"LineString","coordinates":[[21.77198,51.53483],[21.7713,51.53454],[21.76866,51.53409],[21.76817,51.53389],[21.76775,51.53359]]}},{"type":"Feature","properties":{"numer":"48","klasa":"droga gĹ‚Ăłwna","kat":"krajowa"},"geometry":{"type":"LineString","coordinates":[[21.76775,51.53359],[21.76434,51.53538],[21.76241,51.53619],[21.76153,51.53627],[21.76046,51.53598]]}},{"type":"Feature","properties":{"numer":"170703W","klasa":"droga lokalna","kat":"powiatowa"},"geometry":{"type":"LineString","coordinates":[[21.77801,51.53644],[21.77451,51.53525],[21.77414,51.53519],[21.77287,51.53525],[21.77198,51.53483]]}},{"type":"Feature","properties":{"numer":"48","klasa":"droga gĹ‚Ăłwna","kat":"krajowa"},"geometry":{"type":"LineString","coordinates":[[21.76046,51.53598],[21.75704,51.53501],[21.75431,51.53459],[21.75171,51.5346],[21.75059,51.53473],[21.74743,51.53568],[21.7448,51.53671]]}},{"type":"Feature","properties":{"numer":"170703W","klasa":"droga lokalna","kat":"powiatowa"},"geometry":{"type":"LineString","coordinates":[[21.77806,51.53646],[21.77801,51.53644]]}},{"type":"Feature","properties":{"numer":"1731W","klasa":"droga zbiorcza","kat":"powiatowa"},"geometry":{"type":"LineString","coordinates":[[21.74467,51.53657],[21.7448,51.53671]]}},{"type":"Feature","properties":{"numer":"823","klasa":"droga zbiorcza","kat":"wojewodzka"},"geometry":{"type":"LineString","coordinates":[[21.80948,51.54076],[21.81271,51.53726],[21.80987,51.53228],[21.81004,51.53201]]}},{"type":"Feature","properties":{"numer":"48","klasa":"droga gĹ‚Ăłwna","kat":"krajowa"},"geometry":{"type":"LineString","coordinates":[[21.80948,51.54076],[21.8004,51.53878],[21.7915,51.53693],[21.78471,51.53611],[21.78345,51.53589],[21.78229,51.53553],[21.77474,51.53256],[21.77329,51.53215],[21.77191,51.53205]]}},{"type":"Feature","properties":{"numer":"1737W","klasa":"droga zbiorcza","kat":"powiatowa"},"geometry":{"type":"LineString","coordinates":[[21.819456644531414,51.53599651567791],[21.82002,51.5364],[21.82192,51.53823],[21.82299,51.53969],[21.82404,51.54487],[21.82205,51.5492],[21.82182,51.54947],[21.82175,51.55032],[21.82144,51.55034]]}},{"type":"Feature","properties":{"numer":"48","klasa":"droga gĹ‚Ăłwna","kat":"krajowa"},"geometry":{"type":"LineString","coordinates":[[21.82144,51.55034],[21.82091,51.54932],[21.81875,51.54692],[21.81733,51.54385],[21.81695,51.54323],[21.81666,51.54295],[21.81583,51.54254],[21.80948,51.54076]]}},{"type":"Feature","properties":{"numer":"1745W","klasa":"droga zbiorcza","kat":"powiatowa"},"geometry":{"type":"LineString","coordinates":[[21.73172,51.52006],[21.728293387978137,51.519027322404376]]}},{"type":"Feature","properties":{"numer":"1745W","klasa":"droga zbiorcza","kat":"powiatowa"},"geometry":{"type":"LineString","coordinates":[[21.72605681893535,51.51835328789833],[21.72588,51.5183],[21.72294,51.51782],[21.722814257405094,51.51772327492699]]}},{"type":"Feature","properties":{"numer":"1745W","klasa":"droga zbiorcza","kat":"powiatowa"},"geometry":{"type":"LineString","coordinates":[[21.73172,51.52006],[21.73184,51.5201]]}},{"type":"Feature","properties":{"numer":"738","klasa":"droga gĹ‚Ăłwna","kat":"wojewodzka"},"geometry":{"type":"LineString","coordinates":[[21.65933,51.53781],[21.65932,51.53762],[21.65876,51.53676],[21.65871,51.53633],[21.65904,51.53581],[21.65965,51.53549],[21.66374,51.53401],[21.66686,51.53303],[21.66947,51.53233],[21.67128,51.53127],[21.67202,51.53095],[21.68307,51.52913],[21.68455,51.52883],[21.68577,51.52844],[21.68739,51.52772],[21.68829732934376,51.527151518960544]]}},{"type":"Feature","properties":{"numer":"48","klasa":"droga gĹ‚Ăłwna","kat":"krajowa"},"geometry":{"type":"LineString","coordinates":[[21.65933,51.53781],[21.65961,51.53791],[21.66095,51.53899],[21.66487,51.54265],[21.66532,51.54291],[21.66645,51.54325],[21.66697,51.54356],[21.66799,51.54476],[21.66835,51.54618],[21.66855,51.54653],[21.67065,51.54809]]}},{"type":"Feature","properties":{"numer":"48","klasa":"droga gĹ‚Ăłwna","kat":"krajowa"},"geometry":{"type":"LineString","coordinates":[[21.6764,51.54932],[21.67821,51.54932],[21.68141,51.54972],[21.68212,51.54972],[21.70783,51.5465],[21.71634,51.54361],[21.71959,51.54289],[21.72127,51.54206],[21.72281,51.54151],[21.72476,51.54108],[21.72528,51.54103],[21.72953,51.54139]]}},{"type":"Feature","properties":{"numer":"48","klasa":"droga gĹ‚Ăłwna","kat":"krajowa"},"geometry":{"type":"LineString","coordinates":[[21.67065,51.54809],[21.67074,51.54816]]}},{"type":"Feature","properties":{"numer":"48","klasa":"droga gĹ‚Ăłwna","kat":"krajowa"},"geometry":{"type":"LineString","coordinates":[[21.67074,51.54816],[21.67214,51.54914],[21.67283,51.5494],[21.67361,51.54944],[21.6764,51.54932]]}},{"type":"Feature","properties":{"numer":"1724W","klasa":"droga zbiorcza","kat":"powiatowa"},"geometry":{"type":"LineString","coordinates":[[21.6764,51.54932],[21.67682,51.55014],[21.67683,51.55166],[21.67423,51.55534],[21.67419,51.55731],[21.67247,51.56121]]}},{"type":"Feature","properties":{"numer":"1730W","klasa":"droga zbiorcza","kat":"powiatowa"},"geometry":{"type":"LineString","coordinates":[[21.666824063268688,51.56189876547753],[21.67247,51.56121]]}},{"type":"Feature","properties":{"numer":"48","klasa":"droga gĹ‚Ăłwna","kat":"krajowa"},"geometry":{"type":"LineString","coordinates":[[21.81993,51.5542],[21.82003,51.55359],[21.82094,51.55251],[21.82136,51.55176],[21.82152,51.551],[21.82144,51.55034]]}},{"type":"Feature","properties":{"numer":"48","klasa":"droga gĹ‚Ăłwna","kat":"krajowa"},"geometry":{"type":"LineString","coordinates":[[21.82386,51.55812],[21.82273,51.55753],[21.82205,51.55699],[21.8202,51.55478],[21.81993,51.5542]]}},{"type":"Feature","properties":{"numer":"1734W","klasa":"droga zbiorcza","kat":"powiatowa"},"geometry":{"type":"LineString","coordinates":[[21.81993,51.5542],[21.81918,51.55416],[21.8149,51.55797],[21.81433,51.55829],[21.81296,51.55882],[21.80757,51.56007],[21.80631,51.55967],[21.80468,51.55946],[21.80185,51.55864],[21.79433,51.55676],[21.7934,51.5571],[21.79273,51.55796],[21.78794,51.55807],[21.78514,51.55645],[21.7849,51.55646],[21.78391,51.557],[21.78371,51.55703],[21.77843,51.55314]]}},{"type":"Feature","properties":{"numer":"48","klasa":"droga gĹ‚Ăłwna","kat":"krajowa"},"geometry":{"type":"LineString","coordinates":[[21.82745225144954,51.55982681560586],[21.82386,51.55812]]}},{"type":"Feature","properties":{"numer":"48","klasa":"droga gĹ‚Ăłwna","kat":"krajowa"},"geometry":{"type":"LineString","coordinates":[[21.7448,51.53671],[21.74476,51.53694],[21.74544,51.54011],[21.74542,51.54037],[21.74516,51.54062]]}},{"type":"Feature","properties":{"numer":"48","klasa":"droga gĹ‚Ăłwna","kat":"krajowa"},"geometry":{"type":"LineString","coordinates":[[21.72953,51.54139],[21.73221,51.5409],[21.74462,51.54075],[21.74516,51.54062]]}},{"type":"Feature","properties":{"numer":"1733W","klasa":"droga zbiorcza","kat":"powiatowa"},"geometry":{"type":"LineString","coordinates":[[21.77105,51.54579],[21.77103,51.54533],[21.77259,51.54343],[21.77365,51.54156],[21.77383,51.54152],[21.77534,51.54181],[21.77551,51.54178],[21.77806,51.53646]]}},{"type":"Feature","properties":{"numer":"1733W","klasa":"droga zbiorcza","kat":"powiatowa"},"geometry":{"type":"LineString","coordinates":[[21.76046,51.53598],[21.75316,51.5409],[21.7506,51.54351],[21.75059,51.54368],[21.75544,51.54558],[21.75548,51.54577],[21.75448,51.54649],[21.75464,51.54664],[21.76036,51.54769],[21.76367,51.54705],[21.77105,51.54579]]}},{"type":"Feature","properties":{"numer":"170701W","klasa":"droga lokalna","kat":"powiatowa"},"geometry":{"type":"LineString","coordinates":[[21.77105,51.54579],[21.77366,51.55019]]}},{"type":"Feature","properties":{"numer":"170701W","klasa":"droga lokalna","kat":"powiatowa"},"geometry":{"type":"LineString","coordinates":[[21.77366,51.55019],[21.77399,51.55026],[21.77502,51.55001],[21.77587,51.54962],[21.77666,51.54909],[21.7782,51.54787],[21.77897,51.54737],[21.77906,51.54679],[21.7795,51.54617],[21.77979,51.54606]]}},{"type":"Feature","properties":{"numer":"1732W","klasa":"droga zbiorcza","kat":"powiatowa"},"geometry":{"type":"LineString","coordinates":[[21.74486,51.55539],[21.72736,51.55162],[21.72765,51.55066],[21.72886,51.54909],[21.72987,51.54594],[21.72959,51.54336],[21.72953,51.54139]]}},{"type":"Feature","properties":{"numer":"170701W","klasa":"droga lokalna","kat":"powiatowa"},"geometry":{"type":"LineString","coordinates":[[21.77979,51.54606],[21.78046,51.54647],[21.78079,51.54686],[21.78088,51.54732],[21.78076,51.54829],[21.78028,51.54936],[21.77937,51.55069],[21.77814,51.55189],[21.77749,51.55239]]}},{"type":"Feature","properties":{"numer":"170701W","klasa":"droga lokalna","kat":"powiatowa"},"geometry":{"type":"LineString","coordinates":[[21.77749,51.55239],[21.77843,51.55314]]}},{"type":"Feature","properties":{"numer":"1724W","klasa":"droga zbiorcza","kat":"powiatowa"},"geometry":{"type":"LineString","coordinates":[[21.67247,51.56121],[21.66989,51.56703],[21.67001,51.5682],[21.670903982958947,51.569464890782335]]}}]}