{"type":"FeatureCollection","features":[{"type":"Feature","properties":{"numer":"1817W","klasa":"droga zbiorcza","kat":"powiatowa"},"geometry":{"type":"LineString","coordinates":[[20.76985881324562,52.41852576747828],[20.77801,52.42438],[20.77834,52.42476],[20.77845,52.42525]]}},{"type":"Feature","properties":{"numer":"1810W","klasa":"droga zbiorcza","kat":"powiatowa"},"geometry":{"type":"LineString","coordinates":[[20.96075702109561,52.41163361687649],[20.95942,52.41201]]}},{"type":"Feature","properties":{"numer":"61,632","klasa":"droga gĹ‚Ăłwna ruchu przyĹ›pieszonego","kat":"gminna"},"geometry":{"type":"LineString","coordinates":[[20.95942,52.41201],[20.958316811821337,52.411137983879996]]}},{"type":"Feature","properties":{"numer":"61,632","klasa":"droga gĹ‚Ăłwna ruchu przyĹ›pieszonego","kat":"gminna"},"geometry":{"type":"LineString","coordinates":[[20.96409,52.41561],[20.95942,52.41201]]}},{"type":"Feature","properties":{"numer":"61,632","klasa":"droga gĹ‚Ăłwna ruchu przyĹ›pieszonego","kat":"gminna"},"geometry":{"type":"LineString","coordinates":[[20.96409,52.41561],[20.96415,52.41565]]}},{"type":"Feature","properties":{"numer":"61,632","klasa":"droga gĹ‚Ăłwna ruchu przyĹ›pieszonego","kat":"gminna"},"geometry":{"type":"LineString","coordinates":[[20.96415,52.41565],[20.96416,52.41566]]}},{"type":"Feature","properties":{"numer":"631","klasa":"droga zbiorcza","kat":"wojewodzka"},"geometry":{"type":"LineString","coordinates":[[20.76146050785532,52.436465400073075],[20.76156,52.43651],[20.77712,52.43894]]}},{"type":"Feature","properties":{"numer":"1818W","klasa":"droga zbiorcza","kat":"powiatowa"},"geometry":{"type":"LineString","coordinates":[[20.94676,52.41889],[20.94536592397508,52.41727510233273]]}},{"type":"Feature","properties":{"numer":"1820W","klasa":"droga zbiorcza","kat":"powiatowa"},"geometry":{"type":"LineString","coordinates":[[20.85971,52.44825],[20.86285,52.44562],[20.86333,52.44183],[20.86443,52.44068],[20.86621,52.43747],[20.867,52.43658],[20.86876,52.43547],[20.876230136830035,52.431166879457265]]}},{"type":"Feature","properties":{"numer":"631","klasa":"droga zbiorcza","kat":"wojewodzka"},"geometry":{"type":"LineString","coordinates":[[20.85971,52.44825],[20.87466,52.45435],[20.87523,52.45449],[20.88566,52.45426],[20.91815,52.45336]]}},{"type":"Feature","properties":{"numer":"1817W","klasa":"droga zbiorcza","kat":"powiatowa"},"geometry":{"type":"LineString","coordinates":[[20.77845,52.42525],[20.77844,52.42534]]}},{"type":"Feature","properties":{"numer":"1817W","klasa":"droga zbiorcza","kat":"powiatowa"},"geometry":{"type":"LineString","coordinates":[[20.77844,52.42534],[20.77712,52.43894]]}},{"type":"Feature","properties":{"numer":"631","klasa":"droga zbiorcza","kat":"wojewodzka"},"geometry":{"type":"LineString","coordinates":[[20.77712,52.43894],[20.78983,52.43809],[20.7903,52.43828],[20.79371,52.44057],[20.79462,52.44094],[20.80404,52.44281],[20.80963,52.44388],[20.81018,52.44392],[20.8125,52.44341],[20.83182,52.43866],[20.83236,52.43856],[20.83283,52.43857],[20.85971,52.44825]]}},{"type":"Feature","properties":{"numer":"61","klasa":"droga gĹ‚Ăłwna ruchu przyĹ›pieszonego","kat":"krajowa"},"geometry":{"type":"LineString","coordinates":[[20.99878,52.44295],[21.00088,52.44465]]}},{"type":"Feature","properties":{"numer":"631","klasa":"droga gĹ‚Ăłwna ruchu przyĹ›pieszonego","kat":"wojewodzka"},"geometry":{"type":"LineString","coordinates":[[21.00128,52.44478],[21.001481951219514,52.4447568597561]]}},{"type":"Feature","properties":{"numer":"61","klasa":"droga gĹ‚Ăłwna ruchu przyĹ›pieszonego","kat":"krajowa"},"geometry":{"type":"LineString","coordinates":[[21.00088,52.44465],[21.00102,52.44479]]}},{"type":"Feature","properties":{"numer":"1824W","klasa":"droga zbiorcza","kat":"powiatowa"},"geometry":{"type":"LineString","coordinates":[[20.94676,52.41889],[20.939946133936722,52.42108606129173]]}},{"type":"Feature","properties":{"numer":"1818W","klasa":"droga zbiorcza","kat":"powiatowa"},"geometry":{"type":"LineString","coordinates":[[20.95386,52.42714],[20.94676,52.41889]]}},{"type":"Feature","properties":{"numer":"1818W","klasa":"droga zbiorcza","kat":"powiatowa"},"geometry":{"type":"LineString","coordinates":[[20.95395,52.42726],[20.95386,52.42714]]}},{"type":"Feature","properties":{"numer":"1818W","klasa":"droga zbiorcza","kat":"powiatowa"},"geometry":{"type":"LineString","coordinates":[[20.95439,52.42786],[20.95395,52.42726]]}},{"type":"Feature","properties":{"numer":"1827W","klasa":"droga zbiorcza","kat":"powiatowa"},"geometry":{"type":"LineString","coordinates":[[20.94218,52.426],[20.94539,52.42967]]}},{"type":"Feature","properties":{"numer":"1818W","klasa":"droga zbiorcza","kat":"powiatowa"},"geometry":{"type":"LineString","coordinates":[[20.95446,52.42793],[20.95439,52.42786]]}},{"type":"Feature","properties":{"numer":"632","klasa":"droga zbiorcza","kat":"wojewodzka"},"geometry":{"type":"LineString","coordinates":[[20.95446,52.42793],[20.95459,52.42794]]}},{"type":"Feature","properties":{"numer":"632","klasa":"droga zbiorcza","kat":"wojewodzka"},"geometry":{"type":"LineString","coordinates":[[20.95432,52.42796],[20.95446,52.42793]]}},{"type":"Feature","properties":{"numer":"1818W","klasa":"droga zbiorcza","kat":"powiatowa"},"geometry":{"type":"LineString","coordinates":[[20.95449,52.42801],[20.95446,52.42793]]}},{"type":"Feature","properties":{"numer":"632","klasa":"droga zbiorcza","kat":"wojewodzka"},"geometry":{"type":"LineString","coordinates":[[20.94539,52.42967],[20.94628,52.42928],[20.94721,52.429],[20.95432,52.42796]]}},{"type":"Feature","properties":{"numer":"1823W","klasa":"droga zbiorcza","kat":"powiatowa"},"geometry":{"type":"LineString","coordinates":[[20.9299469751461,52.42493698210496],[20.93925,52.43563]]}},{"type":"Feature","properties":{"numer":"632","klasa":"droga zbiorcza","kat":"wojewodzka"},"geometry":{"type":"LineString","coordinates":[[20.93959,52.43583],[20.94117,52.43371],[20.94299,52.43094],[20.94374,52.43043],[20.94539,52.42967]]}},{"type":"Feature","properties":{"numer":"1823W","klasa":"droga zbiorcza","kat":"powiatowa"},"geometry":{"type":"LineString","coordinates":[[20.93937,52.43575],[20.93925,52.43563]]}},{"type":"Feature","properties":{"numer":"1823W","klasa":"droga zbiorcza","kat":"powiatowa"},"geometry":{"type":"LineString","coordinates":[[20.93959,52.43583],[20.93937,52.43575]]}},{"type":"Feature","properties":{"numer":"632","klasa":"droga zbiorcza","kat":"wojewodzka"},"geometry":{"type":"LineString","coordinates":[[20.92753,52.45212],[20.92867,52.45042],[20.92923,52.44978],[20.93427,52.44709],[20.9367,52.4449],[20.93699,52.44428],[20.93795,52.43952],[20.93901,52.43674],[20.93959,52.43583]]}},{"type":"Feature","properties":{"numer":"632","klasa":"droga zbiorcza","kat":"wojewodzka"},"geometry":{"type":"LineString","coordinates":[[20.92751,52.45223],[20.92753,52.45212]]}},{"type":"Feature","properties":{"numer":"631","klasa":"droga zbiorcza","kat":"wojewodzka"},"geometry":{"type":"LineString","coordinates":[[20.92751,52.45223],[20.92767,52.45225]]}},{"type":"Feature","properties":{"numer":"631,632","klasa":"droga zbiorcza","kat":"powiatowa"},"geometry":{"type":"LineString","coordinates":[[20.92739,52.45231],[20.92751,52.45223]]}},{"type":"Feature","properties":{"numer":"631","klasa":"droga zbiorcza","kat":"wojewodzka"},"geometry":{"type":"LineString","coordinates":[[20.92767,52.45225],[20.93096,52.45296],[20.9316,52.453],[20.95791,52.45228],[20.96148,52.45213],[20.96265,52.4522],[20.96517,52.45182]]}},{"type":"Feature","properties":{"numer":"631,632","klasa":"droga zbiorcza","kat":"powiatowa"},"geometry":{"type":"LineString","coordinates":[[20.92141,52.45339],[20.92596,52.45321],[20.9268,52.4529],[20.92739,52.45231]]}},{"type":"Feature","properties":{"numer":"631","klasa":"droga zbiorcza","kat":"wojewodzka"},"geometry":{"type":"LineString","coordinates":[[20.91874,52.45335],[20.91891,52.45335]]}},{"type":"Feature","properties":{"numer":"631","klasa":"droga zbiorcza","kat":"wojewodzka"},"geometry":{"type":"LineString","coordinates":[[20.91815,52.45336],[20.91874,52.45335]]}},{"type":"Feature","properties":{"numer":"631","klasa":"droga zbiorcza","kat":"wojewodzka"},"geometry":{"type":"LineString","coordinates":[[20.91891,52.45335],[20.92101,52.4534]]}},{"type":"Feature","properties":{"numer":"631,632","klasa":"droga zbiorcza","kat":"powiatowa"},"geometry":{"type":"LineString","coordinates":[[20.92141,52.45339],[20.92122,52.4534]]}},{"type":"Feature","properties":{"numer":"631","klasa":"droga zbiorcza","kat":"wojewodzka"},"geometry":{"type":"LineString","coordinates":[[20.92122,52.4534],[20.92101,52.4534]]}},{"type":"Feature","properties":{"numer":"632","klasa":"droga zbiorcza","kat":"wojewodzka"},"geometry":{"type":"LineString","coordinates":[[20.92114,52.45352],[20.92122,52.4534]]}},{"type":"Feature","properties":{"numer":"1822W","klasa":"droga zbiorcza","kat":"powiatowa"},"geometry":{"type":"LineString","coordinates":[[20.91478,52.47394],[20.91739,52.47401],[20.91799,52.47395],[20.91855,52.47375],[20.92121,52.47224],[20.92415,52.47108],[20.92528,52.47082],[20.9297,52.47023],[20.9302,52.47008],[20.93323,52.46846],[20.93347,52.46818],[20.93423,52.46665],[20.93776,52.46344],[20.93834,52.46321],[20.95631,52.45805],[20.9582,52.45713],[20.95994,52.45644],[20.96003,52.45632],[20.95997,52.4558],[20.96027,52.45538],[20.96323,52.45357],[20.96398,52.45298],[20.96422,52.45261],[20.96521,52.45214],[20.96517,52.45182]]}},{"type":"Feature","properties":{"numer":"632","klasa":"droga zbiorcza","kat":"wojewodzka"},"geometry":{"type":"LineString","coordinates":[[20.92114,52.45352],[20.91905,52.45611],[20.9184,52.45741],[20.91831,52.4578],[20.91844,52.45921],[20.91837,52.45979],[20.91635,52.46508],[20.91466,52.47103],[20.91478,52.47394]]}},{"type":"Feature","properties":{"numer":"632","klasa":"droga zbiorcza","kat":"wojewodzka"},"geometry":{"type":"LineString","coordinates":[[20.91478,52.47394],[20.91483,52.47535],[20.91516,52.47604],[20.91578,52.47674],[20.9165,52.47732],[20.9218,52.48098],[20.92244,52.48158],[20.92287,52.48217],[20.92319,52.48308],[20.92346,52.48749]]}},{"type":"Feature","properties":{"numer":"632","klasa":"droga zbiorcza","kat":"wojewodzka"},"geometry":{"type":"LineString","coordinates":[[20.923538244416196,52.48887706010532],[20.92346,52.48749]]}},{"type":"Feature","properties":{"numer":"631","klasa":"droga zbiorcza","kat":"wojewodzka"},"geometry":{"type":"LineString","coordinates":[[20.99944,52.44471],[21.00076,52.44479]]}},{"type":"Feature","properties":{"numer":"631","klasa":"droga gĹ‚Ăłwna ruchu przyĹ›pieszonego","kat":"wojewodzka"},"geometry":{"type":"LineString","coordinates":[[21.00128,52.44478],[21.00102,52.44479]]}},{"type":"Feature","properties":{"numer":"631","klasa":"droga zbiorcza","kat":"wojewodzka"},"geometry":{"type":"LineString","coordinates":[[21.00076,52.44479],[21.00102,52.44479]]}},{"type":"Feature","properties":{"numer":"61","klasa":"droga gĹ‚Ăłwna ruchu przyĹ›pieszonego","kat":"krajowa"},"geometry":{"type":"LineString","coordinates":[[21.00117,52.44491],[21.00102,52.44479]]}},{"type":"Feature","properties":{"numer":"61","klasa":"droga gĹ‚Ăłwna ruchu przyĹ›pieszonego","kat":"krajowa"},"geometry":{"type":"LineString","coordinates":[[21.00447080347191,52.447593211278964],[21.00117,52.44491]]}},{"type":"Feature","properties":{"numer":"61,632","klasa":"droga gĹ‚Ăłwna ruchu przyĹ›pieszonego","kat":"gminna"},"geometry":{"type":"LineString","coordinates":[[20.96416,52.41566],[20.96592,52.41705]]}},{"type":"Feature","properties":{"numer":"632","klasa":"droga zbiorcza","kat":"wojewodzka"},"geometry":{"type":"LineString","coordinates":[[20.96561,52.41732],[20.96592,52.41705]]}},{"type":"Feature","properties":{"numer":"632","klasa":"droga zbiorcza","kat":"wojewodzka"},"geometry":{"type":"LineString","coordinates":[[20.95459,52.42794],[20.95581,52.42776],[20.95686,52.42748],[20.95787,52.42705],[20.95837,52.42673],[20.95867,52.42633],[20.96043,52.42276],[20.96561,52.41732]]}},{"type":"Feature","properties":{"numer":"61","klasa":"droga gĹ‚Ăłwna ruchu przyĹ›pieszonego","kat":"krajowa"},"geometry":{"type":"LineString","coordinates":[[20.96592,52.41705],[20.99878,52.44295]]}},{"type":"Feature","properties":{"numer":"1818W","klasa":"droga zbiorcza","kat":"powiatowa"},"geometry":{"type":"LineString","coordinates":[[20.95449,52.42801],[20.96908,52.45095]]}},{"type":"Feature","properties":{"numer":"631","klasa":"droga zbiorcza","kat":"wojewodzka"},"geometry":{"type":"LineString","coordinates":[[20.96908,52.45095],[20.97307,52.45019],[20.97356,52.44988],[20.97403,52.44921],[20.97456,52.44894],[20.98959,52.44492],[20.99147,52.44423],[20.99234,52.44398],[20.99389,52.44378],[20.99524,52.44381],[20.99607,52.44393],[20.99828,52.44457],[20.99944,52.44471]]}},{"type":"Feature","properties":{"numer":"631","klasa":"droga zbiorcza","kat":"wojewodzka"},"geometry":{"type":"LineString","coordinates":[[20.96517,52.45182],[20.96908,52.45095]]}}]}