{"type":"FeatureCollection","features":[{"type":"Feature","properties":{"numer":"2029W","klasa":"","kat":"powiatowa"},"geometry":{"type":"LineString","coordinates":[[22.69406,52.18558],[22.70784,52.18137],[22.71023,52.18093],[22.71296,52.18072],[22.74205,52.16983]]}},{"type":"Feature","properties":{"numer":"2050W","klasa":"droga zbiorcza","kat":"powiatowa"},"geometry":{"type":"LineString","coordinates":[[22.690276640817423,52.18159126588144],[22.69062,52.18257],[22.69102,52.18304],[22.69406,52.18558]]}},{"type":"Feature","properties":{"numer":"19","klasa":"droga gĹ‚Ăłwna ruchu przyĹ›pieszonego","kat":"krajowa"},"geometry":{"type":"LineString","coordinates":[[22.72697,52.19779],[22.72717,52.19682],[22.72762,52.19587],[22.74128,52.17219],[22.74164,52.17137],[22.74205,52.16983]]}},{"type":"Feature","properties":{"numer":"19","klasa":"droga gĹ‚Ăłwna ruchu przyĹ›pieszonego","kat":"krajowa"},"geometry":{"type":"LineString","coordinates":[[22.74205,52.16983],[22.74305,52.16579],[22.74344,52.16464],[22.743515890218156,52.16451051372273]]}},{"type":"Feature","properties":{"numer":"2040W","klasa":"","kat":"powiatowa"},"geometry":{"type":"LineString","coordinates":[[22.78517,52.18724],[22.77955,52.1744],[22.77932,52.17418],[22.7788,52.17417],[22.77864,52.17408],[22.77725,52.17088],[22.78992,52.16902],[22.79121,52.16912],[22.794909127564242,52.17018974770101]]}},{"type":"Feature","properties":{"numer":"698","klasa":"droga gĹ‚Ăłwna","kat":"wojewodzka"},"geometry":{"type":"LineString","coordinates":[[22.78779,52.19314],[22.81434,52.18717]]}},{"type":"Feature","properties":{"numer":"2040W","klasa":"","kat":"powiatowa"},"geometry":{"type":"LineString","coordinates":[[22.78517,52.18724],[22.78779,52.19314]]}},{"type":"Feature","properties":{"numer":"698","klasa":"droga gĹ‚Ăłwna","kat":"wojewodzka"},"geometry":{"type":"LineString","coordinates":[[22.77608,52.19666],[22.77916,52.19505],[22.78779,52.19314]]}},{"type":"Feature","properties":{"numer":"698","klasa":"droga gĹ‚Ăłwna","kat":"wojewodzka"},"geometry":{"type":"LineString","coordinates":[[22.73115,52.21062],[22.7335,52.21051],[22.73995,52.20999],[22.74898,52.20753],[22.76064,52.20421],[22.76171,52.20376],[22.77608,52.19666]]}},{"type":"Feature","properties":{"numer":"2026W","klasa":"","kat":"powiatowa"},"geometry":{"type":"LineString","coordinates":[[22.79507,52.22575],[22.7934,52.22408],[22.79289,52.2241],[22.79274,52.22402],[22.7862,52.21452],[22.78476,52.21265],[22.77865,52.20122],[22.77608,52.19666]]}},{"type":"Feature","properties":{"numer":"698","klasa":"droga gĹ‚Ăłwna","kat":"wojewodzka"},"geometry":{"type":"LineString","coordinates":[[22.64479900335453,52.21326123651388],[22.6556,52.21327],[22.65641,52.21321],[22.66335,52.21228],[22.67509,52.21213]]}},{"type":"Feature","properties":{"numer":"2025W","klasa":"","kat":"powiatowa"},"geometry":{"type":"LineString","coordinates":[[22.68364,52.22956],[22.68268,52.22896],[22.68156,52.22872],[22.67807,52.22917],[22.67508,52.22892],[22.67485,52.22882],[22.67524,52.22133],[22.67503,52.21399],[22.67509,52.21213]]}},{"type":"Feature","properties":{"numer":"2025W","klasa":"","kat":"powiatowa"},"geometry":{"type":"LineString","coordinates":[[22.6837,52.2296],[22.68364,52.22956]]}},{"type":"Feature","properties":{"numer":"2034W","klasa":"droga zbiorcza","kat":"powiatowa"},"geometry":{"type":"LineString","coordinates":[[22.81434,52.18717],[22.81446,52.18681],[22.815230071376927,52.18569205243637]]}},{"type":"Feature","properties":{"numer":"698","klasa":"droga gĹ‚Ăłwna","kat":"wojewodzka"},"geometry":{"type":"LineString","coordinates":[[22.81434,52.18717],[22.83936,52.18159],[22.83994,52.18157],[22.84249,52.18182],[22.84383,52.18178],[22.845233460759154,52.18190370930704]]}},{"type":"Feature","properties":{"numer":"2014W","klasa":"","kat":"powiatowa"},"geometry":{"type":"LineString","coordinates":[[22.81896,52.19149],[22.8178,52.19061],[22.81434,52.18717]]}},{"type":"Feature","properties":{"numer":"2014W","klasa":"","kat":"powiatowa"},"geometry":{"type":"LineString","coordinates":[[22.82155,52.19349],[22.81896,52.19149]]}},{"type":"Feature","properties":{"numer":"2014W","klasa":"","kat":"powiatowa"},"geometry":{"type":"LineString","coordinates":[[22.82155,52.19349],[22.82462,52.19591],[22.8272,52.19822],[22.82938,52.2006],[22.83068,52.20243],[22.830841405659786,52.2027731829077]]}},{"type":"Feature","properties":{"numer":"2027W","klasa":"","kat":"powiatowa"},"geometry":{"type":"LineString","coordinates":[[22.80427,52.23493],[22.81395,52.24248],[22.81463,52.24286],[22.814733453992204,52.24286327127248]]}},{"type":"Feature","properties":{"numer":"2050W","klasa":"droga zbiorcza","kat":"powiatowa"},"geometry":{"type":"LineString","coordinates":[[22.69406,52.18558],[22.69716,52.18818],[22.70277,52.19342]]}},{"type":"Feature","properties":{"numer":"2050W","klasa":"droga zbiorcza","kat":"powiatowa"},"geometry":{"type":"LineString","coordinates":[[22.70277,52.19342],[22.70281,52.19345]]}},{"type":"Feature","properties":{"numer":"200739W","klasa":"droga dojazdowa","kat":"powiatowa"},"geometry":{"type":"LineString","coordinates":[[22.72697,52.19779],[22.72665,52.19783]]}},{"type":"Feature","properties":{"numer":"200739W","klasa":"droga dojazdowa","kat":"powiatowa"},"geometry":{"type":"LineString","coordinates":[[22.72665,52.19783],[22.72647,52.19795]]}},{"type":"Feature","properties":{"numer":"200739W","klasa":"droga dojazdowa","kat":"powiatowa"},"geometry":{"type":"LineString","coordinates":[[22.72647,52.19795],[22.72624,52.19819]]}},{"type":"Feature","properties":{"numer":"200739W","klasa":"droga dojazdowa","kat":"powiatowa"},"geometry":{"type":"LineString","coordinates":[[22.72624,52.19819],[22.72587,52.19859]]}},{"type":"Feature","properties":{"numer":"19","klasa":"droga gĹ‚Ăłwna ruchu przyĹ›pieszonego","kat":"krajowa"},"geometry":{"type":"LineString","coordinates":[[22.72733,52.20004],[22.727,52.19884],[22.72697,52.19779]]}},{"type":"Feature","properties":{"numer":"200739W","klasa":"droga dojazdowa","kat":"powiatowa"},"geometry":{"type":"LineString","coordinates":[[22.72587,52.19859],[22.72496,52.19952]]}},{"type":"Feature","properties":{"numer":"2050W","klasa":"droga zbiorcza","kat":"powiatowa"},"geometry":{"type":"LineString","coordinates":[[22.70281,52.19345],[22.71512,52.20497]]}},{"type":"Feature","properties":{"numer":"2028W","klasa":"","kat":"powiatowa"},"geometry":{"type":"LineString","coordinates":[[22.672325470537068,52.19093005025935],[22.67244,52.19129],[22.67323,52.19269],[22.67498,52.19758],[22.67539,52.19815],[22.67644,52.19861],[22.69056,52.20235],[22.69436,52.20385],[22.69694,52.20527],[22.6996,52.20644],[22.70455,52.21161]]}},{"type":"Feature","properties":{"numer":"200739W","klasa":"droga dojazdowa","kat":"powiatowa"},"geometry":{"type":"LineString","coordinates":[[22.72496,52.19952],[22.72423,52.20027]]}},{"type":"Feature","properties":{"numer":"200739W","klasa":"droga dojazdowa","kat":"powiatowa"},"geometry":{"type":"LineString","coordinates":[[22.72423,52.20027],[22.72398,52.20052]]}},{"type":"Feature","properties":{"numer":"2055W","klasa":"","kat":"powiatowa"},"geometry":{"type":"LineString","coordinates":[[22.72733,52.20004],[22.72358,52.20158],[22.72261,52.20184]]}},{"type":"Feature","properties":{"numer":"200739W","klasa":"droga dojazdowa","kat":"powiatowa"},"geometry":{"type":"LineString","coordinates":[[22.72398,52.20052],[22.72261,52.20184]]}},{"type":"Feature","properties":{"numer":"2055W","klasa":"","kat":"powiatowa"},"geometry":{"type":"LineString","coordinates":[[22.72261,52.20184],[22.72068,52.20265]]}},{"type":"Feature","properties":{"numer":"2062W","klasa":"","kat":"powiatowa"},"geometry":{"type":"LineString","coordinates":[[22.72068,52.20265],[22.72033,52.20312]]}},{"type":"Feature","properties":{"numer":"2062W","klasa":"","kat":"powiatowa"},"geometry":{"type":"LineString","coordinates":[[22.72033,52.20312],[22.72014,52.20336],[22.71967,52.20365],[22.71795,52.20446]]}},{"type":"Feature","properties":{"numer":"2062W","klasa":"","kat":"powiatowa"},"geometry":{"type":"LineString","coordinates":[[22.71795,52.20446],[22.71557,52.20542]]}},{"type":"Feature","properties":{"numer":"2050W","klasa":"droga zbiorcza","kat":"powiatowa"},"geometry":{"type":"LineString","coordinates":[[22.71512,52.20497],[22.71519,52.20503]]}},{"type":"Feature","properties":{"numer":"2050W","klasa":"droga zbiorcza","kat":"powiatowa"},"geometry":{"type":"LineString","coordinates":[[22.71519,52.20503],[22.71557,52.20542]]}},{"type":"Feature","properties":{"numer":"19","klasa":"droga gĹ‚Ăłwna ruchu przyĹ›pieszonego","kat":"krajowa"},"geometry":{"type":"LineString","coordinates":[[22.73115,52.21062],[22.72733,52.20004]]}},{"type":"Feature","properties":{"numer":"2059W","klasa":"","kat":"powiatowa"},"geometry":{"type":"LineString","coordinates":[[22.72033,52.20312],[22.72378,52.20763]]}},{"type":"Feature","properties":{"numer":"2050W","klasa":"droga zbiorcza","kat":"powiatowa"},"geometry":{"type":"LineString","coordinates":[[22.71557,52.20542],[22.71615,52.20681],[22.71731,52.2102],[22.7177,52.21079]]}},{"type":"Feature","properties":{"numer":"2060W","klasa":"","kat":"powiatowa"},"geometry":{"type":"LineString","coordinates":[[22.72378,52.20763],[22.72253,52.20919],[22.72177,52.20954],[22.72061,52.20989]]}},{"type":"Feature","properties":{"numer":"19,698","klasa":"droga gĹ‚Ăłwna","kat":"gminna"},"geometry":{"type":"LineString","coordinates":[[22.73115,52.21062],[22.72624,52.21081]]}},{"type":"Feature","properties":{"numer":"698","klasa":"droga gĹ‚Ăłwna","kat":"wojewodzka"},"geometry":{"type":"LineString","coordinates":[[22.72624,52.21081],[22.72613,52.21081]]}},{"type":"Feature","properties":{"numer":"2050W","klasa":"droga zbiorcza","kat":"powiatowa"},"geometry":{"type":"LineString","coordinates":[[22.7177,52.21079],[22.71773,52.21095]]}},{"type":"Feature","properties":{"numer":"698","klasa":"droga gĹ‚Ăłwna","kat":"wojewodzka"},"geometry":{"type":"LineString","coordinates":[[22.72613,52.21081],[22.72412,52.2109],[22.72315,52.21108]]}},{"type":"Feature","properties":{"numer":"698","klasa":"droga gĹ‚Ăłwna","kat":"wojewodzka"},"geometry":{"type":"LineString","coordinates":[[22.72315,52.21108],[22.72133,52.21129]]}},{"type":"Feature","properties":{"numer":"698","klasa":"droga gĹ‚Ăłwna","kat":"wojewodzka"},"geometry":{"type":"LineString","coordinates":[[22.71635,52.21149],[22.71773,52.21095]]}},{"type":"Feature","properties":{"numer":"698","klasa":"droga gĹ‚Ăłwna","kat":"wojewodzka"},"geometry":{"type":"LineString","coordinates":[[22.71773,52.21095],[22.71834,52.21161]]}},{"type":"Feature","properties":{"numer":"698","klasa":"droga gĹ‚Ăłwna","kat":"wojewodzka"},"geometry":{"type":"LineString","coordinates":[[22.72133,52.21129],[22.71887,52.21153]]}},{"type":"Feature","properties":{"numer":"698","klasa":"droga gĹ‚Ăłwna","kat":"wojewodzka"},"geometry":{"type":"LineString","coordinates":[[22.71887,52.21153],[22.71834,52.21161]]}},{"type":"Feature","properties":{"numer":"698","klasa":"droga gĹ‚Ăłwna","kat":"wojewodzka"},"geometry":{"type":"LineString","coordinates":[[22.71635,52.21149],[22.71463,52.21182]]}},{"type":"Feature","properties":{"numer":"698","klasa":"droga gĹ‚Ăłwna","kat":"wojewodzka"},"geometry":{"type":"LineString","coordinates":[[22.71834,52.21161],[22.71699,52.21201],[22.71635,52.21149]]}},{"type":"Feature","properties":{"numer":"698","klasa":"droga gĹ‚Ăłwna","kat":"wojewodzka"},"geometry":{"type":"LineString","coordinates":[[22.67509,52.21213],[22.69336,52.21193],[22.70138,52.2116],[22.70455,52.21161]]}},{"type":"Feature","properties":{"numer":"698","klasa":"droga gĹ‚Ăłwna","kat":"wojewodzka"},"geometry":{"type":"LineString","coordinates":[[22.71463,52.21182],[22.7138,52.212],[22.71184,52.21259]]}},{"type":"Feature","properties":{"numer":"698","klasa":"droga gĹ‚Ăłwna","kat":"wojewodzka"},"geometry":{"type":"LineString","coordinates":[[22.70996,52.21283],[22.70588,52.21181],[22.70455,52.21161]]}},{"type":"Feature","properties":{"numer":"200741W","klasa":"droga zbiorcza","kat":"powiatowa"},"geometry":{"type":"LineString","coordinates":[[22.70614,52.21331],[22.70455,52.21161]]}},{"type":"Feature","properties":{"numer":"698","klasa":"droga gĹ‚Ăłwna","kat":"wojewodzka"},"geometry":{"type":"LineString","coordinates":[[22.71184,52.21259],[22.71158,52.21267]]}},{"type":"Feature","properties":{"numer":"698","klasa":"droga gĹ‚Ăłwna","kat":"wojewodzka"},"geometry":{"type":"LineString","coordinates":[[22.71158,52.21267],[22.71133,52.21275]]}},{"type":"Feature","properties":{"numer":"698","klasa":"droga gĹ‚Ăłwna","kat":"wojewodzka"},"geometry":{"type":"LineString","coordinates":[[22.71133,52.21275],[22.71054,52.21299]]}},{"type":"Feature","properties":{"numer":"698","klasa":"droga gĹ‚Ăłwna","kat":"wojewodzka"},"geometry":{"type":"LineString","coordinates":[[22.71054,52.21299],[22.70996,52.21283]]}},{"type":"Feature","properties":{"numer":"2044W","klasa":"droga zbiorcza","kat":"powiatowa"},"geometry":{"type":"LineString","coordinates":[[22.71054,52.21299],[22.71038,52.21342]]}},{"type":"Feature","properties":{"numer":"200741W","klasa":"droga zbiorcza","kat":"powiatowa"},"geometry":{"type":"LineString","coordinates":[[22.70694,52.21412],[22.70614,52.21331]]}},{"type":"Feature","properties":{"numer":"2044W","klasa":"droga zbiorcza","kat":"powiatowa"},"geometry":{"type":"LineString","coordinates":[[22.71038,52.21342],[22.71009,52.21413],[22.71005,52.21457]]}},{"type":"Feature","properties":{"numer":"200757W","klasa":"droga lokalna","kat":"powiatowa"},"geometry":{"type":"LineString","coordinates":[[22.70694,52.21412],[22.70672,52.21439]]}},{"type":"Feature","properties":{"numer":"200741W","klasa":"droga zbiorcza","kat":"powiatowa"},"geometry":{"type":"LineString","coordinates":[[22.71005,52.21457],[22.70746,52.21425],[22.70694,52.21412]]}},{"type":"Feature","properties":{"numer":"200757W","klasa":"droga lokalna","kat":"powiatowa"},"geometry":{"type":"LineString","coordinates":[[22.70672,52.21439],[22.70628,52.21501]]}},{"type":"Feature","properties":{"numer":"2044W","klasa":"droga zbiorcza","kat":"powiatowa"},"geometry":{"type":"LineString","coordinates":[[22.71005,52.21457],[22.71021,52.21532]]}},{"type":"Feature","properties":{"numer":"200757W","klasa":"droga lokalna","kat":"powiatowa"},"geometry":{"type":"LineString","coordinates":[[22.70628,52.21501],[22.70604,52.21536]]}},{"type":"Feature","properties":{"numer":"200757W","klasa":"droga lokalna","kat":"powiatowa"},"geometry":{"type":"LineString","coordinates":[[22.70604,52.21536],[22.70587,52.21559]]}},{"type":"Feature","properties":{"numer":"200757W","klasa":"droga lokalna","kat":"powiatowa"},"geometry":{"type":"LineString","coordinates":[[22.70587,52.21559],[22.70537,52.21626]]}},{"type":"Feature","properties":{"numer":"200757W","klasa":"droga lokalna","kat":"powiatowa"},"geometry":{"type":"LineString","coordinates":[[22.70537,52.21626],[22.70449,52.21747]]}},{"type":"Feature","properties":{"numer":"200757W","klasa":"droga lokalna","kat":"powiatowa"},"geometry":{"type":"LineString","coordinates":[[22.70449,52.21747],[22.70378,52.21844]]}},{"type":"Feature","properties":{"numer":"200757W","klasa":"droga lokalna","kat":"powiatowa"},"geometry":{"type":"LineString","coordinates":[[22.70378,52.21844],[22.70331,52.21909]]}},{"type":"Feature","properties":{"numer":"200757W","klasa":"droga lokalna","kat":"powiatowa"},"geometry":{"type":"LineString","coordinates":[[22.70331,52.21909],[22.70277,52.21965]]}},{"type":"Feature","properties":{"numer":"2044W","klasa":"droga zbiorcza","kat":"powiatowa"},"geometry":{"type":"LineString","coordinates":[[22.71021,52.21532],[22.71102,52.22154],[22.71001,52.22492]]}},{"type":"Feature","properties":{"numer":"200757W","klasa":"droga lokalna","kat":"powiatowa"},"geometry":{"type":"LineString","coordinates":[[22.70277,52.21965],[22.70086,52.2216],[22.70097,52.22172]]}},{"type":"Feature","properties":{"numer":"200756W","klasa":"droga lokalna","kat":"powiatowa"},"geometry":{"type":"LineString","coordinates":[[22.70314,52.22264],[22.7012,52.22199],[22.70097,52.22172]]}},{"type":"Feature","properties":{"numer":"200756W","klasa":"droga lokalna","kat":"powiatowa"},"geometry":{"type":"LineString","coordinates":[[22.70552,52.22344],[22.70314,52.22264]]}},{"type":"Feature","properties":{"numer":"200756W","klasa":"droga lokalna","kat":"powiatowa"},"geometry":{"type":"LineString","coordinates":[[22.70558,52.22346],[22.70552,52.22344]]}},{"type":"Feature","properties":{"numer":"200756W","klasa":"droga lokalna","kat":"powiatowa"},"geometry":{"type":"LineString","coordinates":[[22.7083,52.22438],[22.70558,52.22346]]}},{"type":"Feature","properties":{"numer":"200756W","klasa":"droga lokalna","kat":"powiatowa"},"geometry":{"type":"LineString","coordinates":[[22.71001,52.22492],[22.7083,52.22438]]}},{"type":"Feature","properties":{"numer":"2044W","klasa":"droga zbiorcza","kat":"powiatowa"},"geometry":{"type":"LineString","coordinates":[[22.71001,52.22492],[22.70751,52.23242],[22.70708,52.23304],[22.70624,52.23385]]}},{"type":"Feature","properties":{"numer":"2025W","klasa":"","kat":"powiatowa"},"geometry":{"type":"LineString","coordinates":[[22.70624,52.23385],[22.69994,52.23304],[22.69784,52.23288],[22.69753,52.23297],[22.69734,52.23358],[22.69707,52.23368],[22.69427,52.23325],[22.68918,52.23271],[22.68835,52.23241],[22.6837,52.2296]]}},{"type":"Feature","properties":{"numer":"2044W","klasa":"droga zbiorcza","kat":"powiatowa"},"geometry":{"type":"LineString","coordinates":[[22.70526,52.23493],[22.70553,52.23453],[22.70624,52.23385]]}},{"type":"Feature","properties":{"numer":"2044W","klasa":"droga zbiorcza","kat":"powiatowa"},"geometry":{"type":"LineString","coordinates":[[22.70513,52.23542],[22.70526,52.23493]]}},{"type":"Feature","properties":{"numer":"3664W","klasa":"","kat":"powiatowa"},"geometry":{"type":"LineString","coordinates":[[22.69123,52.2387],[22.69159,52.23686],[22.69186,52.23622],[22.69245,52.2356],[22.69353,52.23511],[22.69453,52.2349],[22.69529,52.23487],[22.70526,52.23493]]}},{"type":"Feature","properties":{"numer":"3664W","klasa":"","kat":"powiatowa"},"geometry":{"type":"LineString","coordinates":[[22.69123,52.2387],[22.69107,52.2396]]}},{"type":"Feature","properties":{"numer":"19","klasa":"droga gĹ‚Ăłwna ruchu przyĹ›pieszonego","kat":"krajowa"},"geometry":{"type":"LineString","coordinates":[[22.76147,52.23237],[22.74034,52.22332],[22.73949,52.22267],[22.72943,52.21384],[22.72624,52.21081]]}},{"type":"Feature","properties":{"numer":"2026W","klasa":"","kat":"powiatowa"},"geometry":{"type":"LineString","coordinates":[[22.79515,52.22583],[22.79507,52.22575]]}},{"type":"Feature","properties":{"numer":"2026W","klasa":"","kat":"powiatowa"},"geometry":{"type":"LineString","coordinates":[[22.80427,52.23493],[22.80664,52.23385],[22.80656,52.23373],[22.80138,52.22967],[22.79646,52.22711],[22.79515,52.22583]]}},{"type":"Feature","properties":{"numer":"2049W","klasa":"","kat":"powiatowa"},"geometry":{"type":"LineString","coordinates":[[22.76096,52.24357],[22.76081,52.24277],[22.7602,52.24173],[22.75923,52.23908],[22.76147,52.23237]]}},{"type":"Feature","properties":{"numer":"19","klasa":"droga gĹ‚Ăłwna ruchu przyĹ›pieszonego","kat":"krajowa"},"geometry":{"type":"LineString","coordinates":[[22.77956,52.24414],[22.77752,52.2433],[22.7748,52.24161],[22.77439,52.24101],[22.77358,52.2385],[22.77035,52.2362],[22.76972,52.23585],[22.76147,52.23237]]}},{"type":"Feature","properties":{"numer":"2026W","klasa":"","kat":"powiatowa"},"geometry":{"type":"LineString","coordinates":[[22.78207,52.24536],[22.78402,52.24387],[22.78456,52.24329],[22.78773,52.24173],[22.79778,52.23785],[22.80427,52.23493]]}},{"type":"Feature","properties":{"numer":"2049W","klasa":"","kat":"powiatowa"},"geometry":{"type":"LineString","coordinates":[[22.76096,52.24366],[22.76096,52.24357]]}},{"type":"Feature","properties":{"numer":"19","klasa":"droga gĹ‚Ăłwna ruchu przyĹ›pieszonego","kat":"krajowa"},"geometry":{"type":"LineString","coordinates":[[22.77965,52.24418],[22.77956,52.24414]]}},{"type":"Feature","properties":{"numer":"19","klasa":"droga gĹ‚Ăłwna ruchu przyĹ›pieszonego","kat":"krajowa"},"geometry":{"type":"LineString","coordinates":[[22.78207,52.24536],[22.77965,52.24418]]}},{"type":"Feature","properties":{"numer":"2049W","klasa":"","kat":"powiatowa"},"geometry":{"type":"LineString","coordinates":[[22.75951,52.25319],[22.75885,52.2511],[22.76017,52.24743],[22.76029,52.24606],[22.76096,52.24366]]}},{"type":"Feature","properties":{"numer":"19","klasa":"droga gĹ‚Ăłwna ruchu przyĹ›pieszonego","kat":"krajowa"},"geometry":{"type":"LineString","coordinates":[[22.792473846153847,52.25164384615385],[22.79167,52.25084],[22.78942,52.24914],[22.78207,52.24536]]}},{"type":"Feature","properties":{"numer":"2049W","klasa":"","kat":"powiatowa"},"geometry":{"type":"LineString","coordinates":[[22.74234,52.25153],[22.74939,52.2517],[22.75468,52.25313],[22.75526,52.25319],[22.75951,52.25319]]}},{"type":"Feature","properties":{"numer":"2003W","klasa":"","kat":"powiatowa"},"geometry":{"type":"LineString","coordinates":[[22.75951,52.25319],[22.76032,52.25578],[22.7599,52.25622]]}},{"type":"Feature","properties":{"numer":"2003W","klasa":"","kat":"powiatowa"},"geometry":{"type":"LineString","coordinates":[[22.7599,52.25622],[22.75817,52.26305],[22.75805,52.26313],[22.7526,52.26359],[22.74771,52.26309],[22.74746,52.26322],[22.7458,52.27013]]}},{"type":"Feature","properties":{"numer":"2003W","klasa":"","kat":"powiatowa"},"geometry":{"type":"LineString","coordinates":[[22.74533,52.27108],[22.7458,52.27013]]}},{"type":"Feature","properties":{"numer":"2002W","klasa":"","kat":"powiatowa"},"geometry":{"type":"LineString","coordinates":[[22.70513,52.23542],[22.71818,52.23701],[22.71873,52.23721],[22.72296,52.23928],[22.72555,52.23965],[22.7315,52.24088],[22.73245,52.2409],[22.73319,52.24102],[22.73746,52.24209],[22.7384,52.24253],[22.73875,52.24302],[22.73919,52.24322],[22.74349,52.24383],[22.74344,52.24427],[22.74239,52.24743],[22.74234,52.25153]]}},{"type":"Feature","properties":{"numer":"2044W","klasa":"droga zbiorcza","kat":"powiatowa"},"geometry":{"type":"LineString","coordinates":[[22.70021,52.25614],[22.70429,52.23929],[22.70513,52.23542]]}},{"type":"Feature","properties":{"numer":"2049W","klasa":"","kat":"powiatowa"},"geometry":{"type":"LineString","coordinates":[[22.74234,52.25153],[22.73531,52.2524],[22.7158,52.25691],[22.70617,52.25644]]}},{"type":"Feature","properties":{"numer":"2049W","klasa":"","kat":"powiatowa"},"geometry":{"type":"LineString","coordinates":[[22.70617,52.25644],[22.70021,52.25614]]}},{"type":"Feature","properties":{"numer":"2044W","klasa":"droga zbiorcza","kat":"powiatowa"},"geometry":{"type":"LineString","coordinates":[[22.69826,52.26416],[22.70021,52.25614]]}},{"type":"Feature","properties":{"numer":"2044W","klasa":"droga zbiorcza","kat":"powiatowa"},"geometry":{"type":"LineString","coordinates":[[22.69822,52.2643],[22.69826,52.26416]]}},{"type":"Feature","properties":{"numer":"2044W","klasa":"droga zbiorcza","kat":"powiatowa"},"geometry":{"type":"LineString","coordinates":[[22.69822,52.2643],[22.69764,52.2663]]}},{"type":"Feature","properties":{"numer":"2048W","klasa":"","kat":"powiatowa"},"geometry":{"type":"LineString","coordinates":[[22.69764,52.2663],[22.69985,52.2664],[22.70147,52.26686],[22.71779,52.27048],[22.71845,52.2705],[22.71918,52.27039],[22.72185,52.26934],[22.72435,52.27037],[22.7304,52.27235],[22.73882,52.27278]]}},{"type":"Feature","properties":{"numer":"2003W","klasa":"","kat":"powiatowa"},"geometry":{"type":"LineString","coordinates":[[22.74533,52.27108],[22.74515,52.27298],[22.73882,52.27278]]}},{"type":"Feature","properties":{"numer":"2044W","klasa":"droga zbiorcza","kat":"powiatowa"},"geometry":{"type":"LineString","coordinates":[[22.69764,52.2663],[22.69605,52.27287],[22.69596,52.27463],[22.695944579991533,52.274672657911424]]}},{"type":"Feature","properties":{"numer":"2048W","klasa":"","kat":"powiatowa"},"geometry":{"type":"LineString","coordinates":[[22.73882,52.27278],[22.73858,52.27399],[22.7377,52.27594],[22.73768,52.27629],[22.73785,52.27661],[22.73888,52.2774],[22.7394,52.27802],[22.739611865176638,52.279462486309015]]}},{"type":"Feature","properties":{"numer":"3664W","klasa":"droga zbiorcza","kat":"powiatowa"},"geometry":{"type":"LineString","coordinates":[[22.69107,52.2396],[22.691037593651146,52.239736359182196]]}}]}