{"type":"FeatureCollection","features":[{"type":"Feature","properties":{"numer":"2566W","klasa":"droga zbiorcza","kat":"powiatowa"},"geometry":{"type":"LineString","coordinates":[[21.64213212024955,52.92401006901438],[21.64258,52.92414],[21.64293,52.92428],[21.64326,52.92453],[21.64399,52.92532],[21.64546,52.92967],[21.64587,52.92994],[21.64793,52.93077],[21.64806,52.93088]]}},{"type":"Feature","properties":{"numer":"250305W","klasa":"droga zbiorcza","kat":"powiatowa"},"geometry":{"type":"LineString","coordinates":[[21.65776,52.92671],[21.65155,52.92928]]}},{"type":"Feature","properties":{"numer":"250305W","klasa":"droga zbiorcza","kat":"powiatowa"},"geometry":{"type":"LineString","coordinates":[[21.65155,52.92928],[21.64997,52.92997]]}},{"type":"Feature","properties":{"numer":"250305W","klasa":"droga zbiorcza","kat":"powiatowa"},"geometry":{"type":"LineString","coordinates":[[21.64997,52.92997],[21.64911,52.93035]]}},{"type":"Feature","properties":{"numer":"250305W","klasa":"droga zbiorcza","kat":"powiatowa"},"geometry":{"type":"LineString","coordinates":[[21.64911,52.93035],[21.6486,52.93058]]}},{"type":"Feature","properties":{"numer":"250305W","klasa":"droga zbiorcza","kat":"powiatowa"},"geometry":{"type":"LineString","coordinates":[[21.6486,52.93058],[21.64806,52.93088]]}},{"type":"Feature","properties":{"numer":"2568W","klasa":"droga zbiorcza","kat":"powiatowa"},"geometry":{"type":"LineString","coordinates":[[21.6271968027729,52.95288786994193],[21.63334,52.95729],[21.63352,52.95746],[21.63257,52.95994],[21.63251,52.96065],[21.63262,52.96094],[21.63276,52.96096],[21.63408,52.96076]]}},{"type":"Feature","properties":{"numer":"2566W","klasa":"droga zbiorcza","kat":"powiatowa"},"geometry":{"type":"LineString","coordinates":[[21.64806,52.93088],[21.64878,52.93348],[21.64967,52.93429],[21.65036,52.93646]]}},{"type":"Feature","properties":{"numer":"2568W","klasa":"droga zbiorcza","kat":"powiatowa"},"geometry":{"type":"LineString","coordinates":[[21.63408,52.96076],[21.63419,52.96073]]}},{"type":"Feature","properties":{"numer":"2568W","klasa":"droga zbiorcza","kat":"powiatowa"},"geometry":{"type":"LineString","coordinates":[[21.63419,52.96073],[21.63478,52.96073],[21.64359,52.96179],[21.64663,52.96246],[21.64826,52.96339],[21.65381,52.96623],[21.65446,52.96976],[21.65347,52.97562],[21.6529,52.97645],[21.65279,52.97687],[21.65272,52.97883],[21.65296,52.98124],[21.6521,52.98484],[21.65169,52.98595]]}},{"type":"Feature","properties":{"numer":"250301W","klasa":"droga zbiorcza","kat":"powiatowa"},"geometry":{"type":"LineString","coordinates":[[21.64677,52.98382],[21.64646,52.98342],[21.64596,52.98318],[21.64296,52.98262],[21.64192,52.98277]]}},{"type":"Feature","properties":{"numer":"250301W","klasa":"droga zbiorcza","kat":"powiatowa"},"geometry":{"type":"LineString","coordinates":[[21.65085,52.98549],[21.65063,52.98539],[21.64917,52.98513],[21.64818,52.98483],[21.64749,52.98448],[21.64677,52.98382]]}},{"type":"Feature","properties":{"numer":"250301W","klasa":"droga zbiorcza","kat":"powiatowa"},"geometry":{"type":"LineString","coordinates":[[21.65169,52.98595],[21.65085,52.98549]]}},{"type":"Feature","properties":{"numer":"2568W","klasa":"droga zbiorcza","kat":"powiatowa"},"geometry":{"type":"LineString","coordinates":[[21.65169,52.98595],[21.65287,52.98651],[21.6555,52.98715]]}},{"type":"Feature","properties":{"numer":"2568W","klasa":"droga zbiorcza","kat":"powiatowa"},"geometry":{"type":"LineString","coordinates":[[21.6555,52.98715],[21.65177,52.99733],[21.647330259554767,53.003579451289625]]}},{"type":"Feature","properties":{"numer":"677","klasa":"droga gĹ‚Ăłwna","kat":"wojewodzka"},"geometry":{"type":"LineString","coordinates":[[21.87517,52.91295],[21.87198173979112,52.90438155068863]]}},{"type":"Feature","properties":{"numer":"E67,S61","klasa":"droga ekspresowa","kat":"krajowa"},"geometry":{"type":"LineString","coordinates":[[21.872760294585987,52.904244765923565],[21.87277,52.90427]]}},{"type":"Feature","properties":{"numer":"S61","klasa":"droga ekspresowa","kat":"krajowa"},"geometry":{"type":"LineString","coordinates":[[21.87277,52.90427],[21.87417,52.90778],[21.8753,52.90981],[21.87655,52.91144],[21.87728,52.91223],[21.87892,52.91372],[21.88003,52.91458]]}},{"type":"Feature","properties":{"numer":"2564W","klasa":"droga zbiorcza","kat":"powiatowa"},"geometry":{"type":"LineString","coordinates":[[21.87517,52.91295],[21.87612,52.91292],[21.8768,52.91312],[21.87724,52.91341],[21.87784,52.91414],[21.87837,52.91444],[21.87902,52.91458],[21.88003,52.91458]]}},{"type":"Feature","properties":{"numer":"2564W","klasa":"droga zbiorcza","kat":"powiatowa"},"geometry":{"type":"LineString","coordinates":[[21.88003,52.91458],[21.88037,52.91458]]}},{"type":"Feature","properties":{"numer":"S61","klasa":"droga ekspresowa","kat":"krajowa"},"geometry":{"type":"LineString","coordinates":[[21.88003,52.91458],[21.88018,52.91469]]}},{"type":"Feature","properties":{"numer":"2631W","klasa":"droga zbiorcza","kat":"powiatowa"},"geometry":{"type":"LineString","coordinates":[[21.880372441476958,52.91458010500976],[21.88037,52.91458]]}},{"type":"Feature","properties":{"numer":"2564W","klasa":"droga zbiorcza","kat":"powiatowa"},"geometry":{"type":"LineString","coordinates":[[21.82461,52.92621],[21.82517,52.92593],[21.83076,52.92409],[21.83883,52.92192],[21.84161,52.92103],[21.84249,52.92061],[21.8434,52.91975],[21.84404,52.91933],[21.85033,52.91614],[21.85201,52.91537],[21.85765,52.9153],[21.86577,52.91432],[21.87174,52.91227],[21.87517,52.91295]]}},{"type":"Feature","properties":{"numer":"E67,S61","klasa":"droga ekspresowa","kat":"krajowa"},"geometry":{"type":"LineString","coordinates":[[21.880183433090917,52.914692492369944],[21.88018,52.91469]]}},{"type":"Feature","properties":{"numer":"677","klasa":"droga gĹ‚Ăłwna","kat":"wojewodzka"},"geometry":{"type":"LineString","coordinates":[[21.876287201203453,52.91593117880815],[21.87517,52.91295]]}},{"type":"Feature","properties":{"numer":"250339W","klasa":"droga zbiorcza","kat":"powiatowa"},"geometry":{"type":"LineString","coordinates":[[21.78121,52.91007],[21.7799,52.90997]]}},{"type":"Feature","properties":{"numer":"627","klasa":"droga gĹ‚Ăłwna","kat":"wojewodzka"},"geometry":{"type":"LineString","coordinates":[[21.78832,52.91057],[21.79468586995475,52.90306007984844]]}},{"type":"Feature","properties":{"numer":"250339W","klasa":"droga zbiorcza","kat":"powiatowa"},"geometry":{"type":"LineString","coordinates":[[21.78832,52.91057],[21.78536,52.91057],[21.78121,52.91007]]}},{"type":"Feature","properties":{"numer":"250310W","klasa":"droga zbiorcza","kat":"powiatowa"},"geometry":{"type":"LineString","coordinates":[[21.79124,52.9104],[21.78832,52.91057]]}},{"type":"Feature","properties":{"numer":"250310W","klasa":"droga zbiorcza","kat":"powiatowa"},"geometry":{"type":"LineString","coordinates":[[21.79606,52.91083],[21.79124,52.9104]]}},{"type":"Feature","properties":{"numer":"250310W","klasa":"droga zbiorcza","kat":"powiatowa"},"geometry":{"type":"LineString","coordinates":[[21.82381,52.92289],[21.82387,52.91844]]}},{"type":"Feature","properties":{"numer":"250310W","klasa":"droga zbiorcza","kat":"powiatowa"},"geometry":{"type":"LineString","coordinates":[[21.82461,52.92621],[21.82371,52.92461],[21.82381,52.92289]]}},{"type":"Feature","properties":{"numer":"2564W","klasa":"droga zbiorcza","kat":"powiatowa"},"geometry":{"type":"LineString","coordinates":[[21.7938,52.93454],[21.79725,52.93504],[21.79776,52.93504],[21.79974,52.93446],[21.80394,52.93389],[21.81088,52.93353],[21.81334,52.93309],[21.81728,52.93267],[21.82472,52.93106],[21.82753,52.93016],[21.82522,52.92733],[21.82461,52.92621]]}},{"type":"Feature","properties":{"numer":"250343W","klasa":"droga zbiorcza","kat":"powiatowa"},"geometry":{"type":"LineString","coordinates":[[21.7861,52.93414],[21.7872,52.93374]]}},{"type":"Feature","properties":{"numer":"2564W","klasa":"droga zbiorcza","kat":"powiatowa"},"geometry":{"type":"LineString","coordinates":[[21.7872,52.93374],[21.7938,52.93454]]}},{"type":"Feature","properties":{"numer":"250339W","klasa":"droga zbiorcza","kat":"powiatowa"},"geometry":{"type":"LineString","coordinates":[[21.7799,52.90997],[21.77897,52.91049],[21.77735,52.91088]]}},{"type":"Feature","properties":{"numer":"250339W","klasa":"droga zbiorcza","kat":"powiatowa"},"geometry":{"type":"LineString","coordinates":[[21.77735,52.91088],[21.7746,52.91155],[21.7726,52.91215]]}},{"type":"Feature","properties":{"numer":"250339W","klasa":"droga zbiorcza","kat":"powiatowa"},"geometry":{"type":"LineString","coordinates":[[21.7726,52.91215],[21.77225,52.91221]]}},{"type":"Feature","properties":{"numer":"250339W","klasa":"droga zbiorcza","kat":"powiatowa"},"geometry":{"type":"LineString","coordinates":[[21.77225,52.91221],[21.76944,52.91265],[21.76435,52.91324]]}},{"type":"Feature","properties":{"numer":"250339W","klasa":"droga zbiorcza","kat":"powiatowa"},"geometry":{"type":"LineString","coordinates":[[21.76435,52.91324],[21.76227,52.91349]]}},{"type":"Feature","properties":{"numer":"250339W","klasa":"droga zbiorcza","kat":"powiatowa"},"geometry":{"type":"LineString","coordinates":[[21.76227,52.91349],[21.74787,52.91528],[21.74701,52.9153]]}},{"type":"Feature","properties":{"numer":"250309W","klasa":"droga zbiorcza","kat":"powiatowa"},"geometry":{"type":"LineString","coordinates":[[21.74701,52.9153],[21.74368,52.91514],[21.74269,52.91518],[21.74166,52.91537],[21.74033,52.91573],[21.73876,52.91593]]}},{"type":"Feature","properties":{"numer":"250309W","klasa":"droga zbiorcza","kat":"powiatowa"},"geometry":{"type":"LineString","coordinates":[[21.7398,52.91861],[21.73876,52.91593]]}},{"type":"Feature","properties":{"numer":"250309W","klasa":"droga zbiorcza","kat":"powiatowa"},"geometry":{"type":"LineString","coordinates":[[21.74061,52.92008],[21.74004,52.91926],[21.7398,52.91861]]}},{"type":"Feature","properties":{"numer":"627","klasa":"droga gĹ‚Ăłwna","kat":"wojewodzka"},"geometry":{"type":"LineString","coordinates":[[21.771,52.92971],[21.78715,52.91388],[21.78734,52.91362],[21.78832,52.91057]]}},{"type":"Feature","properties":{"numer":"4401W","klasa":"droga zbiorcza","kat":"powiatowa"},"geometry":{"type":"LineString","coordinates":[[21.70646,52.92437],[21.70597,52.92246],[21.70519,52.92034],[21.70469,52.9192],[21.70359,52.9172],[21.70296,52.91554],[21.70253,52.91489],[21.70151,52.91394],[21.69717,52.91073],[21.693880963484382,52.90745052463704]]}},{"type":"Feature","properties":{"numer":"250305W","klasa":"droga zbiorcza","kat":"powiatowa"},"geometry":{"type":"LineString","coordinates":[[21.70151,52.92566],[21.704,52.92508],[21.70646,52.92437]]}},{"type":"Feature","properties":{"numer":"250307W","klasa":"droga zbiorcza","kat":"powiatowa"},"geometry":{"type":"LineString","coordinates":[[21.70646,52.92437],[21.70722,52.9265],[21.70754,52.927]]}},{"type":"Feature","properties":{"numer":"250307W","klasa":"droga zbiorcza","kat":"powiatowa"},"geometry":{"type":"LineString","coordinates":[[21.70754,52.927],[21.70889,52.92841],[21.7098,52.93024]]}},{"type":"Feature","properties":{"numer":"250307W","klasa":"droga zbiorcza","kat":"powiatowa"},"geometry":{"type":"LineString","coordinates":[[21.71363,52.93739],[21.71408,52.93818]]}},{"type":"Feature","properties":{"numer":"2565W","klasa":"droga zbiorcza","kat":"powiatowa"},"geometry":{"type":"LineString","coordinates":[[21.65036,52.93646],[21.682,52.93787],[21.69536,52.9383],[21.6972,52.9386],[21.71512,52.94014]]}},{"type":"Feature","properties":{"numer":"250307W","klasa":"droga zbiorcza","kat":"powiatowa"},"geometry":{"type":"LineString","coordinates":[[21.71408,52.93818],[21.71512,52.94014]]}},{"type":"Feature","properties":{"numer":"2566W","klasa":"droga zbiorcza","kat":"powiatowa"},"geometry":{"type":"LineString","coordinates":[[21.65036,52.93646],[21.65141,52.94047],[21.65412,52.94553],[21.65472,52.94712],[21.65494,52.9474],[21.6671,52.95508],[21.67099,52.9557],[21.67251,52.95608],[21.673,52.95634],[21.67327,52.95658],[21.67357,52.95749],[21.67679,52.95872],[21.67741,52.95879],[21.68338,52.95869],[21.68717,52.95817],[21.69002,52.95829],[21.69877,52.9581],[21.70895,52.96067],[21.718,52.9618],[21.71861,52.96168],[21.72162,52.96069],[21.72334,52.95999],[21.72959,52.95835],[21.7305,52.95963],[21.73143,52.96044]]}},{"type":"Feature","properties":{"numer":"2566W","klasa":"droga zbiorcza","kat":"powiatowa"},"geometry":{"type":"LineString","coordinates":[[21.73143,52.96044],[21.73162,52.96059]]}},{"type":"Feature","properties":{"numer":"250340W","klasa":"droga zbiorcza","kat":"powiatowa"},"geometry":{"type":"LineString","coordinates":[[21.84769,52.95728],[21.85143,52.95498]]}},{"type":"Feature","properties":{"numer":"250340W","klasa":"droga zbiorcza","kat":"powiatowa"},"geometry":{"type":"LineString","coordinates":[[21.84754,52.95737],[21.84769,52.95728]]}},{"type":"Feature","properties":{"numer":"250340W","klasa":"droga zbiorcza","kat":"powiatowa"},"geometry":{"type":"LineString","coordinates":[[21.84599,52.95928],[21.84523,52.95885],[21.84516,52.95868],[21.84754,52.95737]]}},{"type":"Feature","properties":{"numer":"250312W","klasa":"droga zbiorcza","kat":"powiatowa"},"geometry":{"type":"LineString","coordinates":[[21.84918,52.96094],[21.84657,52.95952],[21.84599,52.95928]]}},{"type":"Feature","properties":{"numer":"677","klasa":"droga gĹ‚Ăłwna","kat":"wojewodzka"},"geometry":{"type":"LineString","coordinates":[[21.89499362666219,52.96585093104458],[21.90158,52.98343],[21.90241,52.98464],[21.90378,52.98579]]}},{"type":"Feature","properties":{"numer":"E67,S61","klasa":"droga ekspresowa","kat":"krajowa"},"geometry":{"type":"LineString","coordinates":[[21.897,52.96442],[21.896982558243728,52.96438473566308]]}},{"type":"Feature","properties":{"numer":"S61","klasa":"droga ekspresowa","kat":"krajowa"},"geometry":{"type":"LineString","coordinates":[[21.89697,52.96444],[21.90097,52.97261],[21.90225,52.97552]]}},{"type":"Feature","properties":{"numer":"250312W","klasa":"droga zbiorcza","kat":"powiatowa"},"geometry":{"type":"LineString","coordinates":[[21.87125,52.97445],[21.87111,52.97023],[21.87084,52.96895]]}},{"type":"Feature","properties":{"numer":"250342W","klasa":"droga zbiorcza","kat":"powiatowa"},"geometry":{"type":"LineString","coordinates":[[21.87125,52.97445],[21.87237,52.9745]]}},{"type":"Feature","properties":{"numer":"250313W","klasa":"droga zbiorcza","kat":"powiatowa"},"geometry":{"type":"LineString","coordinates":[[21.86685,52.97499],[21.86739,52.97471],[21.86876,52.97442],[21.87125,52.97445]]}},{"type":"Feature","properties":{"numer":"S61","klasa":"droga ekspresowa","kat":"krajowa"},"geometry":{"type":"LineString","coordinates":[[21.90239,52.9759],[21.90225,52.97552]]}},{"type":"Feature","properties":{"numer":"250313W","klasa":"droga zbiorcza","kat":"powiatowa"},"geometry":{"type":"LineString","coordinates":[[21.86451,52.97696],[21.86604,52.97593],[21.86685,52.97499]]}},{"type":"Feature","properties":{"numer":"250342W","klasa":"droga zbiorcza","kat":"powiatowa"},"geometry":{"type":"LineString","coordinates":[[21.87237,52.9745],[21.87241,52.97526],[21.87216,52.97598],[21.87219,52.97622],[21.87519,52.9785]]}},{"type":"Feature","properties":{"numer":"S61","klasa":"droga ekspresowa","kat":"krajowa"},"geometry":{"type":"LineString","coordinates":[[21.90541,52.98563],[21.90239,52.9759]]}},{"type":"Feature","properties":{"numer":"2559W","klasa":"droga zbiorcza","kat":"powiatowa"},"geometry":{"type":"LineString","coordinates":[[21.90753,52.98637],[21.90837,52.98575],[21.909,52.98545],[21.91154,52.98505],[21.91244,52.98436]]}},{"type":"Feature","properties":{"numer":"677","klasa":"droga gĹ‚Ăłwna","kat":"wojewodzka"},"geometry":{"type":"LineString","coordinates":[[21.90378,52.98579],[21.90405,52.98598]]}},{"type":"Feature","properties":{"numer":"S61","klasa":"droga ekspresowa","kat":"krajowa"},"geometry":{"type":"LineString","coordinates":[[21.90566,52.98641],[21.90541,52.98563]]}},{"type":"Feature","properties":{"numer":"677","klasa":"droga gĹ‚Ăłwna","kat":"wojewodzka"},"geometry":{"type":"LineString","coordinates":[[21.90405,52.98598],[21.90426,52.98613]]}},{"type":"Feature","properties":{"numer":"677","klasa":"droga gĹ‚Ăłwna","kat":"wojewodzka"},"geometry":{"type":"LineString","coordinates":[[21.90426,52.98613],[21.90458,52.98618]]}},{"type":"Feature","properties":{"numer":"2559W","klasa":"droga zbiorcza","kat":"powiatowa"},"geometry":{"type":"LineString","coordinates":[[21.90395,52.9862],[21.90426,52.98613]]}},{"type":"Feature","properties":{"numer":"2559W","klasa":"droga zbiorcza","kat":"powiatowa"},"geometry":{"type":"LineString","coordinates":[[21.90354,52.98628],[21.90395,52.9862]]}},{"type":"Feature","properties":{"numer":"677","klasa":"droga gĹ‚Ăłwna","kat":"wojewodzka"},"geometry":{"type":"LineString","coordinates":[[21.90458,52.98618],[21.90566,52.98641]]}},{"type":"Feature","properties":{"numer":"2559W","klasa":"droga zbiorcza","kat":"powiatowa"},"geometry":{"type":"LineString","coordinates":[[21.90726,52.98659],[21.90753,52.98637]]}},{"type":"Feature","properties":{"numer":"677","klasa":"droga gĹ‚Ăłwna","kat":"wojewodzka"},"geometry":{"type":"LineString","coordinates":[[21.90566,52.98641],[21.90678,52.98665]]}},{"type":"Feature","properties":{"numer":"2559W","klasa":"droga zbiorcza","kat":"powiatowa"},"geometry":{"type":"LineString","coordinates":[[21.90706,52.98673],[21.90726,52.98659]]}},{"type":"Feature","properties":{"numer":"677","klasa":"droga gĹ‚Ăłwna","kat":"wojewodzka"},"geometry":{"type":"LineString","coordinates":[[21.90678,52.98665],[21.90706,52.98673]]}},{"type":"Feature","properties":{"numer":"S61","klasa":"droga ekspresowa","kat":"krajowa"},"geometry":{"type":"LineString","coordinates":[[21.90589,52.98716],[21.90566,52.98641]]}},{"type":"Feature","properties":{"numer":"677","klasa":"droga gĹ‚Ăłwna","kat":"wojewodzka"},"geometry":{"type":"LineString","coordinates":[[21.90706,52.98673],[21.90727,52.98686]]}},{"type":"Feature","properties":{"numer":"677","klasa":"droga gĹ‚Ăłwna","kat":"wojewodzka"},"geometry":{"type":"LineString","coordinates":[[21.90727,52.98686],[21.90749,52.98708]]}},{"type":"Feature","properties":{"numer":"2559W","klasa":"droga zbiorcza","kat":"powiatowa"},"geometry":{"type":"LineString","coordinates":[[21.86131,52.9935],[21.86529,52.9924],[21.86748,52.99159],[21.87092,52.9906],[21.87703,52.98915],[21.8804,52.98818],[21.89049,52.98622],[21.89105,52.98617],[21.89303,52.9864],[21.89682,52.98652],[21.90044,52.98677],[21.9017,52.98666],[21.90354,52.98628]]}},{"type":"Feature","properties":{"numer":"S61","klasa":"droga ekspresowa","kat":"krajowa"},"geometry":{"type":"LineString","coordinates":[[21.90818,52.99363],[21.90694,52.99064],[21.90589,52.98716]]}},{"type":"Feature","properties":{"numer":"2559W","klasa":"droga zbiorcza","kat":"powiatowa"},"geometry":{"type":"LineString","coordinates":[[21.91244,52.98436],[21.94448,52.97357],[21.94882,52.97296],[21.95053,52.97294]]}},{"type":"Feature","properties":{"numer":"250316W","klasa":"droga zbiorcza","kat":"powiatowa"},"geometry":{"type":"LineString","coordinates":[[21.91236,52.9828],[21.91226,52.98315],[21.91244,52.98436]]}},{"type":"Feature","properties":{"numer":"677","klasa":"droga gĹ‚Ăłwna","kat":"wojewodzka"},"geometry":{"type":"LineString","coordinates":[[21.90749,52.98708],[21.90903,52.98839],[21.91609,52.99252]]}},{"type":"Feature","properties":{"numer":"677","klasa":"droga gĹ‚Ăłwna","kat":"wojewodzka"},"geometry":{"type":"LineString","coordinates":[[21.91615678414097,52.992553392070484],[21.91609,52.99252]]}},{"type":"Feature","properties":{"numer":"S61","klasa":"droga ekspresowa","kat":"krajowa"},"geometry":{"type":"LineString","coordinates":[[21.90872,52.99472],[21.908754303724926,52.994777799426934]]}},{"type":"Feature","properties":{"numer":"250315W","klasa":"droga zbiorcza","kat":"powiatowa"},"geometry":{"type":"LineString","coordinates":[[21.86383,52.98912],[21.86097,52.99189]]}},{"type":"Feature","properties":{"numer":"2563W","klasa":"droga zbiorcza","kat":"powiatowa"},"geometry":{"type":"LineString","coordinates":[[21.86097,52.99189],[21.86131,52.9935]]}},{"type":"Feature","properties":{"numer":"2559W","klasa":"droga zbiorcza","kat":"powiatowa"},"geometry":{"type":"LineString","coordinates":[[21.85995,52.99384],[21.86131,52.9935]]}},{"type":"Feature","properties":{"numer":"2559W","klasa":"droga zbiorcza","kat":"powiatowa"},"geometry":{"type":"LineString","coordinates":[[21.85312,52.99436],[21.85995,52.99384]]}},{"type":"Feature","properties":{"numer":"S61","klasa":"droga ekspresowa","kat":"krajowa"},"geometry":{"type":"LineString","coordinates":[[21.90872,52.99472],[21.90818,52.99363]]}},{"type":"Feature","properties":{"numer":"2560W","klasa":"droga zbiorcza","kat":"powiatowa"},"geometry":{"type":"LineString","coordinates":[[21.85383235292376,53.00092925367709],[21.85727,52.995],[21.85913,52.99437],[21.85995,52.99384]]}},{"type":"Feature","properties":{"numer":"250309W","klasa":"droga zbiorcza","kat":"powiatowa"},"geometry":{"type":"LineString","coordinates":[[21.74123,52.92098],[21.74061,52.92008]]}},{"type":"Feature","properties":{"numer":"250309W","klasa":"droga zbiorcza","kat":"powiatowa"},"geometry":{"type":"LineString","coordinates":[[21.74223,52.92389],[21.74232,52.92317],[21.74123,52.92098]]}},{"type":"Feature","properties":{"numer":"250309W","klasa":"droga zbiorcza","kat":"powiatowa"},"geometry":{"type":"LineString","coordinates":[[21.74044,52.92424],[21.74223,52.92389]]}},{"type":"Feature","properties":{"numer":"2564W","klasa":"droga zbiorcza","kat":"powiatowa"},"geometry":{"type":"LineString","coordinates":[[21.771,52.92971],[21.7775,52.93192],[21.7872,52.93374]]}},{"type":"Feature","properties":{"numer":"4401W","klasa":"droga zbiorcza","kat":"powiatowa"},"geometry":{"type":"LineString","coordinates":[[21.76017,52.94255],[21.75851,52.94228],[21.75768,52.94186],[21.75559,52.94003],[21.75428,52.93848],[21.75244,52.9366],[21.7495,52.93462],[21.74858,52.93359],[21.74766,52.93308],[21.74675,52.93234],[21.74641,52.93218],[21.74342,52.93146],[21.74314,52.93131],[21.73966,52.92682],[21.7394,52.92646],[21.73896,52.92539],[21.7375,52.92468],[21.73579,52.92494],[21.73492,52.92497],[21.7295,52.92459],[21.72772,52.92411],[21.72666,52.92401],[21.72514,52.92441],[21.72355,52.92455],[21.72178,52.92503],[21.72122,52.9251],[21.72032,52.92491],[21.71943,52.92422],[21.71889,52.92409],[21.7156,52.92412],[21.71274,52.92405],[21.71106,52.92394],[21.70907,52.92397],[21.70778,52.92409],[21.70646,52.92437]]}},{"type":"Feature","properties":{"numer":"627","klasa":"droga gĹ‚Ăłwna","kat":"wojewodzka"},"geometry":{"type":"LineString","coordinates":[[21.76017,52.94255],[21.76063,52.94046],[21.76101,52.93938],[21.771,52.92971]]}},{"type":"Feature","properties":{"numer":"250343W","klasa":"droga zbiorcza","kat":"powiatowa"},"geometry":{"type":"LineString","coordinates":[[21.77021,52.94455],[21.77164,52.94367],[21.77315,52.94297],[21.77605,52.94077]]}},{"type":"Feature","properties":{"numer":"2565W","klasa":"droga zbiorcza","kat":"powiatowa"},"geometry":{"type":"LineString","coordinates":[[21.71512,52.94014],[21.71942,52.94273],[21.72222,52.94595],[21.72583,52.94718],[21.72675,52.94731],[21.74057,52.94723],[21.74273,52.9474],[21.74392,52.94759],[21.74571,52.94806],[21.75047,52.94968]]}},{"type":"Feature","properties":{"numer":"250343W","klasa":"droga zbiorcza","kat":"powiatowa"},"geometry":{"type":"LineString","coordinates":[[21.77021,52.94455],[21.76864,52.94537]]}},{"type":"Feature","properties":{"numer":"250343W","klasa":"droga zbiorcza","kat":"powiatowa"},"geometry":{"type":"LineString","coordinates":[[21.76864,52.94537],[21.76794,52.94548]]}},{"type":"Feature","properties":{"numer":"250343W","klasa":"droga zbiorcza","kat":"powiatowa"},"geometry":{"type":"LineString","coordinates":[[21.76794,52.94548],[21.76781,52.94551]]}},{"type":"Feature","properties":{"numer":"250343W","klasa":"droga zbiorcza","kat":"powiatowa"},"geometry":{"type":"LineString","coordinates":[[21.76781,52.94551],[21.76698,52.94597]]}},{"type":"Feature","properties":{"numer":"627","klasa":"droga gĹ‚Ăłwna","kat":"wojewodzka"},"geometry":{"type":"LineString","coordinates":[[21.7587,52.94896],[21.76017,52.94255]]}},{"type":"Feature","properties":{"numer":"250343W","klasa":"droga zbiorcza","kat":"powiatowa"},"geometry":{"type":"LineString","coordinates":[[21.76698,52.94597],[21.76658,52.94619],[21.76598,52.94635]]}},{"type":"Feature","properties":{"numer":"250343W","klasa":"droga zbiorcza","kat":"powiatowa"},"geometry":{"type":"LineString","coordinates":[[21.76598,52.94635],[21.76305,52.94799]]}},{"type":"Feature","properties":{"numer":"250343W","klasa":"droga zbiorcza","kat":"powiatowa"},"geometry":{"type":"LineString","coordinates":[[21.76305,52.94799],[21.76199,52.94861]]}},{"type":"Feature","properties":{"numer":"250343W","klasa":"droga zbiorcza","kat":"powiatowa"},"geometry":{"type":"LineString","coordinates":[[21.76199,52.94861],[21.76128,52.94884],[21.7587,52.94896]]}},{"type":"Feature","properties":{"numer":"627","klasa":"droga gĹ‚Ăłwna","kat":"wojewodzka"},"geometry":{"type":"LineString","coordinates":[[21.75841,52.95056],[21.7587,52.94896]]}},{"type":"Feature","properties":{"numer":"250327W","klasa":"droga zbiorcza","kat":"powiatowa"},"geometry":{"type":"LineString","coordinates":[[21.74765,52.95056],[21.75047,52.94968]]}},{"type":"Feature","properties":{"numer":"2565W","klasa":"droga zbiorcza","kat":"powiatowa"},"geometry":{"type":"LineString","coordinates":[[21.75047,52.94968],[21.75264,52.9505],[21.75585,52.9507],[21.75841,52.95056]]}},{"type":"Feature","properties":{"numer":"250311W","klasa":"droga zbiorcza","kat":"powiatowa"},"geometry":{"type":"LineString","coordinates":[[21.7938,52.93454],[21.79397,52.93593],[21.79491,52.93664]]}},{"type":"Feature","properties":{"numer":"250343W","klasa":"droga zbiorcza","kat":"powiatowa"},"geometry":{"type":"LineString","coordinates":[[21.78131,52.93721],[21.78511,52.93485],[21.7861,52.93414]]}},{"type":"Feature","properties":{"numer":"250314W","klasa":"droga zbiorcza","kat":"powiatowa"},"geometry":{"type":"LineString","coordinates":[[21.84754,52.95737],[21.84632,52.95667],[21.84271,52.95527],[21.8406,52.95459],[21.83787,52.95308]]}},{"type":"Feature","properties":{"numer":"2563W","klasa":"droga zbiorcza","kat":"powiatowa"},"geometry":{"type":"LineString","coordinates":[[21.76578,52.9547],[21.76714,52.95481],[21.76843,52.95465],[21.77304,52.95377],[21.77658,52.95275],[21.78237,52.95156],[21.78359,52.9514],[21.78455,52.95142],[21.81029,52.96278]]}},{"type":"Feature","properties":{"numer":"250312W","klasa":"droga zbiorcza","kat":"powiatowa"},"geometry":{"type":"LineString","coordinates":[[21.84298,52.96172],[21.8445,52.96012],[21.84599,52.95928]]}},{"type":"Feature","properties":{"numer":"250312W","klasa":"droga zbiorcza","kat":"powiatowa"},"geometry":{"type":"LineString","coordinates":[[21.83985,52.96591],[21.84288,52.96184]]}},{"type":"Feature","properties":{"numer":"250319W","klasa":"droga zbiorcza","kat":"powiatowa"},"geometry":{"type":"LineString","coordinates":[[21.81134,52.96653],[21.8108,52.96544],[21.81029,52.96278]]}},{"type":"Feature","properties":{"numer":"250311W","klasa":"droga zbiorcza","kat":"powiatowa"},"geometry":{"type":"LineString","coordinates":[[21.83985,52.96591],[21.83818,52.96546]]}},{"type":"Feature","properties":{"numer":"250311W","klasa":"droga zbiorcza","kat":"powiatowa"},"geometry":{"type":"LineString","coordinates":[[21.84161,52.96623],[21.83985,52.96591]]}},{"type":"Feature","properties":{"numer":"2563W","klasa":"droga zbiorcza","kat":"powiatowa"},"geometry":{"type":"LineString","coordinates":[[21.81029,52.96278],[21.82202,52.96796],[21.824,52.96872],[21.82438,52.96894],[21.82509,52.96967]]}},{"type":"Feature","properties":{"numer":"250327W","klasa":"droga zbiorcza","kat":"powiatowa"},"geometry":{"type":"LineString","coordinates":[[21.74633,52.95097],[21.74765,52.95056]]}},{"type":"Feature","properties":{"numer":"627","klasa":"droga gĹ‚Ăłwna","kat":"wojewodzka"},"geometry":{"type":"LineString","coordinates":[[21.75841,52.95056],[21.75855,52.95171]]}},{"type":"Feature","properties":{"numer":"627","klasa":"droga gĹ‚Ăłwna","kat":"wojewodzka"},"geometry":{"type":"LineString","coordinates":[[21.75855,52.95171],[21.75856,52.95189]]}},{"type":"Feature","properties":{"numer":"627","klasa":"droga gĹ‚Ăłwna","kat":"wojewodzka"},"geometry":{"type":"LineString","coordinates":[[21.75856,52.95189],[21.7587,52.95375]]}},{"type":"Feature","properties":{"numer":"627","klasa":"droga gĹ‚Ăłwna","kat":"wojewodzka"},"geometry":{"type":"LineString","coordinates":[[21.7587,52.95375],[21.75854,52.95406]]}},{"type":"Feature","properties":{"numer":"627","klasa":"droga gĹ‚Ăłwna","kat":"wojewodzka"},"geometry":{"type":"LineString","coordinates":[[21.75849,52.95417],[21.75854,52.95406]]}},{"type":"Feature","properties":{"numer":"2563W","klasa":"droga zbiorcza","kat":"powiatowa"},"geometry":{"type":"LineString","coordinates":[[21.75849,52.95417],[21.75868,52.95417]]}},{"type":"Feature","properties":{"numer":"2563W","klasa":"droga zbiorcza","kat":"powiatowa"},"geometry":{"type":"LineString","coordinates":[[21.75868,52.95417],[21.75907,52.95418]]}},{"type":"Feature","properties":{"numer":"627","klasa":"droga gĹ‚Ăłwna","kat":"wojewodzka"},"geometry":{"type":"LineString","coordinates":[[21.75836,52.95426],[21.75849,52.95417]]}},{"type":"Feature","properties":{"numer":"627","klasa":"droga gĹ‚Ăłwna","kat":"wojewodzka"},"geometry":{"type":"LineString","coordinates":[[21.75788,52.95443],[21.75836,52.95426]]}},{"type":"Feature","properties":{"numer":"2563W","klasa":"droga zbiorcza","kat":"powiatowa"},"geometry":{"type":"LineString","coordinates":[[21.75907,52.95418],[21.76578,52.9547]]}},{"type":"Feature","properties":{"numer":"250318W","klasa":"droga zbiorcza","kat":"powiatowa"},"geometry":{"type":"LineString","coordinates":[[21.76578,52.9547],[21.76594,52.96035]]}},{"type":"Feature","properties":{"numer":"627","klasa":"droga gĹ‚Ăłwna","kat":"wojewodzka"},"geometry":{"type":"LineString","coordinates":[[21.73472,52.96247],[21.74517,52.96042],[21.75391,52.95554],[21.75475,52.95524],[21.75788,52.95443]]}},{"type":"Feature","properties":{"numer":"2566W","klasa":"droga zbiorcza","kat":"powiatowa"},"geometry":{"type":"LineString","coordinates":[[21.73162,52.96059],[21.7337,52.9623]]}},{"type":"Feature","properties":{"numer":"2566W","klasa":"droga zbiorcza","kat":"powiatowa"},"geometry":{"type":"LineString","coordinates":[[21.7337,52.9623],[21.73402,52.96255]]}},{"type":"Feature","properties":{"numer":"627","klasa":"droga gĹ‚Ăłwna","kat":"wojewodzka"},"geometry":{"type":"LineString","coordinates":[[21.73429,52.96259],[21.73472,52.96247]]}},{"type":"Feature","properties":{"numer":"2566W","klasa":"droga zbiorcza","kat":"powiatowa"},"geometry":{"type":"LineString","coordinates":[[21.73402,52.96255],[21.73413,52.96263]]}},{"type":"Feature","properties":{"numer":"627","klasa":"droga gĹ‚Ăłwna","kat":"wojewodzka"},"geometry":{"type":"LineString","coordinates":[[21.73413,52.96263],[21.73429,52.96259]]}},{"type":"Feature","properties":{"numer":"2562W","klasa":"droga zbiorcza","kat":"powiatowa"},"geometry":{"type":"LineString","coordinates":[[21.73413,52.96263],[21.73424,52.96271]]}},{"type":"Feature","properties":{"numer":"627","klasa":"droga gĹ‚Ăłwna","kat":"wojewodzka"},"geometry":{"type":"LineString","coordinates":[[21.73403,52.96272],[21.73413,52.96263]]}},{"type":"Feature","properties":{"numer":"250345W","klasa":"droga zbiorcza","kat":"powiatowa"},"geometry":{"type":"LineString","coordinates":[[21.71979,52.96928],[21.73154,52.96673]]}},{"type":"Feature","properties":{"numer":"250345W","klasa":"droga zbiorcza","kat":"powiatowa"},"geometry":{"type":"LineString","coordinates":[[21.71848,52.96956],[21.71979,52.96928]]}},{"type":"Feature","properties":{"numer":"250345W","klasa":"droga zbiorcza","kat":"powiatowa"},"geometry":{"type":"LineString","coordinates":[[21.71759,52.96976],[21.71848,52.96956]]}},{"type":"Feature","properties":{"numer":"250345W","klasa":"droga zbiorcza","kat":"powiatowa"},"geometry":{"type":"LineString","coordinates":[[21.688,52.97277],[21.68978,52.97237],[21.69048,52.9723],[21.69105,52.97232],[21.69189,52.97259]]}},{"type":"Feature","properties":{"numer":"250345W","klasa":"droga zbiorcza","kat":"powiatowa"},"geometry":{"type":"LineString","coordinates":[[21.69189,52.97259],[21.69648,52.97425]]}},{"type":"Feature","properties":{"numer":"250345W","klasa":"droga zbiorcza","kat":"powiatowa"},"geometry":{"type":"LineString","coordinates":[[21.69848,52.97416],[21.70418,52.97289]]}},{"type":"Feature","properties":{"numer":"250345W","klasa":"droga zbiorcza","kat":"powiatowa"},"geometry":{"type":"LineString","coordinates":[[21.69749,52.9739],[21.69848,52.97416]]}},{"type":"Feature","properties":{"numer":"250345W","klasa":"droga zbiorcza","kat":"powiatowa"},"geometry":{"type":"LineString","coordinates":[[21.69648,52.97425],[21.69695,52.97414],[21.69749,52.9739]]}},{"type":"Feature","properties":{"numer":"250344W","klasa":"droga zbiorcza","kat":"powiatowa"},"geometry":{"type":"LineString","coordinates":[[21.69848,52.97416],[21.69818,52.97456]]}},{"type":"Feature","properties":{"numer":"250344W","klasa":"droga zbiorcza","kat":"powiatowa"},"geometry":{"type":"LineString","coordinates":[[21.69818,52.97456],[21.69708,52.97562],[21.69682,52.97605],[21.70169,52.97781],[21.701850988446726,52.97977974099525]]}},{"type":"Feature","properties":{"numer":"2562W","klasa":"droga zbiorcza","kat":"powiatowa"},"geometry":{"type":"LineString","coordinates":[[21.73424,52.96271],[21.73456,52.96294]]}},{"type":"Feature","properties":{"numer":"627","klasa":"droga gĹ‚Ăłwna","kat":"wojewodzka"},"geometry":{"type":"LineString","coordinates":[[21.73379,52.96298],[21.73403,52.96272]]}},{"type":"Feature","properties":{"numer":"627","klasa":"droga gĹ‚Ăłwna","kat":"wojewodzka"},"geometry":{"type":"LineString","coordinates":[[21.73154,52.96673],[21.73379,52.96298]]}},{"type":"Feature","properties":{"numer":"2562W","klasa":"droga zbiorcza","kat":"powiatowa"},"geometry":{"type":"LineString","coordinates":[[21.745032147349196,52.99458546029394],[21.74404,52.99304],[21.74387,52.99259],[21.74408,52.99201],[21.74595,52.99025],[21.74827,52.98709],[21.74873,52.98578],[21.74841,52.98486],[21.74832,52.98398],[21.74873,52.97976],[21.74869,52.97829],[21.74825,52.97431],[21.74829,52.97382],[21.74846,52.97349],[21.74797,52.97285],[21.74752,52.97263],[21.73456,52.96294]]}},{"type":"Feature","properties":{"numer":"250345W","klasa":"droga zbiorcza","kat":"powiatowa"},"geometry":{"type":"LineString","coordinates":[[21.66577,52.97863],[21.66494,52.97888],[21.66371,52.98029],[21.6634,52.98099],[21.66298,52.98286]]}},{"type":"Feature","properties":{"numer":"250345W","klasa":"droga zbiorcza","kat":"powiatowa"},"geometry":{"type":"LineString","coordinates":[[21.66298,52.98286],[21.66252,52.98334]]}},{"type":"Feature","properties":{"numer":"250345W","klasa":"droga zbiorcza","kat":"powiatowa"},"geometry":{"type":"LineString","coordinates":[[21.66252,52.98334],[21.66167,52.98409]]}},{"type":"Feature","properties":{"numer":"250345W","klasa":"droga zbiorcza","kat":"powiatowa"},"geometry":{"type":"LineString","coordinates":[[21.66167,52.98409],[21.6613,52.9841],[21.6595,52.9839]]}},{"type":"Feature","properties":{"numer":"250345W","klasa":"droga zbiorcza","kat":"powiatowa"},"geometry":{"type":"LineString","coordinates":[[21.6595,52.9839],[21.65863,52.98386],[21.65815,52.98398],[21.65776,52.98418],[21.6555,52.98715]]}},{"type":"Feature","properties":{"numer":"627","klasa":"droga gĹ‚Ăłwna","kat":"wojewodzka"},"geometry":{"type":"LineString","coordinates":[[21.721397050680523,52.98600762771347],[21.7278,52.97308],[21.73154,52.96673]]}},{"type":"Feature","properties":{"numer":"250319W","klasa":"droga zbiorcza","kat":"powiatowa"},"geometry":{"type":"LineString","coordinates":[[21.81057,52.96686],[21.81134,52.96653]]}},{"type":"Feature","properties":{"numer":"250322W","klasa":"droga zbiorcza","kat":"powiatowa"},"geometry":{"type":"LineString","coordinates":[[21.83818,52.96546],[21.83244,52.96677],[21.82803,52.96858]]}},{"type":"Feature","properties":{"numer":"250319W","klasa":"droga zbiorcza","kat":"powiatowa"},"geometry":{"type":"LineString","coordinates":[[21.8116,52.97094],[21.81092,52.96738],[21.81057,52.96686]]}},{"type":"Feature","properties":{"numer":"250322W","klasa":"droga zbiorcza","kat":"powiatowa"},"geometry":{"type":"LineString","coordinates":[[21.82803,52.96858],[21.82509,52.96967]]}},{"type":"Feature","properties":{"numer":"250311W","klasa":"droga zbiorcza","kat":"powiatowa"},"geometry":{"type":"LineString","coordinates":[[21.84161,52.96623],[21.84257,52.96909],[21.84409,52.9717],[21.84461,52.9738]]}},{"type":"Feature","properties":{"numer":"2563W","klasa":"droga zbiorcza","kat":"powiatowa"},"geometry":{"type":"LineString","coordinates":[[21.82509,52.96967],[21.82705,52.97146],[21.8301,52.97289],[21.83415,52.97458],[21.83615,52.97531],[21.83845,52.97594],[21.8412,52.97694],[21.84492,52.97782],[21.84602,52.97815],[21.84647,52.97833],[21.84849,52.97951],[21.84931,52.98007],[21.85062,52.98141],[21.85271,52.98261],[21.85717,52.98698],[21.86076,52.99055],[21.86097,52.99189]]}},{"type":"Feature","properties":{"numer":"2559W","klasa":"droga zbiorcza","kat":"powiatowa"},"geometry":{"type":"LineString","coordinates":[[21.85312,52.99436],[21.84572266164447,52.99494363030752]]}},{"type":"Feature","properties":{"numer":"2561W","klasa":"droga zbiorcza","kat":"powiatowa"},"geometry":{"type":"LineString","coordinates":[[21.85312,52.99436],[21.85018160382506,52.99823469868492]]}}]}