{"type":"FeatureCollection","features":[{"type":"Feature","properties":{"numer":"4403W","klasa":"droga zbiorcza","kat":"powiatowa"},"geometry":{"type":"LineString","coordinates":[[21.59761501427145,52.984230749698554],[21.59703,52.98601],[21.59642,52.98684],[21.58856,52.9959],[21.58819,52.99655],[21.58828,52.99719],[21.58963,53.00068],[21.58971,53.0013],[21.58911,53.01886],[21.58924,53.01958],[21.59003,53.02179],[21.59033,53.02593],[21.58945,53.0279],[21.58937,53.02857],[21.59039,53.03171],[21.5913,53.03386]]}},{"type":"Feature","properties":{"numer":"2568W","klasa":"droga zbiorcza","kat":"powiatowa"},"geometry":{"type":"LineString","coordinates":[[21.631969311545816,53.010407801793114],[21.63188,53.01045],[21.63012,53.01121],[21.62956,53.01162],[21.62719,53.01407],[21.62681,53.01467],[21.62627,53.01628],[21.62535,53.0169]]}},{"type":"Feature","properties":{"numer":"2568W","klasa":"droga zbiorcza","kat":"powiatowa"},"geometry":{"type":"LineString","coordinates":[[21.62535,53.0169],[21.62401,53.01768]]}},{"type":"Feature","properties":{"numer":"2590W","klasa":"droga zbiorcza","kat":"powiatowa"},"geometry":{"type":"LineString","coordinates":[[21.62535,53.0169],[21.62626,53.0176],[21.62668,53.01774],[21.63071,53.02029],[21.63517,53.02251]]}},{"type":"Feature","properties":{"numer":"2581W","klasa":"droga zbiorcza","kat":"powiatowa"},"geometry":{"type":"LineString","coordinates":[[21.5942,53.03578],[21.59491,53.03516],[21.59576,53.03396],[21.59731,53.03281],[21.59763,53.03263],[21.59838,53.0324],[21.60011,53.031],[21.61129,53.02339],[21.61687,53.02148],[21.62083,53.01946],[21.62175,53.01858],[21.62231,53.01862],[21.62401,53.01768]]}},{"type":"Feature","properties":{"numer":"2569W","klasa":"droga zbiorcza","kat":"powiatowa"},"geometry":{"type":"LineString","coordinates":[[21.525655784399998,52.9853019924],[21.52527,52.99006],[21.52535,52.99085],[21.52951,53.00496],[21.53007,53.00562],[21.53745,53.01275],[21.53796,53.0133],[21.53809,53.01359],[21.53788,53.01426],[21.53606,53.01633],[21.53582,53.01674],[21.53527,53.01861],[21.53524,53.02032],[21.53671,53.02297],[21.53873,53.02627],[21.54137,53.02959],[21.54251,53.03144],[21.54265,53.0338],[21.54283,53.03463],[21.54277,53.03589],[21.54302,53.03982],[21.54414,53.04427],[21.54587,53.04947]]}},{"type":"Feature","properties":{"numer":"2588W","klasa":"droga zbiorcza","kat":"powiatowa"},"geometry":{"type":"LineString","coordinates":[[21.54751,53.04923],[21.57723,53.04404],[21.58407,53.04159],[21.59271,53.03711]]}},{"type":"Feature","properties":{"numer":"2569W","klasa":"droga zbiorcza","kat":"powiatowa"},"geometry":{"type":"LineString","coordinates":[[21.54587,53.04947],[21.54751,53.04923]]}},{"type":"Feature","properties":{"numer":"","klasa":"droga zbiorcza","kat":"powiatowa"},"geometry":{"type":"LineString","coordinates":[[21.54587,53.04947],[21.54595,53.05079],[21.54626,53.052],[21.54521,53.05629],[21.54528,53.05984],[21.54628,53.06339],[21.5467,53.06418],[21.54757,53.06535]]}},{"type":"Feature","properties":{"numer":"2569W","klasa":"droga zbiorcza","kat":"powiatowa"},"geometry":{"type":"LineString","coordinates":[[21.54751,53.04923],[21.54871,53.04991],[21.55192,53.05197],[21.55283,53.05265],[21.56313,53.06183],[21.56313593940202,53.06183558802518]]}},{"type":"Feature","properties":{"numer":"2590W","klasa":"droga zbiorcza","kat":"powiatowa"},"geometry":{"type":"LineString","coordinates":[[21.63517,53.02251],[21.64285,53.02634],[21.6438,53.02987],[21.64705,53.03236]]}},{"type":"Feature","properties":{"numer":"2568W","klasa":"droga zbiorcza","kat":"powiatowa"},"geometry":{"type":"LineString","coordinates":[[21.62401,53.01768],[21.62459,53.01807],[21.62689,53.02013],[21.62784,53.02355],[21.62877,53.02778],[21.62689,53.03368],[21.62429,53.04115],[21.62264,53.04543],[21.62217,53.04644],[21.62056,53.04759]]}},{"type":"Feature","properties":{"numer":"2550W","klasa":"droga zbiorcza","kat":"powiatowa"},"geometry":{"type":"LineString","coordinates":[[21.5942,53.03578],[21.5916,53.03392],[21.5913,53.03386]]}},{"type":"Feature","properties":{"numer":"4403W","klasa":"droga zbiorcza","kat":"powiatowa"},"geometry":{"type":"LineString","coordinates":[[21.5913,53.03386],[21.59271,53.03711]]}},{"type":"Feature","properties":{"numer":"2550W","klasa":"droga zbiorcza","kat":"powiatowa"},"geometry":{"type":"LineString","coordinates":[[21.62056,53.04759],[21.61623,53.04578],[21.61555,53.04457],[21.6149,53.04392],[21.60779,53.03806],[21.60703,53.03783],[21.60069,53.03723],[21.59995,53.03704],[21.59604,53.03651],[21.59464,53.03613],[21.5942,53.03578]]}},{"type":"Feature","properties":{"numer":"627","klasa":"droga gĹ‚Ăłwna","kat":"wojewodzka"},"geometry":{"type":"LineString","coordinates":[[21.66505,53.04221],[21.662,53.04314],[21.65797,53.04425],[21.65143,53.04463],[21.64971,53.04509],[21.64629,53.04694],[21.63849,53.0521]]}},{"type":"Feature","properties":{"numer":"4403W","klasa":"droga zbiorcza","kat":"powiatowa"},"geometry":{"type":"LineString","coordinates":[[21.59271,53.03711],[21.59391,53.03989],[21.59389,53.04074],[21.59117,53.04687],[21.59075,53.04744],[21.58998,53.04815],[21.58961,53.04869],[21.588973289257044,53.04999530845365]]}},{"type":"Feature","properties":{"numer":"5115W","klasa":"droga zbiorcza","kat":"powiatowa"},"geometry":{"type":"LineString","coordinates":[[21.59721103085971,53.0474314260226],[21.59721,53.04743]]}},{"type":"Feature","properties":{"numer":"2550W","klasa":"droga zbiorcza","kat":"powiatowa"},"geometry":{"type":"LineString","coordinates":[[21.63849,53.0521],[21.62744,53.05007],[21.62701,53.05004],[21.62544,53.04926],[21.62303,53.04861],[21.62056,53.04759]]}},{"type":"Feature","properties":{"numer":"2551W","klasa":"droga zbiorcza","kat":"powiatowa"},"geometry":{"type":"LineString","coordinates":[[21.64498,53.05331],[21.63849,53.0521]]}},{"type":"Feature","properties":{"numer":"2551W","klasa":"droga zbiorcza","kat":"powiatowa"},"geometry":{"type":"LineString","coordinates":[[21.64498,53.05331],[21.64506,53.05333]]}},{"type":"Feature","properties":{"numer":"2551W","klasa":"droga zbiorcza","kat":"powiatowa"},"geometry":{"type":"LineString","coordinates":[[21.65365,53.05714],[21.65338,53.05673],[21.6529,53.05636],[21.65058,53.05553],[21.64993,53.05513],[21.64736,53.05404],[21.64506,53.05333]]}},{"type":"Feature","properties":{"numer":"627","klasa":"droga gĹ‚Ăłwna","kat":"wojewodzka"},"geometry":{"type":"LineString","coordinates":[[21.63849,53.0521],[21.631631551049523,53.05656523444067]]}},{"type":"Feature","properties":{"numer":"2551W","klasa":"droga zbiorcza","kat":"powiatowa"},"geometry":{"type":"LineString","coordinates":[[21.65368,53.05719],[21.65365,53.05714]]}},{"type":"Feature","properties":{"numer":"5117W","klasa":"droga zbiorcza","kat":"powiatowa"},"geometry":{"type":"LineString","coordinates":[[21.620019649851635,53.06347353115727],[21.62003,53.06348]]}},{"type":"Feature","properties":{"numer":"2584W","klasa":"droga zbiorcza","kat":"powiatowa"},"geometry":{"type":"LineString","coordinates":[[21.63978,53.06615],[21.64819,53.06447],[21.65255,53.06368],[21.65314,53.0635],[21.65627,53.0622],[21.66217,53.06091],[21.66256,53.06071]]}},{"type":"Feature","properties":{"numer":"2584W","klasa":"droga zbiorcza","kat":"powiatowa"},"geometry":{"type":"LineString","coordinates":[[21.63968,53.06617],[21.63978,53.06615]]}},{"type":"Feature","properties":{"numer":"","klasa":"droga wewnÄ™trzna","kat":"gminna"},"geometry":{"type":"LineString","coordinates":[[21.610080131304084,53.068530071620415],[21.61019,53.06859]]}},{"type":"Feature","properties":{"numer":"2584W","klasa":"droga zbiorcza","kat":"powiatowa"},"geometry":{"type":"LineString","coordinates":[[21.61701,53.07195],[21.63381,53.06747],[21.63968,53.06617]]}},{"type":"Feature","properties":{"numer":"","klasa":"droga wewnÄ™trzna","kat":"gminna"},"geometry":{"type":"LineString","coordinates":[[21.61019,53.06859],[21.61263,53.06981]]}},{"type":"Feature","properties":{"numer":"","klasa":"droga wewnÄ™trzna","kat":"gminna"},"geometry":{"type":"LineString","coordinates":[[21.61263,53.06981],[21.61701,53.07195]]}},{"type":"Feature","properties":{"numer":"2584W","klasa":"droga zbiorcza","kat":"powiatowa"},"geometry":{"type":"LineString","coordinates":[[21.60792471605011,53.07431922275418],[21.61701,53.07195]]}},{"type":"Feature","properties":{"numer":"2590W","klasa":"droga zbiorcza","kat":"powiatowa"},"geometry":{"type":"LineString","coordinates":[[21.66505,53.04221],[21.66464,53.03468],[21.66442,53.03404],[21.66196,53.03434],[21.66142,53.03434],[21.66092,53.03422],[21.65984,53.03372],[21.65911,53.03294],[21.64705,53.03236]]}},{"type":"Feature","properties":{"numer":"627","klasa":"droga gĹ‚Ăłwna","kat":"wojewodzka"},"geometry":{"type":"LineString","coordinates":[[21.66807210626992,53.04126290116897],[21.66505,53.04221]]}},{"type":"Feature","properties":{"numer":"2584W","klasa":"droga zbiorcza","kat":"powiatowa"},"geometry":{"type":"LineString","coordinates":[[21.66766,53.04946],[21.66778,53.04907],[21.66746,53.04661],[21.6675,53.04558],[21.66767,53.04429],[21.6681859271953,53.04244657474039]]}},{"type":"Feature","properties":{"numer":"2584W","klasa":"droga zbiorcza","kat":"powiatowa"},"geometry":{"type":"LineString","coordinates":[[21.66761,53.04955],[21.66766,53.04946]]}},{"type":"Feature","properties":{"numer":"2554W","klasa":"droga zbiorcza","kat":"powiatowa"},"geometry":{"type":"LineString","coordinates":[[21.70566,53.07463],[21.70566,53.07453],[21.71031,53.07292],[21.71124,53.07249],[21.7156,53.06849],[21.71583,53.06809],[21.71606,53.06704],[21.716965665809212,53.065941954198635]]}},{"type":"Feature","properties":{"numer":"2584W","klasa":"droga zbiorcza","kat":"powiatowa"},"geometry":{"type":"LineString","coordinates":[[21.66766,53.05809],[21.66813,53.05751],[21.66741,53.05009],[21.66761,53.04955]]}},{"type":"Feature","properties":{"numer":"2584W","klasa":"droga zbiorcza","kat":"powiatowa"},"geometry":{"type":"LineString","coordinates":[[21.66763,53.05818],[21.66766,53.05809]]}},{"type":"Feature","properties":{"numer":"2551W","klasa":"droga zbiorcza","kat":"powiatowa"},"geometry":{"type":"LineString","coordinates":[[21.66256,53.06071],[21.66197,53.06057],[21.65434,53.05773],[21.65393,53.0575],[21.65368,53.05719]]}},{"type":"Feature","properties":{"numer":"2584W","klasa":"droga zbiorcza","kat":"powiatowa"},"geometry":{"type":"LineString","coordinates":[[21.66531,53.0601],[21.66572,53.05981],[21.66724,53.05927],[21.66742,53.05906],[21.66763,53.05818]]}},{"type":"Feature","properties":{"numer":"2584W","klasa":"droga zbiorcza","kat":"powiatowa"},"geometry":{"type":"LineString","coordinates":[[21.66513,53.06033],[21.66531,53.0601]]}},{"type":"Feature","properties":{"numer":"2551W,2584W","klasa":"droga zbiorcza","kat":"powiatowa"},"geometry":{"type":"LineString","coordinates":[[21.66513,53.06033],[21.66472,53.06032],[21.66296,53.0607],[21.66256,53.06071]]}},{"type":"Feature","properties":{"numer":"2551W","klasa":"droga zbiorcza","kat":"powiatowa"},"geometry":{"type":"LineString","coordinates":[[21.67271,53.06932],[21.67178,53.06796],[21.67051,53.06641],[21.66543,53.0605],[21.66513,53.06033]]}},{"type":"Feature","properties":{"numer":"2582W","klasa":"droga zbiorcza","kat":"powiatowa"},"geometry":{"type":"LineString","coordinates":[[21.67243,53.0695],[21.67271,53.06932]]}},{"type":"Feature","properties":{"numer":"2551W","klasa":"droga zbiorcza","kat":"powiatowa"},"geometry":{"type":"LineString","coordinates":[[21.70566,53.07463],[21.68549,53.07496],[21.68469,53.07491],[21.67511,53.07299],[21.67476,53.07266],[21.67271,53.06932]]}},{"type":"Feature","properties":{"numer":"2551W","klasa":"droga zbiorcza","kat":"powiatowa"},"geometry":{"type":"LineString","coordinates":[[21.71104,53.07899],[21.71004,53.07761],[21.7097,53.07728],[21.70598,53.07474],[21.70566,53.07463]]}},{"type":"Feature","properties":{"numer":"2582W","klasa":"droga zbiorcza","kat":"powiatowa"},"geometry":{"type":"LineString","coordinates":[[21.66983,53.08853],[21.66845,53.08856],[21.66819,53.08847],[21.66761,53.08809],[21.66695,53.08749],[21.66626,53.08716],[21.66611,53.08685],[21.66681,53.08446],[21.66694,53.08431],[21.66768,53.08391],[21.66795,53.08339],[21.67243,53.0695]]}},{"type":"Feature","properties":{"numer":"2551W","klasa":"droga zbiorcza","kat":"powiatowa"},"geometry":{"type":"LineString","coordinates":[[21.76469,53.10299],[21.75482,53.09771],[21.74465,53.09643],[21.74171,53.09443],[21.733,53.09093],[21.73225,53.09084],[21.72721,53.09068],[21.7253,53.09025],[21.72379,53.09008],[21.72349,53.08999],[21.72259,53.08936],[21.72157,53.0889],[21.71998,53.08861],[21.71859,53.08814],[21.71761,53.0874],[21.71627,53.08593],[21.71104,53.07899]]}},{"type":"Feature","properties":{"numer":"2553W","klasa":"droga zbiorcza","kat":"powiatowa"},"geometry":{"type":"LineString","coordinates":[[21.76469,53.10299],[21.7650362504389,53.10295381230567]]}},{"type":"Feature","properties":{"numer":"2552W","klasa":"droga zbiorcza","kat":"powiatowa"},"geometry":{"type":"LineString","coordinates":[[21.69361,53.09583],[21.696,53.09603],[21.69742,53.09627],[21.69799,53.09621],[21.70141,53.09132],[21.71104,53.07899]]}},{"type":"Feature","properties":{"numer":"2552W","klasa":"droga zbiorcza","kat":"powiatowa"},"geometry":{"type":"LineString","coordinates":[[21.66983,53.08853],[21.67549,53.08866],[21.68619,53.09478],[21.6915,53.09611],[21.69179,53.09612],[21.69361,53.09583]]}},{"type":"Feature","properties":{"numer":"2591W","klasa":"droga zbiorcza","kat":"powiatowa"},"geometry":{"type":"LineString","coordinates":[[21.69361,53.09583],[21.69273,53.09757]]}},{"type":"Feature","properties":{"numer":"2591W","klasa":"droga zbiorcza","kat":"powiatowa"},"geometry":{"type":"LineString","coordinates":[[21.69273,53.09757],[21.6927,53.09765]]}},{"type":"Feature","properties":{"numer":"2552W","klasa":"droga zbiorcza","kat":"powiatowa"},"geometry":{"type":"LineString","coordinates":[[21.64719,53.11014],[21.66363,53.09581],[21.66676,53.092],[21.66912,53.08969],[21.66983,53.08853]]}},{"type":"Feature","properties":{"numer":"2591W","klasa":"droga zbiorcza","kat":"powiatowa"},"geometry":{"type":"LineString","coordinates":[[21.6927,53.09765],[21.69226,53.09925],[21.69249,53.09963],[21.69314,53.09993],[21.6954,53.10028],[21.69718,53.10102],[21.68748,53.10896],[21.68648,53.10992],[21.67727,53.11686],[21.67577,53.11812],[21.67531,53.11862]]}},{"type":"Feature","properties":{"numer":"","klasa":"droga gĹ‚Ăłwna ruchu przyĹ›pieszonego","kat":"gminna"},"geometry":{"type":"LineString","coordinates":[[21.64719,53.11014],[21.67531,53.11862]]}},{"type":"Feature","properties":{"numer":"","klasa":"droga gĹ‚Ăłwna ruchu przyĹ›pieszonego","kat":"gminna"},"geometry":{"type":"LineString","coordinates":[[21.67531,53.11862],[21.67881,53.11968]]}},{"type":"Feature","properties":{"numer":"61","klasa":"droga gĹ‚Ăłwna ruchu przyĹ›pieszonego","kat":"krajowa"},"geometry":{"type":"LineString","coordinates":[[21.67881,53.11968],[21.67885,53.11969]]}},{"type":"Feature","properties":{"numer":"251028W","klasa":"","kat":"powiatowa"},"geometry":{"type":"LineString","coordinates":[[21.67881,53.11968],[21.67865,53.11988]]}},{"type":"Feature","properties":{"numer":"","klasa":"droga gĹ‚Ăłwna ruchu przyĹ›pieszonego","kat":"gminna"},"geometry":{"type":"LineString","coordinates":[[21.67885,53.11969],[21.707697704995223,53.12837822650444]]}},{"type":"Feature","properties":{"numer":"","klasa":"droga gĹ‚Ăłwna ruchu przyĹ›pieszonego","kat":"gminna"},"geometry":{"type":"LineString","coordinates":[[21.631503237449653,53.10540106934863],[21.64087,53.10822]]}},{"type":"Feature","properties":{"numer":"","klasa":"","kat":"gminna"},"geometry":{"type":"LineString","coordinates":[[21.640783090158294,53.10806169993118],[21.64087,53.10822]]}},{"type":"Feature","properties":{"numer":"","klasa":"droga gĹ‚Ăłwna ruchu przyĹ›pieszonego","kat":"gminna"},"geometry":{"type":"LineString","coordinates":[[21.64087,53.10822],[21.64719,53.11014]]}}]}