{"type":"FeatureCollection","features":[{"type":"Feature","properties":{"numer":"540","klasa":"droga zbiorcza","kat":"wojewodzka"},"geometry":{"type":"LineString","coordinates":[[19.69757,52.65976],[19.72023,52.66146]]}},{"type":"Feature","properties":{"numer":"540","klasa":"droga zbiorcza","kat":"wojewodzka"},"geometry":{"type":"LineString","coordinates":[[19.72023,52.66146],[19.725731100033123,52.661894618644425]]}},{"type":"Feature","properties":{"numer":"3704W","klasa":"droga zbiorcza","kat":"powiatowa"},"geometry":{"type":"LineString","coordinates":[[19.69757,52.65976],[19.69544,52.66335],[19.688352506699793,52.67813197595106]]}},{"type":"Feature","properties":{"numer":"562","klasa":"droga zbiorcza","kat":"wojewodzka"},"geometry":{"type":"LineString","coordinates":[[19.55006829230174,52.575845239606004],[19.55256,52.57499],[19.56292,52.57238],[19.56733,52.57089],[19.56964,52.57049],[19.5713,52.5704],[19.57263,52.57044],[19.58561,52.57159],[19.58887,52.57208],[19.59004,52.57215],[19.61211,52.57072],[19.61309,52.5706],[19.6146,52.57024],[19.62003,52.56858],[19.63547508413455,52.56277080417625]]}},{"type":"Feature","properties":{"numer":"559","klasa":"droga gĹ‚Ăłwna","kat":"wojewodzka"},"geometry":{"type":"LineString","coordinates":[[19.61153,52.60224],[19.61611,52.59392],[19.61627,52.59336],[19.61686,52.58888],[19.61762,52.58712],[19.61829,52.58618],[19.61928,52.5855],[19.64526,52.57113]]}},{"type":"Feature","properties":{"numer":"291311W","klasa":"droga lokalna","kat":"powiatowa"},"geometry":{"type":"LineString","coordinates":[[19.57696,52.59637],[19.57789,52.59611]]}},{"type":"Feature","properties":{"numer":"291311W","klasa":"droga lokalna","kat":"powiatowa"},"geometry":{"type":"LineString","coordinates":[[19.57612,52.5966],[19.57696,52.59637]]}},{"type":"Feature","properties":{"numer":"291311W","klasa":"droga lokalna","kat":"powiatowa"},"geometry":{"type":"LineString","coordinates":[[19.5754,52.59679],[19.57612,52.5966]]}},{"type":"Feature","properties":{"numer":"2907W","klasa":"droga zbiorcza","kat":"powiatowa"},"geometry":{"type":"LineString","coordinates":[[19.57789,52.59611],[19.58075,52.59775],[19.58498,52.60162],[19.58648,52.60274],[19.58765,52.6032],[19.58943,52.60359],[19.59139,52.60367],[19.59651,52.60342],[19.6038,52.6028],[19.60725,52.60261],[19.61019,52.60215],[19.61081,52.60212],[19.61153,52.60224]]}},{"type":"Feature","properties":{"numer":"559","klasa":"droga gĹ‚Ăłwna","kat":"wojewodzka"},"geometry":{"type":"LineString","coordinates":[[19.60954,52.60581],[19.61153,52.60224]]}},{"type":"Feature","properties":{"numer":"291311W","klasa":"droga lokalna","kat":"powiatowa"},"geometry":{"type":"LineString","coordinates":[[19.57354,52.5974],[19.5754,52.59679]]}},{"type":"Feature","properties":{"numer":"291311W","klasa":"droga lokalna","kat":"powiatowa"},"geometry":{"type":"LineString","coordinates":[[19.56918,52.5998],[19.57254,52.59829],[19.57354,52.5974]]}},{"type":"Feature","properties":{"numer":"291311W","klasa":"droga lokalna","kat":"powiatowa"},"geometry":{"type":"LineString","coordinates":[[19.56858,52.60008],[19.56918,52.5998]]}},{"type":"Feature","properties":{"numer":"291311W","klasa":"droga lokalna","kat":"powiatowa"},"geometry":{"type":"LineString","coordinates":[[19.56477,52.60242],[19.56582,52.60184],[19.56858,52.60008]]}},{"type":"Feature","properties":{"numer":"291311W","klasa":"droga lokalna","kat":"powiatowa"},"geometry":{"type":"LineString","coordinates":[[19.56407,52.60275],[19.56477,52.60242]]}},{"type":"Feature","properties":{"numer":"291311W","klasa":"droga lokalna","kat":"powiatowa"},"geometry":{"type":"LineString","coordinates":[[19.56232,52.6037],[19.56407,52.60275]]}},{"type":"Feature","properties":{"numer":"291311W","klasa":"droga lokalna","kat":"powiatowa"},"geometry":{"type":"LineString","coordinates":[[19.56232,52.6037],[19.56069,52.60464]]}},{"type":"Feature","properties":{"numer":"6905W","klasa":"droga zbiorcza","kat":"powiatowa"},"geometry":{"type":"LineString","coordinates":[[19.646846091737356,52.57160302858939],[19.6468,52.5715]]}},{"type":"Feature","properties":{"numer":"6905W","klasa":"droga zbiorcza","kat":"powiatowa"},"geometry":{"type":"LineString","coordinates":[[19.65246,52.60703],[19.65086695996088,52.59697724622764]]}},{"type":"Feature","properties":{"numer":"2908W","klasa":"","kat":"powiatowa"},"geometry":{"type":"LineString","coordinates":[[19.60954,52.60581],[19.61192,52.60554],[19.61569,52.60559],[19.61859,52.60536],[19.62144,52.60489],[19.62211,52.60467],[19.62315,52.60416],[19.62365,52.60404],[19.62727,52.60402],[19.62918,52.60383],[19.64013,52.60546],[19.65246,52.60703]]}},{"type":"Feature","properties":{"numer":"2908W","klasa":"","kat":"powiatowa"},"geometry":{"type":"LineString","coordinates":[[19.65246,52.60703],[19.65785,52.6077],[19.65946,52.60775],[19.67757,52.60642]]}},{"type":"Feature","properties":{"numer":"2918W","klasa":"droga zbiorcza","kat":"powiatowa"},"geometry":{"type":"LineString","coordinates":[[19.67904,52.62514],[19.67915,52.62502],[19.67934,52.62497],[19.68056,52.62503],[19.68209,52.62489],[19.68238,52.62376],[19.68155,52.62189],[19.68161,52.61763],[19.68093,52.61709],[19.67746,52.61494],[19.67719,52.61461],[19.67718,52.61063],[19.67684,52.60885],[19.67761,52.60689],[19.67757,52.60642]]}},{"type":"Feature","properties":{"numer":"559","klasa":"droga gĹ‚Ăłwna","kat":"wojewodzka"},"geometry":{"type":"LineString","coordinates":[[19.60483,52.60972],[19.60529,52.60915],[19.60568,52.60889],[19.60755,52.60835],[19.60822,52.60798],[19.6086,52.6075],[19.60954,52.60581]]}},{"type":"Feature","properties":{"numer":"559","klasa":"droga gĹ‚Ăłwna","kat":"wojewodzka"},"geometry":{"type":"LineString","coordinates":[[19.60475,52.60985],[19.60483,52.60972]]}},{"type":"Feature","properties":{"numer":"559","klasa":"droga gĹ‚Ăłwna","kat":"wojewodzka"},"geometry":{"type":"LineString","coordinates":[[19.60346,52.61214],[19.60389,52.61117],[19.60475,52.60985]]}},{"type":"Feature","properties":{"numer":"555","klasa":"droga zbiorcza","kat":"wojewodzka"},"geometry":{"type":"LineString","coordinates":[[19.56315,52.61062],[19.56442,52.61074],[19.56515,52.61071],[19.56771,52.61039],[19.56961,52.61004],[19.57057,52.61003],[19.57098,52.61014],[19.57136,52.61037],[19.57351,52.61231],[19.57407,52.61266],[19.57473,52.61293],[19.57623,52.6132],[19.58182,52.61352],[19.58324,52.61351],[19.58865,52.61308],[19.59438,52.61219],[19.59827,52.61185],[19.59959,52.61184],[19.60346,52.61214]]}},{"type":"Feature","properties":{"numer":"559","klasa":"droga gĹ‚Ăłwna","kat":"wojewodzka"},"geometry":{"type":"LineString","coordinates":[[19.59208565669657,52.62267007110165],[19.59365,52.62096],[19.60104,52.61487],[19.60256,52.61353],[19.60307,52.61294],[19.60346,52.61214]]}},{"type":"Feature","properties":{"numer":"559","klasa":"droga gĹ‚Ăłwna","kat":"wojewodzka"},"geometry":{"type":"LineString","coordinates":[[19.6461,52.57076],[19.64666528710726,52.570383141928495]]}},{"type":"Feature","properties":{"numer":"559","klasa":"droga gĹ‚Ăłwna","kat":"wojewodzka"},"geometry":{"type":"LineString","coordinates":[[19.64577,52.57093],[19.6461,52.57076]]}},{"type":"Feature","properties":{"numer":"559","klasa":"droga gĹ‚Ăłwna","kat":"wojewodzka"},"geometry":{"type":"LineString","coordinates":[[19.64526,52.57113],[19.64577,52.57093]]}},{"type":"Feature","properties":{"numer":"5201W","klasa":"droga gĹ‚Ăłwna","kat":"powiatowa"},"geometry":{"type":"LineString","coordinates":[[19.7368,52.58129],[19.73678002834869,52.58073079376329]]}},{"type":"Feature","properties":{"numer":"5201W","klasa":"droga gĹ‚Ăłwna","kat":"powiatowa"},"geometry":{"type":"LineString","coordinates":[[19.73679,52.5815],[19.7368,52.58129]]}},{"type":"Feature","properties":{"numer":"5201W","klasa":"droga gĹ‚Ăłwna","kat":"powiatowa"},"geometry":{"type":"LineString","coordinates":[[19.73339,52.59119],[19.73624,52.58331],[19.73679,52.5815]]}},{"type":"Feature","properties":{"numer":"5205W","klasa":"droga zbiorcza","kat":"powiatowa"},"geometry":{"type":"LineString","coordinates":[[19.72609435760662,52.58645274980468],[19.71778,52.59434]]}},{"type":"Feature","properties":{"numer":"5201W","klasa":"droga gĹ‚Ăłwna","kat":"powiatowa"},"geometry":{"type":"LineString","coordinates":[[19.73334,52.59131],[19.73339,52.59119]]}},{"type":"Feature","properties":{"numer":"5205W","klasa":"droga zbiorcza","kat":"powiatowa"},"geometry":{"type":"LineString","coordinates":[[19.71727,52.59482],[19.71778,52.59434]]}},{"type":"Feature","properties":{"numer":"5205W","klasa":"droga zbiorcza","kat":"powiatowa"},"geometry":{"type":"LineString","coordinates":[[19.71697,52.59512],[19.71727,52.59482]]}},{"type":"Feature","properties":{"numer":"5201W","klasa":"droga gĹ‚Ăłwna","kat":"powiatowa"},"geometry":{"type":"LineString","coordinates":[[19.73466,52.60408],[19.73413,52.60297],[19.73265,52.5944],[19.7327,52.59322],[19.73334,52.59131]]}},{"type":"Feature","properties":{"numer":"2909W","klasa":"droga zbiorcza","kat":"powiatowa"},"geometry":{"type":"LineString","coordinates":[[19.73466,52.60408],[19.73156,52.6014],[19.72741,52.59577],[19.72681,52.59521],[19.72638,52.59506],[19.72588,52.595],[19.71697,52.59512]]}},{"type":"Feature","properties":{"numer":"5205W","klasa":"droga zbiorcza","kat":"powiatowa"},"geometry":{"type":"LineString","coordinates":[[19.70784,52.60659],[19.71471,52.59731],[19.71697,52.59512]]}},{"type":"Feature","properties":{"numer":"2908W","klasa":"","kat":"powiatowa"},"geometry":{"type":"LineString","coordinates":[[19.67757,52.60642],[19.69408,52.60516],[19.69463,52.60525],[19.69616,52.60577],[19.69978,52.60579],[19.70324,52.6062],[19.70705,52.60691]]}},{"type":"Feature","properties":{"numer":"60","klasa":"droga gĹ‚Ăłwna ruchu przyĹ›pieszonego","kat":"krajowa"},"geometry":{"type":"LineString","coordinates":[[19.74291606275402,52.57977575534102],[19.754155587476784,52.58685961368602]]}},{"type":"Feature","properties":{"numer":"2910W","klasa":"droga zbiorcza","kat":"powiatowa"},"geometry":{"type":"LineString","coordinates":[[19.74106,52.61634],[19.74967,52.61703],[19.75576,52.61865],[19.755871790077776,52.61867070522968]]}},{"type":"Feature","properties":{"numer":"5205W","klasa":"droga zbiorcza","kat":"powiatowa"},"geometry":{"type":"LineString","coordinates":[[19.70771,52.60689],[19.70784,52.60659]]}},{"type":"Feature","properties":{"numer":"2908W","klasa":"","kat":"powiatowa"},"geometry":{"type":"LineString","coordinates":[[19.70705,52.60691],[19.70748,52.60699]]}},{"type":"Feature","properties":{"numer":"5205W","klasa":"droga zbiorcza","kat":"powiatowa"},"geometry":{"type":"LineString","coordinates":[[19.7077,52.60703],[19.70771,52.60689]]}},{"type":"Feature","properties":{"numer":"2908W","klasa":"","kat":"powiatowa"},"geometry":{"type":"LineString","coordinates":[[19.70748,52.60699],[19.7077,52.60703]]}},{"type":"Feature","properties":{"numer":"5205W","klasa":"droga zbiorcza","kat":"powiatowa"},"geometry":{"type":"LineString","coordinates":[[19.70773,52.60716],[19.7077,52.60703]]}},{"type":"Feature","properties":{"numer":"5205W","klasa":"droga zbiorcza","kat":"powiatowa"},"geometry":{"type":"LineString","coordinates":[[19.70782,52.60742],[19.70773,52.60716]]}},{"type":"Feature","properties":{"numer":"5201W","klasa":"droga gĹ‚Ăłwna","kat":"powiatowa"},"geometry":{"type":"LineString","coordinates":[[19.74106,52.61634],[19.74068,52.61508],[19.74018,52.61407],[19.73466,52.60408]]}},{"type":"Feature","properties":{"numer":"5205W","klasa":"droga zbiorcza","kat":"powiatowa"},"geometry":{"type":"LineString","coordinates":[[19.72023,52.66146],[19.72336,52.65641],[19.72616,52.65162],[19.7259,52.65142],[19.72461,52.65133],[19.7239,52.65108],[19.71867,52.64725],[19.71408,52.64567],[19.71375,52.64549],[19.71564,52.64389],[19.71589,52.64351],[19.71596,52.6431],[19.71567,52.64001],[19.71483,52.62521],[19.71462,52.62462],[19.71336,52.62363],[19.71303,52.62313],[19.7089,52.61111],[19.70782,52.60742]]}},{"type":"Feature","properties":{"numer":"5201W","klasa":"droga gĹ‚Ăłwna","kat":"powiatowa"},"geometry":{"type":"LineString","coordinates":[[19.74268849419744,52.62170294685964],[19.74106,52.61634]]}},{"type":"Feature","properties":{"numer":"540","klasa":"droga zbiorcza","kat":"wojewodzka"},"geometry":{"type":"LineString","coordinates":[[19.68861,52.65906],[19.69757,52.65976]]}},{"type":"Feature","properties":{"numer":"291311W","klasa":"droga lokalna","kat":"powiatowa"},"geometry":{"type":"LineString","coordinates":[[19.56069,52.60464],[19.56074,52.6048],[19.56142,52.6054],[19.5616,52.60567],[19.56165,52.60658],[19.56189,52.60781],[19.5623,52.60866]]}},{"type":"Feature","properties":{"numer":"291311W","klasa":"droga lokalna","kat":"powiatowa"},"geometry":{"type":"LineString","coordinates":[[19.5623,52.60866],[19.56238,52.6088]]}},{"type":"Feature","properties":{"numer":"291311W","klasa":"droga lokalna","kat":"powiatowa"},"geometry":{"type":"LineString","coordinates":[[19.56238,52.6088],[19.56247,52.60895]]}},{"type":"Feature","properties":{"numer":"291311W","klasa":"droga lokalna","kat":"powiatowa"},"geometry":{"type":"LineString","coordinates":[[19.56247,52.60895],[19.5628,52.61004]]}},{"type":"Feature","properties":{"numer":"291311W","klasa":"droga lokalna","kat":"powiatowa"},"geometry":{"type":"LineString","coordinates":[[19.5628,52.61004],[19.56315,52.61062]]}},{"type":"Feature","properties":{"numer":"555","klasa":"droga zbiorcza","kat":"wojewodzka"},"geometry":{"type":"LineString","coordinates":[[19.56187,52.61114],[19.56241,52.61075],[19.56315,52.61062]]}},{"type":"Feature","properties":{"numer":"555","klasa":"droga zbiorcza","kat":"wojewodzka"},"geometry":{"type":"LineString","coordinates":[[19.56180187881528,52.611205159394075],[19.56187,52.61114]]}},{"type":"Feature","properties":{"numer":"540","klasa":"droga zbiorcza","kat":"wojewodzka"},"geometry":{"type":"LineString","coordinates":[[19.61364481503896,52.638719730690674],[19.61523,52.63908],[19.61599,52.63919],[19.63221,52.6401],[19.63977,52.64067]]}},{"type":"Feature","properties":{"numer":"6905W","klasa":"droga zbiorcza","kat":"powiatowa"},"geometry":{"type":"LineString","coordinates":[[19.616826890331254,52.65262121344269],[19.61701,52.6525],[19.625,52.64939],[19.62704,52.64844],[19.62961,52.6476],[19.63571,52.6452],[19.63598,52.64497],[19.63621,52.64454],[19.6364,52.64336],[19.63884,52.64158],[19.63977,52.64067]]}},{"type":"Feature","properties":{"numer":"6905W","klasa":"droga zbiorcza","kat":"powiatowa"},"geometry":{"type":"LineString","coordinates":[[19.63987,52.64068],[19.64067,52.6392],[19.64095,52.63745],[19.64495,52.63348],[19.64508,52.63322],[19.64451,52.62889],[19.64382,52.6191],[19.64432,52.61761],[19.6443,52.61424],[19.6444,52.61381],[19.64612,52.61131],[19.64656,52.61106],[19.64773,52.61082],[19.64797,52.61069],[19.64795,52.60928],[19.64819,52.60888],[19.6489,52.60856],[19.65173,52.60805],[19.65216,52.60792],[19.65237,52.60764],[19.65246,52.60703]]}},{"type":"Feature","properties":{"numer":"2918W","klasa":"droga zbiorcza","kat":"powiatowa"},"geometry":{"type":"LineString","coordinates":[[19.679,52.62523],[19.67904,52.62514]]}},{"type":"Feature","properties":{"numer":"2918W","klasa":"droga zbiorcza","kat":"powiatowa"},"geometry":{"type":"LineString","coordinates":[[19.67091,52.65234],[19.67103,52.65217],[19.67097,52.65195],[19.6695,52.64819],[19.66942,52.64765],[19.66951,52.64701],[19.674,52.63702],[19.67604,52.63222],[19.6773,52.63012],[19.67821,52.62717],[19.6781,52.62659],[19.679,52.62523]]}},{"type":"Feature","properties":{"numer":"540","klasa":"droga zbiorcza","kat":"wojewodzka"},"geometry":{"type":"LineString","coordinates":[[19.63977,52.64067],[19.63987,52.64068]]}},{"type":"Feature","properties":{"numer":"540","klasa":"droga zbiorcza","kat":"wojewodzka"},"geometry":{"type":"LineString","coordinates":[[19.63987,52.64068],[19.64235,52.64092],[19.64397,52.64134],[19.67091,52.65234]]}},{"type":"Feature","properties":{"numer":"540","klasa":"droga zbiorcza","kat":"wojewodzka"},"geometry":{"type":"LineString","coordinates":[[19.67091,52.65234],[19.67282,52.65311],[19.67745,52.65449],[19.68654,52.65863],[19.6875,52.65891],[19.68861,52.65906]]}},{"type":"Feature","properties":{"numer":"2903W","klasa":"droga zbiorcza","kat":"powiatowa"},"geometry":{"type":"LineString","coordinates":[[19.68861,52.65906],[19.6883,52.65918],[19.67549,52.66092],[19.6608,52.6615],[19.65955,52.66185],[19.65334,52.66433],[19.65261,52.66451],[19.626837273322277,52.66882237620339]]}}]}