{"type":"FeatureCollection","features":[{"type":"Feature","properties":{"numer":"3050W","klasa":"","kat":"powiatowa"},"geometry":{"type":"LineString","coordinates":[[20.482003153753666,52.61234261554272],[20.48216,52.61295],[20.48711,52.61679],[20.49078,52.61946],[20.49973,52.61822],[20.50002,52.61823]]}},{"type":"Feature","properties":{"numer":"3050W","klasa":"","kat":"powiatowa"},"geometry":{"type":"LineString","coordinates":[[20.50002,52.61823],[20.50021,52.62843],[20.50603,52.63562],[20.50707,52.64064],[20.5075,52.64166],[20.50964,52.64366],[20.51407,52.64675]]}},{"type":"Feature","properties":{"numer":"632","klasa":"droga zbiorcza","kat":"wojewodzka"},"geometry":{"type":"LineString","coordinates":[[20.47122,52.64191],[20.47883,52.64524],[20.49356,52.65272],[20.49407,52.65285],[20.49758,52.65327]]}},{"type":"Feature","properties":{"numer":"3049W","klasa":"","kat":"powiatowa"},"geometry":{"type":"LineString","coordinates":[[20.51407,52.64675],[20.51016,52.64863],[20.50751,52.65445]]}},{"type":"Feature","properties":{"numer":"632","klasa":"droga zbiorcza","kat":"wojewodzka"},"geometry":{"type":"LineString","coordinates":[[20.49758,52.65327],[20.50751,52.65445]]}},{"type":"Feature","properties":{"numer":"3038W","klasa":"","kat":"powiatowa"},"geometry":{"type":"LineString","coordinates":[[20.49637,52.65541],[20.49695,52.65493],[20.49758,52.65327]]}},{"type":"Feature","properties":{"numer":"632","klasa":"droga zbiorcza","kat":"wojewodzka"},"geometry":{"type":"LineString","coordinates":[[20.50751,52.65445],[20.51002,52.65478],[20.51163,52.6552]]}},{"type":"Feature","properties":{"numer":"632","klasa":"droga zbiorcza","kat":"wojewodzka"},"geometry":{"type":"LineString","coordinates":[[20.51163,52.6552],[20.51269,52.6555]]}},{"type":"Feature","properties":{"numer":"3038W","klasa":"","kat":"powiatowa"},"geometry":{"type":"LineString","coordinates":[[20.49604,52.65565],[20.49637,52.65541]]}},{"type":"Feature","properties":{"numer":"3038W","klasa":"","kat":"powiatowa"},"geometry":{"type":"LineString","coordinates":[[20.49238,52.6552],[20.4953,52.6562],[20.49604,52.65565]]}},{"type":"Feature","properties":{"numer":"632","klasa":"droga zbiorcza","kat":"wojewodzka"},"geometry":{"type":"LineString","coordinates":[[20.51269,52.6555],[20.51716,52.65683],[20.523,52.65967],[20.52379,52.65986],[20.52495,52.65998]]}},{"type":"Feature","properties":{"numer":"3038W","klasa":"","kat":"powiatowa"},"geometry":{"type":"LineString","coordinates":[[20.47676,52.66968],[20.49056,52.66978],[20.49101,52.6697],[20.49244,52.66923],[20.49412,52.66843],[20.4927,52.66425],[20.49124,52.66069],[20.49107,52.65955],[20.49112,52.65759],[20.49125,52.6572],[20.49238,52.6552]]}},{"type":"Feature","properties":{"numer":"3042W","klasa":"droga gĹ‚Ăłwna","kat":"powiatowa"},"geometry":{"type":"LineString","coordinates":[[20.56737,52.69242],[20.5693,52.69232],[20.57469,52.69256],[20.58008,52.69221],[20.584211199673057,52.69232306441211]]}},{"type":"Feature","properties":{"numer":"1247W","klasa":"droga zbiorcza","kat":"powiatowa"},"geometry":{"type":"LineString","coordinates":[[20.586294119126833,52.72346599529335],[20.58665,52.72312],[20.58691,52.72259],[20.590664074894377,52.711775842320385]]}},{"type":"Feature","properties":{"numer":"3041W","klasa":"droga gĹ‚Ăłwna","kat":"powiatowa"},"geometry":{"type":"LineString","coordinates":[[20.47694,52.68522],[20.47864,52.68451],[20.49624,52.67883],[20.49812,52.67808],[20.50355,52.67464],[20.50454,52.67385],[20.50802,52.67053],[20.50975,52.66868],[20.51128,52.66747],[20.51137,52.6671],[20.51098,52.6661],[20.5111,52.66588],[20.51756,52.66403],[20.51944,52.66333],[20.52236,52.6619],[20.52495,52.65998]]}},{"type":"Feature","properties":{"numer":"G-15","klasa":"","kat":"gminna"},"geometry":{"type":"LineString","coordinates":[[20.47405,52.68014],[20.47398,52.68007]]}},{"type":"Feature","properties":{"numer":"G-15","klasa":"","kat":"gminna"},"geometry":{"type":"LineString","coordinates":[[20.47398,52.68007],[20.4738,52.68015]]}},{"type":"Feature","properties":{"numer":"G-15","klasa":"","kat":"gminna"},"geometry":{"type":"LineString","coordinates":[[20.4738,52.68015],[20.47405,52.68014]]}},{"type":"Feature","properties":{"numer":"G-15","klasa":"","kat":"gminna"},"geometry":{"type":"LineString","coordinates":[[20.47418,52.68021],[20.47405,52.68014]]}},{"type":"Feature","properties":{"numer":"G-15","klasa":"","kat":"gminna"},"geometry":{"type":"LineString","coordinates":[[20.4747,52.68023],[20.47543,52.68018]]}},{"type":"Feature","properties":{"numer":"G-15","klasa":"","kat":"gminna"},"geometry":{"type":"LineString","coordinates":[[20.47419,52.68026],[20.47418,52.68021]]}},{"type":"Feature","properties":{"numer":"G-15","klasa":"","kat":"gminna"},"geometry":{"type":"LineString","coordinates":[[20.4747,52.68023],[20.47419,52.68026]]}},{"type":"Feature","properties":{"numer":"301152W","klasa":"droga dojazdowa","kat":"powiatowa"},"geometry":{"type":"LineString","coordinates":[[20.47581,52.68181],[20.47543,52.68018]]}},{"type":"Feature","properties":{"numer":"301152W","klasa":"droga dojazdowa","kat":"powiatowa"},"geometry":{"type":"LineString","coordinates":[[20.47585,52.68205],[20.47581,52.68181]]}},{"type":"Feature","properties":{"numer":"3049W","klasa":"","kat":"powiatowa"},"geometry":{"type":"LineString","coordinates":[[20.534496721995634,52.6412449577919],[20.53437,52.64121],[20.53135,52.63822],[20.53112,52.63811],[20.52811,52.64026],[20.51407,52.64675]]}},{"type":"Feature","properties":{"numer":"3041W","klasa":"droga gĹ‚Ăłwna","kat":"powiatowa"},"geometry":{"type":"LineString","coordinates":[[20.52495,52.65998],[20.52815,52.65774],[20.52958,52.65576],[20.5301,52.6552],[20.53087,52.65473],[20.53642,52.65199],[20.53723,52.65152],[20.53974,52.64973],[20.54185,52.64738],[20.54565,52.64483],[20.54667,52.64425],[20.54842,52.64349],[20.550602408775717,52.64291388314198]]}},{"type":"Feature","properties":{"numer":"632","klasa":"droga zbiorcza","kat":"wojewodzka"},"geometry":{"type":"LineString","coordinates":[[20.52495,52.65998],[20.53805,52.66121],[20.55714,52.66286],[20.563247574565345,52.66346765716488]]}},{"type":"Feature","properties":{"numer":"3042W","klasa":"droga gĹ‚Ăłwna","kat":"powiatowa"},"geometry":{"type":"LineString","coordinates":[[20.47405,52.69053],[20.4901,52.69354],[20.49921,52.69559],[20.50569,52.69687],[20.50702,52.697],[20.51117,52.69701],[20.51553,52.69734],[20.5164,52.69727],[20.51892,52.69663],[20.52497,52.69532],[20.53074,52.69437],[20.53643,52.69402],[20.5381,52.69402],[20.53986,52.6942],[20.54407,52.6948],[20.54579,52.69486],[20.54707,52.69469],[20.55064,52.69386],[20.55726,52.69334],[20.56343,52.69296],[20.5652,52.69263],[20.56737,52.69242]]}},{"type":"Feature","properties":{"numer":"301152W","klasa":"droga dojazdowa","kat":"powiatowa"},"geometry":{"type":"LineString","coordinates":[[20.476,52.68285],[20.47585,52.68205]]}},{"type":"Feature","properties":{"numer":"301152W","klasa":"droga dojazdowa","kat":"powiatowa"},"geometry":{"type":"LineString","coordinates":[[20.47615,52.6836],[20.476,52.68285]]}},{"type":"Feature","properties":{"numer":"301152W","klasa":"droga dojazdowa","kat":"powiatowa"},"geometry":{"type":"LineString","coordinates":[[20.4763,52.68436],[20.47615,52.6836]]}},{"type":"Feature","properties":{"numer":"301152W","klasa":"droga dojazdowa","kat":"powiatowa"},"geometry":{"type":"LineString","coordinates":[[20.47657,52.6849],[20.4764,52.68472],[20.4763,52.68436]]}},{"type":"Feature","properties":{"numer":"301152W","klasa":"droga dojazdowa","kat":"powiatowa"},"geometry":{"type":"LineString","coordinates":[[20.47694,52.68522],[20.47657,52.6849]]}},{"type":"Feature","properties":{"numer":"3041W","klasa":"droga gĹ‚Ăłwna","kat":"powiatowa"},"geometry":{"type":"LineString","coordinates":[[20.47514,52.68602],[20.47694,52.68522]]}},{"type":"Feature","properties":{"numer":"3041W","klasa":"droga gĹ‚Ăłwna","kat":"powiatowa"},"geometry":{"type":"LineString","coordinates":[[20.47284,52.68708],[20.47514,52.68602]]}},{"type":"Feature","properties":{"numer":"50","klasa":"droga gĹ‚Ăłwna ruchu przyĹ›pieszonego","kat":"krajowa"},"geometry":{"type":"LineString","coordinates":[[20.47405,52.69053],[20.4746,52.6912],[20.47731,52.6937],[20.49206,52.70682],[20.50191108051085,52.71745029415403]]}},{"type":"Feature","properties":{"numer":"632","klasa":"droga zbiorcza","kat":"wojewodzka"},"geometry":{"type":"LineString","coordinates":[[20.46631,52.63944],[20.456859821662817,52.63418717359959]]}},{"type":"Feature","properties":{"numer":"632","klasa":"droga zbiorcza","kat":"wojewodzka"},"geometry":{"type":"LineString","coordinates":[[20.46874,52.64073],[20.46631,52.63944]]}},{"type":"Feature","properties":{"numer":"632","klasa":"droga zbiorcza","kat":"wojewodzka"},"geometry":{"type":"LineString","coordinates":[[20.46879,52.64075],[20.46874,52.64073]]}},{"type":"Feature","properties":{"numer":"632","klasa":"droga zbiorcza","kat":"wojewodzka"},"geometry":{"type":"LineString","coordinates":[[20.47118,52.64189],[20.46879,52.64075]]}},{"type":"Feature","properties":{"numer":"3040W","klasa":"droga zbiorcza","kat":"powiatowa"},"geometry":{"type":"LineString","coordinates":[[20.42992,52.6528],[20.430035764247073,52.65272509372248]]}},{"type":"Feature","properties":{"numer":"632","klasa":"droga zbiorcza","kat":"wojewodzka"},"geometry":{"type":"LineString","coordinates":[[20.47122,52.64191],[20.47118,52.64189]]}},{"type":"Feature","properties":{"numer":"3039W","klasa":"droga zbiorcza","kat":"powiatowa"},"geometry":{"type":"LineString","coordinates":[[20.46631,52.63944],[20.46442,52.64458],[20.46367,52.64645],[20.46334,52.64693]]}},{"type":"Feature","properties":{"numer":"3039W","klasa":"droga zbiorcza","kat":"powiatowa"},"geometry":{"type":"LineString","coordinates":[[20.46334,52.64693],[20.46326,52.64705]]}},{"type":"Feature","properties":{"numer":"3039W","klasa":"droga zbiorcza","kat":"powiatowa"},"geometry":{"type":"LineString","coordinates":[[20.46326,52.64705],[20.45612,52.65841],[20.45562,52.65881],[20.45324,52.66028],[20.45127,52.66119],[20.44768,52.66477]]}},{"type":"Feature","properties":{"numer":"50","klasa":"droga gĹ‚Ăłwna ruchu przyĹ›pieszonego","kat":"krajowa"},"geometry":{"type":"LineString","coordinates":[[20.44768,52.66477],[20.44352,52.66231],[20.44016,52.66064],[20.43837,52.65953],[20.43267,52.65545],[20.43106,52.65403],[20.42992,52.6528]]}},{"type":"Feature","properties":{"numer":"50","klasa":"droga gĹ‚Ăłwna ruchu przyĹ›pieszonego","kat":"krajowa"},"geometry":{"type":"LineString","coordinates":[[20.45551,52.67138],[20.45467,52.66931],[20.45408,52.66861],[20.44768,52.66477]]}},{"type":"Feature","properties":{"numer":"3038W","klasa":"","kat":"powiatowa"},"geometry":{"type":"LineString","coordinates":[[20.45551,52.67138],[20.47676,52.66968]]}},{"type":"Feature","properties":{"numer":"G-104","klasa":"","kat":"gminna"},"geometry":{"type":"LineString","coordinates":[[20.45551,52.67138],[20.44285,52.67241],[20.43322,52.67428]]}},{"type":"Feature","properties":{"numer":"50","klasa":"droga gĹ‚Ăłwna ruchu przyĹ›pieszonego","kat":"krajowa"},"geometry":{"type":"LineString","coordinates":[[20.45887,52.67861],[20.45802,52.67752],[20.45551,52.67138]]}},{"type":"Feature","properties":{"numer":"G-15","klasa":"","kat":"gminna"},"geometry":{"type":"LineString","coordinates":[[20.47037,52.68088],[20.4738,52.68015]]}},{"type":"Feature","properties":{"numer":"50","klasa":"droga gĹ‚Ăłwna ruchu przyĹ›pieszonego","kat":"krajowa"},"geometry":{"type":"LineString","coordinates":[[20.46434,52.68437],[20.4636,52.68378],[20.45887,52.67861]]}},{"type":"Feature","properties":{"numer":"50","klasa":"droga gĹ‚Ăłwna ruchu przyĹ›pieszonego","kat":"krajowa"},"geometry":{"type":"LineString","coordinates":[[20.46434,52.68437],[20.4644,52.6844]]}},{"type":"Feature","properties":{"numer":"50","klasa":"droga gĹ‚Ăłwna ruchu przyĹ›pieszonego","kat":"krajowa"},"geometry":{"type":"LineString","coordinates":[[20.4644,52.6844],[20.46504,52.68473],[20.4659,52.68499],[20.46827,52.68529]]}},{"type":"Feature","properties":{"numer":"50","klasa":"droga gĹ‚Ăłwna ruchu przyĹ›pieszonego","kat":"krajowa"},"geometry":{"type":"LineString","coordinates":[[20.42992,52.6528],[20.429865001016054,52.652734001219265]]}},{"type":"Feature","properties":{"numer":"3035W","klasa":"droga zbiorcza","kat":"powiatowa"},"geometry":{"type":"LineString","coordinates":[[20.39678,52.69854],[20.39655,52.69843]]}},{"type":"Feature","properties":{"numer":"3035W","klasa":"droga zbiorcza","kat":"powiatowa"},"geometry":{"type":"LineString","coordinates":[[20.39754,52.70004],[20.39743,52.69934],[20.39678,52.69854]]}},{"type":"Feature","properties":{"numer":"3035W","klasa":"droga zbiorcza","kat":"powiatowa"},"geometry":{"type":"LineString","coordinates":[[20.39752,52.70025],[20.39754,52.70004]]}},{"type":"Feature","properties":{"numer":"3035W","klasa":"droga zbiorcza","kat":"powiatowa"},"geometry":{"type":"LineString","coordinates":[[20.39752,52.70025],[20.39747,52.70071],[20.39768,52.70093],[20.39901,52.7009],[20.40126,52.701],[20.40643,52.70667],[20.4078,52.70803],[20.4107,52.71022],[20.41718,52.71433],[20.41892,52.7157],[20.42005,52.71681],[20.42408,52.72606],[20.4246,52.7264],[20.42874,52.72823]]}},{"type":"Feature","properties":{"numer":"50","klasa":"droga gĹ‚Ăłwna ruchu przyĹ›pieszonego","kat":"krajowa"},"geometry":{"type":"LineString","coordinates":[[20.46827,52.68529],[20.46955,52.68542]]}},{"type":"Feature","properties":{"numer":"50","klasa":"droga gĹ‚Ăłwna ruchu przyĹ›pieszonego","kat":"krajowa"},"geometry":{"type":"LineString","coordinates":[[20.46955,52.68542],[20.47057,52.68556],[20.47119,52.6858],[20.47157,52.68615],[20.47209,52.68704]]}},{"type":"Feature","properties":{"numer":"50","klasa":"droga gĹ‚Ăłwna ruchu przyĹ›pieszonego","kat":"krajowa"},"geometry":{"type":"LineString","coordinates":[[20.47225,52.68725],[20.47209,52.68704]]}},{"type":"Feature","properties":{"numer":"3041W","klasa":"droga gĹ‚Ăłwna","kat":"powiatowa"},"geometry":{"type":"LineString","coordinates":[[20.47259,52.68726],[20.47284,52.68708]]}},{"type":"Feature","properties":{"numer":"50","klasa":"droga gĹ‚Ăłwna ruchu przyĹ›pieszonego","kat":"krajowa"},"geometry":{"type":"LineString","coordinates":[[20.47225,52.68725],[20.47241,52.68737]]}},{"type":"Feature","properties":{"numer":"3041W","klasa":"droga gĹ‚Ăłwna","kat":"powiatowa"},"geometry":{"type":"LineString","coordinates":[[20.47241,52.68737],[20.47259,52.68726]]}},{"type":"Feature","properties":{"numer":"50","klasa":"droga gĹ‚Ăłwna ruchu przyĹ›pieszonego","kat":"krajowa"},"geometry":{"type":"LineString","coordinates":[[20.47241,52.68737],[20.4724,52.68752]]}},{"type":"Feature","properties":{"numer":"3036W","klasa":"droga zbiorcza","kat":"powiatowa"},"geometry":{"type":"LineString","coordinates":[[20.47175,52.68763],[20.47216,52.68741],[20.47241,52.68737]]}},{"type":"Feature","properties":{"numer":"50","klasa":"droga gĹ‚Ăłwna ruchu przyĹ›pieszonego","kat":"krajowa"},"geometry":{"type":"LineString","coordinates":[[20.4724,52.68752],[20.47243,52.68769]]}},{"type":"Feature","properties":{"numer":"3034W","klasa":"droga zbiorcza","kat":"powiatowa"},"geometry":{"type":"LineString","coordinates":[[20.39678,52.69854],[20.39702,52.69846],[20.39931,52.69824],[20.40051,52.69804],[20.40532,52.6966],[20.40972,52.69539],[20.41497,52.69412],[20.42431,52.69199],[20.43508,52.68878],[20.43605,52.68862],[20.43957,52.68842],[20.44067,52.68822],[20.44156,52.68785],[20.44812,52.68423],[20.45626,52.67925],[20.4572,52.67892],[20.45887,52.67861]]}},{"type":"Feature","properties":{"numer":"3034W","klasa":"droga zbiorcza","kat":"powiatowa"},"geometry":{"type":"LineString","coordinates":[[20.37124269761606,52.68893196988708],[20.37127,52.68894],[20.37528,52.68957],[20.38025,52.69148],[20.38509,52.69391],[20.3874,52.6953],[20.38887,52.69593],[20.39218,52.69707],[20.39422,52.69792],[20.39655,52.69843]]}},{"type":"Feature","properties":{"numer":"50","klasa":"droga gĹ‚Ăłwna ruchu przyĹ›pieszonego","kat":"krajowa"},"geometry":{"type":"LineString","coordinates":[[20.47243,52.68769],[20.47405,52.69053]]}},{"type":"Feature","properties":{"numer":"3036W","klasa":"droga zbiorcza","kat":"powiatowa"},"geometry":{"type":"LineString","coordinates":[[20.4693,52.69154],[20.47013,52.69095],[20.47127,52.68797],[20.47175,52.68763]]}},{"type":"Feature","properties":{"numer":"3036W","klasa":"droga zbiorcza","kat":"powiatowa"},"geometry":{"type":"LineString","coordinates":[[20.45587,52.70873],[20.45582,52.70824],[20.45559,52.70775],[20.45385,52.70609],[20.45364,52.70569],[20.45508,52.70299],[20.46504,52.69508],[20.46713,52.69311],[20.46867,52.69214],[20.4693,52.69154]]}},{"type":"Feature","properties":{"numer":"3036W","klasa":"droga zbiorcza","kat":"powiatowa"},"geometry":{"type":"LineString","coordinates":[[20.45587,52.70873],[20.45588,52.70897]]}},{"type":"Feature","properties":{"numer":"3036W","klasa":"droga zbiorcza","kat":"powiatowa"},"geometry":{"type":"LineString","coordinates":[[20.45588,52.70897],[20.45601,52.71006],[20.45669,52.71246],[20.45692,52.71726],[20.45635,52.7183],[20.45118,52.72616],[20.44626,52.73242],[20.44612,52.73279],[20.44597,52.73425],[20.4457,52.73492]]}},{"type":"Feature","properties":{"numer":"3035W","klasa":"droga zbiorcza","kat":"powiatowa"},"geometry":{"type":"LineString","coordinates":[[20.42874,52.72823],[20.42955,52.72853]]}},{"type":"Feature","properties":{"numer":"3035W","klasa":"droga zbiorcza","kat":"powiatowa"},"geometry":{"type":"LineString","coordinates":[[20.42955,52.72853],[20.43382,52.73021],[20.43428,52.7306],[20.43495,52.73157],[20.43548,52.73193],[20.43595,52.73212],[20.43952,52.73321],[20.4457,52.73492]]}},{"type":"Feature","properties":{"numer":"3036W","klasa":"droga zbiorcza","kat":"powiatowa"},"geometry":{"type":"LineString","coordinates":[[20.4457,52.73492],[20.44519,52.73549],[20.44348,52.73666],[20.44175,52.73819],[20.44124,52.73904],[20.44095,52.7393],[20.44079609314063,52.73936733425098]]}}]}