{"type":"FeatureCollection","features":[{"type":"Feature","properties":{"numer":"3209W","klasa":"droga zbiorcza","kat":"powiatowa"},"geometry":{"type":"LineString","coordinates":[[21.12499,53.29093],[21.12567,53.29075],[21.12713,53.2901],[21.13458,53.28817],[21.1359,53.28775],[21.13928,53.28647],[21.14924,53.28372],[21.1641,53.27912],[21.16503,53.27895],[21.16581,53.2789],[21.16884,53.27904],[21.16966,53.27898],[21.17727,53.27743],[21.18234,53.27502],[21.18315,53.27482],[21.18584,53.27446],[21.18722,53.27406],[21.194473651121122,53.270610485911284]]}},{"type":"Feature","properties":{"numer":"3216W","klasa":"droga zbiorcza","kat":"powiatowa"},"geometry":{"type":"LineString","coordinates":[[20.744753691424073,53.224708548108666],[20.7429,53.22693],[20.74094,53.22887],[20.7382,53.23232],[20.73295,53.24465],[20.73088,53.25759],[20.73104,53.26006],[20.73155,53.26164]]}},{"type":"Feature","properties":{"numer":"3209W","klasa":"droga zbiorcza","kat":"powiatowa"},"geometry":{"type":"LineString","coordinates":[[21.10964,53.29421],[21.11583,53.29341],[21.11683,53.29314],[21.11847,53.29252],[21.11932,53.29228],[21.12358,53.29119],[21.12499,53.29093]]}},{"type":"Feature","properties":{"numer":"3209W","klasa":"droga zbiorcza","kat":"powiatowa"},"geometry":{"type":"LineString","coordinates":[[21.09817,53.29741],[21.10332,53.29645],[21.10632,53.29563],[21.10734,53.29532],[21.10867,53.29457],[21.10964,53.29421]]}},{"type":"Feature","properties":{"numer":"3209W","klasa":"droga zbiorcza","kat":"powiatowa"},"geometry":{"type":"LineString","coordinates":[[21.09817,53.29741],[21.09801,53.29754]]}},{"type":"Feature","properties":{"numer":"614","klasa":"droga zbiorcza","kat":"wojewodzka"},"geometry":{"type":"LineString","coordinates":[[21.04443,53.30533],[21.04684,53.30506],[21.06534,53.30185],[21.06679,53.30175],[21.07265,53.30174],[21.07912,53.30085],[21.08648,53.29947],[21.09261,53.29789],[21.09749,53.29752],[21.09801,53.29754]]}},{"type":"Feature","properties":{"numer":"3210W","klasa":"droga zbiorcza","kat":"powiatowa"},"geometry":{"type":"LineString","coordinates":[[21.156409242215368,53.257297555952],[21.15018,53.2625],[21.14897,53.26426],[21.14852,53.26469],[21.14751,53.26522],[21.14164,53.26687],[21.13124,53.27205],[21.12884,53.27333],[21.12799,53.27363],[21.12613,53.27406],[21.12489,53.27461],[21.12429,53.27501],[21.12394,53.27554],[21.12314,53.27946],[21.12302,53.27966],[21.12233,53.28035],[21.11573,53.28557],[21.11409,53.28756],[21.11156,53.28994],[21.11125,53.29033],[21.10964,53.29421]]}},{"type":"Feature","properties":{"numer":"614","klasa":"droga zbiorcza","kat":"wojewodzka"},"geometry":{"type":"LineString","coordinates":[[21.09801,53.29754],[21.09828,53.29765],[21.09856,53.29794],[21.10591,53.30763],[21.1072,53.30898]]}},{"type":"Feature","properties":{"numer":"614","klasa":"droga zbiorcza","kat":"wojewodzka"},"geometry":{"type":"LineString","coordinates":[[21.107396110861995,53.30914906108792],[21.1072,53.30898]]}},{"type":"Feature","properties":{"numer":"57","klasa":"droga gĹ‚Ăłwna","kat":"krajowa"},"geometry":{"type":"LineString","coordinates":[[20.87309,53.21056],[20.87777,53.22627],[20.88554,53.23771]]}},{"type":"Feature","properties":{"numer":"616","klasa":"droga zbiorcza","kat":"wojewodzka"},"geometry":{"type":"LineString","coordinates":[[20.88516,53.2378],[20.88554,53.23771]]}},{"type":"Feature","properties":{"numer":"57","klasa":"droga gĹ‚Ăłwna","kat":"krajowa"},"geometry":{"type":"LineString","coordinates":[[20.88554,53.23771],[20.88574,53.23793]]}},{"type":"Feature","properties":{"numer":"","klasa":"droga gĹ‚Ăłwna","kat":"gminna"},"geometry":{"type":"LineString","coordinates":[[20.91117,53.24668],[20.91063,53.2462],[20.91011,53.24548],[20.90837,53.24027],[20.90758,53.23897],[20.90656,53.23796],[20.90555,53.23726],[20.90432,53.2366],[20.90321,53.23616],[20.9013,53.23564],[20.89988,53.23541],[20.89813,53.23528],[20.89586,53.23538],[20.89424,53.23562],[20.88571,53.23768]]}},{"type":"Feature","properties":{"numer":"57","klasa":"droga gĹ‚Ăłwna","kat":"krajowa"},"geometry":{"type":"LineString","coordinates":[[20.88574,53.23793],[20.88614,53.23828],[20.88682,53.23869],[20.89281,53.24158],[20.8956,53.24274],[20.89626,53.2432],[20.89668,53.24366],[20.89769,53.24517],[20.89808,53.24642],[20.89792,53.25154],[20.89759,53.25394]]}},{"type":"Feature","properties":{"numer":"3234W","klasa":"droga zbiorcza","kat":"powiatowa"},"geometry":{"type":"LineString","coordinates":[[20.91117,53.24668],[20.90983,53.2474],[20.9045,53.24944],[20.9018,53.25104],[20.90059,53.25161],[20.90009,53.25202],[20.89813,53.25412]]}},{"type":"Feature","properties":{"numer":"","klasa":"droga gĹ‚Ăłwna","kat":"gminna"},"geometry":{"type":"LineString","coordinates":[[20.92166,53.25507],[20.91929,53.25262],[20.91502,53.24957],[20.91117,53.24668]]}},{"type":"Feature","properties":{"numer":"3234W","klasa":"droga zbiorcza","kat":"powiatowa"},"geometry":{"type":"LineString","coordinates":[[20.89759,53.25394],[20.89658,53.25422]]}},{"type":"Feature","properties":{"numer":"57","klasa":"droga gĹ‚Ăłwna","kat":"krajowa"},"geometry":{"type":"LineString","coordinates":[[20.87309,53.21056],[20.86836826777317,53.19434488054786]]}},{"type":"Feature","properties":{"numer":"616","klasa":"droga zbiorcza","kat":"wojewodzka"},"geometry":{"type":"LineString","coordinates":[[20.84257779974326,53.19680203337612],[20.84344,53.19778],[20.84389,53.1984],[20.84425,53.19926],[20.84657,53.21006],[20.84688,53.21057],[20.84846,53.21181],[20.84863,53.21238],[20.84888,53.21269]]}},{"type":"Feature","properties":{"numer":"3217W","klasa":"droga zbiorcza","kat":"powiatowa"},"geometry":{"type":"LineString","coordinates":[[20.85073,53.21411],[20.85096,53.2141],[20.85226,53.21445],[20.85498,53.21505],[20.8562,53.215],[20.86108,53.21267],[20.86761,53.21091],[20.86814,53.2108],[20.87309,53.21056]]}},{"type":"Feature","properties":{"numer":"616","klasa":"droga zbiorcza","kat":"wojewodzka"},"geometry":{"type":"LineString","coordinates":[[20.84888,53.21269],[20.84968,53.21355],[20.85073,53.21411]]}},{"type":"Feature","properties":{"numer":"616","klasa":"droga zbiorcza","kat":"wojewodzka"},"geometry":{"type":"LineString","coordinates":[[20.85073,53.21411],[20.8518,53.21502]]}},{"type":"Feature","properties":{"numer":"616","klasa":"droga zbiorcza","kat":"wojewodzka"},"geometry":{"type":"LineString","coordinates":[[20.8518,53.21502],[20.86437,53.22592],[20.87972,53.23333],[20.88032,53.23374],[20.88058,53.2341],[20.88063,53.23555],[20.88079,53.23577],[20.8849,53.23775],[20.88516,53.2378]]}},{"type":"Feature","properties":{"numer":"3217W","klasa":"droga zbiorcza","kat":"powiatowa"},"geometry":{"type":"LineString","coordinates":[[20.84362,53.2478],[20.84558,53.24758],[20.84738,53.24765],[20.85047,53.24739],[20.8521,53.2468],[20.85242,53.24661],[20.85259,53.24634],[20.85251,53.24607],[20.85072,53.24344],[20.85044,53.24283],[20.85038,53.2424],[20.85065,53.24066],[20.85148,53.23873],[20.85169,53.23757],[20.85151,53.23305],[20.85005,53.23059],[20.84966,53.22912],[20.84941,53.22861],[20.84737,53.2265],[20.84709,53.22607],[20.8466,53.22403],[20.84641,53.22226],[20.84666,53.22163],[20.8518,53.21502]]}},{"type":"Feature","properties":{"numer":"57","klasa":"droga gĹ‚Ăłwna","kat":"krajowa"},"geometry":{"type":"LineString","coordinates":[[20.89764,53.25425],[20.89759,53.25394]]}},{"type":"Feature","properties":{"numer":"3234W","klasa":"droga zbiorcza","kat":"powiatowa"},"geometry":{"type":"LineString","coordinates":[[20.89711,53.25419],[20.89658,53.25422]]}},{"type":"Feature","properties":{"numer":"3234W","klasa":"droga zbiorcza","kat":"powiatowa"},"geometry":{"type":"LineString","coordinates":[[20.89813,53.25412],[20.89789,53.25432]]}},{"type":"Feature","properties":{"numer":"3234W","klasa":"droga zbiorcza","kat":"powiatowa"},"geometry":{"type":"LineString","coordinates":[[20.8975,53.2543],[20.89711,53.25419]]}},{"type":"Feature","properties":{"numer":"57","klasa":"droga gĹ‚Ăłwna","kat":"krajowa"},"geometry":{"type":"LineString","coordinates":[[20.89769,53.25438],[20.89764,53.25425]]}},{"type":"Feature","properties":{"numer":"3234W","klasa":"droga zbiorcza","kat":"powiatowa"},"geometry":{"type":"LineString","coordinates":[[20.89769,53.25438],[20.8975,53.2543]]}},{"type":"Feature","properties":{"numer":"3234W","klasa":"droga zbiorcza","kat":"powiatowa"},"geometry":{"type":"LineString","coordinates":[[20.89789,53.25432],[20.89769,53.25438]]}},{"type":"Feature","properties":{"numer":"57","klasa":"droga gĹ‚Ăłwna","kat":"krajowa"},"geometry":{"type":"LineString","coordinates":[[20.8976,53.25452],[20.89769,53.25438]]}},{"type":"Feature","properties":{"numer":"57","klasa":"droga gĹ‚Ăłwna","kat":"krajowa"},"geometry":{"type":"LineString","coordinates":[[20.89746,53.25483],[20.8976,53.25452]]}},{"type":"Feature","properties":{"numer":"57","klasa":"droga gĹ‚Ăłwna","kat":"krajowa"},"geometry":{"type":"LineString","coordinates":[[20.89737,53.25547],[20.89746,53.25483]]}},{"type":"Feature","properties":{"numer":"3234W","klasa":"droga zbiorcza","kat":"powiatowa"},"geometry":{"type":"LineString","coordinates":[[20.89658,53.25422],[20.89242,53.25538],[20.8915,53.25549],[20.85856,53.25653]]}},{"type":"Feature","properties":{"numer":"57","klasa":"droga gĹ‚Ăłwna","kat":"krajowa"},"geometry":{"type":"LineString","coordinates":[[20.89732,53.25581],[20.89737,53.25547]]}},{"type":"Feature","properties":{"numer":"57","klasa":"droga gĹ‚Ăłwna","kat":"krajowa"},"geometry":{"type":"LineString","coordinates":[[20.89701,53.25929],[20.89701,53.2582],[20.89732,53.25581]]}},{"type":"Feature","properties":{"numer":"3211W","klasa":"droga zbiorcza","kat":"powiatowa"},"geometry":{"type":"LineString","coordinates":[[20.91317,53.25826],[20.9131,53.25829]]}},{"type":"Feature","properties":{"numer":"3211W","klasa":"droga zbiorcza","kat":"powiatowa"},"geometry":{"type":"LineString","coordinates":[[20.9131,53.25829],[20.91158,53.25883],[20.91109,53.25892],[20.906,53.25884]]}},{"type":"Feature","properties":{"numer":"3211W","klasa":"droga zbiorcza","kat":"powiatowa"},"geometry":{"type":"LineString","coordinates":[[20.906,53.25884],[20.89982,53.2589],[20.89701,53.25929]]}},{"type":"Feature","properties":{"numer":"57","klasa":"droga gĹ‚Ăłwna","kat":"krajowa"},"geometry":{"type":"LineString","coordinates":[[20.89704,53.2602],[20.89701,53.25929]]}},{"type":"Feature","properties":{"numer":"57","klasa":"droga gĹ‚Ăłwna","kat":"krajowa"},"geometry":{"type":"LineString","coordinates":[[20.89711,53.2614],[20.89704,53.2602]]}},{"type":"Feature","properties":{"numer":"614","klasa":"droga zbiorcza","kat":"wojewodzka"},"geometry":{"type":"LineString","coordinates":[[20.89758,53.26163],[20.89742,53.26148],[20.89711,53.2614]]}},{"type":"Feature","properties":{"numer":"57","klasa":"droga gĹ‚Ăłwna","kat":"krajowa"},"geometry":{"type":"LineString","coordinates":[[20.89715,53.26189],[20.89711,53.2614]]}},{"type":"Feature","properties":{"numer":"3211W","klasa":"droga zbiorcza","kat":"powiatowa"},"geometry":{"type":"LineString","coordinates":[[21.03982,53.28504],[21.04084,53.28396],[21.0612,53.26498],[21.06142,53.26467],[21.05679,53.26229],[21.05328,53.25936],[21.05287,53.25868],[21.05142,53.25488],[21.05111,53.25465],[21.04312,53.25301],[21.02773,53.24954],[21.00621,53.24705],[20.99789,53.24579],[20.99704,53.24554],[20.9961,53.24465],[20.99584,53.24455],[20.99333,53.24518],[20.99288,53.24523],[20.99119,53.24387],[20.99049,53.24313],[20.9904,53.24288],[20.9906,53.24182],[20.99036,53.2414],[20.98995,53.24112],[20.98905,53.24073],[20.98813,53.24042],[20.98762,53.24037],[20.98363,53.24053],[20.98161,53.24083],[20.97845,53.24062],[20.97784,53.24064],[20.96927,53.24167],[20.9597,53.24181],[20.95263,53.24334],[20.95052,53.24396],[20.94501,53.24621],[20.92166,53.25507]]}},{"type":"Feature","properties":{"numer":"614","klasa":"droga zbiorcza","kat":"wojewodzka"},"geometry":{"type":"LineString","coordinates":[[21.00046,53.29851],[21.00057,53.29854]]}},{"type":"Feature","properties":{"numer":"614","klasa":"droga zbiorcza","kat":"wojewodzka"},"geometry":{"type":"LineString","coordinates":[[21.00057,53.29854],[21.00121,53.29881],[21.00189,53.29923],[21.00515,53.30182],[21.00572,53.30239],[21.00932,53.30724],[21.01001,53.30789],[21.01085,53.30831],[21.01462,53.30977],[21.01584,53.30998],[21.01839,53.31015]]}},{"type":"Feature","properties":{"numer":"3208W","klasa":"droga zbiorcza","kat":"powiatowa"},"geometry":{"type":"LineString","coordinates":[[21.01839,53.31015],[21.01903,53.31119],[21.01214,53.31297],[21.01076,53.31342],[21.00314,53.31637],[20.99644,53.31823]]}},{"type":"Feature","properties":{"numer":"3234W","klasa":"droga zbiorcza","kat":"powiatowa"},"geometry":{"type":"LineString","coordinates":[[20.961073943007104,53.21371795789714],[20.95951,53.21486],[20.94527,53.22501],[20.9445,53.22541],[20.92705,53.23257]]}},{"type":"Feature","properties":{"numer":"614","klasa":"droga zbiorcza","kat":"wojewodzka"},"geometry":{"type":"LineString","coordinates":[[20.97621,53.29864],[20.97626,53.2987]]}},{"type":"Feature","properties":{"numer":"614","klasa":"droga zbiorcza","kat":"wojewodzka"},"geometry":{"type":"LineString","coordinates":[[20.97626,53.2987],[20.97735,53.29974],[20.97804,53.30012],[20.97893,53.3004],[20.98022,53.30054],[20.98131,53.30044],[20.98421,53.2998],[20.98954,53.29922],[20.99253,53.29869],[20.9946,53.29845],[20.99646,53.2983],[20.99889,53.29829],[20.99953,53.29832],[21.00046,53.29851]]}},{"type":"Feature","properties":{"numer":"3208W","klasa":"droga zbiorcza","kat":"powiatowa"},"geometry":{"type":"LineString","coordinates":[[20.99629,53.31827],[20.99074,53.31975],[20.98964,53.3201],[20.98702,53.32169],[20.98365,53.32349],[20.97827,53.32574],[20.97769,53.32606],[20.97725,53.32648],[20.977,53.32688],[20.97573,53.33119],[20.97523,53.33194],[20.97406,53.33267],[20.97076,53.33389],[20.96798,53.33519],[20.96471,53.33708],[20.96375,53.33786],[20.95664,53.34448],[20.95466,53.34642],[20.95415,53.34705],[20.95399,53.34743],[20.95324,53.35106],[20.95134,53.35485]]}},{"type":"Feature","properties":{"numer":"3211W","klasa":"droga zbiorcza","kat":"powiatowa"},"geometry":{"type":"LineString","coordinates":[[21.03979,53.28507],[21.03982,53.28504]]}},{"type":"Feature","properties":{"numer":"3211W","klasa":"droga zbiorcza","kat":"powiatowa"},"geometry":{"type":"LineString","coordinates":[[21.04443,53.30533],[21.04443,53.30513],[21.03474,53.29255],[21.03437,53.29186],[21.03455,53.29122],[21.03979,53.28507]]}},{"type":"Feature","properties":{"numer":"614","klasa":"droga zbiorcza","kat":"wojewodzka"},"geometry":{"type":"LineString","coordinates":[[21.01839,53.31015],[21.01964,53.31019],[21.02105,53.31],[21.0222,53.30959],[21.02458,53.30842],[21.02954,53.30718],[21.03667,53.30606],[21.04443,53.30533]]}},{"type":"Feature","properties":{"numer":"3213W","klasa":"droga zbiorcza","kat":"powiatowa"},"geometry":{"type":"LineString","coordinates":[[20.92705,53.23257],[20.92692,53.23237],[20.92735,53.2316],[20.93335,53.22331],[20.93494,53.22148],[20.93854,53.21803],[20.93887,53.2173],[20.93915,53.21611],[20.9389,53.21515],[20.93716,53.21071],[20.93698,53.20959],[20.93663,53.20444],[20.93669,53.20385],[20.93765,53.20095],[20.93738,53.19691],[20.9353,53.19274],[20.93388,53.18693],[20.93382,53.18613],[20.93442,53.18407],[20.93426,53.18352],[20.93389084196392,53.182909469401864]]}},{"type":"Feature","properties":{"numer":"3234W","klasa":"droga zbiorcza","kat":"powiatowa"},"geometry":{"type":"LineString","coordinates":[[20.92705,53.23257],[20.9265,53.23286],[20.92568,53.23346],[20.92262,53.23598],[20.91976,53.24108],[20.91879,53.24244],[20.91827,53.24279],[20.91117,53.24668]]}},{"type":"Feature","properties":{"numer":"3211W","klasa":"droga zbiorcza","kat":"powiatowa"},"geometry":{"type":"LineString","coordinates":[[20.92166,53.25507],[20.91317,53.25826]]}},{"type":"Feature","properties":{"numer":"","klasa":"droga gĹ‚Ăłwna","kat":"gminna"},"geometry":{"type":"LineString","coordinates":[[20.92487,53.27785],[20.92532,53.27755],[20.9254,53.27688],[20.92961,53.27362],[20.9298,53.27324],[20.92985,53.2728],[20.92552,53.26129],[20.92406,53.25795],[20.92371,53.25736],[20.92166,53.25507]]}},{"type":"Feature","properties":{"numer":"614","klasa":"droga zbiorcza","kat":"wojewodzka"},"geometry":{"type":"LineString","coordinates":[[20.89758,53.26163],[20.91011,53.26965],[20.91808,53.27556],[20.91879,53.2759],[20.92337,53.27727],[20.92464,53.27781],[20.93089,53.28236],[20.93151,53.28273],[20.93873,53.28539],[20.9423,53.28688],[20.95135,53.29036],[20.95269,53.29069],[20.9591,53.29199],[20.96296,53.29312],[20.97006,53.29701],[20.97123,53.29729],[20.97313,53.29735],[20.97415,53.29749],[20.97536,53.29795],[20.97621,53.29864]]}},{"type":"Feature","properties":{"numer":"1645N","klasa":"droga zbiorcza","kat":"powiatowa"},"geometry":{"type":"LineString","coordinates":[[20.951328812139828,53.35487158287986],[20.95134,53.35485]]}},{"type":"Feature","properties":{"numer":"3216W","klasa":"droga zbiorcza","kat":"powiatowa"},"geometry":{"type":"LineString","coordinates":[[20.72449,53.28615],[20.72326,53.28872],[20.71984,53.29148],[20.71821,53.29335],[20.71736,53.29386],[20.71087,53.29643],[20.70657,53.29771],[20.70546,53.29792],[20.69225275059343,53.29982960229876]]}},{"type":"Feature","properties":{"numer":"3234W","klasa":"droga zbiorcza","kat":"powiatowa"},"geometry":{"type":"LineString","coordinates":[[20.79841,53.25857],[20.77808,53.25927],[20.77649,53.25958],[20.77337,53.26062],[20.7724,53.26084],[20.76676,53.2612],[20.76573,53.26113],[20.76477,53.26085],[20.76343,53.26062],[20.759,53.26056],[20.75565,53.26037],[20.75463,53.2604],[20.7497,53.2609],[20.74849,53.26097],[20.73931,53.26032],[20.73793,53.26044],[20.73155,53.26164]]}},{"type":"Feature","properties":{"numer":"3216W","klasa":"droga zbiorcza","kat":"powiatowa"},"geometry":{"type":"LineString","coordinates":[[20.73155,53.26164],[20.73181,53.26251],[20.7326,53.26736],[20.7325,53.26902],[20.7319,53.27077],[20.73123,53.27182],[20.73026,53.27284],[20.7232,53.27709],[20.72288,53.27757],[20.7229,53.27811],[20.72362,53.27996],[20.72534,53.28319],[20.72538,53.28382],[20.72528,53.28434],[20.72449,53.28615]]}},{"type":"Feature","properties":{"numer":"3215W","klasa":"droga zbiorcza","kat":"powiatowa"},"geometry":{"type":"LineString","coordinates":[[20.72449,53.28615],[20.72702,53.28664],[20.72867,53.28717],[20.73123,53.28777],[20.73552,53.28973],[20.73926,53.29058],[20.74013,53.29093],[20.74069,53.29129],[20.74179,53.29265],[20.7425,53.29307],[20.74711,53.29424],[20.75056,53.29472],[20.75125,53.29515],[20.75162,53.29585],[20.75191,53.29614],[20.75218,53.29623],[20.75289,53.29628],[20.75801,53.29598],[20.75907,53.29582],[20.7619,53.29508],[20.76195,53.29443],[20.77074,53.29383],[20.77308,53.2929],[20.77832,53.28987],[20.78158,53.28853],[20.78516,53.28682],[20.78701,53.2864],[20.79642,53.28463],[20.79932,53.2841],[20.80084,53.2839],[20.80221,53.27804],[20.80273,53.26847],[20.8027,53.26717],[20.80259,53.26663],[20.80228,53.26613],[20.80086,53.26471],[20.79977,53.2638],[20.79655,53.26014],[20.79662,53.25997],[20.79863,53.25896],[20.79841,53.25857]]}},{"type":"Feature","properties":{"numer":"3208W","klasa":"droga zbiorcza","kat":"powiatowa"},"geometry":{"type":"LineString","coordinates":[[20.99644,53.31823],[20.99629,53.31827]]}},{"type":"Feature","properties":{"numer":"3218W","klasa":"droga zbiorcza","kat":"powiatowa"},"geometry":{"type":"LineString","coordinates":[[20.823269656545246,53.20567799512746],[20.82341,53.20579],[20.82389,53.20606],[20.8317,53.2094],[20.83294,53.21019],[20.83383,53.21059],[20.84397,53.21352],[20.84663,53.21444],[20.84848,53.21345],[20.84888,53.21269]]}},{"type":"Feature","properties":{"numer":"3234W","klasa":"droga zbiorcza","kat":"powiatowa"},"geometry":{"type":"LineString","coordinates":[[20.84806,53.25687],[20.82687,53.25754],[20.81252,53.25811],[20.79841,53.25857]]}},{"type":"Feature","properties":{"numer":"320110W","klasa":"droga lokalna","kat":"powiatowa"},"geometry":{"type":"LineString","coordinates":[[20.84333,53.24786],[20.84362,53.2478]]}},{"type":"Feature","properties":{"numer":"3217W","klasa":"droga zbiorcza","kat":"powiatowa"},"geometry":{"type":"LineString","coordinates":[[20.8435,53.24801],[20.84349,53.24789],[20.84362,53.2478]]}},{"type":"Feature","properties":{"numer":"3217W","klasa":"droga zbiorcza","kat":"powiatowa"},"geometry":{"type":"LineString","coordinates":[[20.84333,53.24786],[20.8435,53.24801]]}},{"type":"Feature","properties":{"numer":"3217W","klasa":"droga zbiorcza","kat":"powiatowa"},"geometry":{"type":"LineString","coordinates":[[20.8435,53.24801],[20.84457,53.24909],[20.84729,53.25062],[20.85475,53.25323],[20.85563,53.25361],[20.8562,53.25405],[20.85856,53.25653]]}},{"type":"Feature","properties":{"numer":"3234W","klasa":"droga zbiorcza","kat":"powiatowa"},"geometry":{"type":"LineString","coordinates":[[20.84813,53.25687],[20.85856,53.25653]]}},{"type":"Feature","properties":{"numer":"3234W","klasa":"droga zbiorcza","kat":"powiatowa"},"geometry":{"type":"LineString","coordinates":[[20.84806,53.25687],[20.84813,53.25687]]}},{"type":"Feature","properties":{"numer":"1572N","klasa":"droga zbiorcza","kat":"powiatowa"},"geometry":{"type":"LineString","coordinates":[[20.86036,53.3027],[20.86034,53.30271]]}},{"type":"Feature","properties":{"numer":"1572N","klasa":"droga zbiorcza","kat":"powiatowa"},"geometry":{"type":"LineString","coordinates":[[20.86034,53.30271],[20.860321182795698,53.30271940860215]]}},{"type":"Feature","properties":{"numer":"57","klasa":"droga gĹ‚Ăłwna","kat":"krajowa"},"geometry":{"type":"LineString","coordinates":[[20.90797,53.28642],[20.9048,53.28558],[20.90315,53.28478],[20.89899,53.28136],[20.89866,53.28088],[20.8984,53.27963],[20.90017,53.2745],[20.90026,53.27358],[20.9001,53.27297],[20.89886,53.27002],[20.89744,53.26705],[20.89715,53.26189]]}},{"type":"Feature","properties":{"numer":"3214W","klasa":"droga zbiorcza","kat":"powiatowa"},"geometry":{"type":"LineString","coordinates":[[20.86036,53.3027],[20.86286,53.30137],[20.87194,53.29592],[20.8729,53.2955],[20.87463,53.2949],[20.87664,53.29422],[20.87789,53.29389],[20.88566,53.29272],[20.89606,53.29298],[20.89627,53.29283],[20.89734,53.29135],[20.89812,53.29064],[20.90269,53.28861],[20.90515,53.28768],[20.90797,53.28642]]}},{"type":"Feature","properties":{"numer":"57","klasa":"droga gĹ‚Ăłwna","kat":"krajowa"},"geometry":{"type":"LineString","coordinates":[[20.9080416825031,53.317807038333584],[20.9095,53.31524],[20.91473,53.29638],[20.91614,53.29275],[20.91594,53.29215],[20.91523,53.29152],[20.90941,53.28705],[20.90879,53.28671],[20.90797,53.28642]]}}]}