{"type":"FeatureCollection","features":[{"type":"Feature","properties":{"numer":"3235W","klasa":"droga zbiorcza","kat":"powiatowa"},"geometry":{"type":"LineString","coordinates":[[20.72318,53.1244],[20.72801,53.12051],[20.72893,53.1199],[20.74326,53.11577],[20.74562,53.11558],[20.74697,53.11557],[20.74685,53.11443],[20.74633,53.11367],[20.74536,53.11145],[20.74504,53.11119],[20.74473,53.11109],[20.74344,53.11106],[20.74269,53.11078],[20.74158,53.10836],[20.73686,53.10509],[20.73597,53.10345],[20.7351140609679,53.09896129647119]]}},{"type":"Feature","properties":{"numer":"616","klasa":"droga zbiorcza","kat":"wojewodzka"},"geometry":{"type":"LineString","coordinates":[[20.75824,53.14246],[20.75693,53.14158],[20.75609,53.14116],[20.74017,53.13567],[20.73911,53.13524],[20.72616,53.12612],[20.72418,53.12513],[20.72318,53.1244]]}},{"type":"Feature","properties":{"numer":"2362W","klasa":"droga zbiorcza","kat":"powiatowa"},"geometry":{"type":"LineString","coordinates":[[20.75824,53.14246],[20.75445,53.14547],[20.75344,53.14576],[20.75275,53.14578],[20.75087,53.1456],[20.74977,53.14575],[20.74403,53.14582],[20.72525,53.14755],[20.72458,53.14786],[20.72363,53.14794],[20.70133,53.14832]]}},{"type":"Feature","properties":{"numer":"616","klasa":"droga zbiorcza","kat":"wojewodzka"},"geometry":{"type":"LineString","coordinates":[[20.78404,53.15884],[20.76643,53.14892],[20.76579,53.14842],[20.76306,53.14575],[20.75824,53.14246]]}},{"type":"Feature","properties":{"numer":"3219W","klasa":"droga zbiorcza","kat":"powiatowa"},"geometry":{"type":"LineString","coordinates":[[20.77963,53.16527],[20.77922,53.16518],[20.77703,53.16424],[20.76396,53.15844],[20.7635,53.1583],[20.76301,53.15827],[20.75477,53.15906],[20.75297,53.1593],[20.74099,53.16365],[20.74052,53.1638],[20.73967,53.16387],[20.73969,53.16436],[20.73957,53.16448],[20.73843,53.16476],[20.73732,53.1649],[20.73611,53.16514],[20.7332,53.16605]]}},{"type":"Feature","properties":{"numer":"3219W","klasa":"droga zbiorcza","kat":"powiatowa"},"geometry":{"type":"LineString","coordinates":[[20.7332,53.16605],[20.72358,53.16917],[20.72044,53.17012],[20.71762,53.1711],[20.707475232848314,53.17158974737974]]}},{"type":"Feature","properties":{"numer":"3216W","klasa":"droga zbiorcza","kat":"powiatowa"},"geometry":{"type":"LineString","coordinates":[[20.77963,53.16527],[20.76929,53.18616],[20.76829,53.19074],[20.76723,53.1934],[20.7668,53.19417]]}},{"type":"Feature","properties":{"numer":"3216W","klasa":"droga zbiorcza","kat":"powiatowa"},"geometry":{"type":"LineString","coordinates":[[20.7668,53.19417],[20.7617,53.19783],[20.76131,53.19828],[20.76053,53.19958],[20.75998,53.20126],[20.75938,53.20729],[20.75794,53.20984]]}},{"type":"Feature","properties":{"numer":"3216W","klasa":"droga zbiorcza","kat":"powiatowa"},"geometry":{"type":"LineString","coordinates":[[20.75794,53.20984],[20.75751,53.21037],[20.75535,53.21201],[20.744753691424073,53.224708548108666]]}},{"type":"Feature","properties":{"numer":"3222W","klasa":"droga zbiorcza","kat":"powiatowa"},"geometry":{"type":"LineString","coordinates":[[20.91104,53.13666],[20.91082,53.13588],[20.91043,53.13566],[20.90678,53.13563],[20.89732,53.1343],[20.89639,53.13398],[20.89513,53.13293],[20.89349,53.13224],[20.89228,53.13146],[20.89173,53.13131],[20.88931,53.13103],[20.8886,53.13101],[20.88742,53.13113],[20.88563,53.13156],[20.8817,53.13154],[20.87586,53.13283],[20.87472,53.13276],[20.86526,53.13156],[20.86052,53.13251]]}},{"type":"Feature","properties":{"numer":"57","klasa":"droga gĹ‚Ăłwna","kat":"krajowa"},"geometry":{"type":"LineString","coordinates":[[20.85402,53.10224],[20.854593229960283,53.09205499799601]]}},{"type":"Feature","properties":{"numer":"57","klasa":"droga gĹ‚Ăłwna","kat":"krajowa"},"geometry":{"type":"LineString","coordinates":[[20.85402,53.10232],[20.85402,53.10224]]}},{"type":"Feature","properties":{"numer":"57","klasa":"droga gĹ‚Ăłwna","kat":"krajowa"},"geometry":{"type":"LineString","coordinates":[[20.85402,53.10232],[20.85356,53.11037],[20.85361,53.1111],[20.85896,53.1258],[20.86052,53.13251]]}},{"type":"Feature","properties":{"numer":"57","klasa":"droga gĹ‚Ăłwna","kat":"krajowa"},"geometry":{"type":"LineString","coordinates":[[20.86052,53.13251],[20.86371,53.14647]]}},{"type":"Feature","properties":{"numer":"3216W","klasa":"droga zbiorcza","kat":"powiatowa"},"geometry":{"type":"LineString","coordinates":[[20.835312755214915,53.09297296683133],[20.83081,53.09889],[20.82824,53.10244],[20.82791,53.10341],[20.82763,53.10557],[20.82153,53.12217],[20.82123,53.12275],[20.81923,53.12482],[20.80878,53.13281],[20.8043,53.13689],[20.79008,53.15173]]}},{"type":"Feature","properties":{"numer":"3220W","klasa":"droga zbiorcza","kat":"powiatowa"},"geometry":{"type":"LineString","coordinates":[[20.86371,53.14647],[20.85525,53.14775],[20.8538,53.14809],[20.85127,53.14905],[20.85027,53.1496],[20.84952,53.15029],[20.84921,53.15146],[20.84886,53.15171],[20.8387,53.15169],[20.83816,53.15183],[20.83735,53.15233],[20.83681,53.15255],[20.83313,53.15316],[20.83275,53.15335],[20.82685,53.15787],[20.82205,53.15652],[20.82073,53.15626],[20.81853,53.15597],[20.81648,53.15589],[20.81098,53.15601],[20.80846,53.15594],[20.80464,53.15563],[20.80323,53.1556],[20.80139,53.15565],[20.79953,53.15594],[20.799,53.15595],[20.79787,53.15532],[20.7969,53.15499],[20.79528,53.1536],[20.79008,53.15173]]}},{"type":"Feature","properties":{"numer":"3216W","klasa":"droga zbiorcza","kat":"powiatowa"},"geometry":{"type":"LineString","coordinates":[[20.79008,53.15173],[20.78706,53.15496]]}},{"type":"Feature","properties":{"numer":"3216W","klasa":"droga zbiorcza","kat":"powiatowa"},"geometry":{"type":"LineString","coordinates":[[20.78706,53.15496],[20.78701,53.15502]]}},{"type":"Feature","properties":{"numer":"3216W","klasa":"droga zbiorcza","kat":"powiatowa"},"geometry":{"type":"LineString","coordinates":[[20.78701,53.15502],[20.78502,53.15736],[20.78404,53.15884]]}},{"type":"Feature","properties":{"numer":"616","klasa":"droga zbiorcza","kat":"wojewodzka"},"geometry":{"type":"LineString","coordinates":[[20.79501,53.16276],[20.78404,53.15884]]}},{"type":"Feature","properties":{"numer":"3216W","klasa":"droga zbiorcza","kat":"powiatowa"},"geometry":{"type":"LineString","coordinates":[[20.78404,53.15884],[20.77963,53.16527]]}},{"type":"Feature","properties":{"numer":"616","klasa":"droga zbiorcza","kat":"wojewodzka"},"geometry":{"type":"LineString","coordinates":[[20.79509,53.16278],[20.79501,53.16276]]}},{"type":"Feature","properties":{"numer":"3222W","klasa":"droga zbiorcza","kat":"powiatowa"},"geometry":{"type":"LineString","coordinates":[[20.91104,53.13666],[20.913339664387816,53.13614999378496]]}},{"type":"Feature","properties":{"numer":"3222W","klasa":"droga zbiorcza","kat":"powiatowa"},"geometry":{"type":"LineString","coordinates":[[20.9142654624949,53.13603257548846],[20.916421443932386,53.13618915514593]]}},{"type":"Feature","properties":{"numer":"3221W","klasa":"droga zbiorcza","kat":"powiatowa"},"geometry":{"type":"LineString","coordinates":[[20.86768,53.16384],[20.87466,53.16375],[20.88325,53.16648],[20.88351,53.16634],[20.88437,53.1652],[20.88932,53.16301],[20.89992,53.16129],[20.9083,53.16014],[20.9085,53.16019],[20.90857,53.1603],[20.9096,53.16514],[20.90983,53.16533],[20.91194,53.16645],[20.91275,53.1668],[20.91415,53.16713],[20.91945,53.16759],[20.92148,53.16748],[20.92431,53.1672],[20.92654,53.16668],[20.92976,53.16665]]}},{"type":"Feature","properties":{"numer":"57","klasa":"droga gĹ‚Ăłwna","kat":"krajowa"},"geometry":{"type":"LineString","coordinates":[[20.86371,53.14647],[20.86768,53.16384]]}},{"type":"Feature","properties":{"numer":"57","klasa":"droga gĹ‚Ăłwna","kat":"krajowa"},"geometry":{"type":"LineString","coordinates":[[20.86768,53.16384],[20.86823,53.16628]]}},{"type":"Feature","properties":{"numer":"57","klasa":"droga gĹ‚Ăłwna","kat":"krajowa"},"geometry":{"type":"LineString","coordinates":[[20.86823,53.16628],[20.86825,53.16635]]}},{"type":"Feature","properties":{"numer":"57","klasa":"droga gĹ‚Ăłwna","kat":"krajowa"},"geometry":{"type":"LineString","coordinates":[[20.86834924221459,53.19427954399547],[20.86694,53.18944],[20.86669,53.18818],[20.86638,53.1848],[20.86861,53.16861],[20.86857,53.16778],[20.86825,53.16635]]}},{"type":"Feature","properties":{"numer":"616","klasa":"droga zbiorcza","kat":"wojewodzka"},"geometry":{"type":"LineString","coordinates":[[20.81703,53.17417],[20.83845,53.19212],[20.842658061516843,53.19689307178063]]}},{"type":"Feature","properties":{"numer":"3213W","klasa":"droga zbiorcza","kat":"powiatowa"},"geometry":{"type":"LineString","coordinates":[[20.923556073801183,53.107391228107254],[20.92367,53.10634],[20.92434945319448,53.104595458014174]]}},{"type":"Feature","properties":{"numer":"3213W","klasa":"droga zbiorcza","kat":"powiatowa"},"geometry":{"type":"LineString","coordinates":[[20.92393,53.14362],[20.92295,53.1432],[20.92201,53.14266],[20.92102,53.14188],[20.92024,53.14094],[20.91869,53.13704],[20.918556712049014,53.13643353982301]]}},{"type":"Feature","properties":{"numer":"3223W","klasa":"droga zbiorcza","kat":"powiatowa"},"geometry":{"type":"LineString","coordinates":[[20.92393,53.14362],[20.92356,53.14382],[20.9223,53.14387],[20.92145,53.14385],[20.92077,53.14368],[20.91278,53.13948],[20.91225,53.13913],[20.91142,53.13829],[20.91104,53.13666]]}},{"type":"Feature","properties":{"numer":"3213W,3223W","klasa":"droga zbiorcza","kat":"powiatowa"},"geometry":{"type":"LineString","coordinates":[[20.92915,53.1461],[20.92892,53.14553],[20.92837,53.14503],[20.92791,53.14477],[20.92393,53.14362]]}},{"type":"Feature","properties":{"numer":"3213W","klasa":"droga zbiorcza","kat":"powiatowa"},"geometry":{"type":"LineString","coordinates":[[20.92976,53.16665],[20.92878,53.16482],[20.9278,53.15934],[20.9271,53.15735],[20.927,53.15667],[20.92714,53.15372],[20.92865,53.15155],[20.92929,53.1498],[20.92915,53.1461]]}},{"type":"Feature","properties":{"numer":"3213W","klasa":"droga zbiorcza","kat":"powiatowa"},"geometry":{"type":"LineString","coordinates":[[20.93116,53.16927],[20.93042,53.16824],[20.92976,53.16665]]}},{"type":"Feature","properties":{"numer":"3213W","klasa":"droga zbiorcza","kat":"powiatowa"},"geometry":{"type":"LineString","coordinates":[[20.93125,53.16939],[20.93116,53.16927]]}},{"type":"Feature","properties":{"numer":"3223W","klasa":"droga zbiorcza","kat":"powiatowa"},"geometry":{"type":"LineString","coordinates":[[20.954872537173596,53.152444490850804],[20.95479,53.15243],[20.95396,53.15218],[20.94732,53.14942],[20.94565,53.14903],[20.944853472788708,53.14895353338772]]}},{"type":"Feature","properties":{"numer":"3223W","klasa":"droga zbiorcza","kat":"powiatowa"},"geometry":{"type":"LineString","coordinates":[[20.94376174468087,53.14900634042553],[20.94228,53.14923],[20.94151,53.14927],[20.93707391705858,53.14932983156183]]}},{"type":"Feature","properties":{"numer":"3223W","klasa":"droga zbiorcza","kat":"powiatowa"},"geometry":{"type":"LineString","coordinates":[[20.93515435611039,53.149220446780554],[20.93515,53.14922],[20.935126912079998,53.14921355968547]]}},{"type":"Feature","properties":{"numer":"3223W","klasa":"droga zbiorcza","kat":"powiatowa"},"geometry":{"type":"LineString","coordinates":[[20.93238231901842,53.148031398773014],[20.93159,53.14743],[20.93006,53.14654],[20.92953,53.14613],[20.92915,53.1461]]}},{"type":"Feature","properties":{"numer":"3213W","klasa":"droga zbiorcza","kat":"powiatowa"},"geometry":{"type":"LineString","coordinates":[[20.933916658408176,53.18295216582891],[20.93348,53.18223],[20.93311,53.18136],[20.93289,53.18023],[20.93252,53.17695],[20.93277,53.17304],[20.93263,53.17192],[20.93216,53.17061],[20.93125,53.16939]]}},{"type":"Feature","properties":{"numer":"616","klasa":"droga zbiorcza","kat":"wojewodzka"},"geometry":{"type":"LineString","coordinates":[[20.72318,53.1244],[20.72215,53.12375],[20.716968687473617,53.12118523506925]]}},{"type":"Feature","properties":{"numer":"2362W","klasa":"","kat":"powiatowa"},"geometry":{"type":"LineString","coordinates":[[20.70133,53.14832],[20.70131535309844,53.148320401023376]]}},{"type":"Feature","properties":{"numer":"616","klasa":"droga zbiorcza","kat":"wojewodzka"},"geometry":{"type":"LineString","coordinates":[[20.79509,53.16278],[20.80769,53.16732],[20.81463,53.17216],[20.81698,53.17413]]}},{"type":"Feature","properties":{"numer":"616","klasa":"droga zbiorcza","kat":"wojewodzka"},"geometry":{"type":"LineString","coordinates":[[20.81698,53.17413],[20.81703,53.17417]]}},{"type":"Feature","properties":{"numer":"3218W","klasa":"droga zbiorcza","kat":"powiatowa"},"geometry":{"type":"LineString","coordinates":[[20.7668,53.19417],[20.76874,53.19472],[20.77896,53.19606],[20.78476,53.19702],[20.78662,53.19705],[20.78745,53.19738],[20.78863,53.19823],[20.78944,53.19854],[20.79177,53.19906],[20.79455,53.19953],[20.7965,53.19982],[20.79916,53.19992],[20.80289,53.20037],[20.81257,53.20135],[20.81694,53.20297],[20.82154,53.20449],[20.82237,53.20496],[20.823269656545246,53.20567799512746]]}}]}