{"type":"FeatureCollection","features":[{"type":"Feature","properties":{"numer":"3761W","klasa":"","kat":"powiatowa"},"geometry":{"type":"LineString","coordinates":[[19.720260926895566,52.762385917871704],[19.72039,52.76321],[19.72434,52.76793],[19.72699,52.77169],[19.72743,52.77185]]}},{"type":"Feature","properties":{"numer":"3754W","klasa":"","kat":"powiatowa"},"geometry":{"type":"LineString","coordinates":[[19.692124947204892,52.768172497026484],[19.69279,52.76888],[19.69334,52.76922],[19.693933129320484,52.76904518293712]]}},{"type":"Feature","properties":{"numer":"3754W","klasa":"","kat":"powiatowa"},"geometry":{"type":"LineString","coordinates":[[19.697469813501232,52.768538716027734],[19.70125,52.76841],[19.70187,52.77156],[19.70724,52.77604],[19.70997,52.77821],[19.71075,52.77867],[19.71992,52.78266]]}},{"type":"Feature","properties":{"numer":"560","klasa":"droga gĹ‚Ăłwna","kat":"wojewodzka"},"geometry":{"type":"LineString","coordinates":[[19.72743,52.77185],[19.72716,52.77551],[19.72691,52.77636],[19.72651,52.77704],[19.72612,52.77753],[19.7243,52.77912],[19.72128,52.78167],[19.71992,52.78266]]}},{"type":"Feature","properties":{"numer":"3753W","klasa":"","kat":"powiatowa"},"geometry":{"type":"LineString","coordinates":[[19.72782,52.78247],[19.73513,52.78106]]}},{"type":"Feature","properties":{"numer":"3742W","klasa":"","kat":"powiatowa"},"geometry":{"type":"LineString","coordinates":[[19.71641,52.7848],[19.72197,52.78388],[19.72782,52.78247]]}},{"type":"Feature","properties":{"numer":"560","klasa":"droga gĹ‚Ăłwna","kat":"wojewodzka"},"geometry":{"type":"LineString","coordinates":[[19.733699222493126,52.76238924553201],[19.73222,52.76325],[19.73147,52.76378],[19.73076,52.76447],[19.73025,52.76519],[19.72743,52.77185]]}},{"type":"Feature","properties":{"numer":"3753W","klasa":"","kat":"powiatowa"},"geometry":{"type":"LineString","coordinates":[[19.73513,52.78106],[19.73817,52.78055],[19.74076,52.78001],[19.74102,52.78003],[19.74495,52.787],[19.75063,52.78704],[19.75747,52.78943],[19.75878,52.79138],[19.75671,52.79472],[19.75535,52.79631],[19.75487,52.79671],[19.75449,52.79684],[19.75257,52.79718],[19.74831,52.79759],[19.74721,52.79755],[19.74638,52.79731],[19.74189,52.79319],[19.74128,52.79085],[19.74075,52.7897],[19.73687,52.78358],[19.73513,52.78106]]}},{"type":"Feature","properties":{"numer":"3735W","klasa":"droga zbiorcza","kat":"powiatowa"},"geometry":{"type":"LineString","coordinates":[[19.64081,52.81563],[19.64051,52.81464],[19.63931,52.80858],[19.63616,52.79167],[19.63791735485562,52.78752857096676]]}},{"type":"Feature","properties":{"numer":"3752W","klasa":"","kat":"powiatowa"},"geometry":{"type":"LineString","coordinates":[[19.68438,52.80368],[19.68143,52.80406],[19.68023,52.8045],[19.67442,52.80596]]}},{"type":"Feature","properties":{"numer":"560","klasa":"droga gĹ‚Ăłwna","kat":"wojewodzka"},"geometry":{"type":"LineString","coordinates":[[19.68438,52.80368],[19.68198,52.8149],[19.68144,52.81641]]}},{"type":"Feature","properties":{"numer":"3752W","klasa":"","kat":"powiatowa"},"geometry":{"type":"LineString","coordinates":[[19.67442,52.80596],[19.66844,52.80759],[19.66032,52.80968],[19.65967,52.80996],[19.65888,52.81016],[19.65646,52.81122],[19.6556,52.81168],[19.65371,52.81244],[19.65285,52.81299],[19.65279,52.81342],[19.65256,52.81389],[19.65214,52.81444],[19.65198,52.81451],[19.64748,52.81503],[19.64081,52.81563]]}},{"type":"Feature","properties":{"numer":"3735W","klasa":"droga zbiorcza","kat":"powiatowa"},"geometry":{"type":"LineString","coordinates":[[19.641,52.81621],[19.64081,52.81563]]}},{"type":"Feature","properties":{"numer":"3735W","klasa":"droga zbiorcza","kat":"powiatowa"},"geometry":{"type":"LineString","coordinates":[[19.64101,52.81626],[19.641,52.81621]]}},{"type":"Feature","properties":{"numer":"3751W","klasa":"","kat":"powiatowa"},"geometry":{"type":"LineString","coordinates":[[19.74006,52.8119],[19.74055,52.81338],[19.74108,52.81417],[19.74172,52.81488],[19.74312,52.81599],[19.74881,52.81976],[19.7533,52.82528],[19.75371,52.8256]]}},{"type":"Feature","properties":{"numer":"10","klasa":"droga gĹ‚Ăłwna ruchu przyĹ›pieszonego","kat":"krajowa"},"geometry":{"type":"LineString","coordinates":[[19.76559938212319,52.82557637469586],[19.76428,52.82587],[19.75604,52.82866]]}},{"type":"Feature","properties":{"numer":"3751W","klasa":"","kat":"powiatowa"},"geometry":{"type":"LineString","coordinates":[[19.75371,52.8256],[19.75386,52.82569]]}},{"type":"Feature","properties":{"numer":"3751W","klasa":"","kat":"powiatowa"},"geometry":{"type":"LineString","coordinates":[[19.75386,52.82569],[19.75509,52.82648],[19.75604,52.82866]]}},{"type":"Feature","properties":{"numer":"560","klasa":"droga gĹ‚Ăłwna","kat":"wojewodzka"},"geometry":{"type":"LineString","coordinates":[[19.71992,52.78266],[19.71641,52.7848]]}},{"type":"Feature","properties":{"numer":"560","klasa":"droga gĹ‚Ăłwna","kat":"wojewodzka"},"geometry":{"type":"LineString","coordinates":[[19.71641,52.7848],[19.71087,52.78802],[19.7076,52.78936],[19.70325,52.79131],[19.68601,52.80181],[19.68548,52.80217],[19.68496,52.80267],[19.68462,52.8031],[19.68438,52.80368]]}},{"type":"Feature","properties":{"numer":"3742W","klasa":"","kat":"powiatowa"},"geometry":{"type":"LineString","coordinates":[[19.72782,52.78247],[19.72819,52.78321],[19.72833,52.79075],[19.72869,52.79141],[19.73039,52.79368],[19.73246,52.7967],[19.73876,52.80756],[19.7393,52.80861],[19.73951,52.80926],[19.74006,52.8119]]}},{"type":"Feature","properties":{"numer":"3742W","klasa":"","kat":"powiatowa"},"geometry":{"type":"LineString","coordinates":[[19.73827,52.81325],[19.73862,52.8131],[19.7395,52.81224],[19.74006,52.8119]]}},{"type":"Feature","properties":{"numer":"3751W","klasa":"","kat":"powiatowa"},"geometry":{"type":"LineString","coordinates":[[19.68144,52.81641],[19.69149,52.81811],[19.69848,52.81872],[19.7122,52.81753],[19.71382,52.81756],[19.71512,52.81779],[19.71683,52.81746],[19.71994,52.81625],[19.7235,52.81567],[19.72991,52.81347],[19.73827,52.81325]]}},{"type":"Feature","properties":{"numer":"3742W","klasa":"","kat":"powiatowa"},"geometry":{"type":"LineString","coordinates":[[19.71873,52.84273],[19.71844,52.84227],[19.71792,52.84184],[19.71745,52.84179],[19.71504,52.84189],[19.71477,52.84183],[19.71425,52.84061],[19.71377,52.84003],[19.71384,52.83892],[19.71451,52.83433],[19.71505,52.83148],[19.71531,52.8308],[19.7175,52.82989],[19.72014,52.82842],[19.72173,52.82742],[19.723,52.82652],[19.72367,52.82539],[19.72453,52.82449],[19.72988,52.82141],[19.73075,52.82081],[19.73408,52.81796],[19.73827,52.81325]]}},{"type":"Feature","properties":{"numer":"10","klasa":"droga gĹ‚Ăłwna ruchu przyĹ›pieszonego","kat":"krajowa"},"geometry":{"type":"LineString","coordinates":[[19.73856,52.83644],[19.73908,52.83625]]}},{"type":"Feature","properties":{"numer":"10","klasa":"droga gĹ‚Ăłwna ruchu przyĹ›pieszonego","kat":"krajowa"},"geometry":{"type":"LineString","coordinates":[[19.73531,52.83767],[19.73856,52.83644]]}},{"type":"Feature","properties":{"numer":"3749W","klasa":"","kat":"powiatowa"},"geometry":{"type":"LineString","coordinates":[[19.74904,52.83777],[19.74486,52.83694],[19.74243,52.83681],[19.73907,52.83647],[19.73874,52.83654],[19.73549,52.83771],[19.73531,52.83767]]}},{"type":"Feature","properties":{"numer":"10","klasa":"droga gĹ‚Ăłwna ruchu przyĹ›pieszonego","kat":"krajowa"},"geometry":{"type":"LineString","coordinates":[[19.71922,52.84379],[19.7246,52.84184],[19.73531,52.83767]]}},{"type":"Feature","properties":{"numer":"3729W","klasa":"","kat":"powiatowa"},"geometry":{"type":"LineString","coordinates":[[19.560791101236475,52.82209802936631],[19.560799207920784,52.82211336633662]]}},{"type":"Feature","properties":{"numer":"3729W","klasa":"","kat":"powiatowa"},"geometry":{"type":"LineString","coordinates":[[19.561040584242242,52.8225616132658],[19.56175,52.82334],[19.56196,52.82344]]}},{"type":"Feature","properties":{"numer":"3729W","klasa":"","kat":"powiatowa"},"geometry":{"type":"LineString","coordinates":[[19.56196,52.82344],[19.5621,52.82348]]}},{"type":"Feature","properties":{"numer":"541","klasa":"droga gĹ‚Ăłwna","kat":"wojewodzka"},"geometry":{"type":"LineString","coordinates":[[19.6075712468998,52.80357954578233],[19.60791,52.80494],[19.60885,52.80672],[19.61016,52.80866],[19.61119,52.81001],[19.61189,52.81051],[19.61354,52.81143],[19.61508,52.81322],[19.61564,52.81352],[19.61992,52.81508],[19.62026,52.81531],[19.62112,52.8165],[19.62419,52.82184]]}},{"type":"Feature","properties":{"numer":"3733W","klasa":"","kat":"powiatowa"},"geometry":{"type":"LineString","coordinates":[[19.6198,52.82535],[19.61884,52.82434],[19.62089,52.82321],[19.62419,52.82184]]}},{"type":"Feature","properties":{"numer":"370518W","klasa":"droga lokalna","kat":"powiatowa"},"geometry":{"type":"LineString","coordinates":[[19.6198,52.82535],[19.62096,52.82511],[19.62111,52.82515],[19.62135,52.82543]]}},{"type":"Feature","properties":{"numer":"370518W","klasa":"droga lokalna","kat":"powiatowa"},"geometry":{"type":"LineString","coordinates":[[19.62135,52.82543],[19.62146,52.82556]]}},{"type":"Feature","properties":{"numer":"370518W","klasa":"droga lokalna","kat":"powiatowa"},"geometry":{"type":"LineString","coordinates":[[19.62146,52.82556],[19.62152,52.82563]]}},{"type":"Feature","properties":{"numer":"370518W","klasa":"droga lokalna","kat":"powiatowa"},"geometry":{"type":"LineString","coordinates":[[19.62152,52.82563],[19.62159,52.8257]]}},{"type":"Feature","properties":{"numer":"3733W","klasa":"","kat":"powiatowa"},"geometry":{"type":"LineString","coordinates":[[19.61468,52.82771],[19.61762,52.82629],[19.61939,52.82561],[19.6198,52.82535]]}},{"type":"Feature","properties":{"numer":"370518W","klasa":"droga lokalna","kat":"powiatowa"},"geometry":{"type":"LineString","coordinates":[[19.62159,52.8257],[19.62239,52.82751]]}},{"type":"Feature","properties":{"numer":"3733W","klasa":"","kat":"powiatowa"},"geometry":{"type":"LineString","coordinates":[[19.61468,52.82771],[19.6104,52.82883],[19.60908,52.82905],[19.60559,52.82911],[19.60011,52.82892],[19.59794,52.82896]]}},{"type":"Feature","properties":{"numer":"3735W","klasa":"droga zbiorcza","kat":"powiatowa"},"geometry":{"type":"LineString","coordinates":[[19.64384,52.83167],[19.64277,52.82629],[19.64101,52.81626]]}},{"type":"Feature","properties":{"numer":"560","klasa":"droga gĹ‚Ăłwna","kat":"wojewodzka"},"geometry":{"type":"LineString","coordinates":[[19.68144,52.81641],[19.68001,52.81905],[19.67502,52.8302],[19.67465,52.83191],[19.67476,52.83241]]}},{"type":"Feature","properties":{"numer":"541","klasa":"droga gĹ‚Ăłwna","kat":"wojewodzka"},"geometry":{"type":"LineString","coordinates":[[19.62419,52.82184],[19.62557,52.82333],[19.62622,52.8238],[19.63308,52.82698],[19.63505,52.82842],[19.64356,52.83181]]}},{"type":"Feature","properties":{"numer":"3735W","klasa":"droga zbiorcza","kat":"powiatowa"},"geometry":{"type":"LineString","coordinates":[[19.64384,52.83167],[19.64356,52.83181]]}},{"type":"Feature","properties":{"numer":"3735W","klasa":"droga zbiorcza","kat":"powiatowa"},"geometry":{"type":"LineString","coordinates":[[19.64402,52.83202],[19.64384,52.83167]]}},{"type":"Feature","properties":{"numer":"541","klasa":"droga gĹ‚Ăłwna","kat":"wojewodzka"},"geometry":{"type":"LineString","coordinates":[[19.64356,52.83181],[19.64402,52.83202]]}},{"type":"Feature","properties":{"numer":"560","klasa":"droga gĹ‚Ăłwna","kat":"wojewodzka"},"geometry":{"type":"LineString","coordinates":[[19.67488,52.83261],[19.67476,52.83241]]}},{"type":"Feature","properties":{"numer":"560","klasa":"droga gĹ‚Ăłwna","kat":"wojewodzka"},"geometry":{"type":"LineString","coordinates":[[19.67497,52.83274],[19.67488,52.83261]]}},{"type":"Feature","properties":{"numer":"560","klasa":"droga gĹ‚Ăłwna","kat":"wojewodzka"},"geometry":{"type":"LineString","coordinates":[[19.67497,52.83274],[19.67507,52.83285]]}},{"type":"Feature","properties":{"numer":"560","klasa":"droga gĹ‚Ăłwna","kat":"wojewodzka"},"geometry":{"type":"LineString","coordinates":[[19.67484,52.83285],[19.67497,52.83274]]}},{"type":"Feature","properties":{"numer":"370518W","klasa":"droga lokalna","kat":"powiatowa"},"geometry":{"type":"LineString","coordinates":[[19.62239,52.82751],[19.62283,52.82828],[19.62171,52.8305],[19.62172,52.83113],[19.62146,52.83172]]}},{"type":"Feature","properties":{"numer":"370518W","klasa":"droga lokalna","kat":"powiatowa"},"geometry":{"type":"LineString","coordinates":[[19.62146,52.83172],[19.6214,52.83187]]}},{"type":"Feature","properties":{"numer":"370518W","klasa":"droga lokalna","kat":"powiatowa"},"geometry":{"type":"LineString","coordinates":[[19.6214,52.83187],[19.62088,52.83333],[19.62005,52.84061]]}},{"type":"Feature","properties":{"numer":"370518W","klasa":"droga lokalna","kat":"powiatowa"},"geometry":{"type":"LineString","coordinates":[[19.62005,52.84061],[19.61999,52.84117]]}},{"type":"Feature","properties":{"numer":"3734W","klasa":"","kat":"powiatowa"},"geometry":{"type":"LineString","coordinates":[[19.60656,52.84704],[19.60682,52.84663],[19.60776,52.84597],[19.60816,52.84553],[19.60967,52.8414],[19.60979,52.84114],[19.61007,52.84095],[19.61095,52.84076],[19.61941,52.84123],[19.61999,52.84117]]}},{"type":"Feature","properties":{"numer":"3726W","klasa":"droga zbiorcza","kat":"powiatowa"},"geometry":{"type":"LineString","coordinates":[[19.60252,52.84689],[19.60075,52.84685],[19.5996,52.84696],[19.59895,52.84695],[19.59802,52.8468],[19.5964,52.84636],[19.59181,52.84586],[19.59024,52.84549],[19.58962,52.84527],[19.58806,52.84436],[19.58719,52.84394],[19.5825,52.84219],[19.57823,52.84168]]}},{"type":"Feature","properties":{"numer":"3726W","klasa":"droga zbiorcza","kat":"powiatowa"},"geometry":{"type":"LineString","coordinates":[[19.60252,52.84689],[19.60319,52.8469]]}},{"type":"Feature","properties":{"numer":"3726W","klasa":"droga zbiorcza","kat":"powiatowa"},"geometry":{"type":"LineString","coordinates":[[19.60656,52.84704],[19.60319,52.8469]]}},{"type":"Feature","properties":{"numer":"3726W","klasa":"droga zbiorcza","kat":"powiatowa"},"geometry":{"type":"LineString","coordinates":[[19.623382554063568,52.85650181463132],[19.61726,52.85284],[19.61416,52.85066],[19.61177,52.84919],[19.60742,52.84729],[19.60656,52.84704]]}},{"type":"Feature","properties":{"numer":"3729W","klasa":"","kat":"powiatowa"},"geometry":{"type":"LineString","coordinates":[[19.5621,52.82348],[19.56258,52.82369],[19.56299,52.82494],[19.56318,52.82694],[19.56424,52.82803],[19.56478,52.82902],[19.56518,52.82933],[19.56573,52.8296],[19.56876,52.83258],[19.56958,52.8336],[19.57043,52.83545]]}},{"type":"Feature","properties":{"numer":"3726W","klasa":"droga zbiorcza","kat":"powiatowa"},"geometry":{"type":"LineString","coordinates":[[19.57043,52.83545],[19.56308,52.8335],[19.55543,52.83174],[19.551751462551277,52.830957523818974]]}},{"type":"Feature","properties":{"numer":"3726W","klasa":"droga zbiorcza","kat":"powiatowa"},"geometry":{"type":"LineString","coordinates":[[19.57823,52.84168],[19.57839,52.83867],[19.57816,52.83832],[19.57588,52.83729],[19.57043,52.83545]]}},{"type":"Feature","properties":{"numer":"3724W","klasa":"","kat":"powiatowa"},"geometry":{"type":"LineString","coordinates":[[19.57823,52.84168],[19.57468,52.84182],[19.56544,52.84308],[19.5509,52.84473],[19.55053,52.84488],[19.55037,52.84513],[19.55015,52.84521],[19.54878,52.84551],[19.54485,52.84671],[19.53348,52.8592],[19.52839,52.86461],[19.5281,52.86506]]}},{"type":"Feature","properties":{"numer":"3725W","klasa":"","kat":"powiatowa"},"geometry":{"type":"LineString","coordinates":[[19.5281,52.86506],[19.532,52.86496],[19.53643,52.86474],[19.54253,52.86473],[19.54336,52.86491],[19.54493,52.86553],[19.54571,52.86576],[19.55223,52.86573],[19.55261,52.86569],[19.55534,52.86502],[19.55588,52.86496],[19.5569,52.86561],[19.55767,52.86679],[19.55828,52.86742],[19.5613,52.86875],[19.56299,52.86858],[19.56537,52.86894],[19.56947,52.86914],[19.59486,52.86693],[19.59618,52.86666],[19.60155,52.8646],[19.60271,52.86426],[19.60619,52.86382],[19.60739,52.86347]]}},{"type":"Feature","properties":{"numer":"3724W","klasa":"","kat":"powiatowa"},"geometry":{"type":"LineString","coordinates":[[19.5281,52.86506],[19.52844,52.86619],[19.53172989802638,52.872126317375425]]}},{"type":"Feature","properties":{"numer":"3724W","klasa":"","kat":"powiatowa"},"geometry":{"type":"LineString","coordinates":[[19.531973750382765,52.872566326448236],[19.53207,52.87274],[19.53272,52.87409],[19.53333517372422,52.87637694353965]]}},{"type":"Feature","properties":{"numer":"10","klasa":"droga gĹ‚Ăłwna ruchu przyĹ›pieszonego","kat":"krajowa"},"geometry":{"type":"LineString","coordinates":[[19.6456,52.87005],[19.656381563336165,52.86627943482589]]}},{"type":"Feature","properties":{"numer":"10","klasa":"droga gĹ‚Ăłwna ruchu przyĹ›pieszonego","kat":"krajowa"},"geometry":{"type":"LineString","coordinates":[[19.63187,52.86822],[19.63223,52.86822]]}},{"type":"Feature","properties":{"numer":"10","klasa":"droga gĹ‚Ăłwna ruchu przyĹ›pieszonego","kat":"krajowa"},"geometry":{"type":"LineString","coordinates":[[19.63223,52.86822],[19.63329,52.8683],[19.63451,52.86862],[19.63841,52.8707],[19.63925,52.87099],[19.6401,52.87115],[19.64107,52.87121],[19.64235,52.8711],[19.64343,52.87081],[19.6456,52.87005]]}},{"type":"Feature","properties":{"numer":"560","klasa":"droga gĹ‚Ăłwna","kat":"wojewodzka"},"geometry":{"type":"LineString","coordinates":[[19.65299,52.88888],[19.65389,52.88631],[19.662542177307557,52.86877048780108]]}},{"type":"Feature","properties":{"numer":"560","klasa":"droga gĹ‚Ăłwna","kat":"wojewodzka"},"geometry":{"type":"LineString","coordinates":[[19.6529,52.88915],[19.65299,52.88888]]}},{"type":"Feature","properties":{"numer":"560","klasa":"droga gĹ‚Ăłwna","kat":"wojewodzka"},"geometry":{"type":"LineString","coordinates":[[19.6529,52.88915],[19.65207,52.89141],[19.64898,52.89654],[19.6486,52.89702],[19.64841619885614,52.89717244170699]]}},{"type":"Feature","properties":{"numer":"3709W","klasa":"","kat":"powiatowa"},"geometry":{"type":"LineString","coordinates":[[19.65192,52.89916],[19.651939196454062,52.899193695903406]]}},{"type":"Feature","properties":{"numer":"3725W","klasa":"","kat":"powiatowa"},"geometry":{"type":"LineString","coordinates":[[19.62279,52.85886],[19.623262609713283,52.858669297834986]]}},{"type":"Feature","properties":{"numer":"3725W","klasa":"","kat":"powiatowa"},"geometry":{"type":"LineString","coordinates":[[19.60751,52.86344],[19.61072,52.86249],[19.61092,52.86237],[19.61107,52.86212],[19.61093,52.86145],[19.61103,52.86128],[19.61139,52.86107],[19.6131,52.86052],[19.61583,52.85978],[19.61846,52.8594],[19.6218,52.85912],[19.62279,52.85886]]}},{"type":"Feature","properties":{"numer":"3725W","klasa":"","kat":"powiatowa"},"geometry":{"type":"LineString","coordinates":[[19.60739,52.86347],[19.60751,52.86344]]}},{"type":"Feature","properties":{"numer":"10","klasa":"droga gĹ‚Ăłwna ruchu przyĹ›pieszonego","kat":"krajowa"},"geometry":{"type":"LineString","coordinates":[[19.586261658245682,52.88365414067548],[19.62943,52.86875],[19.63064,52.86838],[19.63187,52.86822]]}},{"type":"Feature","properties":{"numer":"560","klasa":"droga gĹ‚Ăłwna","kat":"wojewodzka"},"geometry":{"type":"LineString","coordinates":[[19.67507,52.83285],[19.67528,52.83303]]}},{"type":"Feature","properties":{"numer":"560","klasa":"droga gĹ‚Ăłwna","kat":"wojewodzka"},"geometry":{"type":"LineString","coordinates":[[19.67466,52.83304],[19.67484,52.83285]]}},{"type":"Feature","properties":{"numer":"560","klasa":"droga gĹ‚Ăłwna","kat":"wojewodzka"},"geometry":{"type":"LineString","coordinates":[[19.67528,52.83303],[19.6762,52.83351],[19.678069616184807,52.83401001363082]]}},{"type":"Feature","properties":{"numer":"541","klasa":"droga gĹ‚Ăłwna","kat":"wojewodzka"},"geometry":{"type":"LineString","coordinates":[[19.64402,52.83202],[19.64560572531748,52.83364758452617]]}},{"type":"Feature","properties":{"numer":"560","klasa":"droga gĹ‚Ăłwna","kat":"wojewodzka"},"geometry":{"type":"LineString","coordinates":[[19.674191694930173,52.83430867640597],[19.67442,52.83345],[19.67466,52.83304]]}},{"type":"Feature","properties":{"numer":"10","klasa":"droga gĹ‚Ăłwna ruchu przyĹ›pieszonego","kat":"krajowa"},"geometry":{"type":"LineString","coordinates":[[19.75604,52.82866],[19.7452,52.8338],[19.73908,52.83625]]}},{"type":"Feature","properties":{"numer":"3749W","klasa":"","kat":"powiatowa"},"geometry":{"type":"LineString","coordinates":[[19.75813,52.83836],[19.75125,52.83835],[19.74904,52.83777]]}},{"type":"Feature","properties":{"numer":"3749W","klasa":"","kat":"powiatowa"},"geometry":{"type":"LineString","coordinates":[[19.76996946772541,52.83877451972336],[19.76482,52.83979],[19.76303,52.83937],[19.75971,52.83845],[19.7591,52.83836],[19.75813,52.83836]]}},{"type":"Feature","properties":{"numer":"3742W","klasa":"","kat":"powiatowa"},"geometry":{"type":"LineString","coordinates":[[19.71613,52.84491],[19.72019,52.84928],[19.73037,52.85687],[19.73069,52.85698],[19.73131,52.85703],[19.7358,52.85412],[19.73657,52.85387],[19.73731,52.85379],[19.75462,52.85498],[19.76906,52.85659],[19.77654158926859,52.857517824332234]]}},{"type":"Feature","properties":{"numer":"3742W","klasa":"","kat":"powiatowa"},"geometry":{"type":"LineString","coordinates":[[19.7188,52.84289],[19.71873,52.84273]]}},{"type":"Feature","properties":{"numer":"3742W","klasa":"","kat":"powiatowa"},"geometry":{"type":"LineString","coordinates":[[19.71922,52.84379],[19.7188,52.84289]]}},{"type":"Feature","properties":{"numer":"10","klasa":"droga gĹ‚Ăłwna ruchu przyĹ›pieszonego","kat":"krajowa"},"geometry":{"type":"LineString","coordinates":[[19.71613,52.84491],[19.71922,52.84379]]}},{"type":"Feature","properties":{"numer":"10","klasa":"droga gĹ‚Ăłwna ruchu przyĹ›pieszonego","kat":"krajowa"},"geometry":{"type":"LineString","coordinates":[[19.69696,52.85177],[19.70403,52.85051],[19.70555,52.85013],[19.70694,52.84955],[19.71366,52.84596],[19.71497,52.84535],[19.71613,52.84491]]}},{"type":"Feature","properties":{"numer":"560","klasa":"droga gĹ‚Ăłwna","kat":"wojewodzka"},"geometry":{"type":"LineString","coordinates":[[19.695940569318257,52.85139013203477],[19.69614,52.85177]]}},{"type":"Feature","properties":{"numer":"10","klasa":"droga gĹ‚Ăłwna ruchu przyĹ›pieszonego","kat":"krajowa"},"geometry":{"type":"LineString","coordinates":[[19.69645,52.85187],[19.69696,52.85177]]}},{"type":"Feature","properties":{"numer":"10","klasa":"droga gĹ‚Ăłwna ruchu przyĹ›pieszonego","kat":"krajowa"},"geometry":{"type":"LineString","coordinates":[[19.69614,52.85177],[19.69621,52.85192]]}},{"type":"Feature","properties":{"numer":"10","klasa":"droga gĹ‚Ăłwna ruchu przyĹ›pieszonego","kat":"krajowa"},"geometry":{"type":"LineString","coordinates":[[19.69621,52.85192],[19.69645,52.85187]]}},{"type":"Feature","properties":{"numer":"10","klasa":"droga gĹ‚Ăłwna ruchu przyĹ›pieszonego","kat":"krajowa"},"geometry":{"type":"LineString","coordinates":[[19.69597,52.85196],[19.69621,52.85192]]}},{"type":"Feature","properties":{"numer":"10","klasa":"droga gĹ‚Ăłwna ruchu przyĹ›pieszonego","kat":"krajowa"},"geometry":{"type":"LineString","coordinates":[[19.69549,52.85202],[19.69597,52.85196]]}},{"type":"Feature","properties":{"numer":"10","klasa":"droga gĹ‚Ăłwna ruchu przyĹ›pieszonego","kat":"krajowa"},"geometry":{"type":"LineString","coordinates":[[19.69326678950938,52.852334790865925],[19.69549,52.85202]]}},{"type":"Feature","properties":{"numer":"3736W","klasa":"","kat":"powiatowa"},"geometry":{"type":"LineString","coordinates":[[19.703908522348463,52.87266030546296],[19.70538,52.87302],[19.70812,52.8741],[19.71066,52.87564],[19.71515,52.87382],[19.71668,52.87284],[19.7182,52.87256],[19.72038,52.87155],[19.724268330597095,52.874067694061615]]}}]}