{"type":"FeatureCollection","features":[{"type":"Feature","properties":{"numer":"3805W","klasa":"droga gĹ‚Ăłwna","kat":"powiatowa"},"geometry":{"type":"LineString","coordinates":[[20.3096,52.28707],[20.31548043521761,52.28415195597799]]}},{"type":"Feature","properties":{"numer":"3802W","klasa":"droga zbiorcza","kat":"powiatowa"},"geometry":{"type":"LineString","coordinates":[[20.32091,52.30378],[20.32087,52.30373]]}},{"type":"Feature","properties":{"numer":"3802W","klasa":"droga zbiorcza","kat":"powiatowa"},"geometry":{"type":"LineString","coordinates":[[20.32313,52.30695],[20.32296,52.30688],[20.32091,52.30378]]}},{"type":"Feature","properties":{"numer":"3801W","klasa":"droga zbiorcza","kat":"powiatowa"},"geometry":{"type":"LineString","coordinates":[[20.31428,52.31654],[20.31864,52.31496],[20.31913,52.3147],[20.3196,52.31429],[20.32313,52.30695]]}},{"type":"Feature","properties":{"numer":"3802W","klasa":"droga zbiorcza","kat":"powiatowa"},"geometry":{"type":"LineString","coordinates":[[20.35429,52.32228],[20.35407,52.31101],[20.35387,52.31095],[20.35078,52.31097],[20.34568,52.31043],[20.34224,52.31039],[20.3414,52.31032],[20.32849,52.30689],[20.32538,52.30653],[20.32313,52.30695]]}},{"type":"Feature","properties":{"numer":"3802W","klasa":"droga zbiorcza","kat":"powiatowa"},"geometry":{"type":"LineString","coordinates":[[20.35429,52.32228],[20.35429,52.32241]]}},{"type":"Feature","properties":{"numer":"3802W","klasa":"droga zbiorcza","kat":"powiatowa"},"geometry":{"type":"LineString","coordinates":[[20.29703,52.35103],[20.30328,52.34939],[20.30498,52.34888],[20.31259,52.34617],[20.31822,52.34436],[20.32076,52.34299],[20.32133,52.34276],[20.33105,52.34018],[20.33585,52.33947],[20.33724,52.33906],[20.33791,52.33894],[20.34102,52.33863],[20.34395,52.3385],[20.34491,52.33853],[20.34848,52.33881],[20.35022,52.3392],[20.35077,52.33918],[20.35165,52.33898],[20.3517,52.33835],[20.35218,52.33729],[20.3546,52.33556],[20.35477,52.3353],[20.35429,52.32241]]}},{"type":"Feature","properties":{"numer":"575","klasa":"droga gĹ‚Ăłwna","kat":"wojewodzka"},"geometry":{"type":"LineString","coordinates":[[20.30879,52.37493],[20.3151,52.37654],[20.31996,52.3781],[20.32158,52.37836],[20.32286,52.37841],[20.33859,52.37773],[20.3513,52.37728],[20.35233,52.37719],[20.35344,52.37699],[20.35969,52.37553],[20.3608,52.37538],[20.38308,52.37455],[20.38469,52.37429],[20.39771,52.37084],[20.3997,52.37047],[20.40151,52.37041],[20.4099,52.37051],[20.41085,52.3706],[20.4121,52.37092]]}},{"type":"Feature","properties":{"numer":"575","klasa":"droga gĹ‚Ăłwna","kat":"wojewodzka"},"geometry":{"type":"LineString","coordinates":[[20.41226940135018,52.370937489558436],[20.41221,52.37091]]}},{"type":"Feature","properties":{"numer":"705","klasa":"droga zbiorcza","kat":"wojewodzka"},"geometry":{"type":"LineString","coordinates":[[20.28167,52.2841],[20.28181,52.28331],[20.28211,52.28275],[20.284721876715242,52.27953113785094]]}},{"type":"Feature","properties":{"numer":"3803W","klasa":"droga zbiorcza","kat":"powiatowa"},"geometry":{"type":"LineString","coordinates":[[20.28167,52.2841],[20.28322,52.2839],[20.3026,52.28021]]}},{"type":"Feature","properties":{"numer":"3802W","klasa":"droga zbiorcza","kat":"powiatowa"},"geometry":{"type":"LineString","coordinates":[[20.3096,52.28707],[20.30805,52.28573],[20.30473,52.28249],[20.30441,52.28231],[20.30365,52.28212],[20.30334,52.28194],[20.3026,52.28021]]}},{"type":"Feature","properties":{"numer":"705","klasa":"droga zbiorcza","kat":"wojewodzka"},"geometry":{"type":"LineString","coordinates":[[20.28167,52.2841],[20.28118,52.28693],[20.28212,52.28963],[20.28225,52.29115],[20.27964,52.29924],[20.27998,52.2998],[20.28272,52.30156],[20.28316,52.30204]]}},{"type":"Feature","properties":{"numer":"3805W","klasa":"droga gĹ‚Ăłwna","kat":"powiatowa"},"geometry":{"type":"LineString","coordinates":[[20.28316,52.30204],[20.28403,52.30153],[20.28455,52.3009],[20.28508,52.30054],[20.29767,52.29308],[20.30305,52.2903],[20.3096,52.28707]]}},{"type":"Feature","properties":{"numer":"3802W","klasa":"droga zbiorcza","kat":"powiatowa"},"geometry":{"type":"LineString","coordinates":[[20.32087,52.30373],[20.31,52.28746],[20.3096,52.28707]]}},{"type":"Feature","properties":{"numer":"705","klasa":"droga zbiorcza","kat":"wojewodzka"},"geometry":{"type":"LineString","coordinates":[[20.28316,52.30204],[20.28334,52.30257],[20.28442,52.32048],[20.28424,52.32142],[20.28334,52.32304]]}},{"type":"Feature","properties":{"numer":"3805W","klasa":"droga gĹ‚Ăłwna","kat":"powiatowa"},"geometry":{"type":"LineString","coordinates":[[20.28236,52.32455],[20.26201,52.32231],[20.26181,52.32224],[20.26174,52.32211],[20.26274,52.31721],[20.26323,52.31589],[20.26348,52.31547],[20.26456,52.31532],[20.26799,52.31522],[20.26843,52.31508],[20.27024,52.31323],[20.28316,52.30204]]}},{"type":"Feature","properties":{"numer":"3801W","klasa":"droga zbiorcza","kat":"powiatowa"},"geometry":{"type":"LineString","coordinates":[[20.31417,52.31658],[20.31428,52.31654]]}},{"type":"Feature","properties":{"numer":"3801W","klasa":"droga zbiorcza","kat":"powiatowa"},"geometry":{"type":"LineString","coordinates":[[20.28334,52.32304],[20.28463,52.32306],[20.28933,52.32228],[20.29449,52.32169],[20.29686,52.32183],[20.29769,52.32178],[20.29895,52.32156],[20.3007,52.32114],[20.30615,52.31934],[20.30882,52.31837],[20.31178,52.31774],[20.31301,52.31701],[20.31417,52.31658]]}},{"type":"Feature","properties":{"numer":"705","klasa":"droga zbiorcza","kat":"wojewodzka"},"geometry":{"type":"LineString","coordinates":[[20.28334,52.32304],[20.28236,52.32455]]}},{"type":"Feature","properties":{"numer":"705","klasa":"droga zbiorcza","kat":"wojewodzka"},"geometry":{"type":"LineString","coordinates":[[20.28226,52.34595],[20.28159,52.34193],[20.28241,52.34092],[20.28249,52.34007],[20.28199,52.33824],[20.27881,52.33143],[20.27864,52.33079],[20.27883,52.33013],[20.28236,52.32455]]}},{"type":"Feature","properties":{"numer":"705","klasa":"droga zbiorcza","kat":"wojewodzka"},"geometry":{"type":"LineString","coordinates":[[20.28233,52.34609],[20.28226,52.34595]]}},{"type":"Feature","properties":{"numer":"705","klasa":"droga zbiorcza","kat":"wojewodzka"},"geometry":{"type":"LineString","coordinates":[[20.29703,52.35103],[20.2963,52.35052],[20.29551,52.35033],[20.2912,52.34982],[20.28797,52.34976],[20.28708,52.34959],[20.28625,52.34921],[20.28403,52.34759],[20.2828,52.34667],[20.28233,52.34609]]}},{"type":"Feature","properties":{"numer":"705","klasa":"droga zbiorcza","kat":"wojewodzka"},"geometry":{"type":"LineString","coordinates":[[20.30839,52.3689],[20.30732,52.36505],[20.30708,52.35879],[20.30665,52.35774],[20.30565,52.35669],[20.30393,52.35559],[20.3025,52.35448],[20.30153,52.35394],[20.29883,52.35279],[20.29823,52.35246],[20.29703,52.35103]]}},{"type":"Feature","properties":{"numer":"705","klasa":"droga zbiorcza","kat":"wojewodzka"},"geometry":{"type":"LineString","coordinates":[[20.3084,52.36895],[20.30839,52.3689]]}},{"type":"Feature","properties":{"numer":"705","klasa":"droga zbiorcza","kat":"wojewodzka"},"geometry":{"type":"LineString","coordinates":[[20.30879,52.37493],[20.3084,52.36895]]}},{"type":"Feature","properties":{"numer":"575","klasa":"droga gĹ‚Ăłwna","kat":"wojewodzka"},"geometry":{"type":"LineString","coordinates":[[20.220023141272364,52.37513068579859],[20.22444,52.37446],[20.22554,52.37438],[20.22672,52.37445],[20.22746,52.37463],[20.22833,52.37495],[20.23435,52.37799],[20.23554,52.37833],[20.23656,52.37847],[20.26011,52.37948],[20.27194,52.3799],[20.27276,52.37987],[20.2733,52.37975],[20.27532,52.37879],[20.27608,52.37862],[20.29528,52.37569],[20.30669,52.37467],[20.30764,52.3747],[20.30879,52.37493]]}}]}