{"type":"FeatureCollection","features":[{"type":"Feature","properties":{"numer":"63","klasa":"droga gĹ‚Ăłwna","kat":"krajowa"},"geometry":{"type":"LineString","coordinates":[[22.236044437622468,52.30311764013888],[22.23586,52.31995]]}},{"type":"Feature","properties":{"numer":"3937W","klasa":"droga zbiorcza","kat":"powiatowa"},"geometry":{"type":"LineString","coordinates":[[22.18138,52.30393],[22.18414,52.30411],[22.18499,52.30467],[22.18805,52.30498],[22.18935,52.3054],[22.18967,52.30543],[22.19301,52.30463],[22.19612,52.30365],[22.1976,52.30335],[22.19803,52.30333],[22.19996,52.30373],[22.2045,52.30543],[22.20957,52.30756],[22.21386,52.30908],[22.2188,52.31102],[22.21925,52.31129],[22.22064,52.31254],[22.22118,52.31282],[22.22365,52.31367],[22.23104,52.31586],[22.23204,52.31603],[22.23347,52.31613],[22.23356,52.31617],[22.23316,52.31871],[22.2332,52.31947]]}},{"type":"Feature","properties":{"numer":"3929W","klasa":"","kat":"powiatowa"},"geometry":{"type":"LineString","coordinates":[[22.34131,52.34487],[22.34167,52.34456],[22.34332,52.34408],[22.349750371544452,52.3399091192443]]}},{"type":"Feature","properties":{"numer":"3937W","klasa":"droga zbiorcza","kat":"powiatowa"},"geometry":{"type":"LineString","coordinates":[[22.17137151441299,52.30417151201582],[22.17469,52.30309],[22.17735,52.30315],[22.18138,52.30393]]}},{"type":"Feature","properties":{"numer":"3938W","klasa":"droga zbiorcza","kat":"powiatowa"},"geometry":{"type":"LineString","coordinates":[[22.110407328397898,52.318336485301515],[22.1114,52.31864],[22.1145,52.31897],[22.11537,52.31924],[22.11679,52.31988],[22.11736,52.32042],[22.11831,52.32094],[22.1196,52.32263],[22.12185,52.32246],[22.124,52.32258],[22.12494,52.3227],[22.12676,52.32319],[22.12727,52.32325],[22.13004,52.32311],[22.13225,52.32231],[22.13984,52.32239],[22.1428,52.32249],[22.15257,52.32409],[22.1545,52.32427],[22.15877,52.32517],[22.15928,52.32529],[22.15992,52.32561],[22.17608,52.3344]]}},{"type":"Feature","properties":{"numer":"3928W","klasa":"droga zbiorcza","kat":"powiatowa"},"geometry":{"type":"LineString","coordinates":[[22.18267,52.33418],[22.18273,52.33432]]}},{"type":"Feature","properties":{"numer":"4229W","klasa":"droga zbiorcza","kat":"powiatowa"},"geometry":{"type":"LineString","coordinates":[[22.17608,52.3344],[22.17828,52.33438],[22.1796,52.33452],[22.18054,52.33455],[22.18131,52.33448],[22.18267,52.33418]]}},{"type":"Feature","properties":{"numer":"3928W","klasa":"droga zbiorcza","kat":"powiatowa"},"geometry":{"type":"LineString","coordinates":[[22.18273,52.33432],[22.18776,52.33516],[22.18869,52.33548],[22.18986,52.33619],[22.19056,52.33632],[22.19119,52.33629],[22.19234,52.33603],[22.19631,52.33548],[22.19895,52.33483],[22.20027,52.33438],[22.20118,52.33417],[22.20223,52.3342],[22.20283,52.33411]]}},{"type":"Feature","properties":{"numer":"4229W","klasa":"droga zbiorcza","kat":"powiatowa"},"geometry":{"type":"LineString","coordinates":[[22.13085,52.34503],[22.13187,52.34452],[22.13401,52.3443],[22.13424,52.344],[22.13492,52.34379],[22.13647,52.3441],[22.13826,52.34426],[22.14624,52.34317],[22.15421,52.34105],[22.1557,52.3409],[22.15718,52.34004],[22.15877,52.33954],[22.16133,52.33917],[22.16199,52.33876],[22.16355,52.33738],[22.16475,52.33693],[22.16532,52.33663],[22.16616,52.33617],[22.16681,52.33555],[22.16722,52.33535],[22.17203,52.33445],[22.17334,52.33439],[22.17608,52.3344]]}},{"type":"Feature","properties":{"numer":"4228W","klasa":"droga zbiorcza","kat":"powiatowa"},"geometry":{"type":"LineString","coordinates":[[22.13085,52.34503],[22.13171,52.34579],[22.13462,52.34739],[22.13859,52.3488],[22.13967,52.34933],[22.141287513050226,52.35042110347767]]}},{"type":"Feature","properties":{"numer":"4228W","klasa":"droga zbiorcza","kat":"powiatowa"},"geometry":{"type":"LineString","coordinates":[[22.09010896985772,52.332927801356576],[22.11861,52.33815],[22.12458,52.33917],[22.12501,52.33933],[22.12589,52.34015],[22.12775,52.34115],[22.12872,52.3419],[22.12957,52.34276],[22.13085,52.34503]]}},{"type":"Feature","properties":{"numer":"4229W","klasa":"droga zbiorcza","kat":"powiatowa"},"geometry":{"type":"LineString","coordinates":[[22.119035324278748,52.35027537395743],[22.12074,52.34918],[22.13085,52.34503]]}},{"type":"Feature","properties":{"numer":"3937W","klasa":"droga zbiorcza","kat":"powiatowa"},"geometry":{"type":"LineString","coordinates":[[22.2332,52.31947],[22.23434,52.31982],[22.23586,52.31995]]}},{"type":"Feature","properties":{"numer":"4229W","klasa":"droga zbiorcza","kat":"powiatowa"},"geometry":{"type":"LineString","coordinates":[[22.18267,52.33418],[22.18924,52.33269],[22.19377,52.33146],[22.19749,52.32983],[22.21008,52.32785],[22.2138,52.32696],[22.21773,52.32572],[22.22373,52.32298],[22.22759,52.32057],[22.23013,52.31996],[22.2332,52.31947]]}},{"type":"Feature","properties":{"numer":"63","klasa":"droga gĹ‚Ăłwna","kat":"krajowa"},"geometry":{"type":"LineString","coordinates":[[22.23586,52.31995],[22.23619,52.32104],[22.24313,52.33654]]}},{"type":"Feature","properties":{"numer":"3928W","klasa":"droga zbiorcza","kat":"powiatowa"},"geometry":{"type":"LineString","coordinates":[[22.20283,52.33411],[22.20578,52.33353],[22.20676,52.33367],[22.21455,52.33681],[22.21507,52.3369],[22.21699,52.33703],[22.22241,52.33729],[22.22673,52.33642],[22.22976,52.33593],[22.2306,52.33603],[22.23328,52.33683],[22.24313,52.33654]]}},{"type":"Feature","properties":{"numer":"63","klasa":"droga gĹ‚Ăłwna","kat":"krajowa"},"geometry":{"type":"LineString","coordinates":[[22.24313,52.33654],[22.24543,52.34171]]}},{"type":"Feature","properties":{"numer":"3928W","klasa":"droga zbiorcza","kat":"powiatowa"},"geometry":{"type":"LineString","coordinates":[[22.24543,52.34171],[22.24694,52.34167]]}},{"type":"Feature","properties":{"numer":"3928W","klasa":"droga zbiorcza","kat":"powiatowa"},"geometry":{"type":"LineString","coordinates":[[22.24694,52.34167],[22.24937,52.34215],[22.25055,52.34221]]}},{"type":"Feature","properties":{"numer":"3928W","klasa":"droga zbiorcza","kat":"powiatowa"},"geometry":{"type":"LineString","coordinates":[[22.25055,52.34221],[22.25063,52.34222]]}},{"type":"Feature","properties":{"numer":"63","klasa":"droga gĹ‚Ăłwna","kat":"krajowa"},"geometry":{"type":"LineString","coordinates":[[22.24543,52.34171],[22.24713,52.34553],[22.24865,52.34784],[22.24886,52.3485],[22.24872,52.34916],[22.24707,52.35264],[22.24694,52.35319],[22.24701,52.35393],[22.2475,52.35574],[22.24821,52.35755],[22.24834,52.35841],[22.24744,52.36395],[22.24649,52.36792],[22.24637,52.3689],[22.24652,52.36936],[22.24694,52.3699],[22.25166,52.37301],[22.25244,52.37384],[22.25276,52.37446],[22.2529,52.37515],[22.25308,52.3779],[22.25297239268164,52.381186914451675]]}},{"type":"Feature","properties":{"numer":"3939W","klasa":"","kat":"powiatowa"},"geometry":{"type":"LineString","coordinates":[[22.26787,52.33093],[22.28457,52.32508],[22.28716,52.32445],[22.28969,52.32406],[22.29027,52.32355],[22.291,52.32198],[22.29175,52.32096],[22.29219,52.32058],[22.29417,52.31926],[22.29481,52.31887],[22.29535,52.31869],[22.29595,52.31864],[22.32114,52.31893],[22.32247,52.31907],[22.32532,52.31983]]}},{"type":"Feature","properties":{"numer":"3939W","klasa":"","kat":"powiatowa"},"geometry":{"type":"LineString","coordinates":[[22.26783,52.33095],[22.26787,52.33093]]}},{"type":"Feature","properties":{"numer":"3939W","klasa":"","kat":"powiatowa"},"geometry":{"type":"LineString","coordinates":[[22.26041,52.33339],[22.261,52.33338],[22.26136,52.33329],[22.26783,52.33095]]}},{"type":"Feature","properties":{"numer":"3939W","klasa":"","kat":"powiatowa"},"geometry":{"type":"LineString","coordinates":[[22.26028,52.33339],[22.26041,52.33339]]}},{"type":"Feature","properties":{"numer":"3939W","klasa":"","kat":"powiatowa"},"geometry":{"type":"LineString","coordinates":[[22.26028,52.33339],[22.25915,52.33341],[22.25817,52.33381],[22.2571,52.33512],[22.24846,52.33986],[22.2471,52.34159],[22.24694,52.34167]]}},{"type":"Feature","properties":{"numer":"3928W","klasa":"droga zbiorcza","kat":"powiatowa"},"geometry":{"type":"LineString","coordinates":[[22.25063,52.34222],[22.25242,52.34252],[22.2581,52.34405],[22.26165,52.3448],[22.2638,52.34539],[22.26548,52.34556],[22.26703,52.34607],[22.26722,52.34626],[22.2671,52.34641],[22.26542,52.34805],[22.26494,52.34868],[22.26483,52.34912],[22.26509,52.34957],[22.26654,52.35013],[22.27113,52.35139],[22.27193,52.35152],[22.27345,52.35149],[22.27567,52.35202],[22.27758,52.3523],[22.28236,52.35394],[22.28318,52.35446],[22.28366,52.35496],[22.28438,52.35636],[22.28482,52.35685],[22.28514,52.35757]]}},{"type":"Feature","properties":{"numer":"3940W","klasa":"droga zbiorcza","kat":"powiatowa"},"geometry":{"type":"LineString","coordinates":[[22.329317100256375,52.301742489542576],[22.32893,52.30209],[22.32402,52.30874],[22.32373,52.30932],[22.32407,52.31031],[22.32713,52.31719]]}},{"type":"Feature","properties":{"numer":"3940W","klasa":"droga zbiorcza","kat":"powiatowa"},"geometry":{"type":"LineString","coordinates":[[22.32532,52.31983],[22.32701,52.31757],[22.32713,52.31719]]}},{"type":"Feature","properties":{"numer":"3939W","klasa":"","kat":"powiatowa"},"geometry":{"type":"LineString","coordinates":[[22.32532,52.31983],[22.33151,52.32156],[22.33197,52.32177],[22.33141,52.32278],[22.33781,52.34032],[22.33823,52.34104],[22.34036,52.34383],[22.34102,52.34467],[22.34131,52.34487]]}},{"type":"Feature","properties":{"numer":"3929W","klasa":"","kat":"powiatowa"},"geometry":{"type":"LineString","coordinates":[[22.34085,52.34653],[22.34161,52.34601],[22.34131,52.34487]]}},{"type":"Feature","properties":{"numer":"3930W","klasa":"","kat":"powiatowa"},"geometry":{"type":"LineString","coordinates":[[22.34085,52.34653],[22.34111,52.34664],[22.34274,52.34693],[22.34402,52.34736],[22.34516,52.34804]]}},{"type":"Feature","properties":{"numer":"3928W","klasa":"droga zbiorcza","kat":"powiatowa"},"geometry":{"type":"LineString","coordinates":[[22.28514,52.35757],[22.28517,52.35762]]}},{"type":"Feature","properties":{"numer":"3928W","klasa":"droga zbiorcza","kat":"powiatowa"},"geometry":{"type":"LineString","coordinates":[[22.28517,52.35762],[22.28601,52.359],[22.28615,52.35951],[22.28612,52.36046],[22.28774,52.36383],[22.28895,52.36758],[22.28909,52.36775],[22.28939,52.36784],[22.29093,52.3679],[22.29122,52.36807],[22.28929,52.37163],[22.289,52.37348]]}},{"type":"Feature","properties":{"numer":"3928W,3929W","klasa":"droga zbiorcza","kat":"powiatowa"},"geometry":{"type":"LineString","coordinates":[[22.289,52.37348],[22.291,52.37269]]}},{"type":"Feature","properties":{"numer":"3928W","klasa":"droga zbiorcza","kat":"powiatowa"},"geometry":{"type":"LineString","coordinates":[[22.291,52.37269],[22.29589,52.3755],[22.295913090468105,52.37552907688576]]}},{"type":"Feature","properties":{"numer":"3929W","klasa":"","kat":"powiatowa"},"geometry":{"type":"LineString","coordinates":[[22.28450980347575,52.38050865299828],[22.28685,52.3778],[22.28818,52.37436],[22.289,52.37348]]}},{"type":"Feature","properties":{"numer":"3929W","klasa":"","kat":"powiatowa"},"geometry":{"type":"LineString","coordinates":[[22.32239,52.35469],[22.32316,52.35432],[22.32378,52.35416],[22.32691,52.35379],[22.32736,52.35364],[22.33924,52.34716],[22.33999,52.34678],[22.34085,52.34653]]}},{"type":"Feature","properties":{"numer":"3930W","klasa":"","kat":"powiatowa"},"geometry":{"type":"LineString","coordinates":[[22.34516299155609,52.348041109770804],[22.34516,52.34804]]}},{"type":"Feature","properties":{"numer":"3929W","klasa":"","kat":"powiatowa"},"geometry":{"type":"LineString","coordinates":[[22.32234,52.35472],[22.32239,52.35469]]}},{"type":"Feature","properties":{"numer":"3929W","klasa":"","kat":"powiatowa"},"geometry":{"type":"LineString","coordinates":[[22.291,52.37269],[22.30485,52.3637],[22.31319,52.35932],[22.32234,52.35472]]}}]}