{"type":"FeatureCollection","features":[{"type":"Feature","properties":{"numer":"4132W","klasa":"droga gĹ‚Ăłwna","kat":"powiatowa"},"geometry":{"type":"LineString","coordinates":[[20.4516848706909,52.23952426907851],[20.4517,52.23956]]}},{"type":"Feature","properties":{"numer":"4132W","klasa":"droga gĹ‚Ăłwna","kat":"powiatowa"},"geometry":{"type":"LineString","coordinates":[[20.45176,52.23968],[20.4517,52.23956]]}},{"type":"Feature","properties":{"numer":"4132W","klasa":"droga zbiorcza","kat":"powiatowa"},"geometry":{"type":"LineString","coordinates":[[20.45178,52.23971],[20.45176,52.23968]]}},{"type":"Feature","properties":{"numer":"4132W","klasa":"droga zbiorcza","kat":"powiatowa"},"geometry":{"type":"LineString","coordinates":[[20.45287,52.24219],[20.45178,52.23971]]}},{"type":"Feature","properties":{"numer":"4131W","klasa":"droga zbiorcza","kat":"powiatowa"},"geometry":{"type":"LineString","coordinates":[[20.39594,52.26919],[20.39591,52.25816],[20.39929,52.25161],[20.39976,52.25129],[20.41183,52.24626]]}},{"type":"Feature","properties":{"numer":"580","klasa":"droga gĹ‚Ăłwna","kat":"wojewodzka"},"geometry":{"type":"LineString","coordinates":[[20.38219,52.26616],[20.39594,52.26919]]}},{"type":"Feature","properties":{"numer":"580","klasa":"droga gĹ‚Ăłwna","kat":"wojewodzka"},"geometry":{"type":"LineString","coordinates":[[20.39594,52.26919],[20.39952,52.26993],[20.40082,52.27007],[20.40244,52.27011],[20.41271,52.26964],[20.41964,52.26965],[20.42268,52.26977],[20.42791,52.26981],[20.43486,52.26957],[20.44153,52.26946],[20.45912,52.26848]]}},{"type":"Feature","properties":{"numer":"4133W","klasa":"droga zbiorcza","kat":"powiatowa"},"geometry":{"type":"LineString","coordinates":[[20.34817,52.25204],[20.34734,52.25006],[20.35266,52.24965],[20.35526,52.24929],[20.35624,52.24782],[20.35418,52.24474],[20.35381,52.24352],[20.3532,52.2424],[20.352853704729746,52.237992155917205]]}},{"type":"Feature","properties":{"numer":"4133W","klasa":"droga zbiorcza","kat":"powiatowa"},"geometry":{"type":"LineString","coordinates":[[20.34827,52.25228],[20.34817,52.25204]]}},{"type":"Feature","properties":{"numer":"4133W","klasa":"droga zbiorcza","kat":"powiatowa"},"geometry":{"type":"LineString","coordinates":[[20.3472,52.25955],[20.34914,52.25456],[20.34941,52.25362],[20.34934,52.25322],[20.34849,52.25261],[20.34827,52.25228]]}},{"type":"Feature","properties":{"numer":"580","klasa":"droga gĹ‚Ăłwna","kat":"wojewodzka"},"geometry":{"type":"LineString","coordinates":[[20.33607663939848,52.258252752404076],[20.3472,52.25955]]}},{"type":"Feature","properties":{"numer":"580","klasa":"droga gĹ‚Ăłwna","kat":"wojewodzka"},"geometry":{"type":"LineString","coordinates":[[20.3472,52.25955],[20.35723,52.2607],[20.35861,52.26092],[20.35946,52.26119],[20.3671,52.26446],[20.36865,52.26491],[20.37185,52.26528],[20.38069,52.26597],[20.38219,52.26616]]}},{"type":"Feature","properties":{"numer":"3805W","klasa":"droga zbiorcza","kat":"powiatowa"},"geometry":{"type":"LineString","coordinates":[[20.33838892222399,52.273625967919735],[20.34532,52.27293],[20.36186,52.26897],[20.36946,52.26723],[20.38182,52.26632],[20.38219,52.26616]]}},{"type":"Feature","properties":{"numer":"4114W","klasa":"droga zbiorcza","kat":"powiatowa"},"geometry":{"type":"LineString","coordinates":[[20.46970608680846,52.24216504410647],[20.46401,52.24187],[20.46125,52.24195],[20.45938,52.24191],[20.45287,52.24219]]}},{"type":"Feature","properties":{"numer":"580","klasa":"droga gĹ‚Ăłwna","kat":"wojewodzka"},"geometry":{"type":"LineString","coordinates":[[20.46325,52.26816],[20.46581,52.26778],[20.47292,52.2663],[20.48341,52.26377],[20.48453,52.26361],[20.48902,52.26322],[20.49974,52.26128],[20.521305038261897,52.25931593487771]]}},{"type":"Feature","properties":{"numer":"4134W","klasa":"droga zbiorcza","kat":"powiatowa"},"geometry":{"type":"LineString","coordinates":[[20.49313,52.29496],[20.49239,52.29474],[20.4919,52.29446],[20.49005,52.29318],[20.4886,52.29196],[20.48787,52.29156],[20.48495,52.29088],[20.48142,52.29033],[20.48112,52.29022],[20.47559,52.28393],[20.46974,52.27811]]}},{"type":"Feature","properties":{"numer":"4134W","klasa":"droga zbiorcza","kat":"powiatowa"},"geometry":{"type":"LineString","coordinates":[[20.49313,52.29496],[20.4932,52.29505]]}},{"type":"Feature","properties":{"numer":"4134W","klasa":"","kat":"powiatowa"},"geometry":{"type":"LineString","coordinates":[[20.4932,52.29505],[20.49322608216943,52.29505886124987]]}},{"type":"Feature","properties":{"numer":"4131W","klasa":"droga zbiorcza","kat":"powiatowa"},"geometry":{"type":"LineString","coordinates":[[20.41183,52.24626],[20.41427,52.24573],[20.41588,52.24524],[20.41914,52.24498],[20.42491,52.24368],[20.42852,52.24299],[20.44625,52.24252],[20.45287,52.24219]]}},{"type":"Feature","properties":{"numer":"4132W","klasa":"droga zbiorcza","kat":"powiatowa"},"geometry":{"type":"LineString","coordinates":[[20.46325,52.26816],[20.45809,52.2591],[20.45805,52.25605],[20.45287,52.24219]]}},{"type":"Feature","properties":{"numer":"580","klasa":"droga gĹ‚Ăłwna","kat":"wojewodzka"},"geometry":{"type":"LineString","coordinates":[[20.45912,52.26848],[20.462,52.26832],[20.46325,52.26816]]}},{"type":"Feature","properties":{"numer":"4134W","klasa":"droga zbiorcza","kat":"powiatowa"},"geometry":{"type":"LineString","coordinates":[[20.46966,52.27803],[20.46562,52.27393],[20.46488,52.27307],[20.46292,52.27136],[20.46231,52.27121],[20.46051,52.27143],[20.4602,52.27132],[20.45993,52.27095],[20.45912,52.26848]]}},{"type":"Feature","properties":{"numer":"4134W","klasa":"droga zbiorcza","kat":"powiatowa"},"geometry":{"type":"LineString","coordinates":[[20.46974,52.27811],[20.46966,52.27803]]}},{"type":"Feature","properties":{"numer":"3805W","klasa":"droga gĹ‚Ăłwna","kat":"powiatowa"},"geometry":{"type":"LineString","coordinates":[[20.31548043521761,52.28415195597799],[20.31623,52.28378],[20.31961,52.28278],[20.32360078641414,52.28194030964589]]}},{"type":"Feature","properties":{"numer":"3805W","klasa":"droga gĹ‚Ăłwna","kat":"powiatowa"},"geometry":{"type":"LineString","coordinates":[[20.3258347544915,52.28132543468067],[20.32973972113959,52.28019042707361]]}}]}