{"type":"FeatureCollection","features":[{"type":"Feature","properties":{"numer":"4227W","klasa":"droga zbiorcza","kat":"powiatowa"},"geometry":{"type":"LineString","coordinates":[[21.99275,52.3809],[21.992475660839734,52.380653654631594]]}},{"type":"Feature","properties":{"numer":"637","klasa":"droga gĹ‚Ăłwna","kat":"wojewodzka"},"geometry":{"type":"LineString","coordinates":[[21.99275,52.3809],[21.992272433802817,52.381034315492954]]}},{"type":"Feature","properties":{"numer":"637","klasa":"droga gĹ‚Ăłwna","kat":"wojewodzka"},"geometry":{"type":"LineString","coordinates":[[22.01061,52.3887],[21.99459,52.38114],[21.99378,52.38087],[21.99334,52.38084],[21.99275,52.3809]]}},{"type":"Feature","properties":{"numer":"637","klasa":"droga gĹ‚Ăłwna","kat":"wojewodzka"},"geometry":{"type":"LineString","coordinates":[[22.01144,52.3891],[22.01061,52.3887]]}},{"type":"Feature","properties":{"numer":"696","klasa":"droga gĹ‚Ăłwna","kat":"wojewodzka"},"geometry":{"type":"LineString","coordinates":[[22.01194,52.38876],[22.01144,52.3891]]}},{"type":"Feature","properties":{"numer":"637","klasa":"droga gĹ‚Ăłwna","kat":"wojewodzka"},"geometry":{"type":"LineString","coordinates":[[22.01159,52.38946],[22.01144,52.3891]]}},{"type":"Feature","properties":{"numer":"637","klasa":"droga gĹ‚Ăłwna","kat":"wojewodzka"},"geometry":{"type":"LineString","coordinates":[[22.01184,52.39006],[22.01159,52.38946]]}},{"type":"Feature","properties":{"numer":"637","klasa":"droga gĹ‚Ăłwna","kat":"wojewodzka"},"geometry":{"type":"LineString","coordinates":[[22.01205,52.39042],[22.01184,52.39006]]}},{"type":"Feature","properties":{"numer":"637","klasa":"droga gĹ‚Ăłwna","kat":"wojewodzka"},"geometry":{"type":"LineString","coordinates":[[22.0121,52.3905],[22.01205,52.39042]]}},{"type":"Feature","properties":{"numer":"637","klasa":"droga gĹ‚Ăłwna","kat":"wojewodzka"},"geometry":{"type":"LineString","coordinates":[[22.01273,52.39152],[22.0121,52.3905]]}},{"type":"Feature","properties":{"numer":"637","klasa":"droga gĹ‚Ăłwna","kat":"wojewodzka"},"geometry":{"type":"LineString","coordinates":[[22.01273,52.39152],[22.01313,52.39184]]}},{"type":"Feature","properties":{"numer":"637","klasa":"droga gĹ‚Ăłwna","kat":"wojewodzka"},"geometry":{"type":"LineString","coordinates":[[22.01313,52.39184],[22.01405,52.39186]]}},{"type":"Feature","properties":{"numer":"420880W","klasa":"droga zbiorcza","kat":"powiatowa"},"geometry":{"type":"LineString","coordinates":[[22.01322,52.39231],[22.01313,52.39184]]}},{"type":"Feature","properties":{"numer":"420880W","klasa":"droga zbiorcza","kat":"powiatowa"},"geometry":{"type":"LineString","coordinates":[[22.01335,52.39253],[22.01322,52.39231]]}},{"type":"Feature","properties":{"numer":"420880W","klasa":"droga zbiorcza","kat":"powiatowa"},"geometry":{"type":"LineString","coordinates":[[22.01355,52.39286],[22.01335,52.39253]]}},{"type":"Feature","properties":{"numer":"637","klasa":"droga gĹ‚Ăłwna","kat":"wojewodzka"},"geometry":{"type":"LineString","coordinates":[[22.01405,52.39186],[22.01501,52.39197],[22.01585,52.39224],[22.01637,52.39255],[22.01748,52.39359],[22.0179,52.3938],[22.01883,52.39398],[22.01976,52.39392]]}},{"type":"Feature","properties":{"numer":"420880W","klasa":"droga zbiorcza","kat":"powiatowa"},"geometry":{"type":"LineString","coordinates":[[22.0137,52.3931],[22.01355,52.39286]]}},{"type":"Feature","properties":{"numer":"420880W","klasa":"droga zbiorcza","kat":"powiatowa"},"geometry":{"type":"LineString","coordinates":[[22.01392,52.39344],[22.0137,52.3931]]}},{"type":"Feature","properties":{"numer":"420880W","klasa":"droga zbiorcza","kat":"powiatowa"},"geometry":{"type":"LineString","coordinates":[[22.01417,52.39383],[22.01392,52.39344]]}},{"type":"Feature","properties":{"numer":"4256W","klasa":"droga zbiorcza","kat":"powiatowa"},"geometry":{"type":"LineString","coordinates":[[22.01302,52.39643],[22.01107,52.3933],[22.01131,52.39315],[22.01335,52.39253]]}},{"type":"Feature","properties":{"numer":"420880W","klasa":"droga zbiorcza","kat":"powiatowa"},"geometry":{"type":"LineString","coordinates":[[22.01504,52.3952],[22.01417,52.39383]]}},{"type":"Feature","properties":{"numer":"4261W","klasa":"droga zbiorcza","kat":"powiatowa"},"geometry":{"type":"LineString","coordinates":[[22.01819,52.39421],[22.01794,52.39421],[22.01737,52.39452],[22.01504,52.3952]]}},{"type":"Feature","properties":{"numer":"4255W","klasa":"droga zbiorcza","kat":"powiatowa"},"geometry":{"type":"LineString","coordinates":[[22.01988,52.39648],[22.01976,52.39392]]}},{"type":"Feature","properties":{"numer":"4262W","klasa":"droga zbiorcza","kat":"powiatowa"},"geometry":{"type":"LineString","coordinates":[[22.01851,52.39702],[22.01819,52.39421]]}},{"type":"Feature","properties":{"numer":"420880W","klasa":"droga zbiorcza","kat":"powiatowa"},"geometry":{"type":"LineString","coordinates":[[22.01579,52.39668],[22.01504,52.3952]]}},{"type":"Feature","properties":{"numer":"696","klasa":"droga gĹ‚Ăłwna","kat":"wojewodzka"},"geometry":{"type":"LineString","coordinates":[[22.036808518188636,52.36234123502384],[22.03652,52.36274],[22.01194,52.38876]]}},{"type":"Feature","properties":{"numer":"420873W","klasa":"droga lokalna","kat":"powiatowa"},"geometry":{"type":"LineString","coordinates":[[22.07213,52.39478],[22.07453,52.39481]]}},{"type":"Feature","properties":{"numer":"420873W","klasa":"droga lokalna","kat":"powiatowa"},"geometry":{"type":"LineString","coordinates":[[22.07453,52.39481],[22.07535,52.39482]]}},{"type":"Feature","properties":{"numer":"420873W","klasa":"droga lokalna","kat":"powiatowa"},"geometry":{"type":"LineString","coordinates":[[22.07535,52.39482],[22.07751,52.39486]]}},{"type":"Feature","properties":{"numer":"4230W","klasa":"droga zbiorcza","kat":"powiatowa"},"geometry":{"type":"LineString","coordinates":[[22.063872162524767,52.388684544343384],[22.06355,52.39157],[22.06384,52.3934],[22.06382,52.39468]]}},{"type":"Feature","properties":{"numer":"4229W","klasa":"droga zbiorcza","kat":"powiatowa"},"geometry":{"type":"LineString","coordinates":[[22.02642,52.39378],[22.03229,52.39021],[22.03929051251251,52.38583975920724]]}},{"type":"Feature","properties":{"numer":"4229W","klasa":"droga zbiorcza","kat":"powiatowa"},"geometry":{"type":"LineString","coordinates":[[22.02591,52.39412],[22.02642,52.39378]]}},{"type":"Feature","properties":{"numer":"637","klasa":"droga gĹ‚Ăłwna","kat":"wojewodzka"},"geometry":{"type":"LineString","coordinates":[[22.01976,52.39392],[22.02054,52.39386],[22.02515,52.39408]]}},{"type":"Feature","properties":{"numer":"637","klasa":"droga gĹ‚Ăłwna","kat":"wojewodzka"},"geometry":{"type":"LineString","coordinates":[[22.02515,52.39408],[22.02591,52.39412]]}},{"type":"Feature","properties":{"numer":"4229W,637","klasa":"droga gĹ‚Ăłwna","kat":"powiatowa"},"geometry":{"type":"LineString","coordinates":[[22.02591,52.39412],[22.02634,52.39442]]}},{"type":"Feature","properties":{"numer":"420873W","klasa":"droga lokalna","kat":"powiatowa"},"geometry":{"type":"LineString","coordinates":[[22.06382,52.39468],[22.07213,52.39478]]}},{"type":"Feature","properties":{"numer":"4230W","klasa":"droga zbiorcza","kat":"powiatowa"},"geometry":{"type":"LineString","coordinates":[[22.06382,52.39468],[22.0636,52.39977],[22.06375,52.40234],[22.06366,52.40498]]}},{"type":"Feature","properties":{"numer":"4258W","klasa":"droga zbiorcza","kat":"powiatowa"},"geometry":{"type":"LineString","coordinates":[[22.02,52.40046],[22.02125,52.40048],[22.02252,52.40033]]}},{"type":"Feature","properties":{"numer":"62","klasa":"droga gĹ‚Ăłwna","kat":"krajowa"},"geometry":{"type":"LineString","coordinates":[[22.0252,52.40244],[22.02585,52.40195],[22.02625,52.40152],[22.02695,52.3999]]}},{"type":"Feature","properties":{"numer":"62","klasa":"droga gĹ‚Ăłwna","kat":"krajowa"},"geometry":{"type":"LineString","coordinates":[[22.02801,52.39912],[22.02877,52.39911],[22.03032,52.39928],[22.05204,52.40283],[22.06077,52.40467],[22.06366,52.40498]]}},{"type":"Feature","properties":{"numer":"62","klasa":"droga gĹ‚Ăłwna","kat":"krajowa"},"geometry":{"type":"LineString","coordinates":[[22.0249,52.40264],[22.0252,52.40244]]}},{"type":"Feature","properties":{"numer":"62","klasa":"droga gĹ‚Ăłwna","kat":"krajowa"},"geometry":{"type":"LineString","coordinates":[[22.02333,52.40384],[22.0249,52.40264]]}},{"type":"Feature","properties":{"numer":"4223W","klasa":"droga zbiorcza","kat":"powiatowa"},"geometry":{"type":"LineString","coordinates":[[22.02235,52.4039],[22.02201,52.40389],[22.0209,52.40339],[22.02045,52.40271]]}},{"type":"Feature","properties":{"numer":"62","klasa":"droga gĹ‚Ăłwna","kat":"krajowa"},"geometry":{"type":"LineString","coordinates":[[22.02285,52.40427],[22.02333,52.40384]]}},{"type":"Feature","properties":{"numer":"4223W","klasa":"droga zbiorcza","kat":"powiatowa"},"geometry":{"type":"LineString","coordinates":[[22.02235,52.4039],[22.0227,52.40404],[22.02285,52.40427]]}},{"type":"Feature","properties":{"numer":"62","klasa":"droga gĹ‚Ăłwna","kat":"krajowa"},"geometry":{"type":"LineString","coordinates":[[22.02174,52.40409],[22.02285,52.40427]]}},{"type":"Feature","properties":{"numer":"420873W","klasa":"droga lokalna","kat":"powiatowa"},"geometry":{"type":"LineString","coordinates":[[22.07751,52.39486],[22.07777,52.39486]]}},{"type":"Feature","properties":{"numer":"420873W","klasa":"droga lokalna","kat":"powiatowa"},"geometry":{"type":"LineString","coordinates":[[22.07777,52.39486],[22.08593,52.39494]]}},{"type":"Feature","properties":{"numer":"420873W","klasa":"droga lokalna","kat":"powiatowa"},"geometry":{"type":"LineString","coordinates":[[22.08593,52.39494],[22.085969535099952,52.39493505811251]]}},{"type":"Feature","properties":{"numer":"62","klasa":"droga gĹ‚Ăłwna","kat":"krajowa"},"geometry":{"type":"LineString","coordinates":[[22.0698,52.40571],[22.07114,52.40555],[22.0737,52.40454],[22.07484,52.40429],[22.08234,52.40394],[22.08637,52.40407],[22.089027048467635,52.40383056971284]]}},{"type":"Feature","properties":{"numer":"4219W","klasa":"droga zbiorcza","kat":"powiatowa"},"geometry":{"type":"LineString","coordinates":[[22.0698,52.40571],[22.0699,52.40643]]}},{"type":"Feature","properties":{"numer":"4219W","klasa":"droga zbiorcza","kat":"powiatowa"},"geometry":{"type":"LineString","coordinates":[[22.0699,52.40643],[22.07036,52.40952],[22.0707,52.41065],[22.07145221360231,52.411641234746966]]}},{"type":"Feature","properties":{"numer":"4223W","klasa":"droga zbiorcza","kat":"powiatowa"},"geometry":{"type":"LineString","coordinates":[[22.02285,52.40427],[22.02382,52.40473]]}},{"type":"Feature","properties":{"numer":"62","klasa":"droga gĹ‚Ăłwna","kat":"krajowa"},"geometry":{"type":"LineString","coordinates":[[22.06366,52.40498],[22.06647,52.40519],[22.06862,52.40559]]}},{"type":"Feature","properties":{"numer":"62","klasa":"droga gĹ‚Ăłwna","kat":"krajowa"},"geometry":{"type":"LineString","coordinates":[[22.06862,52.40559],[22.06878,52.40562]]}},{"type":"Feature","properties":{"numer":"62","klasa":"droga gĹ‚Ăłwna","kat":"krajowa"},"geometry":{"type":"LineString","coordinates":[[22.06878,52.40562],[22.0698,52.40571]]}},{"type":"Feature","properties":{"numer":"4223W","klasa":"droga zbiorcza","kat":"powiatowa"},"geometry":{"type":"LineString","coordinates":[[22.02382,52.40473],[22.02985,52.40754],[22.03312,52.41104]]}},{"type":"Feature","properties":{"numer":"4223W","klasa":"droga zbiorcza","kat":"powiatowa"},"geometry":{"type":"LineString","coordinates":[[22.03312,52.41104],[22.03322,52.41114]]}},{"type":"Feature","properties":{"numer":"4223W","klasa":"droga zbiorcza","kat":"powiatowa"},"geometry":{"type":"LineString","coordinates":[[22.03322,52.41114],[22.03384,52.41175],[22.03389,52.41205],[22.02993381228531,52.43605928014099]]}},{"type":"Feature","properties":{"numer":"4255W","klasa":"droga zbiorcza","kat":"powiatowa"},"geometry":{"type":"LineString","coordinates":[[22.01983,52.39679],[22.01988,52.39648]]}},{"type":"Feature","properties":{"numer":"4260W","klasa":"droga zbiorcza","kat":"powiatowa"},"geometry":{"type":"LineString","coordinates":[[22.01302,52.39643],[22.00587,52.39701]]}},{"type":"Feature","properties":{"numer":"4229W","klasa":"droga zbiorcza","kat":"powiatowa"},"geometry":{"type":"LineString","coordinates":[[22.01996,52.39676],[22.01983,52.39679]]}},{"type":"Feature","properties":{"numer":"4260W","klasa":"droga zbiorcza","kat":"powiatowa"},"geometry":{"type":"LineString","coordinates":[[22.01543,52.39711],[22.01414,52.39713],[22.01302,52.39643]]}},{"type":"Feature","properties":{"numer":"4229W","klasa":"droga zbiorcza","kat":"powiatowa"},"geometry":{"type":"LineString","coordinates":[[22.01983,52.39679],[22.01938,52.39686]]}},{"type":"Feature","properties":{"numer":"420880W","klasa":"droga zbiorcza","kat":"powiatowa"},"geometry":{"type":"LineString","coordinates":[[22.01596,52.39708],[22.01579,52.39668]]}},{"type":"Feature","properties":{"numer":"4229W","klasa":"droga zbiorcza","kat":"powiatowa"},"geometry":{"type":"LineString","coordinates":[[22.01938,52.39686],[22.01851,52.39702]]}},{"type":"Feature","properties":{"numer":"4255W","klasa":"droga zbiorcza","kat":"powiatowa"},"geometry":{"type":"LineString","coordinates":[[22.01989,52.39711],[22.01983,52.39679]]}},{"type":"Feature","properties":{"numer":"4229W","klasa":"droga zbiorcza","kat":"powiatowa"},"geometry":{"type":"LineString","coordinates":[[22.01851,52.39702],[22.01637,52.3971]]}},{"type":"Feature","properties":{"numer":"4229W","klasa":"droga zbiorcza","kat":"powiatowa"},"geometry":{"type":"LineString","coordinates":[[22.01637,52.3971],[22.01596,52.39708]]}},{"type":"Feature","properties":{"numer":"4229W,637","klasa":"droga gĹ‚Ăłwna","kat":"powiatowa"},"geometry":{"type":"LineString","coordinates":[[22.02634,52.39442],[22.02664,52.39469],[22.02708,52.39577]]}},{"type":"Feature","properties":{"numer":"4229W","klasa":"droga zbiorcza","kat":"powiatowa"},"geometry":{"type":"LineString","coordinates":[[22.01996,52.39676],[22.02628,52.39578],[22.02708,52.39577]]}},{"type":"Feature","properties":{"numer":"637","klasa":"droga gĹ‚Ăłwna","kat":"wojewodzka"},"geometry":{"type":"LineString","coordinates":[[22.02739,52.39854],[22.02756,52.39734],[22.02708,52.39577]]}},{"type":"Feature","properties":{"numer":"637","klasa":"droga gĹ‚Ăłwna","kat":"wojewodzka"},"geometry":{"type":"LineString","coordinates":[[22.02721,52.39922],[22.02739,52.39854]]}},{"type":"Feature","properties":{"numer":"420882W","klasa":"droga zbiorcza","kat":"powiatowa"},"geometry":{"type":"LineString","coordinates":[[22.02454,52.39886],[22.02303,52.39894]]}},{"type":"Feature","properties":{"numer":"420882W","klasa":"droga zbiorcza","kat":"powiatowa"},"geometry":{"type":"LineString","coordinates":[[22.0265,52.39898],[22.02454,52.39886]]}},{"type":"Feature","properties":{"numer":"420882W","klasa":"droga zbiorcza","kat":"powiatowa"},"geometry":{"type":"LineString","coordinates":[[22.02303,52.39894],[22.02103,52.39907]]}},{"type":"Feature","properties":{"numer":"420882W","klasa":"droga zbiorcza","kat":"powiatowa"},"geometry":{"type":"LineString","coordinates":[[22.02721,52.39922],[22.0265,52.39898]]}},{"type":"Feature","properties":{"numer":"62","klasa":"droga gĹ‚Ăłwna","kat":"krajowa"},"geometry":{"type":"LineString","coordinates":[[22.02721,52.39922],[22.02761,52.39922],[22.02801,52.39912]]}},{"type":"Feature","properties":{"numer":"62","klasa":"droga gĹ‚Ăłwna","kat":"krajowa"},"geometry":{"type":"LineString","coordinates":[[22.02695,52.3999],[22.02721,52.39922]]}},{"type":"Feature","properties":{"numer":"4260W","klasa":"droga zbiorcza","kat":"powiatowa"},"geometry":{"type":"LineString","coordinates":[[22.01596,52.39708],[22.01543,52.39711]]}},{"type":"Feature","properties":{"numer":"420880W","klasa":"droga zbiorcza","kat":"powiatowa"},"geometry":{"type":"LineString","coordinates":[[22.01601,52.39751],[22.01596,52.39708]]}},{"type":"Feature","properties":{"numer":"4262W","klasa":"droga zbiorcza","kat":"powiatowa"},"geometry":{"type":"LineString","coordinates":[[22.01849,52.39859],[22.01851,52.39702]]}},{"type":"Feature","properties":{"numer":"420880W","klasa":"droga zbiorcza","kat":"powiatowa"},"geometry":{"type":"LineString","coordinates":[[22.01631,52.39861],[22.01601,52.39751]]}},{"type":"Feature","properties":{"numer":"4255W","klasa":"droga zbiorcza","kat":"powiatowa"},"geometry":{"type":"LineString","coordinates":[[22.01994,52.39914],[22.01989,52.39711]]}},{"type":"Feature","properties":{"numer":"420806W","klasa":"droga lokalna","kat":"powiatowa"},"geometry":{"type":"LineString","coordinates":[[22.01849,52.39859],[22.01695,52.3986]]}},{"type":"Feature","properties":{"numer":"420806W","klasa":"droga lokalna","kat":"powiatowa"},"geometry":{"type":"LineString","coordinates":[[22.01695,52.3986],[22.01664,52.39861]]}},{"type":"Feature","properties":{"numer":"420806W","klasa":"droga lokalna","kat":"powiatowa"},"geometry":{"type":"LineString","coordinates":[[22.01664,52.39861],[22.01631,52.39861]]}},{"type":"Feature","properties":{"numer":"4224W","klasa":"droga zbiorcza","kat":"powiatowa"},"geometry":{"type":"LineString","coordinates":[[22.01551,52.39863],[22.01631,52.39861]]}},{"type":"Feature","properties":{"numer":"4224W","klasa":"droga zbiorcza","kat":"powiatowa"},"geometry":{"type":"LineString","coordinates":[[22.01146,52.39864],[22.01551,52.39863]]}},{"type":"Feature","properties":{"numer":"4224W","klasa":"droga zbiorcza","kat":"powiatowa"},"geometry":{"type":"LineString","coordinates":[[22.01101,52.39864],[22.01146,52.39864]]}},{"type":"Feature","properties":{"numer":"4224W","klasa":"droga zbiorcza","kat":"powiatowa"},"geometry":{"type":"LineString","coordinates":[[22.01058,52.39865],[22.01101,52.39864]]}},{"type":"Feature","properties":{"numer":"4224W","klasa":"droga zbiorcza","kat":"powiatowa"},"geometry":{"type":"LineString","coordinates":[[22.00484,52.39872],[22.01058,52.39865]]}},{"type":"Feature","properties":{"numer":"4224W","klasa":"droga zbiorcza","kat":"powiatowa"},"geometry":{"type":"LineString","coordinates":[[22.00447823759265,52.39872613156623],[22.00484,52.39872]]}},{"type":"Feature","properties":{"numer":"4259W","klasa":"droga zbiorcza","kat":"powiatowa"},"geometry":{"type":"LineString","coordinates":[[22.01101,52.39886],[22.01101,52.39864]]}},{"type":"Feature","properties":{"numer":"420859W","klasa":"droga lokalna","kat":"powiatowa"},"geometry":{"type":"LineString","coordinates":[[22.01557,52.39919],[22.01551,52.39863]]}},{"type":"Feature","properties":{"numer":"420882W","klasa":"droga zbiorcza","kat":"powiatowa"},"geometry":{"type":"LineString","coordinates":[[22.02103,52.39907],[22.01994,52.39914]]}},{"type":"Feature","properties":{"numer":"420813W","klasa":"droga lokalna","kat":"powiatowa"},"geometry":{"type":"LineString","coordinates":[[22.01995,52.39929],[22.01994,52.39914]]}},{"type":"Feature","properties":{"numer":"420882W","klasa":"droga zbiorcza","kat":"powiatowa"},"geometry":{"type":"LineString","coordinates":[[22.01994,52.39914],[22.0185,52.3993]]}},{"type":"Feature","properties":{"numer":"420859W","klasa":"droga lokalna","kat":"powiatowa"},"geometry":{"type":"LineString","coordinates":[[22.01562,52.39959],[22.01557,52.39919]]}},{"type":"Feature","properties":{"numer":"420813W","klasa":"droga lokalna","kat":"powiatowa"},"geometry":{"type":"LineString","coordinates":[[22.01996,52.3997],[22.01995,52.39929]]}},{"type":"Feature","properties":{"numer":"4259W","klasa":"droga zbiorcza","kat":"powiatowa"},"geometry":{"type":"LineString","coordinates":[[22.01099,52.40015],[22.01101,52.39886]]}},{"type":"Feature","properties":{"numer":"4223W","klasa":"droga zbiorcza","kat":"powiatowa"},"geometry":{"type":"LineString","coordinates":[[22.01867,52.40054],[22.0185,52.3993]]}},{"type":"Feature","properties":{"numer":"420881W","klasa":"droga zbiorcza","kat":"powiatowa"},"geometry":{"type":"LineString","coordinates":[[22.01576,52.40015],[22.0157,52.39985]]}},{"type":"Feature","properties":{"numer":"4259W","klasa":"droga zbiorcza","kat":"powiatowa"},"geometry":{"type":"LineString","coordinates":[[22.01097,52.40041],[22.01099,52.40015]]}},{"type":"Feature","properties":{"numer":"4264W","klasa":"droga zbiorcza","kat":"powiatowa"},"geometry":{"type":"LineString","coordinates":[[22.01141,52.40048],[22.01097,52.40041]]}},{"type":"Feature","properties":{"numer":"4223W,4258W","klasa":"droga zbiorcza","kat":"powiatowa"},"geometry":{"type":"LineString","coordinates":[[22.0193,52.40051],[22.02,52.40046]]}},{"type":"Feature","properties":{"numer":"4259W","klasa":"droga zbiorcza","kat":"powiatowa"},"geometry":{"type":"LineString","coordinates":[[22.01071,52.40059],[22.01097,52.40041]]}},{"type":"Feature","properties":{"numer":"4223W,4258W","klasa":"droga zbiorcza","kat":"powiatowa"},"geometry":{"type":"LineString","coordinates":[[22.01867,52.40054],[22.0193,52.40051]]}},{"type":"Feature","properties":{"numer":"420881W","klasa":"droga zbiorcza","kat":"powiatowa"},"geometry":{"type":"LineString","coordinates":[[22.01566,52.40148],[22.01576,52.40015]]}},{"type":"Feature","properties":{"numer":"4264W","klasa":"droga zbiorcza","kat":"powiatowa"},"geometry":{"type":"LineString","coordinates":[[22.01566,52.40148],[22.01141,52.40048]]}},{"type":"Feature","properties":{"numer":"4223W","klasa":"droga zbiorcza","kat":"powiatowa"},"geometry":{"type":"LineString","coordinates":[[22.01984,52.40152],[22.0193,52.40051]]}},{"type":"Feature","properties":{"numer":"4223W","klasa":"droga zbiorcza","kat":"powiatowa"},"geometry":{"type":"LineString","coordinates":[[22.02041,52.40262],[22.02002,52.40176],[22.02,52.40046]]}},{"type":"Feature","properties":{"numer":"4258W","klasa":"droga zbiorcza","kat":"powiatowa"},"geometry":{"type":"LineString","coordinates":[[22.01556,52.40309],[22.01688,52.40283],[22.01718,52.40267],[22.01734,52.40243],[22.01747,52.40203],[22.01719,52.40068],[22.01867,52.40054]]}},{"type":"Feature","properties":{"numer":"4259W","klasa":"droga zbiorcza","kat":"powiatowa"},"geometry":{"type":"LineString","coordinates":[[22.01556,52.40309],[22.01499,52.40315],[22.01419,52.40345],[22.01281,52.40381],[22.01085,52.40246],[22.01027,52.4012],[22.01031,52.40092],[22.01071,52.40059]]}},{"type":"Feature","properties":{"numer":"420881W","klasa":"droga zbiorcza","kat":"powiatowa"},"geometry":{"type":"LineString","coordinates":[[22.01556,52.40309],[22.01566,52.40148]]}},{"type":"Feature","properties":{"numer":"4223W","klasa":"droga zbiorcza","kat":"powiatowa"},"geometry":{"type":"LineString","coordinates":[[22.02045,52.40271],[22.02041,52.40262]]}},{"type":"Feature","properties":{"numer":"420881W","klasa":"droga zbiorcza","kat":"powiatowa"},"geometry":{"type":"LineString","coordinates":[[22.01555,52.4032],[22.01556,52.40309]]}},{"type":"Feature","properties":{"numer":"420881W","klasa":"droga zbiorcza","kat":"powiatowa"},"geometry":{"type":"LineString","coordinates":[[22.01555,52.4033],[22.01555,52.4032]]}},{"type":"Feature","properties":{"numer":"420881W","klasa":"droga zbiorcza","kat":"powiatowa"},"geometry":{"type":"LineString","coordinates":[[22.0155,52.40344],[22.01555,52.4033]]}},{"type":"Feature","properties":{"numer":"420881W","klasa":"droga zbiorcza","kat":"powiatowa"},"geometry":{"type":"LineString","coordinates":[[22.0151,52.40402],[22.0155,52.40344]]}},{"type":"Feature","properties":{"numer":"62","klasa":"droga gĹ‚Ăłwna","kat":"krajowa"},"geometry":{"type":"LineString","coordinates":[[22.0151,52.40402],[22.02174,52.40409]]}},{"type":"Feature","properties":{"numer":"62","klasa":"droga gĹ‚Ăłwna","kat":"krajowa"},"geometry":{"type":"LineString","coordinates":[[22.01043,52.4113],[22.0151,52.40402]]}},{"type":"Feature","properties":{"numer":"62","klasa":"droga gĹ‚Ăłwna","kat":"krajowa"},"geometry":{"type":"LineString","coordinates":[[22.01035,52.41143],[22.01043,52.4113]]}},{"type":"Feature","properties":{"numer":"62","klasa":"droga gĹ‚Ăłwna","kat":"krajowa"},"geometry":{"type":"LineString","coordinates":[[21.99417,52.43477],[21.99552,52.43397],[21.99613,52.43333],[22.01035,52.41143]]}},{"type":"Feature","properties":{"numer":"62","klasa":"droga gĹ‚Ăłwna","kat":"krajowa"},"geometry":{"type":"LineString","coordinates":[[21.994127631994388,52.434792813541485],[21.99417,52.43477]]}}]}