{"type":"FeatureCollection","features":[{"type":"Feature","properties":{"numer":"3674W","klasa":"droga zbiorcza","kat":"powiatowa"},"geometry":{"type":"LineString","coordinates":[[21.988889904746046,52.21689919766861],[21.98889,52.2169],[21.98857,52.21869],[21.98895,52.22012]]}},{"type":"Feature","properties":{"numer":"3674W","klasa":"droga zbiorcza","kat":"powiatowa"},"geometry":{"type":"LineString","coordinates":[[21.98895,52.22012],[21.98901,52.2203]]}},{"type":"Feature","properties":{"numer":"3674W","klasa":"droga zbiorcza","kat":"powiatowa"},"geometry":{"type":"LineString","coordinates":[[21.98901,52.2203],[21.98907,52.22048]]}},{"type":"Feature","properties":{"numer":"A2,E30","klasa":"autostrada","kat":"krajowa"},"geometry":{"type":"LineString","coordinates":[[21.98901,52.2203],[21.98652,52.221]]}},{"type":"Feature","properties":{"numer":"A2,E30","klasa":"autostrada","kat":"krajowa"},"geometry":{"type":"LineString","coordinates":[[21.98652,52.221],[21.98134,52.22222],[21.97834,52.22281]]}},{"type":"Feature","properties":{"numer":"3674W","klasa":"droga zbiorcza","kat":"powiatowa"},"geometry":{"type":"LineString","coordinates":[[21.98907,52.22048],[21.98958,52.22131],[21.99399,52.22568],[21.99663,52.22753],[21.99792,52.22861],[21.99997,52.23146],[22.0006,52.23318],[22.00089,52.23444],[22.00078,52.23657],[22.00014,52.24099],[22.00018,52.24144],[22.00295,52.24305],[22.00495,52.24403],[22.01209,52.24681],[22.0128,52.24738],[22.01397,52.24859],[22.01784,52.25179]]}},{"type":"Feature","properties":{"numer":"4249W","klasa":"droga zbiorcza","kat":"powiatowa"},"geometry":{"type":"LineString","coordinates":[[22.02245,52.25064],[22.01875,52.25138],[22.01784,52.25179]]}},{"type":"Feature","properties":{"numer":"697","klasa":"droga gĹ‚Ăłwna","kat":"wojewodzka"},"geometry":{"type":"LineString","coordinates":[[21.864356684438782,52.21287687684627],[21.87274,52.22089],[21.87367,52.22155],[21.87669,52.22327],[21.87925,52.2257]]}},{"type":"Feature","properties":{"numer":"697","klasa":"droga gĹ‚Ăłwna","kat":"wojewodzka"},"geometry":{"type":"LineString","coordinates":[[21.87925,52.2257],[21.87929,52.22574]]}},{"type":"Feature","properties":{"numer":"697","klasa":"droga gĹ‚Ăłwna","kat":"wojewodzka"},"geometry":{"type":"LineString","coordinates":[[21.87929,52.22574],[21.88404,52.23038]]}},{"type":"Feature","properties":{"numer":"697","klasa":"droga gĹ‚Ăłwna","kat":"wojewodzka"},"geometry":{"type":"LineString","coordinates":[[21.88404,52.23038],[21.88409,52.23043]]}},{"type":"Feature","properties":{"numer":"2253W","klasa":"droga zbiorcza","kat":"powiatowa"},"geometry":{"type":"LineString","coordinates":[[21.89055,52.23439],[21.89064,52.23419],[21.89044,52.23179],[21.88992,52.22813],[21.88999,52.22793],[21.8904400697612,52.22773711295948]]}},{"type":"Feature","properties":{"numer":"3673W","klasa":"droga zbiorcza","kat":"powiatowa"},"geometry":{"type":"LineString","coordinates":[[21.94718739130435,52.218307444326605],[21.94678,52.21947],[21.94539,52.2213]]}},{"type":"Feature","properties":{"numer":"A2,E30","klasa":"autostrada","kat":"krajowa"},"geometry":{"type":"LineString","coordinates":[[21.921682550664283,52.21825265663646],[21.9247,52.21921],[21.92985,52.22074],[21.93413,52.22182],[21.93914,52.22283],[21.9437,52.22353]]}},{"type":"Feature","properties":{"numer":"3673W","klasa":"droga zbiorcza","kat":"powiatowa"},"geometry":{"type":"LineString","coordinates":[[21.94539,52.2213],[21.94385,52.22333]]}},{"type":"Feature","properties":{"numer":"3673W","klasa":"droga zbiorcza","kat":"powiatowa"},"geometry":{"type":"LineString","coordinates":[[21.94385,52.22333],[21.9437,52.22353]]}},{"type":"Feature","properties":{"numer":"3673W","klasa":"droga zbiorcza","kat":"powiatowa"},"geometry":{"type":"LineString","coordinates":[[21.9437,52.22353],[21.94353,52.22376]]}},{"type":"Feature","properties":{"numer":"A2,E30","klasa":"autostrada","kat":"krajowa"},"geometry":{"type":"LineString","coordinates":[[21.9437,52.22353],[21.9481,52.22404],[21.95182,52.22433],[21.95644,52.22451],[21.96146,52.22451],[21.96684,52.22424],[21.97133,52.22383],[21.97428,52.22347],[21.97834,52.22281]]}},{"type":"Feature","properties":{"numer":"3673W","klasa":"droga zbiorcza","kat":"powiatowa"},"geometry":{"type":"LineString","coordinates":[[21.94353,52.22376],[21.94232,52.22535]]}},{"type":"Feature","properties":{"numer":"3673W","klasa":"droga zbiorcza","kat":"powiatowa"},"geometry":{"type":"LineString","coordinates":[[21.94232,52.22535],[21.94227,52.22542]]}},{"type":"Feature","properties":{"numer":"3673W","klasa":"droga zbiorcza","kat":"powiatowa"},"geometry":{"type":"LineString","coordinates":[[21.94227,52.22542],[21.94172,52.22615]]}},{"type":"Feature","properties":{"numer":"3673W","klasa":"droga zbiorcza","kat":"powiatowa"},"geometry":{"type":"LineString","coordinates":[[21.94172,52.22615],[21.93816,52.23086]]}},{"type":"Feature","properties":{"numer":"A2,E30","klasa":"autostrada","kat":"krajowa"},"geometry":{"type":"LineString","coordinates":[[22.002476724083433,52.2158067057641],[22.000269821626258,52.216565487268944]]}},{"type":"Feature","properties":{"numer":"A2,E30","klasa":"autostrada","kat":"krajowa"},"geometry":{"type":"LineString","coordinates":[[21.99639976333375,52.21789609825517],[21.99316,52.21901],[21.98901,52.2203]]}},{"type":"Feature","properties":{"numer":"3675W","klasa":"droga zbiorcza","kat":"powiatowa"},"geometry":{"type":"LineString","coordinates":[[22.02245,52.25064],[22.02569,52.25005],[22.0273,52.24966],[22.02854,52.24825],[22.03329,52.24191],[22.03438,52.23629],[22.0351,52.23401],[22.03509,52.23359],[22.03437,52.23213],[22.03444,52.23196],[22.0348,52.23171],[22.038,52.23067],[22.03869,52.23034],[22.03943,52.22965],[22.04002,52.22859],[22.04065,52.22789],[22.04161,52.22629],[22.04193,52.22601],[22.04278,52.22563],[22.04621,52.22453],[22.04685,52.22443],[22.04961,52.22429],[22.049963011036507,52.224231460481384]]}},{"type":"Feature","properties":{"numer":"4250W","klasa":"droga zbiorcza","kat":"powiatowa"},"geometry":{"type":"LineString","coordinates":[[22.02245,52.25064],[22.02594,52.25691],[22.02835,52.2615],[22.02977,52.26724],[22.0287,52.27057],[22.02843,52.27175],[22.02785,52.27286],[22.02763,52.27459],[22.02745,52.27485],[22.02709,52.27505],[22.02622,52.27514]]}},{"type":"Feature","properties":{"numer":"2252W","klasa":"droga zbiorcza","kat":"powiatowa"},"geometry":{"type":"LineString","coordinates":[[21.87463,52.2319],[21.87662,52.23214],[21.87707,52.23211],[21.87756,52.23194]]}},{"type":"Feature","properties":{"numer":"697","klasa":"droga gĹ‚Ăłwna","kat":"wojewodzka"},"geometry":{"type":"LineString","coordinates":[[21.88409,52.23043],[21.88531,52.23176],[21.88623,52.23369]]}},{"type":"Feature","properties":{"numer":"2252W","klasa":"droga zbiorcza","kat":"powiatowa"},"geometry":{"type":"LineString","coordinates":[[21.87756,52.23194],[21.87874,52.23157],[21.87903,52.23156],[21.88132,52.23316],[21.88331,52.23331],[21.88623,52.23369]]}},{"type":"Feature","properties":{"numer":"2252W","klasa":"droga zbiorcza","kat":"powiatowa"},"geometry":{"type":"LineString","coordinates":[[21.87458766218397,52.231901435180205],[21.87463,52.2319]]}},{"type":"Feature","properties":{"numer":"697","klasa":"droga gĹ‚Ăłwna","kat":"wojewodzka"},"geometry":{"type":"LineString","coordinates":[[21.88623,52.23369],[21.88624,52.23372]]}},{"type":"Feature","properties":{"numer":"2252W","klasa":"droga zbiorcza","kat":"powiatowa"},"geometry":{"type":"LineString","coordinates":[[21.88624,52.23372],[21.89055,52.23439]]}},{"type":"Feature","properties":{"numer":"2252W","klasa":"droga zbiorcza","kat":"powiatowa"},"geometry":{"type":"LineString","coordinates":[[21.89055,52.23439],[21.90936,52.23743],[21.92203,52.24056]]}},{"type":"Feature","properties":{"numer":"697","klasa":"droga gĹ‚Ăłwna","kat":"wojewodzka"},"geometry":{"type":"LineString","coordinates":[[21.88624,52.23372],[21.89044,52.24321],[21.89264,52.24724],[21.89386,52.25026],[21.89479,52.25314],[21.89527,52.25398],[21.90853,52.26628]]}},{"type":"Feature","properties":{"numer":"697","klasa":"droga gĹ‚Ăłwna","kat":"wojewodzka"},"geometry":{"type":"LineString","coordinates":[[21.90853,52.26628],[21.90901,52.26683],[21.90961,52.26779]]}},{"type":"Feature","properties":{"numer":"3673W","klasa":"droga zbiorcza","kat":"powiatowa"},"geometry":{"type":"LineString","coordinates":[[21.93816,52.23086],[21.93757,52.23163],[21.9373,52.23182],[21.93411,52.23279],[21.92634,52.23316],[21.92403,52.23313],[21.92118,52.23348],[21.92100011419369,52.23354852792621]]}},{"type":"Feature","properties":{"numer":"3673W","klasa":"droga zbiorcza","kat":"powiatowa"},"geometry":{"type":"LineString","coordinates":[[21.92198,52.24035],[21.921210286557322,52.23740109784949]]}},{"type":"Feature","properties":{"numer":"3673W","klasa":"droga zbiorcza","kat":"powiatowa"},"geometry":{"type":"LineString","coordinates":[[21.92203,52.24056],[21.92198,52.24035]]}},{"type":"Feature","properties":{"numer":"2252W","klasa":"droga zbiorcza","kat":"powiatowa"},"geometry":{"type":"LineString","coordinates":[[21.92203,52.24056],[21.92275,52.24077],[21.9325,52.24472],[21.93285,52.24507],[21.93433,52.24731],[21.93582,52.24878]]}},{"type":"Feature","properties":{"numer":"420114W","klasa":"droga lokalna","kat":"powiatowa"},"geometry":{"type":"LineString","coordinates":[[21.93582,52.24878],[21.93735,52.24837]]}},{"type":"Feature","properties":{"numer":"3673W","klasa":"droga zbiorcza","kat":"powiatowa"},"geometry":{"type":"LineString","coordinates":[[21.90853,52.26628],[21.92332,52.24663],[21.92346,52.24621],[21.92336,52.24563],[21.92203,52.24056]]}},{"type":"Feature","properties":{"numer":"2252W","klasa":"droga zbiorcza","kat":"powiatowa"},"geometry":{"type":"LineString","coordinates":[[21.93735,52.24837],[21.94057,52.2528],[21.9419,52.25386],[21.94835,52.25862],[21.94852,52.25881],[21.94914,52.26012]]}},{"type":"Feature","properties":{"numer":"4249W","klasa":"droga zbiorcza","kat":"powiatowa"},"geometry":{"type":"LineString","coordinates":[[21.94914,52.26012],[21.94698,52.26065]]}},{"type":"Feature","properties":{"numer":"4249W","klasa":"droga zbiorcza","kat":"powiatowa"},"geometry":{"type":"LineString","coordinates":[[21.94698,52.26065],[21.94686,52.26068]]}},{"type":"Feature","properties":{"numer":"4249W","klasa":"droga zbiorcza","kat":"powiatowa"},"geometry":{"type":"LineString","coordinates":[[21.91516,52.26955],[21.91774,52.2688],[21.94342,52.26215],[21.94428,52.26185],[21.94686,52.26068]]}},{"type":"Feature","properties":{"numer":"4249W","klasa":"droga zbiorcza","kat":"powiatowa"},"geometry":{"type":"LineString","coordinates":[[22.01784,52.25179],[22.0167,52.25247],[22.01561,52.2537],[22.01475,52.25589],[22.01413,52.25638],[22.01307,52.25673]]}},{"type":"Feature","properties":{"numer":"4249W","klasa":"droga zbiorcza","kat":"powiatowa"},"geometry":{"type":"LineString","coordinates":[[22.01307,52.25673],[22.0123,52.25679]]}},{"type":"Feature","properties":{"numer":"4249W","klasa":"droga zbiorcza","kat":"powiatowa"},"geometry":{"type":"LineString","coordinates":[[22.0123,52.25679],[22.01128,52.25663],[22.00669,52.25513],[22.00309,52.25448],[22.00188,52.25382],[22.00142,52.25373],[21.99746,52.25495],[21.99612,52.25528],[21.96195,52.26031],[21.95754,52.26083],[21.95674,52.26086],[21.95459,52.26078],[21.95016,52.26001],[21.94973,52.26],[21.94914,52.26012]]}},{"type":"Feature","properties":{"numer":"4250W","klasa":"droga zbiorcza","kat":"powiatowa"},"geometry":{"type":"LineString","coordinates":[[22.02566,52.2751],[22.02412,52.27504],[22.02291,52.27523],[22.02042,52.27584],[22.01979,52.27635],[22.01959,52.2768],[22.02012,52.28031],[22.01948,52.28243],[22.01911,52.28608],[22.01726,52.28839],[22.01214,52.29432],[22.01105,52.2952],[22.00955,52.29598],[22.00156,52.29897]]}},{"type":"Feature","properties":{"numer":"4248W","klasa":"droga zbiorcza","kat":"powiatowa"},"geometry":{"type":"LineString","coordinates":[[22.00257,52.30182],[22.002,52.3012],[22.00165,52.30056],[22.00156,52.29897]]}},{"type":"Feature","properties":{"numer":"4248W","klasa":"droga zbiorcza","kat":"powiatowa"},"geometry":{"type":"LineString","coordinates":[[22.00257,52.30182],[22.00278,52.30204]]}},{"type":"Feature","properties":{"numer":"4248W","klasa":"droga zbiorcza","kat":"powiatowa"},"geometry":{"type":"LineString","coordinates":[[22.00278,52.30204],[22.00372,52.30306]]}},{"type":"Feature","properties":{"numer":"4248W","klasa":"droga zbiorcza","kat":"powiatowa"},"geometry":{"type":"LineString","coordinates":[[22.00372,52.30306],[22.00408,52.30345]]}},{"type":"Feature","properties":{"numer":"4248W","klasa":"droga zbiorcza","kat":"powiatowa"},"geometry":{"type":"LineString","coordinates":[[22.00408,52.30345],[22.004099213381668,52.30346879341704]]}},{"type":"Feature","properties":{"numer":"697","klasa":"droga gĹ‚Ăłwna","kat":"wojewodzka"},"geometry":{"type":"LineString","coordinates":[[21.90961,52.26779],[21.90965,52.26786]]}},{"type":"Feature","properties":{"numer":"697","klasa":"droga gĹ‚Ăłwna","kat":"wojewodzka"},"geometry":{"type":"LineString","coordinates":[[21.90965,52.26786],[21.91049,52.26915]]}},{"type":"Feature","properties":{"numer":"4248W,4249W","klasa":"droga zbiorcza","kat":"powiatowa"},"geometry":{"type":"LineString","coordinates":[[21.9031,52.27068],[21.90755,52.26944],[21.90836,52.26931],[21.91049,52.26915]]}},{"type":"Feature","properties":{"numer":"4248W","klasa":"droga zbiorcza","kat":"powiatowa"},"geometry":{"type":"LineString","coordinates":[[21.9031,52.27068],[21.9016,52.27043],[21.8978,52.27015],[21.88983,52.27125],[21.88744,52.27102],[21.88667,52.27105]]}},{"type":"Feature","properties":{"numer":"4248W","klasa":"droga zbiorcza","kat":"powiatowa"},"geometry":{"type":"LineString","coordinates":[[21.88667,52.27105],[21.87909,52.27268],[21.87892,52.27275],[21.87891,52.2731],[21.8787,52.27322],[21.874,52.27314],[21.86929,52.27269],[21.86623,52.2721],[21.86533,52.27203],[21.855940853852715,52.27319559849353]]}},{"type":"Feature","properties":{"numer":"4249W","klasa":"droga zbiorcza","kat":"powiatowa"},"geometry":{"type":"LineString","coordinates":[[21.9031,52.27068],[21.90334,52.27195],[21.90334,52.27219],[21.90315,52.27255],[21.9023,52.27316],[21.89854,52.27549],[21.89114,52.28124],[21.88755,52.28332],[21.88301,52.28477],[21.88124,52.28585],[21.87793,52.28807],[21.877542394773638,52.288244802356985]]}},{"type":"Feature","properties":{"numer":"4248W,4249W","klasa":"droga zbiorcza","kat":"powiatowa"},"geometry":{"type":"LineString","coordinates":[[21.91049,52.26915],[21.91326,52.26916],[21.9137,52.26921],[21.9145,52.26951],[21.91516,52.26955]]}},{"type":"Feature","properties":{"numer":"697","klasa":"droga gĹ‚Ăłwna","kat":"wojewodzka"},"geometry":{"type":"LineString","coordinates":[[21.91049,52.26915],[21.91173,52.27023],[21.91575,52.27287],[21.92366,52.28274]]}},{"type":"Feature","properties":{"numer":"697","klasa":"droga gĹ‚Ăłwna","kat":"wojewodzka"},"geometry":{"type":"LineString","coordinates":[[21.92366,52.28274],[21.92371,52.28281]]}},{"type":"Feature","properties":{"numer":"4248W","klasa":"droga zbiorcza","kat":"powiatowa"},"geometry":{"type":"LineString","coordinates":[[22.00156,52.29897],[22.00144,52.29866],[21.99502,52.28991],[21.99283,52.28673],[21.99235,52.286],[21.99208,52.28498],[21.99165,52.28478],[21.99078,52.28476],[21.99067,52.28418],[21.99027,52.28371],[21.98975,52.28332],[21.98873,52.28296],[21.98737,52.28274],[21.98332,52.28308],[21.98288,52.28304],[21.98235,52.28287],[21.98115,52.28184],[21.97983,52.28051],[21.9779,52.2789],[21.97655,52.27754],[21.97589,52.27715],[21.97403,52.27634],[21.96405,52.27339],[21.95822,52.27215],[21.95714,52.27211],[21.95467,52.27224],[21.94793,52.27353],[21.92724,52.27101],[21.91657,52.26963],[21.91516,52.26955]]}},{"type":"Feature","properties":{"numer":"697","klasa":"droga gĹ‚Ăłwna","kat":"wojewodzka"},"geometry":{"type":"LineString","coordinates":[[21.93470383352592,52.31169270430729],[21.93359,52.30925],[21.92826,52.29367],[21.92814,52.29206],[21.92801,52.29161],[21.92662,52.2894],[21.92629,52.28719],[21.92596,52.28625],[21.92371,52.28281]]}},{"type":"Feature","properties":{"numer":"4250W","klasa":"droga zbiorcza","kat":"powiatowa"},"geometry":{"type":"LineString","coordinates":[[22.02622,52.27514],[22.02566,52.2751]]}}]}