{"type":"FeatureCollection","features":[{"type":"Feature","properties":{"numer":"4215W","klasa":"droga zbiorcza","kat":"powiatowa"},"geometry":{"type":"LineString","coordinates":[[21.93071838039558,52.481636367707424],[21.92997,52.48198],[21.92428,52.48624]]}},{"type":"Feature","properties":{"numer":"4207W","klasa":"droga zbiorcza","kat":"powiatowa"},"geometry":{"type":"LineString","coordinates":[[21.89913,52.48928],[21.89472,52.48223],[21.8941,52.4816],[21.8905,52.47893],[21.890104592137167,52.47865996536197]]}},{"type":"Feature","properties":{"numer":"4214W","klasa":"droga zbiorcza","kat":"powiatowa"},"geometry":{"type":"LineString","coordinates":[[21.89913,52.48928],[21.91339,52.48764]]}},{"type":"Feature","properties":{"numer":"4214W","klasa":"droga zbiorcza","kat":"powiatowa"},"geometry":{"type":"LineString","coordinates":[[21.84806,52.49517],[21.89913,52.48928]]}},{"type":"Feature","properties":{"numer":"4214W","klasa":"droga zbiorcza","kat":"powiatowa"},"geometry":{"type":"LineString","coordinates":[[21.83146905927835,52.495155451030925],[21.83169,52.49518],[21.83316,52.49573],[21.83552,52.49642],[21.83613,52.49649],[21.84806,52.49517]]}},{"type":"Feature","properties":{"numer":"4214W","klasa":"droga zbiorcza","kat":"powiatowa"},"geometry":{"type":"LineString","coordinates":[[21.829259481160534,52.495962077003234],[21.829442256966335,52.49570009834825]]}},{"type":"Feature","properties":{"numer":"4207W","klasa":"droga zbiorcza","kat":"powiatowa"},"geometry":{"type":"LineString","coordinates":[[21.90287,52.49635],[21.90294,52.49595],[21.90243,52.49467],[21.89913,52.48928]]}},{"type":"Feature","properties":{"numer":"4215W","klasa":"droga zbiorcza","kat":"powiatowa"},"geometry":{"type":"LineString","coordinates":[[21.91216,52.49428],[21.9071,52.49538],[21.90313,52.49646]]}},{"type":"Feature","properties":{"numer":"4215W","klasa":"droga zbiorcza","kat":"powiatowa"},"geometry":{"type":"LineString","coordinates":[[21.90287,52.49635],[21.90313,52.49646]]}},{"type":"Feature","properties":{"numer":"4207W","klasa":"droga zbiorcza","kat":"powiatowa"},"geometry":{"type":"LineString","coordinates":[[21.90254,52.49664],[21.90287,52.49635]]}},{"type":"Feature","properties":{"numer":"4215W","klasa":"droga zbiorcza","kat":"powiatowa"},"geometry":{"type":"LineString","coordinates":[[21.90313,52.49646],[21.90254,52.49664]]}},{"type":"Feature","properties":{"numer":"4207W","klasa":"droga zbiorcza","kat":"powiatowa"},"geometry":{"type":"LineString","coordinates":[[21.8909,52.51942],[21.89368,52.51656],[21.89484,52.51487],[21.89529,52.51457],[21.89784,52.51335],[21.89909,52.51153],[21.89917,52.51087],[21.89838,52.50953],[21.89855,52.50039],[21.89876,52.5],[21.90085,52.49798],[21.90254,52.49664]]}},{"type":"Feature","properties":{"numer":"4207W","klasa":"droga zbiorcza","kat":"powiatowa"},"geometry":{"type":"LineString","coordinates":[[21.90052,52.54385],[21.90046,52.54366],[21.8992,52.54265],[21.89445,52.54116],[21.88885,52.53844],[21.88694,52.53703],[21.88484,52.53524],[21.88355,52.5333],[21.88359,52.53282],[21.88717,52.52351],[21.88961,52.52069],[21.8909,52.51942]]}},{"type":"Feature","properties":{"numer":"4216W","klasa":"droga zbiorcza","kat":"powiatowa"},"geometry":{"type":"LineString","coordinates":[[21.90052,52.54385],[21.90313,52.54353],[21.90726,52.54402]]}},{"type":"Feature","properties":{"numer":"4207W","klasa":"droga zbiorcza","kat":"powiatowa"},"geometry":{"type":"LineString","coordinates":[[21.89974,52.54399],[21.90052,52.54385]]}},{"type":"Feature","properties":{"numer":"4210W","klasa":"droga zbiorcza","kat":"powiatowa"},"geometry":{"type":"LineString","coordinates":[[21.89974,52.54399],[21.89472,52.54477],[21.88983,52.5457],[21.87455,52.54972],[21.86853,52.5516],[21.86736,52.55185],[21.86424,52.55232],[21.86037,52.55317],[21.85943,52.55324],[21.85835,52.55319],[21.85282,52.55274],[21.8513,52.55255],[21.84801,52.55163],[21.84639,52.55073]]}},{"type":"Feature","properties":{"numer":"4207W","klasa":"droga zbiorcza","kat":"powiatowa"},"geometry":{"type":"LineString","coordinates":[[21.86786,52.57139],[21.86807,52.5705],[21.86835,52.57027],[21.86996,52.56977],[21.87226,52.56942],[21.87495,52.56852],[21.87828,52.56702],[21.88122,52.56503],[21.88445,52.56324],[21.88725,52.56024],[21.89153,52.55671],[21.89718,52.55309],[21.89832,52.55264],[21.90261,52.55197],[21.90303,52.55185],[21.9033,52.55168],[21.90345,52.55137],[21.90334,52.55104],[21.90013,52.54498],[21.89971,52.54414],[21.89974,52.54399]]}},{"type":"Feature","properties":{"numer":"4207W","klasa":"droga zbiorcza","kat":"powiatowa"},"geometry":{"type":"LineString","coordinates":[[21.86737,52.57392],[21.86786,52.57139]]}},{"type":"Feature","properties":{"numer":"4207W","klasa":"droga zbiorcza","kat":"powiatowa"},"geometry":{"type":"LineString","coordinates":[[21.86736,52.574],[21.86737,52.57392]]}},{"type":"Feature","properties":{"numer":"4207W","klasa":"droga zbiorcza","kat":"powiatowa"},"geometry":{"type":"LineString","coordinates":[[21.86736,52.574],[21.86233432675516,52.600503813638575]]}},{"type":"Feature","properties":{"numer":"4214W","klasa":"droga zbiorcza","kat":"powiatowa"},"geometry":{"type":"LineString","coordinates":[[21.91339,52.48764],[21.92201,52.48665],[21.92428,52.48624]]}},{"type":"Feature","properties":{"numer":"4215W","klasa":"droga zbiorcza","kat":"powiatowa"},"geometry":{"type":"LineString","coordinates":[[21.92428,52.48624],[21.92125,52.48866],[21.91842,52.4912],[21.91498,52.49331],[21.91316,52.494],[21.91216,52.49428]]}},{"type":"Feature","properties":{"numer":"4216W","klasa":"droga zbiorcza","kat":"powiatowa"},"geometry":{"type":"LineString","coordinates":[[21.90726,52.54402],[21.90997,52.54281],[21.91938,52.53449],[21.92016,52.53383],[21.92065,52.5336],[21.95459,52.52692],[21.96112,52.52579],[21.96166,52.52558],[21.96882,52.52154],[21.9698,52.52132],[21.97532,52.52084],[21.9762,52.5206],[21.97661,52.5203],[21.97952,52.51732],[21.98005,52.5171],[21.99174289984509,52.51615176380388]]}},{"type":"Feature","properties":{"numer":"4212W","klasa":"droga zbiorcza","kat":"powiatowa"},"geometry":{"type":"LineString","coordinates":[[21.94665,52.55647],[21.94606,52.5549],[21.94578,52.55455],[21.94539,52.55429],[21.94411,52.55387],[21.94161,52.55342],[21.93981,52.55279],[21.93648,52.5511],[21.93302,52.55006],[21.93114,52.54901],[21.92873,52.54807],[21.92599,52.54685],[21.92295,52.54593],[21.92152,52.54566],[21.91916,52.54533],[21.90726,52.54402]]}},{"type":"Feature","properties":{"numer":"4212W","klasa":"droga zbiorcza","kat":"powiatowa"},"geometry":{"type":"LineString","coordinates":[[21.94668,52.55656],[21.94665,52.55647]]}},{"type":"Feature","properties":{"numer":"4212W","klasa":"droga zbiorcza","kat":"powiatowa"},"geometry":{"type":"LineString","coordinates":[[21.941875551884532,52.59417340992574],[21.94737,52.58408],[21.9479,52.58286],[21.94424,52.56917],[21.94432,52.56671],[21.94483,52.56391],[21.94653,52.56306],[21.94664,52.56286],[21.94659,52.56232],[21.94676,52.56215],[21.94954,52.56171],[21.94978,52.56157],[21.94954,52.56033],[21.94935,52.56002],[21.9489,52.5598],[21.94777,52.55954],[21.9474,52.55924],[21.94668,52.55656]]}},{"type":"Feature","properties":{"numer":"4213W","klasa":"droga zbiorcza","kat":"powiatowa"},"geometry":{"type":"LineString","coordinates":[[21.84083430211541,52.51656090741733],[21.84586,52.51642],[21.84644,52.51649],[21.85778,52.51862],[21.85827,52.51883],[21.85908,52.51977],[21.85935,52.51995],[21.86197,52.52032],[21.86668,52.52179],[21.86775,52.52198],[21.86884,52.52199],[21.86968,52.52191],[21.87973,52.51977],[21.88213,52.51944],[21.88478,52.51927],[21.8909,52.51942]]}},{"type":"Feature","properties":{"numer":"4210W","klasa":"droga zbiorcza","kat":"powiatowa"},"geometry":{"type":"LineString","coordinates":[[21.803035748502996,52.539891174392785],[21.80528,52.54024],[21.80572,52.54038],[21.81271,52.5442],[21.81352,52.54439]]}},{"type":"Feature","properties":{"numer":"4210W","klasa":"droga zbiorcza","kat":"powiatowa"},"geometry":{"type":"LineString","coordinates":[[21.82683,52.54618],[21.82023,52.54518],[21.81352,52.54439]]}},{"type":"Feature","properties":{"numer":"4210W","klasa":"droga zbiorcza","kat":"powiatowa"},"geometry":{"type":"LineString","coordinates":[[21.82691,52.54619],[21.82683,52.54618]]}},{"type":"Feature","properties":{"numer":"4210W","klasa":"droga zbiorcza","kat":"powiatowa"},"geometry":{"type":"LineString","coordinates":[[21.84639,52.55073],[21.84545,52.55038],[21.83533,52.54747],[21.82691,52.54619]]}},{"type":"Feature","properties":{"numer":"4211W","klasa":"droga zbiorcza","kat":"powiatowa"},"geometry":{"type":"LineString","coordinates":[[21.796024383237576,52.55157642784725],[21.79624,52.55142],[21.79641916024738,52.551163475100346]]}},{"type":"Feature","properties":{"numer":"4211W","klasa":"droga zbiorcza","kat":"powiatowa"},"geometry":{"type":"LineString","coordinates":[[21.799299804732208,52.548148073015206],[21.79983,52.5479],[21.80291,52.54673],[21.80555,52.54551],[21.80759,52.54474],[21.80814,52.54459],[21.80901,52.54449],[21.81155,52.54454],[21.81352,52.54439]]}},{"type":"Feature","properties":{"numer":"4209W","klasa":"droga zbiorcza","kat":"powiatowa"},"geometry":{"type":"LineString","coordinates":[[21.84639,52.55073],[21.8459,52.55087],[21.84179,52.55143],[21.83912,52.55153],[21.80645838636376,52.56080837905703]]}},{"type":"Feature","properties":{"numer":"4208W","klasa":"droga zbiorcza","kat":"powiatowa"},"geometry":{"type":"LineString","coordinates":[[21.81373,52.58459],[21.81656,52.58299],[21.82101,52.58088],[21.82137,52.58063],[21.82139,52.58043],[21.81984,52.57655],[21.81989,52.5763],[21.82005,52.57619],[21.85248,52.56689],[21.85266,52.56685],[21.85291,52.56691],[21.85514,52.56809],[21.85727,52.56892],[21.85947,52.56943],[21.86401,52.57006],[21.86489,52.57033],[21.86759,52.57136],[21.86786,52.57139]]}},{"type":"Feature","properties":{"numer":"4208W","klasa":"droga zbiorcza","kat":"powiatowa"},"geometry":{"type":"LineString","coordinates":[[21.813678513853908,52.584594596977325],[21.81373,52.58459]]}},{"type":"Feature","properties":{"numer":"50","klasa":"droga gĹ‚Ăłwna ruchu przyĹ›pieszonego","kat":"krajowa"},"geometry":{"type":"LineString","coordinates":[[21.81373,52.58459],[21.813711401273885,52.58457372611465]]}},{"type":"Feature","properties":{"numer":"50","klasa":"droga gĹ‚Ăłwna ruchu przyĹ›pieszonego","kat":"krajowa"},"geometry":{"type":"LineString","coordinates":[[21.81378716666667,52.584630833333335],[21.81373,52.58459]]}},{"type":"Feature","properties":{"numer":"50","klasa":"droga gĹ‚Ăłwna ruchu przyĹ›pieszonego","kat":"krajowa"},"geometry":{"type":"LineString","coordinates":[[21.814075,52.584942500000004],[21.8146,52.58552]]}},{"type":"Feature","properties":{"numer":"50","klasa":"droga gĹ‚Ăłwna ruchu przyĹ›pieszonego","kat":"krajowa"},"geometry":{"type":"LineString","coordinates":[[21.8146,52.58552],[21.81484,52.58588]]}},{"type":"Feature","properties":{"numer":"50","klasa":"droga gĹ‚Ăłwna ruchu przyĹ›pieszonego","kat":"krajowa"},"geometry":{"type":"LineString","coordinates":[[21.823894521413152,52.593776960031676],[21.81633,52.58781],[21.8157,52.58721],[21.81484,52.58588]]}}]}