{"type":"FeatureCollection","features":[{"type":"Feature","properties":{"numer":"4528W","klasa":"droga zbiorcza","kat":"powiatowa"},"geometry":{"type":"LineString","coordinates":[[21.661158703262167,51.33269657797767],[21.66774,51.3321],[21.67291,51.33142]]}},{"type":"Feature","properties":{"numer":"4527W","klasa":"droga zbiorcza","kat":"powiatowa"},"geometry":{"type":"LineString","coordinates":[[21.66668,51.35433],[21.66456,51.35365],[21.66313,51.35331],[21.65792,51.35362],[21.655279119593185,51.35181433779413]]}},{"type":"Feature","properties":{"numer":"1937W","klasa":"droga zbiorcza","kat":"powiatowa"},"geometry":{"type":"LineString","coordinates":[[21.78867,51.26634],[21.78867,51.26647]]}},{"type":"Feature","properties":{"numer":"1937W","klasa":"droga zbiorcza","kat":"powiatowa"},"geometry":{"type":"LineString","coordinates":[[21.78867,51.26647],[21.78849,51.26686],[21.7885,51.26778],[21.78866,51.26794],[21.78912,51.26806]]}},{"type":"Feature","properties":{"numer":"1937W","klasa":"droga zbiorcza","kat":"powiatowa"},"geometry":{"type":"LineString","coordinates":[[21.78912,51.26806],[21.79075,51.26814],[21.79232,51.2681],[21.79273,51.26817],[21.79543,51.26943],[21.79908,51.27063],[21.79961,51.27092],[21.8002,51.27167],[21.80243,51.27322],[21.80329,51.27365],[21.80436,51.27437],[21.80609,51.27608],[21.80793,51.27853],[21.80878,51.27938],[21.81058,51.28086],[21.81096,51.28142],[21.81152,51.28158]]}},{"type":"Feature","properties":{"numer":"1937W","klasa":"droga zbiorcza","kat":"powiatowa"},"geometry":{"type":"LineString","coordinates":[[21.82004,51.2755],[21.82024,51.27518],[21.82048,51.27527],[21.82065,51.27545]]}},{"type":"Feature","properties":{"numer":"1937W","klasa":"droga zbiorcza","kat":"powiatowa"},"geometry":{"type":"LineString","coordinates":[[21.787850674563494,51.26217111991385],[21.787844041450775,51.26253704663212]]}},{"type":"Feature","properties":{"numer":"1937W","klasa":"droga zbiorcza","kat":"powiatowa"},"geometry":{"type":"LineString","coordinates":[[21.787842319293215,51.262632052324214],[21.78784,51.26276],[21.78803,51.26327],[21.78801,51.26464],[21.78842,51.2654],[21.78867,51.26634]]}},{"type":"Feature","properties":{"numer":"4530W","klasa":"droga zbiorcza","kat":"powiatowa"},"geometry":{"type":"LineString","coordinates":[[21.686468327342755,51.298881920857994],[21.68492,51.30066],[21.68469,51.3011],[21.68469,51.30308],[21.6853,51.30448]]}},{"type":"Feature","properties":{"numer":"190102W","klasa":"droga lokalna","kat":"powiatowa"},"geometry":{"type":"LineString","coordinates":[[21.7456,51.27553],[21.745574071740183,51.27545653659719]]}},{"type":"Feature","properties":{"numer":"450325W","klasa":"droga lokalna","kat":"powiatowa"},"geometry":{"type":"LineString","coordinates":[[21.74565,51.27565],[21.7456,51.27553]]}},{"type":"Feature","properties":{"numer":"450325W","klasa":"droga lokalna","kat":"powiatowa"},"geometry":{"type":"LineString","coordinates":[[21.74588,51.27661],[21.74565,51.27565]]}},{"type":"Feature","properties":{"numer":"450325W","klasa":"droga lokalna","kat":"powiatowa"},"geometry":{"type":"LineString","coordinates":[[21.74593,51.27728],[21.74588,51.27661]]}},{"type":"Feature","properties":{"numer":"1937W","klasa":"droga zbiorcza","kat":"powiatowa"},"geometry":{"type":"LineString","coordinates":[[21.82065,51.27545],[21.82004,51.2755]]}},{"type":"Feature","properties":{"numer":"1937W","klasa":"droga zbiorcza","kat":"powiatowa"},"geometry":{"type":"LineString","coordinates":[[21.82065,51.27545],[21.82194,51.27678],[21.8226,51.27726],[21.82245,51.27745],[21.82248,51.27889],[21.82273,51.28002],[21.82309,51.28064]]}},{"type":"Feature","properties":{"numer":"1937W","klasa":"droga zbiorcza","kat":"powiatowa"},"geometry":{"type":"LineString","coordinates":[[21.81152,51.28158],[21.81224,51.28152],[21.81422,51.28104],[21.8149,51.28077],[21.81581,51.28024],[21.81706,51.27916],[21.81875,51.27693],[21.82004,51.2755]]}},{"type":"Feature","properties":{"numer":"1937W","klasa":"droga zbiorcza","kat":"powiatowa"},"geometry":{"type":"LineString","coordinates":[[21.82309,51.28064],[21.823411341566565,51.281060521062415]]}},{"type":"Feature","properties":{"numer":"450325W","klasa":"droga lokalna","kat":"powiatowa"},"geometry":{"type":"LineString","coordinates":[[21.74568,51.27767],[21.74593,51.27728]]}},{"type":"Feature","properties":{"numer":"450325W","klasa":"droga lokalna","kat":"powiatowa"},"geometry":{"type":"LineString","coordinates":[[21.74543,51.27795],[21.74568,51.27767]]}},{"type":"Feature","properties":{"numer":"450334W","klasa":"droga lokalna","kat":"powiatowa"},"geometry":{"type":"LineString","coordinates":[[21.74543,51.27795],[21.7453,51.27889],[21.74562,51.28008],[21.74686,51.28295],[21.74878,51.28803]]}},{"type":"Feature","properties":{"numer":"4531W","klasa":"droga zbiorcza","kat":"powiatowa"},"geometry":{"type":"LineString","coordinates":[[21.74878,51.28803],[21.77619,51.2839],[21.7849,51.28265],[21.79114,51.28215],[21.79855,51.28114],[21.80068,51.28103],[21.81152,51.28158]]}},{"type":"Feature","properties":{"numer":"4531W","klasa":"droga zbiorcza","kat":"powiatowa"},"geometry":{"type":"LineString","coordinates":[[21.73829,51.30939],[21.73381,51.30333],[21.73357,51.30279],[21.73217,51.29166],[21.73249,51.2915],[21.741,51.29025],[21.74118,51.29003],[21.74097,51.28932],[21.74132,51.28914],[21.74878,51.28803]]}},{"type":"Feature","properties":{"numer":"4528W","klasa":"droga zbiorcza","kat":"powiatowa"},"geometry":{"type":"LineString","coordinates":[[21.73829,51.30939],[21.74298,51.30742],[21.74347,51.30747],[21.74546,51.30832],[21.74579,51.30835],[21.74628,51.30827]]}},{"type":"Feature","properties":{"numer":"4526W","klasa":"droga zbiorcza","kat":"powiatowa"},"geometry":{"type":"LineString","coordinates":[[21.74628,51.30827],[21.74649,51.30861]]}},{"type":"Feature","properties":{"numer":"4526W","klasa":"droga zbiorcza","kat":"powiatowa"},"geometry":{"type":"LineString","coordinates":[[21.74649,51.30861],[21.74654,51.30869]]}},{"type":"Feature","properties":{"numer":"4526W","klasa":"droga zbiorcza","kat":"powiatowa"},"geometry":{"type":"LineString","coordinates":[[21.74654,51.30869],[21.74677,51.30902],[21.74678,51.30933],[21.74585,51.31081],[21.74578,51.31117],[21.74685,51.31277],[21.747,51.31318],[21.74863,51.33191],[21.74953,51.33778],[21.75041,51.34584],[21.75377,51.35013],[21.75422,51.35116],[21.76096,51.35959],[21.76995,51.36704],[21.7703,51.36742],[21.77058,51.36798]]}},{"type":"Feature","properties":{"numer":"4527W","klasa":"droga zbiorcza","kat":"powiatowa"},"geometry":{"type":"LineString","coordinates":[[21.77058,51.36798],[21.76179,51.36921],[21.76058,51.3692],[21.73041,51.36087]]}},{"type":"Feature","properties":{"numer":"4530W","klasa":"droga zbiorcza","kat":"powiatowa"},"geometry":{"type":"LineString","coordinates":[[21.68537,51.30461],[21.6853,51.30448]]}},{"type":"Feature","properties":{"numer":"4530W","klasa":"droga zbiorcza","kat":"powiatowa"},"geometry":{"type":"LineString","coordinates":[[21.68537,51.30461],[21.68573,51.30516],[21.6866,51.30584],[21.68684,51.30623],[21.68701,51.30757],[21.68734,51.30884],[21.69275,51.32725]]}},{"type":"Feature","properties":{"numer":"4528W","klasa":"droga zbiorcza","kat":"powiatowa"},"geometry":{"type":"LineString","coordinates":[[21.69275,51.32725],[21.69417,51.32703],[21.70259,51.32484],[21.71455,51.32057],[21.71543,51.32012],[21.72158,51.31639],[21.73829,51.30939]]}},{"type":"Feature","properties":{"numer":"4529W","klasa":"droga zbiorcza","kat":"powiatowa"},"geometry":{"type":"LineString","coordinates":[[21.665132460136675,51.3189325284738],[21.66585,51.31932],[21.66885,51.32033],[21.66936,51.32072],[21.67291,51.33142]]}},{"type":"Feature","properties":{"numer":"4528W","klasa":"droga zbiorcza","kat":"powiatowa"},"geometry":{"type":"LineString","coordinates":[[21.67291,51.33142],[21.6822,51.3297],[21.69185,51.32741],[21.69275,51.32725]]}},{"type":"Feature","properties":{"numer":"4521W","klasa":"droga zbiorcza","kat":"powiatowa"},"geometry":{"type":"LineString","coordinates":[[21.66668,51.35433],[21.66713,51.35332],[21.66746,51.35303],[21.68836,51.33932],[21.69113,51.33333],[21.69333,51.32825],[21.69275,51.32725]]}},{"type":"Feature","properties":{"numer":"4521W,4527W","klasa":"droga zbiorcza","kat":"powiatowa"},"geometry":{"type":"LineString","coordinates":[[21.66843,51.35472],[21.66668,51.35433]]}},{"type":"Feature","properties":{"numer":"2524L","klasa":"droga gĹ‚Ăłwna","kat":"powiatowa"},"geometry":{"type":"LineString","coordinates":[[21.82447,51.31199],[21.82448153849538,51.31198592101616]]}},{"type":"Feature","properties":{"numer":"4528W","klasa":"droga zbiorcza","kat":"powiatowa"},"geometry":{"type":"LineString","coordinates":[[21.74628,51.30827],[21.7525,51.30692],[21.7532,51.30664],[21.75457,51.30585],[21.75714,51.3074],[21.75813,51.30856],[21.75986,51.30979],[21.76068,51.31014],[21.76341,51.31098],[21.76406,51.31111],[21.76812,51.31151],[21.77612,51.31174],[21.77801,51.31235],[21.78098,51.31286],[21.78383,51.31317],[21.78615,51.31377],[21.78724,51.31415],[21.79272,51.3168],[21.79333,51.31692],[21.79652,51.31716],[21.79966,51.31696],[21.80904,51.3147],[21.81311,51.31405],[21.81411,51.3135],[21.81854,51.31314],[21.82115,51.31283],[21.82224,51.31263],[21.82447,51.31199]]}},{"type":"Feature","properties":{"numer":"4524W","klasa":"droga zbiorcza","kat":"powiatowa"},"geometry":{"type":"LineString","coordinates":[[21.8377,51.34819],[21.83771,51.34819]]}},{"type":"Feature","properties":{"numer":"4524W","klasa":"droga zbiorcza","kat":"powiatowa"},"geometry":{"type":"LineString","coordinates":[[21.78431,51.36709],[21.78262,51.36581],[21.78253,51.36391],[21.78278,51.36335],[21.78491,51.36127],[21.7855,51.36089],[21.80061,51.35701],[21.81377,51.35513],[21.81828,51.35462],[21.83402,51.35076],[21.83771,51.34819]]}},{"type":"Feature","properties":{"numer":"4524W","klasa":"droga zbiorcza","kat":"powiatowa"},"geometry":{"type":"LineString","coordinates":[[21.79205,51.37401],[21.79255,51.37334],[21.79244,51.37307],[21.78578,51.36793],[21.78496,51.36739],[21.78431,51.36709]]}},{"type":"Feature","properties":{"numer":"4524W","klasa":"droga zbiorcza","kat":"powiatowa"},"geometry":{"type":"LineString","coordinates":[[21.79201,51.37406],[21.79205,51.37401]]}},{"type":"Feature","properties":{"numer":"4524W","klasa":"droga zbiorcza","kat":"powiatowa"},"geometry":{"type":"LineString","coordinates":[[21.78634,51.39436],[21.78879,51.38729],[21.79306,51.37582],[21.79301,51.37546],[21.79195,51.3745],[21.79191,51.37423],[21.79201,51.37406]]}},{"type":"Feature","properties":{"numer":"4527W","klasa":"droga zbiorcza","kat":"powiatowa"},"geometry":{"type":"LineString","coordinates":[[21.71814,51.35756],[21.71697,51.35727],[21.71349,51.35703],[21.70979,51.35776],[21.70644,51.35869],[21.7057,51.35878],[21.69132,51.35652],[21.6808,51.35591],[21.66843,51.35472]]}},{"type":"Feature","properties":{"numer":"4527W","klasa":"droga zbiorcza","kat":"powiatowa"},"geometry":{"type":"LineString","coordinates":[[21.71814,51.35756],[21.71822,51.35758]]}},{"type":"Feature","properties":{"numer":"4527W","klasa":"droga zbiorcza","kat":"powiatowa"},"geometry":{"type":"LineString","coordinates":[[21.73041,51.36087],[21.71822,51.35758]]}},{"type":"Feature","properties":{"numer":"4521W","klasa":"droga zbiorcza","kat":"powiatowa"},"geometry":{"type":"LineString","coordinates":[[21.66843,51.35472],[21.66855,51.35567],[21.668884402327347,51.3570995366424]]}},{"type":"Feature","properties":{"numer":"4522W","klasa":"droga zbiorcza","kat":"powiatowa"},"geometry":{"type":"LineString","coordinates":[[21.71833,51.37644],[21.72618,51.36662],[21.73041,51.36087]]}},{"type":"Feature","properties":{"numer":"12","klasa":"droga gĹ‚Ăłwna ruchu przyĹ›pieszonego","kat":"krajowa"},"geometry":{"type":"LineString","coordinates":[[21.68805812999042,51.36967092217609],[21.679268314975438,51.368414632068436]]}},{"type":"Feature","properties":{"numer":"12","klasa":"droga gĹ‚Ăłwna ruchu przyĹ›pieszonego","kat":"krajowa"},"geometry":{"type":"LineString","coordinates":[[21.71833,51.37644],[21.706232832465105,51.37297243129171]]}},{"type":"Feature","properties":{"numer":"2523L","klasa":"droga zbiorcza","kat":"powiatowa"},"geometry":{"type":"LineString","coordinates":[[21.83771,51.34819],[21.83773181748492,51.34817715230023]]}},{"type":"Feature","properties":{"numer":"12","klasa":"droga gĹ‚Ăłwna ruchu przyĹ›pieszonego","kat":"krajowa"},"geometry":{"type":"LineString","coordinates":[[21.78634,51.39436],[21.78985,51.39477]]}},{"type":"Feature","properties":{"numer":"4527W","klasa":"droga zbiorcza","kat":"powiatowa"},"geometry":{"type":"LineString","coordinates":[[21.78431,51.36709],[21.78456,51.36798],[21.78409,51.36828],[21.7834,51.36853],[21.77559,51.36984]]}},{"type":"Feature","properties":{"numer":"4527W","klasa":"droga zbiorcza","kat":"powiatowa"},"geometry":{"type":"LineString","coordinates":[[21.77559,51.36984],[21.77124,51.36812],[21.77058,51.36798]]}},{"type":"Feature","properties":{"numer":"4523W","klasa":"droga zbiorcza","kat":"powiatowa"},"geometry":{"type":"LineString","coordinates":[[21.76849,51.39097],[21.77424,51.38316],[21.7762,51.37351],[21.77581,51.37075],[21.77559,51.36984]]}},{"type":"Feature","properties":{"numer":"12","klasa":"droga gĹ‚Ăłwna ruchu przyĹ›pieszonego","kat":"krajowa"},"geometry":{"type":"LineString","coordinates":[[21.76849,51.39097],[21.71833,51.37644]]}},{"type":"Feature","properties":{"numer":"12","klasa":"droga gĹ‚Ăłwna ruchu przyĹ›pieszonego","kat":"krajowa"},"geometry":{"type":"LineString","coordinates":[[21.78634,51.39436],[21.77638,51.39319],[21.77539,51.39296],[21.76849,51.39097]]}},{"type":"Feature","properties":{"numer":"4505W","klasa":"droga zbiorcza","kat":"powiatowa"},"geometry":{"type":"LineString","coordinates":[[21.76080880693167,51.401278757538705],[21.76849,51.39097]]}}]}