{"type":"FeatureCollection","features":[{"type":"Feature","properties":{"numer":"561","klasa":"droga gĹ‚Ăłwna","kat":"wojewodzka"},"geometry":{"type":"LineString","coordinates":[[19.889813372022793,52.90909627005136],[19.89023,52.91046],[19.89039,52.91565]]}},{"type":"Feature","properties":{"numer":"561","klasa":"droga gĹ‚Ăłwna","kat":"wojewodzka"},"geometry":{"type":"LineString","coordinates":[[19.89039,52.91565],[19.89039,52.9157]]}},{"type":"Feature","properties":{"numer":"561","klasa":"droga gĹ‚Ăłwna","kat":"wojewodzka"},"geometry":{"type":"LineString","coordinates":[[19.88483,52.93001],[19.88569,52.92866],[19.88968,52.92476],[19.89019,52.92389],[19.89083,52.92158],[19.89089,52.92102],[19.89039,52.9157]]}},{"type":"Feature","properties":{"numer":"4635W","klasa":"droga zbiorcza","kat":"powiatowa"},"geometry":{"type":"LineString","coordinates":[[19.88483,52.93001],[19.88698,52.92978],[19.89162,52.92906],[19.89275,52.92884],[19.8937,52.92854],[19.8951,52.92784],[19.90436,52.92224],[19.90552,52.92185],[19.90664,52.92176],[19.91895,52.92184],[19.92164,52.92205],[19.92201,52.92201],[19.92286,52.92176]]}},{"type":"Feature","properties":{"numer":"561","klasa":"droga gĹ‚Ăłwna","kat":"wojewodzka"},"geometry":{"type":"LineString","coordinates":[[19.89096,52.9616],[19.89305,52.96012],[19.89312,52.95993],[19.89201,52.95843],[19.89234,52.95784],[19.89172,52.95545],[19.88873,52.94064],[19.88798,52.93859],[19.8856,52.93406],[19.88526,52.93319],[19.88493,52.93219],[19.88469,52.93092],[19.88483,52.93001]]}},{"type":"Feature","properties":{"numer":"4635W","klasa":"droga zbiorcza","kat":"powiatowa"},"geometry":{"type":"LineString","coordinates":[[19.92298,52.92172],[19.92365,52.92144],[19.92607,52.91977],[19.92684,52.91949],[19.92787,52.91928],[19.93019,52.91902],[19.94617,52.91788],[19.94707,52.91775],[19.948004376361773,52.917505163413225]]}},{"type":"Feature","properties":{"numer":"460109W","klasa":"droga dojazdowa","kat":"powiatowa"},"geometry":{"type":"LineString","coordinates":[[19.95554,52.96426],[19.95576,52.96558]]}},{"type":"Feature","properties":{"numer":"460109W","klasa":"droga dojazdowa","kat":"powiatowa"},"geometry":{"type":"LineString","coordinates":[[19.95679,52.96556],[19.95877,52.96551]]}},{"type":"Feature","properties":{"numer":"460109W","klasa":"droga dojazdowa","kat":"powiatowa"},"geometry":{"type":"LineString","coordinates":[[19.95576,52.96558],[19.95679,52.96556]]}},{"type":"Feature","properties":{"numer":"460109W","klasa":"droga dojazdowa","kat":"powiatowa"},"geometry":{"type":"LineString","coordinates":[[19.95877,52.96551],[19.9594,52.96641]]}},{"type":"Feature","properties":{"numer":"460109W","klasa":"droga dojazdowa","kat":"powiatowa"},"geometry":{"type":"LineString","coordinates":[[19.9594,52.96641],[19.9596,52.9665]]}},{"type":"Feature","properties":{"numer":"460109W","klasa":"droga dojazdowa","kat":"powiatowa"},"geometry":{"type":"LineString","coordinates":[[19.9596,52.9665],[19.96106,52.96717]]}},{"type":"Feature","properties":{"numer":"460109W","klasa":"droga dojazdowa","kat":"powiatowa"},"geometry":{"type":"LineString","coordinates":[[19.96106,52.96717],[19.96238,52.96777]]}},{"type":"Feature","properties":{"numer":"4634W","klasa":"droga zbiorcza","kat":"powiatowa"},"geometry":{"type":"LineString","coordinates":[[19.98076,52.93777],[19.98068,52.93773]]}},{"type":"Feature","properties":{"numer":"4634W","klasa":"droga zbiorcza","kat":"powiatowa"},"geometry":{"type":"LineString","coordinates":[[19.98076,52.93777],[19.9915,52.94322],[20.02094,52.94801],[20.02328,52.94886],[20.02856,52.95112],[20.03076,52.95166],[20.03502,52.95302],[20.041025834433338,52.95578584480483]]}},{"type":"Feature","properties":{"numer":"4632W","klasa":"droga zbiorcza","kat":"powiatowa"},"geometry":{"type":"LineString","coordinates":[[20.041017611562516,52.95582987142569],[20.02808,52.95738],[20.02489,52.95784],[20.01304,52.96401],[20.01261,52.96422],[20.0119,52.96442],[20.01088,52.96447],[20.00696,52.96424],[20.0045,52.96385]]}},{"type":"Feature","properties":{"numer":"4632W","klasa":"droga zbiorcza","kat":"powiatowa"},"geometry":{"type":"LineString","coordinates":[[20.00422,52.96455],[20.00432,52.964],[20.0045,52.96385]]}},{"type":"Feature","properties":{"numer":"4632W","klasa":"droga zbiorcza","kat":"powiatowa"},"geometry":{"type":"LineString","coordinates":[[19.99942,52.97654],[20.00009,52.97645],[20.00377,52.97534],[20.00505,52.97477],[20.00538,52.97437],[20.00542,52.97397],[20.00419,52.9667],[20.00422,52.96455]]}},{"type":"Feature","properties":{"numer":"4632W","klasa":"droga zbiorcza","kat":"powiatowa"},"geometry":{"type":"LineString","coordinates":[[19.98161,52.97622],[19.983,52.97514],[19.98341,52.97495],[19.98647,52.97467],[19.98817,52.97527],[19.99139,52.97579],[19.99942,52.97654]]}},{"type":"Feature","properties":{"numer":"4640W","klasa":"droga gĹ‚Ăłwna","kat":"powiatowa"},"geometry":{"type":"LineString","coordinates":[[19.95907,52.98357],[20.0286,53.00097],[20.0314,53.00137],[20.03463,53.0022],[20.036430534856166,53.00256516465341]]}},{"type":"Feature","properties":{"numer":"4635W","klasa":"droga zbiorcza","kat":"powiatowa"},"geometry":{"type":"LineString","coordinates":[[19.92286,52.92176],[19.92298,52.92172]]}},{"type":"Feature","properties":{"numer":"4634W","klasa":"droga zbiorcza","kat":"powiatowa"},"geometry":{"type":"LineString","coordinates":[[19.90234,52.9685],[19.90508,52.96397],[19.90678,52.95875],[19.90981,52.9554],[19.91148,52.9533],[19.91184,52.95252],[19.91252,52.95179],[19.91261,52.95147],[19.91262,52.94919],[19.91271,52.94887],[19.91378,52.94737],[19.91678,52.94504],[19.91878,52.94307],[19.91944,52.94271],[19.91998,52.94264],[19.92107,52.94295],[19.92217,52.94288],[19.92689,52.94312],[19.92791,52.94311],[19.96316,52.93873],[19.97949,52.9373],[19.97993,52.93736],[19.98068,52.93773]]}},{"type":"Feature","properties":{"numer":"4633W","klasa":"","kat":"powiatowa"},"geometry":{"type":"LineString","coordinates":[[19.90567,52.96956],[19.90613,52.96936],[19.9065,52.96929],[19.91518,52.96859],[19.91605,52.96846],[19.92066,52.96736],[19.9269,52.9652],[19.92807,52.96495],[19.95554,52.96426]]}},{"type":"Feature","properties":{"numer":"4640W","klasa":"droga gĹ‚Ăłwna","kat":"powiatowa"},"geometry":{"type":"LineString","coordinates":[[19.90605,52.96992],[19.90714,52.97009],[19.95907,52.98357]]}},{"type":"Feature","properties":{"numer":"4632W","klasa":"droga zbiorcza","kat":"powiatowa"},"geometry":{"type":"LineString","coordinates":[[19.9173,52.99511],[19.93133,52.99031],[19.94995,52.98571]]}},{"type":"Feature","properties":{"numer":"541","klasa":"droga gĹ‚Ăłwna","kat":"wojewodzka"},"geometry":{"type":"LineString","coordinates":[[19.91824,52.99678],[19.9173,52.99511]]}},{"type":"Feature","properties":{"numer":"541","klasa":"droga gĹ‚Ăłwna","kat":"wojewodzka"},"geometry":{"type":"LineString","coordinates":[[19.91827,52.99682],[19.91824,52.99678]]}},{"type":"Feature","properties":{"numer":"541","klasa":"droga gĹ‚Ăłwna","kat":"wojewodzka"},"geometry":{"type":"LineString","coordinates":[[19.8676,52.95809],[19.88382,52.96066],[19.88447,52.96098],[19.88558,52.96193],[19.88707,52.96264],[19.88742,52.96266],[19.88828,52.96248],[19.88927,52.96193]]}},{"type":"Feature","properties":{"numer":"541","klasa":"droga gĹ‚Ăłwna","kat":"wojewodzka"},"geometry":{"type":"LineString","coordinates":[[19.88927,52.96193],[19.89043,52.9613],[19.89096,52.9616]]}},{"type":"Feature","properties":{"numer":"541","klasa":"droga gĹ‚Ăłwna","kat":"wojewodzka"},"geometry":{"type":"LineString","coordinates":[[19.89096,52.9616],[19.89144,52.96187]]}},{"type":"Feature","properties":{"numer":"541","klasa":"droga gĹ‚Ăłwna","kat":"wojewodzka"},"geometry":{"type":"LineString","coordinates":[[19.89144,52.96187],[19.89048,52.96256]]}},{"type":"Feature","properties":{"numer":"541","klasa":"droga gĹ‚Ăłwna","kat":"wojewodzka"},"geometry":{"type":"LineString","coordinates":[[19.89266,52.96259],[19.89144,52.96187]]}},{"type":"Feature","properties":{"numer":"541","klasa":"droga gĹ‚Ăłwna","kat":"wojewodzka"},"geometry":{"type":"LineString","coordinates":[[19.89048,52.96256],[19.88927,52.96193]]}},{"type":"Feature","properties":{"numer":"541","klasa":"droga gĹ‚Ăłwna","kat":"wojewodzka"},"geometry":{"type":"LineString","coordinates":[[19.89306,52.9629],[19.89266,52.96259]]}},{"type":"Feature","properties":{"numer":"4625W","klasa":"droga zbiorcza","kat":"powiatowa"},"geometry":{"type":"LineString","coordinates":[[19.88862,52.96395],[19.88909,52.96352],[19.89048,52.96256]]}},{"type":"Feature","properties":{"numer":"4625W","klasa":"droga zbiorcza","kat":"powiatowa"},"geometry":{"type":"LineString","coordinates":[[19.88855,52.96403],[19.88862,52.96395]]}},{"type":"Feature","properties":{"numer":"4625W","klasa":"droga zbiorcza","kat":"powiatowa"},"geometry":{"type":"LineString","coordinates":[[19.88754,52.96457],[19.88817,52.96435],[19.88855,52.96403]]}},{"type":"Feature","properties":{"numer":"541","klasa":"droga gĹ‚Ăłwna","kat":"wojewodzka"},"geometry":{"type":"LineString","coordinates":[[19.90234,52.9685],[19.89763,52.96714],[19.8964,52.9666],[19.89567,52.96605],[19.89496,52.96528],[19.89361,52.96343],[19.89306,52.9629]]}},{"type":"Feature","properties":{"numer":"541","klasa":"droga gĹ‚Ăłwna","kat":"wojewodzka"},"geometry":{"type":"LineString","coordinates":[[19.90434,52.96926],[19.90356,52.9689],[19.90234,52.9685]]}},{"type":"Feature","properties":{"numer":"541","klasa":"droga gĹ‚Ăłwna","kat":"wojewodzka"},"geometry":{"type":"LineString","coordinates":[[19.90448,52.96933],[19.90434,52.96926]]}},{"type":"Feature","properties":{"numer":"541","klasa":"droga gĹ‚Ăłwna","kat":"wojewodzka"},"geometry":{"type":"LineString","coordinates":[[19.9049,52.96959],[19.90448,52.96933]]}},{"type":"Feature","properties":{"numer":"4633W","klasa":"","kat":"powiatowa"},"geometry":{"type":"LineString","coordinates":[[19.90545,52.96974],[19.90567,52.96956]]}},{"type":"Feature","properties":{"numer":"541","klasa":"droga gĹ‚Ăłwna","kat":"wojewodzka"},"geometry":{"type":"LineString","coordinates":[[19.90516,52.96976],[19.9049,52.96959]]}},{"type":"Feature","properties":{"numer":"4633W","klasa":"","kat":"powiatowa"},"geometry":{"type":"LineString","coordinates":[[19.90532,52.96985],[19.90545,52.96974]]}},{"type":"Feature","properties":{"numer":"541","klasa":"droga gĹ‚Ăłwna","kat":"wojewodzka"},"geometry":{"type":"LineString","coordinates":[[19.90532,52.96985],[19.90516,52.96976]]}},{"type":"Feature","properties":{"numer":"4640W","klasa":"droga gĹ‚Ăłwna","kat":"powiatowa"},"geometry":{"type":"LineString","coordinates":[[19.90532,52.96985],[19.90555,52.96988]]}},{"type":"Feature","properties":{"numer":"4640W","klasa":"droga gĹ‚Ăłwna","kat":"powiatowa"},"geometry":{"type":"LineString","coordinates":[[19.90555,52.96988],[19.90605,52.96992]]}},{"type":"Feature","properties":{"numer":"541","klasa":"droga gĹ‚Ăłwna","kat":"wojewodzka"},"geometry":{"type":"LineString","coordinates":[[19.85388655832126,52.953409192278464],[19.86,52.9564],[19.86084,52.95672],[19.86205,52.95713],[19.86285,52.95731],[19.8676,52.95809]]}},{"type":"Feature","properties":{"numer":"4622W","klasa":"droga zbiorcza","kat":"powiatowa"},"geometry":{"type":"LineString","coordinates":[[19.8486201475688,52.963694437988686],[19.85335,52.96247],[19.85605,52.96197],[19.86088,52.96088],[19.86596,52.95909],[19.8672,52.95853],[19.8676,52.95809]]}},{"type":"Feature","properties":{"numer":"541","klasa":"droga gĹ‚Ăłwna","kat":"wojewodzka"},"geometry":{"type":"LineString","coordinates":[[19.90529,52.96999],[19.90532,52.96985]]}},{"type":"Feature","properties":{"numer":"541","klasa":"droga gĹ‚Ăłwna","kat":"wojewodzka"},"geometry":{"type":"LineString","coordinates":[[19.90524,52.97016],[19.90529,52.96999]]}},{"type":"Feature","properties":{"numer":"541","klasa":"droga gĹ‚Ăłwna","kat":"wojewodzka"},"geometry":{"type":"LineString","coordinates":[[19.91244,52.98644],[19.90866,52.97964],[19.90528,52.97073],[19.90524,52.97016]]}},{"type":"Feature","properties":{"numer":"4625W","klasa":"droga zbiorcza","kat":"powiatowa"},"geometry":{"type":"LineString","coordinates":[[19.8627263989895,52.99774552218285],[19.8629,52.99764],[19.86355,52.9974],[19.88206,52.99236],[19.88273,52.99204],[19.88326,52.99165],[19.88492,52.98993],[19.8849,52.98953],[19.88403,52.98837],[19.88141,52.98672],[19.88085,52.9861],[19.88064,52.98557],[19.87984,52.98121],[19.88005,52.98044],[19.88127,52.97842],[19.88269,52.97221],[19.88515,52.96828],[19.8852,52.9676],[19.88501,52.96612],[19.88509,52.96574],[19.88541,52.96533],[19.88591,52.96502],[19.88754,52.96457]]}},{"type":"Feature","properties":{"numer":"541","klasa":"droga gĹ‚Ăłwna","kat":"wojewodzka"},"geometry":{"type":"LineString","coordinates":[[19.91247,52.98648],[19.91244,52.98644]]}},{"type":"Feature","properties":{"numer":"541","klasa":"droga gĹ‚Ăłwna","kat":"wojewodzka"},"geometry":{"type":"LineString","coordinates":[[19.9173,52.99511],[19.91247,52.98648]]}},{"type":"Feature","properties":{"numer":"541","klasa":"droga gĹ‚Ăłwna","kat":"wojewodzka"},"geometry":{"type":"LineString","coordinates":[[19.91827,52.99682],[19.92099846253178,53.00172453694363]]}},{"type":"Feature","properties":{"numer":"460109W","klasa":"droga dojazdowa","kat":"powiatowa"},"geometry":{"type":"LineString","coordinates":[[19.96238,52.96777],[19.97043,52.97187]]}},{"type":"Feature","properties":{"numer":"460109W","klasa":"droga dojazdowa","kat":"powiatowa"},"geometry":{"type":"LineString","coordinates":[[19.97043,52.97187],[19.97175,52.97253]]}},{"type":"Feature","properties":{"numer":"460109W","klasa":"droga dojazdowa","kat":"powiatowa"},"geometry":{"type":"LineString","coordinates":[[19.97175,52.97253],[19.97339,52.97332],[19.97459,52.97375]]}},{"type":"Feature","properties":{"numer":"460109W","klasa":"droga dojazdowa","kat":"powiatowa"},"geometry":{"type":"LineString","coordinates":[[19.97459,52.97375],[19.98161,52.97622]]}},{"type":"Feature","properties":{"numer":"4632W","klasa":"droga zbiorcza","kat":"powiatowa"},"geometry":{"type":"LineString","coordinates":[[19.95907,52.98357],[19.97509,52.98002],[19.97725,52.97884],[19.98161,52.97622]]}},{"type":"Feature","properties":{"numer":"4632W","klasa":"droga zbiorcza","kat":"powiatowa"},"geometry":{"type":"LineString","coordinates":[[19.95009,52.98567],[19.95461,52.98457],[19.95907,52.98357]]}},{"type":"Feature","properties":{"numer":"4632W","klasa":"droga zbiorcza","kat":"powiatowa"},"geometry":{"type":"LineString","coordinates":[[19.94995,52.98571],[19.95009,52.98567]]}},{"type":"Feature","properties":{"numer":"4631W","klasa":"","kat":"powiatowa"},"geometry":{"type":"LineString","coordinates":[[19.99942,52.97654],[20.00723,52.97721],[20.00787,52.97716],[20.01086,52.97668],[20.02033,52.975],[20.02191,52.97456],[20.02417,52.9737],[20.03165,52.97198],[20.03473,52.97136],[20.039011845305254,52.97027139526138]]}}]}