{"type":"FeatureCollection","features":[{"type":"Feature","properties":{"numer":"1316E","klasa":"","kat":"powiatowa"},"geometry":{"type":"LineString","coordinates":[[20.35991,51.92827],[20.35990701866551,51.92826578414108]]}},{"type":"Feature","properties":{"numer":"4722W","klasa":"","kat":"powiatowa"},"geometry":{"type":"LineString","coordinates":[[20.43636,51.95417],[20.43643,51.95413]]}},{"type":"Feature","properties":{"numer":"4722W","klasa":"","kat":"powiatowa"},"geometry":{"type":"LineString","coordinates":[[20.43643,51.95413],[20.43669,51.954],[20.43677,51.95385],[20.43642,51.95342],[20.43656,51.95308],[20.43937,51.95128],[20.44005,51.95162],[20.44062,51.95256],[20.44124,51.95281],[20.44167,51.95286],[20.45032,51.95261],[20.45075,51.9528],[20.45217,51.95372],[20.457672280088133,51.95637185559544]]}},{"type":"Feature","properties":{"numer":"4719W","klasa":"droga zbiorcza","kat":"powiatowa"},"geometry":{"type":"LineString","coordinates":[[20.39189,51.96875],[20.39369,51.96848],[20.39517,51.96843],[20.443313116099215,51.97015980917757]]}},{"type":"Feature","properties":{"numer":"70","klasa":"droga gĹ‚Ăłwna","kat":"krajowa"},"geometry":{"type":"LineString","coordinates":[[20.372703180564898,51.92374254057386],[20.3722,51.92393],[20.36896,51.92565],[20.3657,51.92695],[20.35999,51.92838]]}},{"type":"Feature","properties":{"numer":"4721W","klasa":"","kat":"powiatowa"},"geometry":{"type":"LineString","coordinates":[[20.35999,51.92838],[20.35991,51.92827]]}},{"type":"Feature","properties":{"numer":"70","klasa":"droga gĹ‚Ăłwna","kat":"krajowa"},"geometry":{"type":"LineString","coordinates":[[20.30559,51.93757],[20.30641,51.93698],[20.30722,51.93661],[20.30846,51.93628],[20.30983,51.93616],[20.3105,51.93619],[20.31464,51.93667],[20.32896,51.9374],[20.33517,51.9378],[20.33611,51.93784],[20.3368,51.93778],[20.33812,51.9373],[20.35139,51.93127],[20.35999,51.92838]]}},{"type":"Feature","properties":{"numer":"4721W","klasa":"","kat":"powiatowa"},"geometry":{"type":"LineString","coordinates":[[20.37681,51.96688],[20.3765,51.96514],[20.37275,51.95161],[20.3699,51.94245],[20.36549,51.93606],[20.35999,51.92838]]}},{"type":"Feature","properties":{"numer":"4721W","klasa":"","kat":"powiatowa"},"geometry":{"type":"LineString","coordinates":[[20.37682,51.96694],[20.37681,51.96688]]}},{"type":"Feature","properties":{"numer":"4721W","klasa":"","kat":"powiatowa"},"geometry":{"type":"LineString","coordinates":[[20.37614,51.97159],[20.37685,51.96772],[20.37682,51.96694]]}},{"type":"Feature","properties":{"numer":"719","klasa":"droga gĹ‚Ăłwna","kat":"wojewodzka"},"geometry":{"type":"LineString","coordinates":[[20.34838,51.97467],[20.34839,51.97492]]}},{"type":"Feature","properties":{"numer":"4719W","klasa":"droga zbiorcza","kat":"powiatowa"},"geometry":{"type":"LineString","coordinates":[[20.35008,51.97844],[20.35503,51.9772],[20.35886,51.9754],[20.36014,51.9749],[20.36126,51.9743],[20.37614,51.97159]]}},{"type":"Feature","properties":{"numer":"719","klasa":"droga gĹ‚Ăłwna","kat":"wojewodzka"},"geometry":{"type":"LineString","coordinates":[[20.34839,51.97492],[20.34852,51.97611],[20.34936,51.97743]]}},{"type":"Feature","properties":{"numer":"719","klasa":"droga gĹ‚Ăłwna","kat":"wojewodzka"},"geometry":{"type":"LineString","coordinates":[[20.34936,51.97743],[20.34939,51.97748]]}},{"type":"Feature","properties":{"numer":"4722W","klasa":"","kat":"powiatowa"},"geometry":{"type":"LineString","coordinates":[[20.39189,51.96875],[20.39199,51.9686],[20.39343,51.96779],[20.4106,51.95574],[20.4152,51.95465],[20.41759,51.95419],[20.42134,51.9536],[20.43077,51.95425],[20.4314,51.95441],[20.43381,51.95545],[20.43636,51.95417]]}},{"type":"Feature","properties":{"numer":"4719W","klasa":"droga zbiorcza","kat":"powiatowa"},"geometry":{"type":"LineString","coordinates":[[20.37614,51.97159],[20.39189,51.96875]]}},{"type":"Feature","properties":{"numer":"4717W","klasa":"","kat":"powiatowa"},"geometry":{"type":"LineString","coordinates":[[20.3832,52.01281],[20.40126,52.00949],[20.41448,52.00447],[20.41458,52.0045],[20.41589,52.00683],[20.41609,52.00679],[20.43203,52.00185],[20.4344,52.00106],[20.434752753398058,52.001079597411]]}},{"type":"Feature","properties":{"numer":"719","klasa":"droga gĹ‚Ăłwna","kat":"wojewodzka"},"geometry":{"type":"LineString","coordinates":[[20.38246,52.0122],[20.38257,52.01228]]}},{"type":"Feature","properties":{"numer":"719","klasa":"droga gĹ‚Ăłwna","kat":"wojewodzka"},"geometry":{"type":"LineString","coordinates":[[20.38257,52.01228],[20.3832,52.01281]]}},{"type":"Feature","properties":{"numer":"719","klasa":"droga gĹ‚Ăłwna","kat":"wojewodzka"},"geometry":{"type":"LineString","coordinates":[[20.3832,52.01281],[20.40176,52.0283]]}},{"type":"Feature","properties":{"numer":"70","klasa":"droga gĹ‚Ăłwna","kat":"krajowa"},"geometry":{"type":"LineString","coordinates":[[20.30551,51.93763],[20.30559,51.93757]]}},{"type":"Feature","properties":{"numer":"70","klasa":"droga gĹ‚Ăłwna","kat":"krajowa"},"geometry":{"type":"LineString","coordinates":[[20.27618,51.94649],[20.27748,51.94659],[20.28019,51.94659],[20.28137,51.94645],[20.28206,51.94627],[20.28801,51.94409],[20.29246,51.94304],[20.29557,51.94176],[20.30332,51.93914],[20.30445,51.93855],[20.30551,51.93763]]}},{"type":"Feature","properties":{"numer":"719","klasa":"droga gĹ‚Ăłwna","kat":"wojewodzka"},"geometry":{"type":"LineString","coordinates":[[20.2769,51.94714],[20.2763,51.94682],[20.27618,51.94649]]}},{"type":"Feature","properties":{"numer":"70","klasa":"droga gĹ‚Ăłwna","kat":"krajowa"},"geometry":{"type":"LineString","coordinates":[[20.26126,51.94726],[20.26553,51.94804],[20.26646,51.94811],[20.26772,51.9479],[20.2718,51.94636],[20.2727,51.94609],[20.27336,51.94602],[20.27408,51.94607],[20.27618,51.94649]]}},{"type":"Feature","properties":{"numer":"719","klasa":"droga gĹ‚Ăłwna","kat":"wojewodzka"},"geometry":{"type":"LineString","coordinates":[[20.2769,51.94714],[20.29042,51.95316],[20.31321,51.96288],[20.31434,51.96324],[20.34619,51.97157],[20.34702,51.97195],[20.34754,51.97232],[20.34798,51.97281],[20.34834,51.97362],[20.34838,51.97467]]}},{"type":"Feature","properties":{"numer":"4718W","klasa":"droga zbiorcza","kat":"powiatowa"},"geometry":{"type":"LineString","coordinates":[[20.28872,51.99773],[20.28877,51.99779]]}},{"type":"Feature","properties":{"numer":"4718W","klasa":"droga zbiorcza","kat":"powiatowa"},"geometry":{"type":"LineString","coordinates":[[20.28872,51.99773],[20.2881,51.99689],[20.28678,51.99469],[20.28378,51.99597],[20.27243,52.00115],[20.27018,52.0022],[20.26942,52.00271]]}},{"type":"Feature","properties":{"numer":"4718W","klasa":"droga zbiorcza","kat":"powiatowa"},"geometry":{"type":"LineString","coordinates":[[20.26942,52.00271],[20.26934,52.00276]]}},{"type":"Feature","properties":{"numer":"4709W","klasa":"","kat":"powiatowa"},"geometry":{"type":"LineString","coordinates":[[20.273680026527472,52.04884633321924],[20.27285,52.04761],[20.27255,52.04699],[20.26126,52.02894],[20.2576,52.02288],[20.25174,52.01363]]}},{"type":"Feature","properties":{"numer":"719","klasa":"droga gĹ‚Ăłwna","kat":"wojewodzka"},"geometry":{"type":"LineString","coordinates":[[20.34939,51.97748],[20.35008,51.97844]]}},{"type":"Feature","properties":{"numer":"719","klasa":"droga gĹ‚Ăłwna","kat":"wojewodzka"},"geometry":{"type":"LineString","coordinates":[[20.35008,51.97844],[20.35172,51.98027]]}},{"type":"Feature","properties":{"numer":"4718W","klasa":"droga zbiorcza","kat":"powiatowa"},"geometry":{"type":"LineString","coordinates":[[20.35172,51.98027],[20.346,51.98275],[20.34128,51.98439],[20.33862,51.98589],[20.33572,51.98808],[20.31767,51.99401],[20.30336,52.00049],[20.29402,52.00084],[20.29022,51.99962],[20.28877,51.99779]]}},{"type":"Feature","properties":{"numer":"719","klasa":"droga gĹ‚Ăłwna","kat":"wojewodzka"},"geometry":{"type":"LineString","coordinates":[[20.35172,51.98027],[20.37493,52.00626],[20.37732,52.00788],[20.38246,52.0122]]}},{"type":"Feature","properties":{"numer":"719","klasa":"droga gĹ‚Ăłwna","kat":"wojewodzka"},"geometry":{"type":"LineString","coordinates":[[20.40176,52.0283],[20.40185,52.02837]]}},{"type":"Feature","properties":{"numer":"719","klasa":"droga gĹ‚Ăłwna","kat":"wojewodzka"},"geometry":{"type":"LineString","coordinates":[[20.40185,52.02837],[20.40200378418379,52.02849643644831]]}},{"type":"Feature","properties":{"numer":"1332E","klasa":"droga zbiorcza","kat":"powiatowa"},"geometry":{"type":"LineString","coordinates":[[20.23988023171592,51.99990534955045],[20.23996,51.99999]]}},{"type":"Feature","properties":{"numer":"4709W","klasa":"","kat":"powiatowa"},"geometry":{"type":"LineString","coordinates":[[20.23996,51.99999],[20.23998,52.00001]]}},{"type":"Feature","properties":{"numer":"4709W","klasa":"","kat":"powiatowa"},"geometry":{"type":"LineString","coordinates":[[20.24922,52.00985],[20.2418,52.00185],[20.23997,52.00001]]}},{"type":"Feature","properties":{"numer":"4718W","klasa":"droga zbiorcza","kat":"powiatowa"},"geometry":{"type":"LineString","coordinates":[[20.26934,52.00276],[20.26598,52.00513],[20.26452,52.006],[20.26292,52.00666],[20.26011,52.00766],[20.25355,52.00976],[20.25024,52.01117]]}},{"type":"Feature","properties":{"numer":"4709W","klasa":"","kat":"powiatowa"},"geometry":{"type":"LineString","coordinates":[[20.24929,52.00992],[20.24922,52.00985]]}},{"type":"Feature","properties":{"numer":"4709W","klasa":"","kat":"powiatowa"},"geometry":{"type":"LineString","coordinates":[[20.25024,52.01117],[20.24929,52.00992]]}},{"type":"Feature","properties":{"numer":"4709W","klasa":"","kat":"powiatowa"},"geometry":{"type":"LineString","coordinates":[[20.25024,52.01117],[20.25174,52.01363]]}},{"type":"Feature","properties":{"numer":"4707W","klasa":"","kat":"powiatowa"},"geometry":{"type":"LineString","coordinates":[[20.25119,51.94457],[20.251428669603843,51.93309396988191]]}},{"type":"Feature","properties":{"numer":"70","klasa":"droga gĹ‚Ăłwna","kat":"krajowa"},"geometry":{"type":"LineString","coordinates":[[20.25119,51.94457],[20.241603784829582,51.94336047754367]]}},{"type":"Feature","properties":{"numer":"70","klasa":"droga gĹ‚Ăłwna","kat":"krajowa"},"geometry":{"type":"LineString","coordinates":[[20.26073,51.94716],[20.25929,51.94685],[20.25707,51.9459],[20.25574,51.9455],[20.25337,51.94491],[20.25119,51.94457]]}},{"type":"Feature","properties":{"numer":"70","klasa":"droga gĹ‚Ăłwna","kat":"krajowa"},"geometry":{"type":"LineString","coordinates":[[20.26073,51.94716],[20.26126,51.94726]]}},{"type":"Feature","properties":{"numer":"4708W","klasa":"","kat":"powiatowa"},"geometry":{"type":"LineString","coordinates":[[20.24811,51.95319],[20.25,51.95165],[20.25034,51.95127],[20.25083,51.94818],[20.25105,51.94501],[20.25119,51.94457]]}},{"type":"Feature","properties":{"numer":"1318E","klasa":"droga zbiorcza","kat":"powiatowa"},"geometry":{"type":"LineString","coordinates":[[20.24811,51.95319],[20.24803340632576,51.953252776601914]]}}]}