{"type":"FeatureCollection","features":[{"type":"Feature","properties":{"numer":"46","klasa":"droga gĹ‚Ăłwna ruchu przyĹ›pieszonego","kat":"krajowa"},"geometry":{"type":"LineString","coordinates":[[16.95249,50.44965],[16.95285,50.44961],[16.95474,50.44989],[16.95642,50.45032],[16.95788,50.45049],[16.96047,50.451],[16.96798,50.45368]]}},{"type":"Feature","properties":{"numer":"46","klasa":"droga gĹ‚Ăłwna ruchu przyĹ›pieszonego","kat":"krajowa"},"geometry":{"type":"LineString","coordinates":[[16.96815,50.45376],[16.96798,50.45368]]}},{"type":"Feature","properties":{"numer":"46","klasa":"droga gĹ‚Ăłwna ruchu przyĹ›pieszonego","kat":"krajowa"},"geometry":{"type":"LineString","coordinates":[[16.96815,50.45376],[16.96921,50.45417],[16.97096,50.45447],[16.97734,50.45439],[16.97901,50.45481],[16.98086,50.45552]]}},{"type":"Feature","properties":{"numer":"46","klasa":"droga gĹ‚Ăłwna ruchu przyĹ›pieszonego","kat":"krajowa"},"geometry":{"type":"LineString","coordinates":[[16.97645,50.45879],[16.93992,50.45888],[16.93849,50.45886],[16.93664,50.45869],[16.93453,50.45824],[16.93267,50.45757],[16.9202,50.45116]]}},{"type":"Feature","properties":{"numer":"46","klasa":"droga gĹ‚Ăłwna ruchu przyĹ›pieszonego","kat":"krajowa"},"geometry":{"type":"LineString","coordinates":[[16.98086,50.45552],[16.98045,50.45586]]}},{"type":"Feature","properties":{"numer":"2238O","klasa":"droga gĹ‚Ăłwna","kat":"powiatowa"},"geometry":{"type":"LineString","coordinates":[[16.98086,50.45552],[16.98213,50.45627],[16.98255,50.45643],[16.98349,50.45662],[16.9845,50.45669]]}},{"type":"Feature","properties":{"numer":"46","klasa":"droga gĹ‚Ăłwna ruchu przyĹ›pieszonego","kat":"krajowa"},"geometry":{"type":"LineString","coordinates":[[16.9845,50.45669],[16.98492,50.45644]]}},{"type":"Feature","properties":{"numer":"46","klasa":"droga gĹ‚Ăłwna ruchu przyĹ›pieszonego","kat":"krajowa"},"geometry":{"type":"LineString","coordinates":[[16.98418,50.45688],[16.9845,50.45669]]}},{"type":"Feature","properties":{"numer":"46","klasa":"droga gĹ‚Ăłwna ruchu przyĹ›pieszonego","kat":"krajowa"},"geometry":{"type":"LineString","coordinates":[[16.98045,50.45586],[16.9801,50.45627],[16.97998,50.45667],[16.98007,50.45712],[16.98059,50.4579]]}},{"type":"Feature","properties":{"numer":"46","klasa":"droga gĹ‚Ăłwna ruchu przyĹ›pieszonego","kat":"krajowa"},"geometry":{"type":"LineString","coordinates":[[16.98418,50.45688],[16.9839,50.45704]]}},{"type":"Feature","properties":{"numer":"46","klasa":"droga gĹ‚Ăłwna ruchu przyĹ›pieszonego","kat":"krajowa"},"geometry":{"type":"LineString","coordinates":[[16.9165,50.44917],[16.91699,50.44874],[16.91751,50.44856],[16.93389,50.44571],[16.93522,50.44533],[16.93812,50.4462],[16.93947,50.44682],[16.94159,50.4476],[16.94354,50.4485],[16.94555,50.44886],[16.94724,50.44903],[16.94887,50.44935],[16.95058,50.44942],[16.95178,50.44973],[16.95234,50.44968]]}},{"type":"Feature","properties":{"numer":"46","klasa":"droga gĹ‚Ăłwna ruchu przyĹ›pieszonego","kat":"krajowa"},"geometry":{"type":"LineString","coordinates":[[16.908933576642344,50.449839578888266],[16.90895,50.44984]]}},{"type":"Feature","properties":{"numer":"46","klasa":"droga gĹ‚Ăłwna ruchu przyĹ›pieszonego","kat":"krajowa"},"geometry":{"type":"LineString","coordinates":[[16.91626,50.44962],[16.9165,50.44917]]}},{"type":"Feature","properties":{"numer":"46","klasa":"droga gĹ‚Ăłwna ruchu przyĹ›pieszonego","kat":"krajowa"},"geometry":{"type":"LineString","coordinates":[[16.91447,50.44941],[16.91626,50.44962]]}},{"type":"Feature","properties":{"numer":"46","klasa":"droga gĹ‚Ăłwna ruchu przyĹ›pieszonego","kat":"krajowa"},"geometry":{"type":"LineString","coordinates":[[16.90895,50.44984],[16.90975,50.44986],[16.91235,50.4495],[16.91447,50.44941]]}},{"type":"Feature","properties":{"numer":"46","klasa":"droga gĹ‚Ăłwna ruchu przyĹ›pieszonego","kat":"krajowa"},"geometry":{"type":"LineString","coordinates":[[16.9202,50.45116],[16.91781,50.45002],[16.91626,50.44962]]}},{"type":"Feature","properties":{"numer":"3201D","klasa":"droga zbiorcza","kat":"powiatowa"},"geometry":{"type":"LineString","coordinates":[[16.944110739564113,50.47402299962856],[16.94421,50.47402]]}},{"type":"Feature","properties":{"numer":"1643O","klasa":"droga zbiorcza","kat":"powiatowa"},"geometry":{"type":"LineString","coordinates":[[17.01193,50.42541],[17.01198,50.42538]]}},{"type":"Feature","properties":{"numer":"1644O","klasa":"","kat":"powiatowa"},"geometry":{"type":"LineString","coordinates":[[16.97094,50.4267],[16.96779,50.42511],[16.96687,50.42476],[16.9661,50.42428]]}},{"type":"Feature","properties":{"numer":"1644O","klasa":"","kat":"powiatowa"},"geometry":{"type":"LineString","coordinates":[[16.97101,50.42673],[16.97094,50.4267]]}},{"type":"Feature","properties":{"numer":"1644O","klasa":"","kat":"powiatowa"},"geometry":{"type":"LineString","coordinates":[[16.98137,50.43384],[16.9813,50.43371],[16.98041,50.43305],[16.9791,50.43173],[16.97819,50.43045],[16.9778,50.4301],[16.9766,50.4293],[16.97432,50.42834],[16.97101,50.42673]]}},{"type":"Feature","properties":{"numer":"1644O","klasa":"","kat":"powiatowa"},"geometry":{"type":"LineString","coordinates":[[16.98137,50.43384],[16.98142,50.43398]]}},{"type":"Feature","properties":{"numer":"46","klasa":"droga gĹ‚Ăłwna ruchu przyĹ›pieszonego","kat":"krajowa"},"geometry":{"type":"LineString","coordinates":[[16.95234,50.44968],[16.95249,50.44965]]}},{"type":"Feature","properties":{"numer":"1643O","klasa":"droga zbiorcza","kat":"powiatowa"},"geometry":{"type":"LineString","coordinates":[[17.01198,50.42538],[17.01229,50.42564],[17.01331,50.42601],[17.01342,50.42624],[17.01442,50.42692],[17.0148,50.42709],[17.01553,50.42724]]}},{"type":"Feature","properties":{"numer":"382","klasa":"droga gĹ‚Ăłwna","kat":"wojewodzka"},"geometry":{"type":"LineString","coordinates":[[17.00076,50.44082],[17.00049,50.4402],[17.00017,50.4379],[16.99883,50.43233],[16.996678089635854,50.4266442184874]]}},{"type":"Feature","properties":{"numer":"1643O","klasa":"droga zbiorcza","kat":"powiatowa"},"geometry":{"type":"LineString","coordinates":[[17.01976,50.44833],[17.01756,50.44682],[17.01674,50.44567],[17.01566,50.44482],[17.01494,50.44439],[17.01347,50.44372],[17.0119,50.44268],[17.00985,50.44174],[17.00848,50.44084],[17.00623,50.43905],[17.00534,50.43743],[17.00535,50.43671],[17.00637,50.43462],[17.0065,50.43355],[17.00665,50.43337],[17.00833,50.43237],[17.00848,50.43214],[17.00847,50.4319],[17.00701,50.42795],[17.00703,50.42779],[17.00742,50.42741],[17.00809,50.42705],[17.01053,50.42603],[17.01155,50.42569],[17.01193,50.42541]]}},{"type":"Feature","properties":{"numer":"1644O","klasa":"","kat":"powiatowa"},"geometry":{"type":"LineString","coordinates":[[16.98142,50.43398],[16.98153,50.43415],[16.98204,50.4345],[16.9848,50.43585],[16.98633,50.4367],[16.98933,50.43812],[16.99246,50.43909],[16.99666,50.43995],[16.99846,50.44051],[17.00029,50.44078]]}},{"type":"Feature","properties":{"numer":"1644O","klasa":"","kat":"powiatowa"},"geometry":{"type":"LineString","coordinates":[[17.00029,50.44078],[17.00041,50.44079]]}},{"type":"Feature","properties":{"numer":"1644O","klasa":"","kat":"powiatowa"},"geometry":{"type":"LineString","coordinates":[[17.00041,50.44079],[17.00076,50.44082]]}},{"type":"Feature","properties":{"numer":"382","klasa":"droga gĹ‚Ăłwna","kat":"wojewodzka"},"geometry":{"type":"LineString","coordinates":[[17.00076,50.44082],[17.00135,50.44225],[17.00276,50.44827],[17.00503,50.45144],[17.0055,50.45266]]}},{"type":"Feature","properties":{"numer":"1673O","klasa":"droga zbiorcza","kat":"powiatowa"},"geometry":{"type":"LineString","coordinates":[[17.01949,50.44858],[17.01846,50.44937],[17.01665,50.45041],[17.01416,50.45313],[17.0137,50.45378]]}},{"type":"Feature","properties":{"numer":"382","klasa":"droga gĹ‚Ăłwna","kat":"wojewodzka"},"geometry":{"type":"LineString","coordinates":[[17.0055,50.45266],[17.00575,50.45345]]}},{"type":"Feature","properties":{"numer":"46","klasa":"droga gĹ‚Ăłwna ruchu przyĹ›pieszonego","kat":"krajowa"},"geometry":{"type":"LineString","coordinates":[[17.00865,50.45346],[17.00575,50.45345]]}},{"type":"Feature","properties":{"numer":"1643O","klasa":"droga zbiorcza","kat":"powiatowa"},"geometry":{"type":"LineString","coordinates":[[17.04082,50.43369],[17.01784,50.42788],[17.01553,50.42724]]}},{"type":"Feature","properties":{"numer":"1643O","klasa":"droga zbiorcza","kat":"powiatowa"},"geometry":{"type":"LineString","coordinates":[[17.04268,50.43426],[17.04229,50.43417],[17.04187,50.43394],[17.04082,50.43369]]}},{"type":"Feature","properties":{"numer":"1643O","klasa":"droga zbiorcza","kat":"powiatowa"},"geometry":{"type":"LineString","coordinates":[[17.04291,50.43427],[17.04279,50.43427]]}},{"type":"Feature","properties":{"numer":"1643O","klasa":"droga zbiorcza","kat":"powiatowa"},"geometry":{"type":"LineString","coordinates":[[17.04291,50.43427],[17.04334,50.43434],[17.04345,50.43445]]}},{"type":"Feature","properties":{"numer":"1673O","klasa":"droga zbiorcza","kat":"powiatowa"},"geometry":{"type":"LineString","coordinates":[[17.04345,50.43445],[17.04244,50.43488],[17.04157,50.43516],[17.04023,50.43542],[17.03751,50.43572],[17.03682,50.43594],[17.03458,50.4376],[17.03327,50.43846],[17.02956,50.44037],[17.01976,50.44833]]}},{"type":"Feature","properties":{"numer":"1673O","klasa":"droga zbiorcza","kat":"powiatowa"},"geometry":{"type":"LineString","coordinates":[[17.01976,50.44833],[17.01953,50.44854]]}},{"type":"Feature","properties":{"numer":"1673O","klasa":"droga zbiorcza","kat":"powiatowa"},"geometry":{"type":"LineString","coordinates":[[17.01953,50.44854],[17.01949,50.44858]]}},{"type":"Feature","properties":{"numer":"46","klasa":"droga gĹ‚Ăłwna ruchu przyĹ›pieszonego","kat":"krajowa"},"geometry":{"type":"LineString","coordinates":[[17.04773,50.45318],[17.04524,50.45322],[17.04441,50.45335],[17.0436,50.45358],[17.04261,50.4541],[17.03998,50.45586],[17.03911,50.45628]]}},{"type":"Feature","properties":{"numer":"1671O","klasa":"","kat":"powiatowa"},"geometry":{"type":"LineString","coordinates":[[17.04313,50.45584],[17.04327,50.45582]]}},{"type":"Feature","properties":{"numer":"1671O","klasa":"","kat":"powiatowa"},"geometry":{"type":"LineString","coordinates":[[17.03969,50.45642],[17.04163,50.45596],[17.04313,50.45584]]}},{"type":"Feature","properties":{"numer":"46","klasa":"droga gĹ‚Ăłwna ruchu przyĹ›pieszonego","kat":"krajowa"},"geometry":{"type":"LineString","coordinates":[[17.0031,50.45348],[17.00575,50.45345]]}},{"type":"Feature","properties":{"numer":"2233O","klasa":"droga gĹ‚Ăłwna","kat":"powiatowa"},"geometry":{"type":"LineString","coordinates":[[17.00596,50.45404],[17.00575,50.45345]]}},{"type":"Feature","properties":{"numer":"46","klasa":"droga gĹ‚Ăłwna ruchu przyĹ›pieszonego","kat":"krajowa"},"geometry":{"type":"LineString","coordinates":[[17.01347,50.45436],[17.01112,50.45379],[17.00865,50.45346]]}},{"type":"Feature","properties":{"numer":"1673O","klasa":"droga zbiorcza","kat":"powiatowa"},"geometry":{"type":"LineString","coordinates":[[17.01347,50.45436],[17.0137,50.45378]]}},{"type":"Feature","properties":{"numer":"1673O","klasa":"droga zbiorcza","kat":"powiatowa"},"geometry":{"type":"LineString","coordinates":[[17.01315,50.45506],[17.01347,50.45436]]}},{"type":"Feature","properties":{"numer":"46","klasa":"droga gĹ‚Ăłwna ruchu przyĹ›pieszonego","kat":"krajowa"},"geometry":{"type":"LineString","coordinates":[[16.98492,50.45644],[16.98729,50.45503],[16.98801,50.4547],[16.98958,50.45416],[16.99107,50.45383],[16.9929,50.45366],[17.0031,50.45348]]}},{"type":"Feature","properties":{"numer":"2233O","klasa":"droga gĹ‚Ăłwna","kat":"powiatowa"},"geometry":{"type":"LineString","coordinates":[[17.00777,50.4605],[17.00675,50.45977],[17.00558,50.45744],[17.00559,50.45713],[17.00617,50.45525],[17.00596,50.45404]]}},{"type":"Feature","properties":{"numer":"1673O","klasa":"droga zbiorcza","kat":"powiatowa"},"geometry":{"type":"LineString","coordinates":[[17.00777,50.4605],[17.00896,50.45946],[17.01031,50.45848],[17.01204,50.45625],[17.01296,50.45538],[17.01315,50.45506]]}},{"type":"Feature","properties":{"numer":"2232O","klasa":"droga gĹ‚Ăłwna","kat":"powiatowa"},"geometry":{"type":"LineString","coordinates":[[16.99638,50.45879],[16.99631,50.45878]]}},{"type":"Feature","properties":{"numer":"2232O","klasa":"droga gĹ‚Ăłwna","kat":"powiatowa"},"geometry":{"type":"LineString","coordinates":[[16.99662,50.45881],[16.99638,50.45879]]}},{"type":"Feature","properties":{"numer":"","klasa":"droga lokalna","kat":"gminna"},"geometry":{"type":"LineString","coordinates":[[16.9965,50.45913],[16.99631,50.45878]]}},{"type":"Feature","properties":{"numer":"","klasa":"droga lokalna","kat":"gminna"},"geometry":{"type":"LineString","coordinates":[[16.99654,50.45916],[16.9965,50.45913]]}},{"type":"Feature","properties":{"numer":"","klasa":"droga lokalna","kat":"gminna"},"geometry":{"type":"LineString","coordinates":[[16.99698,50.45942],[16.99654,50.45916]]}},{"type":"Feature","properties":{"numer":"","klasa":"droga lokalna","kat":"gminna"},"geometry":{"type":"LineString","coordinates":[[16.99698,50.45942],[16.9974,50.45997]]}},{"type":"Feature","properties":{"numer":"2232O","klasa":"droga gĹ‚Ăłwna","kat":"powiatowa"},"geometry":{"type":"LineString","coordinates":[[16.99662,50.45881],[16.99887,50.45901],[16.99955,50.45915],[16.99988,50.4594],[17.00031,50.46002],[17.00183,50.46132],[17.00319,50.46215],[17.00356,50.46224]]}},{"type":"Feature","properties":{"numer":"2234O","klasa":"","kat":"powiatowa"},"geometry":{"type":"LineString","coordinates":[[17.00777,50.4605],[17.00884,50.46089],[17.011,50.4611]]}},{"type":"Feature","properties":{"numer":"","klasa":"droga lokalna","kat":"gminna"},"geometry":{"type":"LineString","coordinates":[[16.9974,50.45997],[16.99844,50.46075],[16.99898,50.46142],[16.9998,50.46222]]}},{"type":"Feature","properties":{"numer":"2234O","klasa":"","kat":"powiatowa"},"geometry":{"type":"LineString","coordinates":[[17.011,50.4611],[17.01568,50.46142],[17.01595,50.46156]]}},{"type":"Feature","properties":{"numer":"1673O","klasa":"droga zbiorcza","kat":"powiatowa"},"geometry":{"type":"LineString","coordinates":[[17.00396,50.46222],[17.00535,50.46208],[17.00777,50.4605]]}},{"type":"Feature","properties":{"numer":"1673O","klasa":"droga zbiorcza","kat":"powiatowa"},"geometry":{"type":"LineString","coordinates":[[17.00356,50.46224],[17.00396,50.46222]]}},{"type":"Feature","properties":{"numer":"107028O","klasa":"droga lokalna","kat":"powiatowa"},"geometry":{"type":"LineString","coordinates":[[17.00397,50.46244],[17.00396,50.46222]]}},{"type":"Feature","properties":{"numer":"107028O","klasa":"droga lokalna","kat":"powiatowa"},"geometry":{"type":"LineString","coordinates":[[17.00431,50.46275],[17.00397,50.46244]]}},{"type":"Feature","properties":{"numer":"","klasa":"droga zbiorcza","kat":"powiatowa"},"geometry":{"type":"LineString","coordinates":[[17.00322,50.4631],[17.00346,50.46269],[17.00356,50.46224]]}},{"type":"Feature","properties":{"numer":"","klasa":"droga lokalna","kat":"gminna"},"geometry":{"type":"LineString","coordinates":[[17.00096,50.46349],[17.00059,50.46287],[16.9998,50.46222]]}},{"type":"Feature","properties":{"numer":"107028O","klasa":"droga lokalna","kat":"powiatowa"},"geometry":{"type":"LineString","coordinates":[[17.00573,50.4635],[17.00431,50.46275]]}},{"type":"Feature","properties":{"numer":"382","klasa":"droga gĹ‚Ăłwna","kat":"wojewodzka"},"geometry":{"type":"LineString","coordinates":[[17.01389,50.46493],[17.01421,50.46446],[17.01548,50.46369],[17.01588,50.46161]]}},{"type":"Feature","properties":{"numer":"","klasa":"droga zbiorcza","kat":"powiatowa"},"geometry":{"type":"LineString","coordinates":[[17.00307,50.46366],[17.00322,50.4631]]}},{"type":"Feature","properties":{"numer":"107036O","klasa":"droga lokalna","kat":"powiatowa"},"geometry":{"type":"LineString","coordinates":[[17.00571,50.46356],[17.00573,50.4635]]}},{"type":"Feature","properties":{"numer":"107036O","klasa":"droga lokalna","kat":"powiatowa"},"geometry":{"type":"LineString","coordinates":[[17.00513,50.46401],[17.00571,50.46356]]}},{"type":"Feature","properties":{"numer":"","klasa":"droga lokalna","kat":"gminna"},"geometry":{"type":"LineString","coordinates":[[17.00173,50.46459],[17.00158,50.46407],[17.00096,50.46349]]}},{"type":"Feature","properties":{"numer":"107036O","klasa":"droga lokalna","kat":"powiatowa"},"geometry":{"type":"LineString","coordinates":[[17.0059,50.46444],[17.00513,50.46401]]}},{"type":"Feature","properties":{"numer":"","klasa":"droga zbiorcza","kat":"powiatowa"},"geometry":{"type":"LineString","coordinates":[[17.00395,50.46482],[17.00356,50.46443],[17.00307,50.46366]]}},{"type":"Feature","properties":{"numer":"","klasa":"droga lokalna","kat":"gminna"},"geometry":{"type":"LineString","coordinates":[[17.0017,50.46471],[17.00173,50.46459]]}},{"type":"Feature","properties":{"numer":"107037O","klasa":"droga lokalna","kat":"powiatowa"},"geometry":{"type":"LineString","coordinates":[[17.00515,50.46503],[17.0059,50.46444]]}},{"type":"Feature","properties":{"numer":"","klasa":"droga lokalna","kat":"gminna"},"geometry":{"type":"LineString","coordinates":[[17.00154,50.46529],[17.0017,50.46471]]}},{"type":"Feature","properties":{"numer":"","klasa":"droga zbiorcza","kat":"powiatowa"},"geometry":{"type":"LineString","coordinates":[[17.00481,50.46532],[17.00395,50.46482]]}},{"type":"Feature","properties":{"numer":"107037O","klasa":"droga lokalna","kat":"powiatowa"},"geometry":{"type":"LineString","coordinates":[[17.00481,50.46532],[17.00515,50.46503]]}},{"type":"Feature","properties":{"numer":"1645O","klasa":"","kat":"powiatowa"},"geometry":{"type":"LineString","coordinates":[[17.00448,50.46557],[17.00481,50.46532]]}},{"type":"Feature","properties":{"numer":"","klasa":"droga zbiorcza","kat":"powiatowa"},"geometry":{"type":"LineString","coordinates":[[17.00578,50.46572],[17.00481,50.46532]]}},{"type":"Feature","properties":{"numer":"1645O","klasa":"","kat":"powiatowa"},"geometry":{"type":"LineString","coordinates":[[17.00437,50.46563],[17.00448,50.46557]]}},{"type":"Feature","properties":{"numer":"382","klasa":"droga gĹ‚Ăłwna","kat":"wojewodzka"},"geometry":{"type":"LineString","coordinates":[[17.01153,50.46658],[17.01348,50.46558],[17.01389,50.46493]]}},{"type":"Feature","properties":{"numer":"","klasa":"droga zbiorcza","kat":"powiatowa"},"geometry":{"type":"LineString","coordinates":[[17.00815,50.46609],[17.00665,50.46606],[17.00578,50.46572]]}},{"type":"Feature","properties":{"numer":"","klasa":"droga lokalna","kat":"gminna"},"geometry":{"type":"LineString","coordinates":[[17.00249,50.46663],[17.00191,50.46626],[17.00155,50.46568],[17.00154,50.46529]]}},{"type":"Feature","properties":{"numer":"","klasa":"droga zbiorcza","kat":"powiatowa"},"geometry":{"type":"LineString","coordinates":[[17.00826,50.4661],[17.00815,50.46609]]}},{"type":"Feature","properties":{"numer":"","klasa":"droga zbiorcza","kat":"powiatowa"},"geometry":{"type":"LineString","coordinates":[[17.009,50.46615],[17.00826,50.4661]]}},{"type":"Feature","properties":{"numer":"1645O","klasa":"","kat":"powiatowa"},"geometry":{"type":"LineString","coordinates":[[17.00249,50.46663],[17.00298,50.46654],[17.00437,50.46563]]}},{"type":"Feature","properties":{"numer":"","klasa":"droga zbiorcza","kat":"powiatowa"},"geometry":{"type":"LineString","coordinates":[[17.00954,50.46639],[17.009,50.46615]]}},{"type":"Feature","properties":{"numer":"","klasa":"droga zbiorcza","kat":"powiatowa"},"geometry":{"type":"LineString","coordinates":[[17.00954,50.46639],[17.00978,50.46668],[17.00979,50.46718]]}},{"type":"Feature","properties":{"numer":"382","klasa":"droga gĹ‚Ăłwna","kat":"wojewodzka"},"geometry":{"type":"LineString","coordinates":[[17.01217,50.46731],[17.01153,50.46658]]}},{"type":"Feature","properties":{"numer":"","klasa":"droga zbiorcza","kat":"powiatowa"},"geometry":{"type":"LineString","coordinates":[[17.00979,50.46718],[17.0098,50.46726]]}},{"type":"Feature","properties":{"numer":"1640O","klasa":"droga zbiorcza","kat":"powiatowa"},"geometry":{"type":"LineString","coordinates":[[17.0789,50.41088],[17.07855,50.40983],[17.07856,50.4089],[17.0798,50.40653],[17.08069,50.40539],[17.08095,50.40489],[17.08108,50.4044],[17.08120314507544,50.402391788000514]]}},{"type":"Feature","properties":{"numer":"1640O","klasa":"droga zbiorcza","kat":"powiatowa"},"geometry":{"type":"LineString","coordinates":[[17.07912,50.41104],[17.0789,50.41088]]}},{"type":"Feature","properties":{"numer":"1640O","klasa":"droga zbiorcza","kat":"powiatowa"},"geometry":{"type":"LineString","coordinates":[[17.0789,50.41088],[17.07885,50.41101],[17.07841,50.41126]]}},{"type":"Feature","properties":{"numer":"1640O","klasa":"droga zbiorcza","kat":"powiatowa"},"geometry":{"type":"LineString","coordinates":[[17.07841,50.41126],[17.07832,50.41131]]}},{"type":"Feature","properties":{"numer":"1640O","klasa":"droga zbiorcza","kat":"powiatowa"},"geometry":{"type":"LineString","coordinates":[[17.07832,50.41131],[17.07768,50.4117]]}},{"type":"Feature","properties":{"numer":"1673O","klasa":"droga zbiorcza","kat":"powiatowa"},"geometry":{"type":"LineString","coordinates":[[17.07768,50.4117],[17.07736,50.41183]]}},{"type":"Feature","properties":{"numer":"1640O","klasa":"droga zbiorcza","kat":"powiatowa"},"geometry":{"type":"LineString","coordinates":[[17.07758,50.41193],[17.07768,50.4117]]}},{"type":"Feature","properties":{"numer":"1673O","klasa":"droga zbiorcza","kat":"powiatowa"},"geometry":{"type":"LineString","coordinates":[[17.07736,50.41183],[17.07758,50.41193]]}},{"type":"Feature","properties":{"numer":"1673O","klasa":"droga zbiorcza","kat":"powiatowa"},"geometry":{"type":"LineString","coordinates":[[17.05483,50.42622],[17.05772,50.42346],[17.0625,50.4203],[17.06641,50.41744],[17.07082,50.41503],[17.07276,50.41346],[17.07328,50.41315],[17.07736,50.41183]]}},{"type":"Feature","properties":{"numer":"1640O","klasa":"droga zbiorcza","kat":"powiatowa"},"geometry":{"type":"LineString","coordinates":[[17.07758,50.41193],[17.07778,50.41245],[17.07864,50.41381],[17.08336,50.41702],[17.08542,50.41857],[17.08589,50.42074],[17.08606,50.42226],[17.08653,50.42319],[17.08853,50.42582],[17.08881,50.42632],[17.0888,50.42671],[17.08791,50.42899],[17.08758,50.43197],[17.08963,50.43221],[17.09056,50.43241]]}},{"type":"Feature","properties":{"numer":"1641O","klasa":"droga zbiorcza","kat":"powiatowa"},"geometry":{"type":"LineString","coordinates":[[17.09056,50.43247],[17.09056,50.43241]]}},{"type":"Feature","properties":{"numer":"1641O","klasa":"droga zbiorcza","kat":"powiatowa"},"geometry":{"type":"LineString","coordinates":[[17.0905,50.43262],[17.09056,50.43247]]}},{"type":"Feature","properties":{"numer":"1640O","klasa":"droga zbiorcza","kat":"powiatowa"},"geometry":{"type":"LineString","coordinates":[[17.09056,50.43241],[17.09376,50.43309],[17.09713,50.4332],[17.09764,50.43334],[17.09802,50.43361]]}},{"type":"Feature","properties":{"numer":"1640O","klasa":"droga zbiorcza","kat":"powiatowa"},"geometry":{"type":"LineString","coordinates":[[17.09802,50.43361],[17.09824,50.43379]]}},{"type":"Feature","properties":{"numer":"1640O","klasa":"droga zbiorcza","kat":"powiatowa"},"geometry":{"type":"LineString","coordinates":[[17.09824,50.43379],[17.09844,50.43393],[17.09928,50.43404],[17.10164,50.43402],[17.10236,50.43449],[17.10705,50.43823],[17.10716,50.43857],[17.10711,50.4389],[17.10604,50.43991],[17.10569,50.44055],[17.10549,50.44125],[17.10545,50.44211],[17.10558,50.44299],[17.10614,50.44499],[17.10581,50.44591],[17.10583,50.4462]]}},{"type":"Feature","properties":{"numer":"1673O","klasa":"droga zbiorcza","kat":"powiatowa"},"geometry":{"type":"LineString","coordinates":[[17.05483,50.42622],[17.05472,50.42632]]}},{"type":"Feature","properties":{"numer":"1673O","klasa":"droga zbiorcza","kat":"powiatowa"},"geometry":{"type":"LineString","coordinates":[[17.04345,50.43445],[17.04505,50.43423],[17.04638,50.43383],[17.04749,50.4334],[17.04847,50.43283],[17.04896,50.4324],[17.04953,50.43164],[17.0501,50.43107],[17.05153,50.42854],[17.05254,50.4276],[17.05418,50.42675],[17.05472,50.42632]]}},{"type":"Feature","properties":{"numer":"1641O","klasa":"droga zbiorcza","kat":"powiatowa"},"geometry":{"type":"LineString","coordinates":[[17.08138,50.44978],[17.07964,50.44452],[17.07932,50.44387],[17.08029,50.44324],[17.08202,50.4418],[17.0839,50.44],[17.0851,50.43871],[17.08627,50.43774],[17.08763,50.43684],[17.08814,50.43627],[17.08841,50.43577],[17.08943,50.43368],[17.08965,50.43283],[17.09044,50.43274],[17.0905,50.43262]]}},{"type":"Feature","properties":{"numer":"46","klasa":"droga gĹ‚Ăłwna ruchu przyĹ›pieszonego","kat":"krajowa"},"geometry":{"type":"LineString","coordinates":[[17.04773,50.45318],[17.04982,50.45308],[17.08138,50.44978]]}},{"type":"Feature","properties":{"numer":"1671O","klasa":"","kat":"powiatowa"},"geometry":{"type":"LineString","coordinates":[[17.04769,50.45355],[17.04773,50.45318]]}},{"type":"Feature","properties":{"numer":"1671O","klasa":"","kat":"powiatowa"},"geometry":{"type":"LineString","coordinates":[[17.04327,50.45582],[17.04579,50.45534],[17.04559,50.45501],[17.04565,50.45482],[17.04769,50.45355]]}},{"type":"Feature","properties":{"numer":"46","klasa":"droga gĹ‚Ăłwna ruchu przyĹ›pieszonego","kat":"krajowa"},"geometry":{"type":"LineString","coordinates":[[17.10706,50.4464],[17.10899,50.44604]]}},{"type":"Feature","properties":{"numer":"1640O","klasa":"droga zbiorcza","kat":"powiatowa"},"geometry":{"type":"LineString","coordinates":[[17.106,50.44661],[17.10583,50.4462]]}},{"type":"Feature","properties":{"numer":"46","klasa":"droga gĹ‚Ăłwna ruchu przyĹ›pieszonego","kat":"krajowa"},"geometry":{"type":"LineString","coordinates":[[17.106,50.44661],[17.10706,50.4464]]}},{"type":"Feature","properties":{"numer":"46","klasa":"droga gĹ‚Ăłwna ruchu przyĹ›pieszonego","kat":"krajowa"},"geometry":{"type":"LineString","coordinates":[[17.08138,50.44978],[17.09797,50.44807],[17.106,50.44661]]}},{"type":"Feature","properties":{"numer":"46","klasa":"droga gĹ‚Ăłwna ruchu przyĹ›pieszonego","kat":"krajowa"},"geometry":{"type":"LineString","coordinates":[[17.10899,50.44604],[17.11038,50.44572],[17.11367,50.44481],[17.11454,50.44467],[17.11545,50.44462],[17.11591,50.44463],[17.11723,50.44487],[17.11863,50.44494],[17.12058,50.4454],[17.12291,50.4458],[17.12535,50.44636],[17.13094,50.44808],[17.13477,50.44894],[17.1383,50.44962],[17.14142,50.45055],[17.15086,50.45291],[17.15667947487085,50.45489968027126]]}},{"type":"Feature","properties":{"numer":"","klasa":"droga zbiorcza","kat":"powiatowa"},"geometry":{"type":"LineString","coordinates":[[17.0098,50.46726],[17.00981,50.46742]]}},{"type":"Feature","properties":{"numer":"382","klasa":"droga gĹ‚Ăłwna","kat":"wojewodzka"},"geometry":{"type":"LineString","coordinates":[[17.0123,50.46747],[17.01217,50.46731]]}},{"type":"Feature","properties":{"numer":"","klasa":"droga zbiorcza","kat":"powiatowa"},"geometry":{"type":"LineString","coordinates":[[17.00981,50.46742],[17.00996,50.46759],[17.01057,50.46776]]}},{"type":"Feature","properties":{"numer":"382","klasa":"droga gĹ‚Ăłwna","kat":"wojewodzka"},"geometry":{"type":"LineString","coordinates":[[17.01303,50.46843],[17.0123,50.46747]]}},{"type":"Feature","properties":{"numer":"","klasa":"droga zbiorcza","kat":"powiatowa"},"geometry":{"type":"LineString","coordinates":[[17.01303,50.46843],[17.01146,50.46807],[17.01057,50.46776]]}},{"type":"Feature","properties":{"numer":"1645O","klasa":"","kat":"powiatowa"},"geometry":{"type":"LineString","coordinates":[[16.97901,50.47065],[16.98134,50.47002],[16.98504,50.46875],[16.98712,50.46823],[16.99237,50.46791],[17.00249,50.46663]]}},{"type":"Feature","properties":{"numer":"382","klasa":"droga gĹ‚Ăłwna","kat":"wojewodzka"},"geometry":{"type":"LineString","coordinates":[[17.01365,50.46926],[17.01303,50.46843]]}},{"type":"Feature","properties":{"numer":"382","klasa":"droga gĹ‚Ăłwna","kat":"wojewodzka"},"geometry":{"type":"LineString","coordinates":[[17.0142,50.47001],[17.01365,50.46926]]}},{"type":"Feature","properties":{"numer":"382","klasa":"droga gĹ‚Ăłwna","kat":"wojewodzka"},"geometry":{"type":"LineString","coordinates":[[17.01435,50.47048],[17.0142,50.47001]]}},{"type":"Feature","properties":{"numer":"107026O","klasa":"droga dojazdowa","kat":"powiatowa"},"geometry":{"type":"LineString","coordinates":[[17.01469,50.47053],[17.01435,50.47048]]}},{"type":"Feature","properties":{"numer":"107038O","klasa":"droga dojazdowa","kat":"powiatowa"},"geometry":{"type":"LineString","coordinates":[[17.01496,50.47114],[17.01469,50.47053]]}},{"type":"Feature","properties":{"numer":"382","klasa":"droga gĹ‚Ăłwna","kat":"wojewodzka"},"geometry":{"type":"LineString","coordinates":[[17.01277,50.4716],[17.01403,50.47094],[17.01435,50.47048]]}},{"type":"Feature","properties":{"numer":"107017O","klasa":"droga lokalna","kat":"powiatowa"},"geometry":{"type":"LineString","coordinates":[[17.01312,50.47269],[17.01277,50.4716]]}},{"type":"Feature","properties":{"numer":"382","klasa":"droga gĹ‚Ăłwna","kat":"wojewodzka"},"geometry":{"type":"LineString","coordinates":[[17.006586034368805,50.47474106190791],[17.01277,50.4716]]}},{"type":"Feature","properties":{"numer":"107038O","klasa":"droga dojazdowa","kat":"powiatowa"},"geometry":{"type":"LineString","coordinates":[[17.01711,50.47795],[17.01496,50.47114]]}},{"type":"Feature","properties":{"numer":"107017O","klasa":"droga lokalna","kat":"powiatowa"},"geometry":{"type":"LineString","coordinates":[[17.01455,50.47708],[17.01312,50.47269]]}},{"type":"Feature","properties":{"numer":"107017O","klasa":"droga lokalna","kat":"powiatowa"},"geometry":{"type":"LineString","coordinates":[[17.01486,50.47812],[17.01455,50.47708]]}},{"type":"Feature","properties":{"numer":"107038O","klasa":"droga dojazdowa","kat":"powiatowa"},"geometry":{"type":"LineString","coordinates":[[17.01717,50.47814],[17.01711,50.47795]]}},{"type":"Feature","properties":{"numer":"107012O","klasa":"droga lokalna","kat":"powiatowa"},"geometry":{"type":"LineString","coordinates":[[17.01969,50.4782],[17.01717,50.47814]]}},{"type":"Feature","properties":{"numer":"46","klasa":"droga gĹ‚Ăłwna ruchu przyĹ›pieszonego","kat":"krajowa"},"geometry":{"type":"LineString","coordinates":[[16.9839,50.45704],[16.98246,50.4578],[16.98091,50.45836]]}},{"type":"Feature","properties":{"numer":"2238O","klasa":"droga gĹ‚Ăłwna","kat":"powiatowa"},"geometry":{"type":"LineString","coordinates":[[16.9845,50.45669],[16.98665,50.45671],[16.99631,50.45878]]}},{"type":"Feature","properties":{"numer":"46","klasa":"droga gĹ‚Ăłwna ruchu przyĹ›pieszonego","kat":"krajowa"},"geometry":{"type":"LineString","coordinates":[[16.98059,50.4579],[16.98091,50.45836]]}},{"type":"Feature","properties":{"numer":"46","klasa":"droga gĹ‚Ăłwna ruchu przyĹ›pieszonego","kat":"krajowa"},"geometry":{"type":"LineString","coordinates":[[16.98091,50.45836],[16.97992,50.45858],[16.97864,50.45874]]}},{"type":"Feature","properties":{"numer":"46","klasa":"droga gĹ‚Ăłwna ruchu przyĹ›pieszonego","kat":"krajowa"},"geometry":{"type":"LineString","coordinates":[[16.97864,50.45874],[16.97645,50.45879]]}},{"type":"Feature","properties":{"numer":"1645O","klasa":"","kat":"powiatowa"},"geometry":{"type":"LineString","coordinates":[[16.97901,50.47065],[16.97882,50.47072]]}},{"type":"Feature","properties":{"numer":"1645O","klasa":"","kat":"powiatowa"},"geometry":{"type":"LineString","coordinates":[[16.94421,50.47402],[16.94668,50.47453],[16.94725,50.47549],[16.94757,50.47578],[16.94791,50.47591],[16.94948,50.4759],[16.9505,50.47614],[16.95119,50.47615],[16.95279,50.47638],[16.9557,50.47603],[16.95647,50.47601],[16.9573,50.47611],[16.95865,50.47654],[16.95963,50.47654],[16.96146,50.47629],[16.96242,50.47576],[16.96387,50.47552],[16.96494,50.47521],[16.96598,50.47504],[16.96741,50.47462],[16.96852,50.47408],[16.96983,50.47368],[16.97035,50.47288],[16.9708,50.47256],[16.97208,50.47225],[16.97677,50.47149],[16.97882,50.47072]]}},{"type":"Feature","properties":{"numer":"46","klasa":"droga gĹ‚Ăłwna ruchu przyĹ›pieszonego","kat":"krajowa"},"geometry":{"type":"LineString","coordinates":[[17.02842,50.45833],[17.02698,50.4582],[17.02511,50.4578],[17.01347,50.45436]]}},{"type":"Feature","properties":{"numer":"1671O","klasa":"","kat":"powiatowa"},"geometry":{"type":"LineString","coordinates":[[17.03911,50.45628],[17.03937,50.45646],[17.03969,50.45642]]}},{"type":"Feature","properties":{"numer":"46","klasa":"droga gĹ‚Ăłwna ruchu przyĹ›pieszonego","kat":"krajowa"},"geometry":{"type":"LineString","coordinates":[[17.03911,50.45628],[17.03235,50.45803],[17.03027,50.45832],[17.02842,50.45833]]}},{"type":"Feature","properties":{"numer":"382","klasa":"droga gĹ‚Ăłwna","kat":"wojewodzka"},"geometry":{"type":"LineString","coordinates":[[17.02806,50.45913],[17.02836,50.45872],[17.02842,50.45833]]}},{"type":"Feature","properties":{"numer":"382","klasa":"droga gĹ‚Ăłwna","kat":"wojewodzka"},"geometry":{"type":"LineString","coordinates":[[17.01595,50.46156],[17.0192,50.46116],[17.02136,50.4606],[17.02431,50.46023],[17.02702,50.45962],[17.02771,50.45938],[17.02806,50.45913]]}},{"type":"Feature","properties":{"numer":"3198D","klasa":"","kat":"powiatowa"},"geometry":{"type":"LineString","coordinates":[[17.01990138424821,50.47821243436754],[17.01969,50.4782]]}}]}