{"type":"FeatureCollection","features":[{"type":"Feature","properties":{"numer":"94","klasa":"droga gĹ‚Ăłwna","kat":"krajowa"},"geometry":{"type":"LineString","coordinates":[[18.032626741983666,50.62863105815915],[18.03263,50.62863]]}},{"type":"Feature","properties":{"numer":"1747O","klasa":"droga zbiorcza","kat":"powiatowa"},"geometry":{"type":"LineString","coordinates":[[18.09211,50.61802],[18.09188,50.61794]]}},{"type":"Feature","properties":{"numer":"1747O","klasa":"droga zbiorcza","kat":"powiatowa"},"geometry":{"type":"LineString","coordinates":[[18.09188,50.61794],[18.09112,50.61772],[18.09061,50.61775],[18.08883,50.61849],[18.08571,50.61931]]}},{"type":"Feature","properties":{"numer":"1747O","klasa":"droga zbiorcza","kat":"powiatowa"},"geometry":{"type":"LineString","coordinates":[[18.08571,50.61931],[18.08526,50.61929]]}},{"type":"Feature","properties":{"numer":"94","klasa":"droga gĹ‚Ăłwna ruchu przyĹ›pieszonego","kat":"krajowa"},"geometry":{"type":"LineString","coordinates":[[18.04339,50.62527],[18.05338,50.62215],[18.054572010243263,50.6217195518566]]}},{"type":"Feature","properties":{"numer":"1751O","klasa":"droga zbiorcza","kat":"powiatowa"},"geometry":{"type":"LineString","coordinates":[[18.08526,50.61929],[18.08512,50.61991],[18.08517,50.62141],[18.08436,50.6218],[18.08281,50.62436],[18.08159,50.62529],[18.08109,50.62642],[18.08029,50.6299],[18.07887,50.63217],[18.07833,50.63408]]}},{"type":"Feature","properties":{"numer":"94","klasa":"droga gĹ‚Ăłwna ruchu przyĹ›pieszonego","kat":"krajowa"},"geometry":{"type":"LineString","coordinates":[[18.03263,50.62863],[18.04339,50.62527]]}},{"type":"Feature","properties":{"numer":"1714O","klasa":"droga zbiorcza","kat":"powiatowa"},"geometry":{"type":"LineString","coordinates":[[18.055233016039264,50.621528497025196],[18.06251,50.62544],[18.07107,50.62944],[18.07714,50.63374],[18.07815,50.63425]]}},{"type":"Feature","properties":{"numer":"1751O","klasa":"droga zbiorcza","kat":"powiatowa"},"geometry":{"type":"LineString","coordinates":[[18.07833,50.63408],[18.07815,50.63425]]}},{"type":"Feature","properties":{"numer":"1752O","klasa":"droga zbiorcza","kat":"powiatowa"},"geometry":{"type":"LineString","coordinates":[[18.0294,50.67006],[18.02814,50.66841],[18.02697,50.66761],[18.02681,50.66718],[18.02794,50.66534],[18.03042,50.66179],[18.03171,50.66048],[18.03604,50.65645],[18.04305,50.65141],[18.04408,50.6502],[18.04403,50.65],[18.04337,50.64951],[18.04324,50.64923],[18.04346,50.62908],[18.04339,50.62527]]}},{"type":"Feature","properties":{"numer":"1751O","klasa":"droga zbiorcza","kat":"powiatowa"},"geometry":{"type":"LineString","coordinates":[[18.084091601931174,50.61156487476405],[18.0841,50.61189],[18.08614,50.61747],[18.08604,50.61784],[18.08526,50.61929]]}},{"type":"Feature","properties":{"numer":"1712O","klasa":"droga zbiorcza","kat":"powiatowa"},"geometry":{"type":"LineString","coordinates":[[18.13674,50.61902],[18.13663,50.61791],[18.13738,50.6163],[18.137372719141325,50.61223]]}},{"type":"Feature","properties":{"numer":"1748O","klasa":"","kat":"powiatowa"},"geometry":{"type":"LineString","coordinates":[[18.11021,50.61804615384615],[18.11021,50.6181]]}},{"type":"Feature","properties":{"numer":"1747O","klasa":"droga zbiorcza","kat":"powiatowa"},"geometry":{"type":"LineString","coordinates":[[18.1514015338064,50.611832110556634],[18.15082,50.61224],[18.1494,50.61279],[18.14611,50.61499],[18.14422,50.61568],[18.14278,50.61635],[18.14015,50.61707],[18.13846,50.61773],[18.13739,50.61843],[18.13674,50.61902]]}},{"type":"Feature","properties":{"numer":"1747O","klasa":"droga zbiorcza","kat":"powiatowa"},"geometry":{"type":"LineString","coordinates":[[18.11021,50.6181],[18.10819,50.61781],[18.10459,50.61788],[18.10159,50.61755],[18.10042,50.61771],[18.09813,50.6183],[18.0976,50.61837],[18.09588,50.61822],[18.09312,50.61825],[18.09211,50.61802]]}},{"type":"Feature","properties":{"numer":"1712O,1747O","klasa":"droga zbiorcza","kat":"powiatowa"},"geometry":{"type":"LineString","coordinates":[[18.13639,50.61947],[18.13674,50.61902]]}},{"type":"Feature","properties":{"numer":"1747O","klasa":"droga zbiorcza","kat":"powiatowa"},"geometry":{"type":"LineString","coordinates":[[18.13639,50.61947],[18.13374,50.62068],[18.13259,50.62102],[18.13177,50.62104],[18.12979,50.62089],[18.12333,50.62076],[18.1227,50.62064],[18.12041,50.61982],[18.11623,50.61959],[18.11507,50.61944],[18.11392,50.61917],[18.11188,50.61839],[18.11021,50.6181]]}},{"type":"Feature","properties":{"numer":"1712O","klasa":"droga zbiorcza","kat":"powiatowa"},"geometry":{"type":"LineString","coordinates":[[18.13631,50.62005],[18.13639,50.61947]]}},{"type":"Feature","properties":{"numer":"103458O,1712O","klasa":"droga zbiorcza","kat":"powiatowa"},"geometry":{"type":"LineString","coordinates":[[18.13632,50.6201],[18.13631,50.62005]]}},{"type":"Feature","properties":{"numer":"1712O","klasa":"droga zbiorcza","kat":"powiatowa"},"geometry":{"type":"LineString","coordinates":[[18.13707,50.62099],[18.13669,50.62068],[18.13632,50.6201]]}},{"type":"Feature","properties":{"numer":"1748O","klasa":"","kat":"powiatowa"},"geometry":{"type":"LineString","coordinates":[[18.11021,50.6181],[18.10997,50.61971],[18.10977,50.62025],[18.10761,50.62333]]}},{"type":"Feature","properties":{"numer":"1748O","klasa":"","kat":"powiatowa"},"geometry":{"type":"LineString","coordinates":[[18.10761,50.62333],[18.10681,50.62434],[18.10459,50.62524],[18.10368,50.62606],[18.10336,50.62688],[18.10332,50.6277],[18.10295,50.62884]]}},{"type":"Feature","properties":{"numer":"1712O","klasa":"droga zbiorcza","kat":"powiatowa"},"geometry":{"type":"LineString","coordinates":[[18.15475,50.63525],[18.15131,50.63182],[18.15069,50.63074],[18.14964,50.62809],[18.14919,50.62741],[18.14867,50.62692],[18.14786,50.6264],[18.14109,50.62282],[18.13822,50.6214],[18.13707,50.62099]]}},{"type":"Feature","properties":{"numer":"1748O","klasa":"","kat":"powiatowa"},"geometry":{"type":"LineString","coordinates":[[18.10295,50.62884],[18.10323,50.62986],[18.10284,50.63062],[18.10235,50.63109],[18.1014,50.63168],[18.10062,50.63246],[18.10029,50.63281],[18.09936,50.63433],[18.09784,50.63552],[18.0956,50.63807],[18.09508,50.63843]]}},{"type":"Feature","properties":{"numer":"1712O","klasa":"droga zbiorcza","kat":"powiatowa"},"geometry":{"type":"LineString","coordinates":[[18.15489,50.63539],[18.15475,50.63525]]}},{"type":"Feature","properties":{"numer":"1712O","klasa":"droga zbiorcza","kat":"powiatowa"},"geometry":{"type":"LineString","coordinates":[[18.15573,50.6362],[18.15489,50.63539]]}},{"type":"Feature","properties":{"numer":"1712O","klasa":"droga zbiorcza","kat":"powiatowa"},"geometry":{"type":"LineString","coordinates":[[18.15589,50.63634],[18.15573,50.6362]]}},{"type":"Feature","properties":{"numer":"1746O","klasa":"droga zbiorcza","kat":"powiatowa"},"geometry":{"type":"LineString","coordinates":[[18.13707,50.62099],[18.13682,50.62246],[18.1354,50.62392],[18.1352,50.62424],[18.13508,50.62502],[18.1348,50.62544],[18.13363,50.62631],[18.13323,50.62671],[18.13226,50.62812],[18.1319,50.62895],[18.13177,50.62966],[18.13152,50.62985],[18.13035,50.63039],[18.12996,50.63068],[18.1269,50.63414],[18.12477,50.63582],[18.1231,50.63814],[18.123,50.6388],[18.12244,50.63937],[18.12154,50.64001],[18.12125,50.64039],[18.12096,50.64098],[18.12075,50.64212],[18.12059,50.6424],[18.11803,50.64522],[18.11742,50.64564],[18.11642,50.64611],[18.11507,50.64612],[18.11302,50.64646],[18.10899,50.64789],[18.10752,50.64864],[18.10591,50.64923],[18.1045,50.64989],[18.10204,50.65139],[18.10062,50.65257]]}},{"type":"Feature","properties":{"numer":"1712O","klasa":"droga zbiorcza","kat":"powiatowa"},"geometry":{"type":"LineString","coordinates":[[18.15767,50.63776],[18.15589,50.63634]]}},{"type":"Feature","properties":{"numer":"1712O","klasa":"droga zbiorcza","kat":"powiatowa"},"geometry":{"type":"LineString","coordinates":[[18.15775,50.63781],[18.15767,50.63776]]}},{"type":"Feature","properties":{"numer":"1714O,1746O","klasa":"droga zbiorcza","kat":"powiatowa"},"geometry":{"type":"LineString","coordinates":[[18.10062,50.65257],[18.10122,50.65346],[18.10143,50.65408]]}},{"type":"Feature","properties":{"numer":"1714O,1746O","klasa":"droga zbiorcza","kat":"powiatowa"},"geometry":{"type":"LineString","coordinates":[[18.10143,50.65408],[18.10144,50.65419]]}},{"type":"Feature","properties":{"numer":"1714O,1746O","klasa":"droga zbiorcza","kat":"powiatowa"},"geometry":{"type":"LineString","coordinates":[[18.10144,50.65419],[18.10166,50.65473]]}},{"type":"Feature","properties":{"numer":"1746O","klasa":"droga zbiorcza","kat":"powiatowa"},"geometry":{"type":"LineString","coordinates":[[18.09987,50.65467],[18.0998,50.6546]]}},{"type":"Feature","properties":{"numer":"1712O","klasa":"droga zbiorcza","kat":"powiatowa"},"geometry":{"type":"LineString","coordinates":[[18.177588435565593,50.6552075126618],[18.1759,50.6544],[18.17471,50.65367],[18.17418981573851,50.653285719734754]]}},{"type":"Feature","properties":{"numer":"1712O","klasa":"droga zbiorcza","kat":"powiatowa"},"geometry":{"type":"LineString","coordinates":[[18.15927932420872,50.63890852865696],[18.15775,50.63781]]}},{"type":"Feature","properties":{"numer":"1714O","klasa":"droga zbiorcza","kat":"powiatowa"},"geometry":{"type":"LineString","coordinates":[[18.07815,50.63425],[18.0783,50.63431]]}},{"type":"Feature","properties":{"numer":"1714O,1751O","klasa":"droga zbiorcza","kat":"powiatowa"},"geometry":{"type":"LineString","coordinates":[[18.0783,50.63431],[18.07847,50.63438]]}},{"type":"Feature","properties":{"numer":"1714O,1751O","klasa":"droga zbiorcza","kat":"powiatowa"},"geometry":{"type":"LineString","coordinates":[[18.07847,50.63438],[18.07866,50.63446]]}},{"type":"Feature","properties":{"numer":"1714O,1751O","klasa":"droga zbiorcza","kat":"powiatowa"},"geometry":{"type":"LineString","coordinates":[[18.07866,50.63446],[18.07877,50.6345]]}},{"type":"Feature","properties":{"numer":"1714O","klasa":"droga zbiorcza","kat":"powiatowa"},"geometry":{"type":"LineString","coordinates":[[18.07877,50.6345],[18.08273,50.63609],[18.08518,50.63648],[18.08732,50.63661],[18.08803,50.63695],[18.09202,50.63778],[18.09475,50.63857]]}},{"type":"Feature","properties":{"numer":"1751O","klasa":"droga zbiorcza","kat":"powiatowa"},"geometry":{"type":"LineString","coordinates":[[18.07558,50.64222],[18.07877,50.6345]]}},{"type":"Feature","properties":{"numer":"1748O","klasa":"","kat":"powiatowa"},"geometry":{"type":"LineString","coordinates":[[18.09508,50.63843],[18.09475,50.63857]]}},{"type":"Feature","properties":{"numer":"1751O","klasa":"droga zbiorcza","kat":"powiatowa"},"geometry":{"type":"LineString","coordinates":[[18.07556,50.64227],[18.07558,50.64222]]}},{"type":"Feature","properties":{"numer":"1714O","klasa":"droga zbiorcza","kat":"powiatowa"},"geometry":{"type":"LineString","coordinates":[[18.09475,50.63857],[18.0949,50.63869],[18.09477,50.6402],[18.09504,50.64463],[18.09522,50.6456],[18.09553,50.64643],[18.09698,50.64899],[18.09775,50.65004],[18.09873,50.65103],[18.10062,50.65257]]}},{"type":"Feature","properties":{"numer":"1751O","klasa":"droga zbiorcza","kat":"powiatowa"},"geometry":{"type":"LineString","coordinates":[[18.07532,50.65915],[18.07247,50.64994],[18.07556,50.64227]]}},{"type":"Feature","properties":{"numer":"1746O","klasa":"droga zbiorcza","kat":"powiatowa"},"geometry":{"type":"LineString","coordinates":[[18.10166,50.65473],[18.10015,50.65474],[18.09987,50.65467]]}},{"type":"Feature","properties":{"numer":"1714O","klasa":"droga zbiorcza","kat":"powiatowa"},"geometry":{"type":"LineString","coordinates":[[18.10166,50.65473],[18.10205,50.656],[18.10221,50.65745]]}},{"type":"Feature","properties":{"numer":"1714O","klasa":"droga zbiorcza","kat":"powiatowa"},"geometry":{"type":"LineString","coordinates":[[18.10221,50.65745],[18.10221,50.65754]]}},{"type":"Feature","properties":{"numer":"1714O","klasa":"droga zbiorcza","kat":"powiatowa"},"geometry":{"type":"LineString","coordinates":[[18.10221,50.65754],[18.10241,50.65932],[18.10265,50.65972],[18.10318,50.65995],[18.10541,50.66032],[18.10619,50.66063],[18.10665,50.66104],[18.10709,50.66212],[18.10731,50.66241],[18.10931,50.66348],[18.11095,50.66411],[18.11128,50.66436],[18.11259,50.66578]]}},{"type":"Feature","properties":{"numer":"46","klasa":"droga gĹ‚Ăłwna ruchu przyĹ›pieszonego","kat":"krajowa"},"geometry":{"type":"LineString","coordinates":[[18.11909,50.66556],[18.12083,50.6654]]}},{"type":"Feature","properties":{"numer":"46","klasa":"droga gĹ‚Ăłwna ruchu przyĹ›pieszonego","kat":"krajowa"},"geometry":{"type":"LineString","coordinates":[[18.11285,50.66614],[18.11909,50.66556]]}},{"type":"Feature","properties":{"numer":"1714O","klasa":"droga zbiorcza","kat":"powiatowa"},"geometry":{"type":"LineString","coordinates":[[18.11259,50.66578],[18.11285,50.66614]]}},{"type":"Feature","properties":{"numer":"46","klasa":"droga gĹ‚Ăłwna ruchu przyĹ›pieszonego","kat":"krajowa"},"geometry":{"type":"LineString","coordinates":[[18.11277,50.66614],[18.11285,50.66614]]}},{"type":"Feature","properties":{"numer":"46","klasa":"droga gĹ‚Ăłwna ruchu przyĹ›pieszonego","kat":"krajowa"},"geometry":{"type":"LineString","coordinates":[[18.11198,50.66621],[18.11277,50.66614]]}},{"type":"Feature","properties":{"numer":"46","klasa":"droga gĹ‚Ăłwna ruchu przyĹ›pieszonego","kat":"krajowa"},"geometry":{"type":"LineString","coordinates":[[18.10658,50.66671],[18.11198,50.66621]]}},{"type":"Feature","properties":{"numer":"1744O","klasa":"droga zbiorcza","kat":"powiatowa"},"geometry":{"type":"LineString","coordinates":[[18.18635,50.66602],[18.187690184840054,50.662995011361026]]}},{"type":"Feature","properties":{"numer":"1744O","klasa":"droga zbiorcza","kat":"powiatowa"},"geometry":{"type":"LineString","coordinates":[[18.185773124112732,50.66745730093946],[18.18635,50.66602]]}},{"type":"Feature","properties":{"numer":"1746O","klasa":"droga zbiorcza","kat":"powiatowa"},"geometry":{"type":"LineString","coordinates":[[18.0998,50.6546],[18.09963,50.65458],[18.09871,50.65483],[18.0973,50.65506],[18.09321,50.65559],[18.08806,50.65735],[18.07721,50.65894],[18.07532,50.65915]]}},{"type":"Feature","properties":{"numer":"1711O","klasa":"droga zbiorcza","kat":"powiatowa"},"geometry":{"type":"LineString","coordinates":[[18.0591,50.65879],[18.05932,50.65891]]}},{"type":"Feature","properties":{"numer":"1751O","klasa":"droga zbiorcza","kat":"powiatowa"},"geometry":{"type":"LineString","coordinates":[[18.07535,50.65926],[18.07532,50.65915]]}},{"type":"Feature","properties":{"numer":"1751O","klasa":"droga zbiorcza","kat":"powiatowa"},"geometry":{"type":"LineString","coordinates":[[18.07533,50.65937],[18.07535,50.65926]]}},{"type":"Feature","properties":{"numer":"1751O","klasa":"droga zbiorcza","kat":"powiatowa"},"geometry":{"type":"LineString","coordinates":[[18.07464,50.65995],[18.07533,50.65937]]}},{"type":"Feature","properties":{"numer":"1751O","klasa":"droga zbiorcza","kat":"powiatowa"},"geometry":{"type":"LineString","coordinates":[[18.07452,50.66002],[18.07464,50.65995]]}},{"type":"Feature","properties":{"numer":"1711O","klasa":"droga zbiorcza","kat":"powiatowa"},"geometry":{"type":"LineString","coordinates":[[18.05932,50.65891],[18.06446,50.66174]]}},{"type":"Feature","properties":{"numer":"1711O","klasa":"droga zbiorcza","kat":"powiatowa"},"geometry":{"type":"LineString","coordinates":[[18.06446,50.66174],[18.06463,50.66187]]}},{"type":"Feature","properties":{"numer":"1711O","klasa":"droga zbiorcza","kat":"powiatowa"},"geometry":{"type":"LineString","coordinates":[[18.04326,50.6663],[18.04704,50.66413],[18.04899,50.66254],[18.05249,50.65925],[18.05366,50.65841],[18.05473,50.6578],[18.05521,50.65765],[18.05585,50.65758],[18.05698,50.65772],[18.0591,50.65879]]}},{"type":"Feature","properties":{"numer":"1751O","klasa":"droga zbiorcza","kat":"powiatowa"},"geometry":{"type":"LineString","coordinates":[[18.06945,50.66417],[18.07057,50.66318],[18.07194,50.6624],[18.07331,50.66148],[18.07348,50.66128],[18.07353,50.66075],[18.07406,50.66028],[18.07452,50.66002]]}},{"type":"Feature","properties":{"numer":"1711O","klasa":"droga zbiorcza","kat":"powiatowa"},"geometry":{"type":"LineString","coordinates":[[18.06463,50.66187],[18.06552,50.66285],[18.06644,50.66296],[18.06748,50.6632],[18.06945,50.66417]]}},{"type":"Feature","properties":{"numer":"1711O","klasa":"droga zbiorcza","kat":"powiatowa"},"geometry":{"type":"LineString","coordinates":[[18.06945,50.66417],[18.07236,50.66546],[18.07536,50.66617],[18.08208,50.66707],[18.08881,50.66779],[18.09141,50.6679],[18.09233,50.66783]]}},{"type":"Feature","properties":{"numer":"1711O","klasa":"droga zbiorcza","kat":"powiatowa"},"geometry":{"type":"LineString","coordinates":[[18.04324,50.66654],[18.04326,50.6663]]}},{"type":"Feature","properties":{"numer":"46","klasa":"droga gĹ‚Ăłwna ruchu przyĹ›pieszonego","kat":"krajowa"},"geometry":{"type":"LineString","coordinates":[[18.04324,50.66654],[18.04462,50.66655],[18.04604,50.66666]]}},{"type":"Feature","properties":{"numer":"46","klasa":"droga gĹ‚Ăłwna ruchu przyĹ›pieszonego","kat":"krajowa"},"geometry":{"type":"LineString","coordinates":[[18.04145,50.66681],[18.04324,50.66654]]}},{"type":"Feature","properties":{"numer":"46","klasa":"droga gĹ‚Ăłwna ruchu przyĹ›pieszonego","kat":"krajowa"},"geometry":{"type":"LineString","coordinates":[[18.04604,50.66666],[18.0534,50.66721]]}},{"type":"Feature","properties":{"numer":"46","klasa":"droga gĹ‚Ăłwna ruchu przyĹ›pieszonego","kat":"krajowa"},"geometry":{"type":"LineString","coordinates":[[18.03913,50.66743],[18.04145,50.66681]]}},{"type":"Feature","properties":{"numer":"46","klasa":"droga gĹ‚Ăłwna ruchu przyĹ›pieszonego","kat":"krajowa"},"geometry":{"type":"LineString","coordinates":[[18.0534,50.66721],[18.05383,50.66725]]}},{"type":"Feature","properties":{"numer":"46","klasa":"droga gĹ‚Ăłwna ruchu przyĹ›pieszonego","kat":"krajowa"},"geometry":{"type":"LineString","coordinates":[[18.03824,50.66768],[18.03913,50.66743]]}},{"type":"Feature","properties":{"numer":"46","klasa":"droga gĹ‚Ăłwna ruchu przyĹ›pieszonego","kat":"krajowa"},"geometry":{"type":"LineString","coordinates":[[18.05383,50.66725],[18.06491,50.66817],[18.06708,50.66841]]}},{"type":"Feature","properties":{"numer":"94","klasa":"droga gĹ‚Ăłwna ruchu przyĹ›pieszonego","kat":"krajowa"},"geometry":{"type":"LineString","coordinates":[[17.99528,50.67043],[17.99547682416461,50.6668614923199]]}},{"type":"Feature","properties":{"numer":"46","klasa":"droga gĹ‚Ăłwna ruchu przyĹ›pieszonego","kat":"krajowa"},"geometry":{"type":"LineString","coordinates":[[18.0294,50.67006],[18.03824,50.66768]]}},{"type":"Feature","properties":{"numer":"46","klasa":"droga gĹ‚Ăłwna ruchu przyĹ›pieszonego","kat":"krajowa"},"geometry":{"type":"LineString","coordinates":[[18.02873,50.67024],[18.0294,50.67006]]}},{"type":"Feature","properties":{"numer":"46","klasa":"droga gĹ‚Ăłwna ruchu przyĹ›pieszonego","kat":"krajowa"},"geometry":{"type":"LineString","coordinates":[[18.00443,50.67224],[18.02175,50.67131],[18.02437,50.67136],[18.02525,50.67122],[18.02873,50.67024]]}},{"type":"Feature","properties":{"numer":"94","klasa":"droga gĹ‚Ăłwna ruchu przyĹ›pieszonego","kat":"krajowa"},"geometry":{"type":"LineString","coordinates":[[17.99509291476465,50.67259625009354],[17.99528,50.67043]]}},{"type":"Feature","properties":{"numer":"46","klasa":"droga gĹ‚Ăłwna","kat":"krajowa"},"geometry":{"type":"LineString","coordinates":[[18.004414594387836,50.672240851923256],[18.00443,50.67224]]}},{"type":"Feature","properties":{"numer":"1711O","klasa":"droga zbiorcza","kat":"powiatowa"},"geometry":{"type":"LineString","coordinates":[[18.09233,50.66783],[18.0926,50.66803]]}},{"type":"Feature","properties":{"numer":"46","klasa":"droga gĹ‚Ăłwna ruchu przyĹ›pieszonego","kat":"krajowa"},"geometry":{"type":"LineString","coordinates":[[18.06708,50.66841],[18.07134,50.66893]]}},{"type":"Feature","properties":{"numer":"46","klasa":"droga gĹ‚Ăłwna ruchu przyĹ›pieszonego","kat":"krajowa"},"geometry":{"type":"LineString","coordinates":[[18.07134,50.66893],[18.08077,50.67009],[18.08265,50.67015],[18.08414,50.66996],[18.0926,50.66803]]}},{"type":"Feature","properties":{"numer":"46","klasa":"droga gĹ‚Ăłwna ruchu przyĹ›pieszonego","kat":"krajowa"},"geometry":{"type":"LineString","coordinates":[[18.1058,50.66677],[18.10658,50.66671]]}},{"type":"Feature","properties":{"numer":"46","klasa":"droga gĹ‚Ăłwna ruchu przyĹ›pieszonego","kat":"krajowa"},"geometry":{"type":"LineString","coordinates":[[18.10572,50.66678],[18.1058,50.66677]]}},{"type":"Feature","properties":{"numer":"46","klasa":"droga gĹ‚Ăłwna ruchu przyĹ›pieszonego","kat":"krajowa"},"geometry":{"type":"LineString","coordinates":[[18.12083,50.6654],[18.1261,50.66493],[18.1273977425876,50.66495805929919]]}},{"type":"Feature","properties":{"numer":"46","klasa":"droga gĹ‚Ăłwna ruchu przyĹ›pieszonego","kat":"krajowa"},"geometry":{"type":"LineString","coordinates":[[18.0926,50.66803],[18.09421,50.66783],[18.10572,50.66678]]}},{"type":"Feature","properties":{"numer":"1745O","klasa":"droga zbiorcza","kat":"powiatowa"},"geometry":{"type":"LineString","coordinates":[[18.10572,50.66678],[18.10517,50.66846],[18.10524,50.66953],[18.10566,50.67005],[18.10769,50.67175],[18.10794,50.67208],[18.10854,50.67348],[18.1086,50.67466],[18.1068,50.67643],[18.10586,50.67776],[18.10289,50.68086],[18.10234,50.68218],[18.10163,50.68318],[18.09992,50.68446],[18.09895,50.68488],[18.09723,50.68706],[18.09608,50.68774],[18.09537,50.68831],[18.09437,50.69328],[18.09426,50.69454],[18.09317,50.70034],[18.092904688478864,50.70135576410949]]}}]}