{"type":"FeatureCollection","features":[{"type":"Feature","properties":{"numer":"417","klasa":"droga gĹ‚Ăłwna","kat":"wojewodzka"},"geometry":{"type":"LineString","coordinates":[[17.75119,50.31348],[17.75115,50.31362],[17.75098,50.31371],[17.749,50.31388],[17.7439,50.3152],[17.731747303813094,50.31981876884681]]}},{"type":"Feature","properties":{"numer":"1264O","klasa":"","kat":"powiatowa"},"geometry":{"type":"LineString","coordinates":[[17.91246,50.2779],[17.911495359790667,50.27707556912342]]}},{"type":"Feature","properties":{"numer":"1264O","klasa":"","kat":"powiatowa"},"geometry":{"type":"LineString","coordinates":[[17.91043230555556,50.27623419444444],[17.90975,50.2758],[17.90889371982441,50.27549635454766]]}},{"type":"Feature","properties":{"numer":"1264O","klasa":"","kat":"powiatowa"},"geometry":{"type":"LineString","coordinates":[[17.906349494382003,50.27487604815409],[17.904491805885673,50.274480384630195]]}},{"type":"Feature","properties":{"numer":"1264O","klasa":"","kat":"powiatowa"},"geometry":{"type":"LineString","coordinates":[[17.91251,50.27794],[17.91246,50.2779]]}},{"type":"Feature","properties":{"numer":"417","klasa":"droga gĹ‚Ăłwna","kat":"wojewodzka"},"geometry":{"type":"LineString","coordinates":[[17.789529847908742,50.306057946768064],[17.78888,50.30678],[17.78788,50.30749],[17.7867,50.30803],[17.78616,50.30818],[17.78292,50.30851],[17.78182,50.3087]]}},{"type":"Feature","properties":{"numer":"417","klasa":"droga gĹ‚Ăłwna","kat":"wojewodzka"},"geometry":{"type":"LineString","coordinates":[[17.78149,50.30879],[17.78182,50.3087]]}},{"type":"Feature","properties":{"numer":"1212O","klasa":"droga zbiorcza","kat":"powiatowa"},"geometry":{"type":"LineString","coordinates":[[17.93274865098416,50.28060874699952],[17.93246,50.2806],[17.92882,50.28005],[17.92528,50.27979],[17.9243,50.27959],[17.92068,50.27771],[17.92017,50.27723],[17.91962,50.27693],[17.91848,50.2765],[17.91704,50.2761],[17.91671,50.27617],[17.91627,50.27711],[17.91606,50.27716],[17.91556,50.27709],[17.91518,50.27716],[17.91357,50.27857]]}},{"type":"Feature","properties":{"numer":"1249O","klasa":"droga zbiorcza","kat":"powiatowa"},"geometry":{"type":"LineString","coordinates":[[17.93360720186675,50.312947148247446],[17.93353,50.31297]]}},{"type":"Feature","properties":{"numer":"1211O","klasa":"droga zbiorcza","kat":"powiatowa"},"geometry":{"type":"LineString","coordinates":[[17.973593237867938,50.32056529037391],[17.97359,50.32057]]}},{"type":"Feature","properties":{"numer":"1211O","klasa":"droga zbiorcza","kat":"powiatowa"},"geometry":{"type":"LineString","coordinates":[[17.96981,50.33481],[17.96919,50.33336],[17.96947,50.33137],[17.96973,50.32636],[17.9707,50.32536],[17.97124,50.32464],[17.97356,50.32061]]}},{"type":"Feature","properties":{"numer":"40","klasa":"droga gĹ‚Ăłwna","kat":"krajowa"},"geometry":{"type":"LineString","coordinates":[[17.95909,50.33749],[17.95943,50.33706],[17.95963,50.33695],[17.96255,50.33695],[17.9637,50.33688],[17.9671,50.33623],[17.96745,50.33611],[17.96917,50.33489],[17.96943,50.33481],[17.96981,50.33481]]}},{"type":"Feature","properties":{"numer":"40","klasa":"droga gĹ‚Ăłwna","kat":"krajowa"},"geometry":{"type":"LineString","coordinates":[[17.95904,50.33755],[17.95909,50.33749]]}},{"type":"Feature","properties":{"numer":"40","klasa":"droga gĹ‚Ăłwna","kat":"krajowa"},"geometry":{"type":"LineString","coordinates":[[17.99191,50.34252],[17.99332,50.3421],[17.99396,50.34203],[17.99594,50.34206],[18.00341,50.34176],[18.0106,50.3418],[18.0182,50.34107],[18.02564,50.34098],[18.02834,50.34108],[18.02948,50.34099],[18.03099440388532,50.34070245495848]]}},{"type":"Feature","properties":{"numer":"1810O","klasa":"droga zbiorcza","kat":"powiatowa"},"geometry":{"type":"LineString","coordinates":[[17.99191,50.34252],[17.99257,50.34401],[17.9928,50.34514],[17.99397,50.34582],[17.99527,50.34623],[17.99591,50.34656],[17.99689,50.34682],[17.99706,50.34736],[17.99946,50.34902],[18.00093,50.35051]]}},{"type":"Feature","properties":{"numer":"1810O","klasa":"droga zbiorcza","kat":"powiatowa"},"geometry":{"type":"LineString","coordinates":[[18.00093,50.35051],[18.00179,50.3512],[18.0032,50.35156],[18.00418,50.35168],[18.00468,50.35187],[18.0061,50.35298],[18.00799,50.354]]}},{"type":"Feature","properties":{"numer":"1810O","klasa":"droga gĹ‚Ăłwna","kat":"powiatowa"},"geometry":{"type":"LineString","coordinates":[[18.00799,50.354],[18.00806676902537,50.354038384512684]]}},{"type":"Feature","properties":{"numer":"40","klasa":"droga gĹ‚Ăłwna","kat":"krajowa"},"geometry":{"type":"LineString","coordinates":[[17.96981,50.33481],[17.97115,50.33533],[17.97465,50.3363],[17.9766,50.33676],[17.98004,50.33801],[17.9862,50.33952],[17.98727,50.33998],[17.98791,50.34037],[17.98964,50.34187],[17.99052,50.34284],[17.99191,50.34252]]}},{"type":"Feature","properties":{"numer":"40","klasa":"droga gĹ‚Ăłwna","kat":"krajowa"},"geometry":{"type":"LineString","coordinates":[[17.95307,50.34018],[17.95568,50.33917],[17.95842,50.338],[17.95876,50.33783],[17.95904,50.33755]]}},{"type":"Feature","properties":{"numer":"1260O","klasa":"","kat":"powiatowa"},"geometry":{"type":"LineString","coordinates":[[17.95307,50.34018],[17.95327,50.34048],[17.95334,50.34544],[17.94995027398556,50.3556230419534]]}},{"type":"Feature","properties":{"numer":"417","klasa":"droga gĹ‚Ăłwna","kat":"wojewodzka"},"geometry":{"type":"LineString","coordinates":[[17.859979667896678,50.278705692720564],[17.86039,50.27931],[17.86044,50.27966],[17.86032,50.27998],[17.85987,50.28049],[17.8596,50.28065],[17.85769,50.28145],[17.85695,50.28261],[17.85614,50.28333],[17.85147,50.28834],[17.84995,50.29039],[17.84384,50.29664],[17.84387,50.29697],[17.84519,50.29797],[17.84546,50.29868]]}},{"type":"Feature","properties":{"numer":"417","klasa":"droga gĹ‚Ăłwna","kat":"wojewodzka"},"geometry":{"type":"LineString","coordinates":[[17.84546,50.29868],[17.84365,50.30117],[17.84222,50.3025],[17.84153,50.30287],[17.84025,50.30335],[17.83794,50.30468],[17.83517,50.30533]]}},{"type":"Feature","properties":{"numer":"416,417","klasa":"droga gĹ‚Ăłwna","kat":"gminna"},"geometry":{"type":"LineString","coordinates":[[17.83497,50.30539],[17.83382,50.30584],[17.83299,50.30596],[17.83199,50.30596],[17.82878,50.3055],[17.82527,50.30511],[17.82332028940178,50.30470758880095]]}},{"type":"Feature","properties":{"numer":"1264O","klasa":"","kat":"powiatowa"},"geometry":{"type":"LineString","coordinates":[[17.91357,50.27857],[17.91251,50.27794]]}},{"type":"Feature","properties":{"numer":"1212O","klasa":"droga zbiorcza","kat":"powiatowa"},"geometry":{"type":"LineString","coordinates":[[17.91357,50.27857],[17.91272,50.27948],[17.91175,50.28117],[17.91135,50.28166],[17.9099,50.2826],[17.90843,50.28417],[17.90817,50.28482],[17.90823,50.28591],[17.90792,50.28646],[17.90629,50.28759],[17.90553,50.28833],[17.90314,50.28931],[17.90237,50.28993],[17.90224,50.29022],[17.90219,50.29091],[17.90255,50.29169],[17.90258,50.2922],[17.90132,50.29397],[17.90081,50.29494],[17.89899,50.29606],[17.89811,50.29639],[17.89763,50.29646]]}},{"type":"Feature","properties":{"numer":"1212O","klasa":"droga zbiorcza","kat":"powiatowa"},"geometry":{"type":"LineString","coordinates":[[17.8975,50.29646],[17.89586,50.29628],[17.89349,50.29655]]}},{"type":"Feature","properties":{"numer":"1212O","klasa":"droga zbiorcza","kat":"powiatowa"},"geometry":{"type":"LineString","coordinates":[[17.89763,50.29646],[17.8975,50.29646]]}},{"type":"Feature","properties":{"numer":"1212O","klasa":"droga zbiorcza","kat":"powiatowa"},"geometry":{"type":"LineString","coordinates":[[17.89349,50.29655],[17.89328,50.29575],[17.89275,50.29485],[17.89259,50.29478],[17.88975,50.29475],[17.88685,50.2953],[17.87543,50.29622],[17.8583,50.29583],[17.85736,50.29593],[17.85489,50.29649],[17.85135,50.29786],[17.85068,50.29803],[17.84993,50.29814],[17.84774,50.29824],[17.84633,50.29868],[17.84546,50.29868]]}},{"type":"Feature","properties":{"numer":"1254O","klasa":"droga zbiorcza","kat":"powiatowa"},"geometry":{"type":"LineString","coordinates":[[17.89349,50.29655],[17.89375,50.2973],[17.89373,50.29838],[17.89392,50.29902],[17.89395,50.29977],[17.89445,50.30034]]}},{"type":"Feature","properties":{"numer":"1265O","klasa":"","kat":"powiatowa"},"geometry":{"type":"LineString","coordinates":[[17.89718,50.30181],[17.89504,50.30079],[17.89445,50.30034]]}},{"type":"Feature","properties":{"numer":"1265O","klasa":"","kat":"powiatowa"},"geometry":{"type":"LineString","coordinates":[[17.92589,50.31122],[17.91967,50.30905],[17.91778,50.3078],[17.91613,50.30703],[17.91211,50.30602],[17.90974,50.30613],[17.90896,50.30607],[17.90111,50.30369],[17.89718,50.30181]]}},{"type":"Feature","properties":{"numer":"1265O","klasa":"","kat":"powiatowa"},"geometry":{"type":"LineString","coordinates":[[17.93276,50.31359],[17.93228,50.31323],[17.93149,50.31293],[17.92902,50.3117],[17.92589,50.31122]]}},{"type":"Feature","properties":{"numer":"1249O","klasa":"droga zbiorcza","kat":"powiatowa"},"geometry":{"type":"LineString","coordinates":[[17.93344,50.313],[17.93353,50.31297]]}},{"type":"Feature","properties":{"numer":"1249O","klasa":"droga zbiorcza","kat":"powiatowa"},"geometry":{"type":"LineString","coordinates":[[17.93344,50.313],[17.93288,50.31332],[17.93276,50.31359]]}},{"type":"Feature","properties":{"numer":"1254O","klasa":"droga zbiorcza","kat":"powiatowa"},"geometry":{"type":"LineString","coordinates":[[17.89445,50.30034],[17.89468,50.30087],[17.89469,50.30162],[17.89428,50.30241],[17.89363,50.30328],[17.88177,50.31132],[17.87728,50.31718],[17.8583,50.33014]]}},{"type":"Feature","properties":{"numer":"1249O","klasa":"droga zbiorcza","kat":"powiatowa"},"geometry":{"type":"LineString","coordinates":[[17.93276,50.31359],[17.93328,50.31423],[17.9345,50.31513],[17.93494,50.3157],[17.93493,50.31625],[17.93458,50.31696],[17.93465,50.31764],[17.93446,50.31783],[17.93397,50.31804],[17.93035,50.31916],[17.92949,50.31964],[17.92885,50.32017],[17.92756,50.32159],[17.92264,50.32647],[17.92036,50.32901],[17.91462,50.33489],[17.91207,50.33736],[17.91008,50.33915],[17.90993,50.33946],[17.91001,50.33966],[17.91146,50.34107]]}},{"type":"Feature","properties":{"numer":"40","klasa":"droga gĹ‚Ăłwna","kat":"krajowa"},"geometry":{"type":"LineString","coordinates":[[17.91345,50.34076],[17.91665,50.33931],[17.91901,50.3385],[17.92076,50.33812],[17.9269,50.33712],[17.92886,50.33657],[17.93047,50.33645],[17.93265,50.33659],[17.93543,50.33694],[17.93891,50.33699],[17.94079,50.33721],[17.94156,50.33748],[17.94375,50.3396],[17.94423,50.33996],[17.94515,50.34035],[17.94658,50.34072],[17.94794,50.3408],[17.95307,50.34018]]}},{"type":"Feature","properties":{"numer":"40","klasa":"droga gĹ‚Ăłwna","kat":"krajowa"},"geometry":{"type":"LineString","coordinates":[[17.91146,50.34107],[17.91345,50.34076]]}},{"type":"Feature","properties":{"numer":"416,417","klasa":"droga gĹ‚Ăłwna","kat":"gminna"},"geometry":{"type":"LineString","coordinates":[[17.83517,50.30533],[17.83497,50.30539]]}},{"type":"Feature","properties":{"numer":"416","klasa":"droga gĹ‚Ăłwna","kat":"wojewodzka"},"geometry":{"type":"LineString","coordinates":[[17.83534,50.30561],[17.83497,50.30539]]}},{"type":"Feature","properties":{"numer":"416","klasa":"droga gĹ‚Ăłwna","kat":"wojewodzka"},"geometry":{"type":"LineString","coordinates":[[17.8583,50.33014],[17.8539,50.32411],[17.85085,50.32087],[17.84978,50.31927],[17.84796,50.31764],[17.8459,50.31533],[17.84581,50.31499],[17.846,50.31285],[17.84597,50.31202],[17.84578,50.31154],[17.8453,50.31098],[17.84454,50.31026],[17.84381,50.30978],[17.83697,50.30654],[17.83534,50.30561]]}},{"type":"Feature","properties":{"numer":"416","klasa":"droga gĹ‚Ăłwna","kat":"wojewodzka"},"geometry":{"type":"LineString","coordinates":[[17.8583,50.33014],[17.86025,50.33279],[17.86326,50.33891],[17.86348,50.33961],[17.86348,50.34119]]}},{"type":"Feature","properties":{"numer":"416","klasa":"droga gĹ‚Ăłwna","kat":"wojewodzka"},"geometry":{"type":"LineString","coordinates":[[17.86348,50.34119],[17.86347,50.34151]]}},{"type":"Feature","properties":{"numer":"1254O","klasa":"","kat":"powiatowa"},"geometry":{"type":"LineString","coordinates":[[17.8341,50.34392],[17.83285,50.34504]]}},{"type":"Feature","properties":{"numer":"416","klasa":"droga gĹ‚Ăłwna","kat":"wojewodzka"},"geometry":{"type":"LineString","coordinates":[[17.86347,50.34151],[17.86351,50.34442],[17.86373,50.3449],[17.86448,50.34586],[17.86526,50.34741],[17.86527,50.34764]]}},{"type":"Feature","properties":{"numer":"107465O","klasa":"droga lokalna","kat":"powiatowa"},"geometry":{"type":"LineString","coordinates":[[17.86527,50.34764],[17.86591,50.34839]]}},{"type":"Feature","properties":{"numer":"1209O","klasa":"droga zbiorcza","kat":"powiatowa"},"geometry":{"type":"LineString","coordinates":[[17.8341,50.34392],[17.83441,50.34442],[17.83495,50.34486],[17.83921,50.34698],[17.84152,50.34835],[17.8449,50.35063],[17.84637,50.35212]]}},{"type":"Feature","properties":{"numer":"107465O","klasa":"droga lokalna","kat":"powiatowa"},"geometry":{"type":"LineString","coordinates":[[17.86591,50.34839],[17.86636,50.34861]]}},{"type":"Feature","properties":{"numer":"417","klasa":"droga gĹ‚Ăłwna","kat":"wojewodzka"},"geometry":{"type":"LineString","coordinates":[[17.77568,50.31187],[17.77601,50.31092],[17.77654,50.31002],[17.77688,50.30975],[17.77743,50.30962],[17.77963,50.30933],[17.78149,50.30879]]}},{"type":"Feature","properties":{"numer":"417","klasa":"droga gĹ‚Ăłwna","kat":"wojewodzka"},"geometry":{"type":"LineString","coordinates":[[17.77487,50.31189],[17.77381,50.31173],[17.76885,50.31045],[17.76689,50.3105],[17.7655,50.3103]]}},{"type":"Feature","properties":{"numer":"417","klasa":"droga gĹ‚Ăłwna","kat":"wojewodzka"},"geometry":{"type":"LineString","coordinates":[[17.7655,50.3103],[17.76465,50.31027],[17.75983,50.31062],[17.75578,50.31095],[17.75499,50.3111],[17.75143,50.31241],[17.7511,50.31281],[17.75118,50.31335]]}},{"type":"Feature","properties":{"numer":"417","klasa":"droga gĹ‚Ăłwna","kat":"wojewodzka"},"geometry":{"type":"LineString","coordinates":[[17.77568,50.31187],[17.77545,50.31208]]}},{"type":"Feature","properties":{"numer":"417","klasa":"droga gĹ‚Ăłwna","kat":"wojewodzka"},"geometry":{"type":"LineString","coordinates":[[17.77545,50.31208],[17.77487,50.31189]]}},{"type":"Feature","properties":{"numer":"1209O","klasa":"droga zbiorcza","kat":"powiatowa"},"geometry":{"type":"LineString","coordinates":[[17.77545,50.31208],[17.77574,50.31232]]}},{"type":"Feature","properties":{"numer":"417","klasa":"droga gĹ‚Ăłwna","kat":"wojewodzka"},"geometry":{"type":"LineString","coordinates":[[17.75118,50.31335],[17.75119,50.31348]]}},{"type":"Feature","properties":{"numer":"1209O","klasa":"droga zbiorcza","kat":"powiatowa"},"geometry":{"type":"LineString","coordinates":[[17.77574,50.31232],[17.77684,50.31294],[17.77871,50.31359],[17.78006,50.31428],[17.78183,50.31534],[17.78303,50.31537],[17.78553,50.31563],[17.78888,50.31625],[17.78933,50.31641],[17.79491,50.31927],[17.79646,50.32063],[17.79685,50.32084],[17.79937,50.32182],[17.80135,50.32292],[17.80146,50.32309],[17.80129,50.32356],[17.80145,50.32374],[17.80447,50.32443],[17.80619,50.32497],[17.80698,50.32546],[17.81311,50.33005],[17.81531,50.33151],[17.81873,50.33333],[17.82127,50.33427],[17.82299,50.33519],[17.82406,50.33542],[17.82523,50.33554],[17.82608,50.33585],[17.82849,50.33758],[17.82931,50.33835],[17.83052,50.33961],[17.8309,50.34042],[17.83145,50.34119],[17.83364,50.3431],[17.8341,50.34392]]}},{"type":"Feature","properties":{"numer":"40","klasa":"droga gĹ‚Ăłwna","kat":"krajowa"},"geometry":{"type":"LineString","coordinates":[[17.760481080587574,50.34666201953052],[17.77215,50.34949],[17.77417,50.34964],[17.77708,50.34935],[17.77822,50.34931],[17.77925,50.34937],[17.78025,50.34954],[17.78133,50.34984],[17.78246,50.35034],[17.78346,50.35099],[17.78499,50.35225],[17.78572,50.35269],[17.78682,50.35316],[17.78823,50.35351],[17.79482,50.35448],[17.79646,50.35454],[17.79773,50.35441],[17.80627,50.35231],[17.80982,50.35166],[17.81054,50.35158],[17.81158,50.35157],[17.81342,50.35165],[17.81456,50.35183],[17.82472,50.35455],[17.82592,50.35471],[17.8276,50.35461]]}},{"type":"Feature","properties":{"numer":"107465O","klasa":"droga lokalna","kat":"powiatowa"},"geometry":{"type":"LineString","coordinates":[[17.86636,50.34861],[17.86897,50.34957]]}},{"type":"Feature","properties":{"numer":"416","klasa":"droga gĹ‚Ăłwna","kat":"wojewodzka"},"geometry":{"type":"LineString","coordinates":[[17.86527,50.34764],[17.8651,50.34778],[17.86254,50.34884],[17.86184,50.34924],[17.86178,50.34948],[17.86231,50.35034],[17.86229,50.35054],[17.86197,50.35086]]}},{"type":"Feature","properties":{"numer":"1254O","klasa":"","kat":"powiatowa"},"geometry":{"type":"LineString","coordinates":[[17.83285,50.34504],[17.83182,50.34586],[17.83113,50.3471],[17.82887,50.34904],[17.82841,50.34967],[17.82791,50.35139],[17.8276,50.35461]]}},{"type":"Feature","properties":{"numer":"416","klasa":"droga gĹ‚Ăłwna","kat":"wojewodzka"},"geometry":{"type":"LineString","coordinates":[[17.86197,50.35086],[17.86091,50.35127],[17.86069,50.35148]]}},{"type":"Feature","properties":{"numer":"416","klasa":"droga gĹ‚Ăłwna","kat":"wojewodzka"},"geometry":{"type":"LineString","coordinates":[[17.86197,50.35086],[17.86293,50.35197]]}},{"type":"Feature","properties":{"numer":"416","klasa":"droga gĹ‚Ăłwna","kat":"wojewodzka"},"geometry":{"type":"LineString","coordinates":[[17.86069,50.35148],[17.86063,50.35174]]}},{"type":"Feature","properties":{"numer":"40,416","klasa":"droga gĹ‚Ăłwna","kat":"gminna"},"geometry":{"type":"LineString","coordinates":[[17.86053,50.35175],[17.86063,50.35174]]}},{"type":"Feature","properties":{"numer":"40,416","klasa":"droga gĹ‚Ăłwna","kat":"gminna"},"geometry":{"type":"LineString","coordinates":[[17.86063,50.35174],[17.86293,50.35197]]}},{"type":"Feature","properties":{"numer":"1209O","klasa":"droga zbiorcza","kat":"powiatowa"},"geometry":{"type":"LineString","coordinates":[[17.84652,50.35255],[17.84637,50.35212]]}},{"type":"Feature","properties":{"numer":"40","klasa":"droga gĹ‚Ăłwna","kat":"krajowa"},"geometry":{"type":"LineString","coordinates":[[17.86053,50.35175],[17.85894,50.3519],[17.85869,50.35203],[17.85823,50.35248],[17.8572,50.35273],[17.85627,50.35309]]}},{"type":"Feature","properties":{"numer":"40,416","klasa":"droga gĹ‚Ăłwna","kat":"gminna"},"geometry":{"type":"LineString","coordinates":[[17.86293,50.35197],[17.86356,50.35222],[17.86425,50.35312]]}},{"type":"Feature","properties":{"numer":"40","klasa":"droga gĹ‚Ăłwna","kat":"krajowa"},"geometry":{"type":"LineString","coordinates":[[17.84573,50.35258],[17.84652,50.35255]]}},{"type":"Feature","properties":{"numer":"1208O","klasa":"droga zbiorcza","kat":"powiatowa"},"geometry":{"type":"LineString","coordinates":[[17.84551,50.35282],[17.84573,50.35258]]}},{"type":"Feature","properties":{"numer":"40","klasa":"droga gĹ‚Ăłwna","kat":"krajowa"},"geometry":{"type":"LineString","coordinates":[[17.84652,50.35255],[17.84713,50.35258],[17.84913,50.35288]]}},{"type":"Feature","properties":{"numer":"40","klasa":"droga gĹ‚Ăłwna","kat":"krajowa"},"geometry":{"type":"LineString","coordinates":[[17.85019,50.35304],[17.84913,50.35288]]}},{"type":"Feature","properties":{"numer":"40","klasa":"droga gĹ‚Ăłwna","kat":"krajowa"},"geometry":{"type":"LineString","coordinates":[[17.85627,50.35309],[17.85619,50.35311]]}},{"type":"Feature","properties":{"numer":"40","klasa":"droga gĹ‚Ăłwna","kat":"krajowa"},"geometry":{"type":"LineString","coordinates":[[17.85619,50.35311],[17.85463,50.35331],[17.8532,50.35336],[17.85213,50.3533],[17.85019,50.35304]]}},{"type":"Feature","properties":{"numer":"40","klasa":"droga gĹ‚Ăłwna","kat":"krajowa"},"geometry":{"type":"LineString","coordinates":[[17.86425,50.35312],[17.86445,50.35344]]}},{"type":"Feature","properties":{"numer":"40","klasa":"droga gĹ‚Ăłwna","kat":"krajowa"},"geometry":{"type":"LineString","coordinates":[[17.86445,50.35344],[17.86518,50.35354]]}},{"type":"Feature","properties":{"numer":"40","klasa":"droga gĹ‚Ăłwna","kat":"krajowa"},"geometry":{"type":"LineString","coordinates":[[17.86518,50.35354],[17.86586,50.35356],[17.86611,50.3535]]}},{"type":"Feature","properties":{"numer":"40","klasa":"droga gĹ‚Ăłwna","kat":"krajowa"},"geometry":{"type":"LineString","coordinates":[[17.87215,50.35107],[17.87285,50.35075],[17.87619,50.34863],[17.87667,50.3486],[17.87771,50.34895],[17.87964,50.3488],[17.88225,50.34795],[17.88498,50.34722],[17.88767,50.34676],[17.89223,50.34563],[17.89831,50.34457],[17.9005,50.34408],[17.9067,50.34206],[17.90829,50.34176],[17.91029,50.34121],[17.91146,50.34107]]}},{"type":"Feature","properties":{"numer":"107465O","klasa":"droga lokalna","kat":"powiatowa"},"geometry":{"type":"LineString","coordinates":[[17.86897,50.34957],[17.86966,50.34988]]}},{"type":"Feature","properties":{"numer":"107465O","klasa":"droga lokalna","kat":"powiatowa"},"geometry":{"type":"LineString","coordinates":[[17.86966,50.34988],[17.87002,50.35007]]}},{"type":"Feature","properties":{"numer":"107465O","klasa":"droga lokalna","kat":"powiatowa"},"geometry":{"type":"LineString","coordinates":[[17.87002,50.35007],[17.87215,50.35107]]}},{"type":"Feature","properties":{"numer":"40","klasa":"droga gĹ‚Ăłwna","kat":"krajowa"},"geometry":{"type":"LineString","coordinates":[[17.86611,50.3535],[17.87215,50.35107]]}},{"type":"Feature","properties":{"numer":"1459O","klasa":"","kat":"powiatowa"},"geometry":{"type":"LineString","coordinates":[[17.91345,50.34076],[17.91363,50.34104],[17.9138,50.34182],[17.91382,50.34484],[17.91434,50.34556],[17.9151,50.346],[17.91537,50.34631],[17.91652,50.34837],[17.9168,50.34939],[17.91699,50.35056],[17.91698783089547,50.35077257224403]]}},{"type":"Feature","properties":{"numer":"1459O","klasa":"","kat":"powiatowa"},"geometry":{"type":"LineString","coordinates":[[17.9166047180793,50.35252212077119],[17.91651,50.35277],[17.916469855072467,50.353137995169064]]}},{"type":"Feature","properties":{"numer":"1210O","klasa":"droga zbiorcza","kat":"powiatowa"},"geometry":{"type":"LineString","coordinates":[[17.924741487209992,50.37240404223677],[17.92417,50.37232],[17.90891,50.36858],[17.90612,50.36779],[17.90408,50.3674],[17.89828,50.36678],[17.888,50.36675],[17.8873,50.36648],[17.8824,50.36395],[17.87415,50.35937],[17.87217,50.35816],[17.86803,50.35597],[17.86752,50.35548],[17.86611,50.3535]]}},{"type":"Feature","properties":{"numer":"1837O","klasa":"droga zbiorcza","kat":"powiatowa"},"geometry":{"type":"LineString","coordinates":[[17.87204,50.38217],[17.87295,50.38173]]}},{"type":"Feature","properties":{"numer":"40","klasa":"droga gĹ‚Ăłwna","kat":"krajowa"},"geometry":{"type":"LineString","coordinates":[[17.8276,50.35461],[17.83344,50.3535],[17.8371,50.35297],[17.84573,50.35258]]}},{"type":"Feature","properties":{"numer":"416","klasa":"droga gĹ‚Ăłwna","kat":"wojewodzka"},"geometry":{"type":"LineString","coordinates":[[17.86445,50.35344],[17.86448,50.35387]]}},{"type":"Feature","properties":{"numer":"1208O","klasa":"droga zbiorcza","kat":"powiatowa"},"geometry":{"type":"LineString","coordinates":[[17.83187,50.36721],[17.83292,50.36638],[17.83549,50.36507],[17.83695,50.3637],[17.83838,50.36341],[17.83833,50.36142],[17.83845,50.36123],[17.83918,50.36067],[17.84009,50.35935],[17.84076,50.35826],[17.84224,50.35539],[17.84301,50.35454],[17.8447,50.35351],[17.84551,50.35282]]}},{"type":"Feature","properties":{"numer":"1254O","klasa":"","kat":"powiatowa"},"geometry":{"type":"LineString","coordinates":[[17.8276,50.35461],[17.82777,50.35713],[17.82747,50.35816],[17.82669,50.35962],[17.826,50.36154],[17.82559,50.3623],[17.82514,50.36287],[17.82482,50.36358],[17.82326,50.36603],[17.8221,50.36756],[17.82165,50.36863],[17.82152,50.36981],[17.82086,50.37104],[17.82071,50.37158],[17.82075,50.37246],[17.82098,50.37312],[17.82122,50.3734]]}},{"type":"Feature","properties":{"numer":"416","klasa":"droga gĹ‚Ăłwna","kat":"wojewodzka"},"geometry":{"type":"LineString","coordinates":[[17.86448,50.35387],[17.86459,50.35469],[17.86443,50.35551],[17.86385,50.35587],[17.86278,50.35629],[17.86269,50.35652],[17.86341,50.35731],[17.86428,50.35798],[17.8654,50.35774],[17.86574,50.35781],[17.86597,50.35798],[17.86733,50.35938],[17.86756,50.36033],[17.86833,50.36179],[17.86861,50.3628],[17.86835,50.36423],[17.86837,50.36529],[17.86884,50.36753],[17.86932,50.36949],[17.8709,50.37416],[17.87173,50.37791],[17.87295,50.38173]]}},{"type":"Feature","properties":{"numer":"1208O","klasa":"droga zbiorcza","kat":"powiatowa"},"geometry":{"type":"LineString","coordinates":[[17.82122,50.3734],[17.8215,50.37301],[17.8258,50.36963],[17.83124,50.36752],[17.83187,50.36721]]}},{"type":"Feature","properties":{"numer":"1208O","klasa":"droga zbiorcza","kat":"powiatowa"},"geometry":{"type":"LineString","coordinates":[[17.8196,50.38006],[17.82082,50.37975],[17.82196,50.37972],[17.8222,50.37963],[17.82237,50.37943],[17.82249,50.378],[17.82227,50.37707],[17.82245,50.37584],[17.82122,50.3734]]}},{"type":"Feature","properties":{"numer":"1278O","klasa":"","kat":"powiatowa"},"geometry":{"type":"LineString","coordinates":[[17.83187,50.36721],[17.83428,50.36979],[17.83426,50.37212],[17.83447,50.37246],[17.83508,50.37272],[17.83771,50.37337],[17.83862,50.37348],[17.83917,50.37406],[17.83949,50.375],[17.83984,50.37837],[17.84075,50.37996],[17.84098,50.38073],[17.84407,50.38463],[17.84525,50.38774],[17.84652,50.38855],[17.84669,50.38858],[17.84977,50.38795],[17.85019,50.38797],[17.85101,50.38825],[17.85174,50.38869],[17.85326,50.39012],[17.85452,50.39098],[17.85525,50.39197]]}},{"type":"Feature","properties":{"numer":"1837O","klasa":"droga zbiorcza","kat":"powiatowa"},"geometry":{"type":"LineString","coordinates":[[17.85953,50.38459],[17.85991,50.38459],[17.86132,50.38417],[17.86219,50.38404],[17.86362,50.38348],[17.86517,50.38331],[17.86742,50.38294],[17.86916,50.38244],[17.87204,50.38217]]}},{"type":"Feature","properties":{"numer":"1837O","klasa":"droga zbiorcza","kat":"powiatowa"},"geometry":{"type":"LineString","coordinates":[[17.85912,50.38455],[17.85953,50.38459]]}},{"type":"Feature","properties":{"numer":"1208O","klasa":"droga zbiorcza","kat":"powiatowa"},"geometry":{"type":"LineString","coordinates":[[17.78850830357048,50.37733086962713],[17.7938,50.3782],[17.7945,50.37837],[17.79581,50.3789],[17.79648,50.37902],[17.8067,50.38039],[17.81897,50.38015],[17.8196,50.38006]]}},{"type":"Feature","properties":{"numer":"107454O,1281O","klasa":"droga zbiorcza","kat":"powiatowa"},"geometry":{"type":"LineString","coordinates":[[17.79931,50.3957],[17.79877,50.39557]]}},{"type":"Feature","properties":{"numer":"1281O","klasa":"droga zbiorcza","kat":"powiatowa"},"geometry":{"type":"LineString","coordinates":[[17.79877,50.39557],[17.79847,50.39551],[17.79782,50.39553],[17.7945,50.39612],[17.79339,50.39616],[17.79215,50.39643],[17.79179,50.39663]]}},{"type":"Feature","properties":{"numer":"1281O","klasa":"droga zbiorcza","kat":"powiatowa"},"geometry":{"type":"LineString","coordinates":[[17.79179,50.39663],[17.79175,50.39665]]}},{"type":"Feature","properties":{"numer":"1281O","klasa":"droga zbiorcza","kat":"powiatowa"},"geometry":{"type":"LineString","coordinates":[[17.79175,50.39665],[17.79093,50.39761]]}},{"type":"Feature","properties":{"numer":"1281O","klasa":"droga zbiorcza","kat":"powiatowa"},"geometry":{"type":"LineString","coordinates":[[17.81024,50.39894],[17.80901,50.39784],[17.80811,50.39738],[17.8046,50.39678],[17.79931,50.3957]]}},{"type":"Feature","properties":{"numer":"1281O","klasa":"droga zbiorcza","kat":"powiatowa"},"geometry":{"type":"LineString","coordinates":[[17.79093,50.39761],[17.790903333333336,50.39763666666666]]}},{"type":"Feature","properties":{"numer":"416","klasa":"droga gĹ‚Ăłwna","kat":"wojewodzka"},"geometry":{"type":"LineString","coordinates":[[17.87316,50.38241],[17.87295,50.38173]]}},{"type":"Feature","properties":{"numer":"1837O","klasa":"droga zbiorcza","kat":"powiatowa"},"geometry":{"type":"LineString","coordinates":[[17.87204,50.38217],[17.87316,50.38241]]}},{"type":"Feature","properties":{"numer":"416","klasa":"droga gĹ‚Ăłwna","kat":"wojewodzka"},"geometry":{"type":"LineString","coordinates":[[17.877440905359855,50.38999660028892],[17.87677,50.38937],[17.8746,50.38603],[17.87399,50.38484],[17.87316,50.38241]]}},{"type":"Feature","properties":{"numer":"1207O","klasa":"droga zbiorcza","kat":"powiatowa"},"geometry":{"type":"LineString","coordinates":[[17.8196,50.38006],[17.81965,50.38045],[17.81302,50.38942],[17.81226,50.39437],[17.81257,50.39581],[17.81354,50.39739]]}},{"type":"Feature","properties":{"numer":"1837O","klasa":"droga zbiorcza","kat":"powiatowa"},"geometry":{"type":"LineString","coordinates":[[17.85912,50.38455],[17.85841,50.3846],[17.85808,50.38477],[17.85674,50.38609],[17.85631,50.38638],[17.85477,50.387],[17.85219,50.3877],[17.85198,50.38795],[17.8525,50.38862],[17.85594,50.39126],[17.85679,50.39212],[17.85912,50.39371],[17.86037,50.39472],[17.86155,50.39542]]}},{"type":"Feature","properties":{"numer":"1269O","klasa":"","kat":"powiatowa"},"geometry":{"type":"LineString","coordinates":[[17.85525,50.39197],[17.85438,50.39237],[17.85369,50.39254]]}},{"type":"Feature","properties":{"numer":"1278O","klasa":"","kat":"powiatowa"},"geometry":{"type":"LineString","coordinates":[[17.85525,50.39197],[17.85747,50.39328],[17.85859,50.39445],[17.85986,50.39542],[17.86009,50.39556],[17.86034,50.39557]]}},{"type":"Feature","properties":{"numer":"1269O","klasa":"","kat":"powiatowa"},"geometry":{"type":"LineString","coordinates":[[17.81676,50.39666],[17.82383,50.39454],[17.8253,50.39505],[17.82769,50.39603],[17.82849,50.39662],[17.82906,50.39755],[17.829099244992296,50.39753848998459]]}},{"type":"Feature","properties":{"numer":"1269O","klasa":"","kat":"powiatowa"},"geometry":{"type":"LineString","coordinates":[[17.831535169077213,50.39682406701976],[17.83189,50.39672],[17.83202,50.39674],[17.83205216533781,50.39678631808645]]}},{"type":"Feature","properties":{"numer":"1269O","klasa":"","kat":"powiatowa"},"geometry":{"type":"LineString","coordinates":[[17.8345183280147,50.39701172227057],[17.83647,50.39719],[17.85369,50.39254]]}},{"type":"Feature","properties":{"numer":"1278O","klasa":"","kat":"powiatowa"},"geometry":{"type":"LineString","coordinates":[[17.86155,50.39542],[17.86067,50.39554]]}},{"type":"Feature","properties":{"numer":"1278O","klasa":"","kat":"powiatowa"},"geometry":{"type":"LineString","coordinates":[[17.86067,50.39554],[17.86034,50.39557]]}},{"type":"Feature","properties":{"numer":"1269O","klasa":"","kat":"powiatowa"},"geometry":{"type":"LineString","coordinates":[[17.81676,50.39666],[17.81405,50.39734]]}},{"type":"Feature","properties":{"numer":"1269O","klasa":"","kat":"powiatowa"},"geometry":{"type":"LineString","coordinates":[[17.81405,50.39734],[17.81354,50.39739]]}},{"type":"Feature","properties":{"numer":"1207O","klasa":"droga zbiorcza","kat":"powiatowa"},"geometry":{"type":"LineString","coordinates":[[17.81354,50.39739],[17.81319,50.39773],[17.81101,50.39848],[17.81024,50.39894]]}},{"type":"Feature","properties":{"numer":"1837O","klasa":"droga zbiorcza","kat":"powiatowa"},"geometry":{"type":"LineString","coordinates":[[17.86155,50.39542],[17.86279,50.39681],[17.86387,50.39784],[17.86412,50.39843],[17.8642,50.39957],[17.86457,50.40087],[17.86555,50.40212],[17.86552,50.40239],[17.86524,50.4029],[17.8651,50.40442],[17.8645,50.40545],[17.86445,50.40584],[17.86456,50.40635],[17.86501,50.40722],[17.86689,50.4085],[17.86697,50.40873]]}},{"type":"Feature","properties":{"numer":"1837O","klasa":"droga zbiorcza","kat":"powiatowa"},"geometry":{"type":"LineString","coordinates":[[17.86697,50.40873],[17.86677,50.40893]]}},{"type":"Feature","properties":{"numer":"1255O","klasa":"","kat":"powiatowa"},"geometry":{"type":"LineString","coordinates":[[17.836820153084513,50.42331297742355],[17.83674,50.42325],[17.83176,50.41296],[17.82795,50.40817],[17.82519,50.40589],[17.82214,50.40213],[17.82006,50.40126],[17.81839,50.40068],[17.81812,50.40051],[17.81694,50.39914],[17.81615,50.3978],[17.81405,50.39734]]}},{"type":"Feature","properties":{"numer":"1837O","klasa":"droga zbiorcza","kat":"powiatowa"},"geometry":{"type":"LineString","coordinates":[[17.86677,50.40893],[17.866677379679142,50.40905445855615]]}},{"type":"Feature","properties":{"numer":"1207O","klasa":"droga zbiorcza","kat":"powiatowa"},"geometry":{"type":"LineString","coordinates":[[17.81024,50.39894],[17.80931,50.39956],[17.80904,50.40014],[17.80912,50.40077],[17.81003,50.40377],[17.81002,50.40409],[17.80975,50.40439],[17.80591,50.40744],[17.8055,50.40803],[17.80541,50.40839],[17.80550689988508,50.408885186912734]]}}]}