{"type":"FeatureCollection","features":[{"type":"Feature","properties":{"numer":"1803O","klasa":"droga zbiorcza","kat":"powiatowa"},"geometry":{"type":"LineString","coordinates":[[18.42627,50.55395],[18.43503,50.55668],[18.44435,50.56022],[18.44526,50.56034],[18.44742,50.56034],[18.45167,50.56073],[18.45464,50.56171],[18.46225,50.56482],[18.46482,50.56532],[18.46756,50.56635],[18.46986,50.56673],[18.47152,50.56692],[18.47203,50.56705],[18.47484,50.56806],[18.476980584182627,50.5686173118582]]}},{"type":"Feature","properties":{"numer":"1802O","klasa":"droga zbiorcza","kat":"powiatowa"},"geometry":{"type":"LineString","coordinates":[[18.406214227459564,50.50047978371941],[18.40537,50.50165],[18.40442,50.50265],[18.40261,50.50424],[18.40149,50.50545],[18.39962,50.50801],[18.3995,50.50829]]}},{"type":"Feature","properties":{"numer":"1802O","klasa":"droga zbiorcza","kat":"powiatowa"},"geometry":{"type":"LineString","coordinates":[[18.3995,50.50829],[18.3997,50.50857],[18.40072,50.50918],[18.40195,50.50953]]}},{"type":"Feature","properties":{"numer":"1802O","klasa":"droga zbiorcza","kat":"powiatowa"},"geometry":{"type":"LineString","coordinates":[[18.40195,50.50953],[18.4021,50.50956]]}},{"type":"Feature","properties":{"numer":"1802O","klasa":"droga zbiorcza","kat":"powiatowa"},"geometry":{"type":"LineString","coordinates":[[18.4021,50.50956],[18.40312,50.50942],[18.40377,50.50995],[18.40476,50.51036],[18.40493,50.51051]]}},{"type":"Feature","properties":{"numer":"1802O","klasa":"droga zbiorcza","kat":"powiatowa"},"geometry":{"type":"LineString","coordinates":[[18.40468,50.51084],[18.40493,50.51051]]}},{"type":"Feature","properties":{"numer":"1841O","klasa":"","kat":"powiatowa"},"geometry":{"type":"LineString","coordinates":[[18.38085,50.54834],[18.38313,50.54749],[18.38473,50.5467],[18.388,50.54528],[18.38833,50.5452],[18.38875,50.54523],[18.39195,50.54603],[18.39682,50.54664],[18.39888,50.54676],[18.39918,50.54685],[18.40465,50.55041],[18.40721,50.5515],[18.40856,50.55188],[18.41,50.5521],[18.41128,50.55221],[18.41538,50.55188],[18.41979,50.55202],[18.42024,50.55209],[18.42627,50.55395]]}},{"type":"Feature","properties":{"numer":"1802O","klasa":"droga zbiorcza","kat":"powiatowa"},"geometry":{"type":"LineString","coordinates":[[18.40468,50.51084],[18.40146,50.51315],[18.3975,50.51828],[18.39444,50.5208],[18.38963,50.52683],[18.38941,50.52753],[18.38955,50.52897],[18.38866,50.53322],[18.38848,50.53346],[18.38799,50.5338],[18.38727,50.53401],[18.38553,50.53477],[18.38345,50.53642],[18.38164,50.53821],[18.3809,50.53939],[18.38128,50.54373],[18.38104,50.5453],[18.38079,50.54545],[18.37969,50.5456],[18.3781,50.5461]]}},{"type":"Feature","properties":{"numer":"426","klasa":"droga gĹ‚Ăłwna","kat":"wojewodzka"},"geometry":{"type":"LineString","coordinates":[[18.35644478919547,50.53872919855897],[18.35858,50.5394]]}},{"type":"Feature","properties":{"numer":"426","klasa":"droga gĹ‚Ăłwna","kat":"wojewodzka"},"geometry":{"type":"LineString","coordinates":[[18.35858,50.5394],[18.36067,50.54008]]}},{"type":"Feature","properties":{"numer":"426","klasa":"droga gĹ‚Ăłwna","kat":"wojewodzka"},"geometry":{"type":"LineString","coordinates":[[18.36067,50.54008],[18.36211,50.54052]]}},{"type":"Feature","properties":{"numer":"426","klasa":"droga gĹ‚Ăłwna","kat":"wojewodzka"},"geometry":{"type":"LineString","coordinates":[[18.36211,50.54052],[18.36312,50.5408]]}},{"type":"Feature","properties":{"numer":"426","klasa":"droga gĹ‚Ăłwna","kat":"wojewodzka"},"geometry":{"type":"LineString","coordinates":[[18.36312,50.5408],[18.37027,50.54298],[18.37586,50.54445],[18.3781,50.5461]]}},{"type":"Feature","properties":{"numer":"426","klasa":"droga gĹ‚Ăłwna","kat":"wojewodzka"},"geometry":{"type":"LineString","coordinates":[[18.3781,50.5461],[18.37889,50.54671]]}},{"type":"Feature","properties":{"numer":"426","klasa":"droga gĹ‚Ăłwna","kat":"wojewodzka"},"geometry":{"type":"LineString","coordinates":[[18.37889,50.54671],[18.37894,50.54675]]}},{"type":"Feature","properties":{"numer":"426","klasa":"droga gĹ‚Ăłwna","kat":"wojewodzka"},"geometry":{"type":"LineString","coordinates":[[18.37894,50.54675],[18.37955,50.54722]]}},{"type":"Feature","properties":{"numer":"426","klasa":"droga gĹ‚Ăłwna","kat":"wojewodzka"},"geometry":{"type":"LineString","coordinates":[[18.37955,50.54722],[18.37961,50.54726]]}},{"type":"Feature","properties":{"numer":"426","klasa":"droga gĹ‚Ăłwna","kat":"wojewodzka"},"geometry":{"type":"LineString","coordinates":[[18.37961,50.54726],[18.38085,50.54834]]}},{"type":"Feature","properties":{"numer":"1840O","klasa":"","kat":"powiatowa"},"geometry":{"type":"LineString","coordinates":[[18.35186,50.56174],[18.35261,50.56113],[18.35405,50.5602],[18.35712,50.55881],[18.35753,50.55854],[18.35797,50.55815],[18.35872,50.55725],[18.35939,50.55601],[18.36014,50.55528],[18.36545,50.5526],[18.36907,50.5505],[18.37087,50.54964],[18.3718,50.54907],[18.37366,50.54758],[18.3781,50.5461]]}},{"type":"Feature","properties":{"numer":"426","klasa":"droga gĹ‚Ăłwna","kat":"wojewodzka"},"geometry":{"type":"LineString","coordinates":[[18.38085,50.54834],[18.38431,50.55268],[18.38489,50.55326],[18.39821,50.56096]]}},{"type":"Feature","properties":{"numer":"1855O","klasa":"","kat":"powiatowa"},"geometry":{"type":"LineString","coordinates":[[18.36556,50.5639],[18.36632,50.56305],[18.37074,50.55733],[18.37192,50.55547],[18.37257,50.55415],[18.37436,50.552],[18.3754,50.55121],[18.37825,50.54972],[18.37953,50.54886],[18.38085,50.54834]]}},{"type":"Feature","properties":{"numer":"1857O","klasa":"","kat":"powiatowa"},"geometry":{"type":"LineString","coordinates":[[18.35109,50.56186],[18.35186,50.56174]]}},{"type":"Feature","properties":{"numer":"1840O","klasa":"","kat":"powiatowa"},"geometry":{"type":"LineString","coordinates":[[18.35135,50.56226],[18.35186,50.56174]]}},{"type":"Feature","properties":{"numer":"1857O","klasa":"","kat":"powiatowa"},"geometry":{"type":"LineString","coordinates":[[18.35135,50.56226],[18.35109,50.56186]]}},{"type":"Feature","properties":{"numer":"1843O","klasa":"","kat":"powiatowa"},"geometry":{"type":"LineString","coordinates":[[18.35218,50.56283],[18.35146,50.56247],[18.35135,50.56226]]}},{"type":"Feature","properties":{"numer":"1843O","klasa":"","kat":"powiatowa"},"geometry":{"type":"LineString","coordinates":[[18.35244,50.56289],[18.35218,50.56283]]}},{"type":"Feature","properties":{"numer":"1857O","klasa":"","kat":"powiatowa"},"geometry":{"type":"LineString","coordinates":[[18.35109,50.56186],[18.34981,50.56213],[18.34793,50.56206],[18.34453,50.56252],[18.34352,50.56274],[18.34167,50.56337],[18.338482652627963,50.56390959030314]]}},{"type":"Feature","properties":{"numer":"1843O","klasa":"","kat":"powiatowa"},"geometry":{"type":"LineString","coordinates":[[18.35244,50.56289],[18.35472,50.56339],[18.3555,50.56341],[18.35625,50.56354],[18.35738,50.56354],[18.35947,50.56341],[18.36388,50.56292],[18.36423,50.56304],[18.36556,50.5639]]}},{"type":"Feature","properties":{"numer":"105567O","klasa":"droga lokalna","kat":"powiatowa"},"geometry":{"type":"LineString","coordinates":[[18.33743,50.56546],[18.33699,50.56494],[18.33665358366844,50.56434286101148]]}},{"type":"Feature","properties":{"numer":"1842O","klasa":"","kat":"powiatowa"},"geometry":{"type":"LineString","coordinates":[[18.37083,50.57108],[18.39821,50.56096]]}},{"type":"Feature","properties":{"numer":"105567O","klasa":"droga lokalna","kat":"powiatowa"},"geometry":{"type":"LineString","coordinates":[[18.3402,50.56928],[18.33993,50.5689],[18.33953,50.56763],[18.33914,50.56687],[18.33743,50.56546]]}},{"type":"Feature","properties":{"numer":"1843O","klasa":"","kat":"powiatowa"},"geometry":{"type":"LineString","coordinates":[[18.36556,50.5639],[18.36639,50.56444],[18.3682,50.56655],[18.36875,50.5675],[18.3695,50.56847],[18.37083,50.57108]]}},{"type":"Feature","properties":{"numer":"105567O","klasa":"droga lokalna","kat":"powiatowa"},"geometry":{"type":"LineString","coordinates":[[18.34082,50.5697],[18.3402,50.56928]]}},{"type":"Feature","properties":{"numer":"105567O","klasa":"droga lokalna","kat":"powiatowa"},"geometry":{"type":"LineString","coordinates":[[18.34093,50.56975],[18.34082,50.5697]]}},{"type":"Feature","properties":{"numer":"105567O","klasa":"droga lokalna","kat":"powiatowa"},"geometry":{"type":"LineString","coordinates":[[18.3417,50.57068],[18.34093,50.56975]]}},{"type":"Feature","properties":{"numer":"105567O","klasa":"droga lokalna","kat":"powiatowa"},"geometry":{"type":"LineString","coordinates":[[18.34181,50.57778],[18.34173,50.57685],[18.34179,50.5761],[18.34289,50.57176],[18.34278,50.57154],[18.3417,50.57068]]}},{"type":"Feature","properties":{"numer":"105567O","klasa":"droga lokalna","kat":"powiatowa"},"geometry":{"type":"LineString","coordinates":[[18.34227,50.57895],[18.34181,50.57778]]}},{"type":"Feature","properties":{"numer":"1842O","klasa":"","kat":"powiatowa"},"geometry":{"type":"LineString","coordinates":[[18.34247,50.58307],[18.34311,50.58376],[18.34407,50.58439],[18.34594,50.58514],[18.34694,50.58521],[18.34861,50.58509],[18.34932,50.58512],[18.34977,50.5852],[18.35203,50.58599],[18.35447,50.58621],[18.35683,50.58634],[18.35915,50.58618],[18.36075,50.58687],[18.36169,50.58789],[18.36298,50.58717],[18.36538,50.58649],[18.36685,50.58548],[18.36724,50.58509],[18.37107,50.58332],[18.37163,50.58218],[18.37203,50.58164],[18.37283,50.58084],[18.37314,50.58023],[18.37387,50.5781],[18.37389,50.57771],[18.37202,50.57336],[18.37083,50.57108]]}},{"type":"Feature","properties":{"numer":"105567O","klasa":"droga lokalna","kat":"powiatowa"},"geometry":{"type":"LineString","coordinates":[[18.34084,50.58115],[18.34156,50.58056],[18.34223,50.57977],[18.34227,50.57895]]}},{"type":"Feature","properties":{"numer":"105567O","klasa":"droga lokalna","kat":"powiatowa"},"geometry":{"type":"LineString","coordinates":[[18.3409,50.5812],[18.34084,50.58115]]}},{"type":"Feature","properties":{"numer":"1842O","klasa":"","kat":"powiatowa"},"geometry":{"type":"LineString","coordinates":[[18.3409,50.5812],[18.34176,50.58243],[18.34242,50.58304]]}},{"type":"Feature","properties":{"numer":"1842O","klasa":"","kat":"powiatowa"},"geometry":{"type":"LineString","coordinates":[[18.34242,50.58304],[18.34247,50.58307]]}},{"type":"Feature","properties":{"numer":"1842O","klasa":"","kat":"powiatowa"},"geometry":{"type":"LineString","coordinates":[[18.31987695464363,50.594040259179266],[18.31991,50.59398],[18.32398,50.59056],[18.32411,50.59034],[18.32397,50.58969],[18.3241,50.58942],[18.32515,50.5888],[18.32914,50.586],[18.3301,50.58547],[18.33099,50.58512],[18.33506,50.58455],[18.33754,50.58311],[18.33939,50.5815],[18.3398,50.58132],[18.34084,50.58115]]}},{"type":"Feature","properties":{"numer":"1812O","klasa":"","kat":"powiatowa"},"geometry":{"type":"LineString","coordinates":[[18.43684,50.55292],[18.43706,50.5524],[18.43835,50.55126],[18.43911,50.55036],[18.43886,50.54904],[18.43960970773005,50.546912704315986]]}},{"type":"Feature","properties":{"numer":"1812O","klasa":"","kat":"powiatowa"},"geometry":{"type":"LineString","coordinates":[[18.42627,50.55395],[18.43684,50.55292]]}},{"type":"Feature","properties":{"numer":"1803O","klasa":"droga zbiorcza","kat":"powiatowa"},"geometry":{"type":"LineString","coordinates":[[18.39821,50.56096],[18.40137,50.55974],[18.40495,50.55801],[18.41431,50.5552],[18.41501,50.55507],[18.42627,50.55395]]}},{"type":"Feature","properties":{"numer":"426","klasa":"droga gĹ‚Ăłwna","kat":"wojewodzka"},"geometry":{"type":"LineString","coordinates":[[18.39821,50.56096],[18.40748,50.56629],[18.40892,50.5672],[18.4427,50.6008]]}},{"type":"Feature","properties":{"numer":"426","klasa":"droga gĹ‚Ăłwna","kat":"wojewodzka"},"geometry":{"type":"LineString","coordinates":[[18.4427,50.6008],[18.44275,50.60084]]}},{"type":"Feature","properties":{"numer":"426","klasa":"droga gĹ‚Ăłwna","kat":"wojewodzka"},"geometry":{"type":"LineString","coordinates":[[18.44275,50.60084],[18.442809984246885,50.60089958301446]]}},{"type":"Feature","properties":{"numer":"1804O","klasa":"","kat":"powiatowa"},"geometry":{"type":"LineString","coordinates":[[18.3159798502994,50.61433238522954],[18.31606,50.61484],[18.31563,50.61632],[18.31532,50.618],[18.315281351888668,50.61809447316104]]}},{"type":"Feature","properties":{"numer":"1804O","klasa":"","kat":"powiatowa"},"geometry":{"type":"LineString","coordinates":[[18.31487139851301,50.62030246765799],[18.314877644787646,50.620316370656376]]}},{"type":"Feature","properties":{"numer":"1804O","klasa":"","kat":"powiatowa"},"geometry":{"type":"LineString","coordinates":[[18.31872568537403,50.62333566357905],[18.32101,50.62401],[18.32203,50.62453],[18.32647,50.62644],[18.326563313453768,50.62649570952464]]}}]}