{"type":"FeatureCollection","features":[{"type":"Feature","properties":{"numer":"897","klasa":"droga zbiorcza","kat":"wojewodzka"},"geometry":{"type":"LineString","coordinates":[[22.68113,49.06558],[22.6812,49.0655]]}},{"type":"Feature","properties":{"numer":"897","klasa":"droga zbiorcza","kat":"wojewodzka"},"geometry":{"type":"LineString","coordinates":[[22.65445,49.08138],[22.65662,49.08046],[22.65904,49.07915],[22.6652,49.07675],[22.66906,49.07584],[22.67368,49.07339],[22.67548,49.07222],[22.67645,49.0713],[22.67804,49.07032],[22.67846,49.06996],[22.67934,49.0685],[22.67987,49.06687],[22.68113,49.06558]]}},{"type":"Feature","properties":{"numer":"897","klasa":"droga zbiorcza","kat":"wojewodzka"},"geometry":{"type":"LineString","coordinates":[[22.65439,49.08141],[22.65445,49.08138]]}},{"type":"Feature","properties":{"numer":"897","klasa":"droga zbiorcza","kat":"wojewodzka"},"geometry":{"type":"LineString","coordinates":[[22.64891,49.09497],[22.64909,49.09472],[22.64864,49.09373],[22.64829,49.09211],[22.64839,49.09162],[22.65012,49.08847],[22.65086,49.08663],[22.65161,49.08427],[22.65371,49.08179],[22.65391,49.08162],[22.65439,49.08141]]}},{"type":"Feature","properties":{"numer":"897","klasa":"droga zbiorcza","kat":"wojewodzka"},"geometry":{"type":"LineString","coordinates":[[22.64874,49.0951],[22.64891,49.09497]]}},{"type":"Feature","properties":{"numer":"897","klasa":"droga zbiorcza","kat":"wojewodzka"},"geometry":{"type":"LineString","coordinates":[[22.64756,49.10478],[22.64834,49.10258],[22.64852,49.09545],[22.64874,49.0951]]}},{"type":"Feature","properties":{"numer":"897","klasa":"droga zbiorcza","kat":"wojewodzka"},"geometry":{"type":"LineString","coordinates":[[22.63646,49.10235],[22.63671,49.10234]]}},{"type":"Feature","properties":{"numer":"897","klasa":"droga zbiorcza","kat":"wojewodzka"},"geometry":{"type":"LineString","coordinates":[[22.63671,49.10234],[22.6384,49.10227],[22.63943,49.10239],[22.64279,49.10323],[22.64756,49.10478]]}},{"type":"Feature","properties":{"numer":"897","klasa":"droga zbiorcza","kat":"wojewodzka"},"geometry":{"type":"LineString","coordinates":[[22.62861,49.10599],[22.62853,49.10549],[22.62876,49.10516],[22.6333,49.10235],[22.63402,49.10218],[22.6356,49.10239],[22.63646,49.10235]]}},{"type":"Feature","properties":{"numer":"896","klasa":"droga zbiorcza","kat":"wojewodzka"},"geometry":{"type":"LineString","coordinates":[[22.64838,49.10504],[22.64756,49.10478]]}},{"type":"Feature","properties":{"numer":"897","klasa":"droga zbiorcza","kat":"wojewodzka"},"geometry":{"type":"LineString","coordinates":[[22.56833,49.14129],[22.56915,49.14023],[22.57207,49.1378],[22.57368,49.13536],[22.57616,49.13245],[22.577,49.13165],[22.58036,49.12997],[22.58482,49.12881],[22.58824,49.12724],[22.59171,49.12531],[22.59463,49.12471],[22.59725,49.12407],[22.59916,49.12283],[22.60129,49.12186],[22.60202,49.12169],[22.60489,49.12138],[22.60653,49.12089],[22.60776,49.12082],[22.60788,49.12062],[22.60771,49.12047],[22.60594,49.12051],[22.60566,49.12039],[22.60568,49.1202],[22.60584,49.1201],[22.60716,49.1198],[22.61014,49.11851],[22.61032,49.11811],[22.60992,49.11617],[22.60997,49.11575],[22.61252,49.11315],[22.613,49.11289],[22.61349,49.11276],[22.61768,49.11215],[22.62047,49.1113],[22.62857,49.10731],[22.62878,49.10709],[22.62887,49.10681],[22.62867,49.10614]]}},{"type":"Feature","properties":{"numer":"897","klasa":"droga zbiorcza","kat":"wojewodzka"},"geometry":{"type":"LineString","coordinates":[[22.56808,49.14143],[22.56833,49.14129]]}},{"type":"Feature","properties":{"numer":"897","klasa":"droga zbiorcza","kat":"wojewodzka"},"geometry":{"type":"LineString","coordinates":[[22.56808,49.14143],[22.56782,49.14152]]}},{"type":"Feature","properties":{"numer":"2306R","klasa":"","kat":"powiatowa"},"geometry":{"type":"LineString","coordinates":[[22.57107,49.14485],[22.5708,49.14423],[22.56889,49.14244],[22.56865,49.14154],[22.56833,49.14129]]}},{"type":"Feature","properties":{"numer":"2306R","klasa":"","kat":"powiatowa"},"geometry":{"type":"LineString","coordinates":[[22.5711,49.14499],[22.57107,49.14485]]}},{"type":"Feature","properties":{"numer":"2306R","klasa":"","kat":"powiatowa"},"geometry":{"type":"LineString","coordinates":[[22.58298,49.16347],[22.58265,49.16323],[22.58213,49.16229],[22.58136,49.16033],[22.58071,49.15751],[22.58034,49.15712],[22.57944,49.15649],[22.57887,49.15638],[22.5774,49.15635],[22.57709,49.15625],[22.57684,49.15604],[22.57675,49.15571],[22.57725,49.15476],[22.57722,49.15442],[22.57592,49.15267],[22.57555,49.15239],[22.57436,49.15178],[22.57387,49.15136],[22.57378,49.1509],[22.57418,49.14925],[22.57412,49.1488],[22.57217,49.14635],[22.57132,49.14544],[22.5711,49.14499]]}},{"type":"Feature","properties":{"numer":"2306R","klasa":"","kat":"powiatowa"},"geometry":{"type":"LineString","coordinates":[[22.58319,49.16358],[22.58298,49.16347]]}},{"type":"Feature","properties":{"numer":"2306R","klasa":"","kat":"powiatowa"},"geometry":{"type":"LineString","coordinates":[[22.59195,49.16871],[22.5892,49.16731],[22.58782,49.16693],[22.5859,49.16603],[22.5854,49.16566],[22.58359,49.16384],[22.58319,49.16358]]}},{"type":"Feature","properties":{"numer":"2306R","klasa":"","kat":"powiatowa"},"geometry":{"type":"LineString","coordinates":[[22.59211,49.1688],[22.59195,49.16871]]}},{"type":"Feature","properties":{"numer":"2306R","klasa":"","kat":"powiatowa"},"geometry":{"type":"LineString","coordinates":[[22.60396,49.18185],[22.60338,49.18013],[22.60237,49.17859],[22.60161,49.17711],[22.60106,49.17645],[22.59981,49.17512],[22.59712,49.17281],[22.59655,49.17187],[22.59563,49.17105],[22.5949,49.17001],[22.59211,49.1688]]}},{"type":"Feature","properties":{"numer":"897","klasa":"droga zbiorcza","kat":"wojewodzka"},"geometry":{"type":"LineString","coordinates":[[22.70536,49.05445],[22.70598,49.05365],[22.70665,49.05164],[22.70689,49.05136],[22.70769,49.05078]]}},{"type":"Feature","properties":{"numer":"897","klasa":"droga zbiorcza","kat":"wojewodzka"},"geometry":{"type":"LineString","coordinates":[[22.70509,49.05473],[22.70536,49.05445]]}},{"type":"Feature","properties":{"numer":"897","klasa":"droga zbiorcza","kat":"wojewodzka"},"geometry":{"type":"LineString","coordinates":[[22.70413,49.05563],[22.70509,49.05473]]}},{"type":"Feature","properties":{"numer":"897","klasa":"droga zbiorcza","kat":"wojewodzka"},"geometry":{"type":"LineString","coordinates":[[22.6812,49.0655],[22.6821,49.06477],[22.68551,49.06253],[22.68837,49.06107],[22.69125,49.05986],[22.69515,49.05942],[22.69741,49.05875],[22.70159,49.05663],[22.70413,49.05563]]}},{"type":"Feature","properties":{"numer":"896","klasa":"droga zbiorcza","kat":"wojewodzka"},"geometry":{"type":"LineString","coordinates":[[22.70174,49.23214],[22.70202,49.22985],[22.70196,49.22956],[22.70163,49.22928],[22.69816,49.22744],[22.69513,49.22424],[22.69456,49.22345],[22.69387,49.22193],[22.69373,49.221],[22.69381,49.22026],[22.69343,49.21942],[22.69301,49.21801],[22.69187,49.21648],[22.6899,49.2143],[22.68785,49.21264],[22.68705,49.21224],[22.68641,49.21209],[22.68209,49.21147],[22.6803,49.21086],[22.68004,49.21071]]}},{"type":"Feature","properties":{"numer":"896","klasa":"droga zbiorcza","kat":"wojewodzka"},"geometry":{"type":"LineString","coordinates":[[22.7017,49.23226],[22.70174,49.23214]]}},{"type":"Feature","properties":{"numer":"896","klasa":"droga zbiorcza","kat":"wojewodzka"},"geometry":{"type":"LineString","coordinates":[[22.7017,49.23226],[22.7007,49.23421],[22.69842,49.23797]]}},{"type":"Feature","properties":{"numer":"896","klasa":"droga zbiorcza","kat":"wojewodzka"},"geometry":{"type":"LineString","coordinates":[[22.69842,49.23797],[22.69833,49.23813]]}},{"type":"Feature","properties":{"numer":"896","klasa":"droga zbiorcza","kat":"wojewodzka"},"geometry":{"type":"LineString","coordinates":[[22.6982,49.24229],[22.69985,49.24083],[22.70013,49.24031],[22.70007,49.23999],[22.69982,49.23966],[22.69839,49.23868],[22.69825,49.23837],[22.69833,49.23813]]}},{"type":"Feature","properties":{"numer":"896","klasa":"droga zbiorcza","kat":"wojewodzka"},"geometry":{"type":"LineString","coordinates":[[22.69812,49.24236],[22.6982,49.24229]]}},{"type":"Feature","properties":{"numer":"896","klasa":"droga zbiorcza","kat":"wojewodzka"},"geometry":{"type":"LineString","coordinates":[[22.64885,49.10519],[22.64838,49.10504]]}},{"type":"Feature","properties":{"numer":"897","klasa":"droga zbiorcza","kat":"wojewodzka"},"geometry":{"type":"LineString","coordinates":[[22.62861,49.10599],[22.62867,49.10614]]}},{"type":"Feature","properties":{"numer":"896","klasa":"droga zbiorcza","kat":"wojewodzka"},"geometry":{"type":"LineString","coordinates":[[22.66149,49.11252],[22.66075,49.11149],[22.6603,49.11123],[22.65818,49.1104],[22.65742,49.10951],[22.65714,49.10933],[22.65278,49.10821],[22.65205,49.10795],[22.6507,49.1073],[22.65022,49.10685],[22.64956,49.10555],[22.64927,49.10534],[22.64885,49.10519]]}},{"type":"Feature","properties":{"numer":"896","klasa":"droga zbiorcza","kat":"wojewodzka"},"geometry":{"type":"LineString","coordinates":[[22.66149,49.11252],[22.66171,49.11287]]}},{"type":"Feature","properties":{"numer":"896","klasa":"droga zbiorcza","kat":"wojewodzka"},"geometry":{"type":"LineString","coordinates":[[22.66848,49.14425],[22.66807,49.14366],[22.66801,49.14308],[22.66823,49.1426],[22.66911,49.14158],[22.66919,49.14132],[22.66905,49.14101],[22.66841,49.14046],[22.6682,49.14013],[22.66811,49.13912],[22.66778,49.13754],[22.66795,49.13705],[22.66889,49.13593],[22.66914,49.13546],[22.66945,49.13259],[22.6691,49.13166],[22.66739,49.12978],[22.6672,49.12913],[22.66745,49.1286],[22.66939,49.12708],[22.66967,49.12654],[22.66967,49.12594],[22.66948,49.12553],[22.66733,49.1225],[22.66685,49.12135],[22.66483,49.11966],[22.66314,49.11732],[22.66303,49.11697],[22.66329,49.11573],[22.66325,49.11534],[22.66171,49.11287]]}},{"type":"Feature","properties":{"numer":"896","klasa":"droga zbiorcza","kat":"wojewodzka"},"geometry":{"type":"LineString","coordinates":[[22.6687,49.14449],[22.66848,49.14425]]}},{"type":"Feature","properties":{"numer":"896","klasa":"droga zbiorcza","kat":"wojewodzka"},"geometry":{"type":"LineString","coordinates":[[22.67488,49.1464],[22.6742,49.14607],[22.67358,49.14593],[22.67302,49.14594],[22.67119,49.14622],[22.67055,49.14616],[22.66992,49.14581],[22.6687,49.14449]]}},{"type":"Feature","properties":{"numer":"896","klasa":"droga zbiorcza","kat":"wojewodzka"},"geometry":{"type":"LineString","coordinates":[[22.67547,49.1466],[22.67488,49.1464]]}},{"type":"Feature","properties":{"numer":"896","klasa":"droga zbiorcza","kat":"wojewodzka"},"geometry":{"type":"LineString","coordinates":[[22.67498,49.20006],[22.67491,49.19959],[22.67499,49.19918],[22.67527,49.19873],[22.67557,49.19847],[22.68198,49.19546],[22.68246,49.19507],[22.68326,49.19418],[22.68375,49.19174],[22.68284,49.18913],[22.6832,49.18736],[22.68223,49.18451],[22.68193,49.18274],[22.68186,49.18157],[22.6821,49.1789],[22.6823,49.17844],[22.68286,49.17782],[22.68522,49.17602],[22.68588,49.17536],[22.68659,49.17236],[22.68673,49.17211],[22.6902,49.16899],[22.69189,49.1634],[22.69183,49.16305],[22.69159,49.16269],[22.68903,49.16094],[22.68811,49.15977],[22.68688,49.15771],[22.6861,49.15344],[22.68357,49.15081],[22.68272,49.1495],[22.6822,49.1489],[22.68068,49.14748],[22.68006,49.14716],[22.67781,49.14655],[22.67728,49.14653],[22.67606,49.14666],[22.67547,49.1466]]}},{"type":"Feature","properties":{"numer":"896","klasa":"droga zbiorcza","kat":"wojewodzka"},"geometry":{"type":"LineString","coordinates":[[22.67514,49.20072],[22.67498,49.20006]]}},{"type":"Feature","properties":{"numer":"2306R","klasa":"","kat":"powiatowa"},"geometry":{"type":"LineString","coordinates":[[22.60404,49.18215],[22.60396,49.18185]]}},{"type":"Feature","properties":{"numer":"2306R","klasa":"","kat":"powiatowa"},"geometry":{"type":"LineString","coordinates":[[22.60957,49.18561],[22.60887,49.18531],[22.60689,49.18505],[22.60487,49.18412],[22.60425,49.18354],[22.60418,49.18262],[22.60404,49.18215]]}},{"type":"Feature","properties":{"numer":"2306R","klasa":"","kat":"powiatowa"},"geometry":{"type":"LineString","coordinates":[[22.60988,49.18584],[22.60957,49.18561]]}},{"type":"Feature","properties":{"numer":"2306R","klasa":"","kat":"powiatowa"},"geometry":{"type":"LineString","coordinates":[[22.60986,49.19055],[22.60977,49.19011],[22.61042,49.18901],[22.6108,49.18812],[22.61085,49.18773],[22.61069,49.18669],[22.6104,49.18629],[22.60988,49.18584]]}},{"type":"Feature","properties":{"numer":"2306R","klasa":"","kat":"powiatowa"},"geometry":{"type":"LineString","coordinates":[[22.61006,49.19072],[22.60986,49.19055]]}},{"type":"Feature","properties":{"numer":"2306R","klasa":"","kat":"powiatowa"},"geometry":{"type":"LineString","coordinates":[[22.61212,49.19178],[22.61138,49.19158],[22.61006,49.19072]]}},{"type":"Feature","properties":{"numer":"2306R","klasa":"","kat":"powiatowa"},"geometry":{"type":"LineString","coordinates":[[22.61232,49.1918],[22.61212,49.19178]]}},{"type":"Feature","properties":{"numer":"2306R","klasa":"","kat":"powiatowa"},"geometry":{"type":"LineString","coordinates":[[22.63235,49.21839],[22.63109,49.21727],[22.62981,49.21529],[22.62856,49.21439],[22.62824,49.21402],[22.62692,49.2105],[22.62665,49.20877],[22.62351,49.20434],[22.62332,49.20298],[22.6225,49.20165],[22.6225,49.1996],[22.62161,49.19855],[22.6214,49.19723],[22.62055,49.19654],[22.62021,49.1961],[22.61997,49.19435],[22.61963,49.19417],[22.6141,49.19239],[22.61313,49.19196],[22.61232,49.1918]]}},{"type":"Feature","properties":{"numer":"2305R","klasa":"","kat":"powiatowa"},"geometry":{"type":"LineString","coordinates":[[22.63438,49.21929],[22.63413,49.22009],[22.6345,49.22057],[22.63452,49.22091],[22.63359,49.22239],[22.63327,49.22271],[22.63288,49.22293],[22.63031,49.22386],[22.62956,49.22389],[22.62822,49.22374],[22.62658,49.2239],[22.62562,49.22386],[22.6221,49.22477],[22.62093,49.22493],[22.62021,49.22487],[22.61636,49.22414],[22.61399,49.22359],[22.61359,49.22356],[22.61227,49.22369],[22.6115,49.22359],[22.61068,49.22322],[22.60914,49.22164],[22.60831,49.22125],[22.6077,49.22108],[22.60554,49.22083],[22.60351,49.22072],[22.60113,49.22083],[22.60065,49.2207],[22.59906,49.21999],[22.59865,49.21991],[22.59832,49.21994],[22.5978,49.22026],[22.59712,49.2212],[22.59698,49.22177],[22.59697,49.22374],[22.59655,49.22448],[22.596,49.22484],[22.59342,49.22581],[22.59113,49.22637],[22.58901,49.22677],[22.58507,49.22731],[22.58453,49.22761],[22.58327,49.22907],[22.58251,49.22966],[22.58132,49.23032],[22.57976,49.23089],[22.57865,49.23153],[22.57654,49.23197],[22.57299,49.23339],[22.57069,49.23412],[22.56718,49.23438],[22.56468,49.23538]]}},{"type":"Feature","properties":{"numer":"2305R","klasa":"","kat":"powiatowa"},"geometry":{"type":"LineString","coordinates":[[22.56289,49.23477],[22.56354,49.23516]]}},{"type":"Feature","properties":{"numer":"896","klasa":"droga zbiorcza","kat":"wojewodzka"},"geometry":{"type":"LineString","coordinates":[[22.67976,49.21038],[22.67636,49.20549],[22.67606,49.20464],[22.67514,49.20072]]}},{"type":"Feature","properties":{"numer":"896","klasa":"droga zbiorcza","kat":"wojewodzka"},"geometry":{"type":"LineString","coordinates":[[22.67981,49.21046],[22.67976,49.21038]]}},{"type":"Feature","properties":{"numer":"2305R","klasa":"","kat":"powiatowa"},"geometry":{"type":"LineString","coordinates":[[22.64802,49.21237],[22.64857,49.21176],[22.64929,49.20998],[22.6499,49.20913],[22.65063,49.20834],[22.65114,49.20797],[22.6522,49.20742],[22.65341,49.20702],[22.65423,49.20691],[22.65513,49.207],[22.65682,49.20752],[22.65795,49.2084],[22.65924,49.20897],[22.6618,49.21036],[22.66219,49.21063],[22.66345,49.21243],[22.66404,49.21293],[22.66636,49.21403],[22.66697,49.21419],[22.66756,49.2142],[22.66818,49.21405],[22.67159,49.21264],[22.67217,49.21235],[22.67403,49.21113],[22.67494,49.21076],[22.67839,49.21046],[22.67972,49.21072],[22.68004,49.21071]]}},{"type":"Feature","properties":{"numer":"896","klasa":"droga zbiorcza","kat":"wojewodzka"},"geometry":{"type":"LineString","coordinates":[[22.68004,49.21071],[22.67981,49.21046]]}},{"type":"Feature","properties":{"numer":"2305R","klasa":"","kat":"powiatowa"},"geometry":{"type":"LineString","coordinates":[[22.64791,49.21247],[22.64802,49.21237]]}},{"type":"Feature","properties":{"numer":"2305R","klasa":"","kat":"powiatowa"},"geometry":{"type":"LineString","coordinates":[[22.6346,49.21881],[22.6369,49.21844],[22.63898,49.21863],[22.63966,49.21851],[22.64101,49.21749],[22.64338,49.21505],[22.64531,49.21367],[22.64707,49.21292],[22.64791,49.21247]]}},{"type":"Feature","properties":{"numer":"2306R","klasa":"","kat":"powiatowa"},"geometry":{"type":"LineString","coordinates":[[22.63235,49.21839],[22.63285,49.21869]]}},{"type":"Feature","properties":{"numer":"2306R","klasa":"","kat":"powiatowa"},"geometry":{"type":"LineString","coordinates":[[22.6346,49.21881],[22.63354,49.21892],[22.63321,49.21887],[22.63285,49.21869]]}},{"type":"Feature","properties":{"numer":"2305R","klasa":"","kat":"powiatowa"},"geometry":{"type":"LineString","coordinates":[[22.63439,49.21926],[22.6346,49.21881]]}},{"type":"Feature","properties":{"numer":"2305R","klasa":"","kat":"powiatowa"},"geometry":{"type":"LineString","coordinates":[[22.63438,49.21929],[22.63439,49.21926]]}},{"type":"Feature","properties":{"numer":"2304R","klasa":"","kat":"powiatowa"},"geometry":{"type":"LineString","coordinates":[[22.6153752128489,49.282023248869486],[22.61537,49.28176],[22.61504,49.28061],[22.61509,49.28027],[22.6154,49.28004],[22.61647,49.27979],[22.6169,49.27961],[22.616936954314717,49.27957997461929]]}},{"type":"Feature","properties":{"numer":"2304R","klasa":"","kat":"powiatowa"},"geometry":{"type":"LineString","coordinates":[[22.6178852173913,49.2787795652174],[22.61812,49.27831],[22.619,49.2751],[22.61918,49.27486],[22.61947,49.2747],[22.6199,49.27464],[22.62174,49.27481],[22.62234,49.27476],[22.62271,49.27462],[22.62425,49.27369],[22.62472,49.27353],[22.62513,49.27351],[22.6257,49.27366],[22.62823,49.27514],[22.62928,49.27549],[22.63027,49.27557],[22.63063,49.27548],[22.63155,49.275],[22.63384,49.27432],[22.63608,49.27378],[22.63802,49.27313],[22.63891,49.27262],[22.6394,49.27209],[22.63959,49.27202],[22.64116,49.27178],[22.64263,49.27214],[22.64292,49.27214],[22.64612,49.2711],[22.64675,49.27096],[22.64795,49.27089],[22.65084,49.27127],[22.65353,49.27044],[22.66028,49.26947],[22.66198,49.26907],[22.66803,49.26891],[22.66891,49.26911],[22.66976,49.26954],[22.67044,49.26977],[22.67125,49.2698],[22.67228,49.26967],[22.67314,49.26923],[22.67641,49.26625],[22.67696,49.26549],[22.67725,49.26436],[22.67746,49.26397],[22.67793,49.26345],[22.67892,49.26278],[22.67981,49.26236],[22.68304,49.26131]]}},{"type":"Feature","properties":{"numer":"896","klasa":"droga zbiorcza","kat":"wojewodzka"},"geometry":{"type":"LineString","coordinates":[[22.668888305400372,49.29613687150838],[22.66889,49.29611],[22.66921,49.29536],[22.669418984771575,49.29512375634518]]}},{"type":"Feature","properties":{"numer":"896","klasa":"droga zbiorcza","kat":"wojewodzka"},"geometry":{"type":"LineString","coordinates":[[22.68413544631306,49.27816851875809],[22.6846,49.27738],[22.684897943148833,49.277087731958765]]}},{"type":"Feature","properties":{"numer":"896","klasa":"droga zbiorcza","kat":"wojewodzka"},"geometry":{"type":"LineString","coordinates":[[22.685296760381817,49.266107891409106],[22.68531,49.26581],[22.68566,49.26498],[22.68562,49.26458],[22.68541,49.26428],[22.68333,49.26262],[22.68311,49.26217],[22.68304,49.26131]]}},{"type":"Feature","properties":{"numer":"896","klasa":"droga zbiorcza","kat":"wojewodzka"},"geometry":{"type":"LineString","coordinates":[[22.6935,49.24626],[22.69331,49.24479],[22.69349,49.24437],[22.69378,49.24407],[22.69534,49.24293],[22.69578,49.2428],[22.69765,49.24256],[22.69812,49.24236]]}},{"type":"Feature","properties":{"numer":"896","klasa":"droga zbiorcza","kat":"wojewodzka"},"geometry":{"type":"LineString","coordinates":[[22.69352,49.24635],[22.6935,49.24626]]}},{"type":"Feature","properties":{"numer":"896","klasa":"droga zbiorcza","kat":"wojewodzka"},"geometry":{"type":"LineString","coordinates":[[22.68304,49.26131],[22.68309,49.26063],[22.68326,49.26014],[22.68397,49.2595],[22.68447,49.25864],[22.68535,49.25788],[22.69027,49.25438],[22.69562,49.25103],[22.69591,49.25077],[22.69607,49.25039],[22.69592,49.24997],[22.69481,49.24835],[22.6938,49.24744],[22.69352,49.24635]]}},{"type":"Feature","properties":{"numer":"897","klasa":"droga zbiorcza","kat":"wojewodzka"},"geometry":{"type":"LineString","coordinates":[[22.547735333333335,49.141125333333335],[22.54819,49.14158],[22.5503,49.14241],[22.5512,49.14289],[22.55142,49.14292],[22.5516,49.14274],[22.55071,49.14158],[22.55066,49.14134],[22.55085,49.14118],[22.55256,49.14039],[22.55296,49.14009],[22.55365,49.13902],[22.55366,49.13878],[22.55342,49.13836],[22.55353,49.13822],[22.5537,49.13818],[22.55405,49.13833],[22.55481,49.13889],[22.55503,49.1398],[22.55519,49.13993],[22.55539,49.13992],[22.55553,49.13981],[22.55564,49.13868],[22.55582,49.13858],[22.55605,49.13857],[22.55717,49.13909],[22.55915,49.13963],[22.56066,49.1403],[22.56107,49.14056],[22.56204,49.14143],[22.56259,49.14167],[22.56506,49.14199],[22.56782,49.14152]]}},{"type":"Feature","properties":{"numer":"2305R","klasa":"","kat":"powiatowa"},"geometry":{"type":"LineString","coordinates":[[22.54788,49.22093],[22.54926,49.2221],[22.5505,49.22292],[22.55091,49.22333],[22.55277,49.22689],[22.55375,49.22825]]}},{"type":"Feature","properties":{"numer":"2305R","klasa":"","kat":"powiatowa"},"geometry":{"type":"LineString","coordinates":[[22.5539,49.22845],[22.55375,49.22825]]}},{"type":"Feature","properties":{"numer":"2305R","klasa":"","kat":"powiatowa"},"geometry":{"type":"LineString","coordinates":[[22.56289,49.23477],[22.56265,49.23465],[22.56242,49.23466],[22.56052,49.23525],[22.55995,49.23522],[22.55953,49.23508],[22.55913,49.23461],[22.55819,49.23207],[22.55638,49.23035],[22.55458,49.22927],[22.5539,49.22845]]}},{"type":"Feature","properties":{"numer":"2284R","klasa":"","kat":"powiatowa"},"geometry":{"type":"LineString","coordinates":[[22.50497928010261,49.26645342312009],[22.50526,49.26635],[22.50632,49.26616],[22.50713,49.26606],[22.50779,49.26613],[22.50965,49.26698],[22.51024,49.26741],[22.51055,49.26739],[22.51068,49.2665],[22.51084,49.26625],[22.51108,49.2662],[22.51193,49.26636],[22.51237,49.26616],[22.5125,49.26555],[22.51308,49.26509],[22.51336,49.26457],[22.51348,49.26398],[22.51422,49.26323],[22.51467,49.26189],[22.51604,49.26045],[22.51684,49.26011],[22.51777,49.26017],[22.51828,49.26039],[22.51938,49.2612],[22.51961,49.26123],[22.5198,49.26105],[22.51985,49.26015],[22.52178,49.2594],[22.52229,49.25888],[22.52311,49.25841],[22.52327,49.25793],[22.52346,49.25475],[22.52371,49.25436],[22.52411,49.25411],[22.52479,49.25389],[22.52527,49.25384],[22.52663,49.2542],[22.52712,49.25452],[22.52763,49.25552],[22.52824,49.25604],[22.52902,49.25636],[22.52944,49.25646],[22.53045,49.25654],[22.53101,49.25651],[22.53254,49.25617],[22.53449,49.25559],[22.53499,49.25535],[22.53593,49.25472],[22.5362,49.25442],[22.53676,49.25338],[22.5389,49.25074],[22.53943,49.25036],[22.5402,49.25025],[22.54224,49.25031],[22.54364,49.2509],[22.54453,49.2511],[22.54723,49.25102],[22.54779,49.25092],[22.54824,49.2507],[22.54889,49.25002],[22.54899,49.24944],[22.54925,49.2492],[22.54974,49.24913],[22.55057,49.24939],[22.55104,49.24945],[22.55149,49.2494],[22.55192,49.24924],[22.55233,49.24894],[22.55283,49.24827],[22.55352,49.24768],[22.5539,49.24656],[22.55516,49.24562],[22.55552,49.24476],[22.55551,49.24457],[22.55534,49.24444],[22.55446,49.24447],[22.55384,49.2444],[22.55361,49.24427],[22.55362,49.2441],[22.55379,49.24399],[22.55529,49.24361],[22.55729,49.24206],[22.55826,49.24075],[22.55981,49.23947],[22.56076,49.23765],[22.56095,49.23753],[22.56158,49.23735],[22.56145,49.23677],[22.56168,49.23649],[22.56235,49.23614],[22.56321,49.23601],[22.56453,49.23563],[22.56468,49.23556],[22.56468,49.23538]]}},{"type":"Feature","properties":{"numer":"2305R","klasa":"","kat":"powiatowa"},"geometry":{"type":"LineString","coordinates":[[22.56468,49.23538],[22.5641,49.23541],[22.56354,49.23516]]}}]}