{"type":"FeatureCollection","features":[{"type":"Feature","properties":{"numer":"1840R","klasa":"droga zbiorcza","kat":"powiatowa"},"geometry":{"type":"LineString","coordinates":[[21.48753,49.80329],[21.49014,49.80146],[21.49215,49.80033],[21.49178,49.79556],[21.49111,49.79422],[21.49127,49.79392],[21.492,49.79358],[21.49218,49.7934],[21.49248,49.7926],[21.49258,49.79196],[21.49253,49.79095],[21.49201,49.78917],[21.491,49.78819],[21.48982,49.78762],[21.48979,49.78702],[21.48918,49.7861],[21.48909,49.78577],[21.4895,49.78504],[21.49,49.78471],[21.49019,49.78449],[21.49035,49.78401],[21.49037,49.78336],[21.49102,49.78291],[21.4917,49.78269],[21.49451,49.78204],[21.49569,49.78196],[21.49704,49.78154],[21.49761,49.78119],[21.49715,49.78087],[21.49654,49.78067],[21.49587,49.78031],[21.49535,49.77956],[21.495433871022772,49.77913465409878]]}},{"type":"Feature","properties":{"numer":"1840R","klasa":"droga zbiorcza","kat":"powiatowa"},"geometry":{"type":"LineString","coordinates":[[21.495489335038364,49.77753338235294],[21.49548536089699,49.777516243868256]]}},{"type":"Feature","properties":{"numer":"1837R","klasa":"droga zbiorcza","kat":"powiatowa"},"geometry":{"type":"LineString","coordinates":[[21.54146,49.80262],[21.53943,49.80244],[21.53465,49.80233],[21.53192,49.80202],[21.53076,49.80196],[21.52997,49.80179],[21.52855,49.80128],[21.5271,49.80095],[21.52651,49.80089],[21.52534,49.80092],[21.5236,49.80066],[21.52269,49.80075],[21.52108,49.80135],[21.51859,49.80193],[21.51613,49.80268],[21.51529,49.80277],[21.51165,49.8027]]}},{"type":"Feature","properties":{"numer":"988","klasa":"droga gĹ‚Ăłwna","kat":"wojewodzka"},"geometry":{"type":"LineString","coordinates":[[21.556293999999998,49.78411199999999],[21.55606,49.78377],[21.556001304347824,49.783442981366456]]}},{"type":"Feature","properties":{"numer":"1841R","klasa":"droga zbiorcza","kat":"powiatowa"},"geometry":{"type":"LineString","coordinates":[[21.54207,49.80146],[21.54275,49.8001],[21.54644,49.7966],[21.54671,49.79616],[21.54659,49.79561],[21.54413,49.79028],[21.54382,49.78545],[21.545170834621327,49.781754613334755]]}},{"type":"Feature","properties":{"numer":"1841R","klasa":"droga zbiorcza","kat":"powiatowa"},"geometry":{"type":"LineString","coordinates":[[21.54205,49.80151],[21.54207,49.80146]]}},{"type":"Feature","properties":{"numer":"1841R","klasa":"droga zbiorcza","kat":"powiatowa"},"geometry":{"type":"LineString","coordinates":[[21.54146,49.80262],[21.54205,49.80151]]}},{"type":"Feature","properties":{"numer":"1837R","klasa":"droga zbiorcza","kat":"powiatowa"},"geometry":{"type":"LineString","coordinates":[[21.54117,49.80358],[21.54146,49.80262]]}},{"type":"Feature","properties":{"numer":"1837R","klasa":"droga zbiorcza","kat":"powiatowa"},"geometry":{"type":"LineString","coordinates":[[21.5412,49.80367],[21.54117,49.80358]]}},{"type":"Feature","properties":{"numer":"1837R","klasa":"droga zbiorcza","kat":"powiatowa"},"geometry":{"type":"LineString","coordinates":[[21.542,49.80438],[21.54156,49.80407],[21.5412,49.80367]]}},{"type":"Feature","properties":{"numer":"1837R","klasa":"droga zbiorcza","kat":"powiatowa"},"geometry":{"type":"LineString","coordinates":[[21.557397843843027,49.80474653948674],[21.55728,49.80473],[21.55587,49.80417],[21.55533,49.8041],[21.55339,49.8045],[21.5518,49.80497],[21.55067,49.80512],[21.54945,49.80498],[21.54653,49.8041],[21.5461,49.80403],[21.54543,49.8041],[21.54345,49.80457],[21.54272,49.80453],[21.542,49.80438]]}},{"type":"Feature","properties":{"numer":"1839R","klasa":"","kat":"powiatowa"},"geometry":{"type":"LineString","coordinates":[[21.542,49.80438],[21.54173,49.80479],[21.5414,49.80502],[21.53673,49.80483],[21.53643,49.80491],[21.53618,49.80518],[21.53553,49.80552]]}},{"type":"Feature","properties":{"numer":"113410R","klasa":"droga lokalna","kat":"powiatowa"},"geometry":{"type":"LineString","coordinates":[[21.53303,49.80522],[21.53183,49.80513],[21.53145,49.80533]]}},{"type":"Feature","properties":{"numer":"113410R","klasa":"droga lokalna","kat":"powiatowa"},"geometry":{"type":"LineString","coordinates":[[21.53417,49.80535],[21.53303,49.80522]]}},{"type":"Feature","properties":{"numer":"113410R","klasa":"droga lokalna","kat":"powiatowa"},"geometry":{"type":"LineString","coordinates":[[21.53417,49.80535],[21.53428,49.80537]]}},{"type":"Feature","properties":{"numer":"113410R","klasa":"droga lokalna","kat":"powiatowa"},"geometry":{"type":"LineString","coordinates":[[21.53145,49.80533],[21.53116,49.8055]]}},{"type":"Feature","properties":{"numer":"113410R","klasa":"droga lokalna","kat":"powiatowa"},"geometry":{"type":"LineString","coordinates":[[21.53428,49.80537],[21.53507,49.80553],[21.53553,49.80552]]}},{"type":"Feature","properties":{"numer":"1837R","klasa":"droga zbiorcza","kat":"powiatowa"},"geometry":{"type":"LineString","coordinates":[[21.51165,49.8027],[21.50799,49.80272],[21.50218,49.80337],[21.49524,49.80306],[21.49073,49.80269],[21.48753,49.80329]]}},{"type":"Feature","properties":{"numer":"1837R","klasa":"droga zbiorcza","kat":"powiatowa"},"geometry":{"type":"LineString","coordinates":[[21.48753,49.80329],[21.48483,49.80383]]}},{"type":"Feature","properties":{"numer":"1837R","klasa":"droga zbiorcza","kat":"powiatowa"},"geometry":{"type":"LineString","coordinates":[[21.47498,49.8037],[21.48326,49.80387]]}},{"type":"Feature","properties":{"numer":"1837R","klasa":"droga zbiorcza","kat":"powiatowa"},"geometry":{"type":"LineString","coordinates":[[21.48478,49.80384],[21.48483,49.80383]]}},{"type":"Feature","properties":{"numer":"1837R","klasa":"droga zbiorcza","kat":"powiatowa"},"geometry":{"type":"LineString","coordinates":[[21.48332,49.80387],[21.48478,49.80384]]}},{"type":"Feature","properties":{"numer":"1837R","klasa":"droga zbiorcza","kat":"powiatowa"},"geometry":{"type":"LineString","coordinates":[[21.48326,49.80387],[21.48332,49.80387]]}},{"type":"Feature","properties":{"numer":"113409R","klasa":"droga lokalna","kat":"powiatowa"},"geometry":{"type":"LineString","coordinates":[[21.51165,49.8027],[21.51174,49.80491],[21.51184,49.80516]]}},{"type":"Feature","properties":{"numer":"113409R","klasa":"droga lokalna","kat":"powiatowa"},"geometry":{"type":"LineString","coordinates":[[21.51184,49.80516],[21.51201,49.80531]]}},{"type":"Feature","properties":{"numer":"113409R","klasa":"droga lokalna","kat":"powiatowa"},"geometry":{"type":"LineString","coordinates":[[21.51201,49.80531],[21.51216,49.80545]]}},{"type":"Feature","properties":{"numer":"113409R","klasa":"droga lokalna","kat":"powiatowa"},"geometry":{"type":"LineString","coordinates":[[21.51216,49.80545],[21.51253,49.80586],[21.51267,49.8062]]}},{"type":"Feature","properties":{"numer":"113409R","klasa":"droga lokalna","kat":"powiatowa"},"geometry":{"type":"LineString","coordinates":[[21.51267,49.8062],[21.51267,49.80633]]}},{"type":"Feature","properties":{"numer":"113409R","klasa":"droga lokalna","kat":"powiatowa"},"geometry":{"type":"LineString","coordinates":[[21.51267,49.80633],[21.51265,49.80649]]}},{"type":"Feature","properties":{"numer":"113409R","klasa":"droga lokalna","kat":"powiatowa"},"geometry":{"type":"LineString","coordinates":[[21.51265,49.80649],[21.51276,49.80682]]}},{"type":"Feature","properties":{"numer":"113409R","klasa":"droga lokalna","kat":"powiatowa"},"geometry":{"type":"LineString","coordinates":[[21.51276,49.80682],[21.51351,49.80705]]}},{"type":"Feature","properties":{"numer":"113409R","klasa":"droga lokalna","kat":"powiatowa"},"geometry":{"type":"LineString","coordinates":[[21.51351,49.80705],[21.51466,49.8071],[21.51489,49.80718],[21.5152,49.80802],[21.51614,49.80891]]}},{"type":"Feature","properties":{"numer":"113409R","klasa":"droga lokalna","kat":"powiatowa"},"geometry":{"type":"LineString","coordinates":[[21.51614,49.80891],[21.51617,49.80893]]}},{"type":"Feature","properties":{"numer":"113409R","klasa":"droga lokalna","kat":"powiatowa"},"geometry":{"type":"LineString","coordinates":[[21.51617,49.80893],[21.51668,49.80923],[21.5173,49.8094],[21.51906,49.80924],[21.5196,49.80932],[21.51966,49.80945],[21.51946,49.81047],[21.5196,49.81131]]}},{"type":"Feature","properties":{"numer":"113409R","klasa":"droga lokalna","kat":"powiatowa"},"geometry":{"type":"LineString","coordinates":[[21.5196,49.81131],[21.51962,49.81138]]}},{"type":"Feature","properties":{"numer":"113409R","klasa":"droga lokalna","kat":"powiatowa"},"geometry":{"type":"LineString","coordinates":[[21.51962,49.81138],[21.51976,49.81237]]}},{"type":"Feature","properties":{"numer":"113409R","klasa":"droga lokalna","kat":"powiatowa"},"geometry":{"type":"LineString","coordinates":[[21.51976,49.81237],[21.51972,49.81269]]}},{"type":"Feature","properties":{"numer":"113410R","klasa":"droga lokalna","kat":"powiatowa"},"geometry":{"type":"LineString","coordinates":[[21.53116,49.8055],[21.53115,49.8082]]}},{"type":"Feature","properties":{"numer":"113410R","klasa":"droga lokalna","kat":"powiatowa"},"geometry":{"type":"LineString","coordinates":[[21.53115,49.8082],[21.53113,49.80901]]}},{"type":"Feature","properties":{"numer":"113410R","klasa":"droga lokalna","kat":"powiatowa"},"geometry":{"type":"LineString","coordinates":[[21.53113,49.80901],[21.53115,49.80999]]}},{"type":"Feature","properties":{"numer":"113410R","klasa":"droga lokalna","kat":"powiatowa"},"geometry":{"type":"LineString","coordinates":[[21.53115,49.80999],[21.53116,49.81091],[21.52955,49.81151],[21.5294,49.81164],[21.5294,49.81178]]}},{"type":"Feature","properties":{"numer":"113410R","klasa":"droga lokalna","kat":"powiatowa"},"geometry":{"type":"LineString","coordinates":[[21.5294,49.81178],[21.5301,49.8133]]}},{"type":"Feature","properties":{"numer":"113410R","klasa":"droga lokalna","kat":"powiatowa"},"geometry":{"type":"LineString","coordinates":[[21.5301,49.8133],[21.53012,49.81334]]}},{"type":"Feature","properties":{"numer":"113410R","klasa":"droga lokalna","kat":"powiatowa"},"geometry":{"type":"LineString","coordinates":[[21.53019,49.81341],[21.53012,49.81334]]}},{"type":"Feature","properties":{"numer":"113410R","klasa":"droga lokalna","kat":"powiatowa"},"geometry":{"type":"LineString","coordinates":[[21.53019,49.81341],[21.53083,49.81404],[21.53091,49.81423]]}},{"type":"Feature","properties":{"numer":"113410R","klasa":"droga lokalna","kat":"powiatowa"},"geometry":{"type":"LineString","coordinates":[[21.53091,49.81423],[21.53067,49.81437]]}},{"type":"Feature","properties":{"numer":"113410R","klasa":"droga lokalna","kat":"powiatowa"},"geometry":{"type":"LineString","coordinates":[[21.53067,49.81437],[21.53054,49.81441]]}},{"type":"Feature","properties":{"numer":"113409R","klasa":"droga lokalna","kat":"powiatowa"},"geometry":{"type":"LineString","coordinates":[[21.51972,49.81269],[21.51933,49.81313],[21.51821,49.81391]]}},{"type":"Feature","properties":{"numer":"113409R","klasa":"droga lokalna","kat":"powiatowa"},"geometry":{"type":"LineString","coordinates":[[21.51821,49.81391],[21.51831,49.81405],[21.51855,49.81412],[21.52002,49.81427],[21.5212,49.81426]]}},{"type":"Feature","properties":{"numer":"113409R","klasa":"droga lokalna","kat":"powiatowa"},"geometry":{"type":"LineString","coordinates":[[21.5212,49.81426],[21.5213,49.81426]]}},{"type":"Feature","properties":{"numer":"113409R","klasa":"droga lokalna","kat":"powiatowa"},"geometry":{"type":"LineString","coordinates":[[21.5213,49.81426],[21.52174,49.81445]]}},{"type":"Feature","properties":{"numer":"113410R","klasa":"droga lokalna","kat":"powiatowa"},"geometry":{"type":"LineString","coordinates":[[21.52911,49.8146],[21.52812,49.81509]]}},{"type":"Feature","properties":{"numer":"113410R","klasa":"droga lokalna","kat":"powiatowa"},"geometry":{"type":"LineString","coordinates":[[21.52812,49.81509],[21.52738,49.81545]]}},{"type":"Feature","properties":{"numer":"113409R","klasa":"droga lokalna","kat":"powiatowa"},"geometry":{"type":"LineString","coordinates":[[21.52174,49.81445],[21.52193,49.81482],[21.52203,49.81613],[21.52289,49.81675]]}},{"type":"Feature","properties":{"numer":"113410R","klasa":"droga lokalna","kat":"powiatowa"},"geometry":{"type":"LineString","coordinates":[[21.52738,49.81545],[21.52637,49.8161]]}},{"type":"Feature","properties":{"numer":"113410R","klasa":"droga lokalna","kat":"powiatowa"},"geometry":{"type":"LineString","coordinates":[[21.52637,49.8161],[21.52554,49.81651],[21.52555,49.81701]]}},{"type":"Feature","properties":{"numer":"113410R","klasa":"droga lokalna","kat":"powiatowa"},"geometry":{"type":"LineString","coordinates":[[21.52555,49.81701],[21.52466,49.8174]]}},{"type":"Feature","properties":{"numer":"73","klasa":"droga gĹ‚Ăłwna","kat":"krajowa"},"geometry":{"type":"LineString","coordinates":[[21.43255,49.80386],[21.43227,49.80296],[21.4306,49.79902],[21.43034,49.79849],[21.43,49.79816],[21.42922,49.79785],[21.41671,49.79406],[21.41597,49.79371],[21.41561,49.79327],[21.4155,49.79281],[21.41564,49.79233],[21.4183,49.78704],[21.41923,49.78283],[21.41968,49.78239],[21.42151482597191,49.78146500508854]]}},{"type":"Feature","properties":{"numer":"1836R","klasa":"droga zbiorcza","kat":"powiatowa"},"geometry":{"type":"LineString","coordinates":[[21.43255,49.80386],[21.43518,49.80387],[21.43592,49.80362],[21.43775,49.80332],[21.43854,49.80298],[21.44181,49.8021],[21.44242,49.80206],[21.4439,49.80216],[21.44423,49.80189],[21.44429,49.80124],[21.44443,49.80099],[21.44587,49.80025],[21.44686,49.79954],[21.44776,49.79918],[21.44882,49.79901],[21.45033,49.79864],[21.45185,49.79857],[21.45266,49.79814]]}},{"type":"Feature","properties":{"numer":"73","klasa":"droga gĹ‚Ăłwna","kat":"krajowa"},"geometry":{"type":"LineString","coordinates":[[21.4327,49.80493],[21.43255,49.80386]]}},{"type":"Feature","properties":{"numer":"73","klasa":"droga gĹ‚Ăłwna","kat":"krajowa"},"geometry":{"type":"LineString","coordinates":[[21.43273,49.80513],[21.4327,49.80493]]}},{"type":"Feature","properties":{"numer":"73","klasa":"droga gĹ‚Ăłwna","kat":"krajowa"},"geometry":{"type":"LineString","coordinates":[[21.43275,49.80527],[21.43273,49.80513]]}},{"type":"Feature","properties":{"numer":"1837R","klasa":"droga zbiorcza","kat":"powiatowa"},"geometry":{"type":"LineString","coordinates":[[21.43319,49.80737],[21.43384,49.80737],[21.43628,49.80773],[21.43684,49.80774],[21.43981,49.80721],[21.44717,49.80617],[21.45323,49.80517],[21.45386,49.80504],[21.45496,49.80452],[21.45656,49.80431],[21.45724,49.80431],[21.45854,49.80449],[21.45989,49.8043],[21.46104,49.80423],[21.46275,49.80417],[21.46428,49.80426],[21.47249,49.80368],[21.47498,49.8037]]}},{"type":"Feature","properties":{"numer":"73","klasa":"droga gĹ‚Ăłwna","kat":"krajowa"},"geometry":{"type":"LineString","coordinates":[[21.43319,49.80737],[21.43317,49.80682],[21.43275,49.80527]]}},{"type":"Feature","properties":{"numer":"1835R","klasa":"droga zbiorcza","kat":"powiatowa"},"geometry":{"type":"LineString","coordinates":[[21.4236,49.81123],[21.42409,49.81102],[21.4245,49.81069],[21.42487,49.80961],[21.4251,49.80936],[21.42907,49.80637],[21.42942,49.80534],[21.42963,49.80508],[21.43051,49.8046],[21.43075,49.80455],[21.43116,49.80457],[21.4327,49.80493]]}},{"type":"Feature","properties":{"numer":"1835R","klasa":"droga zbiorcza","kat":"powiatowa"},"geometry":{"type":"LineString","coordinates":[[21.422409530355097,49.81168093547155],[21.4236,49.81123]]}},{"type":"Feature","properties":{"numer":"73","klasa":"droga gĹ‚Ăłwna","kat":"krajowa"},"geometry":{"type":"LineString","coordinates":[[21.418754022609225,49.82934431274061],[21.41924,49.8286],[21.41999,49.8274],[21.42472,49.81889],[21.42511,49.81847],[21.4331,49.81211],[21.43376,49.81144],[21.43394,49.81108],[21.43398,49.81067],[21.4331,49.80852],[21.43319,49.80737]]}},{"type":"Feature","properties":{"numer":"113409R","klasa":"droga lokalna","kat":"powiatowa"},"geometry":{"type":"LineString","coordinates":[[21.52289,49.81675],[21.52297,49.81701],[21.52274,49.81742],[21.52271,49.81808]]}},{"type":"Feature","properties":{"numer":"113410R","klasa":"droga lokalna","kat":"powiatowa"},"geometry":{"type":"LineString","coordinates":[[21.52466,49.8174],[21.52459,49.81747]]}},{"type":"Feature","properties":{"numer":"113410R","klasa":"droga lokalna","kat":"powiatowa"},"geometry":{"type":"LineString","coordinates":[[21.52459,49.81747],[21.52373,49.81803],[21.52332,49.81819]]}},{"type":"Feature","properties":{"numer":"113410R","klasa":"droga lokalna","kat":"powiatowa"},"geometry":{"type":"LineString","coordinates":[[21.52332,49.81819],[21.52271,49.81808]]}},{"type":"Feature","properties":{"numer":"1838R","klasa":"droga zbiorcza","kat":"powiatowa"},"geometry":{"type":"LineString","coordinates":[[21.47498,49.8037],[21.47586,49.80575],[21.47734,49.80657],[21.47911,49.80828],[21.47988,49.80971],[21.48063,49.8103],[21.48153,49.81164],[21.48234,49.81226],[21.48264,49.81259],[21.48285,49.81307],[21.48281,49.81332],[21.48206,49.81422],[21.48013,49.81507],[21.47954,49.81527],[21.47854,49.81543],[21.47784,49.81563],[21.47612,49.81636],[21.47542,49.81695],[21.47466,49.81728],[21.47366,49.81757],[21.47242,49.81752],[21.47129,49.81792],[21.47084,49.81821],[21.47046,49.81861],[21.46951,49.82053],[21.46931,49.82142],[21.46948,49.82224],[21.46907,49.82318],[21.46915,49.82341],[21.46992,49.82423],[21.47056,49.82549],[21.47078,49.82748],[21.47057,49.82803],[21.46911,49.82932],[21.4677,49.83034],[21.46674,49.83122],[21.46556,49.83197],[21.4638,49.83288],[21.46153,49.83324],[21.46057,49.83362],[21.4593,49.83432],[21.45639,49.83689],[21.45574,49.83733],[21.45477,49.83783],[21.45384,49.83791],[21.45347,49.83802]]}},{"type":"Feature","properties":{"numer":"113410R","klasa":"droga lokalna","kat":"powiatowa"},"geometry":{"type":"LineString","coordinates":[[21.53054,49.81441],[21.52953,49.81446],[21.52911,49.8146]]}}]}