{"type":"FeatureCollection","features":[{"type":"Feature","properties":{"numer":"875","klasa":"droga gĹ‚Ăłwna","kat":"wojewodzka"},"geometry":{"type":"LineString","coordinates":[[22.049329188534518,50.24802298748486],[22.049,50.24812],[22.04549,50.24956],[22.04181,50.25088],[22.03225,50.25715]]}},{"type":"Feature","properties":{"numer":"875","klasa":"droga gĹ‚Ăłwna","kat":"wojewodzka"},"geometry":{"type":"LineString","coordinates":[[22.03225,50.25715],[22.03158,50.2575],[22.0295,50.25819]]}},{"type":"Feature","properties":{"numer":"875","klasa":"droga gĹ‚Ăłwna","kat":"wojewodzka"},"geometry":{"type":"LineString","coordinates":[[22.0295,50.25819],[22.02861,50.25837],[22.0196,50.25949],[22.01838,50.25955],[22.01492,50.25913],[22.01046,50.2577],[22.00854,50.2576],[22.00646,50.25724],[22.00279,50.25712],[22.00217,50.25723],[21.99936,50.25832],[21.99618,50.25901],[21.9913,50.25916],[21.98654,50.25958],[21.98575,50.25957]]}},{"type":"Feature","properties":{"numer":"875","klasa":"droga gĹ‚Ăłwna","kat":"wojewodzka"},"geometry":{"type":"LineString","coordinates":[[21.97122,50.25846],[21.97322,50.25854],[21.97633,50.25884],[21.97746,50.2588],[21.97952,50.25892],[21.98313,50.25928]]}},{"type":"Feature","properties":{"numer":"1209R","klasa":"droga zbiorcza","kat":"powiatowa"},"geometry":{"type":"LineString","coordinates":[[22.0295,50.25819],[22.03021,50.2587],[22.03167,50.259],[22.03196,50.25921],[22.03308,50.26417],[22.03337,50.26472],[22.03437,50.26591],[22.03497,50.26806],[22.03581,50.2695],[22.03554,50.27507],[22.03569,50.27977]]}},{"type":"Feature","properties":{"numer":"1210R","klasa":"droga zbiorcza","kat":"powiatowa"},"geometry":{"type":"LineString","coordinates":[[22.03225,50.25715],[22.03334,50.25777],[22.03879,50.26012],[22.04087,50.26067],[22.04724,50.26184],[22.05162,50.26299],[22.05229,50.26311],[22.05542,50.26333],[22.0591,50.26372],[22.06053,50.26375],[22.06286,50.26365],[22.06269,50.26628],[22.06246,50.26761],[22.06244,50.26971],[22.0626,50.27124],[22.06278,50.27219],[22.06385,50.2744],[22.06448,50.27813],[22.06454,50.28066],[22.06477,50.28122]]}},{"type":"Feature","properties":{"numer":"1209R","klasa":"droga zbiorcza","kat":"powiatowa"},"geometry":{"type":"LineString","coordinates":[[22.03569,50.27977],[22.03994,50.28001],[22.04263,50.28066],[22.04317,50.28073],[22.04442,50.28077],[22.04556,50.2805],[22.04597,50.28052],[22.04659,50.28076],[22.0474,50.28253]]}},{"type":"Feature","properties":{"numer":"1210R","klasa":"droga zbiorcza","kat":"powiatowa"},"geometry":{"type":"LineString","coordinates":[[22.06481,50.28132],[22.06477,50.28122]]}},{"type":"Feature","properties":{"numer":"1208R","klasa":"droga zbiorcza","kat":"powiatowa"},"geometry":{"type":"LineString","coordinates":[[22.03458,50.284],[22.03464,50.28115],[22.03511,50.28027],[22.03569,50.27977]]}},{"type":"Feature","properties":{"numer":"1209R","klasa":"droga zbiorcza","kat":"powiatowa"},"geometry":{"type":"LineString","coordinates":[[22.0474,50.28253],[22.04746,50.28264]]}},{"type":"Feature","properties":{"numer":"1208R","klasa":"droga zbiorcza","kat":"powiatowa"},"geometry":{"type":"LineString","coordinates":[[22.03456,50.28413],[22.03458,50.284]]}},{"type":"Feature","properties":{"numer":"1210R","klasa":"droga zbiorcza","kat":"powiatowa"},"geometry":{"type":"LineString","coordinates":[[22.06481,50.28132],[22.06608,50.28281],[22.06645,50.2844],[22.06607,50.28758],[22.06614,50.29167]]}},{"type":"Feature","properties":{"numer":"1209R","klasa":"droga zbiorcza","kat":"powiatowa"},"geometry":{"type":"LineString","coordinates":[[22.04746,50.28264],[22.04881,50.28496],[22.05006,50.28766],[22.04929,50.28944],[22.04748,50.29142],[22.05124,50.29325],[22.05227,50.29426],[22.05238,50.29467],[22.05233,50.29718],[22.0525,50.29724],[22.06599,50.29756],[22.0679,50.29772]]}},{"type":"Feature","properties":{"numer":"1211R","klasa":"droga zbiorcza","kat":"powiatowa"},"geometry":{"type":"LineString","coordinates":[[22.06614,50.29167],[22.06628,50.29276],[22.0679,50.29772]]}},{"type":"Feature","properties":{"numer":"1211R","klasa":"droga zbiorcza","kat":"powiatowa"},"geometry":{"type":"LineString","coordinates":[[22.08333,50.28969],[22.083341724137927,50.28968413793103]]}},{"type":"Feature","properties":{"numer":"1211R","klasa":"droga zbiorcza","kat":"powiatowa"},"geometry":{"type":"LineString","coordinates":[[22.06614,50.29167],[22.06759,50.2917],[22.06933,50.29158],[22.07053,50.29139],[22.07166,50.29092],[22.0721,50.29083],[22.08174,50.29029],[22.08223,50.29017],[22.08333,50.28969]]}},{"type":"Feature","properties":{"numer":"1204R","klasa":"","kat":"powiatowa"},"geometry":{"type":"LineString","coordinates":[[21.96868,50.24795],[21.968675388300845,50.2479117797536]]}},{"type":"Feature","properties":{"numer":"1204R","klasa":"droga zbiorcza","kat":"powiatowa"},"geometry":{"type":"LineString","coordinates":[[21.97042,50.25564],[21.97003,50.25487],[21.9696,50.25352],[21.96936,50.2513],[21.96868,50.24795]]}},{"type":"Feature","properties":{"numer":"1204R","klasa":"droga zbiorcza","kat":"powiatowa"},"geometry":{"type":"LineString","coordinates":[[21.97051,50.25581],[21.97042,50.25564]]}},{"type":"Feature","properties":{"numer":"1204R","klasa":"droga zbiorcza","kat":"powiatowa"},"geometry":{"type":"LineString","coordinates":[[21.97122,50.25846],[21.97108,50.25702],[21.97051,50.25581]]}},{"type":"Feature","properties":{"numer":"875","klasa":"droga gĹ‚Ăłwna","kat":"wojewodzka"},"geometry":{"type":"LineString","coordinates":[[21.91288022080854,50.258754418202955],[21.91693,50.25862],[21.94093,50.25852],[21.94225,50.25843],[21.94373,50.25809],[21.94479,50.25794],[21.95438,50.25736],[21.95618,50.25755],[21.96184,50.25843],[21.96421,50.25869],[21.9691,50.25866],[21.97122,50.25846]]}},{"type":"Feature","properties":{"numer":"1204R","klasa":"droga zbiorcza","kat":"powiatowa"},"geometry":{"type":"LineString","coordinates":[[21.95435,50.29438],[21.95425,50.29425],[21.95416,50.29334],[21.95491,50.29105],[21.95494,50.28985],[21.95344,50.28385],[21.95344,50.28343],[21.95388,50.28306],[21.96381,50.27722],[21.96434,50.27676],[21.96469,50.2763],[21.96751,50.27163],[21.96763,50.27],[21.96804,50.26775],[21.96836,50.26446],[21.97117,50.25935],[21.97122,50.25846]]}},{"type":"Feature","properties":{"numer":"875","klasa":"droga gĹ‚Ăłwna","kat":"wojewodzka"},"geometry":{"type":"LineString","coordinates":[[21.98313,50.25928],[21.98356,50.25933]]}},{"type":"Feature","properties":{"numer":"875","klasa":"droga gĹ‚Ăłwna","kat":"wojewodzka"},"geometry":{"type":"LineString","coordinates":[[21.98356,50.25933],[21.98575,50.25957]]}},{"type":"Feature","properties":{"numer":"1207R","klasa":"droga zbiorcza","kat":"powiatowa"},"geometry":{"type":"LineString","coordinates":[[21.99084,50.28566],[21.99095,50.2853],[21.99053,50.28378],[21.99087,50.27923],[21.99042,50.27808],[21.99037,50.27009],[21.99047,50.26932],[21.99118,50.26676],[21.99115,50.26493],[21.98949,50.26172],[21.98581,50.25984],[21.98575,50.25957]]}},{"type":"Feature","properties":{"numer":"1206R","klasa":"droga zbiorcza","kat":"powiatowa"},"geometry":{"type":"LineString","coordinates":[[21.99031,50.2857],[21.99084,50.28566]]}},{"type":"Feature","properties":{"numer":"1206R","klasa":"droga zbiorcza","kat":"powiatowa"},"geometry":{"type":"LineString","coordinates":[[21.98995,50.28574],[21.99031,50.2857]]}},{"type":"Feature","properties":{"numer":"1207R","klasa":"droga zbiorcza","kat":"powiatowa"},"geometry":{"type":"LineString","coordinates":[[21.99265,50.29147],[21.99239,50.29133],[21.99202,50.29095],[21.99137,50.29022],[21.99111,50.28978],[21.99075,50.28761],[21.99066,50.28631],[21.99084,50.28566]]}},{"type":"Feature","properties":{"numer":"1208R","klasa":"droga zbiorcza","kat":"powiatowa"},"geometry":{"type":"LineString","coordinates":[[21.99706,50.29549],[22.00254,50.29635],[22.01032,50.29735],[22.01111,50.29517],[22.01249,50.29047],[22.01285,50.28996],[22.01327,50.28988],[22.01956,50.28985],[22.0242,50.28993],[22.03167,50.28991],[22.03389,50.28969],[22.0341,50.2892],[22.03296,50.28704],[22.03292,50.28678],[22.03334,50.28583],[22.03434,50.28544],[22.03455,50.28528],[22.03456,50.28413]]}},{"type":"Feature","properties":{"numer":"1207R","klasa":"droga zbiorcza","kat":"powiatowa"},"geometry":{"type":"LineString","coordinates":[[21.99265,50.29147],[21.99279,50.29151]]}},{"type":"Feature","properties":{"numer":"1207R","klasa":"droga zbiorcza","kat":"powiatowa"},"geometry":{"type":"LineString","coordinates":[[21.99706,50.29549],[21.99728,50.29428],[21.99721,50.2941],[21.99633,50.29362],[21.99475,50.29218],[21.99279,50.29151]]}},{"type":"Feature","properties":{"numer":"1207R","klasa":"droga zbiorcza","kat":"powiatowa"},"geometry":{"type":"LineString","coordinates":[[22.00562,50.30892],[22.00409,50.30733],[22.00246,50.30591],[22.00205,50.3057],[22.00038,50.30519],[22.00012,50.305],[22.00002,50.30463],[22.00004,50.30367],[22.0004,50.30201],[22.00008,50.30169],[21.99903,50.30139],[21.99838,50.30072],[21.99778,50.29948],[21.99792,50.29737],[21.99745,50.29608],[21.99706,50.29549]]}},{"type":"Feature","properties":{"numer":"1204R","klasa":"droga zbiorcza","kat":"powiatowa"},"geometry":{"type":"LineString","coordinates":[[21.9140840195241,50.28989109823064],[21.9144,50.29261],[21.9148,50.29334],[21.91544,50.29409],[21.91592,50.29438],[21.91658,50.29458],[21.91815,50.29486]]}},{"type":"Feature","properties":{"numer":"108504R","klasa":"droga lokalna","kat":"powiatowa"},"geometry":{"type":"LineString","coordinates":[[22.00562,50.30892033797217],[22.00562,50.30892]]}},{"type":"Feature","properties":{"numer":"1206R","klasa":"droga zbiorcza","kat":"powiatowa"},"geometry":{"type":"LineString","coordinates":[[21.95435,50.29438],[21.95506,50.29408],[21.95699,50.29354],[21.9592,50.29263],[21.96228,50.29152],[21.96541,50.28991],[21.97286,50.2875],[21.97441,50.28723],[21.97951,50.28693],[21.98373,50.28629],[21.98995,50.28574]]}},{"type":"Feature","properties":{"numer":"1204R","klasa":"droga zbiorcza","kat":"powiatowa"},"geometry":{"type":"LineString","coordinates":[[21.95083,50.29516],[21.95347,50.29472],[21.95435,50.29438]]}},{"type":"Feature","properties":{"numer":"1204R","klasa":"droga zbiorcza","kat":"powiatowa"},"geometry":{"type":"LineString","coordinates":[[21.91826,50.29488],[21.91815,50.29486]]}},{"type":"Feature","properties":{"numer":"1204R","klasa":"droga zbiorcza","kat":"powiatowa"},"geometry":{"type":"LineString","coordinates":[[21.91826,50.29488],[21.92006,50.29519],[21.92099,50.29526],[21.93054,50.29508],[21.93525,50.29571],[21.94103,50.29512],[21.94906,50.2954],[21.95083,50.29516]]}},{"type":"Feature","properties":{"numer":"1205R","klasa":"droga zbiorcza","kat":"powiatowa"},"geometry":{"type":"LineString","coordinates":[[21.95814,50.31619],[21.95737,50.31332],[21.95613,50.3101],[21.95551,50.30787],[21.95407,50.3038],[21.95309,50.30046],[21.95127,50.29808],[21.95077,50.29709],[21.9506,50.29638],[21.95083,50.29516]]}},{"type":"Feature","properties":{"numer":"1205R","klasa":"droga zbiorcza","kat":"powiatowa"},"geometry":{"type":"LineString","coordinates":[[21.95821,50.31647],[21.95814,50.31619]]}},{"type":"Feature","properties":{"numer":"1205R","klasa":"droga zbiorcza","kat":"powiatowa"},"geometry":{"type":"LineString","coordinates":[[21.948694040802035,50.329281419320814],[21.94906,50.32877],[21.958,50.31811],[21.9583,50.31743],[21.95821,50.31647]]}},{"type":"Feature","properties":{"numer":"1209R","klasa":"droga zbiorcza","kat":"powiatowa"},"geometry":{"type":"LineString","coordinates":[[22.0679,50.29772],[22.07367,50.29838],[22.07416,50.2985],[22.07449,50.2987],[22.07514,50.29956],[22.07757,50.30177],[22.07895,50.30177],[22.08451,50.30279],[22.08833,50.30319]]}},{"type":"Feature","properties":{"numer":"1363R","klasa":"droga zbiorcza","kat":"powiatowa"},"geometry":{"type":"LineString","coordinates":[[22.08833,50.30319],[22.088359721900364,50.30314112398607]]}},{"type":"Feature","properties":{"numer":"1363R","klasa":"droga zbiorcza","kat":"powiatowa"},"geometry":{"type":"LineString","coordinates":[[22.08823425431706,50.30338283359508],[22.08833,50.30319]]}}]}