{"type":"FeatureCollection","features":[{"type":"Feature","properties":{"numer":"1963R","klasa":"droga zbiorcza","kat":"powiatowa"},"geometry":{"type":"LineString","coordinates":[[21.76257,49.72217],[21.762627063517915,49.722155454397395]]}},{"type":"Feature","properties":{"numer":"1962R","klasa":"droga zbiorcza","kat":"powiatowa"},"geometry":{"type":"LineString","coordinates":[[21.76257,49.72217],[21.76195,49.72131],[21.761851109583045,49.72099355066575]]}},{"type":"Feature","properties":{"numer":"1962R","klasa":"droga zbiorcza","kat":"powiatowa"},"geometry":{"type":"LineString","coordinates":[[21.76307,49.72428],[21.763032602444284,49.72373565780015]]}},{"type":"Feature","properties":{"numer":"1962R","klasa":"droga zbiorcza","kat":"powiatowa"},"geometry":{"type":"LineString","coordinates":[[21.762691776913094,49.72240761348896],[21.76257,49.72217]]}},{"type":"Feature","properties":{"numer":"1961R","klasa":"droga zbiorcza","kat":"powiatowa"},"geometry":{"type":"LineString","coordinates":[[21.76307,49.72428],[21.76249,49.72442],[21.75828,49.72647],[21.75497,49.72776],[21.7536,49.72845],[21.74859,49.73196],[21.74662,49.73299],[21.74249,49.73567],[21.73998,49.7377],[21.73989,49.73792],[21.73993,49.73833],[21.73967,49.73895]]}},{"type":"Feature","properties":{"numer":"1961R","klasa":"","kat":"powiatowa"},"geometry":{"type":"LineString","coordinates":[[21.73967,49.73895],[21.73962,49.739]]}},{"type":"Feature","properties":{"numer":"1960R","klasa":"droga zbiorcza","kat":"powiatowa"},"geometry":{"type":"LineString","coordinates":[[21.712573526704876,49.7314751279084],[21.71897,49.7339],[21.72368,49.73669],[21.72554,49.73689]]}},{"type":"Feature","properties":{"numer":"1960R","klasa":"droga zbiorcza","kat":"powiatowa"},"geometry":{"type":"LineString","coordinates":[[21.72554,49.73689],[21.72643,49.73696]]}},{"type":"Feature","properties":{"numer":"1960R","klasa":"droga zbiorcza","kat":"powiatowa"},"geometry":{"type":"LineString","coordinates":[[21.72643,49.73696],[21.73092,49.73767],[21.73104,49.73788],[21.73093,49.73861],[21.73197,49.73983],[21.73225,49.73997]]}},{"type":"Feature","properties":{"numer":"990","klasa":"droga gĹ‚Ăłwna","kat":"wojewodzka"},"geometry":{"type":"LineString","coordinates":[[21.70199,49.74697],[21.70387,49.74514],[21.70584,49.742],[21.71167,49.73432],[21.71189,49.73385],[21.71195,49.73342],[21.7118887654321,49.733096049382716]]}},{"type":"Feature","properties":{"numer":"1962R","klasa":"droga zbiorcza","kat":"powiatowa"},"geometry":{"type":"LineString","coordinates":[[21.78644454183271,49.74177511952194],[21.78505,49.74096],[21.78264,49.74024],[21.78007,49.73998],[21.77823,49.74003],[21.77737,49.73996],[21.77495,49.73957],[21.77332,49.73889],[21.77298,49.7386],[21.77302,49.73832],[21.77478,49.73738],[21.77482,49.73726],[21.77464,49.73717],[21.77345,49.73691],[21.7728,49.73651],[21.77253,49.7361],[21.77242,49.73525],[21.77204,49.73448],[21.77107,49.73371],[21.76988,49.7331],[21.76842,49.73135],[21.7664,49.72939],[21.765,49.72828],[21.76443,49.72677],[21.76345,49.72553],[21.76307,49.72428]]}},{"type":"Feature","properties":{"numer":"1944R","klasa":"droga zbiorcza","kat":"powiatowa"},"geometry":{"type":"LineString","coordinates":[[21.67723042772538,49.741405976091244],[21.67735,49.74142],[21.67827,49.74172],[21.67979,49.74175],[21.68046,49.7416],[21.68124,49.74093],[21.68148,49.74082],[21.68339,49.7407],[21.68458,49.74074],[21.68616,49.74059],[21.68776,49.74064],[21.68905,49.73996],[21.6905,49.73943],[21.69159,49.73984],[21.69427,49.74108],[21.69599,49.74154],[21.69635,49.7417],[21.69656,49.74194],[21.69727,49.74356],[21.69835,49.74481],[21.69919,49.74548],[21.70128,49.74652],[21.70199,49.74697]]}},{"type":"Feature","properties":{"numer":"1944R,990","klasa":"droga gĹ‚Ăłwna","kat":"powiatowa"},"geometry":{"type":"LineString","coordinates":[[21.70168,49.74726],[21.70199,49.74697]]}},{"type":"Feature","properties":{"numer":"1924R","klasa":"droga zbiorcza","kat":"powiatowa"},"geometry":{"type":"LineString","coordinates":[[21.71757,49.75605],[21.71862,49.75535],[21.71917,49.75486],[21.71963,49.75381],[21.71993,49.7535],[21.72049,49.75322],[21.72225,49.75267],[21.72249,49.75251],[21.72726,49.74617],[21.73225,49.73997]]}},{"type":"Feature","properties":{"numer":"1944R","klasa":"droga zbiorcza","kat":"powiatowa"},"geometry":{"type":"LineString","coordinates":[[21.71462,49.75459],[21.70916,49.75171],[21.70478,49.74893],[21.70326,49.74787],[21.70168,49.74726]]}},{"type":"Feature","properties":{"numer":"1943R","klasa":"droga zbiorcza","kat":"powiatowa"},"geometry":{"type":"LineString","coordinates":[[21.67171,49.76325],[21.67165,49.76274],[21.67078,49.761],[21.66927,49.75941],[21.6692,49.75881],[21.6689,49.75792],[21.66899,49.75718],[21.66891,49.75696],[21.66556,49.75438],[21.66443,49.75339],[21.664537686185326,49.75319420693576]]}},{"type":"Feature","properties":{"numer":"1943R","klasa":"droga zbiorcza","kat":"powiatowa"},"geometry":{"type":"LineString","coordinates":[[21.66760145685053,49.75270588967972],[21.66765,49.75268],[21.66756,49.75213],[21.666920394815076,49.750964617671535]]}},{"type":"Feature","properties":{"numer":"1944R","klasa":"droga zbiorcza","kat":"powiatowa"},"geometry":{"type":"LineString","coordinates":[[21.71518,49.7549],[21.71462,49.75459]]}},{"type":"Feature","properties":{"numer":"1944R","klasa":"droga zbiorcza","kat":"powiatowa"},"geometry":{"type":"LineString","coordinates":[[21.71757,49.75605],[21.71518,49.7549]]}},{"type":"Feature","properties":{"numer":"1924R","klasa":"droga zbiorcza","kat":"powiatowa"},"geometry":{"type":"LineString","coordinates":[[21.71405,49.75974],[21.71458,49.75913],[21.71484,49.75846],[21.71606,49.75756],[21.71757,49.75605]]}},{"type":"Feature","properties":{"numer":"990","klasa":"droga gĹ‚Ăłwna","kat":"wojewodzka"},"geometry":{"type":"LineString","coordinates":[[21.67598,49.77192],[21.6859,49.76126],[21.698,49.75077],[21.70168,49.74726]]}},{"type":"Feature","properties":{"numer":"1940R","klasa":"droga zbiorcza","kat":"powiatowa"},"geometry":{"type":"LineString","coordinates":[[21.71405,49.75974],[21.71535,49.76069],[21.71666,49.76184],[21.71821,49.7634],[21.71853,49.76396],[21.71848,49.76424],[21.71806,49.76494],[21.7172,49.76548],[21.71682,49.7659],[21.71673,49.76612],[21.71684,49.76655]]}},{"type":"Feature","properties":{"numer":"1943R","klasa":"droga zbiorcza","kat":"powiatowa"},"geometry":{"type":"LineString","coordinates":[[21.67598,49.77192],[21.67521,49.77156],[21.675,49.77136],[21.67491,49.77078],[21.67507,49.77008],[21.67497,49.76985],[21.67402,49.76942],[21.67343,49.76864],[21.67232,49.76793],[21.67178,49.7674],[21.67179,49.76637],[21.67167,49.76572],[21.67179,49.76481],[21.67171,49.76325]]}},{"type":"Feature","properties":{"numer":"1942R","klasa":"droga zbiorcza","kat":"powiatowa"},"geometry":{"type":"LineString","coordinates":[[21.67171,49.76325],[21.66731,49.76493],[21.66443,49.76547],[21.66404,49.76564],[21.66291,49.7664],[21.66014,49.76714],[21.6596,49.76745],[21.65928,49.76806],[21.65887,49.76851],[21.6582,49.76884],[21.65604,49.76876],[21.64785,49.76911],[21.64763,49.7693],[21.64593,49.77258]]}},{"type":"Feature","properties":{"numer":"1940R","klasa":"droga zbiorcza","kat":"powiatowa"},"geometry":{"type":"LineString","coordinates":[[21.71684,49.76655],[21.71897,49.76891],[21.72149,49.76954],[21.7226,49.76958],[21.72315,49.76973],[21.72352,49.7701],[21.72484,49.77217],[21.72515,49.7725],[21.72558,49.7727],[21.72671,49.77296],[21.72713,49.77314],[21.7289,49.7747],[21.72936,49.77492],[21.73006,49.77514]]}},{"type":"Feature","properties":{"numer":"1924R","klasa":"droga zbiorcza","kat":"powiatowa"},"geometry":{"type":"LineString","coordinates":[[21.68361,49.78436],[21.68343,49.78308],[21.68246,49.78191],[21.68231,49.78159],[21.68227,49.78114],[21.68248,49.78045],[21.68267,49.78018],[21.68335,49.77975],[21.6866,49.77835],[21.68799,49.77709],[21.68842,49.77645],[21.6885,49.77611],[21.68844,49.77566],[21.68803,49.77483],[21.68794,49.77423],[21.68801,49.77408],[21.6911,49.77408],[21.69158,49.77353],[21.69362,49.7726],[21.69577,49.77101],[21.69776,49.77045],[21.6984,49.76977],[21.69999,49.76866],[21.70198,49.767],[21.70449,49.76361],[21.70483,49.76332],[21.70525,49.76318],[21.7067,49.76316],[21.70733,49.76307],[21.70792,49.76289],[21.70988,49.76202],[21.71077,49.76188],[21.71256,49.76069],[21.71286,49.76034],[21.71405,49.75974]]}},{"type":"Feature","properties":{"numer":"990","klasa":"droga gĹ‚Ăłwna","kat":"wojewodzka"},"geometry":{"type":"LineString","coordinates":[[21.67084,49.77741],[21.67598,49.77192]]}},{"type":"Feature","properties":{"numer":"1941R","klasa":"droga zbiorcza","kat":"powiatowa"},"geometry":{"type":"LineString","coordinates":[[21.67084,49.77741],[21.67159,49.77771],[21.67262,49.77866],[21.6729,49.77909],[21.67298,49.77988],[21.674,49.78078],[21.67435,49.78123],[21.67495,49.78151],[21.6765,49.782],[21.67812,49.78223],[21.67899,49.78252],[21.67927,49.78277],[21.6801,49.7843],[21.68045,49.7845],[21.68102,49.78458]]}},{"type":"Feature","properties":{"numer":"1941R","klasa":"droga zbiorcza","kat":"powiatowa"},"geometry":{"type":"LineString","coordinates":[[21.68187,49.78458],[21.6824,49.78457],[21.68361,49.78436]]}},{"type":"Feature","properties":{"numer":"1941R","klasa":"droga zbiorcza","kat":"powiatowa"},"geometry":{"type":"LineString","coordinates":[[21.68102,49.78458],[21.68187,49.78458]]}},{"type":"Feature","properties":{"numer":"990","klasa":"droga gĹ‚Ăłwna","kat":"wojewodzka"},"geometry":{"type":"LineString","coordinates":[[21.65838,49.79196],[21.65903,49.79149],[21.65968,49.79048],[21.65974,49.78998],[21.65947,49.78904],[21.6596,49.7886],[21.6609,49.78715],[21.66335,49.7851],[21.66475,49.78355],[21.66508,49.78303],[21.66546,49.78177],[21.66581,49.7812],[21.66768,49.77964],[21.66962,49.77843],[21.67084,49.77741]]}},{"type":"Feature","properties":{"numer":"1961R","klasa":"","kat":"powiatowa"},"geometry":{"type":"LineString","coordinates":[[21.73962,49.739],[21.73969,49.73906]]}},{"type":"Feature","properties":{"numer":"1960R","klasa":"droga zbiorcza","kat":"powiatowa"},"geometry":{"type":"LineString","coordinates":[[21.73978,49.7391],[21.73969,49.73906]]}},{"type":"Feature","properties":{"numer":"1960R","klasa":"droga zbiorcza","kat":"powiatowa"},"geometry":{"type":"LineString","coordinates":[[21.73225,49.73997],[21.73461,49.74034],[21.73644,49.74042],[21.73847,49.74085],[21.73882,49.74073],[21.73921,49.74026],[21.73977,49.73982],[21.73978,49.7391]]}},{"type":"Feature","properties":{"numer":"1960R","klasa":"droga zbiorcza","kat":"powiatowa"},"geometry":{"type":"LineString","coordinates":[[21.75494,49.74343],[21.75379,49.74307],[21.75266,49.74259],[21.75017,49.74139],[21.74905,49.74131],[21.74462,49.73957],[21.74429,49.73965],[21.74383,49.74034],[21.74358,49.7405],[21.74333,49.74054],[21.74207,49.74011],[21.74168,49.73968],[21.73978,49.7391]]}},{"type":"Feature","properties":{"numer":"1940R","klasa":"droga zbiorcza","kat":"powiatowa"},"geometry":{"type":"LineString","coordinates":[[21.73006,49.77514],[21.7329,49.77602],[21.73401,49.77664],[21.73489,49.77726],[21.73537,49.77747],[21.73564,49.77771],[21.73625,49.77853],[21.73641,49.77899],[21.73641,49.78004],[21.7361,49.78088],[21.73662,49.78208],[21.73652,49.78266],[21.73527,49.78406],[21.73458,49.78516],[21.73184,49.78779],[21.73119,49.78876],[21.73082,49.78914],[21.7297,49.78971],[21.72557,49.79036],[21.72521,49.79047],[21.72308,49.79194],[21.72198,49.79217],[21.72156,49.79238],[21.72031,49.79394],[21.71979,49.79426]]}},{"type":"Feature","properties":{"numer":"990","klasa":"droga gĹ‚Ăłwna","kat":"wojewodzka"},"geometry":{"type":"LineString","coordinates":[[21.65534,49.79253],[21.65683,49.79247],[21.65838,49.79196]]}},{"type":"Feature","properties":{"numer":"1924R","klasa":"droga zbiorcza","kat":"powiatowa"},"geometry":{"type":"LineString","coordinates":[[21.67436,49.80068],[21.67554,49.80001],[21.6774,49.79817],[21.67868,49.79736],[21.68054,49.79658],[21.68184,49.79622],[21.68339,49.79562],[21.68441,49.7951],[21.68668,49.79419],[21.68702,49.79389],[21.68757,49.79309],[21.69004,49.79028],[21.69151,49.78871],[21.69151,49.78836],[21.68969,49.78692],[21.68937,49.7868],[21.6869,49.78636],[21.68531,49.7858],[21.68422,49.78511],[21.68361,49.78436]]}},{"type":"Feature","properties":{"numer":"1940R","klasa":"droga zbiorcza","kat":"powiatowa"},"geometry":{"type":"LineString","coordinates":[[21.65838,49.79196],[21.65924,49.79228],[21.66161,49.79284],[21.663,49.79325]]}},{"type":"Feature","properties":{"numer":"1940R","klasa":"droga zbiorcza","kat":"powiatowa"},"geometry":{"type":"LineString","coordinates":[[21.663,49.79325],[21.66436,49.79368]]}},{"type":"Feature","properties":{"numer":"1940R","klasa":"droga zbiorcza","kat":"powiatowa"},"geometry":{"type":"LineString","coordinates":[[21.71979,49.79426],[21.7197,49.79429]]}},{"type":"Feature","properties":{"numer":"1940R","klasa":"droga zbiorcza","kat":"powiatowa"},"geometry":{"type":"LineString","coordinates":[[21.7197,49.79429],[21.71325,49.79504],[21.71091,49.79517]]}},{"type":"Feature","properties":{"numer":"1940R","klasa":"droga zbiorcza","kat":"powiatowa"},"geometry":{"type":"LineString","coordinates":[[21.71091,49.79517],[21.71084,49.79517]]}},{"type":"Feature","properties":{"numer":"1940R","klasa":"droga zbiorcza","kat":"powiatowa"},"geometry":{"type":"LineString","coordinates":[[21.71084,49.79517],[21.7096,49.79534],[21.7062,49.79668],[21.70321,49.79755],[21.70289,49.79778],[21.70206,49.7988],[21.70173,49.79955]]}},{"type":"Feature","properties":{"numer":"1940R","klasa":"droga zbiorcza","kat":"powiatowa"},"geometry":{"type":"LineString","coordinates":[[21.66436,49.79368],[21.66491,49.79393],[21.6653,49.79437],[21.66602,49.79577],[21.66826,49.79865],[21.66883,49.79981],[21.67048,49.80172],[21.67084,49.80264]]}},{"type":"Feature","properties":{"numer":"1940R","klasa":"droga zbiorcza","kat":"powiatowa"},"geometry":{"type":"LineString","coordinates":[[21.70173,49.79955],[21.70172,49.79959]]}},{"type":"Feature","properties":{"numer":"1940R","klasa":"droga zbiorcza","kat":"powiatowa"},"geometry":{"type":"LineString","coordinates":[[21.67449,49.8009],[21.67436,49.80068]]}},{"type":"Feature","properties":{"numer":"1940R","klasa":"droga zbiorcza","kat":"powiatowa"},"geometry":{"type":"LineString","coordinates":[[21.70172,49.79959],[21.70145,49.8003],[21.70105,49.80065],[21.70062,49.80084],[21.69821,49.80144],[21.69754,49.80167],[21.69672,49.80215],[21.69616,49.80274],[21.69524,49.80325]]}},{"type":"Feature","properties":{"numer":"1924R,1940R","klasa":"droga zbiorcza","kat":"powiatowa"},"geometry":{"type":"LineString","coordinates":[[21.67119,49.80274],[21.67173,49.8024],[21.67293,49.80129],[21.67367,49.80086],[21.67436,49.80068]]}},{"type":"Feature","properties":{"numer":"1940R","klasa":"droga zbiorcza","kat":"powiatowa"},"geometry":{"type":"LineString","coordinates":[[21.67084,49.80264],[21.67102,49.80285]]}},{"type":"Feature","properties":{"numer":"1924R","klasa":"droga zbiorcza","kat":"powiatowa"},"geometry":{"type":"LineString","coordinates":[[21.67102,49.80285],[21.67119,49.80274]]}},{"type":"Feature","properties":{"numer":"1940R","klasa":"droga zbiorcza","kat":"powiatowa"},"geometry":{"type":"LineString","coordinates":[[21.69524,49.80325],[21.69519,49.80328]]}},{"type":"Feature","properties":{"numer":"1924R","klasa":"droga zbiorcza","kat":"powiatowa"},"geometry":{"type":"LineString","coordinates":[[21.66923,49.80408],[21.67102,49.80285]]}},{"type":"Feature","properties":{"numer":"1940R","klasa":"droga zbiorcza","kat":"powiatowa"},"geometry":{"type":"LineString","coordinates":[[21.68251,49.80617],[21.68173,49.80592],[21.68002,49.80509],[21.67753,49.80484],[21.67668,49.80444],[21.67612,49.80401],[21.6753,49.80368],[21.67451,49.80263],[21.6745,49.80228],[21.67484,49.80135],[21.67449,49.8009]]}},{"type":"Feature","properties":{"numer":"1924R","klasa":"droga zbiorcza","kat":"powiatowa"},"geometry":{"type":"LineString","coordinates":[[21.66525,49.80502],[21.66556,49.80449],[21.66582,49.80435],[21.6662,49.80431],[21.66832,49.80442],[21.66887,49.80429],[21.66923,49.80408]]}},{"type":"Feature","properties":{"numer":"1924R","klasa":"droga zbiorcza","kat":"powiatowa"},"geometry":{"type":"LineString","coordinates":[[21.66519,49.8051],[21.66525,49.80502]]}},{"type":"Feature","properties":{"numer":"1940R","klasa":"droga zbiorcza","kat":"powiatowa"},"geometry":{"type":"LineString","coordinates":[[21.69519,49.80328],[21.69477,49.80361],[21.69457,49.80426],[21.69266,49.80533],[21.69145,49.80581],[21.6875,49.80675],[21.68649,49.80691],[21.68575,49.80691],[21.68406,49.80667],[21.68256,49.80619]]}},{"type":"Feature","properties":{"numer":"1940R","klasa":"droga zbiorcza","kat":"powiatowa"},"geometry":{"type":"LineString","coordinates":[[21.68256,49.80619],[21.68251,49.80617]]}},{"type":"Feature","properties":{"numer":"1845R","klasa":"droga zbiorcza","kat":"powiatowa"},"geometry":{"type":"LineString","coordinates":[[21.646679812675618,49.77455315329379],[21.64693,49.77465],[21.6479,49.77468],[21.65019,49.775],[21.65059,49.77521]]}},{"type":"Feature","properties":{"numer":"1844R","klasa":"droga zbiorcza","kat":"powiatowa"},"geometry":{"type":"LineString","coordinates":[[21.65417,49.79229],[21.65141,49.79063],[21.65102,49.7905],[21.64662,49.79023],[21.645,49.78986],[21.64434,49.78989],[21.64344,49.79024],[21.64178,49.7902],[21.63999,49.78993],[21.63873,49.78937],[21.63729,49.7891],[21.63594,49.78914],[21.63112,49.78975],[21.63011,49.78927],[21.6294359474778,49.78877178726621]]}},{"type":"Feature","properties":{"numer":"1845R","klasa":"droga zbiorcza","kat":"powiatowa"},"geometry":{"type":"LineString","coordinates":[[21.65417,49.79229],[21.65501,49.79078],[21.655,49.79035],[21.65424,49.78939],[21.65261,49.7886],[21.6514,49.78755],[21.65109,49.78708],[21.65071,49.78533],[21.65069,49.78496],[21.6508,49.7847],[21.65206,49.78342],[21.65219,49.78313],[21.65218,49.78282],[21.65192,49.78248],[21.65077,49.7814],[21.65019,49.78059],[21.64894,49.77969],[21.64812,49.77863],[21.64822,49.77838],[21.65021,49.77655],[21.65067,49.77553],[21.65059,49.77521]]}},{"type":"Feature","properties":{"numer":"1845R","klasa":"droga zbiorcza","kat":"powiatowa"},"geometry":{"type":"LineString","coordinates":[[21.65397,49.79256],[21.65417,49.79229]]}},{"type":"Feature","properties":{"numer":"990","klasa":"droga gĹ‚Ăłwna","kat":"wojewodzka"},"geometry":{"type":"LineString","coordinates":[[21.65527,49.79253],[21.65534,49.79253]]}},{"type":"Feature","properties":{"numer":"990","klasa":"droga gĹ‚Ăłwna","kat":"wojewodzka"},"geometry":{"type":"LineString","coordinates":[[21.65397,49.79256],[21.65527,49.79253]]}},{"type":"Feature","properties":{"numer":"990","klasa":"droga gĹ‚Ăłwna","kat":"wojewodzka"},"geometry":{"type":"LineString","coordinates":[[21.639250474677258,49.80699369678914],[21.63937,49.80678],[21.63981,49.80457],[21.64203,49.80155],[21.6425,49.80115],[21.64438,49.80013],[21.64915,49.79718],[21.65166,49.79473],[21.65317,49.79289],[21.65354,49.79267],[21.65397,49.79256]]}},{"type":"Feature","properties":{"numer":"1924R","klasa":"droga zbiorcza","kat":"powiatowa"},"geometry":{"type":"LineString","coordinates":[[21.66519,49.8051],[21.6641,49.8053],[21.66262,49.80573],[21.66107,49.80674],[21.6599,49.80826],[21.65814,49.80947],[21.65768,49.81046],[21.65651,49.81098],[21.65546,49.81172],[21.65458,49.81274],[21.65354,49.81369],[21.65182,49.81616],[21.65074,49.81718],[21.64924,49.81818],[21.64849,49.81906],[21.64772,49.82025],[21.64745,49.8205],[21.64539,49.8215],[21.64449,49.82219],[21.64264,49.82396],[21.63986,49.82529],[21.63962,49.82556],[21.63921,49.82654],[21.63796468189031,49.8270925002881]]}}]}