{"type":"FeatureCollection","features":[{"type":"Feature","properties":{"numer":"1254R","klasa":"","kat":"powiatowa"},"geometry":{"type":"LineString","coordinates":[[22.551208320107182,50.26205485623004],[22.5511,50.26222],[22.55112,50.26257],[22.55147,50.26347],[22.55151,50.264],[22.55136,50.26464],[22.55075,50.26528]]}},{"type":"Feature","properties":{"numer":"1257R","klasa":"","kat":"powiatowa"},"geometry":{"type":"LineString","coordinates":[[22.52364,50.28041],[22.52364,50.27853],[22.5235,50.2779],[22.52069,50.2734],[22.51786,50.26736],[22.5178,50.26666],[22.51804,50.2638],[22.51834,50.26222],[22.51821,50.26147],[22.51797,50.26095],[22.517882878109898,50.260870261320925]]}},{"type":"Feature","properties":{"numer":"1252R","klasa":"","kat":"powiatowa"},"geometry":{"type":"LineString","coordinates":[[22.55075,50.26528],[22.56033,50.26991],[22.5607,50.27003],[22.56129,50.27006],[22.57479,50.2668],[22.57833,50.26582],[22.58147,50.26524],[22.58150806182226,50.26523013212015]]}},{"type":"Feature","properties":{"numer":"1250R","klasa":"","kat":"powiatowa"},"geometry":{"type":"LineString","coordinates":[[22.603886466186406,50.27194386372602],[22.60403,50.27218],[22.60542,50.2764],[22.61368,50.28353]]}},{"type":"Feature","properties":{"numer":"1253R","klasa":"","kat":"powiatowa"},"geometry":{"type":"LineString","coordinates":[[22.57283,50.28601],[22.57811,50.27734],[22.58215,50.27408]]}},{"type":"Feature","properties":{"numer":"1250R","klasa":"","kat":"powiatowa"},"geometry":{"type":"LineString","coordinates":[[22.61368,50.28353],[22.60823,50.28362]]}},{"type":"Feature","properties":{"numer":"1250R","klasa":"","kat":"powiatowa"},"geometry":{"type":"LineString","coordinates":[[22.60823,50.28362],[22.60499,50.28368],[22.60087,50.28348],[22.58072,50.2854],[22.57283,50.28601]]}},{"type":"Feature","properties":{"numer":"1250R","klasa":"","kat":"powiatowa"},"geometry":{"type":"LineString","coordinates":[[22.57283,50.28601],[22.56442,50.28696],[22.56371,50.2871],[22.56344,50.28729],[22.56339,50.28759],[22.5641,50.28948]]}},{"type":"Feature","properties":{"numer":"1249R","klasa":"","kat":"powiatowa"},"geometry":{"type":"LineString","coordinates":[[22.56139,50.30013],[22.56144,50.29941],[22.56229,50.29714],[22.56409,50.29121],[22.56421,50.29028],[22.5641,50.28948]]}},{"type":"Feature","properties":{"numer":"1247R","klasa":"","kat":"powiatowa"},"geometry":{"type":"LineString","coordinates":[[22.59309,50.30975],[22.59719,50.30274],[22.60168,50.30219],[22.60448,50.30173],[22.60567,50.30135],[22.60466,50.29904],[22.60454,50.29844],[22.60448,50.29652],[22.60495,50.28887],[22.60517,50.28847],[22.60599,50.28778],[22.60715,50.287],[22.6073,50.28637],[22.60806,50.28449],[22.60823,50.28362]]}},{"type":"Feature","properties":{"numer":"1250R","klasa":"","kat":"powiatowa"},"geometry":{"type":"LineString","coordinates":[[22.46532,50.29107],[22.46519,50.29081],[22.46543,50.29055],[22.47131,50.28717],[22.47332,50.2847],[22.47375,50.28437],[22.47411,50.28424],[22.48065,50.28435],[22.48793,50.28458],[22.49458,50.28327],[22.49902,50.28275],[22.50198,50.28177],[22.50319,50.28152],[22.51002,50.28066],[22.51089,50.28041],[22.51308,50.27953],[22.51412,50.27934],[22.5148,50.27932],[22.51582,50.27946],[22.52216,50.28163]]}},{"type":"Feature","properties":{"numer":"1250R","klasa":"","kat":"powiatowa"},"geometry":{"type":"LineString","coordinates":[[22.46546,50.29118],[22.46532,50.29107]]}},{"type":"Feature","properties":{"numer":"877","klasa":"droga zbiorcza","kat":"wojewodzka"},"geometry":{"type":"LineString","coordinates":[[22.4427,50.29101],[22.440167730143543,50.291367582775116]]}},{"type":"Feature","properties":{"numer":"877","klasa":"droga zbiorcza","kat":"wojewodzka"},"geometry":{"type":"LineString","coordinates":[[22.4572,50.29616],[22.45485,50.29573],[22.45385,50.29543],[22.4532,50.2951],[22.45,50.29315],[22.44832,50.29252],[22.44519,50.2911],[22.44403,50.2909],[22.4427,50.29101]]}},{"type":"Feature","properties":{"numer":"1250R","klasa":"","kat":"powiatowa"},"geometry":{"type":"LineString","coordinates":[[22.45982,50.29671],[22.46049,50.29564],[22.46145,50.29472],[22.46445,50.29267],[22.46528,50.29196],[22.46566,50.29151],[22.46546,50.29118]]}},{"type":"Feature","properties":{"numer":"877","klasa":"droga zbiorcza","kat":"wojewodzka"},"geometry":{"type":"LineString","coordinates":[[22.45729,50.29617],[22.4572,50.29616]]}},{"type":"Feature","properties":{"numer":"877","klasa":"droga zbiorcza","kat":"wojewodzka"},"geometry":{"type":"LineString","coordinates":[[22.45824,50.29635],[22.45729,50.29617]]}},{"type":"Feature","properties":{"numer":"877","klasa":"droga zbiorcza","kat":"wojewodzka"},"geometry":{"type":"LineString","coordinates":[[22.45882,50.29647],[22.45824,50.29635]]}},{"type":"Feature","properties":{"numer":"877","klasa":"droga zbiorcza","kat":"wojewodzka"},"geometry":{"type":"LineString","coordinates":[[22.45982,50.29671],[22.45882,50.29647]]}},{"type":"Feature","properties":{"numer":"877","klasa":"droga zbiorcza","kat":"wojewodzka"},"geometry":{"type":"LineString","coordinates":[[22.46625,50.29977],[22.46591,50.2995],[22.46501,50.29926],[22.46328,50.29845],[22.46273,50.29831],[22.46114,50.29814],[22.46063,50.298],[22.46017,50.29766],[22.45996,50.29689],[22.45982,50.29671]]}},{"type":"Feature","properties":{"numer":"877","klasa":"droga zbiorcza","kat":"wojewodzka"},"geometry":{"type":"LineString","coordinates":[[22.48824,50.32813],[22.4876,50.32759],[22.48075,50.32366],[22.48026,50.32321],[22.47997,50.32247],[22.47937,50.3187],[22.47864,50.31711],[22.47809,50.31513],[22.47695,50.31351],[22.47496,50.31188],[22.47278,50.30958],[22.46914,50.30423],[22.46625,50.29977]]}},{"type":"Feature","properties":{"numer":"877","klasa":"droga zbiorcza","kat":"wojewodzka"},"geometry":{"type":"LineString","coordinates":[[22.48746,50.32994],[22.4881,50.32942],[22.48837,50.32903],[22.48844,50.32859],[22.48824,50.32813]]}},{"type":"Feature","properties":{"numer":"877","klasa":"droga zbiorcza","kat":"wojewodzka"},"geometry":{"type":"LineString","coordinates":[[22.48724,50.33012],[22.48746,50.32994]]}},{"type":"Feature","properties":{"numer":"1251R","klasa":"","kat":"powiatowa"},"geometry":{"type":"LineString","coordinates":[[22.62889334667473,50.28728181456577],[22.62793,50.28719],[22.62668,50.28697],[22.6206,50.28548],[22.61394,50.28365],[22.61368,50.28353]]}},{"type":"Feature","properties":{"numer":"2937L","klasa":"","kat":"powiatowa"},"geometry":{"type":"LineString","coordinates":[[22.60663,50.31749],[22.60679018876112,50.317462827077456]]}},{"type":"Feature","properties":{"numer":"1246R","klasa":"","kat":"powiatowa"},"geometry":{"type":"LineString","coordinates":[[22.59083,50.32231],[22.59298,50.32302],[22.59592,50.32417],[22.60028,50.3253],[22.60853,50.32957],[22.611676503385322,50.33043361475895]]}},{"type":"Feature","properties":{"numer":"1246R","klasa":"","kat":"powiatowa"},"geometry":{"type":"LineString","coordinates":[[22.615101030509496,50.331544667315775],[22.6164,50.33202],[22.6222,50.33496],[22.63185,50.33895],[22.63258,50.33916],[22.63767,50.34016],[22.63994,50.3407],[22.64089,50.34102],[22.64138,50.3413],[22.64151,50.34164],[22.64073,50.34571],[22.64074,50.34586],[22.64097,50.34603],[22.64435,50.34665],[22.64903,50.34626],[22.65004,50.3464],[22.65412,50.34666],[22.66774,50.3471],[22.66825,50.3472],[22.67553,50.34948],[22.67922,50.3502],[22.677009923664123,50.35537]]}},{"type":"Feature","properties":{"numer":"1246R","klasa":"","kat":"powiatowa"},"geometry":{"type":"LineString","coordinates":[[22.58472,50.32052],[22.58741,50.32121],[22.59083,50.32231]]}},{"type":"Feature","properties":{"numer":"1245R","klasa":"","kat":"powiatowa"},"geometry":{"type":"LineString","coordinates":[[22.58171,50.31966],[22.58065,50.32101],[22.58025,50.32136],[22.57656,50.32315],[22.57604,50.32382],[22.57577,50.32501],[22.57517,50.32597],[22.57221,50.32771],[22.57128,50.32859],[22.56963,50.33454],[22.56762,50.33689],[22.56715,50.3373],[22.56604,50.33795],[22.56497,50.33916],[22.56462,50.3398],[22.56385,50.34204],[22.56315,50.34355],[22.5625,50.34618],[22.56135,50.34719],[22.55996,50.34764],[22.55847,50.34856],[22.5575,50.35081],[22.55652,50.35162],[22.55585,50.35265],[22.55568,50.35401],[22.55552,50.35435]]}},{"type":"Feature","properties":{"numer":"1249R","klasa":"","kat":"powiatowa"},"geometry":{"type":"LineString","coordinates":[[22.56571,50.31181],[22.56468,50.30667],[22.56492,50.30366],[22.56484,50.3031],[22.56434,50.30251],[22.56164,50.30068],[22.56139,50.30027]]}},{"type":"Feature","properties":{"numer":"1247R","klasa":"","kat":"powiatowa"},"geometry":{"type":"LineString","coordinates":[[22.59307,50.30978],[22.59309,50.30975]]}},{"type":"Feature","properties":{"numer":"1247R","klasa":"","kat":"powiatowa"},"geometry":{"type":"LineString","coordinates":[[22.59257,50.31065],[22.59307,50.30978]]}},{"type":"Feature","properties":{"numer":"1247R","klasa":"","kat":"powiatowa"},"geometry":{"type":"LineString","coordinates":[[22.5925,50.31076],[22.59257,50.31065]]}},{"type":"Feature","properties":{"numer":"1247R","klasa":"","kat":"powiatowa"},"geometry":{"type":"LineString","coordinates":[[22.59226,50.31116],[22.5925,50.31076]]}},{"type":"Feature","properties":{"numer":"1247R","klasa":"","kat":"powiatowa"},"geometry":{"type":"LineString","coordinates":[[22.59222,50.31123],[22.59226,50.31116]]}},{"type":"Feature","properties":{"numer":"1246R","klasa":"","kat":"powiatowa"},"geometry":{"type":"LineString","coordinates":[[22.56571,50.31181],[22.57022,50.3129],[22.57097,50.3132],[22.57415,50.31491],[22.57616,50.31677],[22.57938,50.31857],[22.58171,50.31966]]}},{"type":"Feature","properties":{"numer":"1247R","klasa":"","kat":"powiatowa"},"geometry":{"type":"LineString","coordinates":[[22.58472,50.32052],[22.58535,50.31959],[22.5874,50.31802],[22.588,50.31733],[22.5884,50.31587],[22.58825,50.3152],[22.58825,50.31425],[22.58896,50.31287],[22.58945,50.31261],[22.5909,50.31242],[22.59132,50.31229],[22.59179,50.31189],[22.59222,50.31123]]}},{"type":"Feature","properties":{"numer":"1276R","klasa":"","kat":"powiatowa"},"geometry":{"type":"LineString","coordinates":[[22.59083,50.32231],[22.59136,50.32214],[22.59718,50.32085],[22.59933,50.32053],[22.60183,50.31997],[22.60227,50.31978],[22.60544,50.31785],[22.60594,50.31763],[22.60663,50.31749]]}},{"type":"Feature","properties":{"numer":"1246R","klasa":"","kat":"powiatowa"},"geometry":{"type":"LineString","coordinates":[[22.58171,50.31966],[22.58472,50.32052]]}},{"type":"Feature","properties":{"numer":"1254R","klasa":"","kat":"powiatowa"},"geometry":{"type":"LineString","coordinates":[[22.52364,50.28041],[22.52388,50.28038],[22.52787,50.27758],[22.52993,50.27653],[22.53173,50.27571],[22.54125,50.27201],[22.54298,50.27116],[22.54508,50.26993],[22.54618,50.26917],[22.55075,50.26528]]}},{"type":"Feature","properties":{"numer":"1254R","klasa":"","kat":"powiatowa"},"geometry":{"type":"LineString","coordinates":[[22.52364,50.28041],[22.52345,50.28067],[22.52216,50.28163]]}},{"type":"Feature","properties":{"numer":"1250R","klasa":"","kat":"powiatowa"},"geometry":{"type":"LineString","coordinates":[[22.52216,50.28163],[22.52312,50.28209],[22.52439,50.28288],[22.5257,50.28349],[22.5261,50.28381],[22.52662,50.28432],[22.52679,50.28468],[22.52757,50.28836],[22.52792,50.28856],[22.52884,50.28865],[22.52921,50.28878],[22.53082,50.29061],[22.53126,50.2909],[22.5318,50.29103],[22.53561,50.29142],[22.53628,50.29143],[22.54665,50.28998],[22.54742,50.28996],[22.55074,50.29015],[22.56032,50.28936],[22.56103,50.28936],[22.5625,50.28955],[22.5641,50.28948]]}},{"type":"Feature","properties":{"numer":"1249R","klasa":"","kat":"powiatowa"},"geometry":{"type":"LineString","coordinates":[[22.56139,50.30027],[22.56139,50.30013]]}},{"type":"Feature","properties":{"numer":"1246R","klasa":"","kat":"powiatowa"},"geometry":{"type":"LineString","coordinates":[[22.46625,50.29977],[22.46918,50.29981],[22.48207,50.30122],[22.49389,50.30332],[22.49638,50.30365],[22.49858,50.3037],[22.51232,50.30203],[22.51819,50.30196],[22.51924,50.30205],[22.52538,50.30305],[22.53278,50.30354],[22.54063,50.30475],[22.54618,50.30539],[22.54712,50.30569],[22.55809,50.30997],[22.56571,50.31181]]}},{"type":"Feature","properties":{"numer":"1244R","klasa":"","kat":"powiatowa"},"geometry":{"type":"LineString","coordinates":[[22.55552,50.35435],[22.55325,50.35384],[22.54976,50.35288],[22.53621,50.35065],[22.53384,50.35043],[22.53076,50.35057],[22.52968,50.35048],[22.52842,50.35018],[22.522,50.34808],[22.51953,50.34761],[22.51866,50.34733],[22.51794,50.34698],[22.50678,50.34023],[22.50581,50.33981],[22.50308,50.33887],[22.50082,50.33859],[22.49854,50.33801],[22.49772,50.33773],[22.4912,50.3343],[22.49085,50.334],[22.49069,50.3336],[22.48999,50.32919],[22.48972,50.32891],[22.48876,50.32827],[22.48849,50.32812],[22.48824,50.32813]]}},{"type":"Feature","properties":{"numer":"1245R","klasa":"","kat":"powiatowa"},"geometry":{"type":"LineString","coordinates":[[22.55552,50.35435],[22.55446,50.35587],[22.5544,50.35633]]}},{"type":"Feature","properties":{"numer":"1245R","klasa":"","kat":"powiatowa"},"geometry":{"type":"LineString","coordinates":[[22.5544,50.35633],[22.554406233243967,50.35634246648793]]}},{"type":"Feature","properties":{"numer":"877","klasa":"droga zbiorcza","kat":"wojewodzka"},"geometry":{"type":"LineString","coordinates":[[22.48724,50.33012],[22.48678,50.33063]]}},{"type":"Feature","properties":{"numer":"1074R","klasa":"","kat":"powiatowa"},"geometry":{"type":"LineString","coordinates":[[22.48678,50.33063],[22.48636,50.33058]]}},{"type":"Feature","properties":{"numer":"877","klasa":"droga zbiorcza","kat":"wojewodzka"},"geometry":{"type":"LineString","coordinates":[[22.48678,50.33063],[22.4867,50.33125],[22.4872,50.33558],[22.48798,50.33925],[22.48763,50.34165],[22.48734,50.34238],[22.48286,50.35],[22.4827,50.35071],[22.48281,50.35134],[22.483597370379297,50.353084174890846]]}},{"type":"Feature","properties":{"numer":"1074R","klasa":"","kat":"powiatowa"},"geometry":{"type":"LineString","coordinates":[[22.45048740599926,50.33500063258071],[22.4537,50.3344],[22.45509,50.33408],[22.45586,50.3336],[22.46182,50.32924],[22.46229,50.32897],[22.46258,50.32891],[22.4643,50.32897],[22.48636,50.33058]]}},{"type":"Feature","properties":{"numer":"863","klasa":"droga zbiorcza","kat":"wojewodzka"},"geometry":{"type":"LineString","coordinates":[[22.40673576062455,50.39393536780175],[22.41112,50.39288],[22.41492,50.39245],[22.41564,50.39241],[22.41665,50.39245],[22.42216,50.39312],[22.42297,50.393],[22.44205,50.3846],[22.4432,50.38387],[22.44815,50.37976],[22.44968,50.37861],[22.45035,50.37822],[22.45164526986052,50.37766203759854]]}}]}