{"type":"FeatureCollection","features":[{"type":"Feature","properties":{"numer":"1645R","klasa":"droga zbiorcza","kat":"powiatowa"},"geometry":{"type":"LineString","coordinates":[[23.27784,50.28417],[23.28172,50.28236],[23.28542,50.2804],[23.28576,50.28034],[23.29103,50.28107],[23.29137,50.28096],[23.2916,50.28078],[23.29170732664878,50.28040848467731]]}},{"type":"Feature","properties":{"numer":"1645R","klasa":"droga zbiorcza","kat":"powiatowa"},"geometry":{"type":"LineString","coordinates":[[23.26621,50.28956],[23.27784,50.28417]]}},{"type":"Feature","properties":{"numer":"1645R","klasa":"droga zbiorcza","kat":"powiatowa"},"geometry":{"type":"LineString","coordinates":[[23.26621,50.28956],[23.26602,50.28963],[23.26591,50.28978],[23.26195,50.29858],[23.26051,50.30076],[23.26001,50.30114],[23.25637,50.30333],[23.25102,50.30769],[23.24901,50.3086],[23.24805,50.30975],[23.24754,50.3099],[23.24549,50.31009],[23.24304,50.3108],[23.24279,50.31091],[23.24187,50.31166]]}},{"type":"Feature","properties":{"numer":"1634R","klasa":"droga gĹ‚Ăłwna","kat":"powiatowa"},"geometry":{"type":"LineString","coordinates":[[23.163890706506674,50.30456612609402],[23.16493,50.30535],[23.16628,50.30669],[23.16785,50.308],[23.16955,50.30905],[23.17387,50.31201],[23.17592,50.31283],[23.17631,50.31313],[23.1775,50.31585],[23.17948,50.31935],[23.17986,50.32052]]}},{"type":"Feature","properties":{"numer":"865","klasa":"droga gĹ‚Ăłwna","kat":"wojewodzka"},"geometry":{"type":"LineString","coordinates":[[23.21239001515578,50.29828813254145],[23.23586,50.30746],[23.23652,50.3078],[23.24187,50.31166]]}},{"type":"Feature","properties":{"numer":"1637R","klasa":"droga zbiorcza","kat":"powiatowa"},"geometry":{"type":"LineString","coordinates":[[23.196679503673177,50.30237178462641],[23.19619,50.30331],[23.19614,50.30408],[23.19627,50.30529],[23.1962,50.30547],[23.1927,50.30953],[23.18652,50.31878],[23.1877,50.32263],[23.18912,50.32343]]}},{"type":"Feature","properties":{"numer":"1636R","klasa":"droga zbiorcza","kat":"powiatowa"},"geometry":{"type":"LineString","coordinates":[[23.24358,50.31317],[23.24146,50.31387],[23.23952,50.31407],[23.23306,50.31536],[23.22557,50.31661],[23.20942,50.31693],[23.20903,50.317],[23.20052,50.31968],[23.18912,50.32343]]}},{"type":"Feature","properties":{"numer":"1634R","klasa":"droga gĹ‚Ăłwna","kat":"powiatowa"},"geometry":{"type":"LineString","coordinates":[[23.17986,50.32052],[23.17988,50.32059]]}},{"type":"Feature","properties":{"numer":"1634R","klasa":"droga gĹ‚Ăłwna","kat":"powiatowa"},"geometry":{"type":"LineString","coordinates":[[23.17988,50.32059],[23.1801,50.32135],[23.18075,50.3221],[23.18151,50.32275],[23.18387,50.32347],[23.18517,50.32365],[23.18593,50.32385],[23.18757,50.32392],[23.18808,50.32406]]}},{"type":"Feature","properties":{"numer":"1641R","klasa":"droga zbiorcza","kat":"powiatowa"},"geometry":{"type":"LineString","coordinates":[[23.26621,50.28956],[23.26732,50.28972],[23.26949,50.29022],[23.27096,50.29006],[23.27344,50.29],[23.27736,50.29018],[23.28042,50.29047],[23.2819,50.29019],[23.28375,50.29021],[23.28457,50.29035],[23.28533,50.29059],[23.28688,50.29144],[23.28854,50.29206],[23.29323,50.29257],[23.29516,50.29236],[23.29629,50.29247],[23.29881,50.2934],[23.30114,50.29467],[23.30286,50.29549],[23.30336,50.29591],[23.30376,50.29656],[23.30403,50.29681],[23.30487,50.29718],[23.30773,50.29787],[23.31385,50.29846],[23.31644,50.29853],[23.31739,50.2984],[23.32751,50.29437],[23.32837,50.29405],[23.32924,50.2939],[23.33895,50.29364],[23.342,50.29326],[23.34283,50.29322],[23.34934,50.29374],[23.35385,50.2942],[23.35366,50.29874],[23.3533,50.29995],[23.35284,50.30429],[23.352,50.30865],[23.35172,50.31163],[23.35141,50.31256],[23.35118,50.31288],[23.35008,50.31389],[23.34937,50.31441]]}},{"type":"Feature","properties":{"numer":"865","klasa":"droga gĹ‚Ăłwna","kat":"wojewodzka"},"geometry":{"type":"LineString","coordinates":[[23.24187,50.31166],[23.24266,50.31224],[23.24358,50.31317]]}},{"type":"Feature","properties":{"numer":"865","klasa":"droga gĹ‚Ăłwna","kat":"wojewodzka"},"geometry":{"type":"LineString","coordinates":[[23.24358,50.31317],[23.24412,50.31366],[23.24506,50.31404],[23.24564,50.3144],[23.24771,50.31621],[23.24809,50.31641],[23.26727,50.31932],[23.26778,50.31946],[23.28644,50.33019],[23.2911,50.33265],[23.29474,50.33578],[23.29702,50.33739],[23.29803,50.33774],[23.30631,50.3395],[23.30704,50.33971],[23.31009,50.34103],[23.31459,50.34404],[23.31502,50.34443]]}},{"type":"Feature","properties":{"numer":"1641R","klasa":"droga zbiorcza","kat":"powiatowa"},"geometry":{"type":"LineString","coordinates":[[23.34937,50.31441],[23.3488,50.31479],[23.34845,50.31514],[23.34685,50.31768],[23.34569,50.32083],[23.34529,50.32418],[23.3453,50.32697],[23.34511,50.32872],[23.34349,50.33233],[23.34113,50.33582],[23.34048,50.33627],[23.33832,50.33726],[23.33766,50.33781],[23.33445,50.34277],[23.33355,50.34449],[23.33339,50.34558]]}},{"type":"Feature","properties":{"numer":"865","klasa":"droga gĹ‚Ăłwna","kat":"wojewodzka"},"geometry":{"type":"LineString","coordinates":[[23.31502,50.34443],[23.31537,50.34488]]}},{"type":"Feature","properties":{"numer":"","klasa":"droga gĹ‚Ăłwna","kat":"gminna"},"geometry":{"type":"LineString","coordinates":[[23.31537,50.34488],[23.31607,50.34482]]}},{"type":"Feature","properties":{"numer":"","klasa":"droga gĹ‚Ăłwna","kat":"gminna"},"geometry":{"type":"LineString","coordinates":[[23.31607,50.34482],[23.31737,50.34513]]}},{"type":"Feature","properties":{"numer":"865","klasa":"droga gĹ‚Ăłwna","kat":"wojewodzka"},"geometry":{"type":"LineString","coordinates":[[23.3156,50.34535],[23.31537,50.34488]]}},{"type":"Feature","properties":{"numer":"","klasa":"droga gĹ‚Ăłwna","kat":"gminna"},"geometry":{"type":"LineString","coordinates":[[23.31737,50.34513],[23.31825,50.34536]]}},{"type":"Feature","properties":{"numer":"","klasa":"droga gĹ‚Ăłwna","kat":"gminna"},"geometry":{"type":"LineString","coordinates":[[23.31825,50.34536],[23.32007,50.34556]]}},{"type":"Feature","properties":{"numer":"1644R","klasa":"droga zbiorcza","kat":"powiatowa"},"geometry":{"type":"LineString","coordinates":[[23.39521,50.30869],[23.39608,50.30814],[23.39857,50.30715],[23.39886,50.30696],[23.40133,50.30305],[23.403062813805118,50.30115006202079]]}},{"type":"Feature","properties":{"numer":"1643R","klasa":"droga zbiorcza","kat":"powiatowa"},"geometry":{"type":"LineString","coordinates":[[23.39541,50.30886],[23.39712,50.30847],[23.40016,50.30814],[23.40103,50.30814],[23.40331,50.30833],[23.40546,50.30826],[23.40739,50.3085],[23.40798,50.30839],[23.40844,50.30807]]}},{"type":"Feature","properties":{"numer":"1644R","klasa":"droga zbiorcza","kat":"powiatowa"},"geometry":{"type":"LineString","coordinates":[[23.39541,50.30886],[23.39521,50.30869]]}},{"type":"Feature","properties":{"numer":"1644R","klasa":"droga zbiorcza","kat":"powiatowa"},"geometry":{"type":"LineString","coordinates":[[23.39469,50.30903],[23.39521,50.30869]]}},{"type":"Feature","properties":{"numer":"1643R","klasa":"droga zbiorcza","kat":"powiatowa"},"geometry":{"type":"LineString","coordinates":[[23.39469,50.30903],[23.39541,50.30886]]}},{"type":"Feature","properties":{"numer":"1644R","klasa":"droga zbiorcza","kat":"powiatowa"},"geometry":{"type":"LineString","coordinates":[[23.39348,50.31006],[23.39403,50.30951],[23.39469,50.30903]]}},{"type":"Feature","properties":{"numer":"1643R","klasa":"droga zbiorcza","kat":"powiatowa"},"geometry":{"type":"LineString","coordinates":[[23.39333,50.31022],[23.39348,50.31006]]}},{"type":"Feature","properties":{"numer":"1644R","klasa":"droga zbiorcza","kat":"powiatowa"},"geometry":{"type":"LineString","coordinates":[[23.3935,50.31039],[23.39333,50.31022]]}},{"type":"Feature","properties":{"numer":"3538L","klasa":"droga zbiorcza","kat":"powiatowa"},"geometry":{"type":"LineString","coordinates":[[23.40844,50.30807],[23.408462934362934,50.308059575289576]]}},{"type":"Feature","properties":{"numer":"1643R","klasa":"droga zbiorcza","kat":"powiatowa"},"geometry":{"type":"LineString","coordinates":[[23.37009,50.31652],[23.37035,50.31593],[23.37117,50.31529],[23.37585,50.31279],[23.37669,50.31245],[23.38149,50.31125],[23.38369,50.31084],[23.39245,50.3107],[23.39287,50.3106],[23.39333,50.31022]]}},{"type":"Feature","properties":{"numer":"1642R","klasa":"droga zbiorcza","kat":"powiatowa"},"geometry":{"type":"LineString","coordinates":[[23.34937,50.31441],[23.35172,50.31492],[23.35208,50.31494],[23.35369,50.31465],[23.35714,50.31385],[23.35793,50.3137],[23.35845,50.31368],[23.35925,50.31387],[23.36788,50.31672],[23.36847,50.31674],[23.37009,50.31652]]}},{"type":"Feature","properties":{"numer":"1644R","klasa":"droga zbiorcza","kat":"powiatowa"},"geometry":{"type":"LineString","coordinates":[[23.39362,50.32831],[23.39592,50.32412],[23.39627,50.32054],[23.39614,50.31992],[23.39405,50.31531],[23.39403,50.31353],[23.3935,50.31039]]}},{"type":"Feature","properties":{"numer":"1642R","klasa":"droga zbiorcza","kat":"powiatowa"},"geometry":{"type":"LineString","coordinates":[[23.37009,50.31652],[23.37051,50.31737],[23.37183,50.31897],[23.3724,50.31919],[23.37368,50.31917],[23.37399,50.31928],[23.37983,50.32335],[23.38256,50.32423],[23.38465,50.32554],[23.38611,50.32598],[23.39037,50.32831],[23.39094,50.32842],[23.39362,50.32831]]}},{"type":"Feature","properties":{"numer":"1644R","klasa":"droga zbiorcza","kat":"powiatowa"},"geometry":{"type":"LineString","coordinates":[[23.39193,50.33202],[23.3926,50.33163],[23.39321,50.33092],[23.39308,50.32948],[23.39362,50.32831]]}},{"type":"Feature","properties":{"numer":"1723R","klasa":"droga zbiorcza","kat":"powiatowa"},"geometry":{"type":"LineString","coordinates":[[23.39193,50.33202],[23.39349,50.33202],[23.3952,50.33257],[23.39946,50.33316],[23.40262,50.33378],[23.40709,50.3339],[23.40849,50.33384],[23.40945,50.33362],[23.41156,50.33287],[23.41399,50.33258],[23.41605,50.33208],[23.41896,50.33091],[23.42056,50.33038],[23.42219,50.32934],[23.42317,50.32832],[23.42353191067768,50.32810285359339]]}},{"type":"Feature","properties":{"numer":"1644R","klasa":"droga zbiorcza","kat":"powiatowa"},"geometry":{"type":"LineString","coordinates":[[23.3881,50.33393],[23.38855,50.33376],[23.38966,50.33298],[23.39193,50.33202]]}},{"type":"Feature","properties":{"numer":"2408R","klasa":"droga zbiorcza","kat":"powiatowa"},"geometry":{"type":"LineString","coordinates":[[23.3881,50.33393],[23.39369,50.33654],[23.39637,50.33935],[23.39644,50.34023],[23.39566,50.34229]]}},{"type":"Feature","properties":{"numer":"1644R","klasa":"droga zbiorcza","kat":"powiatowa"},"geometry":{"type":"LineString","coordinates":[[23.33561,50.34825],[23.33605,50.34822],[23.33876,50.34751],[23.34768,50.34542],[23.35139,50.34474],[23.35812,50.3432],[23.36128,50.34271],[23.36436,50.34168],[23.36527,50.34146],[23.36685,50.34126],[23.36878,50.34079],[23.37204,50.33959],[23.37452,50.33905],[23.37651,50.33873],[23.37834,50.33805],[23.37961,50.33744],[23.38042,50.33686],[23.38201,50.33547],[23.38275,50.33501],[23.38455,50.33456],[23.3881,50.33393]]}},{"type":"Feature","properties":{"numer":"2408R","klasa":"droga zbiorcza","kat":"powiatowa"},"geometry":{"type":"LineString","coordinates":[[23.396,50.34254],[23.39958,50.34104],[23.40095,50.34065],[23.40249,50.34057],[23.40775,50.34105],[23.41033,50.34115],[23.41293,50.34116],[23.41578,50.34136],[23.42079,50.3421],[23.42789,50.34266],[23.42945,50.34309],[23.43334,50.34371]]}},{"type":"Feature","properties":{"numer":"2408R","klasa":"droga zbiorcza","kat":"powiatowa"},"geometry":{"type":"LineString","coordinates":[[23.39566,50.34229],[23.39577,50.34247],[23.396,50.34254]]}},{"type":"Feature","properties":{"numer":"2408R","klasa":"droga zbiorcza","kat":"powiatowa"},"geometry":{"type":"LineString","coordinates":[[23.43334,50.34371],[23.43515,50.34422]]}},{"type":"Feature","properties":{"numer":"1641R","klasa":"droga zbiorcza","kat":"powiatowa"},"geometry":{"type":"LineString","coordinates":[[23.34867,50.3596],[23.35983,50.3588],[23.36468,50.35812],[23.36684,50.35805],[23.3706,50.35841],[23.37301,50.35843],[23.37808,50.35862],[23.39509,50.3577],[23.39868,50.35799],[23.40504,50.35898]]}},{"type":"Feature","properties":{"numer":"865","klasa":"droga gĹ‚Ăłwna","kat":"wojewodzka"},"geometry":{"type":"LineString","coordinates":[[23.375223194789083,50.37319653225806],[23.37461,50.37307],[23.3727,50.3725],[23.37019,50.37227],[23.36805,50.37116],[23.36259,50.36975],[23.35533,50.3666],[23.34394,50.3639],[23.34346,50.36365],[23.34098,50.36183],[23.33479,50.35759]]}},{"type":"Feature","properties":{"numer":"3544L","klasa":"","kat":"powiatowa"},"geometry":{"type":"LineString","coordinates":[[23.3824,50.39885],[23.382775035171154,50.39876861406843]]}},{"type":"Feature","properties":{"numer":"3544L","klasa":"","kat":"powiatowa"},"geometry":{"type":"LineString","coordinates":[[23.38119,50.39902],[23.38151,50.39901],[23.382,50.39894],[23.3824,50.39885]]}},{"type":"Feature","properties":{"numer":"3544L","klasa":"","kat":"powiatowa"},"geometry":{"type":"LineString","coordinates":[[23.38094164040114,50.39902181948424],[23.38119,50.39902]]}},{"type":"Feature","properties":{"numer":"2407R","klasa":"","kat":"powiatowa"},"geometry":{"type":"LineString","coordinates":[[23.35511,50.40364],[23.35514,50.40373]]}},{"type":"Feature","properties":{"numer":"","klasa":"droga gĹ‚Ăłwna","kat":"gminna"},"geometry":{"type":"LineString","coordinates":[[23.32007,50.34556],[23.3209,50.34563]]}},{"type":"Feature","properties":{"numer":"1641R","klasa":"droga zbiorcza","kat":"powiatowa"},"geometry":{"type":"LineString","coordinates":[[23.33342,50.34571],[23.33339,50.34558]]}},{"type":"Feature","properties":{"numer":"","klasa":"droga gĹ‚Ăłwna","kat":"gminna"},"geometry":{"type":"LineString","coordinates":[[23.32193,50.34567],[23.32378,50.34559],[23.32445,50.34571]]}},{"type":"Feature","properties":{"numer":"","klasa":"droga gĹ‚Ăłwna","kat":"gminna"},"geometry":{"type":"LineString","coordinates":[[23.3209,50.34563],[23.32193,50.34567]]}},{"type":"Feature","properties":{"numer":"","klasa":"droga gĹ‚Ăłwna","kat":"gminna"},"geometry":{"type":"LineString","coordinates":[[23.32445,50.34571],[23.32484,50.34583]]}},{"type":"Feature","properties":{"numer":"","klasa":"droga gĹ‚Ăłwna","kat":"gminna"},"geometry":{"type":"LineString","coordinates":[[23.32484,50.34583],[23.32626,50.34628]]}},{"type":"Feature","properties":{"numer":"","klasa":"droga gĹ‚Ăłwna","kat":"gminna"},"geometry":{"type":"LineString","coordinates":[[23.32676,50.34668],[23.32626,50.34628]]}},{"type":"Feature","properties":{"numer":"","klasa":"droga gĹ‚Ăłwna","kat":"gminna"},"geometry":{"type":"LineString","coordinates":[[23.32688,50.34691],[23.32676,50.34668]]}},{"type":"Feature","properties":{"numer":"","klasa":"droga gĹ‚Ăłwna","kat":"gminna"},"geometry":{"type":"LineString","coordinates":[[23.3269,50.34697],[23.32688,50.34691]]}},{"type":"Feature","properties":{"numer":"1641R","klasa":"droga zbiorcza","kat":"powiatowa"},"geometry":{"type":"LineString","coordinates":[[23.33342,50.34571],[23.33367,50.34633],[23.33561,50.34825]]}},{"type":"Feature","properties":{"numer":"865","klasa":"droga gĹ‚Ăłwna","kat":"wojewodzka"},"geometry":{"type":"LineString","coordinates":[[23.31665,50.34881],[23.3156,50.34535]]}},{"type":"Feature","properties":{"numer":"","klasa":"droga gĹ‚Ăłwna","kat":"gminna"},"geometry":{"type":"LineString","coordinates":[[23.3269,50.34697],[23.32697,50.34738]]}},{"type":"Feature","properties":{"numer":"","klasa":"droga gĹ‚Ăłwna","kat":"gminna"},"geometry":{"type":"LineString","coordinates":[[23.32697,50.34738],[23.32707,50.34808]]}},{"type":"Feature","properties":{"numer":"","klasa":"droga gĹ‚Ăłwna","kat":"gminna"},"geometry":{"type":"LineString","coordinates":[[23.32707,50.34808],[23.32706,50.34846]]}},{"type":"Feature","properties":{"numer":"1644R","klasa":"droga zbiorcza","kat":"powiatowa"},"geometry":{"type":"LineString","coordinates":[[23.32706,50.34846],[23.33028,50.34839],[23.33327,50.34866],[23.33478,50.34812],[23.33522,50.34814],[23.33561,50.34825]]}},{"type":"Feature","properties":{"numer":"1639R","klasa":"droga zbiorcza","kat":"powiatowa"},"geometry":{"type":"LineString","coordinates":[[23.32338,50.34909],[23.32579,50.34912],[23.3262,50.34901],[23.32625,50.34843],[23.32706,50.34846]]}},{"type":"Feature","properties":{"numer":"","klasa":"droga gĹ‚Ăłwna","kat":"gminna"},"geometry":{"type":"LineString","coordinates":[[23.32706,50.34846],[23.32682,50.34918]]}},{"type":"Feature","properties":{"numer":"1639R","klasa":"droga zbiorcza","kat":"powiatowa"},"geometry":{"type":"LineString","coordinates":[[23.32332,50.34909],[23.32338,50.34909]]}},{"type":"Feature","properties":{"numer":"","klasa":"droga gĹ‚Ăłwna","kat":"gminna"},"geometry":{"type":"LineString","coordinates":[[23.32682,50.34918],[23.32681,50.34958]]}},{"type":"Feature","properties":{"numer":"","klasa":"droga gĹ‚Ăłwna","kat":"gminna"},"geometry":{"type":"LineString","coordinates":[[23.32681,50.34958],[23.32682,50.34968]]}},{"type":"Feature","properties":{"numer":"865","klasa":"droga gĹ‚Ăłwna","kat":"wojewodzka"},"geometry":{"type":"LineString","coordinates":[[23.31729,50.35048],[23.31665,50.34881]]}},{"type":"Feature","properties":{"numer":"1639R","klasa":"droga zbiorcza","kat":"powiatowa"},"geometry":{"type":"LineString","coordinates":[[23.31806,50.35042],[23.31901,50.3503],[23.32205,50.349],[23.32248,50.34898],[23.32332,50.34909]]}},{"type":"Feature","properties":{"numer":"","klasa":"droga gĹ‚Ăłwna","kat":"gminna"},"geometry":{"type":"LineString","coordinates":[[23.32682,50.34968],[23.32691,50.35028]]}},{"type":"Feature","properties":{"numer":"1639R","klasa":"droga zbiorcza","kat":"powiatowa"},"geometry":{"type":"LineString","coordinates":[[23.31729,50.35048],[23.31806,50.35042]]}},{"type":"Feature","properties":{"numer":"1639R","klasa":"droga zbiorcza","kat":"powiatowa"},"geometry":{"type":"LineString","coordinates":[[23.31673,50.35052],[23.31729,50.35048]]}},{"type":"Feature","properties":{"numer":"","klasa":"droga gĹ‚Ăłwna","kat":"gminna"},"geometry":{"type":"LineString","coordinates":[[23.32691,50.35028],[23.32699,50.35079]]}},{"type":"Feature","properties":{"numer":"","klasa":"droga gĹ‚Ăłwna","kat":"gminna"},"geometry":{"type":"LineString","coordinates":[[23.32699,50.35079],[23.32718,50.35143]]}},{"type":"Feature","properties":{"numer":"865","klasa":"droga gĹ‚Ăłwna","kat":"wojewodzka"},"geometry":{"type":"LineString","coordinates":[[23.31792,50.3519],[23.31729,50.35048]]}},{"type":"Feature","properties":{"numer":"","klasa":"droga gĹ‚Ăłwna","kat":"gminna"},"geometry":{"type":"LineString","coordinates":[[23.32718,50.35143],[23.32724,50.35156]]}},{"type":"Feature","properties":{"numer":"","klasa":"droga gĹ‚Ăłwna","kat":"gminna"},"geometry":{"type":"LineString","coordinates":[[23.32724,50.35156],[23.32743,50.35193]]}},{"type":"Feature","properties":{"numer":"","klasa":"droga gĹ‚Ăłwna","kat":"gminna"},"geometry":{"type":"LineString","coordinates":[[23.32743,50.35193],[23.32812,50.35321]]}},{"type":"Feature","properties":{"numer":"","klasa":"droga gĹ‚Ăłwna","kat":"gminna"},"geometry":{"type":"LineString","coordinates":[[23.32812,50.35321],[23.3284,50.35374]]}},{"type":"Feature","properties":{"numer":"1641R","klasa":"droga zbiorcza","kat":"powiatowa"},"geometry":{"type":"LineString","coordinates":[[23.33561,50.34825],[23.33747,50.34966],[23.3384,50.35055],[23.34089,50.35264],[23.34292,50.35459],[23.34359,50.35564],[23.34342,50.35638],[23.34347,50.35669],[23.34417,50.3578],[23.34523,50.3584],[23.34867,50.3596]]}},{"type":"Feature","properties":{"numer":"","klasa":"droga gĹ‚Ăłwna","kat":"gminna"},"geometry":{"type":"LineString","coordinates":[[23.3284,50.35374],[23.3287,50.3543]]}},{"type":"Feature","properties":{"numer":"","klasa":"droga gĹ‚Ăłwna","kat":"gminna"},"geometry":{"type":"LineString","coordinates":[[23.3287,50.3543],[23.3288,50.3545]]}},{"type":"Feature","properties":{"numer":"865","klasa":"droga gĹ‚Ăłwna","kat":"wojewodzka"},"geometry":{"type":"LineString","coordinates":[[23.32174,50.35695],[23.32043,50.3562],[23.31956,50.35534],[23.31912,50.35459],[23.31792,50.3519]]}},{"type":"Feature","properties":{"numer":"","klasa":"droga gĹ‚Ăłwna","kat":"gminna"},"geometry":{"type":"LineString","coordinates":[[23.3288,50.3545],[23.32919,50.35524]]}},{"type":"Feature","properties":{"numer":"1639R","klasa":"droga zbiorcza","kat":"powiatowa"},"geometry":{"type":"LineString","coordinates":[[23.28629,50.36195],[23.30635,50.35559],[23.30795,50.35467],[23.30953,50.35341],[23.31108,50.3515],[23.31128,50.35137],[23.31673,50.35052]]}},{"type":"Feature","properties":{"numer":"","klasa":"droga gĹ‚Ăłwna","kat":"gminna"},"geometry":{"type":"LineString","coordinates":[[23.33016,50.35707],[23.32993,50.35664]]}},{"type":"Feature","properties":{"numer":"865","klasa":"droga gĹ‚Ăłwna","kat":"wojewodzka"},"geometry":{"type":"LineString","coordinates":[[23.33082,50.35685],[23.33016,50.35707]]}},{"type":"Feature","properties":{"numer":"865","klasa":"droga gĹ‚Ăłwna","kat":"wojewodzka"},"geometry":{"type":"LineString","coordinates":[[23.33016,50.35707],[23.32945,50.35716]]}},{"type":"Feature","properties":{"numer":"865","klasa":"droga gĹ‚Ăłwna","kat":"wojewodzka"},"geometry":{"type":"LineString","coordinates":[[23.33479,50.35759],[23.33369,50.35693],[23.33276,50.35669],[23.33169,50.35667],[23.33082,50.35685]]}},{"type":"Feature","properties":{"numer":"","klasa":"droga gĹ‚Ăłwna","kat":"gminna"},"geometry":{"type":"LineString","coordinates":[[23.33052,50.35742],[23.33016,50.35707]]}},{"type":"Feature","properties":{"numer":"865","klasa":"droga gĹ‚Ăłwna","kat":"wojewodzka"},"geometry":{"type":"LineString","coordinates":[[23.32401,50.35757],[23.32299,50.35738],[23.32174,50.35695]]}},{"type":"Feature","properties":{"numer":"865","klasa":"droga gĹ‚Ăłwna","kat":"wojewodzka"},"geometry":{"type":"LineString","coordinates":[[23.32945,50.35716],[23.32625,50.3576]]}},{"type":"Feature","properties":{"numer":"865","klasa":"droga gĹ‚Ăłwna","kat":"wojewodzka"},"geometry":{"type":"LineString","coordinates":[[23.32625,50.3576],[23.32525,50.35765],[23.32401,50.35757]]}},{"type":"Feature","properties":{"numer":"","klasa":"droga gĹ‚Ăłwna","kat":"gminna"},"geometry":{"type":"LineString","coordinates":[[23.33052,50.35742],[23.331,50.35784]]}},{"type":"Feature","properties":{"numer":"","klasa":"droga gĹ‚Ăłwna","kat":"gminna"},"geometry":{"type":"LineString","coordinates":[[23.331,50.35784],[23.33148,50.35815]]}},{"type":"Feature","properties":{"numer":"105154R","klasa":"droga lokalna","kat":"powiatowa"},"geometry":{"type":"LineString","coordinates":[[23.33241,50.35858],[23.33479,50.35759]]}},{"type":"Feature","properties":{"numer":"","klasa":"droga gĹ‚Ăłwna","kat":"gminna"},"geometry":{"type":"LineString","coordinates":[[23.33148,50.35815],[23.33241,50.35858]]}},{"type":"Feature","properties":{"numer":"1636R","klasa":"droga zbiorcza","kat":"powiatowa"},"geometry":{"type":"LineString","coordinates":[[23.18912,50.32343],[23.18845,50.3238]]}},{"type":"Feature","properties":{"numer":"1636R","klasa":"droga zbiorcza","kat":"powiatowa"},"geometry":{"type":"LineString","coordinates":[[23.1884,50.32383],[23.18845,50.3238]]}},{"type":"Feature","properties":{"numer":"1636R","klasa":"droga zbiorcza","kat":"powiatowa"},"geometry":{"type":"LineString","coordinates":[[23.18808,50.32406],[23.1884,50.32383]]}},{"type":"Feature","properties":{"numer":"1634R","klasa":"droga gĹ‚Ăłwna","kat":"powiatowa"},"geometry":{"type":"LineString","coordinates":[[23.18808,50.32406],[23.18823,50.32421],[23.1886,50.3253],[23.18877,50.32554],[23.19258,50.32857],[23.19309,50.32921],[23.19695,50.33865],[23.1979,50.34382],[23.19319,50.35881],[23.19314,50.35925],[23.19997,50.37616]]}},{"type":"Feature","properties":{"numer":"1635R","klasa":"","kat":"powiatowa"},"geometry":{"type":"LineString","coordinates":[[23.20777,50.37285],[23.2088,50.37295],[23.21008,50.37266],[23.21144,50.37255]]}},{"type":"Feature","properties":{"numer":"1635R","klasa":"","kat":"powiatowa"},"geometry":{"type":"LineString","coordinates":[[23.19997,50.37616],[23.20048,50.37602],[23.20267,50.37486],[23.20373,50.37453],[23.20396,50.3744],[23.20432,50.37395],[23.20488,50.3737],[23.20534,50.37352],[23.20678,50.37325],[23.20777,50.37285]]}},{"type":"Feature","properties":{"numer":"1634R,1635R","klasa":"droga gĹ‚Ăłwna","kat":"powiatowa"},"geometry":{"type":"LineString","coordinates":[[23.19989,50.37796],[23.20012,50.37712],[23.19997,50.37616]]}},{"type":"Feature","properties":{"numer":"1635R","klasa":"","kat":"powiatowa"},"geometry":{"type":"LineString","coordinates":[[23.18873,50.38434],[23.18942,50.38406],[23.19047,50.38381],[23.19166,50.38295],[23.19247,50.38255],[23.19277,50.38206],[23.19286,50.38162],[23.19322,50.38091],[23.19361,50.38028],[23.19409,50.37988],[23.1954,50.37936],[23.19794,50.37885],[23.1986,50.37842],[23.19989,50.37796]]}},{"type":"Feature","properties":{"numer":"1634R","klasa":"droga gĹ‚Ăłwna","kat":"powiatowa"},"geometry":{"type":"LineString","coordinates":[[23.20456,50.38755],[23.20367,50.38512],[23.2004,50.37916],[23.19989,50.37796]]}},{"type":"Feature","properties":{"numer":"3546L","klasa":"droga gĹ‚Ăłwna","kat":"powiatowa"},"geometry":{"type":"LineString","coordinates":[[23.204564368066325,50.38755995198616],[23.20456,50.38755]]}},{"type":"Feature","properties":{"numer":"1640R","klasa":"droga zbiorcza","kat":"powiatowa"},"geometry":{"type":"LineString","coordinates":[[23.33185,50.35884],[23.33241,50.35858]]}},{"type":"Feature","properties":{"numer":"","klasa":"droga gĹ‚Ăłwna","kat":"gminna"},"geometry":{"type":"LineString","coordinates":[[23.33241,50.35858],[23.33555,50.35916]]}},{"type":"Feature","properties":{"numer":"1639R","klasa":"droga zbiorcza","kat":"powiatowa"},"geometry":{"type":"LineString","coordinates":[[23.27939,50.36542],[23.28365,50.36297],[23.28629,50.36195]]}},{"type":"Feature","properties":{"numer":"1640R","klasa":"droga zbiorcza","kat":"powiatowa"},"geometry":{"type":"LineString","coordinates":[[23.294543656884876,50.3771143792325],[23.29486,50.3771],[23.29849,50.37633],[23.30268,50.37421],[23.30398,50.37388],[23.30527,50.37324],[23.3068,50.37265],[23.30925,50.37223],[23.3119,50.37064],[23.31296,50.37022],[23.3139,50.37002],[23.31696,50.3696],[23.31885,50.36913],[23.31935,50.36871],[23.32135,50.36602],[23.32195,50.36537],[23.32356,50.36442],[23.32454,50.36366],[23.32564,50.36262],[23.32888,50.36036],[23.3303,50.3595],[23.33185,50.35884]]}},{"type":"Feature","properties":{"numer":"2407R","klasa":"","kat":"powiatowa"},"geometry":{"type":"LineString","coordinates":[[23.33185,50.35884],[23.33305,50.36043],[23.33351,50.36121],[23.33396,50.36305],[23.33495,50.36497],[23.33512,50.36649],[23.35219,50.3987],[23.35339,50.40086],[23.35452,50.40227],[23.35511,50.40364]]}},{"type":"Feature","properties":{"numer":"3544L","klasa":"","kat":"powiatowa"},"geometry":{"type":"LineString","coordinates":[[23.349299768827457,50.40059933508103],[23.34945,50.40057]]}}]}