{"type":"FeatureCollection","features":[{"type":"Feature","properties":{"numer":"858","klasa":"droga zbiorcza","kat":"wojewodzka"},"geometry":{"type":"LineString","coordinates":[[22.40687,50.48206],[22.406985652173905,50.48205173913043]]}},{"type":"Feature","properties":{"numer":"","klasa":"droga lokalna","kat":"gminna"},"geometry":{"type":"LineString","coordinates":[[22.28328,50.43195],[22.28427,50.43208]]}},{"type":"Feature","properties":{"numer":"","klasa":"droga lokalna","kat":"gminna"},"geometry":{"type":"LineString","coordinates":[[22.28427,50.43208],[22.28587,50.43232]]}},{"type":"Feature","properties":{"numer":"","klasa":"droga lokalna","kat":"gminna"},"geometry":{"type":"LineString","coordinates":[[22.28587,50.43232],[22.28613,50.43237]]}},{"type":"Feature","properties":{"numer":"","klasa":"droga lokalna","kat":"gminna"},"geometry":{"type":"LineString","coordinates":[[22.28613,50.43237],[22.28776,50.43274],[22.28829,50.433],[22.28844,50.43322]]}},{"type":"Feature","properties":{"numer":"","klasa":"droga lokalna","kat":"gminna"},"geometry":{"type":"LineString","coordinates":[[22.28844,50.43322],[22.29027,50.43633]]}},{"type":"Feature","properties":{"numer":"","klasa":"droga lokalna","kat":"gminna"},"geometry":{"type":"LineString","coordinates":[[22.29027,50.43633],[22.29218,50.43954]]}},{"type":"Feature","properties":{"numer":"","klasa":"droga lokalna","kat":"gminna"},"geometry":{"type":"LineString","coordinates":[[22.29218,50.43954],[22.2935,50.44179],[22.29358,50.44221],[22.29337,50.44242]]}},{"type":"Feature","properties":{"numer":"","klasa":"droga lokalna","kat":"gminna"},"geometry":{"type":"LineString","coordinates":[[22.29337,50.44242],[22.29331,50.44251]]}},{"type":"Feature","properties":{"numer":"","klasa":"droga lokalna","kat":"gminna"},"geometry":{"type":"LineString","coordinates":[[22.29331,50.44251],[22.29326,50.44269]]}},{"type":"Feature","properties":{"numer":"","klasa":"droga lokalna","kat":"gminna"},"geometry":{"type":"LineString","coordinates":[[22.29326,50.44269],[22.29327,50.44286]]}},{"type":"Feature","properties":{"numer":"","klasa":"droga lokalna","kat":"gminna"},"geometry":{"type":"LineString","coordinates":[[22.29327,50.44286],[22.29327,50.44308]]}},{"type":"Feature","properties":{"numer":"","klasa":"droga lokalna","kat":"gminna"},"geometry":{"type":"LineString","coordinates":[[22.29327,50.44308],[22.29318,50.44356]]}},{"type":"Feature","properties":{"numer":"","klasa":"droga lokalna","kat":"gminna"},"geometry":{"type":"LineString","coordinates":[[22.29318,50.44356],[22.29231,50.44407]]}},{"type":"Feature","properties":{"numer":"","klasa":"droga lokalna","kat":"gminna"},"geometry":{"type":"LineString","coordinates":[[22.29231,50.44407],[22.29196,50.44428]]}},{"type":"Feature","properties":{"numer":"","klasa":"droga lokalna","kat":"gminna"},"geometry":{"type":"LineString","coordinates":[[22.29196,50.44428],[22.29004,50.44543],[22.28863,50.44593],[22.28777,50.44652]]}},{"type":"Feature","properties":{"numer":"1062R","klasa":"","kat":"powiatowa"},"geometry":{"type":"LineString","coordinates":[[22.28626,50.45059],[22.2909,50.44905],[22.29201,50.44821],[22.29322,50.44661],[22.29416,50.44609],[22.29728,50.44517],[22.30277,50.44288]]}},{"type":"Feature","properties":{"numer":"","klasa":"droga lokalna","kat":"gminna"},"geometry":{"type":"LineString","coordinates":[[22.28777,50.44652],[22.2874,50.44698]]}},{"type":"Feature","properties":{"numer":"","klasa":"droga lokalna","kat":"gminna"},"geometry":{"type":"LineString","coordinates":[[22.2874,50.44698],[22.28722,50.44751]]}},{"type":"Feature","properties":{"numer":"","klasa":"","kat":"gminna"},"geometry":{"type":"LineString","coordinates":[[22.2862,50.45044],[22.28626,50.45059]]}},{"type":"Feature","properties":{"numer":"1062R","klasa":"","kat":"powiatowa"},"geometry":{"type":"LineString","coordinates":[[22.30387,50.44044],[22.30378,50.43957],[22.30355,50.43886],[22.30559,50.43375],[22.30611,50.43297],[22.30853,50.43125],[22.30924,50.42993],[22.31212,50.42795],[22.31335,50.42733],[22.314749501599806,50.42709269320699]]}},{"type":"Feature","properties":{"numer":"1062R","klasa":"","kat":"powiatowa"},"geometry":{"type":"LineString","coordinates":[[22.30277,50.44288],[22.30374,50.44239],[22.30412,50.44194],[22.30419,50.44148],[22.30387,50.44044]]}},{"type":"Feature","properties":{"numer":"1070R","klasa":"","kat":"powiatowa"},"geometry":{"type":"LineString","coordinates":[[22.34648572784806,50.444832837552745],[22.34425,50.4451],[22.34273,50.44515],[22.34210201906205,50.44509917125567]]}},{"type":"Feature","properties":{"numer":"1070R","klasa":"","kat":"powiatowa"},"geometry":{"type":"LineString","coordinates":[[22.339674602905756,50.44490269631874],[22.3389,50.44484],[22.33827,50.44519],[22.33703,50.44547],[22.33629,50.4456],[22.33441,50.44575],[22.33254,50.44546],[22.33158,50.44544],[22.32729,50.44425],[22.32596,50.44423],[22.32405,50.44439],[22.32343,50.4445],[22.32143,50.4451],[22.32073,50.44524],[22.31849,50.44606],[22.3177,50.44659],[22.31785,50.44715],[22.31768,50.44736],[22.31704,50.44755],[22.31572,50.44768],[22.31117,50.44656],[22.30714,50.44451],[22.30277,50.44288]]}},{"type":"Feature","properties":{"numer":"858","klasa":"droga zbiorcza","kat":"wojewodzka"},"geometry":{"type":"LineString","coordinates":[[22.30518,50.49058],[22.31042,50.49044],[22.31423,50.49089],[22.31537,50.49095],[22.32426,50.49074],[22.32786,50.49121],[22.3312,50.49143],[22.348,50.49187],[22.35611,50.49097],[22.36272,50.49066],[22.3636,50.49049],[22.3682,50.48927],[22.37009,50.48911],[22.37181,50.48912]]}},{"type":"Feature","properties":{"numer":"1039R","klasa":"","kat":"powiatowa"},"geometry":{"type":"LineString","coordinates":[[22.30693,50.50054],[22.3067,50.50016],[22.3068,50.49948],[22.3066,50.49905],[22.30485,50.49685],[22.30549,50.49549],[22.30494,50.49305],[22.30518,50.49058]]}},{"type":"Feature","properties":{"numer":"858","klasa":"droga zbiorcza","kat":"wojewodzka"},"geometry":{"type":"LineString","coordinates":[[22.3812,50.48541],[22.38103,50.48484],[22.38111,50.48427],[22.38207,50.48217],[22.38213,50.48208],[22.38304,50.48169],[22.38361,50.48123],[22.38401,50.48113],[22.38456,50.4811],[22.38558,50.48122],[22.38716,50.48122],[22.38857,50.48147],[22.38935,50.48183],[22.39006,50.48196],[22.39081,50.48188],[22.3912,50.48167],[22.3916,50.48161],[22.39196,50.48137],[22.39203,50.48107],[22.39225,50.48103],[22.39506,50.48106],[22.39747,50.48148],[22.39841,50.48144],[22.39975,50.48124],[22.40055,50.48121],[22.40133,50.48128],[22.40312,50.48184],[22.40356,50.48228],[22.4038,50.48295],[22.40396,50.48302],[22.40603,50.48246],[22.40687,50.48206]]}},{"type":"Feature","properties":{"numer":"858","klasa":"droga zbiorcza","kat":"wojewodzka"},"geometry":{"type":"LineString","coordinates":[[22.37181,50.48912],[22.3739,50.48867],[22.37568,50.48857],[22.37792,50.48815],[22.37884,50.48815],[22.37948,50.48796],[22.3803,50.48743],[22.38136,50.48626],[22.38145,50.48593],[22.3812,50.48541]]}},{"type":"Feature","properties":{"numer":"1064R","klasa":"droga zbiorcza","kat":"powiatowa"},"geometry":{"type":"LineString","coordinates":[[22.37181,50.48912],[22.37178,50.48951],[22.36967,50.49705],[22.36971,50.4975],[22.37069,50.50106],[22.37097,50.50368]]}},{"type":"Feature","properties":{"numer":"1048R","klasa":"droga zbiorcza","kat":"powiatowa"},"geometry":{"type":"LineString","coordinates":[[22.37097,50.50368],[22.36483,50.50557],[22.36312,50.50597],[22.36269,50.5062]]}},{"type":"Feature","properties":{"numer":"1048R","klasa":"droga zbiorcza","kat":"powiatowa"},"geometry":{"type":"LineString","coordinates":[[22.36254,50.50643],[22.36269,50.5062]]}},{"type":"Feature","properties":{"numer":"1062R","klasa":"","kat":"powiatowa"},"geometry":{"type":"LineString","coordinates":[[22.2815,50.46338],[22.28194,50.4623],[22.28224,50.461],[22.28427,50.45598],[22.28607,50.4508],[22.28626,50.45059]]}},{"type":"Feature","properties":{"numer":"1062R","klasa":"","kat":"powiatowa"},"geometry":{"type":"LineString","coordinates":[[22.26597,50.48714],[22.26623,50.48649],[22.26833,50.48425],[22.26982,50.48289],[22.27238,50.48113],[22.27325,50.48022],[22.27376,50.47918],[22.27478,50.47753],[22.27637,50.4752],[22.2815,50.46338]]}},{"type":"Feature","properties":{"numer":"1063R","klasa":"","kat":"powiatowa"},"geometry":{"type":"LineString","coordinates":[[22.2815,50.46338],[22.28304,50.46425],[22.28566,50.46626],[22.2865,50.4665],[22.28941,50.46705],[22.29332,50.46794],[22.29514,50.46869],[22.29567,50.46939],[22.29597,50.46958],[22.29633,50.46959],[22.29726,50.46926],[22.29759,50.46928],[22.29856,50.47004],[22.30226,50.47258],[22.30325,50.47301],[22.30501,50.47336],[22.30456,50.47536],[22.30464,50.47569],[22.30492,50.47605],[22.30503,50.47681],[22.30455,50.47771],[22.3037,50.47863],[22.30338,50.47981],[22.30297,50.4806],[22.3025,50.48121],[22.30128,50.48238],[22.30028,50.48388],[22.29657,50.48624],[22.29463,50.487],[22.29306,50.48734],[22.28973,50.48752],[22.28884,50.48771],[22.28635,50.48845],[22.28431,50.48852],[22.28226,50.48869],[22.28194,50.48882],[22.2816,50.48913],[22.28038,50.49078]]}},{"type":"Feature","properties":{"numer":"1060R","klasa":"","kat":"powiatowa"},"geometry":{"type":"LineString","coordinates":[[22.26395798697925,50.485108303939846],[22.265,50.48614]]}},{"type":"Feature","properties":{"numer":"1060R","klasa":"","kat":"powiatowa"},"geometry":{"type":"LineString","coordinates":[[22.265,50.48614],[22.26597,50.48714]]}},{"type":"Feature","properties":{"numer":"1062R","klasa":"","kat":"powiatowa"},"geometry":{"type":"LineString","coordinates":[[22.2653,50.4895],[22.26574,50.48851],[22.26597,50.48714]]}},{"type":"Feature","properties":{"numer":"858","klasa":"droga zbiorcza","kat":"wojewodzka"},"geometry":{"type":"LineString","coordinates":[[22.2653,50.4895],[22.26798,50.48993]]}},{"type":"Feature","properties":{"numer":"858","klasa":"droga zbiorcza","kat":"wojewodzka"},"geometry":{"type":"LineString","coordinates":[[22.26735,50.49113],[22.26351,50.49077],[22.26402,50.48946],[22.26419,50.48942],[22.2653,50.4895]]}},{"type":"Feature","properties":{"numer":"858","klasa":"droga zbiorcza","kat":"wojewodzka"},"geometry":{"type":"LineString","coordinates":[[22.26798,50.48993],[22.27062,50.49033],[22.28038,50.49078]]}},{"type":"Feature","properties":{"numer":"858","klasa":"droga zbiorcza","kat":"wojewodzka"},"geometry":{"type":"LineString","coordinates":[[22.2608884487162,50.51698233095847],[22.26403,50.51644]]}},{"type":"Feature","properties":{"numer":"1039R","klasa":"","kat":"powiatowa"},"geometry":{"type":"LineString","coordinates":[[22.30735,50.50118],[22.30693,50.50054]]}},{"type":"Feature","properties":{"numer":"1039R","klasa":"","kat":"powiatowa"},"geometry":{"type":"LineString","coordinates":[[22.30765,50.50374],[22.30774,50.50315],[22.30761,50.50175],[22.30735,50.50118]]}},{"type":"Feature","properties":{"numer":"","klasa":"droga lokalna","kat":"gminna"},"geometry":{"type":"LineString","coordinates":[[22.30878,50.50414],[22.30765,50.50374]]}},{"type":"Feature","properties":{"numer":"","klasa":"droga lokalna","kat":"gminna"},"geometry":{"type":"LineString","coordinates":[[22.31063,50.50483],[22.30878,50.50414]]}},{"type":"Feature","properties":{"numer":"","klasa":"droga lokalna","kat":"gminna"},"geometry":{"type":"LineString","coordinates":[[22.31089,50.50492],[22.31063,50.50483]]}},{"type":"Feature","properties":{"numer":"1039R","klasa":"","kat":"powiatowa"},"geometry":{"type":"LineString","coordinates":[[22.3095,50.50817],[22.30762,50.50657],[22.30619,50.50594],[22.30643,50.50528],[22.30717,50.50453],[22.30765,50.50374]]}},{"type":"Feature","properties":{"numer":"1039R","klasa":"","kat":"powiatowa"},"geometry":{"type":"LineString","coordinates":[[22.31089,50.50492],[22.31073,50.50517],[22.31017,50.5072],[22.30973,50.50759],[22.3095,50.50817]]}},{"type":"Feature","properties":{"numer":"1039R","klasa":"","kat":"powiatowa"},"geometry":{"type":"LineString","coordinates":[[22.3112,50.50997],[22.31085,50.50949],[22.3095,50.50817]]}},{"type":"Feature","properties":{"numer":"1048R","klasa":"droga zbiorcza","kat":"powiatowa"},"geometry":{"type":"LineString","coordinates":[[22.31907,50.50992],[22.31914,50.50992]]}},{"type":"Feature","properties":{"numer":"1048R","klasa":"droga zbiorcza","kat":"powiatowa"},"geometry":{"type":"LineString","coordinates":[[22.31907,50.50992],[22.31434,50.50989],[22.3112,50.50997]]}},{"type":"Feature","properties":{"numer":"1061R","klasa":"droga zbiorcza","kat":"powiatowa"},"geometry":{"type":"LineString","coordinates":[[22.26735,50.49113],[22.26761,50.4911],[22.26798,50.48993]]}},{"type":"Feature","properties":{"numer":"858","klasa":"droga zbiorcza","kat":"wojewodzka"},"geometry":{"type":"LineString","coordinates":[[22.28038,50.49078],[22.28359,50.49095],[22.28597,50.49099],[22.29196,50.4907],[22.29404,50.49095],[22.29501,50.49098],[22.29742,50.49078],[22.2994,50.49044],[22.30013,50.49038],[22.30156,50.49039],[22.30518,50.49058]]}},{"type":"Feature","properties":{"numer":"858","klasa":"droga zbiorcza","kat":"wojewodzka"},"geometry":{"type":"LineString","coordinates":[[22.26645,50.49385],[22.26676,50.49262],[22.26718,50.49184],[22.26735,50.49113]]}},{"type":"Feature","properties":{"numer":"858","klasa":"droga zbiorcza","kat":"wojewodzka"},"geometry":{"type":"LineString","coordinates":[[22.26595,50.49483],[22.26645,50.49385]]}},{"type":"Feature","properties":{"numer":"858","klasa":"droga zbiorcza","kat":"wojewodzka"},"geometry":{"type":"LineString","coordinates":[[22.26403,50.51644],[22.26321,50.51404],[22.26381,50.51085],[22.26384,50.51021],[22.26065,50.50326],[22.26045,50.50074],[22.26077,50.50018],[22.26362,50.49822],[22.26531,50.49597],[22.26595,50.49483]]}},{"type":"Feature","properties":{"numer":"1048R","klasa":"droga zbiorcza","kat":"powiatowa"},"geometry":{"type":"LineString","coordinates":[[22.3112,50.50997],[22.29817,50.51029],[22.27869,50.51383],[22.26795,50.51588],[22.26544,50.51619],[22.26403,50.51644]]}},{"type":"Feature","properties":{"numer":"1048R","klasa":"droga zbiorcza","kat":"powiatowa"},"geometry":{"type":"LineString","coordinates":[[22.26246,50.53953],[22.26307,50.53855],[22.26472,50.53503],[22.26712,50.52761],[22.26733,50.52665],[22.267,50.52519],[22.26403,50.51644]]}},{"type":"Feature","properties":{"numer":"1049R","klasa":"","kat":"powiatowa"},"geometry":{"type":"LineString","coordinates":[[22.26246,50.53953],[22.284747097439336,50.54689591410697]]}},{"type":"Feature","properties":{"numer":"1048R","klasa":"droga zbiorcza","kat":"powiatowa"},"geometry":{"type":"LineString","coordinates":[[22.260931997428383,50.55491955995083],[22.26202,50.55306],[22.2632,50.54883],[22.26386,50.54133],[22.2638,50.54104],[22.26261,50.53981],[22.26246,50.53953]]}},{"type":"Feature","properties":{"numer":"1048R","klasa":"droga zbiorcza","kat":"powiatowa"},"geometry":{"type":"LineString","coordinates":[[22.35297,50.51418],[22.35521,50.51199],[22.35608,50.5114],[22.35789,50.50965],[22.35826,50.50954],[22.36066,50.50939],[22.36278,50.50866]]}},{"type":"Feature","properties":{"numer":"1048R","klasa":"droga zbiorcza","kat":"powiatowa"},"geometry":{"type":"LineString","coordinates":[[22.35289,50.51426],[22.35234,50.51461],[22.35011,50.51495],[22.34883,50.51503],[22.34708,50.51497],[22.34563,50.51457],[22.34211,50.51294],[22.34036,50.5123],[22.33545,50.51103],[22.33143,50.51015],[22.32734,50.51002],[22.31914,50.50992]]}},{"type":"Feature","properties":{"numer":"1048R","klasa":"droga zbiorcza","kat":"powiatowa"},"geometry":{"type":"LineString","coordinates":[[22.35289,50.51426],[22.35297,50.51418]]}},{"type":"Feature","properties":{"numer":"1039R","klasa":"","kat":"powiatowa"},"geometry":{"type":"LineString","coordinates":[[22.32123,50.52391],[22.32126,50.52358],[22.32053,50.52274],[22.31727,50.51728],[22.3135,50.51276],[22.31263,50.51207],[22.31207,50.51143],[22.31157,50.51074],[22.3112,50.50997]]}},{"type":"Feature","properties":{"numer":"1039R","klasa":"","kat":"powiatowa"},"geometry":{"type":"LineString","coordinates":[[22.32159,50.52379],[22.32148,50.52392],[22.32123,50.52391]]}},{"type":"Feature","properties":{"numer":"1039R","klasa":"","kat":"powiatowa"},"geometry":{"type":"LineString","coordinates":[[22.32709,50.54421],[22.32368,50.53889],[22.32344,50.53831],[22.32347,50.53752],[22.32532,50.53426],[22.32541,50.53341],[22.32438,50.53091],[22.32427,50.5297],[22.32291,50.52745],[22.32197,50.52664],[22.32146,50.52538],[22.32102,50.52469],[22.32123,50.52391]]}},{"type":"Feature","properties":{"numer":"1043R","klasa":"","kat":"powiatowa"},"geometry":{"type":"LineString","coordinates":[[22.32709,50.54421],[22.33649,50.54401],[22.36271315971555,50.5442676727712]]}},{"type":"Feature","properties":{"numer":"1043R","klasa":"","kat":"powiatowa"},"geometry":{"type":"LineString","coordinates":[[22.37181483007209,50.54391540679712],[22.375022552447547,50.5437870979021]]}},{"type":"Feature","properties":{"numer":"1040R","klasa":"","kat":"powiatowa"},"geometry":{"type":"LineString","coordinates":[[22.31283878721604,50.5458562186712],[22.31939,50.54266],[22.32113,50.54234],[22.32149,50.54237],[22.32266,50.54385],[22.32429,50.54442],[22.32709,50.54421]]}},{"type":"Feature","properties":{"numer":"1039R","klasa":"","kat":"powiatowa"},"geometry":{"type":"LineString","coordinates":[[22.327403509585174,50.54590157369583],[22.32709,50.54421]]}},{"type":"Feature","properties":{"numer":"1049R","klasa":"","kat":"powiatowa"},"geometry":{"type":"LineString","coordinates":[[22.231805042042502,50.53748324262345],[22.23241,50.53732],[22.23391,50.5372],[22.23474,50.53721],[22.23728,50.53781],[22.24007,50.53813],[22.24179,50.53853],[22.24408,50.53866],[22.24453,50.53865],[22.246,50.5383],[22.24684,50.53824],[22.2507,50.53829],[22.25388,50.53872],[22.25746,50.53798],[22.25795,50.53812],[22.25896,50.53885],[22.25943,50.53905],[22.26246,50.53953]]}},{"type":"Feature","properties":{"numer":"878","klasa":"droga gĹ‚Ăłwna ruchu przyĹ›pieszonego","kat":"wojewodzka"},"geometry":{"type":"LineString","coordinates":[[22.22933,50.54972],[22.229236751975915,50.54952368837034]]}},{"type":"Feature","properties":{"numer":"878","klasa":"droga gĹ‚Ăłwna ruchu przyĹ›pieszonego","kat":"wojewodzka"},"geometry":{"type":"LineString","coordinates":[[22.228306778191907,50.54548953714137],[22.2283,50.54547],[22.2246,50.541],[22.22406,50.54045],[22.224025925925925,50.540422962962964]]}},{"type":"Feature","properties":{"numer":"S19","klasa":"droga ekspresowa","kat":"krajowa"},"geometry":{"type":"LineString","coordinates":[[22.24785,50.56556],[22.24717,50.56424],[22.24655,50.56331],[22.24494,50.5614],[22.24323,50.55986],[22.23843,50.5561],[22.23675,50.55465],[22.23428,50.55209],[22.23269917960089,50.55002525498891]]}},{"type":"Feature","properties":{"numer":"S19","klasa":"droga ekspresowa","kat":"krajowa"},"geometry":{"type":"LineString","coordinates":[[22.230073397259385,50.54522927629661],[22.22956,50.54397],[22.22881,50.54097],[22.22859,50.53907],[22.228577849829353,50.53862955631399]]}},{"type":"Feature","properties":{"numer":"878","klasa":"droga gĹ‚Ăłwna ruchu przyĹ›pieszonego","kat":"wojewodzka"},"geometry":{"type":"LineString","coordinates":[[22.22933,50.54972],[22.22975,50.55019],[22.23044,50.55075],[22.24395,50.56114],[22.24434,50.5616],[22.24453,50.56206],[22.24449,50.56349],[22.24484,50.56427],[22.24519,50.56463],[22.24581,50.56503],[22.24661,50.56534],[22.24728,50.56547]]}},{"type":"Feature","properties":{"numer":"878","klasa":"droga gĹ‚Ăłwna ruchu przyĹ›pieszonego","kat":"wojewodzka"},"geometry":{"type":"LineString","coordinates":[[22.24785,50.56556],[22.24728,50.56547]]}},{"type":"Feature","properties":{"numer":"878","klasa":"droga gĹ‚Ăłwna ruchu przyĹ›pieszonego","kat":"wojewodzka"},"geometry":{"type":"LineString","coordinates":[[22.24785,50.56556],[22.24843,50.56565]]}},{"type":"Feature","properties":{"numer":"878","klasa":"droga gĹ‚Ăłwna ruchu przyĹ›pieszonego","kat":"wojewodzka"},"geometry":{"type":"LineString","coordinates":[[22.24843,50.56565],[22.25,50.56594],[22.25072,50.5662],[22.25152,50.56672],[22.2521,50.56744]]}},{"type":"Feature","properties":{"numer":"878","klasa":"droga gĹ‚Ăłwna ruchu przyĹ›pieszonego","kat":"wojewodzka"},"geometry":{"type":"LineString","coordinates":[[22.2521,50.56744],[22.25243,50.56769]]}},{"type":"Feature","properties":{"numer":"S19","klasa":"droga ekspresowa","kat":"krajowa"},"geometry":{"type":"LineString","coordinates":[[22.249903248422452,50.572647382001634],[22.24843,50.56711],[22.24785,50.56556]]}},{"type":"Feature","properties":{"numer":"1048R","klasa":"droga zbiorcza","kat":"powiatowa"},"geometry":{"type":"LineString","coordinates":[[22.2528,50.56768],[22.25307570216685,50.56748410635514]]}},{"type":"Feature","properties":{"numer":"1048R","klasa":"droga zbiorcza","kat":"powiatowa"},"geometry":{"type":"LineString","coordinates":[[22.25262,50.56779],[22.2528,50.56768]]}},{"type":"Feature","properties":{"numer":"878","klasa":"droga gĹ‚Ăłwna ruchu przyĹ›pieszonego","kat":"wojewodzka"},"geometry":{"type":"LineString","coordinates":[[22.25243,50.56769],[22.25262,50.56779]]}},{"type":"Feature","properties":{"numer":"878","klasa":"droga gĹ‚Ăłwna ruchu przyĹ›pieszonego","kat":"wojewodzka"},"geometry":{"type":"LineString","coordinates":[[22.25262,50.56779],[22.2528,50.56791]]}},{"type":"Feature","properties":{"numer":"1048R","klasa":"droga zbiorcza","kat":"powiatowa"},"geometry":{"type":"LineString","coordinates":[[22.25262,50.56779],[22.25255,50.56795]]}},{"type":"Feature","properties":{"numer":"878","klasa":"droga gĹ‚Ăłwna ruchu przyĹ›pieszonego","kat":"wojewodzka"},"geometry":{"type":"LineString","coordinates":[[22.252809521563528,50.567917324279634],[22.2528,50.56791]]}},{"type":"Feature","properties":{"numer":"1048R","klasa":"droga zbiorcza","kat":"powiatowa"},"geometry":{"type":"LineString","coordinates":[[22.25243,50.56823],[22.25255,50.56795]]}},{"type":"Feature","properties":{"numer":"1048R","klasa":"droga zbiorcza","kat":"powiatowa"},"geometry":{"type":"LineString","coordinates":[[22.25165377636291,50.56979833863908],[22.25172,50.56955],[22.25243,50.56823]]}},{"type":"Feature","properties":{"numer":"19","klasa":"droga gĹ‚Ăłwna ruchu przyĹ›pieszonego","kat":"krajowa"},"geometry":{"type":"LineString","coordinates":[[22.24909,50.57377],[22.24922128860016,50.5737572946516]]}},{"type":"Feature","properties":{"numer":"1048R","klasa":"droga zbiorcza","kat":"powiatowa"},"geometry":{"type":"LineString","coordinates":[[22.36278,50.50866],[22.36218,50.50731],[22.36225,50.50692],[22.36254,50.50643]]}},{"type":"Feature","properties":{"numer":"1048R","klasa":"droga zbiorcza","kat":"powiatowa"},"geometry":{"type":"LineString","coordinates":[[22.40055435207823,50.51346898940505],[22.40013,50.51308],[22.39723,50.50972],[22.397213633941234,50.509662463074655]]}},{"type":"Feature","properties":{"numer":"1048R","klasa":"droga zbiorcza","kat":"powiatowa"},"geometry":{"type":"LineString","coordinates":[[22.39664545183714,50.50766494786495],[22.396594962765075,50.50748744722097]]}},{"type":"Feature","properties":{"numer":"1048R","klasa":"droga zbiorcza","kat":"powiatowa"},"geometry":{"type":"LineString","coordinates":[[22.391711651376145,50.4980323853211],[22.39067,50.49833],[22.38835,50.49878],[22.38629,50.49932],[22.38415,50.49946],[22.38349,50.49958],[22.382,50.49994],[22.38036,50.50046],[22.37771,50.50107],[22.37406,50.50261],[22.37097,50.50368]]}},{"type":"Feature","properties":{"numer":"1044R","klasa":"","kat":"powiatowa"},"geometry":{"type":"LineString","coordinates":[[22.36278,50.50866],[22.36332,50.50955],[22.36468,50.51141],[22.37065,50.51908],[22.37198,50.52206],[22.3808925519557,50.53773239236858]]}},{"type":"Feature","properties":{"numer":"1023R","klasa":"droga zbiorcza","kat":"powiatowa"},"geometry":{"type":"LineString","coordinates":[[22.207364405516227,50.56803005963474],[22.20738,50.56803]]}},{"type":"Feature","properties":{"numer":"1022R","klasa":"","kat":"powiatowa"},"geometry":{"type":"LineString","coordinates":[[22.20781939724271,50.56809697018275],[22.207409927223154,50.56744051824664]]}},{"type":"Feature","properties":{"numer":"1022R","klasa":"","kat":"powiatowa"},"geometry":{"type":"LineString","coordinates":[[22.207895039588834,50.56342073459277],[22.20861,50.56239],[22.20884,50.56178],[22.208990743567995,50.561011694072796]]}},{"type":"Feature","properties":{"numer":"1022R","klasa":"","kat":"powiatowa"},"geometry":{"type":"LineString","coordinates":[[22.22768130044843,50.553473713004486],[22.2277,50.55346],[22.22811,50.55179],[22.22914,50.54985],[22.22933,50.54972]]}}]}