{"type":"FeatureCollection","features":[{"type":"Feature","properties":{"numer":"1341R","klasa":"droga zbiorcza","kat":"powiatowa"},"geometry":{"type":"LineString","coordinates":[[21.696812832596187,49.99267181611805],[21.69592,49.99258],[21.69527,49.99261],[21.69382,49.99343],[21.69286,49.99491],[21.69224,49.99548],[21.69003,49.99701],[21.68901,49.99724],[21.68854,49.99744],[21.68781,49.99873],[21.68704,49.9998],[21.68662,50.00108],[21.68625,50.00171],[21.68433,50.00283],[21.68204,50.00353],[21.68146,50.00412],[21.68128,50.00441],[21.68107,50.00593],[21.68089,50.00632],[21.67907,50.00823],[21.67748,50.00949],[21.67721,50.00989],[21.67657,50.01172],[21.67713,50.01371],[21.6766,50.01516],[21.67636,50.01531],[21.67543,50.01515],[21.67502,50.01519]]}},{"type":"Feature","properties":{"numer":"1336R","klasa":"droga zbiorcza","kat":"powiatowa"},"geometry":{"type":"LineString","coordinates":[[21.797884350132627,50.05589549071618],[21.79776,50.05581],[21.79637,50.0556],[21.79476,50.05496],[21.79411,50.05478],[21.79371,50.05475],[21.79304,50.05484],[21.79172,50.05523],[21.78971,50.05547],[21.78832,50.0555],[21.78664,50.05541],[21.78403,50.05559],[21.7807,50.05553]]}},{"type":"Feature","properties":{"numer":"94","klasa":"droga gĹ‚Ăłwna ruchu przyĹ›pieszonego","kat":"krajowa"},"geometry":{"type":"LineString","coordinates":[[21.78109,50.07092],[21.78634,50.07105]]}},{"type":"Feature","properties":{"numer":"1341R","klasa":"droga zbiorcza","kat":"powiatowa"},"geometry":{"type":"LineString","coordinates":[[21.67502,50.01519],[21.67486,50.01529]]}},{"type":"Feature","properties":{"numer":"1341R","klasa":"droga zbiorcza","kat":"powiatowa"},"geometry":{"type":"LineString","coordinates":[[21.67486,50.01529],[21.67464,50.0154]]}},{"type":"Feature","properties":{"numer":"1342R","klasa":"droga zbiorcza","kat":"powiatowa"},"geometry":{"type":"LineString","coordinates":[[21.67464,50.0154],[21.67456,50.01642],[21.67466,50.01665],[21.67721,50.0187],[21.67863,50.02023],[21.67863,50.02274],[21.67902,50.02367],[21.67911,50.02456],[21.67893,50.02601],[21.68019,50.02788],[21.68194,50.0289],[21.6851,50.02972],[21.68694,50.03057],[21.68706,50.03088],[21.68663,50.03139],[21.68662,50.03165],[21.68676,50.03187],[21.68792,50.03293],[21.68962,50.03393],[21.69083,50.0344],[21.69125,50.03465],[21.69267,50.03582],[21.69321,50.03689],[21.69634,50.03807],[21.69669,50.03829],[21.69864,50.0406],[21.69896,50.04132],[21.70039,50.04357],[21.70043,50.04389],[21.70026,50.04423],[21.69859,50.04588],[21.69794,50.04646],[21.69624,50.04764],[21.69512,50.04812],[21.69324,50.04833],[21.69257,50.04853],[21.68972,50.05017],[21.68707,50.05132],[21.68592,50.05241],[21.68497,50.05295],[21.68494,50.0532],[21.68785,50.05571],[21.68947,50.05728],[21.68948,50.06293],[21.68934,50.06333]]}},{"type":"Feature","properties":{"numer":"94","klasa":"droga gĹ‚Ăłwna ruchu przyĹ›pieszonego","kat":"krajowa"},"geometry":{"type":"LineString","coordinates":[[21.71271,50.0624],[21.7025,50.0622],[21.69537,50.06246]]}},{"type":"Feature","properties":{"numer":"1336R","klasa":"droga zbiorcza","kat":"powiatowa"},"geometry":{"type":"LineString","coordinates":[[21.7807,50.05553],[21.77804,50.05552],[21.7748,50.05572],[21.774,50.05558],[21.773595024091108,50.055307420061325]]}},{"type":"Feature","properties":{"numer":"1335R","klasa":"droga zbiorcza","kat":"powiatowa"},"geometry":{"type":"LineString","coordinates":[[21.77989,50.07089],[21.78056,50.06708],[21.78032,50.06313],[21.78011,50.06167],[21.78026,50.06019],[21.78011,50.0573],[21.7807,50.05553]]}},{"type":"Feature","properties":{"numer":"94","klasa":"droga gĹ‚Ăłwna ruchu przyĹ›pieszonego","kat":"krajowa"},"geometry":{"type":"LineString","coordinates":[[21.73242,50.06505],[21.73587,50.06681]]}},{"type":"Feature","properties":{"numer":"94","klasa":"droga gĹ‚Ăłwna ruchu przyĹ›pieszonego","kat":"krajowa"},"geometry":{"type":"LineString","coordinates":[[21.73587,50.06681],[21.73623,50.06699]]}},{"type":"Feature","properties":{"numer":"94","klasa":"droga gĹ‚Ăłwna ruchu przyĹ›pieszonego","kat":"krajowa"},"geometry":{"type":"LineString","coordinates":[[21.73623,50.06699],[21.73969,50.06882]]}},{"type":"Feature","properties":{"numer":"94","klasa":"droga gĹ‚Ăłwna ruchu przyĹ›pieszonego","kat":"krajowa"},"geometry":{"type":"LineString","coordinates":[[21.73969,50.06882],[21.74042,50.06924]]}},{"type":"Feature","properties":{"numer":"94","klasa":"droga gĹ‚Ăłwna ruchu przyĹ›pieszonego","kat":"krajowa"},"geometry":{"type":"LineString","coordinates":[[21.74042,50.06924],[21.74078,50.06942]]}},{"type":"Feature","properties":{"numer":"94","klasa":"droga gĹ‚Ăłwna ruchu przyĹ›pieszonego","kat":"krajowa"},"geometry":{"type":"LineString","coordinates":[[21.74078,50.06942],[21.74137,50.06966]]}},{"type":"Feature","properties":{"numer":"94","klasa":"droga gĹ‚Ăłwna ruchu przyĹ›pieszonego","kat":"krajowa"},"geometry":{"type":"LineString","coordinates":[[21.71271,50.0624],[21.71584,50.06245]]}},{"type":"Feature","properties":{"numer":"94","klasa":"droga gĹ‚Ăłwna ruchu przyĹ›pieszonego","kat":"krajowa"},"geometry":{"type":"LineString","coordinates":[[21.69508,50.06248],[21.69537,50.06246]]}},{"type":"Feature","properties":{"numer":"94","klasa":"droga gĹ‚Ăłwna ruchu przyĹ›pieszonego","kat":"krajowa"},"geometry":{"type":"LineString","coordinates":[[21.6904,50.06332],[21.69136,50.06296],[21.69259,50.06267],[21.69508,50.06248]]}},{"type":"Feature","properties":{"numer":"94","klasa":"droga gĹ‚Ăłwna ruchu przyĹ›pieszonego","kat":"krajowa"},"geometry":{"type":"LineString","coordinates":[[21.73121,50.06443],[21.72885,50.06328],[21.72754,50.06288],[21.7265,50.0627],[21.72529,50.06262],[21.71584,50.06245]]}},{"type":"Feature","properties":{"numer":"94","klasa":"droga gĹ‚Ăłwna ruchu przyĹ›pieszonego","kat":"krajowa"},"geometry":{"type":"LineString","coordinates":[[21.68934,50.06378],[21.6904,50.06332]]}},{"type":"Feature","properties":{"numer":"1342R","klasa":"droga zbiorcza","kat":"powiatowa"},"geometry":{"type":"LineString","coordinates":[[21.68934,50.06333],[21.68921,50.06364],[21.68928,50.06381]]}},{"type":"Feature","properties":{"numer":"1337R","klasa":"droga zbiorcza","kat":"powiatowa"},"geometry":{"type":"LineString","coordinates":[[21.73121,50.06443],[21.73163059382681,50.063898551986284]]}},{"type":"Feature","properties":{"numer":"94","klasa":"droga gĹ‚Ăłwna ruchu przyĹ›pieszonego","kat":"krajowa"},"geometry":{"type":"LineString","coordinates":[[21.68928,50.06381],[21.68934,50.06378]]}},{"type":"Feature","properties":{"numer":"94","klasa":"droga gĹ‚Ăłwna ruchu przyĹ›pieszonego","kat":"krajowa"},"geometry":{"type":"LineString","coordinates":[[21.68898,50.06394],[21.68928,50.06381]]}},{"type":"Feature","properties":{"numer":"1342R","klasa":"droga zbiorcza","kat":"powiatowa"},"geometry":{"type":"LineString","coordinates":[[21.68928,50.06381],[21.68945,50.06406]]}},{"type":"Feature","properties":{"numer":"94","klasa":"droga gĹ‚Ăłwna ruchu przyĹ›pieszonego","kat":"krajowa"},"geometry":{"type":"LineString","coordinates":[[21.68883,50.06401],[21.68898,50.06394]]}},{"type":"Feature","properties":{"numer":"94","klasa":"droga gĹ‚Ăłwna ruchu przyĹ›pieszonego","kat":"krajowa"},"geometry":{"type":"LineString","coordinates":[[21.73121,50.06443],[21.73219,50.06493]]}},{"type":"Feature","properties":{"numer":"94","klasa":"droga gĹ‚Ăłwna ruchu przyĹ›pieszonego","kat":"krajowa"},"geometry":{"type":"LineString","coordinates":[[21.68493,50.06572],[21.68883,50.06401]]}},{"type":"Feature","properties":{"numer":"94","klasa":"droga gĹ‚Ăłwna ruchu przyĹ›pieszonego","kat":"krajowa"},"geometry":{"type":"LineString","coordinates":[[21.73219,50.06493],[21.73242,50.06505]]}},{"type":"Feature","properties":{"numer":"1342R","klasa":"droga zbiorcza","kat":"powiatowa"},"geometry":{"type":"LineString","coordinates":[[21.68927,50.06918],[21.68945,50.06406]]}},{"type":"Feature","properties":{"numer":"94","klasa":"droga gĹ‚Ăłwna ruchu przyĹ›pieszonego","kat":"krajowa"},"geometry":{"type":"LineString","coordinates":[[21.67937,50.06816],[21.68493,50.06572]]}},{"type":"Feature","properties":{"numer":"","klasa":"droga zbiorcza","kat":"powiatowa"},"geometry":{"type":"LineString","coordinates":[[21.72409,50.07004],[21.72851,50.06975],[21.72865,50.06966],[21.73008,50.06584],[21.73121,50.06443]]}},{"type":"Feature","properties":{"numer":"94","klasa":"droga gĹ‚Ăłwna ruchu przyĹ›pieszonego","kat":"krajowa"},"geometry":{"type":"LineString","coordinates":[[21.67527,50.06885],[21.66876,50.06866],[21.667150864895575,50.06837745955524]]}},{"type":"Feature","properties":{"numer":"94","klasa":"droga gĹ‚Ăłwna ruchu przyĹ›pieszonego","kat":"krajowa"},"geometry":{"type":"LineString","coordinates":[[21.67937,50.06816],[21.67779,50.06861]]}},{"type":"Feature","properties":{"numer":"1351R","klasa":"droga zbiorcza","kat":"powiatowa"},"geometry":{"type":"LineString","coordinates":[[21.67781,50.06864],[21.67779,50.06861]]}},{"type":"Feature","properties":{"numer":"94","klasa":"droga gĹ‚Ăłwna ruchu przyĹ›pieszonego","kat":"krajowa"},"geometry":{"type":"LineString","coordinates":[[21.67779,50.06861],[21.67656,50.0688],[21.67527,50.06885]]}},{"type":"Feature","properties":{"numer":"1351R","klasa":"droga zbiorcza","kat":"powiatowa"},"geometry":{"type":"LineString","coordinates":[[21.67781,50.06864],[21.67795,50.06881],[21.67824,50.06892]]}},{"type":"Feature","properties":{"numer":"1351R","klasa":"droga zbiorcza","kat":"powiatowa"},"geometry":{"type":"LineString","coordinates":[[21.67824,50.06892],[21.67527,50.06885]]}},{"type":"Feature","properties":{"numer":"1351R","klasa":"droga zbiorcza","kat":"powiatowa"},"geometry":{"type":"LineString","coordinates":[[21.68927,50.06918],[21.67824,50.06892]]}},{"type":"Feature","properties":{"numer":"1351R","klasa":"droga zbiorcza","kat":"powiatowa"},"geometry":{"type":"LineString","coordinates":[[21.69467,50.0693],[21.68927,50.06918]]}},{"type":"Feature","properties":{"numer":"1351R","klasa":"droga zbiorcza","kat":"powiatowa"},"geometry":{"type":"LineString","coordinates":[[21.69481,50.0693],[21.69467,50.0693]]}},{"type":"Feature","properties":{"numer":"1351R","klasa":"droga zbiorcza","kat":"powiatowa"},"geometry":{"type":"LineString","coordinates":[[21.69708,50.06977],[21.69578,50.06938],[21.69481,50.0693]]}},{"type":"Feature","properties":{"numer":"107657R","klasa":"droga lokalna","kat":"powiatowa"},"geometry":{"type":"LineString","coordinates":[[21.68927,50.06918],[21.68947,50.07008]]}},{"type":"Feature","properties":{"numer":"987","klasa":"droga gĹ‚Ăłwna","kat":"wojewodzka"},"geometry":{"type":"LineString","coordinates":[[21.74083,50.0699],[21.74137,50.06966]]}},{"type":"Feature","properties":{"numer":"94","klasa":"droga gĹ‚Ăłwna ruchu przyĹ›pieszonego","kat":"krajowa"},"geometry":{"type":"LineString","coordinates":[[21.74137,50.06966],[21.74231,50.0699],[21.74312,50.07],[21.743156898837267,50.07000093052354]]}},{"type":"Feature","properties":{"numer":"94","klasa":"droga gĹ‚Ăłwna ruchu przyĹ›pieszonego","kat":"krajowa"},"geometry":{"type":"LineString","coordinates":[[21.76725815706663,50.07059800383089],[21.77349,50.07075]]}},{"type":"Feature","properties":{"numer":"94","klasa":"droga gĹ‚Ăłwna ruchu przyĹ›pieszonego","kat":"krajowa"},"geometry":{"type":"LineString","coordinates":[[21.77349,50.07075],[21.77463,50.07077]]}},{"type":"Feature","properties":{"numer":"94","klasa":"droga gĹ‚Ăłwna ruchu przyĹ›pieszonego","kat":"krajowa"},"geometry":{"type":"LineString","coordinates":[[21.77989,50.07089],[21.77463,50.07077]]}},{"type":"Feature","properties":{"numer":"1351R","klasa":"droga zbiorcza","kat":"powiatowa"},"geometry":{"type":"LineString","coordinates":[[21.6974,50.06987],[21.69708,50.06977]]}},{"type":"Feature","properties":{"numer":"1351R","klasa":"droga zbiorcza","kat":"powiatowa"},"geometry":{"type":"LineString","coordinates":[[21.69757,50.06993],[21.6974,50.06987]]}},{"type":"Feature","properties":{"numer":"","klasa":"droga zbiorcza","kat":"powiatowa"},"geometry":{"type":"LineString","coordinates":[[21.71388,50.07054],[21.71907,50.07039],[21.72409,50.07004]]}},{"type":"Feature","properties":{"numer":"107657R","klasa":"droga lokalna","kat":"powiatowa"},"geometry":{"type":"LineString","coordinates":[[21.68947,50.07008],[21.68959,50.07056]]}},{"type":"Feature","properties":{"numer":"1351R","klasa":"droga zbiorcza","kat":"powiatowa"},"geometry":{"type":"LineString","coordinates":[[21.70194,50.07096],[21.69851,50.07021],[21.69757,50.06993]]}},{"type":"Feature","properties":{"numer":"1351R","klasa":"droga zbiorcza","kat":"powiatowa"},"geometry":{"type":"LineString","coordinates":[[21.71388,50.07054],[21.7127,50.07058]]}},{"type":"Feature","properties":{"numer":"1351R","klasa":"droga zbiorcza","kat":"powiatowa"},"geometry":{"type":"LineString","coordinates":[[21.7127,50.07058],[21.71171,50.07062]]}},{"type":"Feature","properties":{"numer":"1351R","klasa":"droga zbiorcza","kat":"powiatowa"},"geometry":{"type":"LineString","coordinates":[[21.71171,50.07062],[21.70833,50.07073]]}},{"type":"Feature","properties":{"numer":"1351R","klasa":"droga zbiorcza","kat":"powiatowa"},"geometry":{"type":"LineString","coordinates":[[21.71388,50.07054],[21.70194,50.07096]]}},{"type":"Feature","properties":{"numer":"107657R","klasa":"droga lokalna","kat":"powiatowa"},"geometry":{"type":"LineString","coordinates":[[21.68959,50.07056],[21.68973,50.07115]]}},{"type":"Feature","properties":{"numer":"107657R","klasa":"droga lokalna","kat":"powiatowa"},"geometry":{"type":"LineString","coordinates":[[21.68973,50.07115],[21.68981,50.07147]]}},{"type":"Feature","properties":{"numer":"107657R","klasa":"droga lokalna","kat":"powiatowa"},"geometry":{"type":"LineString","coordinates":[[21.68981,50.07147],[21.68983,50.07154]]}},{"type":"Feature","properties":{"numer":"1352R","klasa":"droga zbiorcza","kat":"powiatowa"},"geometry":{"type":"LineString","coordinates":[[21.69757,50.06993],[21.69718,50.07041],[21.69684,50.07152],[21.69654,50.07172],[21.69546,50.07209],[21.69494,50.07238],[21.69461,50.07272],[21.69435,50.07332]]}},{"type":"Feature","properties":{"numer":"107657R","klasa":"droga lokalna","kat":"powiatowa"},"geometry":{"type":"LineString","coordinates":[[21.68983,50.07154],[21.68987,50.07172]]}},{"type":"Feature","properties":{"numer":"1356R","klasa":"droga zbiorcza","kat":"powiatowa"},"geometry":{"type":"LineString","coordinates":[[21.7148,50.0728],[21.71432,50.07208],[21.71388,50.07054]]}},{"type":"Feature","properties":{"numer":"107657R","klasa":"droga lokalna","kat":"powiatowa"},"geometry":{"type":"LineString","coordinates":[[21.68987,50.07172],[21.68991,50.07189]]}},{"type":"Feature","properties":{"numer":"107657R","klasa":"droga lokalna","kat":"powiatowa"},"geometry":{"type":"LineString","coordinates":[[21.68991,50.07189],[21.68993,50.07194]]}},{"type":"Feature","properties":{"numer":"107657R","klasa":"droga lokalna","kat":"powiatowa"},"geometry":{"type":"LineString","coordinates":[[21.68993,50.07194],[21.69,50.07223]]}},{"type":"Feature","properties":{"numer":"107657R","klasa":"","kat":"powiatowa"},"geometry":{"type":"LineString","coordinates":[[21.69009,50.07267],[21.69,50.07223]]}},{"type":"Feature","properties":{"numer":"1353R","klasa":"droga zbiorcza","kat":"powiatowa"},"geometry":{"type":"LineString","coordinates":[[21.69927,50.07404],[21.69946,50.07398],[21.70015,50.07202],[21.70036,50.0719],[21.70141,50.07197],[21.7019,50.07162],[21.70194,50.07096]]}},{"type":"Feature","properties":{"numer":"107657R","klasa":"droga lokalna","kat":"powiatowa"},"geometry":{"type":"LineString","coordinates":[[21.69012,50.07278],[21.69009,50.07267]]}},{"type":"Feature","properties":{"numer":"","klasa":"droga wewnÄ™trzna","kat":"gminna"},"geometry":{"type":"LineString","coordinates":[[21.69012,50.07278],[21.68996,50.07275]]}},{"type":"Feature","properties":{"numer":"107552R","klasa":"","kat":"powiatowa"},"geometry":{"type":"LineString","coordinates":[[21.68996,50.07275],[21.68939,50.07279]]}},{"type":"Feature","properties":{"numer":"107652R","klasa":"droga lokalna","kat":"powiatowa"},"geometry":{"type":"LineString","coordinates":[[21.69027,50.07279],[21.69012,50.07278]]}},{"type":"Feature","properties":{"numer":"107652R","klasa":"","kat":"powiatowa"},"geometry":{"type":"LineString","coordinates":[[21.69077,50.07284],[21.69027,50.07279]]}},{"type":"Feature","properties":{"numer":"107552R","klasa":"droga lokalna","kat":"powiatowa"},"geometry":{"type":"LineString","coordinates":[[21.68861,50.07287],[21.68939,50.07279]]}},{"type":"Feature","properties":{"numer":"1356R","klasa":"droga zbiorcza","kat":"powiatowa"},"geometry":{"type":"LineString","coordinates":[[21.71495,50.07294],[21.7148,50.0728]]}},{"type":"Feature","properties":{"numer":"107552R","klasa":"droga lokalna","kat":"powiatowa"},"geometry":{"type":"LineString","coordinates":[[21.68842,50.07288],[21.68861,50.07287]]}},{"type":"Feature","properties":{"numer":"107652R","klasa":"droga lokalna","kat":"powiatowa"},"geometry":{"type":"LineString","coordinates":[[21.69077,50.07284],[21.69208,50.07293]]}},{"type":"Feature","properties":{"numer":"107552R","klasa":"droga lokalna","kat":"powiatowa"},"geometry":{"type":"LineString","coordinates":[[21.68736,50.07289],[21.68842,50.07288]]}},{"type":"Feature","properties":{"numer":"107652R","klasa":"droga lokalna","kat":"powiatowa"},"geometry":{"type":"LineString","coordinates":[[21.69208,50.07293],[21.69231,50.07292]]}},{"type":"Feature","properties":{"numer":"107552R","klasa":"droga lokalna","kat":"powiatowa"},"geometry":{"type":"LineString","coordinates":[[21.68416,50.07298],[21.68736,50.07289]]}},{"type":"Feature","properties":{"numer":"107552R","klasa":"droga lokalna","kat":"powiatowa"},"geometry":{"type":"LineString","coordinates":[[21.68256,50.07302],[21.68416,50.07298]]}},{"type":"Feature","properties":{"numer":"107552R","klasa":"droga lokalna","kat":"powiatowa"},"geometry":{"type":"LineString","coordinates":[[21.68053,50.07307],[21.68256,50.07302]]}},{"type":"Feature","properties":{"numer":"107652R","klasa":"droga lokalna","kat":"powiatowa"},"geometry":{"type":"LineString","coordinates":[[21.69231,50.07292],[21.69317,50.07296],[21.69399,50.07321]]}},{"type":"Feature","properties":{"numer":"107552R","klasa":"droga lokalna","kat":"powiatowa"},"geometry":{"type":"LineString","coordinates":[[21.68053,50.07307],[21.67794,50.07316],[21.67345,50.07315]]}},{"type":"Feature","properties":{"numer":"107552R","klasa":"droga lokalna","kat":"powiatowa"},"geometry":{"type":"LineString","coordinates":[[21.67345,50.07315],[21.67203,50.07315]]}},{"type":"Feature","properties":{"numer":"107552R","klasa":"droga lokalna","kat":"powiatowa"},"geometry":{"type":"LineString","coordinates":[[21.67195902417378,50.07315191826557],[21.67203,50.07315]]}},{"type":"Feature","properties":{"numer":"94","klasa":"droga gĹ‚Ăłwna ruchu przyĹ›pieszonego","kat":"krajowa"},"geometry":{"type":"LineString","coordinates":[[21.78634,50.07105],[21.78985,50.07113]]}},{"type":"Feature","properties":{"numer":"94","klasa":"droga gĹ‚Ăłwna ruchu przyĹ›pieszonego","kat":"krajowa"},"geometry":{"type":"LineString","coordinates":[[21.79852129145183,50.07133151804623],[21.78985,50.07113]]}},{"type":"Feature","properties":{"numer":"107652R","klasa":"droga lokalna","kat":"powiatowa"},"geometry":{"type":"LineString","coordinates":[[21.69399,50.07321],[21.69435,50.07332]]}},{"type":"Feature","properties":{"numer":"107652R","klasa":"droga lokalna","kat":"powiatowa"},"geometry":{"type":"LineString","coordinates":[[21.69435,50.07332],[21.69896,50.07413],[21.69927,50.07404]]}},{"type":"Feature","properties":{"numer":"1225R","klasa":"droga zbiorcza","kat":"powiatowa"},"geometry":{"type":"LineString","coordinates":[[21.69435,50.07332],[21.69413,50.07434]]}},{"type":"Feature","properties":{"numer":"1225R","klasa":"droga zbiorcza","kat":"powiatowa"},"geometry":{"type":"LineString","coordinates":[[21.69413,50.07434],[21.69404,50.07578]]}},{"type":"Feature","properties":{"numer":"987","klasa":"droga gĹ‚Ăłwna","kat":"wojewodzka"},"geometry":{"type":"LineString","coordinates":[[21.72344,50.08071],[21.72368,50.07889],[21.72392,50.07841],[21.72431,50.07795],[21.73096,50.07334],[21.73175,50.07247],[21.73312,50.07043],[21.73355,50.07007],[21.73401,50.0699],[21.73453,50.06981],[21.74083,50.0699]]}},{"type":"Feature","properties":{"numer":"1354R","klasa":"droga zbiorcza","kat":"powiatowa"},"geometry":{"type":"LineString","coordinates":[[21.69876,50.07566],[21.70184,50.07526]]}},{"type":"Feature","properties":{"numer":"1225R","klasa":"droga zbiorcza","kat":"powiatowa"},"geometry":{"type":"LineString","coordinates":[[21.69876,50.07566],[21.69828,50.07546],[21.69795,50.07543],[21.69525,50.07573],[21.69404,50.07578]]}},{"type":"Feature","properties":{"numer":"1225R","klasa":"droga zbiorcza","kat":"powiatowa"},"geometry":{"type":"LineString","coordinates":[[21.6923,50.0758],[21.69404,50.07578]]}},{"type":"Feature","properties":{"numer":"1225R","klasa":"droga zbiorcza","kat":"powiatowa"},"geometry":{"type":"LineString","coordinates":[[21.6923,50.07599],[21.6923,50.0758]]}},{"type":"Feature","properties":{"numer":"1225R","klasa":"droga zbiorcza","kat":"powiatowa"},"geometry":{"type":"LineString","coordinates":[[21.69404,50.07578],[21.69402,50.07602]]}},{"type":"Feature","properties":{"numer":"1225R","klasa":"droga zbiorcza","kat":"powiatowa"},"geometry":{"type":"LineString","coordinates":[[21.69234,50.07627],[21.6923,50.07599]]}},{"type":"Feature","properties":{"numer":"1225R","klasa":"droga zbiorcza","kat":"powiatowa"},"geometry":{"type":"LineString","coordinates":[[21.69402,50.07602],[21.69378,50.07644],[21.69326,50.07663],[21.6927,50.07657],[21.69234,50.07627]]}},{"type":"Feature","properties":{"numer":"1356R","klasa":"droga zbiorcza","kat":"powiatowa"},"geometry":{"type":"LineString","coordinates":[[21.72262,50.08097],[21.72232,50.08069],[21.72045,50.07799],[21.7194,50.07694],[21.71833,50.07652],[21.71729,50.0758],[21.7162,50.07451],[21.71547,50.07347],[21.71495,50.07294]]}},{"type":"Feature","properties":{"numer":"1354R","klasa":"droga zbiorcza","kat":"powiatowa"},"geometry":{"type":"LineString","coordinates":[[21.69814,50.08072],[21.69827,50.07901],[21.69887,50.07587],[21.69876,50.07566]]}},{"type":"Feature","properties":{"numer":"1330R","klasa":"droga zbiorcza","kat":"powiatowa"},"geometry":{"type":"LineString","coordinates":[[21.69814,50.08087],[21.69814,50.08072]]}},{"type":"Feature","properties":{"numer":"1335R","klasa":"droga zbiorcza","kat":"powiatowa"},"geometry":{"type":"LineString","coordinates":[[21.81805,50.08829],[21.81658,50.08819],[21.81393,50.08785],[21.81365,50.08679],[21.81363,50.0842],[21.81343,50.08385],[21.81294,50.08357],[21.81034,50.08271],[21.80813,50.08161],[21.80705,50.08098],[21.80501,50.08059],[21.80457,50.08043],[21.8043,50.08006],[21.8044,50.07912],[21.8043,50.07889],[21.8015,50.07791],[21.80028,50.07737],[21.80015,50.07711],[21.80034,50.07644],[21.80032,50.07616],[21.7997,50.07542],[21.79934,50.07518],[21.79479,50.07404],[21.79372,50.07398],[21.79122,50.07353],[21.79079,50.07358],[21.78978,50.07392],[21.78869,50.07391],[21.78821,50.07376],[21.78795,50.07358],[21.78707,50.07333],[21.78294,50.07273],[21.78091,50.07182],[21.77992,50.07171],[21.77989,50.07089]]}},{"type":"Feature","properties":{"numer":"1335R","klasa":"droga zbiorcza","kat":"powiatowa"},"geometry":{"type":"LineString","coordinates":[[21.81805,50.08833],[21.81805,50.08829]]}},{"type":"Feature","properties":{"numer":"1335R","klasa":"","kat":"powiatowa"},"geometry":{"type":"LineString","coordinates":[[21.81798968832979,50.08870706242207],[21.81796,50.0887],[21.81789,50.08865],[21.81805,50.08833]]}},{"type":"Feature","properties":{"numer":"987","klasa":"droga gĹ‚Ăłwna","kat":"wojewodzka"},"geometry":{"type":"LineString","coordinates":[[21.72344,50.08071],[21.72325,50.08125]]}},{"type":"Feature","properties":{"numer":"1356R","klasa":"droga zbiorcza","kat":"powiatowa"},"geometry":{"type":"LineString","coordinates":[[21.72325,50.08125],[21.72262,50.08097]]}},{"type":"Feature","properties":{"numer":"1334R","klasa":"droga zbiorcza","kat":"powiatowa"},"geometry":{"type":"LineString","coordinates":[[21.72258,50.08144],[21.72325,50.08125]]}},{"type":"Feature","properties":{"numer":"1334R,987","klasa":"droga zbiorcza","kat":"powiatowa"},"geometry":{"type":"LineString","coordinates":[[21.72392,50.08151],[21.72325,50.08125]]}},{"type":"Feature","properties":{"numer":"1330R","klasa":"droga zbiorcza","kat":"powiatowa"},"geometry":{"type":"LineString","coordinates":[[21.70386,50.08831],[21.70329,50.0878],[21.70126,50.08661],[21.69993,50.08571],[21.69842,50.08495],[21.69806,50.08408],[21.69782,50.08215],[21.69814,50.08087]]}},{"type":"Feature","properties":{"numer":"1334R","klasa":"droga zbiorcza","kat":"powiatowa"},"geometry":{"type":"LineString","coordinates":[[21.72258,50.08144],[21.72156,50.08171],[21.72082,50.08212],[21.71976,50.08252],[21.71715,50.08302],[21.71627,50.08364],[21.71425,50.08434],[21.71169,50.0851],[21.71063,50.0856],[21.70834,50.08688],[21.70479,50.0878],[21.70386,50.08831]]}},{"type":"Feature","properties":{"numer":"1225R","klasa":"droga zbiorcza","kat":"powiatowa"},"geometry":{"type":"LineString","coordinates":[[21.66447,50.09604],[21.66376,50.09332],[21.66393,50.09297],[21.66478,50.09209],[21.66485,50.09166],[21.66435,50.0908],[21.66373,50.08834],[21.67767,50.07679],[21.67823,50.0765],[21.68003,50.07622],[21.68502,50.07603],[21.68711,50.07633],[21.68823,50.07632],[21.68965,50.07624],[21.6923,50.0758]]}},{"type":"Feature","properties":{"numer":"987","klasa":"droga zbiorcza","kat":"wojewodzka"},"geometry":{"type":"LineString","coordinates":[[21.72392,50.08151],[21.72445,50.08207],[21.7259,50.08582],[21.72852,50.09048],[21.72996,50.09341],[21.73004,50.09388],[21.72999,50.09491],[21.73011,50.09542],[21.73037,50.0959],[21.7309,50.09672],[21.73206,50.098],[21.73486,50.10023],[21.73553,50.101]]}},{"type":"Feature","properties":{"numer":"1225R","klasa":"droga zbiorcza","kat":"powiatowa"},"geometry":{"type":"LineString","coordinates":[[21.66455,50.09626],[21.66447,50.09604]]}},{"type":"Feature","properties":{"numer":"1225R","klasa":"droga zbiorcza","kat":"powiatowa"},"geometry":{"type":"LineString","coordinates":[[21.66566,50.09894],[21.66539,50.09853],[21.66455,50.09626]]}},{"type":"Feature","properties":{"numer":"94","klasa":"droga gĹ‚Ăłwna ruchu przyĹ›pieszonego","kat":"krajowa"},"geometry":{"type":"LineString","coordinates":[[21.77989,50.07089],[21.78109,50.07092]]}},{"type":"Feature","properties":{"numer":"1332R","klasa":"droga zbiorcza","kat":"powiatowa"},"geometry":{"type":"LineString","coordinates":[[21.752233942644935,50.074317507736744],[21.75226,50.07442]]}},{"type":"Feature","properties":{"numer":"1334R","klasa":"droga zbiorcza","kat":"powiatowa"},"geometry":{"type":"LineString","coordinates":[[21.72392,50.08151],[21.72452,50.08122],[21.72645,50.08095],[21.72849,50.0808],[21.73069,50.08012],[21.73469,50.07919],[21.73804,50.07904],[21.7389,50.07892],[21.7408,50.07813],[21.74254,50.07769],[21.7446,50.07679],[21.75075,50.07496],[21.75226,50.07442]]}},{"type":"Feature","properties":{"numer":"1332R","klasa":"droga zbiorcza","kat":"powiatowa"},"geometry":{"type":"LineString","coordinates":[[21.75226,50.07442],[21.7525,50.07594],[21.75238,50.07678],[21.75194,50.07834],[21.75069,50.08016],[21.75071,50.08157],[21.75007,50.08404],[21.74998,50.08473],[21.75015,50.08563],[21.74999,50.08609],[21.74913,50.08685],[21.74851,50.08763],[21.74675,50.08931],[21.74632,50.08965],[21.74526,50.0901],[21.7449,50.09037],[21.74382,50.09204],[21.74344,50.09247],[21.74241,50.0931],[21.74134,50.09397],[21.73994,50.09451],[21.73875,50.09526],[21.73818,50.09634],[21.73791,50.09794],[21.73659,50.1006],[21.73638,50.10082],[21.73553,50.101]]}},{"type":"Feature","properties":{"numer":"987","klasa":"droga zbiorcza","kat":"wojewodzka"},"geometry":{"type":"LineString","coordinates":[[21.73553,50.101],[21.74382,50.1116]]}},{"type":"Feature","properties":{"numer":"1332R","klasa":"droga zbiorcza","kat":"powiatowa"},"geometry":{"type":"LineString","coordinates":[[21.73553,50.101],[21.73444,50.10223],[21.73333,50.10401],[21.73308,50.10468],[21.73311,50.10538],[21.73345,50.10696],[21.73371,50.10735],[21.73465,50.10809],[21.73483,50.10852],[21.73458,50.11045],[21.73372,50.1123]]}},{"type":"Feature","properties":{"numer":"987","klasa":"droga zbiorcza","kat":"wojewodzka"},"geometry":{"type":"LineString","coordinates":[[21.74387,50.11167],[21.74382,50.1116]]}},{"type":"Feature","properties":{"numer":"987","klasa":"droga zbiorcza","kat":"wojewodzka"},"geometry":{"type":"LineString","coordinates":[[21.74451,50.11252],[21.74387,50.11167]]}},{"type":"Feature","properties":{"numer":"1332R","klasa":"droga zbiorcza","kat":"powiatowa"},"geometry":{"type":"LineString","coordinates":[[21.73368,50.11243],[21.73372,50.1123]]}},{"type":"Feature","properties":{"numer":"1332R","klasa":"droga zbiorcza","kat":"powiatowa"},"geometry":{"type":"LineString","coordinates":[[21.73344,50.11364],[21.73368,50.11243]]}},{"type":"Feature","properties":{"numer":"1331R","klasa":"droga zbiorcza","kat":"powiatowa"},"geometry":{"type":"LineString","coordinates":[[21.66566,50.09894],[21.66407,50.09964],[21.66247,50.10053],[21.66211,50.10053],[21.66152,50.10037],[21.65912,50.0988],[21.65872,50.09862],[21.65563,50.09807],[21.65394,50.09768],[21.65271,50.09874],[21.65217,50.09869],[21.64966,50.09766],[21.64725,50.09737],[21.64616,50.09636],[21.64482,50.09557],[21.64443,50.0955],[21.64256270813401,50.09560051674641]]}},{"type":"Feature","properties":{"numer":"A4,E40","klasa":"autostrada","kat":"krajowa"},"geometry":{"type":"LineString","coordinates":[[21.640697017361497,50.10938716443658],[21.64167,50.10949],[21.64345,50.10961],[21.64606,50.10966],[21.64973,50.1095],[21.67085,50.1081]]}},{"type":"Feature","properties":{"numer":"1225R,1331R","klasa":"droga zbiorcza","kat":"powiatowa"},"geometry":{"type":"LineString","coordinates":[[21.66625,50.09916],[21.66566,50.09894]]}},{"type":"Feature","properties":{"numer":"1225R","klasa":"droga zbiorcza","kat":"powiatowa"},"geometry":{"type":"LineString","coordinates":[[21.66625,50.09916],[21.66661,50.09962],[21.66881,50.10364]]}},{"type":"Feature","properties":{"numer":"1330R","klasa":"droga zbiorcza","kat":"powiatowa"},"geometry":{"type":"LineString","coordinates":[[21.70779,50.11472],[21.71016,50.10871],[21.70992,50.10819],[21.70745,50.10542],[21.70692,50.10418],[21.70726,50.10276],[21.70805,50.10136],[21.70869,50.09928],[21.70872,50.09863],[21.70854,50.09733],[21.70749,50.09363],[21.70716,50.09277],[21.70643,50.09158],[21.7048,50.08999],[21.70386,50.08831]]}},{"type":"Feature","properties":{"numer":"1331R","klasa":"droga zbiorcza","kat":"powiatowa"},"geometry":{"type":"LineString","coordinates":[[21.68686,50.10976],[21.6868,50.10914],[21.68624,50.10834],[21.68289,50.10493],[21.68253,50.10469],[21.68199,50.10455],[21.67979,50.10427],[21.67724,50.10377],[21.67509,50.10313],[21.67299,50.10231],[21.66809,50.09955],[21.66718,50.09925],[21.66625,50.09916]]}},{"type":"Feature","properties":{"numer":"1225R","klasa":"droga zbiorcza","kat":"powiatowa"},"geometry":{"type":"LineString","coordinates":[[21.67035,50.10698],[21.66881,50.10364]]}},{"type":"Feature","properties":{"numer":"1225R","klasa":"droga zbiorcza","kat":"powiatowa"},"geometry":{"type":"LineString","coordinates":[[21.67035,50.10698],[21.67072,50.1078]]}},{"type":"Feature","properties":{"numer":"1225R","klasa":"droga zbiorcza","kat":"powiatowa"},"geometry":{"type":"LineString","coordinates":[[21.67072,50.1078],[21.67085,50.1081]]}},{"type":"Feature","properties":{"numer":"1225R","klasa":"droga zbiorcza","kat":"powiatowa"},"geometry":{"type":"LineString","coordinates":[[21.67085,50.1081],[21.671,50.10843]]}},{"type":"Feature","properties":{"numer":"A4,E40","klasa":"autostrada","kat":"krajowa"},"geometry":{"type":"LineString","coordinates":[[21.67085,50.1081],[21.67492,50.10807],[21.67901,50.10835],[21.68287,50.1089],[21.68686,50.10976]]}},{"type":"Feature","properties":{"numer":"A4,E40","klasa":"autostrada","kat":"krajowa"},"geometry":{"type":"LineString","coordinates":[[21.68686,50.10976],[21.70332,50.11383],[21.70779,50.11472]]}},{"type":"Feature","properties":{"numer":"1331R","klasa":"droga zbiorcza","kat":"powiatowa"},"geometry":{"type":"LineString","coordinates":[[21.70678,50.11811],[21.70209,50.11704],[21.70117,50.11693],[21.69952,50.1169],[21.69602,50.11642],[21.69313,50.11568],[21.69107,50.11493],[21.68711,50.1132],[21.68639,50.11272],[21.68605,50.11221],[21.686,50.11184],[21.68625,50.11103],[21.68686,50.10976]]}},{"type":"Feature","properties":{"numer":"A4,E40","klasa":"autostrada","kat":"krajowa"},"geometry":{"type":"LineString","coordinates":[[21.70779,50.11472],[21.70988,50.11502],[21.71291,50.11532],[21.71599,50.11547],[21.71938,50.11546],[21.72186,50.11534],[21.72402,50.11513],[21.73346,50.11393]]}},{"type":"Feature","properties":{"numer":"1330R","klasa":"droga zbiorcza","kat":"powiatowa"},"geometry":{"type":"LineString","coordinates":[[21.70748,50.11561],[21.70779,50.11472]]}},{"type":"Feature","properties":{"numer":"1330R","klasa":"droga zbiorcza","kat":"powiatowa"},"geometry":{"type":"LineString","coordinates":[[21.70744,50.11571],[21.70748,50.11561]]}},{"type":"Feature","properties":{"numer":"1330R","klasa":"droga zbiorcza","kat":"powiatowa"},"geometry":{"type":"LineString","coordinates":[[21.70678,50.11811],[21.70744,50.11571]]}},{"type":"Feature","properties":{"numer":"1330R","klasa":"droga zbiorcza","kat":"powiatowa"},"geometry":{"type":"LineString","coordinates":[[21.711,50.12272],[21.71076,50.12049],[21.71034,50.11981],[21.70953,50.11928],[21.70678,50.11811]]}},{"type":"Feature","properties":{"numer":"1225R","klasa":"droga zbiorcza","kat":"powiatowa"},"geometry":{"type":"LineString","coordinates":[[21.671456347449848,50.12690399973777],[21.67145,50.12669],[21.67156,50.12619],[21.6725,50.12422],[21.67383,50.12073],[21.67392,50.11966],[21.67355,50.11838],[21.67357,50.11798],[21.67373,50.11736],[21.67456,50.11543],[21.67452,50.11511],[21.67367,50.11317],[21.67345,50.11282],[21.67248,50.11179],[21.671,50.10843]]}},{"type":"Feature","properties":{"numer":"1330R","klasa":"droga zbiorcza","kat":"powiatowa"},"geometry":{"type":"LineString","coordinates":[[21.69439,50.13608],[21.69692,50.13439],[21.69902,50.1338],[21.69985,50.13333],[21.70017,50.13304],[21.70105,50.13183],[21.70177,50.13049],[21.70209,50.12954],[21.70239,50.12773],[21.70291,50.12659],[21.70309,50.12586],[21.70709,50.12418],[21.711,50.12272]]}},{"type":"Feature","properties":{"numer":"1332R","klasa":"droga zbiorcza","kat":"powiatowa"},"geometry":{"type":"LineString","coordinates":[[21.71693,50.14481],[21.71993,50.14285],[21.72054,50.14236],[21.7223,50.13957],[21.72284,50.13745],[21.72307,50.13704],[21.72421,50.13611],[21.72604,50.13538],[21.72686,50.13495],[21.72924,50.13298],[21.73104,50.13046],[21.7341,50.12571],[21.7352,50.12438],[21.73566,50.12346],[21.73578,50.12294],[21.73534,50.11867],[21.73504,50.11774],[21.73393,50.11573],[21.73348,50.11423]]}},{"type":"Feature","properties":{"numer":"A4,E40","klasa":"autostrada","kat":"krajowa"},"geometry":{"type":"LineString","coordinates":[[21.73346,50.11393],[21.74451,50.11252]]}},{"type":"Feature","properties":{"numer":"1332R","klasa":"droga zbiorcza","kat":"powiatowa"},"geometry":{"type":"LineString","coordinates":[[21.73346,50.11393],[21.73344,50.11364]]}},{"type":"Feature","properties":{"numer":"1332R","klasa":"droga zbiorcza","kat":"powiatowa"},"geometry":{"type":"LineString","coordinates":[[21.73348,50.11423],[21.73346,50.11393]]}},{"type":"Feature","properties":{"numer":"A4,E40","klasa":"autostrada","kat":"krajowa"},"geometry":{"type":"LineString","coordinates":[[21.74451,50.11252],[21.74869,50.11218],[21.75069,50.1121],[21.75388,50.11218],[21.75687,50.1124],[21.76231,50.11319],[21.788827576448572,50.11770936122318]]}},{"type":"Feature","properties":{"numer":"987","klasa":"droga zbiorcza","kat":"wojewodzka"},"geometry":{"type":"LineString","coordinates":[[21.7539,50.12496],[21.75374,50.12436],[21.74451,50.11252]]}},{"type":"Feature","properties":{"numer":"1333R","klasa":"droga zbiorcza","kat":"powiatowa"},"geometry":{"type":"LineString","coordinates":[[21.7539,50.12496],[21.75709,50.12574],[21.75868,50.12597],[21.76411,50.12658],[21.77409,50.12744],[21.77512,50.12746],[21.77661,50.12722],[21.77791,50.12691],[21.78069,50.12561],[21.78403,50.12437],[21.78709,50.12405],[21.78864,50.12404],[21.78983,50.12375],[21.79017,50.12352],[21.79111,50.12216],[21.79156,50.12189],[21.79321935214211,50.12169087774295]]}},{"type":"Feature","properties":{"numer":"987","klasa":"droga zbiorcza","kat":"wojewodzka"},"geometry":{"type":"LineString","coordinates":[[21.75786,50.14764],[21.75422,50.13807],[21.75399,50.13723],[21.7539,50.12496]]}},{"type":"Feature","properties":{"numer":"987","klasa":"droga zbiorcza","kat":"wojewodzka"},"geometry":{"type":"LineString","coordinates":[[21.75789,50.14778],[21.75786,50.14764]]}},{"type":"Feature","properties":{"numer":"987","klasa":"droga zbiorcza","kat":"wojewodzka"},"geometry":{"type":"LineString","coordinates":[[21.759847819515155,50.16879971985544],[21.75987,50.16856],[21.75789,50.14778]]}},{"type":"Feature","properties":{"numer":"1232R","klasa":"droga zbiorcza","kat":"powiatowa"},"geometry":{"type":"LineString","coordinates":[[21.671707142599523,50.1325353315901],[21.67337,50.13281],[21.67407,50.13282],[21.68049,50.13186],[21.68203,50.13297],[21.68309,50.13343],[21.68657,50.13407],[21.68879,50.13463],[21.69055,50.13484],[21.69092,50.13497],[21.69191,50.13557],[21.69342,50.13613]]}},{"type":"Feature","properties":{"numer":"1232R","klasa":"droga zbiorcza","kat":"powiatowa"},"geometry":{"type":"LineString","coordinates":[[21.69342,50.13613],[21.69439,50.13608]]}},{"type":"Feature","properties":{"numer":"1232R","klasa":"droga zbiorcza","kat":"powiatowa"},"geometry":{"type":"LineString","coordinates":[[21.69439,50.13608],[21.69494,50.13612],[21.69552,50.13631],[21.69666,50.13737],[21.69861,50.1382],[21.70286,50.13867],[21.70537,50.13906],[21.70651,50.13933],[21.70789,50.14042],[21.71276,50.1423],[21.71378,50.14276],[21.7146,50.14326],[21.7156,50.14406],[21.71693,50.14481]]}},{"type":"Feature","properties":{"numer":"1232R","klasa":"droga zbiorcza","kat":"powiatowa"},"geometry":{"type":"LineString","coordinates":[[21.71693,50.14481],[21.71764,50.146],[21.71836,50.14678],[21.7183,50.1473]]}},{"type":"Feature","properties":{"numer":"1232R","klasa":"droga zbiorcza","kat":"powiatowa"},"geometry":{"type":"LineString","coordinates":[[21.7183,50.1473],[21.71824,50.14739]]}},{"type":"Feature","properties":{"numer":"1232R","klasa":"droga zbiorcza","kat":"powiatowa"},"geometry":{"type":"LineString","coordinates":[[21.71733,50.15004],[21.71751,50.14929],[21.71792,50.14841],[21.71824,50.14739]]}},{"type":"Feature","properties":{"numer":"1232R","klasa":"droga zbiorcza","kat":"powiatowa"},"geometry":{"type":"LineString","coordinates":[[21.71733,50.15004],[21.71766,50.15087],[21.71835,50.15209],[21.71973,50.1531],[21.72124,50.15472],[21.72144,50.15508],[21.72152,50.15556],[21.72128,50.15602],[21.72128,50.15631],[21.72237,50.15929],[21.72257,50.16034],[21.72361,50.16266],[21.72371,50.16394],[21.72428,50.1659]]}},{"type":"Feature","properties":{"numer":"1232R","klasa":"droga zbiorcza","kat":"powiatowa"},"geometry":{"type":"LineString","coordinates":[[21.72450210633626,50.16698527917189],[21.7245,50.16698],[21.72428,50.1659]]}},{"type":"Feature","properties":{"numer":"1342R","klasa":"droga zbiorcza","kat":"powiatowa"},"geometry":{"type":"LineString","coordinates":[[21.626156251086474,49.975246115833876],[21.62634,49.97541],[21.62646,49.97592],[21.62609,49.97812],[21.62618,49.97834]]}},{"type":"Feature","properties":{"numer":"1327R","klasa":"","kat":"powiatowa"},"geometry":{"type":"LineString","coordinates":[[21.623737624588916,49.98181975208703],[21.62395,49.98172],[21.62433,49.98133],[21.62512,49.97986],[21.62618,49.97834]]}},{"type":"Feature","properties":{"numer":"1342R","klasa":"droga zbiorcza","kat":"powiatowa"},"geometry":{"type":"LineString","coordinates":[[21.62618,49.97834],[21.629,49.9788],[21.63393,49.97913],[21.63658,49.97927],[21.64208,49.97938],[21.64451,49.98013],[21.64557,49.9806],[21.64705,49.98215],[21.64714,49.98239],[21.64631,49.98531],[21.64558,49.98646],[21.64531,49.98866],[21.64537,49.98914],[21.64635,49.9906],[21.64722,49.99103],[21.64748,49.99134],[21.64736,49.99281],[21.64784,49.99434],[21.64809,49.99477],[21.64946,49.99619],[21.65222,49.99767],[21.65273,49.99812],[21.65301,49.999],[21.65354,49.99989],[21.65325,50.0017],[21.65343,50.00215],[21.65371,50.00243],[21.65525,50.0032],[21.65641,50.00402],[21.65776,50.00457],[21.65825,50.005],[21.65832,50.00555],[21.65758,50.00716],[21.65767,50.00743],[21.6583,50.00821],[21.65934,50.00903],[21.66003,50.00935],[21.66095,50.00945],[21.66205,50.00925],[21.66254,50.00926],[21.66458,50.01017],[21.66606,50.01035],[21.66758,50.01073],[21.66863,50.01074],[21.66903,50.01081],[21.67067,50.01199],[21.67121,50.01294],[21.67213,50.0135],[21.67286,50.01422],[21.67464,50.0154]]}}]}