{"type":"FeatureCollection","features":[{"type":"Feature","properties":{"numer":"1340R","klasa":"","kat":"powiatowa"},"geometry":{"type":"LineString","coordinates":[[21.74804,49.97486],[21.75183,49.97299],[21.754954331103672,49.97182331939799]]}},{"type":"Feature","properties":{"numer":"1340R","klasa":"","kat":"powiatowa"},"geometry":{"type":"LineString","coordinates":[[21.74712,49.97589],[21.74804,49.97486]]}},{"type":"Feature","properties":{"numer":"","klasa":"droga zbiorcza","kat":"powiatowa"},"geometry":{"type":"LineString","coordinates":[[21.69531,49.96415],[21.69531142857143,49.96416142857143]]}},{"type":"Feature","properties":{"numer":"1391R","klasa":"droga zbiorcza","kat":"powiatowa"},"geometry":{"type":"LineString","coordinates":[[21.79691,50.00043],[21.796929449443656,50.00042269014198]]}},{"type":"Feature","properties":{"numer":"1337R","klasa":"droga zbiorcza","kat":"powiatowa"},"geometry":{"type":"LineString","coordinates":[[21.695546666666676,49.96439666666667],[21.69566,49.96448],[21.695702499999996,49.964552499999996]]}},{"type":"Feature","properties":{"numer":"1337R","klasa":"droga zbiorcza","kat":"powiatowa"},"geometry":{"type":"LineString","coordinates":[[21.695979798842657,49.96615223477543],[21.69605,49.9668],[21.69636,49.96777],[21.69663,49.96812],[21.69703,49.96834],[21.69889,49.96904],[21.70095,49.97019],[21.70236,49.97144],[21.70428,49.97388],[21.70484,49.97433],[21.7055,49.97465],[21.70789,49.9752],[21.71028,49.97617],[21.71141,49.97678],[21.71398,49.97858],[21.71419,49.97922],[21.71347,49.98379],[21.71372,49.98452],[21.71434,49.98517],[21.71543,49.9857],[21.7188,49.98646],[21.72345,49.98873],[21.72732,49.98986],[21.72886,49.99099],[21.73114,49.99156],[21.73265,49.99205]]}},{"type":"Feature","properties":{"numer":"107423R","klasa":"droga lokalna","kat":"powiatowa"},"geometry":{"type":"LineString","coordinates":[[21.7062,49.99223],[21.70619,49.99097]]}},{"type":"Feature","properties":{"numer":"1341R","klasa":"droga zbiorcza","kat":"powiatowa"},"geometry":{"type":"LineString","coordinates":[[21.73265,49.99205],[21.72845,49.99192],[21.72572,49.99195],[21.7202,49.99229],[21.71669,49.99229],[21.71296,49.99165],[21.70619,49.99097]]}},{"type":"Feature","properties":{"numer":"107423R","klasa":"droga lokalna","kat":"powiatowa"},"geometry":{"type":"LineString","coordinates":[[21.7062,49.9924],[21.7062,49.99223]]}},{"type":"Feature","properties":{"numer":"107423R","klasa":"droga lokalna","kat":"powiatowa"},"geometry":{"type":"LineString","coordinates":[[21.70624,49.99257],[21.7062,49.9924]]}},{"type":"Feature","properties":{"numer":"107423R","klasa":"droga lokalna","kat":"powiatowa"},"geometry":{"type":"LineString","coordinates":[[21.70614,49.99459],[21.70641,49.99358],[21.70624,49.99257]]}},{"type":"Feature","properties":{"numer":"107423R","klasa":"droga lokalna","kat":"powiatowa"},"geometry":{"type":"LineString","coordinates":[[21.70573,49.99607],[21.70614,49.99459]]}},{"type":"Feature","properties":{"numer":"107423R","klasa":"droga lokalna","kat":"powiatowa"},"geometry":{"type":"LineString","coordinates":[[21.70611,49.99729],[21.70576,49.99646],[21.70573,49.99607]]}},{"type":"Feature","properties":{"numer":"1355R","klasa":"","kat":"powiatowa"},"geometry":{"type":"LineString","coordinates":[[21.70611,49.99729],[21.70744,49.99758],[21.71292,49.99715],[21.71664,49.99715],[21.71683,49.99712],[21.71737,49.99678],[21.71766,49.99674],[21.72055,49.9969],[21.72298,49.99691],[21.72535,49.99773],[21.72786,49.99878],[21.73051,49.99908],[21.73177,49.99942],[21.7332,50.00045],[21.73553,50.00104],[21.73571,50.00118],[21.73579,50.00151],[21.73599,50.00166],[21.73877,50.00259],[21.74237,50.00352],[21.74817,50.00478],[21.7555,50.00575]]}},{"type":"Feature","properties":{"numer":"1341R","klasa":"droga zbiorcza","kat":"powiatowa"},"geometry":{"type":"LineString","coordinates":[[21.70619,49.99097],[21.70409,49.99135],[21.70213,49.99147],[21.70097,49.99168],[21.7002,49.99192],[21.69927,49.9927],[21.69874,49.99287],[21.696812832596187,49.99267181611805]]}},{"type":"Feature","properties":{"numer":"1340R","klasa":"","kat":"powiatowa"},"geometry":{"type":"LineString","coordinates":[[21.7361,49.99268],[21.73746,49.9917],[21.73757,49.9915],[21.7362,49.99037],[21.7361,49.98867],[21.73543,49.98743],[21.73374,49.98617],[21.73555,49.9848],[21.73758,49.98366],[21.74246,49.98068],[21.74418,49.97913],[21.74712,49.97589]]}},{"type":"Feature","properties":{"numer":"1337R","klasa":"droga zbiorcza","kat":"powiatowa"},"geometry":{"type":"LineString","coordinates":[[21.73265,49.99205],[21.73352,49.99233]]}},{"type":"Feature","properties":{"numer":"1337R","klasa":"droga zbiorcza","kat":"powiatowa"},"geometry":{"type":"LineString","coordinates":[[21.73352,49.99233],[21.73377,49.99243]]}},{"type":"Feature","properties":{"numer":"1340R","klasa":"","kat":"powiatowa"},"geometry":{"type":"LineString","coordinates":[[21.7361,49.99268],[21.73601,49.99275]]}},{"type":"Feature","properties":{"numer":"1337R","klasa":"droga zbiorcza","kat":"powiatowa"},"geometry":{"type":"LineString","coordinates":[[21.73377,49.99243],[21.73542,49.99318]]}},{"type":"Feature","properties":{"numer":"1340R","klasa":"","kat":"powiatowa"},"geometry":{"type":"LineString","coordinates":[[21.73601,49.99275],[21.73542,49.99318]]}},{"type":"Feature","properties":{"numer":"1337R","klasa":"droga zbiorcza","kat":"powiatowa"},"geometry":{"type":"LineString","coordinates":[[21.73542,49.99318],[21.73701,49.99401],[21.74238,49.99747],[21.74434,49.99864],[21.74635,49.99957],[21.74689,49.99961],[21.74839,49.99946],[21.74892,49.99957],[21.7494,49.99986],[21.75033,50.00074],[21.75327,50.00219],[21.75411,50.00291],[21.75482,50.00391],[21.75545,50.00528],[21.7555,50.00575]]}},{"type":"Feature","properties":{"numer":"1337R","klasa":"droga zbiorcza","kat":"powiatowa"},"geometry":{"type":"LineString","coordinates":[[21.75271,50.01911],[21.75213,50.0152],[21.75345,50.01187],[21.754,50.01085],[21.75428,50.01047],[21.75505,50.00977],[21.75564,50.00896],[21.75569,50.00838],[21.75548,50.0069],[21.7555,50.00575]]}},{"type":"Feature","properties":{"numer":"1337R","klasa":"droga zbiorcza","kat":"powiatowa"},"geometry":{"type":"LineString","coordinates":[[21.75272,50.0192],[21.75271,50.01911]]}},{"type":"Feature","properties":{"numer":"1337R","klasa":"droga zbiorcza","kat":"powiatowa"},"geometry":{"type":"LineString","coordinates":[[21.75687,50.02621],[21.75319,50.02182],[21.75272,50.0192]]}},{"type":"Feature","properties":{"numer":"1338R","klasa":"droga zbiorcza","kat":"powiatowa"},"geometry":{"type":"LineString","coordinates":[[21.78709,50.02035],[21.78554,50.01809],[21.78474,50.0164],[21.78473,50.01586],[21.78951,50.00967],[21.79083,50.00661],[21.79368,50.00186],[21.79396,50.0016],[21.79468,50.00118],[21.79691,50.00043]]}},{"type":"Feature","properties":{"numer":"1339R","klasa":"","kat":"powiatowa"},"geometry":{"type":"LineString","coordinates":[[21.79233,50.01957],[21.79243,50.01955]]}},{"type":"Feature","properties":{"numer":"1339R","klasa":"","kat":"powiatowa"},"geometry":{"type":"LineString","coordinates":[[21.78737,50.02079],[21.7877,50.02076],[21.78938,50.02016],[21.79067,50.01981],[21.79233,50.01957]]}},{"type":"Feature","properties":{"numer":"1338R","klasa":"droga zbiorcza","kat":"powiatowa"},"geometry":{"type":"LineString","coordinates":[[21.78714,50.02042],[21.78709,50.02035]]}},{"type":"Feature","properties":{"numer":"1338R","klasa":"droga zbiorcza","kat":"powiatowa"},"geometry":{"type":"LineString","coordinates":[[21.78737,50.02079],[21.78714,50.02042]]}},{"type":"Feature","properties":{"numer":"1339R","klasa":"","kat":"powiatowa"},"geometry":{"type":"LineString","coordinates":[[21.79243,50.01955],[21.79392,50.01921],[21.79444,50.0192],[21.79489,50.0193],[21.79956,50.02222],[21.80112,50.02293],[21.80282,50.0241],[21.8055,50.02524],[21.80815,50.02551],[21.81013,50.02616]]}},{"type":"Feature","properties":{"numer":"1338R","klasa":"droga zbiorcza","kat":"powiatowa"},"geometry":{"type":"LineString","coordinates":[[21.76408,50.02655],[21.76676,50.02667],[21.76947,50.02736],[21.77228,50.02711],[21.77486,50.02589],[21.77729,50.02462],[21.77823,50.02355],[21.77996,50.02254],[21.78051,50.02237],[21.78685,50.02104],[21.78737,50.02079]]}},{"type":"Feature","properties":{"numer":"1338R","klasa":"droga zbiorcza","kat":"powiatowa"},"geometry":{"type":"LineString","coordinates":[[21.76082,50.02648],[21.75959,50.02644],[21.75687,50.02621]]}},{"type":"Feature","properties":{"numer":"1338R","klasa":"droga zbiorcza","kat":"powiatowa"},"geometry":{"type":"LineString","coordinates":[[21.76109,50.02649],[21.76082,50.02648]]}},{"type":"Feature","properties":{"numer":"1338R","klasa":"droga zbiorcza","kat":"powiatowa"},"geometry":{"type":"LineString","coordinates":[[21.76392,50.02655],[21.76109,50.02649]]}},{"type":"Feature","properties":{"numer":"1338R","klasa":"droga zbiorcza","kat":"powiatowa"},"geometry":{"type":"LineString","coordinates":[[21.76408,50.02655],[21.76392,50.02655]]}},{"type":"Feature","properties":{"numer":"1337R","klasa":"droga zbiorcza","kat":"powiatowa"},"geometry":{"type":"LineString","coordinates":[[21.7325,50.0628],[21.73737,50.05683],[21.73802,50.05648],[21.74346,50.0542],[21.74382,50.05394],[21.74565,50.05214],[21.74608,50.05132],[21.74611,50.05097],[21.74584,50.05057],[21.74476,50.04973],[21.7446,50.04931],[21.74645,50.03541],[21.74693,50.035],[21.75487,50.03028],[21.75522,50.02981],[21.75666,50.02693],[21.75687,50.02621]]}},{"type":"Feature","properties":{"numer":"1336R","klasa":"droga zbiorcza","kat":"powiatowa"},"geometry":{"type":"LineString","coordinates":[[21.773595024091108,50.055307420061325],[21.77348,50.05523],[21.77315,50.05431],[21.77284,50.054],[21.77175,50.05338],[21.76987,50.05258],[21.76772,50.05145],[21.76614,50.05085],[21.766,50.05095],[21.76561,50.05181],[21.76429,50.05322],[21.76369,50.05373],[21.76122,50.05507],[21.76013,50.05539]]}},{"type":"Feature","properties":{"numer":"1332R","klasa":"droga zbiorcza","kat":"powiatowa"},"geometry":{"type":"LineString","coordinates":[[21.76013,50.05539],[21.75798,50.06212]]}},{"type":"Feature","properties":{"numer":"1336R","klasa":"droga zbiorcza","kat":"powiatowa"},"geometry":{"type":"LineString","coordinates":[[21.76013,50.05539],[21.75412,50.05623],[21.749,50.05736],[21.74755,50.05814],[21.74446,50.05933],[21.74039,50.06236],[21.73996,50.06251],[21.73925,50.06252]]}},{"type":"Feature","properties":{"numer":"1332R","klasa":"droga zbiorcza","kat":"powiatowa"},"geometry":{"type":"LineString","coordinates":[[21.7579,50.06244],[21.75798,50.06212]]}},{"type":"Feature","properties":{"numer":"1336R","klasa":"droga zbiorcza","kat":"powiatowa"},"geometry":{"type":"LineString","coordinates":[[21.73902,50.0625],[21.73925,50.06252]]}},{"type":"Feature","properties":{"numer":"1336R","klasa":"droga zbiorcza","kat":"powiatowa"},"geometry":{"type":"LineString","coordinates":[[21.7325,50.0628],[21.73361,50.06271],[21.73487,50.06235],[21.73541,50.06228],[21.73902,50.0625]]}},{"type":"Feature","properties":{"numer":"1332R","klasa":"droga zbiorcza","kat":"powiatowa"},"geometry":{"type":"LineString","coordinates":[[21.7579,50.06244],[21.75669,50.0673],[21.75676,50.06799],[21.75733,50.07036]]}},{"type":"Feature","properties":{"numer":"1337R","klasa":"droga zbiorcza","kat":"powiatowa"},"geometry":{"type":"LineString","coordinates":[[21.73163059382681,50.063898551986284],[21.7325,50.0628]]}},{"type":"Feature","properties":{"numer":"94","klasa":"droga gĹ‚Ăłwna ruchu przyĹ›pieszonego","kat":"krajowa"},"geometry":{"type":"LineString","coordinates":[[21.743156898837267,50.07000093052354],[21.75343,50.07026]]}},{"type":"Feature","properties":{"numer":"94","klasa":"droga gĹ‚Ăłwna ruchu przyĹ›pieszonego","kat":"krajowa"},"geometry":{"type":"LineString","coordinates":[[21.75343,50.07026],[21.75465,50.07029]]}},{"type":"Feature","properties":{"numer":"94","klasa":"droga gĹ‚Ăłwna ruchu przyĹ›pieszonego","kat":"krajowa"},"geometry":{"type":"LineString","coordinates":[[21.75465,50.07029],[21.75733,50.07036]]}},{"type":"Feature","properties":{"numer":"94","klasa":"droga gĹ‚Ăłwna ruchu przyĹ›pieszonego","kat":"krajowa"},"geometry":{"type":"LineString","coordinates":[[21.75733,50.07036],[21.75904,50.07039]]}},{"type":"Feature","properties":{"numer":"94","klasa":"droga gĹ‚Ăłwna ruchu przyĹ›pieszonego","kat":"krajowa"},"geometry":{"type":"LineString","coordinates":[[21.75904,50.07039],[21.7658,50.07057]]}},{"type":"Feature","properties":{"numer":"94","klasa":"droga gĹ‚Ăłwna ruchu przyĹ›pieszonego","kat":"krajowa"},"geometry":{"type":"LineString","coordinates":[[21.7658,50.07057],[21.76611,50.07057]]}},{"type":"Feature","properties":{"numer":"94","klasa":"droga gĹ‚Ăłwna ruchu przyĹ›pieszonego","kat":"krajowa"},"geometry":{"type":"LineString","coordinates":[[21.76611,50.07057],[21.76725815706663,50.07059800383089]]}},{"type":"Feature","properties":{"numer":"1332R","klasa":"droga zbiorcza","kat":"powiatowa"},"geometry":{"type":"LineString","coordinates":[[21.75465,50.07029],[21.75454,50.07098],[21.7543,50.07145],[21.75285,50.07252],[21.75222,50.07341],[21.75211,50.07383],[21.752233942644935,50.074317507736744]]}}]}