{"type":"FeatureCollection","features":[{"type":"Feature","properties":{"numer":"1329R","klasa":"","kat":"powiatowa"},"geometry":{"type":"LineString","coordinates":[[21.633312480453778,50.08596649854361],[21.63262,50.08969],[21.6324,50.09022],[21.63144,50.09079],[21.63102,50.09089]]}},{"type":"Feature","properties":{"numer":"986","klasa":"droga zbiorcza","kat":"wojewodzka"},"geometry":{"type":"LineString","coordinates":[[21.59111,50.08958],[21.590586458744163,50.0889473876492]]}},{"type":"Feature","properties":{"numer":"1329R","klasa":"","kat":"powiatowa"},"geometry":{"type":"LineString","coordinates":[[21.63102,50.09089],[21.63067,50.09092]]}},{"type":"Feature","properties":{"numer":"1329R","klasa":"","kat":"powiatowa"},"geometry":{"type":"LineString","coordinates":[[21.63067,50.09092],[21.63009,50.09099],[21.62986,50.09116],[21.6287,50.09413],[21.62853,50.09474],[21.62889,50.09567]]}},{"type":"Feature","properties":{"numer":"986","klasa":"droga zbiorcza","kat":"wojewodzka"},"geometry":{"type":"LineString","coordinates":[[21.59363,50.09736],[21.59353,50.09526],[21.59284,50.09281],[21.59169,50.09033],[21.59111,50.08958]]}},{"type":"Feature","properties":{"numer":"1329R","klasa":"","kat":"powiatowa"},"geometry":{"type":"LineString","coordinates":[[21.62889,50.09567],[21.62902,50.09595]]}},{"type":"Feature","properties":{"numer":"1329R","klasa":"","kat":"powiatowa"},"geometry":{"type":"LineString","coordinates":[[21.62902,50.09595],[21.62919,50.09647],[21.62904,50.0973],[21.62906,50.09856]]}},{"type":"Feature","properties":{"numer":"986","klasa":"droga zbiorcza","kat":"wojewodzka"},"geometry":{"type":"LineString","coordinates":[[21.59356,50.0977],[21.59363,50.09736]]}},{"type":"Feature","properties":{"numer":"986","klasa":"droga zbiorcza","kat":"wojewodzka"},"geometry":{"type":"LineString","coordinates":[[21.584685053763454,50.0833182795699],[21.58454,50.08321],[21.58433437764055,50.082951582710415]]}},{"type":"Feature","properties":{"numer":"1286R","klasa":"droga zbiorcza","kat":"powiatowa"},"geometry":{"type":"LineString","coordinates":[[21.56539,50.09033],[21.56682,50.08916],[21.56844,50.08817],[21.56966,50.08773],[21.57252,50.08715],[21.57301,50.08693],[21.57405,50.0862],[21.57585,50.08551],[21.58448382385664,50.08627776121603]]}},{"type":"Feature","properties":{"numer":"1286R","klasa":"droga zbiorcza","kat":"powiatowa"},"geometry":{"type":"LineString","coordinates":[[21.56513,50.09067],[21.56539,50.09033]]}},{"type":"Feature","properties":{"numer":"1286R","klasa":"droga zbiorcza","kat":"powiatowa"},"geometry":{"type":"LineString","coordinates":[[21.540212219215157,50.09624132611638],[21.54278,50.09652],[21.55088,50.097],[21.55388,50.09642],[21.55429,50.09624],[21.55472,50.09512],[21.55452,50.09393],[21.55458,50.09334],[21.55476,50.09303],[21.55553,50.0926],[21.55636,50.09242],[21.55795,50.09243],[21.56029,50.09307],[21.56152,50.09295],[21.56269,50.09275],[21.56308,50.09261],[21.56428,50.09175],[21.56513,50.09067]]}},{"type":"Feature","properties":{"numer":"A4,E40","klasa":"autostrada","kat":"krajowa"},"geometry":{"type":"LineString","coordinates":[[21.542162565342313,50.098866532448234],[21.54248,50.0989],[21.54481,50.09924],[21.58945,50.10697],[21.59152,50.10725],[21.5939,50.10747]]}},{"type":"Feature","properties":{"numer":"1284R","klasa":"droga zbiorcza","kat":"powiatowa"},"geometry":{"type":"LineString","coordinates":[[21.56586247549079,50.125549324340604],[21.56665,50.12548],[21.58541,50.12276]]}},{"type":"Feature","properties":{"numer":"1331R","klasa":"droga zbiorcza","kat":"powiatowa"},"geometry":{"type":"LineString","coordinates":[[21.64256270813401,50.09560051674641],[21.6396,50.09576],[21.63859,50.09596],[21.63418,50.09858],[21.63374,50.09876],[21.63301,50.09878],[21.63012,50.09863]]}},{"type":"Feature","properties":{"numer":"986","klasa":"droga zbiorcza","kat":"wojewodzka"},"geometry":{"type":"LineString","coordinates":[[21.59331,50.09947],[21.59319,50.0986],[21.59356,50.0977]]}},{"type":"Feature","properties":{"numer":"1329R,1331R","klasa":"","kat":"powiatowa"},"geometry":{"type":"LineString","coordinates":[[21.63012,50.09863],[21.62906,50.09856]]}},{"type":"Feature","properties":{"numer":"1331R","klasa":"droga zbiorcza","kat":"powiatowa"},"geometry":{"type":"LineString","coordinates":[[21.62906,50.09856],[21.62642,50.0984],[21.62528,50.09841],[21.61303,50.09977],[21.6038,50.10106],[21.60187,50.10103],[21.59882,50.10086],[21.59822,50.10062],[21.59746,50.1],[21.59672,50.09971],[21.59331,50.09947]]}},{"type":"Feature","properties":{"numer":"1329R","klasa":"","kat":"powiatowa"},"geometry":{"type":"LineString","coordinates":[[21.63746,50.10829],[21.63607,50.10813],[21.63515,50.10784],[21.63447,50.10742],[21.63413,50.10703],[21.63365,50.10579],[21.63295,50.10459],[21.6325,50.10353],[21.63168,50.10258],[21.63164,50.10056],[21.63132,50.09955],[21.63093,50.09912],[21.63012,50.09863]]}},{"type":"Feature","properties":{"numer":"986","klasa":"droga zbiorcza","kat":"wojewodzka"},"geometry":{"type":"LineString","coordinates":[[21.5939,50.10747],[21.59382,50.10527],[21.59318,50.10164],[21.5934,50.10052],[21.59331,50.09947]]}},{"type":"Feature","properties":{"numer":"A4,E40","klasa":"autostrada","kat":"krajowa"},"geometry":{"type":"LineString","coordinates":[[21.5939,50.10747],[21.5963,50.10756],[21.59954,50.10747],[21.61419,50.10618],[21.61567,50.10608],[21.61871,50.10605],[21.62195,50.10625],[21.62465,50.1066],[21.63745,50.10895]]}},{"type":"Feature","properties":{"numer":"1329R","klasa":"","kat":"powiatowa"},"geometry":{"type":"LineString","coordinates":[[21.6376,50.10842],[21.63763,50.1083],[21.63746,50.10829]]}},{"type":"Feature","properties":{"numer":"1329R","klasa":"","kat":"powiatowa"},"geometry":{"type":"LineString","coordinates":[[21.63745,50.10895],[21.6376,50.10842]]}},{"type":"Feature","properties":{"numer":"A4,E40","klasa":"autostrada","kat":"krajowa"},"geometry":{"type":"LineString","coordinates":[[21.63745,50.10895],[21.63921,50.10923],[21.640697017361497,50.10938716443658]]}},{"type":"Feature","properties":{"numer":"1329R","klasa":"","kat":"powiatowa"},"geometry":{"type":"LineString","coordinates":[[21.63699,50.11085],[21.63745,50.10895]]}},{"type":"Feature","properties":{"numer":"1329R","klasa":"","kat":"powiatowa"},"geometry":{"type":"LineString","coordinates":[[21.62503,50.11848],[21.62384,50.11547],[21.62389,50.11508],[21.62572,50.11445],[21.62747,50.11408],[21.62904,50.11399],[21.63092,50.114],[21.63156,50.1139],[21.63204,50.11372],[21.63368,50.11258],[21.6366,50.11099],[21.63699,50.11085]]}},{"type":"Feature","properties":{"numer":"986","klasa":"droga zbiorcza","kat":"wojewodzka"},"geometry":{"type":"LineString","coordinates":[[21.58583,50.12265],[21.58519,50.12058],[21.58539,50.11898],[21.58494,50.11753],[21.58558,50.11609],[21.58584,50.1157],[21.58635,50.11525],[21.59044,50.11245],[21.5914,50.11166],[21.59319,50.10977],[21.59358,50.10897],[21.5939,50.10747]]}},{"type":"Feature","properties":{"numer":"1284R","klasa":"droga zbiorcza","kat":"powiatowa"},"geometry":{"type":"LineString","coordinates":[[21.58541,50.12276],[21.58583,50.12265]]}},{"type":"Feature","properties":{"numer":"986","klasa":"droga zbiorcza","kat":"wojewodzka"},"geometry":{"type":"LineString","coordinates":[[21.58588,50.12282],[21.58583,50.12265]]}},{"type":"Feature","properties":{"numer":"1284R","klasa":"droga zbiorcza","kat":"powiatowa"},"geometry":{"type":"LineString","coordinates":[[21.58541,50.12276],[21.58588,50.12282]]}},{"type":"Feature","properties":{"numer":"1329R","klasa":"","kat":"powiatowa"},"geometry":{"type":"LineString","coordinates":[[21.64829,50.13255],[21.64607,50.13244],[21.64461,50.13181],[21.64265,50.13136],[21.64121,50.13039],[21.63857,50.12937],[21.63734,50.12861],[21.63693,50.12851],[21.63462,50.12826],[21.63156,50.12769],[21.63046,50.12737],[21.62932,50.12666],[21.62804,50.12649],[21.62763,50.12462],[21.62793,50.1223],[21.62698,50.12141],[21.62503,50.11848]]}},{"type":"Feature","properties":{"numer":"986","klasa":"droga zbiorcza","kat":"wojewodzka"},"geometry":{"type":"LineString","coordinates":[[21.5861,50.1388],[21.58678,50.13787],[21.58705,50.1373],[21.58753,50.13244],[21.58836,50.13061],[21.58588,50.12282]]}},{"type":"Feature","properties":{"numer":"1328R","klasa":"droga zbiorcza","kat":"powiatowa"},"geometry":{"type":"LineString","coordinates":[[21.6483,50.13326],[21.64829,50.13255]]}},{"type":"Feature","properties":{"numer":"1328R","klasa":"droga zbiorcza","kat":"powiatowa"},"geometry":{"type":"LineString","coordinates":[[21.6483,50.1334],[21.6483,50.13326]]}},{"type":"Feature","properties":{"numer":"1282R","klasa":"droga zbiorcza","kat":"powiatowa"},"geometry":{"type":"LineString","coordinates":[[21.527968252116526,50.15340882007866],[21.52806,50.15339]]}},{"type":"Feature","properties":{"numer":"986","klasa":"droga zbiorcza","kat":"wojewodzka"},"geometry":{"type":"LineString","coordinates":[[21.58292,50.14296],[21.58348,50.14243],[21.58603,50.1389]]}},{"type":"Feature","properties":{"numer":"986","klasa":"droga zbiorcza","kat":"wojewodzka"},"geometry":{"type":"LineString","coordinates":[[21.55414,50.15708],[21.55576,50.15686],[21.55652,50.15658],[21.58292,50.14296]]}},{"type":"Feature","properties":{"numer":"986","klasa":"droga zbiorcza","kat":"wojewodzka"},"geometry":{"type":"LineString","coordinates":[[21.51983,50.16307],[21.53061,50.16129],[21.53143,50.16099],[21.53516,50.15929],[21.53892,50.15824],[21.54064,50.15815],[21.5464,50.15808],[21.55414,50.15708]]}},{"type":"Feature","properties":{"numer":"1177R","klasa":"","kat":"powiatowa"},"geometry":{"type":"LineString","coordinates":[[21.55414,50.15708],[21.55987,50.15755],[21.57144,50.16043],[21.5726,50.16065],[21.58849,50.16313],[21.5923,50.16333],[21.59361,50.16355],[21.5945,50.16391],[21.59543,50.16451],[21.61339,50.17716]]}},{"type":"Feature","properties":{"numer":"986","klasa":"droga zbiorcza","kat":"wojewodzka"},"geometry":{"type":"LineString","coordinates":[[21.51971,50.16309],[21.51983,50.16307]]}},{"type":"Feature","properties":{"numer":"986","klasa":"droga zbiorcza","kat":"wojewodzka"},"geometry":{"type":"LineString","coordinates":[[21.51039046783286,50.16535539838438],[21.51476,50.16396],[21.51971,50.16309]]}},{"type":"Feature","properties":{"numer":"1328R","klasa":"droga zbiorcza","kat":"powiatowa"},"geometry":{"type":"LineString","coordinates":[[21.58292,50.14296],[21.5862,50.14132],[21.588,50.14069],[21.5883,50.14052],[21.58838,50.14024],[21.5916,50.13888],[21.59206,50.13884],[21.59367,50.13918],[21.59445,50.13906],[21.59671,50.13777],[21.59793,50.13732],[21.60585,50.13636],[21.60846,50.13598],[21.61155,50.13568],[21.6123,50.13576],[21.61492,50.13624],[21.61579,50.13625],[21.61824,50.13552],[21.61973,50.13462],[21.62131,50.13397],[21.62214,50.13375],[21.62291,50.1337],[21.62733,50.13391],[21.63103,50.1337],[21.632,50.13371],[21.63505,50.13417],[21.63787,50.1345],[21.64167,50.13464],[21.64737,50.13548],[21.64777,50.13541],[21.64825,50.13505],[21.6483,50.1334]]}},{"type":"Feature","properties":{"numer":"986","klasa":"droga zbiorcza","kat":"wojewodzka"},"geometry":{"type":"LineString","coordinates":[[21.58603,50.1389],[21.5861,50.1388]]}},{"type":"Feature","properties":{"numer":"1325R","klasa":"","kat":"powiatowa"},"geometry":{"type":"LineString","coordinates":[[21.61339,50.17716],[21.61449,50.17666],[21.61572,50.17688],[21.61624,50.17713],[21.61822,50.17844],[21.61894,50.17916],[21.61942,50.18013],[21.61936,50.18079],[21.61908,50.18137],[21.61912,50.18172],[21.619174224402208,50.18179147762109]]}},{"type":"Feature","properties":{"numer":"1325R","klasa":"","kat":"powiatowa"},"geometry":{"type":"LineString","coordinates":[[21.61921148727984,50.18184059686888],[21.61934,50.18201]]}},{"type":"Feature","properties":{"numer":"1177R","klasa":"","kat":"powiatowa"},"geometry":{"type":"LineString","coordinates":[[21.61339,50.17716],[21.61377,50.17768],[21.61385,50.17829],[21.61277,50.18184],[21.61229,50.18254],[21.61161,50.18294],[21.61108,50.18312],[21.60547,50.1842],[21.60489,50.18446],[21.60447,50.18489],[21.60436,50.18534],[21.60459,50.18595],[21.60518160910669,50.18718491221299]]}},{"type":"Feature","properties":{"numer":"1177R","klasa":"","kat":"powiatowa"},"geometry":{"type":"LineString","coordinates":[[21.60580838599488,50.18826954739539],[21.60602074875208,50.18846067387687]]}},{"type":"Feature","properties":{"numer":"1177R","klasa":"","kat":"powiatowa"},"geometry":{"type":"LineString","coordinates":[[21.60662522571383,50.18871906843197],[21.60663,50.18872]]}},{"type":"Feature","properties":{"numer":"1225R","klasa":"droga zbiorcza","kat":"powiatowa"},"geometry":{"type":"LineString","coordinates":[[21.6702,50.13243],[21.6712,50.13011],[21.67152,50.12905],[21.671456347449848,50.12690399973777]]}},{"type":"Feature","properties":{"numer":"1225R","klasa":"droga zbiorcza","kat":"powiatowa"},"geometry":{"type":"LineString","coordinates":[[21.6698,50.13345],[21.6702,50.13243]]}},{"type":"Feature","properties":{"numer":"1328R","klasa":"droga zbiorcza","kat":"powiatowa"},"geometry":{"type":"LineString","coordinates":[[21.64829,50.13255],[21.65095,50.1324],[21.65821,50.13279],[21.66065,50.1326],[21.66418,50.13324],[21.66801,50.13358],[21.6698,50.13345]]}},{"type":"Feature","properties":{"numer":"1225R","klasa":"droga zbiorcza","kat":"powiatowa"},"geometry":{"type":"LineString","coordinates":[[21.66942,50.13431],[21.6698,50.13345]]}},{"type":"Feature","properties":{"numer":"1232R","klasa":"droga zbiorcza","kat":"powiatowa"},"geometry":{"type":"LineString","coordinates":[[21.6702,50.13243],[21.67113,50.13244],[21.671707142599523,50.1325353315901]]}},{"type":"Feature","properties":{"numer":"1225R","klasa":"droga zbiorcza","kat":"powiatowa"},"geometry":{"type":"LineString","coordinates":[[21.66936,50.13445],[21.66942,50.13431]]}},{"type":"Feature","properties":{"numer":"1225R","klasa":"droga zbiorcza","kat":"powiatowa"},"geometry":{"type":"LineString","coordinates":[[21.659035584053335,50.18067088645486],[21.66191,50.17868],[21.66233,50.17818],[21.66286,50.17698],[21.66455,50.17457],[21.6659,50.1734],[21.66737,50.17247],[21.66768,50.17219],[21.66907,50.16686],[21.66907,50.16505],[21.66845,50.16348],[21.66817,50.16212],[21.66757,50.16122],[21.6674,50.16081],[21.66719,50.16005],[21.66714,50.15924],[21.6672,50.15877],[21.66802,50.15677],[21.66849,50.15637],[21.67015,50.15525],[21.67056,50.15475],[21.67083,50.15407],[21.67035,50.1523],[21.67017,50.15014],[21.67033,50.14853],[21.67,50.14527],[21.66996,50.14184],[21.66897,50.13616],[21.66895,50.13552],[21.66936,50.13445]]}}]}