{"type":"FeatureCollection","features":[{"type":"Feature","properties":{"numer":"2043B","klasa":"droga zbiorcza","kat":"powiatowa"},"geometry":{"type":"LineString","coordinates":[[22.66674,53.1552],[22.65143,53.14161],[22.65087,53.14144],[22.64838,53.14172],[22.64767,53.14171],[22.6471,53.14159],[22.643791031307558,53.1402168256723]]}},{"type":"Feature","properties":{"numer":"1975B","klasa":"","kat":"powiatowa"},"geometry":{"type":"LineString","coordinates":[[22.6595,53.15338],[22.64439,53.14974],[22.63842,53.1481],[22.61385,53.13793],[22.60722,53.13502],[22.60375,53.13366],[22.59801,53.13255]]}},{"type":"Feature","properties":{"numer":"1975B","klasa":"droga zbiorcza","kat":"powiatowa"},"geometry":{"type":"LineString","coordinates":[[22.66602,53.15528],[22.66517,53.15478],[22.6595,53.15338]]}},{"type":"Feature","properties":{"numer":"1974B","klasa":"droga zbiorcza","kat":"powiatowa"},"geometry":{"type":"LineString","coordinates":[[22.60181,53.15143],[22.60355,53.15169],[22.60755,53.152],[22.60849,53.15217],[22.62903,53.1579],[22.6602,53.15657],[22.66478,53.15577],[22.6652,53.15566],[22.66602,53.15528]]}},{"type":"Feature","properties":{"numer":"1974B","klasa":"droga zbiorcza","kat":"powiatowa"},"geometry":{"type":"LineString","coordinates":[[22.66602,53.15528],[22.66674,53.1552]]}},{"type":"Feature","properties":{"numer":"64","klasa":"droga gĹ‚Ăłwna","kat":"krajowa"},"geometry":{"type":"LineString","coordinates":[[22.67256,53.15636],[22.67264312650491,53.15632051491017]]}},{"type":"Feature","properties":{"numer":"174511B","klasa":"droga lokalna","kat":"powiatowa"},"geometry":{"type":"LineString","coordinates":[[22.592,53.09994],[22.59111,53.10043],[22.58994,53.10075]]}},{"type":"Feature","properties":{"numer":"174511B","klasa":"droga lokalna","kat":"powiatowa"},"geometry":{"type":"LineString","coordinates":[[22.58994,53.10075],[22.58988,53.10087]]}},{"type":"Feature","properties":{"numer":"105585B","klasa":"droga lokalna","kat":"powiatowa"},"geometry":{"type":"LineString","coordinates":[[22.59798,53.10393],[22.59331,53.10101],[22.592,53.09994]]}},{"type":"Feature","properties":{"numer":"2005B","klasa":"droga zbiorcza","kat":"powiatowa"},"geometry":{"type":"LineString","coordinates":[[22.58988,53.10087],[22.59003,53.10124],[22.58993,53.10143],[22.58804,53.10205],[22.58358,53.10562],[22.58323,53.10599],[22.58308,53.10646],[22.58316,53.10683],[22.584,53.10776],[22.5842,53.10814],[22.58422,53.10849],[22.58407,53.10894]]}},{"type":"Feature","properties":{"numer":"105585B","klasa":"droga lokalna","kat":"powiatowa"},"geometry":{"type":"LineString","coordinates":[[22.59851,53.10613],[22.59798,53.10393]]}},{"type":"Feature","properties":{"numer":"E67,S8","klasa":"droga ekspresowa","kat":"krajowa"},"geometry":{"type":"LineString","coordinates":[[22.56332469894268,53.10595141377365],[22.56597,53.10649],[22.58385,53.10944]]}},{"type":"Feature","properties":{"numer":"2005B","klasa":"droga zbiorcza","kat":"powiatowa"},"geometry":{"type":"LineString","coordinates":[[22.58407,53.10894],[22.58385,53.10944]]}},{"type":"Feature","properties":{"numer":"105585B","klasa":"droga lokalna","kat":"powiatowa"},"geometry":{"type":"LineString","coordinates":[[22.60164,53.11226],[22.60136,53.11174],[22.60071,53.11134],[22.59821,53.10902],[22.59876,53.10741],[22.59851,53.10613]]}},{"type":"Feature","properties":{"numer":"2005B","klasa":"droga zbiorcza","kat":"powiatowa"},"geometry":{"type":"LineString","coordinates":[[22.58385,53.10944],[22.58374,53.10967]]}},{"type":"Feature","properties":{"numer":"2005B","klasa":"droga zbiorcza","kat":"powiatowa"},"geometry":{"type":"LineString","coordinates":[[22.58374,53.10967],[22.5833,53.11043],[22.58193,53.11136],[22.5817,53.11168]]}},{"type":"Feature","properties":{"numer":"E67,S8","klasa":"droga ekspresowa","kat":"krajowa"},"geometry":{"type":"LineString","coordinates":[[22.58385,53.10944],[22.58781,53.11018],[22.59191,53.11122],[22.59489,53.11218],[22.59934,53.11386]]}},{"type":"Feature","properties":{"numer":"105585B","klasa":"droga lokalna","kat":"powiatowa"},"geometry":{"type":"LineString","coordinates":[[22.60178,53.11266],[22.60164,53.11226]]}},{"type":"Feature","properties":{"numer":"105595B","klasa":"droga lokalna","kat":"powiatowa"},"geometry":{"type":"LineString","coordinates":[[22.553893388734995,53.11844531855956],[22.55404,53.11851]]}},{"type":"Feature","properties":{"numer":"105595B","klasa":"droga lokalna","kat":"powiatowa"},"geometry":{"type":"LineString","coordinates":[[22.55404,53.11851],[22.55562,53.11909]]}},{"type":"Feature","properties":{"numer":"105595B","klasa":"droga lokalna","kat":"powiatowa"},"geometry":{"type":"LineString","coordinates":[[22.55562,53.11909],[22.5565,53.11939]]}},{"type":"Feature","properties":{"numer":"105595B","klasa":"droga lokalna","kat":"powiatowa"},"geometry":{"type":"LineString","coordinates":[[22.5565,53.11939],[22.55781,53.11985]]}},{"type":"Feature","properties":{"numer":"105595B","klasa":"droga lokalna","kat":"powiatowa"},"geometry":{"type":"LineString","coordinates":[[22.55781,53.11985],[22.55901,53.1203]]}},{"type":"Feature","properties":{"numer":"105595B","klasa":"droga lokalna","kat":"powiatowa"},"geometry":{"type":"LineString","coordinates":[[22.55901,53.1203],[22.56241,53.12174]]}},{"type":"Feature","properties":{"numer":"1977B","klasa":"droga zbiorcza","kat":"powiatowa"},"geometry":{"type":"LineString","coordinates":[[22.56154,53.12203],[22.56241,53.12174]]}},{"type":"Feature","properties":{"numer":"1977B","klasa":"","kat":"powiatowa"},"geometry":{"type":"LineString","coordinates":[[22.55005,53.13177],[22.55149,53.13113],[22.55178,53.12999],[22.55245,53.12923],[22.55264,53.12838],[22.5526,53.12816],[22.55144,53.12763],[22.55059,53.12687],[22.55307,53.12546],[22.55516,53.12468],[22.56154,53.12203]]}},{"type":"Feature","properties":{"numer":"1977B","klasa":"droga zbiorcza","kat":"powiatowa"},"geometry":{"type":"LineString","coordinates":[[22.54793,53.13315],[22.54846,53.13233],[22.55005,53.13177]]}},{"type":"Feature","properties":{"numer":"1977B","klasa":"","kat":"powiatowa"},"geometry":{"type":"LineString","coordinates":[[22.54796,53.13324],[22.54793,53.13315]]}},{"type":"Feature","properties":{"numer":"105591B","klasa":"","kat":"powiatowa"},"geometry":{"type":"LineString","coordinates":[[22.54771,53.13331],[22.54796,53.13324]]}},{"type":"Feature","properties":{"numer":"1973B","klasa":"droga zbiorcza","kat":"powiatowa"},"geometry":{"type":"LineString","coordinates":[[22.523094154056842,53.13144564636824],[22.52744,53.13901]]}},{"type":"Feature","properties":{"numer":"1977B","klasa":"","kat":"powiatowa"},"geometry":{"type":"LineString","coordinates":[[22.549,53.13549],[22.54828,53.13358],[22.54796,53.13324]]}},{"type":"Feature","properties":{"numer":"174504B","klasa":"droga lokalna","kat":"powiatowa"},"geometry":{"type":"LineString","coordinates":[[22.53896,53.13617],[22.53898,53.13617]]}},{"type":"Feature","properties":{"numer":"105585B","klasa":"droga lokalna","kat":"powiatowa"},"geometry":{"type":"LineString","coordinates":[[22.59934,53.11386],[22.60075,53.11309],[22.60178,53.11266]]}},{"type":"Feature","properties":{"numer":"1975B","klasa":"droga zbiorcza","kat":"powiatowa"},"geometry":{"type":"LineString","coordinates":[[22.56871,53.12009],[22.56896,53.11508],[22.56602,53.10719],[22.56603,53.10694]]}},{"type":"Feature","properties":{"numer":"E67,S8","klasa":"droga ekspresowa","kat":"krajowa"},"geometry":{"type":"LineString","coordinates":[[22.59934,53.11386],[22.60168,53.11463],[22.60399,53.11524],[22.60738,53.11589],[22.61007,53.11622],[22.610075350673007,53.11622036129946]]}},{"type":"Feature","properties":{"numer":"1977B","klasa":"droga zbiorcza","kat":"powiatowa"},"geometry":{"type":"LineString","coordinates":[[22.56241,53.12174],[22.56371,53.12062],[22.56535,53.12017],[22.5664,53.11961],[22.56696,53.11958],[22.56779,53.11989],[22.56864,53.12],[22.56871,53.12009]]}},{"type":"Feature","properties":{"numer":"1975B","klasa":"droga zbiorcza","kat":"powiatowa"},"geometry":{"type":"LineString","coordinates":[[22.59784,53.13253],[22.58672,53.13093],[22.57876,53.12916],[22.57847,53.12904],[22.56828,53.12428],[22.56828,53.12147],[22.56871,53.12009]]}},{"type":"Feature","properties":{"numer":"1975B","klasa":"droga zbiorcza","kat":"powiatowa"},"geometry":{"type":"LineString","coordinates":[[22.59801,53.13255],[22.59784,53.13253]]}},{"type":"Feature","properties":{"numer":"1974B","klasa":"droga zbiorcza","kat":"powiatowa"},"geometry":{"type":"LineString","coordinates":[[22.60181,53.15143],[22.60015,53.15154]]}},{"type":"Feature","properties":{"numer":"1974B","klasa":"droga zbiorcza","kat":"powiatowa"},"geometry":{"type":"LineString","coordinates":[[22.5515,53.16696],[22.5529,53.16668],[22.55575,53.16662],[22.55738,53.16673],[22.5665,53.16612],[22.56702,53.16603],[22.57696,53.16229],[22.58493,53.15752],[22.59234,53.15365],[22.59523,53.15269],[22.60015,53.15154]]}},{"type":"Feature","properties":{"numer":"1970B","klasa":"","kat":"powiatowa"},"geometry":{"type":"LineString","coordinates":[[22.60222,53.16587],[22.60314,53.16836]]}},{"type":"Feature","properties":{"numer":"1970B","klasa":"droga zbiorcza","kat":"powiatowa"},"geometry":{"type":"LineString","coordinates":[[22.60314,53.16836],[22.60385,53.17036],[22.60369,53.17188],[22.60413,53.17276],[22.60447,53.173],[22.60674,53.174],[22.60829,53.17503],[22.62508,53.17767]]}},{"type":"Feature","properties":{"numer":"105587B","klasa":"droga lokalna","kat":"powiatowa"},"geometry":{"type":"LineString","coordinates":[[22.54828,53.13743],[22.549,53.13549]]}},{"type":"Feature","properties":{"numer":"174505B","klasa":"droga lokalna","kat":"powiatowa"},"geometry":{"type":"LineString","coordinates":[[22.53898,53.13617],[22.53951,53.13625],[22.54102,53.13676],[22.54357,53.13673],[22.54651,53.13733],[22.5477,53.13747],[22.54828,53.13743]]}},{"type":"Feature","properties":{"numer":"174504B","klasa":"droga lokalna","kat":"powiatowa"},"geometry":{"type":"LineString","coordinates":[[22.5384,53.13756],[22.53858,53.13678],[22.53896,53.13617]]}},{"type":"Feature","properties":{"numer":"174504B","klasa":"droga lokalna","kat":"powiatowa"},"geometry":{"type":"LineString","coordinates":[[22.53803,53.13918],[22.5384,53.13756]]}},{"type":"Feature","properties":{"numer":"1973B","klasa":"droga zbiorcza","kat":"powiatowa"},"geometry":{"type":"LineString","coordinates":[[22.52744,53.13901],[22.52747,53.13905]]}},{"type":"Feature","properties":{"numer":"174504B","klasa":"droga lokalna","kat":"powiatowa"},"geometry":{"type":"LineString","coordinates":[[22.53804,53.13934],[22.53803,53.13918]]}},{"type":"Feature","properties":{"numer":"174504B","klasa":"droga lokalna","kat":"powiatowa"},"geometry":{"type":"LineString","coordinates":[[22.53807,53.13946],[22.53804,53.13934]]}},{"type":"Feature","properties":{"numer":"1973B","klasa":"droga zbiorcza","kat":"powiatowa"},"geometry":{"type":"LineString","coordinates":[[22.52747,53.13905],[22.5311,53.14541]]}},{"type":"Feature","properties":{"numer":"174504B","klasa":"droga lokalna","kat":"powiatowa"},"geometry":{"type":"LineString","coordinates":[[22.5311,53.14541],[22.53787,53.14019],[22.53807,53.13997],[22.53807,53.13946]]}},{"type":"Feature","properties":{"numer":"1973B","klasa":"droga zbiorcza","kat":"powiatowa"},"geometry":{"type":"LineString","coordinates":[[22.5311,53.14541],[22.53578,53.15358]]}},{"type":"Feature","properties":{"numer":"1973B","klasa":"droga zbiorcza","kat":"powiatowa"},"geometry":{"type":"LineString","coordinates":[[22.53578,53.15358],[22.53583,53.15365]]}},{"type":"Feature","properties":{"numer":"1973B","klasa":"droga zbiorcza","kat":"powiatowa"},"geometry":{"type":"LineString","coordinates":[[22.53583,53.15365],[22.54337,53.16674]]}},{"type":"Feature","properties":{"numer":"1974B","klasa":"droga zbiorcza","kat":"powiatowa"},"geometry":{"type":"LineString","coordinates":[[22.54939,53.16745],[22.54337,53.16674]]}},{"type":"Feature","properties":{"numer":"1974B","klasa":"droga zbiorcza","kat":"powiatowa"},"geometry":{"type":"LineString","coordinates":[[22.55023,53.16758],[22.5515,53.16696]]}},{"type":"Feature","properties":{"numer":"1974B","klasa":"droga zbiorcza","kat":"powiatowa"},"geometry":{"type":"LineString","coordinates":[[22.54948,53.16746],[22.54939,53.16745]]}},{"type":"Feature","properties":{"numer":"1974B","klasa":"droga zbiorcza","kat":"powiatowa"},"geometry":{"type":"LineString","coordinates":[[22.55023,53.16758],[22.54948,53.16746]]}},{"type":"Feature","properties":{"numer":"1973B","klasa":"droga zbiorcza","kat":"powiatowa"},"geometry":{"type":"LineString","coordinates":[[22.54337,53.16674],[22.54515,53.16991],[22.54491,53.17264]]}},{"type":"Feature","properties":{"numer":"1973B","klasa":"droga zbiorcza","kat":"powiatowa"},"geometry":{"type":"LineString","coordinates":[[22.5449,53.17268],[22.54491,53.17264]]}},{"type":"Feature","properties":{"numer":"1973B","klasa":"droga zbiorcza","kat":"powiatowa"},"geometry":{"type":"LineString","coordinates":[[22.5449,53.17268],[22.54441,53.17704]]}},{"type":"Feature","properties":{"numer":"1972B","klasa":"droga zbiorcza","kat":"powiatowa"},"geometry":{"type":"LineString","coordinates":[[22.49885,53.18199],[22.49992,53.18102],[22.50515,53.17523],[22.5058,53.17483],[22.51091,53.17746],[22.51435,53.17846],[22.51914,53.18139],[22.52148,53.18363]]}},{"type":"Feature","properties":{"numer":"1972B","klasa":"droga zbiorcza","kat":"powiatowa"},"geometry":{"type":"LineString","coordinates":[[22.52148,53.18363],[22.52348,53.18559],[22.52368,53.18572],[22.52399,53.18575],[22.52733,53.18504],[22.53615,53.18259],[22.53752,53.18238],[22.53785,53.18222],[22.53985,53.18048],[22.54145,53.17878],[22.54347,53.17748],[22.54405,53.17714],[22.54441,53.17704]]}},{"type":"Feature","properties":{"numer":"1972B","klasa":"","kat":"powiatowa"},"geometry":{"type":"LineString","coordinates":[[22.49885,53.18199],[22.49886,53.18217]]}},{"type":"Feature","properties":{"numer":"105592B","klasa":"droga lokalna","kat":"powiatowa"},"geometry":{"type":"LineString","coordinates":[[22.49886,53.18217],[22.49917,53.18222]]}},{"type":"Feature","properties":{"numer":"105592B","klasa":"droga lokalna","kat":"powiatowa"},"geometry":{"type":"LineString","coordinates":[[22.50213,53.18449],[22.49917,53.18222]]}},{"type":"Feature","properties":{"numer":"105592B","klasa":"droga lokalna","kat":"powiatowa"},"geometry":{"type":"LineString","coordinates":[[22.50883,53.18538],[22.52148,53.18363]]}},{"type":"Feature","properties":{"numer":"105592B","klasa":"droga lokalna","kat":"powiatowa"},"geometry":{"type":"LineString","coordinates":[[22.50327,53.18537],[22.50213,53.18449]]}},{"type":"Feature","properties":{"numer":"105592B","klasa":"droga lokalna","kat":"powiatowa"},"geometry":{"type":"LineString","coordinates":[[22.50345,53.1855],[22.50327,53.18537]]}},{"type":"Feature","properties":{"numer":"105592B","klasa":"droga lokalna","kat":"powiatowa"},"geometry":{"type":"LineString","coordinates":[[22.5035,53.18554],[22.50345,53.1855]]}},{"type":"Feature","properties":{"numer":"105592B","klasa":"droga lokalna","kat":"powiatowa"},"geometry":{"type":"LineString","coordinates":[[22.50415,53.18602],[22.50883,53.18538]]}},{"type":"Feature","properties":{"numer":"105592B","klasa":"droga lokalna","kat":"powiatowa"},"geometry":{"type":"LineString","coordinates":[[22.50415,53.18602],[22.5035,53.18554]]}},{"type":"Feature","properties":{"numer":"1973B","klasa":"droga zbiorcza","kat":"powiatowa"},"geometry":{"type":"LineString","coordinates":[[22.54441,53.17704],[22.54238,53.19526],[22.54275,53.19603],[22.54879,53.20501]]}},{"type":"Feature","properties":{"numer":"64","klasa":"droga gĹ‚Ăłwna","kat":"krajowa"},"geometry":{"type":"LineString","coordinates":[[22.56061,53.1976],[22.56036,53.19765]]}},{"type":"Feature","properties":{"numer":"64","klasa":"droga gĹ‚Ăłwna","kat":"krajowa"},"geometry":{"type":"LineString","coordinates":[[22.56036,53.19765],[22.55569,53.19855],[22.55489,53.19883],[22.55417,53.19924],[22.55369,53.19977],[22.55063,53.20504],[22.55038,53.20527]]}},{"type":"Feature","properties":{"numer":"64","klasa":"droga gĹ‚Ăłwna","kat":"krajowa"},"geometry":{"type":"LineString","coordinates":[[22.54898,53.20505],[22.54879,53.20501]]}},{"type":"Feature","properties":{"numer":"64","klasa":"droga gĹ‚Ăłwna","kat":"krajowa"},"geometry":{"type":"LineString","coordinates":[[22.55038,53.20527],[22.55011,53.20528],[22.54898,53.20505]]}},{"type":"Feature","properties":{"numer":"1838B","klasa":"droga zbiorcza","kat":"powiatowa"},"geometry":{"type":"LineString","coordinates":[[22.54898,53.20505],[22.54971,53.20629]]}},{"type":"Feature","properties":{"numer":"1838B","klasa":"droga zbiorcza","kat":"powiatowa"},"geometry":{"type":"LineString","coordinates":[[22.55038,53.20527],[22.55039,53.20546],[22.54985,53.20639]]}},{"type":"Feature","properties":{"numer":"1838B","klasa":"droga zbiorcza","kat":"powiatowa"},"geometry":{"type":"LineString","coordinates":[[22.54971,53.20629],[22.54985,53.20639]]}},{"type":"Feature","properties":{"numer":"64","klasa":"droga gĹ‚Ăłwna","kat":"krajowa"},"geometry":{"type":"LineString","coordinates":[[22.54879,53.20501],[22.54368,53.20399],[22.54218,53.20394],[22.51411,53.20786],[22.49862,53.20902],[22.49475,53.20903],[22.49348,53.20886]]}},{"type":"Feature","properties":{"numer":"1838B","klasa":"droga zbiorcza","kat":"powiatowa"},"geometry":{"type":"LineString","coordinates":[[22.54985,53.20639],[22.54712,53.21115],[22.54699,53.21152],[22.54705,53.21208],[22.54737,53.21263],[22.54789,53.21304],[22.55306,53.21536]]}},{"type":"Feature","properties":{"numer":"64","klasa":"droga gĹ‚Ăłwna","kat":"krajowa"},"geometry":{"type":"LineString","coordinates":[[22.62508,53.17767],[22.59382,53.19114],[22.59283,53.19144],[22.58824,53.19232]]}},{"type":"Feature","properties":{"numer":"64","klasa":"droga gĹ‚Ăłwna","kat":"krajowa"},"geometry":{"type":"LineString","coordinates":[[22.58814,53.19234],[22.58824,53.19232]]}},{"type":"Feature","properties":{"numer":"64","klasa":"droga gĹ‚Ăłwna","kat":"krajowa"},"geometry":{"type":"LineString","coordinates":[[22.58814,53.19234],[22.5803,53.19384]]}},{"type":"Feature","properties":{"numer":"64","klasa":"droga gĹ‚Ăłwna","kat":"krajowa"},"geometry":{"type":"LineString","coordinates":[[22.5803,53.19384],[22.56061,53.1976]]}},{"type":"Feature","properties":{"numer":"1969B","klasa":"droga zbiorcza","kat":"powiatowa"},"geometry":{"type":"LineString","coordinates":[[22.5803,53.19384],[22.58136,53.19528],[22.58182,53.19652],[22.58221,53.19721],[22.58485,53.19926],[22.58626,53.20055],[22.5892,53.20566],[22.59802,53.2072],[22.6007,53.20753],[22.60379,53.20739],[22.60559,53.20768],[22.60656,53.2077],[22.60798,53.20749],[22.61062,53.20669],[22.61382,53.20541],[22.61455,53.20452],[22.614,53.20341],[22.61407,53.20321],[22.61869,53.20159],[22.62532,53.19842],[22.6273,53.19758],[22.62958,53.19649]]}},{"type":"Feature","properties":{"numer":"1974B","klasa":"droga zbiorcza","kat":"powiatowa"},"geometry":{"type":"LineString","coordinates":[[22.66726,53.15852],[22.66747,53.15693],[22.66746,53.15606],[22.6673,53.15574],[22.66674,53.1552]]}},{"type":"Feature","properties":{"numer":"64","klasa":"droga gĹ‚Ăłwna","kat":"krajowa"},"geometry":{"type":"LineString","coordinates":[[22.67256,53.15636],[22.6674,53.15878]]}},{"type":"Feature","properties":{"numer":"1974B","klasa":"droga zbiorcza","kat":"powiatowa"},"geometry":{"type":"LineString","coordinates":[[22.66726,53.15852],[22.6674,53.15878]]}},{"type":"Feature","properties":{"numer":"1974B","klasa":"droga zbiorcza","kat":"powiatowa"},"geometry":{"type":"LineString","coordinates":[[22.66555,53.16213],[22.66667,53.15982],[22.66757,53.15927],[22.66762,53.15906],[22.6674,53.15878]]}},{"type":"Feature","properties":{"numer":"1377B","klasa":"droga zbiorcza","kat":"powiatowa"},"geometry":{"type":"LineString","coordinates":[[22.66555,53.16213],[22.66564,53.16258],[22.66591,53.16281],[22.67118,53.16497],[22.67312,53.1656]]}},{"type":"Feature","properties":{"numer":"1377B","klasa":"droga zbiorcza","kat":"powiatowa"},"geometry":{"type":"LineString","coordinates":[[22.67312,53.1656],[22.673195783863807,53.16562315618061]]}},{"type":"Feature","properties":{"numer":"64","klasa":"droga gĹ‚Ăłwna","kat":"krajowa"},"geometry":{"type":"LineString","coordinates":[[22.6674,53.15878],[22.6505,53.16667],[22.6336,53.17398]]}},{"type":"Feature","properties":{"numer":"1969B","klasa":"droga zbiorcza","kat":"powiatowa"},"geometry":{"type":"LineString","coordinates":[[22.64847,53.17452],[22.64958,53.17411],[22.65004,53.17386],[22.654,53.17013],[22.66555,53.16213]]}},{"type":"Feature","properties":{"numer":"64","klasa":"droga gĹ‚Ăłwna","kat":"krajowa"},"geometry":{"type":"LineString","coordinates":[[22.63345,53.17404],[22.6336,53.17398]]}},{"type":"Feature","properties":{"numer":"64","klasa":"droga gĹ‚Ăłwna","kat":"krajowa"},"geometry":{"type":"LineString","coordinates":[[22.63345,53.17404],[22.62583,53.17734]]}},{"type":"Feature","properties":{"numer":"1969B","klasa":"","kat":"powiatowa"},"geometry":{"type":"LineString","coordinates":[[22.64133,53.17728],[22.64182,53.17663],[22.64207,53.17649],[22.64847,53.17452]]}},{"type":"Feature","properties":{"numer":"1969B","klasa":"","kat":"powiatowa"},"geometry":{"type":"LineString","coordinates":[[22.64131,53.1773],[22.64133,53.17728]]}},{"type":"Feature","properties":{"numer":"64","klasa":"droga gĹ‚Ăłwna","kat":"krajowa"},"geometry":{"type":"LineString","coordinates":[[22.62583,53.17734],[22.62564,53.17742]]}},{"type":"Feature","properties":{"numer":"64","klasa":"droga gĹ‚Ăłwna","kat":"krajowa"},"geometry":{"type":"LineString","coordinates":[[22.62564,53.17742],[22.62508,53.17767]]}},{"type":"Feature","properties":{"numer":"1969B","klasa":"","kat":"powiatowa"},"geometry":{"type":"LineString","coordinates":[[22.63871,53.17996],[22.63896,53.17961],[22.64131,53.1773]]}},{"type":"Feature","properties":{"numer":"1970B","klasa":"droga zbiorcza","kat":"powiatowa"},"geometry":{"type":"LineString","coordinates":[[22.62508,53.17767],[22.62845,53.17798],[22.63299,53.17886],[22.63617,53.17938],[22.63871,53.17996]]}},{"type":"Feature","properties":{"numer":"1969B","klasa":"droga zbiorcza","kat":"powiatowa"},"geometry":{"type":"LineString","coordinates":[[22.63649,53.18659],[22.63871,53.17996]]}},{"type":"Feature","properties":{"numer":"1971B","klasa":"droga zbiorcza","kat":"powiatowa"},"geometry":{"type":"LineString","coordinates":[[22.64342,53.1879],[22.64305,53.18766],[22.64203,53.18733],[22.64006,53.18795],[22.63649,53.18659]]}},{"type":"Feature","properties":{"numer":"1969B","klasa":"droga zbiorcza","kat":"powiatowa"},"geometry":{"type":"LineString","coordinates":[[22.63592,53.18825],[22.63649,53.18659]]}},{"type":"Feature","properties":{"numer":"1971B","klasa":"droga zbiorcza","kat":"powiatowa"},"geometry":{"type":"LineString","coordinates":[[22.64364,53.18806],[22.64342,53.1879]]}},{"type":"Feature","properties":{"numer":"1971B","klasa":"","kat":"powiatowa"},"geometry":{"type":"LineString","coordinates":[[22.655413472376733,53.18894567076322],[22.65242,53.1877],[22.65181,53.18755],[22.65131,53.18754],[22.65038,53.18767],[22.64876,53.18808],[22.64781,53.18821],[22.64382,53.18812],[22.64364,53.18806]]}},{"type":"Feature","properties":{"numer":"1969B","klasa":"","kat":"powiatowa"},"geometry":{"type":"LineString","coordinates":[[22.62958,53.19649],[22.6331,53.19406],[22.63537,53.18963],[22.63592,53.18825]]}},{"type":"Feature","properties":{"numer":"64","klasa":"droga gĹ‚Ăłwna","kat":"krajowa"},"geometry":{"type":"LineString","coordinates":[[22.49348,53.20886],[22.49262,53.20857],[22.485775477804506,53.20569530067789]]}},{"type":"Feature","properties":{"numer":"1838B","klasa":"droga zbiorcza","kat":"powiatowa"},"geometry":{"type":"LineString","coordinates":[[22.55306,53.21536],[22.553749696626028,53.21567168982138]]}}]}