{"type":"FeatureCollection","features":[{"type":"Feature","properties":{"numer":"1838B","klasa":"droga zbiorcza","kat":"powiatowa"},"geometry":{"type":"LineString","coordinates":[[22.58836,53.41963],[22.58692,53.41499],[22.58517,53.41215],[22.58488,53.4085],[22.58281992259654,53.4021240138282]]}},{"type":"Feature","properties":{"numer":"1840B","klasa":"","kat":"powiatowa"},"geometry":{"type":"LineString","coordinates":[[22.58836,53.41963],[22.58881,53.41964],[22.58996,53.41941],[22.59039,53.41939],[22.59342,53.41988],[22.593504235710636,53.419840158785505]]}},{"type":"Feature","properties":{"numer":"1840B","klasa":"","kat":"powiatowa"},"geometry":{"type":"LineString","coordinates":[[22.594413717719654,53.41940999837584],[22.5949,53.41918],[22.59566407551363,53.418908328706266]]}},{"type":"Feature","properties":{"numer":"1840B","klasa":"","kat":"powiatowa"},"geometry":{"type":"LineString","coordinates":[[22.599123412301804,53.41744720649022],[22.59951,53.41723],[22.60031,53.41687],[22.60244,53.41642],[22.602692854464493,53.41633205062105]]}},{"type":"Feature","properties":{"numer":"668","klasa":"droga zbiorcza","kat":"wojewodzka"},"geometry":{"type":"LineString","coordinates":[[22.61325,53.49136],[22.61263,53.49105],[22.61171,53.4909],[22.611021043813864,53.490865222861736]]}},{"type":"Feature","properties":{"numer":"1416B","klasa":"droga zbiorcza","kat":"powiatowa"},"geometry":{"type":"LineString","coordinates":[[22.73554,53.47947],[22.74022,53.47551],[22.74106,53.47467],[22.74121,53.4742],[22.74133,53.47105],[22.74232,53.46803],[22.7442,53.4655],[22.74708,53.46323],[22.75761,53.45567],[22.76401521629365,53.45142529662666]]}},{"type":"Feature","properties":{"numer":"1841B","klasa":"droga zbiorcza","kat":"powiatowa"},"geometry":{"type":"LineString","coordinates":[[22.68350421446051,53.41732651123919],[22.68915,53.42464],[22.69334,53.42951],[22.69419,53.43135],[22.69438,53.43202],[22.69416,53.4371],[22.6945,53.43796],[22.70064,53.44582],[22.70434,53.44934]]}},{"type":"Feature","properties":{"numer":"65","klasa":"droga gĹ‚Ăłwna","kat":"krajowa"},"geometry":{"type":"LineString","coordinates":[[22.71681,53.44444],[22.719176898995194,53.44351714176625]]}},{"type":"Feature","properties":{"numer":"65","klasa":"droga gĹ‚Ăłwna","kat":"krajowa"},"geometry":{"type":"LineString","coordinates":[[22.71668,53.44449],[22.71681,53.44444]]}},{"type":"Feature","properties":{"numer":"65","klasa":"droga gĹ‚Ăłwna","kat":"krajowa"},"geometry":{"type":"LineString","coordinates":[[22.70434,53.44934],[22.71668,53.44449]]}},{"type":"Feature","properties":{"numer":"1847B","klasa":"droga zbiorcza","kat":"powiatowa"},"geometry":{"type":"LineString","coordinates":[[22.72947,53.47295],[22.72124,53.4651],[22.71167,53.4563],[22.70434,53.44934]]}},{"type":"Feature","properties":{"numer":"670","klasa":"droga zbiorcza","kat":"wojewodzka"},"geometry":{"type":"LineString","coordinates":[[22.66741,53.46636],[22.66823,53.46666],[22.67032,53.4671],[22.67097,53.46742],[22.6724,53.47014],[22.67293,53.4709],[22.67229,53.47427],[22.67235,53.47444],[22.6726,53.47459],[22.71446,53.48436],[22.71525,53.48445],[22.71605,53.48441],[22.71761,53.48409]]}},{"type":"Feature","properties":{"numer":"1847B","klasa":"droga zbiorcza","kat":"powiatowa"},"geometry":{"type":"LineString","coordinates":[[22.73482,53.47846],[22.73339,53.47647],[22.72947,53.47295]]}},{"type":"Feature","properties":{"numer":"1417B","klasa":"","kat":"powiatowa"},"geometry":{"type":"LineString","coordinates":[[22.75501,53.48477],[22.77012,53.4784],[22.79373,53.46942],[22.80178,53.46558],[22.802848693586697,53.46510945580884]]}},{"type":"Feature","properties":{"numer":"670","klasa":"droga zbiorcza","kat":"wojewodzka"},"geometry":{"type":"LineString","coordinates":[[22.74301,53.48159],[22.74459,53.48193],[22.75003,53.48231],[22.75238,53.48282],[22.75321,53.48313],[22.75371,53.48345],[22.75501,53.48477]]}},{"type":"Feature","properties":{"numer":"125508B","klasa":"droga lokalna","kat":"powiatowa"},"geometry":{"type":"LineString","coordinates":[[22.75225,53.48614],[22.75501,53.48477]]}},{"type":"Feature","properties":{"numer":"670","klasa":"droga zbiorcza","kat":"wojewodzka"},"geometry":{"type":"LineString","coordinates":[[22.75501,53.48477],[22.75845,53.48837]]}},{"type":"Feature","properties":{"numer":"125508B","klasa":"droga lokalna","kat":"powiatowa"},"geometry":{"type":"LineString","coordinates":[[22.75004,53.48724],[22.75225,53.48614]]}},{"type":"Feature","properties":{"numer":"125508B","klasa":"droga lokalna","kat":"powiatowa"},"geometry":{"type":"LineString","coordinates":[[22.74985,53.48734],[22.75004,53.48724]]}},{"type":"Feature","properties":{"numer":"2620B","klasa":"","kat":"powiatowa"},"geometry":{"type":"LineString","coordinates":[[22.74205,53.48746],[22.74506,53.48734],[22.74881,53.48785]]}},{"type":"Feature","properties":{"numer":"125508B","klasa":"droga lokalna","kat":"powiatowa"},"geometry":{"type":"LineString","coordinates":[[22.74881,53.48785],[22.74985,53.48734]]}},{"type":"Feature","properties":{"numer":"125508B","klasa":"droga lokalna","kat":"powiatowa"},"geometry":{"type":"LineString","coordinates":[[22.74866,53.48793],[22.74881,53.48785]]}},{"type":"Feature","properties":{"numer":"1847B","klasa":"droga zbiorcza","kat":"powiatowa"},"geometry":{"type":"LineString","coordinates":[[22.73482,53.47846],[22.73508,53.47883]]}},{"type":"Feature","properties":{"numer":"1847B","klasa":"droga zbiorcza","kat":"powiatowa"},"geometry":{"type":"LineString","coordinates":[[22.73508,53.47883],[22.73554,53.47947]]}},{"type":"Feature","properties":{"numer":"1847B","klasa":"droga zbiorcza","kat":"powiatowa"},"geometry":{"type":"LineString","coordinates":[[22.73554,53.47947],[22.73725,53.48149],[22.73767,53.48215]]}},{"type":"Feature","properties":{"numer":"670","klasa":"droga zbiorcza","kat":"wojewodzka"},"geometry":{"type":"LineString","coordinates":[[22.74291,53.48157],[22.74301,53.48159]]}},{"type":"Feature","properties":{"numer":"670","klasa":"droga zbiorcza","kat":"wojewodzka"},"geometry":{"type":"LineString","coordinates":[[22.73777,53.48246],[22.73914,53.48218],[22.74111,53.4814],[22.74173,53.48135],[22.74291,53.48157]]}},{"type":"Feature","properties":{"numer":"1847B","klasa":"droga zbiorcza","kat":"powiatowa"},"geometry":{"type":"LineString","coordinates":[[22.73767,53.48215],[22.73777,53.48246]]}},{"type":"Feature","properties":{"numer":"2623B","klasa":"droga zbiorcza","kat":"powiatowa"},"geometry":{"type":"LineString","coordinates":[[22.73777,53.48246],[22.73781,53.48273]]}},{"type":"Feature","properties":{"numer":"2623B","klasa":"droga zbiorcza","kat":"powiatowa"},"geometry":{"type":"LineString","coordinates":[[22.73781,53.48273],[22.7376,53.48325]]}},{"type":"Feature","properties":{"numer":"670","klasa":"droga zbiorcza","kat":"wojewodzka"},"geometry":{"type":"LineString","coordinates":[[22.71761,53.48409],[22.72275,53.48293],[22.72911,53.48224],[22.73777,53.48246]]}},{"type":"Feature","properties":{"numer":"2623B","klasa":"droga zbiorcza","kat":"powiatowa"},"geometry":{"type":"LineString","coordinates":[[22.7376,53.48325],[22.73757,53.4833]]}},{"type":"Feature","properties":{"numer":"2623B","klasa":"droga zbiorcza","kat":"powiatowa"},"geometry":{"type":"LineString","coordinates":[[22.73757,53.4833],[22.73753,53.48338]]}},{"type":"Feature","properties":{"numer":"2621B","klasa":"droga zbiorcza","kat":"powiatowa"},"geometry":{"type":"LineString","coordinates":[[22.71789,53.48446],[22.71761,53.48409]]}},{"type":"Feature","properties":{"numer":"2621B","klasa":"droga zbiorcza","kat":"powiatowa"},"geometry":{"type":"LineString","coordinates":[[22.71789,53.48446],[22.71801,53.48455]]}},{"type":"Feature","properties":{"numer":"2621B","klasa":"droga zbiorcza","kat":"powiatowa"},"geometry":{"type":"LineString","coordinates":[[22.71801,53.48455],[22.71808,53.4846]]}},{"type":"Feature","properties":{"numer":"2621B","klasa":"droga zbiorcza","kat":"powiatowa"},"geometry":{"type":"LineString","coordinates":[[22.71808,53.4846],[22.71957,53.48552]]}},{"type":"Feature","properties":{"numer":"2623B","klasa":"droga zbiorcza","kat":"powiatowa"},"geometry":{"type":"LineString","coordinates":[[22.73753,53.48338],[22.73695,53.48434],[22.73573,53.48529],[22.73508,53.48604],[22.73494,53.48625],[22.73483,53.48697]]}},{"type":"Feature","properties":{"numer":"2621B","klasa":"droga zbiorcza","kat":"powiatowa"},"geometry":{"type":"LineString","coordinates":[[22.71957,53.48552],[22.72071,53.48615],[22.72312,53.48712],[22.72963,53.48931]]}},{"type":"Feature","properties":{"numer":"2620B","klasa":"","kat":"powiatowa"},"geometry":{"type":"LineString","coordinates":[[22.73663,53.48772],[22.73862,53.48769],[22.74205,53.48746]]}},{"type":"Feature","properties":{"numer":"2623B","klasa":"droga zbiorcza","kat":"powiatowa"},"geometry":{"type":"LineString","coordinates":[[22.73483,53.48697],[22.73453,53.4886],[22.73464,53.48891]]}},{"type":"Feature","properties":{"numer":"2625B","klasa":"droga zbiorcza","kat":"powiatowa"},"geometry":{"type":"LineString","coordinates":[[22.73119,53.4897],[22.73141,53.48646]]}},{"type":"Feature","properties":{"numer":"125508B","klasa":"droga lokalna","kat":"powiatowa"},"geometry":{"type":"LineString","coordinates":[[22.74213,53.48871],[22.74387,53.48867]]}},{"type":"Feature","properties":{"numer":"2629B","klasa":"droga zbiorcza","kat":"powiatowa"},"geometry":{"type":"LineString","coordinates":[[22.73681,53.48876],[22.73651,53.48872],[22.73464,53.48891]]}},{"type":"Feature","properties":{"numer":"125508B","klasa":"droga lokalna","kat":"powiatowa"},"geometry":{"type":"LineString","coordinates":[[22.73802,53.48927],[22.73954,53.48914],[22.74213,53.48871]]}},{"type":"Feature","properties":{"numer":"2629B","klasa":"droga zbiorcza","kat":"powiatowa"},"geometry":{"type":"LineString","coordinates":[[22.73692,53.48938],[22.73681,53.48876]]}},{"type":"Feature","properties":{"numer":"125508B","klasa":"droga lokalna","kat":"powiatowa"},"geometry":{"type":"LineString","coordinates":[[22.7374,53.48932],[22.73802,53.48927]]}},{"type":"Feature","properties":{"numer":"2629B","klasa":"droga zbiorcza","kat":"powiatowa"},"geometry":{"type":"LineString","coordinates":[[22.73464,53.48891],[22.73515,53.48977]]}},{"type":"Feature","properties":{"numer":"125508B","klasa":"droga lokalna","kat":"powiatowa"},"geometry":{"type":"LineString","coordinates":[[22.73692,53.48938],[22.7374,53.48932]]}},{"type":"Feature","properties":{"numer":"2621B","klasa":"droga zbiorcza","kat":"powiatowa"},"geometry":{"type":"LineString","coordinates":[[22.72963,53.48931],[22.73119,53.4897]]}},{"type":"Feature","properties":{"numer":"2629B","klasa":"droga zbiorcza","kat":"powiatowa"},"geometry":{"type":"LineString","coordinates":[[22.73515,53.48977],[22.73692,53.48938]]}},{"type":"Feature","properties":{"numer":"2621B","klasa":"droga zbiorcza","kat":"powiatowa"},"geometry":{"type":"LineString","coordinates":[[22.73439,53.48995],[22.73515,53.48977]]}},{"type":"Feature","properties":{"numer":"1838B","klasa":"droga zbiorcza","kat":"powiatowa"},"geometry":{"type":"LineString","coordinates":[[22.66741,53.46636],[22.63829,53.45558],[22.6368,53.45512],[22.63579,53.45486],[22.63342,53.4547],[22.62591,53.4554],[22.6243,53.45525],[22.62373,53.45511],[22.62281,53.4547],[22.62213,53.45422],[22.62181,53.45383],[22.61666,53.44681],[22.61466,53.44393],[22.61388,53.44316],[22.61095,53.44154],[22.59341,53.43225],[22.59261,53.43166],[22.59203,53.43095],[22.59162,53.42997],[22.58836,53.41963]]}},{"type":"Feature","properties":{"numer":"65","klasa":"droga gĹ‚Ăłwna","kat":"krajowa"},"geometry":{"type":"LineString","coordinates":[[22.66741,53.46636],[22.69436,53.45326],[22.70434,53.44934]]}},{"type":"Feature","properties":{"numer":"65","klasa":"droga gĹ‚Ăłwna","kat":"krajowa"},"geometry":{"type":"LineString","coordinates":[[22.63884,53.48289],[22.64543,53.4809],[22.64641,53.48049],[22.64678,53.48022],[22.6471,53.4798],[22.64727,53.47911],[22.64727,53.47807],[22.64753,53.47762],[22.64785,53.47736],[22.66031,53.4698],[22.66741,53.46636]]}},{"type":"Feature","properties":{"numer":"65","klasa":"droga gĹ‚Ăłwna","kat":"krajowa"},"geometry":{"type":"LineString","coordinates":[[22.63783,53.48318],[22.63884,53.48289]]}},{"type":"Feature","properties":{"numer":"65","klasa":"droga gĹ‚Ăłwna","kat":"krajowa"},"geometry":{"type":"LineString","coordinates":[[22.62672,53.48656],[22.63783,53.48318]]}},{"type":"Feature","properties":{"numer":"65","klasa":"droga gĹ‚Ăłwna","kat":"krajowa"},"geometry":{"type":"LineString","coordinates":[[22.62648,53.48665],[22.62672,53.48656]]}},{"type":"Feature","properties":{"numer":"1799B","klasa":"droga zbiorcza","kat":"powiatowa"},"geometry":{"type":"LineString","coordinates":[[22.62953816289854,53.50472484409044],[22.63224,53.50466],[22.64061,53.50424],[22.64541,53.50482],[22.64978,53.50517],[22.64999,53.5065],[22.64895,53.50788],[22.64884,53.50825],[22.64937,53.50987],[22.64968,53.51012],[22.65015,53.51017],[22.66455,53.50949],[22.66817,53.50995],[22.66844,53.51011],[22.66896,53.51111],[22.67055,53.5113],[22.67096,53.51121],[22.6724,53.51045],[22.67411,53.50972],[22.67513,53.5089],[22.6846,53.50733],[22.68872,53.50594],[22.68924,53.50594],[22.69098,53.50626],[22.69421,53.50639]]}},{"type":"Feature","properties":{"numer":"65","klasa":"droga gĹ‚Ăłwna","kat":"krajowa"},"geometry":{"type":"LineString","coordinates":[[22.62648,53.48665],[22.61325,53.49136]]}},{"type":"Feature","properties":{"numer":"65","klasa":"droga gĹ‚Ăłwna","kat":"krajowa"},"geometry":{"type":"LineString","coordinates":[[22.61325,53.49136],[22.611363756805186,53.49201180990709]]}},{"type":"Feature","properties":{"numer":"125508B","klasa":"droga lokalna","kat":"powiatowa"},"geometry":{"type":"LineString","coordinates":[[22.74801,53.48825],[22.74866,53.48793]]}},{"type":"Feature","properties":{"numer":"2620B","klasa":"","kat":"powiatowa"},"geometry":{"type":"LineString","coordinates":[[22.74881,53.48785],[22.75845,53.48837]]}},{"type":"Feature","properties":{"numer":"125508B","klasa":"droga lokalna","kat":"powiatowa"},"geometry":{"type":"LineString","coordinates":[[22.74712,53.48845],[22.74801,53.48825]]}},{"type":"Feature","properties":{"numer":"125508B","klasa":"droga lokalna","kat":"powiatowa"},"geometry":{"type":"LineString","coordinates":[[22.74387,53.48867],[22.74712,53.48845]]}},{"type":"Feature","properties":{"numer":"670","klasa":"droga zbiorcza","kat":"wojewodzka"},"geometry":{"type":"LineString","coordinates":[[22.75845,53.48837],[22.76351,53.49368],[22.76404,53.49409],[22.76501,53.4945],[22.80898,53.50288]]}},{"type":"Feature","properties":{"numer":"670","klasa":"droga zbiorcza","kat":"wojewodzka"},"geometry":{"type":"LineString","coordinates":[[22.80898,53.50288],[22.80914,53.50291]]}},{"type":"Feature","properties":{"numer":"670","klasa":"droga zbiorcza","kat":"wojewodzka"},"geometry":{"type":"LineString","coordinates":[[22.80914,53.50291],[22.8134,53.50371]]}},{"type":"Feature","properties":{"numer":"2621B","klasa":"droga zbiorcza","kat":"powiatowa"},"geometry":{"type":"LineString","coordinates":[[22.73119,53.4897],[22.73223,53.48993],[22.73349,53.49007]]}},{"type":"Feature","properties":{"numer":"2621B","klasa":"droga zbiorcza","kat":"powiatowa"},"geometry":{"type":"LineString","coordinates":[[22.73349,53.49007],[22.73439,53.48995]]}},{"type":"Feature","properties":{"numer":"2624B","klasa":"droga zbiorcza","kat":"powiatowa"},"geometry":{"type":"LineString","coordinates":[[22.72963,53.48931],[22.72908,53.49165],[22.72905,53.49237]]}},{"type":"Feature","properties":{"numer":"2624B","klasa":"droga zbiorcza","kat":"powiatowa"},"geometry":{"type":"LineString","coordinates":[[22.72905,53.49237],[22.72907,53.49294]]}},{"type":"Feature","properties":{"numer":"1800B","klasa":"","kat":"powiatowa"},"geometry":{"type":"LineString","coordinates":[[22.69421,53.50639],[22.69462,53.5048],[22.69566,53.50307],[22.69623,53.50139],[22.69674,53.50094],[22.69827,53.50015],[22.69902,53.49961],[22.70231,53.50063],[22.70417,53.50241],[22.7061,53.50337],[22.70626,53.50335],[22.70695,53.5029],[22.70757,53.50308]]}},{"type":"Feature","properties":{"numer":"1799B","klasa":"droga zbiorcza","kat":"powiatowa"},"geometry":{"type":"LineString","coordinates":[[22.69421,53.50639],[22.70215,53.50788],[22.70299,53.50817],[22.70886,53.5108],[22.71484,53.51238],[22.71739,53.51331],[22.71792,53.51337],[22.72068,53.51338],[22.72114,53.51332],[22.7213,53.51321],[22.72164,53.51212],[22.72191,53.51175],[22.7254,53.50843],[22.72743,53.5063],[22.72755,53.50558],[22.72741,53.5035],[22.72747,53.50266],[22.72817,53.49917],[22.72915,53.49594],[22.72907,53.49294]]}},{"type":"Feature","properties":{"numer":"1216B","klasa":"","kat":"powiatowa"},"geometry":{"type":"LineString","coordinates":[[22.82194869565218,53.67907661717922],[22.81992,53.67685],[22.81895,53.67631],[22.8181,53.67615],[22.81507,53.67597],[22.81141,53.67507],[22.80654,53.67429],[22.802768936231438,53.67397159883748]]}},{"type":"Feature","properties":{"numer":"1848B","klasa":"","kat":"powiatowa"},"geometry":{"type":"LineString","coordinates":[[22.81776001419767,53.46239938950018],[22.81776,53.4624],[22.81787,53.46267],[22.82261,53.46928],[22.82499,53.47178],[22.82563,53.47347],[22.8256,53.47405],[22.82526,53.47501],[22.8254,53.47617]]}},{"type":"Feature","properties":{"numer":"1849B","klasa":"droga zbiorcza","kat":"powiatowa"},"geometry":{"type":"LineString","coordinates":[[22.86377,53.47537],[22.86419,53.47529],[22.88136,53.4684],[22.88238,53.4681],[22.882414022702662,53.468095888251575]]}},{"type":"Feature","properties":{"numer":"1849B","klasa":"droga zbiorcza","kat":"powiatowa"},"geometry":{"type":"LineString","coordinates":[[22.86143,53.47502],[22.86377,53.47537]]}},{"type":"Feature","properties":{"numer":"1850B","klasa":"","kat":"powiatowa"},"geometry":{"type":"LineString","coordinates":[[22.86377,53.47537],[22.86552,53.47573],[22.86734,53.47642],[22.87962,53.48138],[22.880431490512304,53.48174960600257]]}},{"type":"Feature","properties":{"numer":"1850B","klasa":"","kat":"powiatowa"},"geometry":{"type":"LineString","coordinates":[[22.880579223300543,53.48181689320369],[22.884554099571087,53.48362731255768]]}},{"type":"Feature","properties":{"numer":"1849B","klasa":"droga zbiorcza","kat":"powiatowa"},"geometry":{"type":"LineString","coordinates":[[22.83135,53.48714],[22.83263,53.4866],[22.83564,53.48554],[22.8399,53.48459],[22.84462,53.48288],[22.84495,53.48269],[22.84566,53.48172],[22.84631,53.48116],[22.84933,53.47937],[22.85094,53.47822],[22.85181,53.47778],[22.85343,53.47726],[22.85558,53.47676],[22.85661,53.47625],[22.85873,53.47552],[22.86095,53.47504],[22.86143,53.47502]]}},{"type":"Feature","properties":{"numer":"1848B","klasa":"","kat":"powiatowa"},"geometry":{"type":"LineString","coordinates":[[22.8254,53.47617],[22.82594,53.47919],[22.82719,53.48304],[22.83057,53.48568],[22.83128,53.4868],[22.83135,53.48714]]}},{"type":"Feature","properties":{"numer":"1849B","klasa":"droga zbiorcza","kat":"powiatowa"},"geometry":{"type":"LineString","coordinates":[[22.8134,53.50371],[22.81508,53.50122],[22.81502,53.49709],[22.81592,53.4961],[22.81644,53.49581],[22.81995,53.49477],[22.82319,53.49397],[22.82448,53.49351],[22.82657,53.49241],[22.82754,53.49152],[22.82913,53.49033],[22.83135,53.48714]]}},{"type":"Feature","properties":{"numer":"103364B","klasa":"droga lokalna","kat":"powiatowa"},"geometry":{"type":"LineString","coordinates":[[22.89567232979787,53.503307108454344],[22.8907,53.50392],[22.88967,53.50411],[22.88816,53.5049],[22.88525,53.50664]]}},{"type":"Feature","properties":{"numer":"670","klasa":"droga zbiorcza","kat":"wojewodzka"},"geometry":{"type":"LineString","coordinates":[[22.8134,53.50371],[22.82662,53.50625],[22.82747,53.50655],[22.83354,53.5094]]}},{"type":"Feature","properties":{"numer":"103364B","klasa":"droga lokalna","kat":"powiatowa"},"geometry":{"type":"LineString","coordinates":[[22.88614,53.50837],[22.88525,53.50664]]}},{"type":"Feature","properties":{"numer":"103364B","klasa":"droga lokalna","kat":"powiatowa"},"geometry":{"type":"LineString","coordinates":[[22.8864,53.50894],[22.88614,53.50837]]}},{"type":"Feature","properties":{"numer":"670","klasa":"droga zbiorcza","kat":"wojewodzka"},"geometry":{"type":"LineString","coordinates":[[22.83354,53.5094],[22.83363,53.50944]]}},{"type":"Feature","properties":{"numer":"103364B","klasa":"droga lokalna","kat":"powiatowa"},"geometry":{"type":"LineString","coordinates":[[22.88167,53.50994],[22.88476,53.50956],[22.88568,53.50932],[22.8864,53.50894]]}},{"type":"Feature","properties":{"numer":"670","klasa":"droga zbiorcza","kat":"wojewodzka"},"geometry":{"type":"LineString","coordinates":[[22.83363,53.50944],[22.83884,53.51189]]}},{"type":"Feature","properties":{"numer":"1853B","klasa":"","kat":"powiatowa"},"geometry":{"type":"LineString","coordinates":[[22.88334,53.51252],[22.88283,53.51234],[22.88252,53.5121],[22.88167,53.50994]]}},{"type":"Feature","properties":{"numer":"670","klasa":"droga zbiorcza","kat":"wojewodzka"},"geometry":{"type":"LineString","coordinates":[[22.83884,53.51189],[22.839,53.51197]]}},{"type":"Feature","properties":{"numer":"1853B","klasa":"","kat":"powiatowa"},"geometry":{"type":"LineString","coordinates":[[22.88343,53.51255],[22.88334,53.51252]]}},{"type":"Feature","properties":{"numer":"670","klasa":"droga zbiorcza","kat":"wojewodzka"},"geometry":{"type":"LineString","coordinates":[[22.839,53.51197],[22.84243,53.51359]]}},{"type":"Feature","properties":{"numer":"1853B","klasa":"","kat":"powiatowa"},"geometry":{"type":"LineString","coordinates":[[22.8855,53.51483],[22.88519,53.51395],[22.88472,53.51308],[22.88431,53.5128],[22.88343,53.51255]]}},{"type":"Feature","properties":{"numer":"103387B","klasa":"droga lokalna","kat":"powiatowa"},"geometry":{"type":"LineString","coordinates":[[22.84127,53.51514],[22.84243,53.51359]]}},{"type":"Feature","properties":{"numer":"103387B","klasa":"droga lokalna","kat":"powiatowa"},"geometry":{"type":"LineString","coordinates":[[22.83954,53.51749],[22.84127,53.51514]]}},{"type":"Feature","properties":{"numer":"670","klasa":"droga zbiorcza","kat":"wojewodzka"},"geometry":{"type":"LineString","coordinates":[[22.84243,53.51359],[22.8539,53.51895],[22.85781,53.5202]]}},{"type":"Feature","properties":{"numer":"1851B","klasa":"","kat":"powiatowa"},"geometry":{"type":"LineString","coordinates":[[22.85781,53.5202],[22.85979,53.51742],[22.8604,53.51699],[22.86095,53.51686],[22.86757,53.51621],[22.87594,53.5159],[22.88278,53.51499],[22.8855,53.51483]]}},{"type":"Feature","properties":{"numer":"103387B","klasa":"droga lokalna","kat":"powiatowa"},"geometry":{"type":"LineString","coordinates":[[22.83649,53.5216],[22.83954,53.51749]]}},{"type":"Feature","properties":{"numer":"103387B","klasa":"droga lokalna","kat":"powiatowa"},"geometry":{"type":"LineString","coordinates":[[22.83528,53.52323],[22.83649,53.5216]]}},{"type":"Feature","properties":{"numer":"1851B","klasa":"","kat":"powiatowa"},"geometry":{"type":"LineString","coordinates":[[22.8855,53.51483],[22.893498787158705,53.51402325537241]]}},{"type":"Feature","properties":{"numer":"103387B","klasa":"droga lokalna","kat":"powiatowa"},"geometry":{"type":"LineString","coordinates":[[22.8343,53.52501],[22.83425,53.52447],[22.83528,53.52323]]}},{"type":"Feature","properties":{"numer":"1852B","klasa":"","kat":"powiatowa"},"geometry":{"type":"LineString","coordinates":[[22.85781,53.5202],[22.85039,53.52959]]}},{"type":"Feature","properties":{"numer":"103387B","klasa":"droga lokalna","kat":"powiatowa"},"geometry":{"type":"LineString","coordinates":[[22.83795,53.52593],[22.83431,53.52513],[22.8343,53.52501]]}},{"type":"Feature","properties":{"numer":"103387B","klasa":"droga lokalna","kat":"powiatowa"},"geometry":{"type":"LineString","coordinates":[[22.84315,53.52817],[22.84114,53.52743],[22.83942,53.52668],[22.83846,53.52607],[22.83795,53.52593]]}},{"type":"Feature","properties":{"numer":"103387B","klasa":"droga lokalna","kat":"powiatowa"},"geometry":{"type":"LineString","coordinates":[[22.84482,53.52876],[22.84315,53.52817]]}},{"type":"Feature","properties":{"numer":"670","klasa":"droga zbiorcza","kat":"wojewodzka"},"geometry":{"type":"LineString","coordinates":[[22.85781,53.5202],[22.87739657368553,53.5261509044428]]}},{"type":"Feature","properties":{"numer":"103387B","klasa":"droga lokalna","kat":"powiatowa"},"geometry":{"type":"LineString","coordinates":[[22.85039,53.52959],[22.84927,53.52959],[22.84482,53.52876]]}},{"type":"Feature","properties":{"numer":"1216B","klasa":"","kat":"powiatowa"},"geometry":{"type":"LineString","coordinates":[[22.85760939353592,53.68581769354665],[22.85597,53.68559],[22.85339,53.6846],[22.85166,53.6842],[22.85002,53.68328],[22.84651,53.68269],[22.84529,53.68232],[22.84478,53.68196],[22.84439,53.68141],[22.84438,53.67963],[22.8442,53.67928],[22.84414622725947,53.679271315304355]]}}]}