{"type":"FeatureCollection","features":[{"type":"Feature","properties":{"numer":"101740B","klasa":"droga lokalna","kat":"powiatowa"},"geometry":{"type":"LineString","coordinates":[[23.30127,54.17969],[23.301378730964466,54.1796485786802]]}},{"type":"Feature","properties":{"numer":"1168B","klasa":"droga zbiorcza","kat":"powiatowa"},"geometry":{"type":"LineString","coordinates":[[23.20184,54.17962],[23.20456,54.18024],[23.20972,54.18064],[23.21391,54.18106],[23.21937,54.18088],[23.22087,54.18073],[23.22245,54.18073],[23.222451436085684,54.18072993911856]]}},{"type":"Feature","properties":{"numer":"1168B","klasa":"droga zbiorcza","kat":"powiatowa"},"geometry":{"type":"LineString","coordinates":[[23.255556062351943,54.17950820428602],[23.25633,54.1795],[23.256423328111932,54.179474755510704]]}},{"type":"Feature","properties":{"numer":"1168B","klasa":"droga zbiorcza","kat":"powiatowa"},"geometry":{"type":"LineString","coordinates":[[23.259177211383143,54.17936854352006],[23.25933,54.1794],[23.26434,54.18134],[23.26559,54.18218],[23.26676,54.18267],[23.26722,54.18335],[23.26874,54.18383],[23.26924,54.18382],[23.27088,54.18358],[23.27519,54.18369],[23.27739,54.18414],[23.27969,54.1842],[23.28034,54.18412],[23.28151,54.18363],[23.28575,54.1832],[23.2927,54.18319]]}},{"type":"Feature","properties":{"numer":"101740B","klasa":"droga lokalna","kat":"powiatowa"},"geometry":{"type":"LineString","coordinates":[[23.29431,54.18251],[23.2971,54.18113],[23.29767,54.18059],[23.29822,54.1803],[23.29887,54.18012],[23.30035,54.18006],[23.30127,54.17969]]}},{"type":"Feature","properties":{"numer":"101740B","klasa":"droga lokalna","kat":"powiatowa"},"geometry":{"type":"LineString","coordinates":[[23.2927,54.18319],[23.29431,54.18251]]}},{"type":"Feature","properties":{"numer":"1167B","klasa":"","kat":"powiatowa"},"geometry":{"type":"LineString","coordinates":[[23.327346510695186,54.18077066720143],[23.32793,54.1816],[23.32835,54.18255],[23.32937,54.18537],[23.32899,54.18836],[23.32977,54.19101],[23.32978,54.19149],[23.3296,54.19187],[23.32918,54.19231],[23.32799,54.19292],[23.32185,54.19563],[23.32127,54.19576],[23.31946,54.19594],[23.31874,54.1961],[23.31795,54.19639],[23.31648,54.19718],[23.31546,54.19793],[23.31514,54.19827],[23.31393,54.20178],[23.31378,54.20408],[23.31396,54.2046],[23.3152,54.20628],[23.31522,54.20687],[23.31462,54.20753],[23.31458,54.20794],[23.31495,54.20935],[23.31571,54.21037],[23.31584,54.21079],[23.31555,54.2127],[23.31574,54.21391],[23.31477,54.21572],[23.31491,54.21678]]}},{"type":"Feature","properties":{"numer":"651","klasa":"droga gĹ‚Ăłwna","kat":"wojewodzka"},"geometry":{"type":"LineString","coordinates":[[23.143412528578924,54.2157446103828],[23.14573,54.21483]]}},{"type":"Feature","properties":{"numer":"651","klasa":"droga zbiorcza","kat":"wojewodzka"},"geometry":{"type":"LineString","coordinates":[[23.20184,54.17962],[23.2034,54.17909],[23.20761,54.17723],[23.20855,54.17672],[23.20873339040857,54.176589367556794]]}},{"type":"Feature","properties":{"numer":"651","klasa":"droga zbiorcza","kat":"wojewodzka"},"geometry":{"type":"LineString","coordinates":[[23.19643,54.1809],[23.19847,54.18039],[23.19971,54.18019],[23.20184,54.17962]]}},{"type":"Feature","properties":{"numer":"651","klasa":"droga zbiorcza","kat":"wojewodzka"},"geometry":{"type":"LineString","coordinates":[[23.19633,54.18093],[23.19643,54.1809]]}},{"type":"Feature","properties":{"numer":"651","klasa":"droga zbiorcza","kat":"wojewodzka"},"geometry":{"type":"LineString","coordinates":[[23.17892,54.19654],[23.18017,54.19608],[23.18235,54.1958],[23.18404,54.19533],[23.18494,54.19485],[23.18591,54.19407],[23.18752,54.19301],[23.19419,54.18635],[23.19635,54.18399],[23.1964,54.18362],[23.19564,54.18157],[23.19581,54.18123],[23.19633,54.18093]]}},{"type":"Feature","properties":{"numer":"651","klasa":"droga zbiorcza","kat":"wojewodzka"},"geometry":{"type":"LineString","coordinates":[[23.17892,54.19654],[23.17879,54.19662]]}},{"type":"Feature","properties":{"numer":"651","klasa":"droga zbiorcza","kat":"wojewodzka"},"geometry":{"type":"LineString","coordinates":[[23.17024,54.20394],[23.17148,54.20221],[23.17373,54.20091],[23.17528,54.19961],[23.17704,54.19842],[23.17749,54.19802],[23.17827,54.19701],[23.17879,54.19662]]}},{"type":"Feature","properties":{"numer":"1163B","klasa":"droga zbiorcza","kat":"powiatowa"},"geometry":{"type":"LineString","coordinates":[[23.17024,54.20394],[23.17137,54.20366],[23.17307,54.20372],[23.20993,54.20716]]}},{"type":"Feature","properties":{"numer":"651","klasa":"droga zbiorcza","kat":"wojewodzka"},"geometry":{"type":"LineString","coordinates":[[23.15919,54.2104],[23.15957,54.2103],[23.16044,54.20989],[23.1615,54.20921],[23.16316,54.20883],[23.164,54.20853],[23.16697,54.20726],[23.16816,54.20661],[23.16889,54.20599],[23.16927,54.20542],[23.16971,54.20436],[23.17024,54.20394]]}},{"type":"Feature","properties":{"numer":"651","klasa":"droga zbiorcza","kat":"wojewodzka"},"geometry":{"type":"LineString","coordinates":[[23.14573,54.21483],[23.14616,54.21473],[23.14745,54.21466],[23.14851,54.21489],[23.14929,54.21484],[23.15022,54.21448],[23.15076,54.21413],[23.15107,54.21354],[23.15126,54.21216],[23.15167,54.21181],[23.15212,54.21167],[23.15391,54.2114],[23.15591,54.21047],[23.1564,54.21033],[23.15699,54.21032],[23.15828,54.21047],[23.15919,54.2104]]}},{"type":"Feature","properties":{"numer":"1159B","klasa":"droga zbiorcza","kat":"powiatowa"},"geometry":{"type":"LineString","coordinates":[[23.20457,54.23419],[23.20693,54.23098],[23.20815,54.23004],[23.21054,54.2275],[23.21077,54.2271],[23.21112,54.22511],[23.21135,54.22459],[23.21288,54.22291],[23.21394,54.22207],[23.21412,54.22173],[23.21404,54.22032],[23.21362,54.21931],[23.21296,54.217],[23.21297,54.21596],[23.21212,54.21432],[23.21098,54.21032],[23.2105,54.20929],[23.20993,54.20716]]}},{"type":"Feature","properties":{"numer":"1163B","klasa":"droga zbiorcza","kat":"powiatowa"},"geometry":{"type":"LineString","coordinates":[[23.20993,54.20716],[23.23213,54.2092],[23.234,54.20913],[23.23906,54.20834],[23.23954,54.20834],[23.26151,54.21156]]}},{"type":"Feature","properties":{"numer":"1163B","klasa":"droga zbiorcza","kat":"powiatowa"},"geometry":{"type":"LineString","coordinates":[[23.26151,54.21156],[23.26167,54.21158]]}},{"type":"Feature","properties":{"numer":"1163B","klasa":"droga zbiorcza","kat":"powiatowa"},"geometry":{"type":"LineString","coordinates":[[23.26167,54.21158],[23.27104,54.21295],[23.28583,54.21264],[23.28667,54.21271],[23.28827,54.21313],[23.2895,54.21333]]}},{"type":"Feature","properties":{"numer":"1164B","klasa":"droga zbiorcza","kat":"powiatowa"},"geometry":{"type":"LineString","coordinates":[[23.31491,54.21678],[23.32447,54.2182],[23.32477,54.2183],[23.32604,54.21912],[23.32667,54.21936],[23.32965,54.21934],[23.33148,54.21947],[23.3372,54.21961],[23.34078,54.22056],[23.34371,54.21888],[23.34436,54.21881],[23.34619,54.2188],[23.34681,54.21862],[23.34795,54.21704],[23.34851,54.21606],[23.348652355581383,54.21573015170167]]}},{"type":"Feature","properties":{"numer":"1163B","klasa":"droga zbiorcza","kat":"powiatowa"},"geometry":{"type":"LineString","coordinates":[[23.2895,54.21333],[23.28967,54.21335]]}},{"type":"Feature","properties":{"numer":"1163B","klasa":"droga zbiorcza","kat":"powiatowa"},"geometry":{"type":"LineString","coordinates":[[23.28967,54.21335],[23.31491,54.21678]]}},{"type":"Feature","properties":{"numer":"1162B","klasa":"droga zbiorcza","kat":"powiatowa"},"geometry":{"type":"LineString","coordinates":[[23.20457,54.23419],[23.20662,54.23563],[23.20759,54.23714],[23.20771,54.23829],[23.20887,54.23966],[23.20914,54.23972],[23.21137,54.23961],[23.21234,54.23964],[23.21688,54.24036],[23.21787,54.24034],[23.21847,54.24019],[23.22174,54.23817],[23.22257,54.23785],[23.22331,54.23776],[23.22561,54.23776],[23.228,54.23711],[23.22881,54.237],[23.23272,54.23701],[23.23362,54.23695],[23.2367,54.23598],[23.23843,54.23552],[23.24073,54.23474],[23.24142,54.23467],[23.24604,54.23537],[23.25228,54.23519],[23.25416,54.23523],[23.2595,54.23582],[23.26597,54.23621],[23.26996,54.23673],[23.27209,54.23735],[23.2733,54.23867],[23.27418,54.23921],[23.27496,54.23952],[23.27607,54.23978],[23.27719,54.23992],[23.28225,54.23979],[23.28312,54.23989],[23.2836,54.24007],[23.2872,54.24222],[23.28785,54.24248],[23.28821,54.24254],[23.29206,54.24233],[23.29666,54.24142],[23.29807,54.24122],[23.30919,54.24099],[23.31185,54.24047],[23.32085,54.24052],[23.32097,54.24034],[23.32075,54.23955],[23.31957,54.23788],[23.31779,54.23431],[23.31784,54.23355],[23.31832,54.23221],[23.3183,54.23173],[23.31766,54.22974],[23.31602,54.22026],[23.31552,54.21838],[23.31491,54.21678]]}},{"type":"Feature","properties":{"numer":"1161B","klasa":"","kat":"powiatowa"},"geometry":{"type":"LineString","coordinates":[[23.17752,54.2509],[23.17918,54.24939],[23.17929,54.24852],[23.17923,54.24806],[23.1783,54.24616],[23.17712,54.24112],[23.17685,54.24073],[23.17502,54.2392],[23.17429,54.2381],[23.17418,54.23761],[23.17445,54.23698],[23.17618,54.23501],[23.17648,54.23439],[23.17638,54.23284],[23.17517,54.2308],[23.175,54.23024],[23.17524,54.22967],[23.17609,54.22881],[23.17627,54.22846],[23.17682,54.22527],[23.17673,54.22373],[23.17545,54.22198],[23.17373,54.22021],[23.17099,54.21862],[23.16979,54.21804],[23.16944,54.21778],[23.16925,54.21749],[23.16889,54.21637],[23.16693,54.21393],[23.1665,54.21364],[23.16138,54.21121],[23.15955,54.21059],[23.15919,54.2104]]}},{"type":"Feature","properties":{"numer":"1159B","klasa":"droga zbiorcza","kat":"powiatowa"},"geometry":{"type":"LineString","coordinates":[[23.1796,54.25166],[23.18048,54.25087],[23.1809,54.25063],[23.18291,54.25026],[23.18586,54.24953],[23.18645,54.24928],[23.1878,54.24843],[23.19046,54.24731],[23.19226,54.24543],[23.19469,54.24372],[23.19509,54.24265],[23.19534,54.24238],[23.1967,54.24141],[23.19778,54.24095],[23.19921,54.24011],[23.20135,54.2374],[23.20383,54.2352],[23.20457,54.23419]]}},{"type":"Feature","properties":{"numer":"1159B","klasa":"droga zbiorcza","kat":"powiatowa"},"geometry":{"type":"LineString","coordinates":[[23.12616,54.24071],[23.12763,54.24019],[23.12952,54.2402],[23.13302,54.23971],[23.13578,54.23997],[23.14075,54.23975],[23.14275,54.23992],[23.14515,54.24],[23.14761,54.24067],[23.14977,54.24139],[23.15039,54.24148],[23.1519,54.2415],[23.15253,54.2416],[23.15297,54.24181],[23.15401,54.24264],[23.1559,54.24332],[23.15659,54.24337],[23.15882,54.24312],[23.15962,54.24323],[23.16022,54.24359],[23.16202,54.24519],[23.1642,54.24615],[23.16541,54.24683],[23.16706,54.24736],[23.16869,54.24746],[23.16925,54.24759],[23.17076,54.24844],[23.17752,54.2509]]}},{"type":"Feature","properties":{"numer":"1159B","klasa":"droga zbiorcza","kat":"powiatowa"},"geometry":{"type":"LineString","coordinates":[[23.17752,54.2509],[23.17868,54.25132]]}},{"type":"Feature","properties":{"numer":"1159B","klasa":"droga zbiorcza","kat":"powiatowa"},"geometry":{"type":"LineString","coordinates":[[23.17868,54.25132],[23.1796,54.25166]]}},{"type":"Feature","properties":{"numer":"","klasa":"","kat":"gminna"},"geometry":{"type":"LineString","coordinates":[[23.1796,54.25166],[23.18332,54.25371],[23.18485,54.25482],[23.1863,54.25565],[23.18818,54.25639],[23.19036,54.25759],[23.1936,54.25866],[23.198,54.2597],[23.20086,54.26092],[23.20274,54.26182],[23.20557,54.26342],[23.20983,54.26522],[23.21257,54.26595],[23.21528,54.2669],[23.22068,54.26835],[23.2237,54.26933],[23.22514,54.26968],[23.22573,54.26961]]}},{"type":"Feature","properties":{"numer":"1160B","klasa":"droga zbiorcza","kat":"powiatowa"},"geometry":{"type":"LineString","coordinates":[[23.15308,54.2826],[23.15313,54.2806],[23.15474,54.27733],[23.15721,54.27525],[23.15874,54.27434],[23.16053,54.27211],[23.16061,54.27146],[23.16033,54.26866],[23.15976,54.26721],[23.15969,54.26667],[23.15984,54.26612],[23.16107,54.26438],[23.1615,54.26402],[23.16288,54.2634],[23.16335,54.26308],[23.16426,54.26181],[23.16527,54.26064],[23.16622,54.25961],[23.16785,54.25819],[23.175,54.25384],[23.17674,54.25314],[23.17727,54.25274],[23.17868,54.25132]]}},{"type":"Feature","properties":{"numer":"1159B","klasa":"droga gĹ‚Ăłwna","kat":"powiatowa"},"geometry":{"type":"LineString","coordinates":[[23.11677,54.24232],[23.11679026952582,54.24232032617628]]}},{"type":"Feature","properties":{"numer":"1159B","klasa":"droga gĹ‚Ăłwna","kat":"powiatowa"},"geometry":{"type":"LineString","coordinates":[[23.126155111053144,54.240710876638744],[23.12616,54.24071]]}},{"type":"Feature","properties":{"numer":"1159B","klasa":"droga zbiorcza","kat":"powiatowa"},"geometry":{"type":"LineString","coordinates":[[23.11203,54.24221],[23.11677,54.24232]]}},{"type":"Feature","properties":{"numer":"1159B","klasa":"droga gĹ‚Ăłwna","kat":"powiatowa"},"geometry":{"type":"LineString","coordinates":[[23.11203,54.24221],[23.11202851182077,54.242209967455324]]}},{"type":"Feature","properties":{"numer":"1160B","klasa":"droga zbiorcza","kat":"powiatowa"},"geometry":{"type":"LineString","coordinates":[[23.14537047543727,54.28715818469405],[23.14548,54.28674],[23.1488,54.28387],[23.14929,54.28368],[23.15197,54.28299],[23.15308,54.2826]]}}]}