{"type":"FeatureCollection","features":[{"type":"Feature","properties":{"numer":"62","klasa":"droga gĹ‚Ăłwna","kat":"krajowa"},"geometry":{"type":"LineString","coordinates":[[22.65755,52.40052],[22.65859,52.40028]]}},{"type":"Feature","properties":{"numer":"62","klasa":"droga gĹ‚Ăłwna","kat":"krajowa"},"geometry":{"type":"LineString","coordinates":[[22.66407,52.40099],[22.66466,52.40095],[22.69298,52.39642],[22.71476,52.39163],[22.71581,52.39151],[22.71688,52.39154],[22.71905,52.39195],[22.7253,52.39243],[22.76665841923983,52.396606942271276]]}},{"type":"Feature","properties":{"numer":"692","klasa":"droga gĹ‚Ăłwna","kat":"wojewodzka"},"geometry":{"type":"LineString","coordinates":[[22.66407,52.40099],[22.67382,52.40533],[22.69137,52.41692],[22.71716,52.43695],[22.71904,52.43843],[22.72013,52.4395],[22.732303448882583,52.452199835588736]]}},{"type":"Feature","properties":{"numer":"1729B","klasa":"droga zbiorcza","kat":"powiatowa"},"geometry":{"type":"LineString","coordinates":[[22.729416108997953,52.46588398706858],[22.71812,52.4715],[22.71524,52.47246],[22.70904,52.47367],[22.70369,52.47364],[22.68731,52.47332],[22.67398,52.47324],[22.67233,52.47298],[22.67123,52.47267],[22.67012,52.47223],[22.66758,52.47094],[22.66703,52.47083],[22.6657,52.47074]]}},{"type":"Feature","properties":{"numer":"62","klasa":"droga gĹ‚Ăłwna","kat":"krajowa"},"geometry":{"type":"LineString","coordinates":[[22.65859,52.40028],[22.6602,52.39993],[22.66073,52.39992],[22.66237,52.4003],[22.66407,52.40099]]}},{"type":"Feature","properties":{"numer":"1727B","klasa":"droga zbiorcza","kat":"powiatowa"},"geometry":{"type":"LineString","coordinates":[[22.65206,52.40922],[22.65755,52.40052]]}},{"type":"Feature","properties":{"numer":"62","klasa":"droga gĹ‚Ăłwna","kat":"krajowa"},"geometry":{"type":"LineString","coordinates":[[22.60328,52.41222],[22.6149,52.40993],[22.65755,52.40052]]}},{"type":"Feature","properties":{"numer":"1711B","klasa":"droga zbiorcza","kat":"powiatowa"},"geometry":{"type":"LineString","coordinates":[[22.65696,52.41311],[22.65859,52.40028]]}},{"type":"Feature","properties":{"numer":"1727B","klasa":"","kat":"powiatowa"},"geometry":{"type":"LineString","coordinates":[[22.64993,52.41248],[22.65206,52.40922]]}},{"type":"Feature","properties":{"numer":"1711B","klasa":"droga zbiorcza","kat":"powiatowa"},"geometry":{"type":"LineString","coordinates":[[22.65696,52.41316],[22.65696,52.41311]]}},{"type":"Feature","properties":{"numer":"1727B","klasa":"droga zbiorcza","kat":"powiatowa"},"geometry":{"type":"LineString","coordinates":[[22.649,52.4139],[22.64993,52.41248]]}},{"type":"Feature","properties":{"numer":"1727B","klasa":"droga zbiorcza","kat":"powiatowa"},"geometry":{"type":"LineString","coordinates":[[22.64734,52.41649],[22.649,52.4139]]}},{"type":"Feature","properties":{"numer":"1727B","klasa":"","kat":"powiatowa"},"geometry":{"type":"LineString","coordinates":[[22.63933,52.4308],[22.64147,52.42562],[22.64734,52.41649]]}},{"type":"Feature","properties":{"numer":"1727B","klasa":"droga zbiorcza","kat":"powiatowa"},"geometry":{"type":"LineString","coordinates":[[22.63927,52.43099],[22.63933,52.4308]]}},{"type":"Feature","properties":{"numer":"1711B","klasa":"droga zbiorcza","kat":"powiatowa"},"geometry":{"type":"LineString","coordinates":[[22.65696,52.41316],[22.6546,52.4315],[22.65471,52.43203],[22.65531,52.43385],[22.66081,52.44476],[22.66402,52.45],[22.66643,52.45345],[22.66836,52.4567],[22.67104,52.46039],[22.67126,52.46086],[22.67134,52.46307],[22.67079,52.46358],[22.66889,52.4647],[22.66837,52.46519],[22.6657,52.47074]]}},{"type":"Feature","properties":{"numer":"1727B","klasa":"","kat":"powiatowa"},"geometry":{"type":"LineString","coordinates":[[22.62901,52.46111],[22.63682,52.4367],[22.63927,52.43099]]}},{"type":"Feature","properties":{"numer":"1727B","klasa":"droga zbiorcza","kat":"powiatowa"},"geometry":{"type":"LineString","coordinates":[[22.6276,52.46555],[22.62901,52.46111]]}},{"type":"Feature","properties":{"numer":"1727B","klasa":"","kat":"powiatowa"},"geometry":{"type":"LineString","coordinates":[[22.62449,52.47514],[22.6276,52.46555]]}},{"type":"Feature","properties":{"numer":"1729B","klasa":"droga zbiorcza","kat":"powiatowa"},"geometry":{"type":"LineString","coordinates":[[22.6657,52.47074],[22.65917,52.4706],[22.65479,52.47033],[22.65282,52.47037],[22.65189,52.47052],[22.65144,52.47069],[22.64955,52.47183],[22.6486,52.47226],[22.64697,52.47249],[22.6339,52.47583],[22.63039,52.47578],[22.62728,52.47534],[22.62449,52.47514]]}},{"type":"Feature","properties":{"numer":"1711B","klasa":"droga zbiorcza","kat":"powiatowa"},"geometry":{"type":"LineString","coordinates":[[22.6657,52.47074],[22.66036,52.48589],[22.66031,52.48662],[22.66052,52.48751],[22.66187,52.4897]]}},{"type":"Feature","properties":{"numer":"1711B","klasa":"droga zbiorcza","kat":"powiatowa"},"geometry":{"type":"LineString","coordinates":[[22.66192,52.48977],[22.66187,52.4897]]}},{"type":"Feature","properties":{"numer":"1711B","klasa":"droga zbiorcza","kat":"powiatowa"},"geometry":{"type":"LineString","coordinates":[[22.66192,52.48977],[22.66216,52.49029],[22.66216,52.49085],[22.66094,52.4954],[22.66409,52.50355]]}},{"type":"Feature","properties":{"numer":"1711B","klasa":"droga zbiorcza","kat":"powiatowa"},"geometry":{"type":"LineString","coordinates":[[22.66409,52.50355],[22.66411,52.50359]]}},{"type":"Feature","properties":{"numer":"1711B","klasa":"droga zbiorcza","kat":"powiatowa"},"geometry":{"type":"LineString","coordinates":[[22.66411,52.50359],[22.66489,52.50534],[22.6702,52.51185],[22.6777,52.52543]]}},{"type":"Feature","properties":{"numer":"62","klasa":"droga gĹ‚Ăłwna","kat":"krajowa"},"geometry":{"type":"LineString","coordinates":[[22.55955387578238,52.41433770341839],[22.55964,52.41437]]}},{"type":"Feature","properties":{"numer":"62","klasa":"droga gĹ‚Ăłwna","kat":"krajowa"},"geometry":{"type":"LineString","coordinates":[[22.55964,52.41437],[22.56136,52.41502]]}},{"type":"Feature","properties":{"numer":"62","klasa":"droga gĹ‚Ăłwna","kat":"krajowa"},"geometry":{"type":"LineString","coordinates":[[22.56136,52.41502],[22.57322,52.4195],[22.57414,52.4196],[22.5749,52.41945],[22.59381,52.41408],[22.60328,52.41222]]}},{"type":"Feature","properties":{"numer":"1728B","klasa":"droga zbiorcza","kat":"powiatowa"},"geometry":{"type":"LineString","coordinates":[[22.57024,52.46635],[22.57157,52.46382],[22.57221,52.46231],[22.57341,52.46014],[22.57413,52.45921],[22.57706,52.45675],[22.58524,52.45023],[22.59391,52.44037],[22.59696,52.42649],[22.59832,52.42397],[22.5988,52.42275],[22.59881,52.42119],[22.59912,52.41975],[22.59975,52.41871],[22.60263,52.41578],[22.60281,52.41524],[22.60328,52.41222]]}},{"type":"Feature","properties":{"numer":"1728B","klasa":"droga zbiorcza","kat":"powiatowa"},"geometry":{"type":"LineString","coordinates":[[22.5702,52.46641],[22.57024,52.46635]]}},{"type":"Feature","properties":{"numer":"1728B","klasa":"droga zbiorcza","kat":"powiatowa"},"geometry":{"type":"LineString","coordinates":[[22.56813,52.47041],[22.5702,52.46641]]}},{"type":"Feature","properties":{"numer":"1729B","klasa":"","kat":"powiatowa"},"geometry":{"type":"LineString","coordinates":[[22.59916,52.47364],[22.5984,52.47375],[22.59749,52.47369],[22.56813,52.47041]]}},{"type":"Feature","properties":{"numer":"1728B","klasa":"droga zbiorcza","kat":"powiatowa"},"geometry":{"type":"LineString","coordinates":[[22.55062,52.49715],[22.56088,52.48106],[22.56208,52.47944],[22.56324,52.47765],[22.56404,52.47674],[22.56659,52.47338],[22.56813,52.47041]]}},{"type":"Feature","properties":{"numer":"1728B","klasa":"droga zbiorcza","kat":"powiatowa"},"geometry":{"type":"LineString","coordinates":[[22.54338,52.50723],[22.54395,52.50659],[22.54533,52.50557],[22.54572,52.50513],[22.54738,52.50222],[22.55062,52.49715]]}},{"type":"Feature","properties":{"numer":"1729B","klasa":"droga zbiorcza","kat":"powiatowa"},"geometry":{"type":"LineString","coordinates":[[22.62449,52.47514],[22.61205,52.4745],[22.60312,52.4739],[22.6001,52.47356],[22.59916,52.47364]]}},{"type":"Feature","properties":{"numer":"1727B","klasa":"","kat":"powiatowa"},"geometry":{"type":"LineString","coordinates":[[22.6099,52.50403],[22.61023,52.50335],[22.62073,52.48685],[22.62449,52.47514]]}},{"type":"Feature","properties":{"numer":"1737B","klasa":"","kat":"powiatowa"},"geometry":{"type":"LineString","coordinates":[[22.55062,52.49715],[22.55417,52.499],[22.55835,52.50316],[22.559,52.50351],[22.55974,52.50369],[22.56173,52.50387],[22.56403,52.50421],[22.57013,52.50425],[22.57455,52.50439],[22.58239,52.50295],[22.58733,52.50328],[22.58898,52.50346],[22.59186,52.50323],[22.59282,52.50331],[22.59455,52.50291],[22.59502,52.50286],[22.59784,52.50315]]}},{"type":"Feature","properties":{"numer":"1737B","klasa":"","kat":"powiatowa"},"geometry":{"type":"LineString","coordinates":[[22.59784,52.50315],[22.59991,52.50339],[22.6099,52.50403]]}},{"type":"Feature","properties":{"numer":"1727B","klasa":"","kat":"powiatowa"},"geometry":{"type":"LineString","coordinates":[[22.60974,52.5045],[22.6099,52.50403]]}},{"type":"Feature","properties":{"numer":"1727B","klasa":"","kat":"powiatowa"},"geometry":{"type":"LineString","coordinates":[[22.60972,52.50458],[22.60974,52.5045]]}},{"type":"Feature","properties":{"numer":"1727B","klasa":"","kat":"powiatowa"},"geometry":{"type":"LineString","coordinates":[[22.60886,52.50713],[22.60972,52.50458]]}},{"type":"Feature","properties":{"numer":"1727B","klasa":"","kat":"powiatowa"},"geometry":{"type":"LineString","coordinates":[[22.60448706294374,52.52227722991272],[22.60515,52.52014],[22.60553,52.51708],[22.60886,52.50713]]}},{"type":"Feature","properties":{"numer":"1728B","klasa":"droga zbiorcza","kat":"powiatowa"},"geometry":{"type":"LineString","coordinates":[[22.54331,52.50731],[22.54338,52.50723]]}},{"type":"Feature","properties":{"numer":"1728B","klasa":"droga zbiorcza","kat":"powiatowa"},"geometry":{"type":"LineString","coordinates":[[22.53384496819486,52.51871064007058],[22.54331,52.50731]]}},{"type":"Feature","properties":{"numer":"690","klasa":"droga gĹ‚Ăłwna","kat":"wojewodzka"},"geometry":{"type":"LineString","coordinates":[[22.722689597472627,52.50990648411555],[22.72663,52.50554],[22.72812,52.50431],[22.7307,52.50295],[22.733902207729546,52.50144462222365]]}},{"type":"Feature","properties":{"numer":"1734B","klasa":"","kat":"powiatowa"},"geometry":{"type":"LineString","coordinates":[[22.60886,52.50713],[22.61021,52.50721],[22.61564,52.50709],[22.62137,52.50674],[22.62399,52.5069],[22.62602,52.50726],[22.62661,52.50758],[22.631,52.51144],[22.63255,52.51167],[22.6358,52.51177],[22.63591,52.51191],[22.63599,52.51255],[22.63618,52.51276],[22.64452,52.51695],[22.65534,52.5226],[22.659,52.52463],[22.65932,52.52488]]}},{"type":"Feature","properties":{"numer":"2101B","klasa":"droga zbiorcza","kat":"powiatowa"},"geometry":{"type":"LineString","coordinates":[[22.65932,52.52488],[22.66052,52.52477],[22.66125,52.52481],[22.67049,52.52611],[22.67096,52.52625]]}},{"type":"Feature","properties":{"numer":"2101B","klasa":"droga zbiorcza","kat":"powiatowa"},"geometry":{"type":"LineString","coordinates":[[22.67096,52.52625],[22.6777,52.52543]]}},{"type":"Feature","properties":{"numer":"1711B","klasa":"droga zbiorcza","kat":"powiatowa"},"geometry":{"type":"LineString","coordinates":[[22.6777,52.52543],[22.67826,52.52693]]}},{"type":"Feature","properties":{"numer":"1711B","klasa":"droga zbiorcza","kat":"powiatowa"},"geometry":{"type":"LineString","coordinates":[[22.67826,52.52693],[22.67828,52.52699]]}},{"type":"Feature","properties":{"numer":"1735B","klasa":"","kat":"powiatowa"},"geometry":{"type":"LineString","coordinates":[[22.6694,52.52815],[22.67087,52.52647],[22.67096,52.52625]]}},{"type":"Feature","properties":{"numer":"1735B","klasa":"","kat":"powiatowa"},"geometry":{"type":"LineString","coordinates":[[22.66934,52.52821],[22.6694,52.52815]]}},{"type":"Feature","properties":{"numer":"2101B","klasa":"droga zbiorcza","kat":"powiatowa"},"geometry":{"type":"LineString","coordinates":[[22.633752246170896,52.53229268548776],[22.63385,52.53227],[22.63618,52.53145],[22.65068,52.5258],[22.65139,52.52565],[22.65932,52.52488]]}},{"type":"Feature","properties":{"numer":"1711B","klasa":"droga zbiorcza","kat":"powiatowa"},"geometry":{"type":"LineString","coordinates":[[22.67828,52.52699],[22.67854,52.52745],[22.68047,52.52942],[22.6897864798149,52.542231386889824]]}},{"type":"Feature","properties":{"numer":"1735B","klasa":"","kat":"powiatowa"},"geometry":{"type":"LineString","coordinates":[[22.6658245457898,52.53420160172095],[22.66728,52.53097],[22.6677,52.52916],[22.66878,52.52875],[22.66934,52.52821]]}},{"type":"Feature","properties":{"numer":"690","klasa":"droga gĹ‚Ăłwna","kat":"wojewodzka"},"geometry":{"type":"LineString","coordinates":[[22.69055,52.54249],[22.693092080731983,52.540335365950284]]}},{"type":"Feature","properties":{"numer":"690","klasa":"droga gĹ‚Ăłwna","kat":"wojewodzka"},"geometry":{"type":"LineString","coordinates":[[22.693763139062153,52.53976658577374],[22.699507148093495,52.53489803959222]]}},{"type":"Feature","properties":{"numer":"690","klasa":"droga gĹ‚Ăłwna","kat":"wojewodzka"},"geometry":{"type":"LineString","coordinates":[[22.69055,52.54249],[22.690440126811595,52.542577898550725]]}}]}