{"type":"FeatureCollection","features":[{"type":"Feature","properties":{"numer":"1727B","klasa":"","kat":"powiatowa"},"geometry":{"type":"LineString","coordinates":[[22.60448,52.5223],[22.60448706294374,52.52227722991272]]}},{"type":"Feature","properties":{"numer":"108996B","klasa":"droga zbiorcza","kat":"powiatowa"},"geometry":{"type":"LineString","coordinates":[[22.61325,52.54454],[22.61169,52.54289],[22.61053,52.54066]]}},{"type":"Feature","properties":{"numer":"2101B","klasa":"droga zbiorcza","kat":"powiatowa"},"geometry":{"type":"LineString","coordinates":[[22.56873,52.56004],[22.57059,52.55879],[22.57462,52.557],[22.57546,52.55654],[22.58025,52.55231],[22.58638,52.54846],[22.58865,52.54769],[22.5939,52.54741],[22.59471,52.54725],[22.59913,52.54534],[22.61053,52.54066]]}},{"type":"Feature","properties":{"numer":"1728B","klasa":"droga zbiorcza","kat":"powiatowa"},"geometry":{"type":"LineString","coordinates":[[22.51218,52.5392],[22.52073,52.53144],[22.52724,52.52524],[22.53003,52.52311],[22.53309,52.51962],[22.53384496819486,52.51871064007058]]}},{"type":"Feature","properties":{"numer":"1700B","klasa":"droga zbiorcza","kat":"powiatowa"},"geometry":{"type":"LineString","coordinates":[[22.51218,52.5392],[22.5246,52.54266],[22.52547,52.54297],[22.52631,52.5437],[22.53491,52.55228],[22.5416,52.55658],[22.55771,52.56431],[22.55831,52.56474],[22.56126,52.56756]]}},{"type":"Feature","properties":{"numer":"1700B","klasa":"droga zbiorcza","kat":"powiatowa"},"geometry":{"type":"LineString","coordinates":[[22.56126,52.56756],[22.56137,52.56767]]}},{"type":"Feature","properties":{"numer":"1700B","klasa":"droga zbiorcza","kat":"powiatowa"},"geometry":{"type":"LineString","coordinates":[[22.56137,52.56767],[22.56283,52.56915]]}},{"type":"Feature","properties":{"numer":"1728B","klasa":"droga zbiorcza","kat":"powiatowa"},"geometry":{"type":"LineString","coordinates":[[22.49113,52.60042],[22.48958,52.59778],[22.48588,52.592],[22.48263,52.58853],[22.48202,52.58817],[22.48058,52.58762],[22.48026,52.58742],[22.47942,52.58381],[22.47941,52.58292],[22.48132,52.57821],[22.48268,52.57527],[22.48628,52.56671],[22.48661,52.56399],[22.4877,52.56295],[22.48868,52.56245],[22.48944,52.56183],[22.49245,52.56079],[22.49417,52.55968],[22.49452,52.55926],[22.49579,52.55671],[22.4967,52.55518],[22.49917,52.55287],[22.49948,52.55268],[22.50065,52.55225],[22.50131,52.55178],[22.50125,52.5506],[22.50138,52.55014],[22.50326,52.54796],[22.50531,52.54392],[22.50588,52.5424],[22.50628,52.54167],[22.50827,52.54063],[22.50945,52.53944],[22.50986,52.53938],[22.511,52.53941],[22.51218,52.5392]]}},{"type":"Feature","properties":{"numer":"2094B","klasa":"droga zbiorcza","kat":"powiatowa"},"geometry":{"type":"LineString","coordinates":[[22.55072,52.57872],[22.55134,52.57685],[22.55185,52.57609],[22.55269,52.57528],[22.55905,52.57077],[22.56006,52.57027],[22.56283,52.56915]]}},{"type":"Feature","properties":{"numer":"2099B","klasa":"","kat":"powiatowa"},"geometry":{"type":"LineString","coordinates":[[22.49184,52.60146],[22.49222,52.60128],[22.4941,52.60075],[22.49775,52.60026],[22.5042,52.59865],[22.50949,52.59604],[22.51253,52.59494],[22.51746,52.59349],[22.52785,52.5913],[22.53447,52.59064],[22.53748,52.58955],[22.53997,52.58887],[22.54074,52.58847],[22.54117,52.5881],[22.5428,52.58612],[22.54372,52.58559],[22.54496,52.5851],[22.54559,52.58475],[22.54615,52.58293],[22.54788,52.58096],[22.54861,52.58043],[22.55011,52.57905],[22.55049,52.57878],[22.55072,52.57872]]}},{"type":"Feature","properties":{"numer":"2094B","klasa":"droga zbiorcza","kat":"powiatowa"},"geometry":{"type":"LineString","coordinates":[[22.541923048078306,52.607733705916225],[22.54269,52.60615],[22.55072,52.57872]]}},{"type":"Feature","properties":{"numer":"2101B","klasa":"droga zbiorcza","kat":"powiatowa"},"geometry":{"type":"LineString","coordinates":[[22.56861,52.56012],[22.56873,52.56004]]}},{"type":"Feature","properties":{"numer":"108996B","klasa":"droga zbiorcza","kat":"powiatowa"},"geometry":{"type":"LineString","coordinates":[[22.61443,52.56278],[22.61541,52.56223],[22.6156,52.56191],[22.61576,52.56129]]}},{"type":"Feature","properties":{"numer":"108996B","klasa":"droga zbiorcza","kat":"powiatowa"},"geometry":{"type":"LineString","coordinates":[[22.61423,52.5637],[22.61443,52.56278]]}},{"type":"Feature","properties":{"numer":"108996B","klasa":"droga zbiorcza","kat":"powiatowa"},"geometry":{"type":"LineString","coordinates":[[22.61421,52.5638],[22.61423,52.5637]]}},{"type":"Feature","properties":{"numer":"109041B","klasa":"droga zbiorcza","kat":"powiatowa"},"geometry":{"type":"LineString","coordinates":[[22.60221,52.56415],[22.60354,52.56403],[22.60737,52.56405],[22.608,52.56411]]}},{"type":"Feature","properties":{"numer":"108996B","klasa":"droga zbiorcza","kat":"powiatowa"},"geometry":{"type":"LineString","coordinates":[[22.61408,52.56496],[22.61421,52.5638]]}},{"type":"Feature","properties":{"numer":"109041B","klasa":"droga zbiorcza","kat":"powiatowa"},"geometry":{"type":"LineString","coordinates":[[22.608,52.56411],[22.60922,52.56444],[22.61191,52.56487],[22.61281,52.56497],[22.61408,52.56496]]}},{"type":"Feature","properties":{"numer":"2101B","klasa":"droga zbiorcza","kat":"powiatowa"},"geometry":{"type":"LineString","coordinates":[[22.56283,52.56915],[22.56268,52.56883],[22.56289,52.56858],[22.56543,52.56298],[22.56733,52.56102],[22.56861,52.56012]]}},{"type":"Feature","properties":{"numer":"109041B","klasa":"droga zbiorcza","kat":"powiatowa"},"geometry":{"type":"LineString","coordinates":[[22.61408,52.56496],[22.61395,52.56638]]}},{"type":"Feature","properties":{"numer":"109041B","klasa":"droga zbiorcza","kat":"powiatowa"},"geometry":{"type":"LineString","coordinates":[[22.61395,52.56638],[22.6143,52.56651],[22.61842,52.5673],[22.62002,52.5678]]}},{"type":"Feature","properties":{"numer":"1728B","klasa":"droga zbiorcza","kat":"powiatowa"},"geometry":{"type":"LineString","coordinates":[[22.49113,52.60042],[22.49118,52.60051]]}},{"type":"Feature","properties":{"numer":"1728B","klasa":"droga zbiorcza","kat":"powiatowa"},"geometry":{"type":"LineString","coordinates":[[22.49118,52.60051],[22.49165,52.60133],[22.49184,52.60146]]}},{"type":"Feature","properties":{"numer":"2099B","klasa":"","kat":"powiatowa"},"geometry":{"type":"LineString","coordinates":[[22.47876,52.60745],[22.48923,52.60286],[22.49147,52.60173],[22.49184,52.60146]]}},{"type":"Feature","properties":{"numer":"2099B","klasa":"","kat":"powiatowa"},"geometry":{"type":"LineString","coordinates":[[22.478642800113594,52.60751310763114],[22.47876,52.60745]]}},{"type":"Feature","properties":{"numer":"109041B","klasa":"droga zbiorcza","kat":"powiatowa"},"geometry":{"type":"LineString","coordinates":[[22.56401,52.56905],[22.56588,52.56888],[22.57111,52.56819]]}},{"type":"Feature","properties":{"numer":"109041B","klasa":"droga zbiorcza","kat":"powiatowa"},"geometry":{"type":"LineString","coordinates":[[22.563,52.56912],[22.56401,52.56905]]}},{"type":"Feature","properties":{"numer":"109041B","klasa":"droga zbiorcza","kat":"powiatowa"},"geometry":{"type":"LineString","coordinates":[[22.563,52.56912],[22.56283,52.56915]]}},{"type":"Feature","properties":{"numer":"1700B","klasa":"droga zbiorcza","kat":"powiatowa"},"geometry":{"type":"LineString","coordinates":[[22.56283,52.56915],[22.56453,52.57063],[22.57387,52.57621],[22.59979,52.58675],[22.60257,52.58803]]}},{"type":"Feature","properties":{"numer":"1700B","klasa":"droga zbiorcza","kat":"powiatowa"},"geometry":{"type":"LineString","coordinates":[[22.60257,52.58803],[22.60266,52.58808]]}},{"type":"Feature","properties":{"numer":"1700B","klasa":"droga zbiorcza","kat":"powiatowa"},"geometry":{"type":"LineString","coordinates":[[22.60266,52.58808],[22.60603,52.58974],[22.61812,52.59511],[22.61847,52.59531],[22.61875,52.59569]]}},{"type":"Feature","properties":{"numer":"1700B","klasa":"droga zbiorcza","kat":"powiatowa"},"geometry":{"type":"LineString","coordinates":[[22.61875,52.59569],[22.61886,52.59588]]}},{"type":"Feature","properties":{"numer":"690","klasa":"droga gĹ‚Ăłwna","kat":"wojewodzka"},"geometry":{"type":"LineString","coordinates":[[22.61911,52.59592],[22.61935,52.59581]]}},{"type":"Feature","properties":{"numer":"1700B","klasa":"droga zbiorcza","kat":"powiatowa"},"geometry":{"type":"LineString","coordinates":[[22.61886,52.59588],[22.61893,52.596]]}},{"type":"Feature","properties":{"numer":"690","klasa":"droga gĹ‚Ăłwna","kat":"wojewodzka"},"geometry":{"type":"LineString","coordinates":[[22.61893,52.596],[22.61911,52.59592]]}},{"type":"Feature","properties":{"numer":"2094B","klasa":"droga zbiorcza","kat":"powiatowa"},"geometry":{"type":"LineString","coordinates":[[22.54111040568798,52.609229824341305],[22.54118,52.60913],[22.541236202531657,52.609024430379726]]}},{"type":"Feature","properties":{"numer":"2101B","klasa":"droga zbiorcza","kat":"powiatowa"},"geometry":{"type":"LineString","coordinates":[[22.61053,52.54066],[22.62007,52.53682],[22.62772,52.53351],[22.62878,52.5332],[22.63148,52.53282],[22.633752246170896,52.53229268548776]]}},{"type":"Feature","properties":{"numer":"690","klasa":"droga gĹ‚Ăłwna","kat":"wojewodzka"},"geometry":{"type":"LineString","coordinates":[[22.65318,52.57251],[22.65318784756925,52.57247553893504]]}},{"type":"Feature","properties":{"numer":"690","klasa":"droga gĹ‚Ăłwna","kat":"wojewodzka"},"geometry":{"type":"LineString","coordinates":[[22.65301,52.57334],[22.65318,52.57251]]}},{"type":"Feature","properties":{"numer":"690","klasa":"droga gĹ‚Ăłwna","kat":"wojewodzka"},"geometry":{"type":"LineString","coordinates":[[22.65296,52.57361],[22.65301,52.57334]]}},{"type":"Feature","properties":{"numer":"1724B","klasa":"droga zbiorcza","kat":"powiatowa"},"geometry":{"type":"LineString","coordinates":[[22.65318,52.57251],[22.65601331202789,52.572500127832654]]}},{"type":"Feature","properties":{"numer":"690","klasa":"droga gĹ‚Ăłwna","kat":"wojewodzka"},"geometry":{"type":"LineString","coordinates":[[22.61935,52.59581],[22.63851,52.58762],[22.6402,52.58674],[22.64605,52.58222],[22.64979,52.57862],[22.65232,52.57529],[22.6527,52.57454],[22.65296,52.57361]]}},{"type":"Feature","properties":{"numer":"1700B","klasa":"droga zbiorcza","kat":"powiatowa"},"geometry":{"type":"LineString","coordinates":[[22.61914,52.59631],[22.62579,52.60692],[22.62695,52.61034],[22.62735,52.61114],[22.628074607474716,52.6118835102784]]}},{"type":"Feature","properties":{"numer":"690","klasa":"droga gĹ‚Ăłwna","kat":"wojewodzka"},"geometry":{"type":"LineString","coordinates":[[22.61876,52.59607],[22.61893,52.596]]}},{"type":"Feature","properties":{"numer":"1700B","klasa":"droga zbiorcza","kat":"powiatowa"},"geometry":{"type":"LineString","coordinates":[[22.61893,52.596],[22.61901,52.59612]]}},{"type":"Feature","properties":{"numer":"690","klasa":"droga gĹ‚Ăłwna","kat":"wojewodzka"},"geometry":{"type":"LineString","coordinates":[[22.61846,52.5962],[22.61876,52.59607]]}},{"type":"Feature","properties":{"numer":"1700B","klasa":"droga zbiorcza","kat":"powiatowa"},"geometry":{"type":"LineString","coordinates":[[22.61901,52.59612],[22.61914,52.59631]]}},{"type":"Feature","properties":{"numer":"690","klasa":"droga gĹ‚Ăłwna","kat":"wojewodzka"},"geometry":{"type":"LineString","coordinates":[[22.607582353869176,52.60142008822332],[22.61065,52.60002],[22.61846,52.5962]]}}]}