{"type":"FeatureCollection","features":[{"type":"Feature","properties":{"numer":"2072B","klasa":"droga zbiorcza","kat":"powiatowa"},"geometry":{"type":"LineString","coordinates":[[22.39427864626804,52.87941162090577],[22.39567,52.87983],[22.39669,52.88024]]}},{"type":"Feature","properties":{"numer":"2072B","klasa":"droga zbiorcza","kat":"powiatowa"},"geometry":{"type":"LineString","coordinates":[[22.39669,52.88024],[22.39674,52.88026]]}},{"type":"Feature","properties":{"numer":"2072B","klasa":"droga zbiorcza","kat":"powiatowa"},"geometry":{"type":"LineString","coordinates":[[22.39674,52.88026],[22.40231,52.88275],[22.40576,52.88515],[22.41011,52.88782],[22.41102,52.88828],[22.41264,52.88885]]}},{"type":"Feature","properties":{"numer":"2072B","klasa":"droga zbiorcza","kat":"powiatowa"},"geometry":{"type":"LineString","coordinates":[[22.41264,52.88885],[22.41287,52.88891]]}},{"type":"Feature","properties":{"numer":"2056B","klasa":"droga zbiorcza","kat":"powiatowa"},"geometry":{"type":"LineString","coordinates":[[22.36143006324915,52.89749396818376],[22.3615,52.89754],[22.36662,52.90143],[22.36775,52.90235],[22.36889,52.90361]]}},{"type":"Feature","properties":{"numer":"2074B","klasa":"droga zbiorcza","kat":"powiatowa"},"geometry":{"type":"LineString","coordinates":[[22.45829069378012,52.875991547118],[22.45885,52.87627],[22.47188,52.88196],[22.47235,52.88227],[22.47291,52.88302],[22.47462,52.88461]]}},{"type":"Feature","properties":{"numer":"2076B","klasa":"droga zbiorcza","kat":"powiatowa"},"geometry":{"type":"LineString","coordinates":[[22.47462,52.88461],[22.47726,52.8844],[22.48771,52.88143],[22.48890251980053,52.88129749779994]]}},{"type":"Feature","properties":{"numer":"2070B","klasa":"droga zbiorcza","kat":"powiatowa"},"geometry":{"type":"LineString","coordinates":[[22.54896,52.90405],[22.54982,52.8992],[22.557473254727892,52.88696812821321]]}},{"type":"Feature","properties":{"numer":"66","klasa":"droga gĹ‚Ăłwna","kat":"krajowa"},"geometry":{"type":"LineString","coordinates":[[22.512950233184146,52.90536283998751],[22.51408,52.90105],[22.51445,52.89909],[22.51414,52.89808],[22.51255,52.89566],[22.51238,52.89524],[22.511590877359772,52.88782702974331]]}},{"type":"Feature","properties":{"numer":"2072B","klasa":"droga zbiorcza","kat":"powiatowa"},"geometry":{"type":"LineString","coordinates":[[22.41287,52.88891],[22.41584,52.88944],[22.42429,52.89076],[22.42888,52.89089],[22.43353,52.89042],[22.43464,52.89044],[22.43538,52.89057],[22.43658,52.89092],[22.43886,52.89109],[22.44163,52.89168],[22.4444,52.89253],[22.44546,52.89323]]}},{"type":"Feature","properties":{"numer":"2072B","klasa":"droga zbiorcza","kat":"powiatowa"},"geometry":{"type":"LineString","coordinates":[[22.44546,52.89323],[22.44552,52.89327]]}},{"type":"Feature","properties":{"numer":"2074B","klasa":"droga zbiorcza","kat":"powiatowa"},"geometry":{"type":"LineString","coordinates":[[22.47462,52.88461],[22.47768,52.88757],[22.48751,52.89639],[22.49003,52.89978],[22.490487459868028,52.900306895740854]]}},{"type":"Feature","properties":{"numer":"2072B","klasa":"droga zbiorcza","kat":"powiatowa"},"geometry":{"type":"LineString","coordinates":[[22.44552,52.89327],[22.44786,52.89503],[22.45071,52.89735],[22.45419,52.89883],[22.45961,52.90178],[22.46278,52.90309],[22.46374,52.90341],[22.4712,52.90528],[22.48025,52.90746]]}},{"type":"Feature","properties":{"numer":"2072B","klasa":"droga zbiorcza","kat":"powiatowa"},"geometry":{"type":"LineString","coordinates":[[22.48025,52.90746],[22.48032,52.90747]]}},{"type":"Feature","properties":{"numer":"2072B","klasa":"droga zbiorcza","kat":"powiatowa"},"geometry":{"type":"LineString","coordinates":[[22.48032,52.90747],[22.48159,52.90778]]}},{"type":"Feature","properties":{"numer":"2075B","klasa":"droga zbiorcza","kat":"powiatowa"},"geometry":{"type":"LineString","coordinates":[[22.47995,52.91052],[22.48159,52.90778]]}},{"type":"Feature","properties":{"numer":"2072B","klasa":"droga zbiorcza","kat":"powiatowa"},"geometry":{"type":"LineString","coordinates":[[22.48159,52.90778],[22.485087881631916,52.908644517086266]]}},{"type":"Feature","properties":{"numer":"2075B","klasa":"droga zbiorcza","kat":"powiatowa"},"geometry":{"type":"LineString","coordinates":[[22.47987,52.91065],[22.47995,52.91052]]}},{"type":"Feature","properties":{"numer":"2075B","klasa":"droga zbiorcza","kat":"powiatowa"},"geometry":{"type":"LineString","coordinates":[[22.36765,52.90686],[22.38597,52.90844],[22.3926,52.90952],[22.39656,52.91025],[22.42338,52.91081],[22.43083,52.91086],[22.43256,52.91279],[22.4331,52.91409],[22.4335,52.91462],[22.43459,52.91526],[22.43535,52.91593],[22.43629,52.91655],[22.4375,52.91692],[22.43824,52.91706],[22.43863,52.91699],[22.43943,52.91654],[22.43977,52.91646],[22.44328,52.91651],[22.45623,52.91513],[22.4599,52.91485],[22.4642,52.91489],[22.46707,52.91505],[22.47169,52.91554],[22.47819,52.91653],[22.47829,52.91642],[22.47776,52.9144],[22.47778,52.91399],[22.47807,52.91338],[22.47987,52.91065]]}},{"type":"Feature","properties":{"numer":"2065B","klasa":"droga zbiorcza","kat":"powiatowa"},"geometry":{"type":"LineString","coordinates":[[22.52972954081633,52.912040918367346],[22.53154,52.91144],[22.54219,52.90801],[22.54252,52.90784],[22.54328,52.90708],[22.54355,52.9059],[22.54411,52.90526],[22.547,52.9043],[22.54896,52.90405]]}},{"type":"Feature","properties":{"numer":"2064B","klasa":"droga zbiorcza","kat":"powiatowa"},"geometry":{"type":"LineString","coordinates":[[22.61423,52.94797],[22.61532,52.94749],[22.61877,52.94561],[22.62122,52.94407],[22.62152,52.94382],[22.62322,52.94181],[22.63489,52.93305],[22.636796886750233,52.931707519476056]]}},{"type":"Feature","properties":{"numer":"2065B","klasa":"droga zbiorcza","kat":"powiatowa"},"geometry":{"type":"LineString","coordinates":[[22.67324091711065,52.94422055428201],[22.67450682531576,52.94507245477224]]}},{"type":"Feature","properties":{"numer":"2062B","klasa":"droga zbiorcza","kat":"powiatowa"},"geometry":{"type":"LineString","coordinates":[[22.64902,52.9703],[22.649,52.96996],[22.64853,52.96927],[22.6462,52.96723],[22.64553,52.96638],[22.64547,52.96595],[22.64575,52.9647],[22.64541,52.96323],[22.6451,52.96038],[22.64505,52.95873],[22.64471,52.95778],[22.64479,52.95712],[22.6456,52.95519],[22.64929,52.94858],[22.64987,52.94733],[22.64959,52.94644],[22.64871,52.94446],[22.648068860416362,52.941525971396906]]}},{"type":"Feature","properties":{"numer":"678","klasa":"droga gĹ‚Ăłwna","kat":"wojewodzka"},"geometry":{"type":"LineString","coordinates":[[22.62545,52.95702],[22.62536,52.95696]]}},{"type":"Feature","properties":{"numer":"678","klasa":"droga gĹ‚Ăłwna","kat":"wojewodzka"},"geometry":{"type":"LineString","coordinates":[[22.64588,52.9688],[22.63163,52.96129],[22.62794,52.95891],[22.62545,52.95702]]}},{"type":"Feature","properties":{"numer":"2054B","klasa":"droga zbiorcza","kat":"powiatowa"},"geometry":{"type":"LineString","coordinates":[[22.64588,52.9688],[22.64528,52.96895]]}},{"type":"Feature","properties":{"numer":"678","klasa":"droga gĹ‚Ăłwna","kat":"wojewodzka"},"geometry":{"type":"LineString","coordinates":[[22.64902,52.9703],[22.64773,52.96978],[22.64588,52.9688]]}},{"type":"Feature","properties":{"numer":"678","klasa":"droga gĹ‚Ăłwna","kat":"wojewodzka"},"geometry":{"type":"LineString","coordinates":[[22.6513,52.97115],[22.64902,52.9703]]}},{"type":"Feature","properties":{"numer":"678","klasa":"droga gĹ‚Ăłwna","kat":"wojewodzka"},"geometry":{"type":"LineString","coordinates":[[22.65139,52.97118],[22.6513,52.97115]]}},{"type":"Feature","properties":{"numer":"678","klasa":"droga gĹ‚Ăłwna","kat":"wojewodzka"},"geometry":{"type":"LineString","coordinates":[[22.662081898366647,52.974240747979934],[22.65673,52.97264],[22.65139,52.97118]]}},{"type":"Feature","properties":{"numer":"2046B","klasa":"droga zbiorcza","kat":"powiatowa"},"geometry":{"type":"LineString","coordinates":[[22.647532711958863,52.97409537254723],[22.64756,52.97312],[22.64735,52.97215],[22.64647,52.97106],[22.64528,52.96895]]}},{"type":"Feature","properties":{"numer":"2019B","klasa":"","kat":"powiatowa"},"geometry":{"type":"LineString","coordinates":[[22.345423072015564,52.924278060443434],[22.34543,52.92428]]}},{"type":"Feature","properties":{"numer":"2019B","klasa":"droga zbiorcza","kat":"powiatowa"},"geometry":{"type":"LineString","coordinates":[[22.34543,52.92428],[22.34606,52.92439]]}},{"type":"Feature","properties":{"numer":"2019B","klasa":"","kat":"powiatowa"},"geometry":{"type":"LineString","coordinates":[[22.34606,52.92439],[22.34718,52.92461],[22.3484,52.92503],[22.34865,52.92526],[22.34916,52.92639],[22.34966,52.92704],[22.35121,52.92763],[22.35225,52.92814]]}},{"type":"Feature","properties":{"numer":"2019B","klasa":"","kat":"powiatowa"},"geometry":{"type":"LineString","coordinates":[[22.35225,52.92814],[22.35299,52.92871],[22.35535,52.92918],[22.35691,52.92985],[22.3581,52.93022]]}},{"type":"Feature","properties":{"numer":"66","klasa":"droga gĹ‚Ăłwna","kat":"krajowa"},"geometry":{"type":"LineString","coordinates":[[22.356974503599137,52.9490548312611],[22.36465,52.94723]]}},{"type":"Feature","properties":{"numer":"2056B","klasa":"droga zbiorcza","kat":"powiatowa"},"geometry":{"type":"LineString","coordinates":[[22.36889,52.90361],[22.36854,52.90475]]}},{"type":"Feature","properties":{"numer":"2056B","klasa":"droga zbiorcza","kat":"powiatowa"},"geometry":{"type":"LineString","coordinates":[[22.36765,52.90686],[22.36854,52.90475]]}},{"type":"Feature","properties":{"numer":"2056B","klasa":"droga zbiorcza","kat":"powiatowa"},"geometry":{"type":"LineString","coordinates":[[22.3581,52.93022],[22.35714,52.92895],[22.35687,52.92875],[22.35542,52.92795],[22.35496,52.92778],[22.35393,52.92758],[22.35367,52.92735],[22.35403,52.92381],[22.35597,52.91661],[22.35581,52.91623],[22.35484,52.91536],[22.3527,52.91424],[22.35258,52.91406],[22.35275,52.9139],[22.36176,52.90907],[22.36374,52.90829],[22.36715,52.90713],[22.36765,52.90686]]}},{"type":"Feature","properties":{"numer":"2056B","klasa":"droga zbiorcza","kat":"powiatowa"},"geometry":{"type":"LineString","coordinates":[[22.3629,52.945],[22.3625,52.9441],[22.36303,52.94081],[22.36297,52.93829],[22.36276,52.93739],[22.3618,52.93564],[22.35912,52.93282],[22.35849,52.93081],[22.3581,52.93022]]}},{"type":"Feature","properties":{"numer":"2056B","klasa":"droga zbiorcza","kat":"powiatowa"},"geometry":{"type":"LineString","coordinates":[[22.3629,52.945],[22.36295,52.9451]]}},{"type":"Feature","properties":{"numer":"2056B","klasa":"droga zbiorcza","kat":"powiatowa"},"geometry":{"type":"LineString","coordinates":[[22.36465,52.94723],[22.3635,52.94614],[22.36295,52.9451]]}},{"type":"Feature","properties":{"numer":"2056B","klasa":"droga zbiorcza","kat":"powiatowa"},"geometry":{"type":"LineString","coordinates":[[22.36684,52.95094],[22.36707,52.95056],[22.36675,52.94928],[22.36636,52.94874],[22.36465,52.94723]]}},{"type":"Feature","properties":{"numer":"2057B","klasa":"droga zbiorcza","kat":"powiatowa"},"geometry":{"type":"LineString","coordinates":[[22.36684,52.95094],[22.3682,52.95112],[22.37029,52.95107],[22.3707,52.95163],[22.37155,52.9521],[22.38519,52.95642],[22.39456,52.95951],[22.39931,52.9608],[22.40262,52.96184],[22.40371,52.96202]]}},{"type":"Feature","properties":{"numer":"2056B","klasa":"droga zbiorcza","kat":"powiatowa"},"geometry":{"type":"LineString","coordinates":[[22.35747,52.96813],[22.35777,52.96575],[22.35965,52.96368],[22.36262,52.95693],[22.36387,52.95472],[22.36425,52.95426],[22.36562,52.95303],[22.36642,52.95146],[22.36684,52.95094]]}},{"type":"Feature","properties":{"numer":"2056B","klasa":"droga zbiorcza","kat":"powiatowa"},"geometry":{"type":"LineString","coordinates":[[22.355141295010462,52.972329449308255],[22.35535,52.97154],[22.35531,52.97066],[22.35705,52.96999],[22.35735,52.96942],[22.35747,52.96813]]}},{"type":"Feature","properties":{"numer":"2065B","klasa":"droga zbiorcza","kat":"powiatowa"},"geometry":{"type":"LineString","coordinates":[[22.54896,52.90405],[22.54927,52.9041],[22.5495,52.90423],[22.54971,52.90512],[22.55016,52.90547],[22.5569,52.90772],[22.56316,52.90966],[22.56432,52.91017],[22.56508,52.91041],[22.56591,52.9106],[22.57594,52.91213],[22.58163,52.91267],[22.58731,52.91282],[22.58829,52.9144],[22.58861,52.91455],[22.59249,52.91455],[22.59756,52.91351],[22.59825,52.91343],[22.599137620569604,52.91338266023629]]}},{"type":"Feature","properties":{"numer":"678","klasa":"droga gĹ‚Ăłwna","kat":"wojewodzka"},"geometry":{"type":"LineString","coordinates":[[22.61423,52.94797],[22.61395,52.94765],[22.61341,52.94732],[22.60179,52.94197],[22.5926,52.93818],[22.5891,52.93627],[22.5885,52.93602],[22.58757,52.93583],[22.5715,52.9341],[22.5669,52.93252],[22.56351,52.93105],[22.56276,52.9308],[22.55344,52.92849],[22.55088,52.92835]]}},{"type":"Feature","properties":{"numer":"678","klasa":"droga gĹ‚Ăłwna","kat":"wojewodzka"},"geometry":{"type":"LineString","coordinates":[[22.62536,52.95696],[22.61981,52.95279],[22.61928,52.95252],[22.61697,52.95189],[22.61663,52.95169],[22.61641,52.95147],[22.61423,52.94797]]}},{"type":"Feature","properties":{"numer":"2054B","klasa":"droga zbiorcza","kat":"powiatowa"},"geometry":{"type":"LineString","coordinates":[[22.64528,52.96895],[22.62652,52.97162],[22.62423,52.9724],[22.61939,52.97363],[22.61845,52.9736],[22.60662240067058,52.97390888181056]]}},{"type":"Feature","properties":{"numer":"2052B","klasa":"droga zbiorcza","kat":"powiatowa"},"geometry":{"type":"LineString","coordinates":[[22.48911841093515,52.93334856040858],[22.48709,52.93488]]}},{"type":"Feature","properties":{"numer":"2057B","klasa":"droga zbiorcza","kat":"powiatowa"},"geometry":{"type":"LineString","coordinates":[[22.48657,52.93496],[22.48709,52.93488]]}},{"type":"Feature","properties":{"numer":"2052B","klasa":"droga zbiorcza","kat":"powiatowa"},"geometry":{"type":"LineString","coordinates":[[22.48709,52.93488],[22.48702,52.93498]]}},{"type":"Feature","properties":{"numer":"2057B","klasa":"droga zbiorcza","kat":"powiatowa"},"geometry":{"type":"LineString","coordinates":[[22.48657,52.93496],[22.48702,52.93498]]}},{"type":"Feature","properties":{"numer":"66","klasa":"droga gĹ‚Ăłwna","kat":"krajowa"},"geometry":{"type":"LineString","coordinates":[[22.36465,52.94723],[22.40867,52.93673],[22.41157,52.93616],[22.487512638296028,52.92726366312497]]}},{"type":"Feature","properties":{"numer":"2052B","klasa":"droga zbiorcza","kat":"powiatowa"},"geometry":{"type":"LineString","coordinates":[[22.48702,52.93498],[22.48682,52.93599],[22.48656,52.94411],[22.48705,52.95315],[22.48673,52.95414],[22.48622,52.95496],[22.48627,52.95531]]}},{"type":"Feature","properties":{"numer":"2057B","klasa":"droga zbiorcza","kat":"powiatowa"},"geometry":{"type":"LineString","coordinates":[[22.40371,52.96202],[22.40479,52.96217],[22.40697,52.96268],[22.40826,52.96218],[22.40945,52.96193],[22.4102,52.96192],[22.41658,52.96222],[22.4174,52.96213],[22.41832,52.96183],[22.43306,52.95565],[22.44837,52.94473],[22.4537,52.94114],[22.45455,52.94077],[22.46131,52.93843],[22.462,52.93825],[22.46692,52.9375],[22.48657,52.93496]]}},{"type":"Feature","properties":{"numer":"2052B","klasa":"droga zbiorcza","kat":"powiatowa"},"geometry":{"type":"LineString","coordinates":[[22.48627,52.95531],[22.48795,52.95741],[22.48884,52.95825],[22.49108,52.96107],[22.49176,52.96409],[22.49308,52.96706],[22.49528,52.97084],[22.496999021464354,52.973452912625824]]}},{"type":"Feature","properties":{"numer":"678","klasa":"droga gĹ‚Ăłwna","kat":"wojewodzka"},"geometry":{"type":"LineString","coordinates":[[22.55088,52.92835],[22.546449665737203,52.92817017093399]]}},{"type":"Feature","properties":{"numer":"678","klasa":"droga gĹ‚Ăłwna","kat":"wojewodzka"},"geometry":{"type":"LineString","coordinates":[[22.541778977615706,52.92753245927898],[22.53718309438647,52.926786409108175]]}},{"type":"Feature","properties":{"numer":"2049B","klasa":"droga zbiorcza","kat":"powiatowa"},"geometry":{"type":"LineString","coordinates":[[22.55573644348169,52.96678805435211],[22.55549,52.96648],[22.55448,52.96455],[22.55414,52.96437],[22.55317,52.96417],[22.55292,52.96387],[22.55362,52.96237],[22.55501,52.96004],[22.55742,52.95661],[22.55856,52.95429],[22.55789,52.95199],[22.55802,52.94916],[22.55647,52.94535],[22.55623,52.94511],[22.55439,52.94411],[22.55202,52.9425],[22.55017,52.9416],[22.54981,52.94133],[22.54952,52.94084],[22.54751,52.93322],[22.54775,52.93287],[22.5482,52.93267],[22.55138,52.93218],[22.55177,52.932],[22.55179,52.93177],[22.55084,52.92853],[22.55088,52.92835]]}},{"type":"Feature","properties":{"numer":"2051B","klasa":"droga zbiorcza","kat":"powiatowa"},"geometry":{"type":"LineString","coordinates":[[22.482538965326853,52.96209168589885],[22.48532,52.95617],[22.48578,52.95549],[22.48627,52.95531]]}},{"type":"Feature","properties":{"numer":"2058B","klasa":"droga zbiorcza","kat":"powiatowa"},"geometry":{"type":"LineString","coordinates":[[22.40371,52.96202],[22.40413,52.96257],[22.40587,52.96433],[22.41282,52.97272],[22.41289,52.9729],[22.41259,52.97349],[22.41292,52.97453],[22.41335,52.97512],[22.4138,52.97545],[22.41516801022187,52.97617666941363]]}}]}