{"type":"FeatureCollection","features":[{"type":"Feature","properties":{"numer":"2025B","klasa":"droga zbiorcza","kat":"powiatowa"},"geometry":{"type":"LineString","coordinates":[[22.223668768859003,52.95994832484094],[22.22367,52.95995],[22.22614,52.96225],[22.22991,52.9662],[22.23541,52.97166],[22.2381,52.97389],[22.24251,52.97717]]}},{"type":"Feature","properties":{"numer":"63","klasa":"droga gĹ‚Ăłwna","kat":"krajowa"},"geometry":{"type":"LineString","coordinates":[[22.24422,52.96748],[22.24389,52.96184],[22.24405,52.95993],[22.24409,52.95738],[22.24378182149679,52.94975711408231]]}},{"type":"Feature","properties":{"numer":"63","klasa":"droga gĹ‚Ăłwna","kat":"krajowa"},"geometry":{"type":"LineString","coordinates":[[22.24455,52.97199],[22.24422,52.96748]]}},{"type":"Feature","properties":{"numer":"63","klasa":"droga gĹ‚Ăłwna","kat":"krajowa"},"geometry":{"type":"LineString","coordinates":[[22.24483,52.97535],[22.24455,52.97199]]}},{"type":"Feature","properties":{"numer":"2000B","klasa":"","kat":"powiatowa"},"geometry":{"type":"LineString","coordinates":[[22.21283222376073,52.97601559124896],[22.21289,52.97601],[22.21598,52.97177]]}},{"type":"Feature","properties":{"numer":"105989B","klasa":"droga lokalna","kat":"powiatowa"},"geometry":{"type":"LineString","coordinates":[[22.22003,52.97397],[22.22021,52.97395]]}},{"type":"Feature","properties":{"numer":"63","klasa":"droga gĹ‚Ăłwna ruchu przyĹ›pieszonego","kat":"krajowa"},"geometry":{"type":"LineString","coordinates":[[22.22003,52.97397],[22.21985,52.97399]]}},{"type":"Feature","properties":{"numer":"105989B","klasa":"","kat":"powiatowa"},"geometry":{"type":"LineString","coordinates":[[22.22021,52.97395],[22.22071,52.97422]]}},{"type":"Feature","properties":{"numer":"1993B","klasa":"","kat":"powiatowa"},"geometry":{"type":"LineString","coordinates":[[22.24697,52.99467],[22.24706,52.99488]]}},{"type":"Feature","properties":{"numer":"E67,S8","klasa":"droga ekspresowa","kat":"krajowa"},"geometry":{"type":"LineString","coordinates":[[22.23919759027894,52.99571385570587],[22.229,52.9922]]}},{"type":"Feature","properties":{"numer":"1993B","klasa":"","kat":"powiatowa"},"geometry":{"type":"LineString","coordinates":[[22.24706,52.99488],[22.247452915254236,52.996492711864406]]}},{"type":"Feature","properties":{"numer":"66","klasa":"droga gĹ‚Ăłwna","kat":"krajowa"},"geometry":{"type":"LineString","coordinates":[[22.25485,52.97329],[22.25654942086544,52.97205679193836]]}},{"type":"Feature","properties":{"numer":"66","klasa":"droga gĹ‚Ăłwna","kat":"krajowa"},"geometry":{"type":"LineString","coordinates":[[22.25169,52.97555],[22.25485,52.97329]]}},{"type":"Feature","properties":{"numer":"105948B","klasa":"droga lokalna","kat":"powiatowa"},"geometry":{"type":"LineString","coordinates":[[22.26384,52.97959],[22.264954570621732,52.97935779778714]]}},{"type":"Feature","properties":{"numer":"105946B","klasa":"droga zbiorcza","kat":"powiatowa"},"geometry":{"type":"LineString","coordinates":[[22.25271,52.97991],[22.25207,52.97928]]}},{"type":"Feature","properties":{"numer":"105946B","klasa":"droga zbiorcza","kat":"powiatowa"},"geometry":{"type":"LineString","coordinates":[[22.2528,52.98],[22.25271,52.97991]]}},{"type":"Feature","properties":{"numer":"105989B","klasa":"droga lokalna","kat":"powiatowa"},"geometry":{"type":"LineString","coordinates":[[22.22071,52.97422],[22.22102,52.97438]]}},{"type":"Feature","properties":{"numer":"105989B","klasa":"droga lokalna","kat":"powiatowa"},"geometry":{"type":"LineString","coordinates":[[22.22102,52.97438],[22.22354,52.97568]]}},{"type":"Feature","properties":{"numer":"66","klasa":"droga gĹ‚Ăłwna","kat":"krajowa"},"geometry":{"type":"LineString","coordinates":[[22.24981,52.97687],[22.25169,52.97555]]}},{"type":"Feature","properties":{"numer":"63","klasa":"droga gĹ‚Ăłwna","kat":"krajowa"},"geometry":{"type":"LineString","coordinates":[[22.24497,52.97713],[22.24483,52.97535]]}},{"type":"Feature","properties":{"numer":"105989B","klasa":"droga lokalna","kat":"powiatowa"},"geometry":{"type":"LineString","coordinates":[[22.22354,52.97568],[22.22646,52.9772]]}},{"type":"Feature","properties":{"numer":"66","klasa":"droga gĹ‚Ăłwna","kat":"krajowa"},"geometry":{"type":"LineString","coordinates":[[22.2493,52.97718],[22.24981,52.97687]]}},{"type":"Feature","properties":{"numer":"105946B","klasa":"droga zbiorcza","kat":"powiatowa"},"geometry":{"type":"LineString","coordinates":[[22.247,52.97711],[22.2483,52.97711]]}},{"type":"Feature","properties":{"numer":"105946B","klasa":"droga zbiorcza","kat":"powiatowa"},"geometry":{"type":"LineString","coordinates":[[22.24674,52.97711],[22.247,52.97711]]}},{"type":"Feature","properties":{"numer":"105946B","klasa":"droga zbiorcza","kat":"powiatowa"},"geometry":{"type":"LineString","coordinates":[[22.24497,52.97713],[22.24674,52.97711]]}},{"type":"Feature","properties":{"numer":"2679B","klasa":"droga zbiorcza","kat":"powiatowa"},"geometry":{"type":"LineString","coordinates":[[22.24251,52.97717],[22.24497,52.97713]]}},{"type":"Feature","properties":{"numer":"63","klasa":"droga gĹ‚Ăłwna ruchu przyĹ›pieszonego","kat":"krajowa"},"geometry":{"type":"LineString","coordinates":[[22.21985,52.97399],[22.21816,52.97608],[22.21671,52.97762],[22.21491,52.97903],[22.21282,52.98036]]}},{"type":"Feature","properties":{"numer":"105946B","klasa":"droga zbiorcza","kat":"powiatowa"},"geometry":{"type":"LineString","coordinates":[[22.2483,52.97711],[22.24891,52.97724]]}},{"type":"Feature","properties":{"numer":"66","klasa":"droga gĹ‚Ăłwna","kat":"krajowa"},"geometry":{"type":"LineString","coordinates":[[22.2493,52.97718],[22.24914,52.97729]]}},{"type":"Feature","properties":{"numer":"105946B","klasa":"droga zbiorcza","kat":"powiatowa"},"geometry":{"type":"LineString","coordinates":[[22.24914,52.97729],[22.24891,52.97724]]}},{"type":"Feature","properties":{"numer":"105946B","klasa":"droga zbiorcza","kat":"powiatowa"},"geometry":{"type":"LineString","coordinates":[[22.24914,52.97729],[22.24929,52.9774]]}},{"type":"Feature","properties":{"numer":"66","klasa":"droga gĹ‚Ăłwna","kat":"krajowa"},"geometry":{"type":"LineString","coordinates":[[22.24914,52.97729],[22.24902,52.97742]]}},{"type":"Feature","properties":{"numer":"105989B","klasa":"droga lokalna","kat":"powiatowa"},"geometry":{"type":"LineString","coordinates":[[22.22646,52.9772],[22.22765,52.97781]]}},{"type":"Feature","properties":{"numer":"105946B","klasa":"droga zbiorcza","kat":"powiatowa"},"geometry":{"type":"LineString","coordinates":[[22.24968,52.97768],[22.24929,52.9774]]}},{"type":"Feature","properties":{"numer":"105958B","klasa":"droga lokalna","kat":"powiatowa"},"geometry":{"type":"LineString","coordinates":[[22.24251,52.97717],[22.24356,52.97794]]}},{"type":"Feature","properties":{"numer":"66","klasa":"droga gĹ‚Ăłwna","kat":"krajowa"},"geometry":{"type":"LineString","coordinates":[[22.24867,52.97771],[22.24902,52.97742]]}},{"type":"Feature","properties":{"numer":"63","klasa":"droga gĹ‚Ăłwna","kat":"krajowa"},"geometry":{"type":"LineString","coordinates":[[22.24507,52.97858],[22.24497,52.97713]]}},{"type":"Feature","properties":{"numer":"E67,S8","klasa":"droga ekspresowa","kat":"krajowa"},"geometry":{"type":"LineString","coordinates":[[22.21282,52.98036],[22.211418355828222,52.97802392638037]]}},{"type":"Feature","properties":{"numer":"105989B","klasa":"droga lokalna","kat":"powiatowa"},"geometry":{"type":"LineString","coordinates":[[22.22765,52.97781],[22.22832,52.97817]]}},{"type":"Feature","properties":{"numer":"105958B","klasa":"droga lokalna","kat":"powiatowa"},"geometry":{"type":"LineString","coordinates":[[22.24356,52.97794],[22.24429,52.97859]]}},{"type":"Feature","properties":{"numer":"105989B","klasa":"droga lokalna","kat":"powiatowa"},"geometry":{"type":"LineString","coordinates":[[22.22832,52.97817],[22.22938,52.97871]]}},{"type":"Feature","properties":{"numer":"105946B","klasa":"droga zbiorcza","kat":"powiatowa"},"geometry":{"type":"LineString","coordinates":[[22.25207,52.97928],[22.2514,52.97875],[22.24968,52.97768]]}},{"type":"Feature","properties":{"numer":"105957B","klasa":"droga lokalna","kat":"powiatowa"},"geometry":{"type":"LineString","coordinates":[[22.24429,52.97859],[22.24507,52.97858]]}},{"type":"Feature","properties":{"numer":"105989B","klasa":"droga lokalna","kat":"powiatowa"},"geometry":{"type":"LineString","coordinates":[[22.22938,52.97871],[22.22952,52.97879]]}},{"type":"Feature","properties":{"numer":"66","klasa":"droga gĹ‚Ăłwna","kat":"krajowa"},"geometry":{"type":"LineString","coordinates":[[22.24582,52.97983],[22.24867,52.97771]]}},{"type":"Feature","properties":{"numer":"2679B","klasa":"droga zbiorcza","kat":"powiatowa"},"geometry":{"type":"LineString","coordinates":[[22.23705,52.98041],[22.23948,52.97852],[22.24162,52.97738],[22.24251,52.97717]]}},{"type":"Feature","properties":{"numer":"105989B","klasa":"droga lokalna","kat":"powiatowa"},"geometry":{"type":"LineString","coordinates":[[22.22952,52.97879],[22.22974,52.9789]]}},{"type":"Feature","properties":{"numer":"105989B","klasa":"droga lokalna","kat":"powiatowa"},"geometry":{"type":"LineString","coordinates":[[22.22974,52.9789],[22.23048,52.97929]]}},{"type":"Feature","properties":{"numer":"63","klasa":"droga gĹ‚Ăłwna","kat":"krajowa"},"geometry":{"type":"LineString","coordinates":[[22.24516,52.97971],[22.24507,52.97858]]}},{"type":"Feature","properties":{"numer":"105989B","klasa":"droga lokalna","kat":"powiatowa"},"geometry":{"type":"LineString","coordinates":[[22.23048,52.97929],[22.23158,52.97985]]}},{"type":"Feature","properties":{"numer":"63","klasa":"droga gĹ‚Ăłwna","kat":"krajowa"},"geometry":{"type":"LineString","coordinates":[[22.24528,52.98003],[22.24516,52.97971]]}},{"type":"Feature","properties":{"numer":"66","klasa":"droga gĹ‚Ăłwna","kat":"krajowa"},"geometry":{"type":"LineString","coordinates":[[22.2455,52.98006],[22.24582,52.97983]]}},{"type":"Feature","properties":{"numer":"63","klasa":"droga gĹ‚Ăłwna","kat":"krajowa"},"geometry":{"type":"LineString","coordinates":[[22.24529,52.98022],[22.24528,52.98003]]}},{"type":"Feature","properties":{"numer":"66","klasa":"droga gĹ‚Ăłwna","kat":"krajowa"},"geometry":{"type":"LineString","coordinates":[[22.2455,52.98006],[22.24529,52.98022]]}},{"type":"Feature","properties":{"numer":"105946B","klasa":"droga zbiorcza","kat":"powiatowa"},"geometry":{"type":"LineString","coordinates":[[22.25351,52.98081],[22.2528,52.98]]}},{"type":"Feature","properties":{"numer":"105948B","klasa":"droga lokalna","kat":"powiatowa"},"geometry":{"type":"LineString","coordinates":[[22.25889,52.98133],[22.26089,52.98036],[22.26384,52.97959]]}},{"type":"Feature","properties":{"numer":"105946B","klasa":"droga zbiorcza","kat":"powiatowa"},"geometry":{"type":"LineString","coordinates":[[22.25402,52.9814],[22.25351,52.98081]]}},{"type":"Feature","properties":{"numer":"105946B","klasa":"droga zbiorcza","kat":"powiatowa"},"geometry":{"type":"LineString","coordinates":[[22.25479,52.98229],[22.25402,52.9814]]}},{"type":"Feature","properties":{"numer":"105948B","klasa":"droga lokalna","kat":"powiatowa"},"geometry":{"type":"LineString","coordinates":[[22.2559,52.98286],[22.25889,52.98133]]}},{"type":"Feature","properties":{"numer":"105946B","klasa":"droga zbiorcza","kat":"powiatowa"},"geometry":{"type":"LineString","coordinates":[[22.25516,52.98272],[22.25479,52.98229]]}},{"type":"Feature","properties":{"numer":"105946B","klasa":"droga zbiorcza","kat":"powiatowa"},"geometry":{"type":"LineString","coordinates":[[22.25538,52.98297],[22.25516,52.98272]]}},{"type":"Feature","properties":{"numer":"105948B","klasa":"","kat":"powiatowa"},"geometry":{"type":"LineString","coordinates":[[22.25562,52.98299],[22.2559,52.98286]]}},{"type":"Feature","properties":{"numer":"105946B","klasa":"droga zbiorcza","kat":"powiatowa"},"geometry":{"type":"LineString","coordinates":[[22.25547,52.98308],[22.25538,52.98297]]}},{"type":"Feature","properties":{"numer":"105989B","klasa":"droga lokalna","kat":"powiatowa"},"geometry":{"type":"LineString","coordinates":[[22.23158,52.97985],[22.23322,52.9807]]}},{"type":"Feature","properties":{"numer":"66","klasa":"droga gĹ‚Ăłwna","kat":"krajowa"},"geometry":{"type":"LineString","coordinates":[[22.24525,52.98043],[22.24529,52.98022]]}},{"type":"Feature","properties":{"numer":"63","klasa":"droga gĹ‚Ăłwna","kat":"krajowa"},"geometry":{"type":"LineString","coordinates":[[22.24525,52.98067],[22.24525,52.98043]]}},{"type":"Feature","properties":{"numer":"105989B","klasa":"droga lokalna","kat":"powiatowa"},"geometry":{"type":"LineString","coordinates":[[22.23322,52.9807],[22.23467,52.98145]]}},{"type":"Feature","properties":{"numer":"2679B","klasa":"droga zbiorcza","kat":"powiatowa"},"geometry":{"type":"LineString","coordinates":[[22.23565,52.98196],[22.23705,52.98041]]}},{"type":"Feature","properties":{"numer":"105989B","klasa":"droga lokalna","kat":"powiatowa"},"geometry":{"type":"LineString","coordinates":[[22.23467,52.98145],[22.23565,52.98196]]}},{"type":"Feature","properties":{"numer":"63","klasa":"droga gĹ‚Ăłwna","kat":"krajowa"},"geometry":{"type":"LineString","coordinates":[[22.24481,52.98298],[22.24529,52.98202],[22.24525,52.98067]]}},{"type":"Feature","properties":{"numer":"2681B","klasa":"droga zbiorcza","kat":"powiatowa"},"geometry":{"type":"LineString","coordinates":[[22.23565,52.98196],[22.23536,52.98224],[22.23418,52.98297]]}},{"type":"Feature","properties":{"numer":"2681B","klasa":"droga zbiorcza","kat":"powiatowa"},"geometry":{"type":"LineString","coordinates":[[22.23418,52.98297],[22.23408,52.98303]]}},{"type":"Feature","properties":{"numer":"63","klasa":"droga gĹ‚Ăłwna","kat":"krajowa"},"geometry":{"type":"LineString","coordinates":[[22.24467,52.98317],[22.24481,52.98298]]}},{"type":"Feature","properties":{"numer":"105948B","klasa":"droga lokalna","kat":"powiatowa"},"geometry":{"type":"LineString","coordinates":[[22.25547,52.98308],[22.25562,52.98299]]}},{"type":"Feature","properties":{"numer":"2015B","klasa":"droga zbiorcza","kat":"powiatowa"},"geometry":{"type":"LineString","coordinates":[[22.25532,52.98317],[22.25547,52.98308]]}},{"type":"Feature","properties":{"numer":"105946B","klasa":"droga zbiorcza","kat":"powiatowa"},"geometry":{"type":"LineString","coordinates":[[22.25547,52.98308],[22.25558,52.9832]]}},{"type":"Feature","properties":{"numer":"2015B","klasa":"droga zbiorcza","kat":"powiatowa"},"geometry":{"type":"LineString","coordinates":[[22.25495,52.98342],[22.25532,52.98317]]}},{"type":"Feature","properties":{"numer":"105946B","klasa":"droga zbiorcza","kat":"powiatowa"},"geometry":{"type":"LineString","coordinates":[[22.25558,52.9832],[22.25585,52.98349]]}},{"type":"Feature","properties":{"numer":"2015B","klasa":"droga zbiorcza","kat":"powiatowa"},"geometry":{"type":"LineString","coordinates":[[22.25463,52.98384],[22.25495,52.98342]]}},{"type":"Feature","properties":{"numer":"105946B","klasa":"droga zbiorcza","kat":"powiatowa"},"geometry":{"type":"LineString","coordinates":[[22.25585,52.98349],[22.25651,52.98418]]}},{"type":"Feature","properties":{"numer":"2682B","klasa":"droga zbiorcza","kat":"powiatowa"},"geometry":{"type":"LineString","coordinates":[[22.25449,52.98522],[22.25463,52.98384]]}},{"type":"Feature","properties":{"numer":"105946B","klasa":"droga zbiorcza","kat":"powiatowa"},"geometry":{"type":"LineString","coordinates":[[22.25651,52.98418],[22.25827,52.98601]]}},{"type":"Feature","properties":{"numer":"105945B","klasa":"droga dojazdowa","kat":"powiatowa"},"geometry":{"type":"LineString","coordinates":[[22.25572,52.98645],[22.25469,52.98531],[22.25449,52.98522]]}},{"type":"Feature","properties":{"numer":"63","klasa":"droga gĹ‚Ăłwna","kat":"krajowa"},"geometry":{"type":"LineString","coordinates":[[22.2446,52.98328],[22.24467,52.98317]]}},{"type":"Feature","properties":{"numer":"63","klasa":"droga gĹ‚Ăłwna","kat":"krajowa"},"geometry":{"type":"LineString","coordinates":[[22.24469,52.98362],[22.2446,52.98328]]}},{"type":"Feature","properties":{"numer":"63","klasa":"droga gĹ‚Ăłwna","kat":"krajowa"},"geometry":{"type":"LineString","coordinates":[[22.24469,52.98362],[22.24481,52.98376]]}},{"type":"Feature","properties":{"numer":"105979B","klasa":"droga gĹ‚Ăłwna","kat":"powiatowa"},"geometry":{"type":"LineString","coordinates":[[22.24493,52.98389],[22.24481,52.98376]]}},{"type":"Feature","properties":{"numer":"63","klasa":"droga gĹ‚Ăłwna","kat":"krajowa"},"geometry":{"type":"LineString","coordinates":[[22.24404,52.98634],[22.24495,52.98598],[22.24534,52.98557],[22.24541,52.98453],[22.24493,52.98389]]}},{"type":"Feature","properties":{"numer":"63","klasa":"droga gĹ‚Ăłwna","kat":"krajowa"},"geometry":{"type":"LineString","coordinates":[[22.24092,52.98525],[22.24151,52.98496],[22.24284,52.98537]]}},{"type":"Feature","properties":{"numer":"2684B","klasa":"","kat":"powiatowa"},"geometry":{"type":"LineString","coordinates":[[22.24172,52.98585],[22.24092,52.98525]]}},{"type":"Feature","properties":{"numer":"63","klasa":"droga gĹ‚Ăłwna","kat":"krajowa"},"geometry":{"type":"LineString","coordinates":[[22.24284,52.98537],[22.24404,52.98634]]}},{"type":"Feature","properties":{"numer":"63","klasa":"droga gĹ‚Ăłwna ruchu przyĹ›pieszonego","kat":"krajowa"},"geometry":{"type":"LineString","coordinates":[[22.205787663710566,52.98794496521215],[22.20608,52.98699],[22.2069,52.98543],[22.208,52.98403],[22.20938,52.98273],[22.21282,52.98036]]}},{"type":"Feature","properties":{"numer":"2015B","klasa":"droga zbiorcza","kat":"powiatowa"},"geometry":{"type":"LineString","coordinates":[[22.24651,52.98799],[22.24737,52.98717],[22.24784,52.98687],[22.24922,52.98627],[22.25366,52.98399],[22.25415,52.98386],[22.25463,52.98384]]}},{"type":"Feature","properties":{"numer":"1993B","klasa":"","kat":"powiatowa"},"geometry":{"type":"LineString","coordinates":[[22.24172,52.98585],[22.2428,52.98664]]}},{"type":"Feature","properties":{"numer":"E67,S8","klasa":"droga ekspresowa","kat":"krajowa"},"geometry":{"type":"LineString","coordinates":[[22.229,52.9922],[22.22483,52.99074],[22.22252,52.98976],[22.22087,52.98891],[22.21855,52.9874],[22.21721,52.98633],[22.21586,52.98497],[22.21456,52.98321],[22.21282,52.98036]]}},{"type":"Feature","properties":{"numer":"105989B","klasa":"droga lokalna","kat":"powiatowa"},"geometry":{"type":"LineString","coordinates":[[22.24404,52.98634],[22.24407,52.98637]]}},{"type":"Feature","properties":{"numer":"63","klasa":"droga gĹ‚Ăłwna","kat":"krajowa"},"geometry":{"type":"LineString","coordinates":[[22.238,52.98762],[22.23867,52.98676],[22.23931,52.98615],[22.23997,52.98571],[22.24092,52.98525]]}},{"type":"Feature","properties":{"numer":"2681B","klasa":"droga zbiorcza","kat":"powiatowa"},"geometry":{"type":"LineString","coordinates":[[22.23408,52.98303],[22.23358,52.98341],[22.23327,52.9838],[22.2309,52.98719],[22.23081,52.98753],[22.2309,52.98788],[22.23124,52.98823],[22.23349,52.98925],[22.23424,52.98991]]}},{"type":"Feature","properties":{"numer":"105989B","klasa":"droga lokalna","kat":"powiatowa"},"geometry":{"type":"LineString","coordinates":[[22.24407,52.98637],[22.24435,52.9866]]}},{"type":"Feature","properties":{"numer":"105989B","klasa":"droga lokalna","kat":"powiatowa"},"geometry":{"type":"LineString","coordinates":[[22.24435,52.9866],[22.24495,52.9871]]}},{"type":"Feature","properties":{"numer":"105989B","klasa":"droga lokalna","kat":"powiatowa"},"geometry":{"type":"LineString","coordinates":[[22.24495,52.9871],[22.24651,52.98799]]}},{"type":"Feature","properties":{"numer":"1993B","klasa":"","kat":"powiatowa"},"geometry":{"type":"LineString","coordinates":[[22.2428,52.98664],[22.2435,52.98729],[22.24469,52.98884]]}},{"type":"Feature","properties":{"numer":"105989B","klasa":"droga lokalna","kat":"powiatowa"},"geometry":{"type":"LineString","coordinates":[[22.24651,52.98799],[22.24872,52.98902]]}},{"type":"Feature","properties":{"numer":"63","klasa":"droga gĹ‚Ăłwna","kat":"krajowa"},"geometry":{"type":"LineString","coordinates":[[22.238,52.98762],[22.23662,52.98933],[22.23462,52.99028]]}},{"type":"Feature","properties":{"numer":"105989B","klasa":"droga lokalna","kat":"powiatowa"},"geometry":{"type":"LineString","coordinates":[[22.24872,52.98902],[22.2494,52.98934]]}},{"type":"Feature","properties":{"numer":"2682B","klasa":"droga zbiorcza","kat":"powiatowa"},"geometry":{"type":"LineString","coordinates":[[22.25038,52.98965],[22.25083,52.98925]]}},{"type":"Feature","properties":{"numer":"2682B","klasa":"droga zbiorcza","kat":"powiatowa"},"geometry":{"type":"LineString","coordinates":[[22.25038,52.98965],[22.25027,52.98974]]}},{"type":"Feature","properties":{"numer":"105931B","klasa":"droga zbiorcza","kat":"powiatowa"},"geometry":{"type":"LineString","coordinates":[[22.25027,52.98974],[22.25017,52.98983]]}},{"type":"Feature","properties":{"numer":"2681B","klasa":"droga zbiorcza","kat":"powiatowa"},"geometry":{"type":"LineString","coordinates":[[22.23424,52.98991],[22.23447,52.99012]]}},{"type":"Feature","properties":{"numer":"105931B","klasa":"droga zbiorcza","kat":"powiatowa"},"geometry":{"type":"LineString","coordinates":[[22.24972,52.99024],[22.25017,52.98983]]}},{"type":"Feature","properties":{"numer":"2681B","klasa":"droga zbiorcza","kat":"powiatowa"},"geometry":{"type":"LineString","coordinates":[[22.23447,52.99012],[22.23462,52.99028]]}},{"type":"Feature","properties":{"numer":"105931B","klasa":"droga zbiorcza","kat":"powiatowa"},"geometry":{"type":"LineString","coordinates":[[22.24934,52.99061],[22.24972,52.99024]]}},{"type":"Feature","properties":{"numer":"1993B","klasa":"","kat":"powiatowa"},"geometry":{"type":"LineString","coordinates":[[22.24469,52.98884],[22.24632,52.99103],[22.24656,52.99205]]}},{"type":"Feature","properties":{"numer":"105931B","klasa":"droga zbiorcza","kat":"powiatowa"},"geometry":{"type":"LineString","coordinates":[[22.24929,52.99065],[22.24934,52.99061]]}},{"type":"Feature","properties":{"numer":"105931B","klasa":"droga zbiorcza","kat":"powiatowa"},"geometry":{"type":"LineString","coordinates":[[22.24894,52.991],[22.24929,52.99065]]}},{"type":"Feature","properties":{"numer":"105933B","klasa":"droga zbiorcza","kat":"powiatowa"},"geometry":{"type":"LineString","coordinates":[[22.23462,52.99028],[22.23504,52.99144]]}},{"type":"Feature","properties":{"numer":"105931B","klasa":"droga zbiorcza","kat":"powiatowa"},"geometry":{"type":"LineString","coordinates":[[22.24879,52.99113],[22.24894,52.991]]}},{"type":"Feature","properties":{"numer":"63","klasa":"droga gĹ‚Ăłwna","kat":"krajowa"},"geometry":{"type":"LineString","coordinates":[[22.23462,52.99028],[22.23268,52.99111],[22.229,52.9922]]}},{"type":"Feature","properties":{"numer":"63","klasa":"droga gĹ‚Ăłwna","kat":"krajowa"},"geometry":{"type":"LineString","coordinates":[[22.22524,52.99136],[22.22201,52.99038],[22.22123,52.99028],[22.22058,52.99032],[22.21996,52.99049],[22.21943,52.99078],[22.218827449552787,52.99129437233299]]}},{"type":"Feature","properties":{"numer":"63","klasa":"droga gĹ‚Ăłwna","kat":"krajowa"},"geometry":{"type":"LineString","coordinates":[[22.22524,52.99136],[22.22557,52.99146]]}},{"type":"Feature","properties":{"numer":"105931B","klasa":"droga zbiorcza","kat":"powiatowa"},"geometry":{"type":"LineString","coordinates":[[22.24821,52.9917],[22.24879,52.99113]]}},{"type":"Feature","properties":{"numer":"105933B","klasa":"droga zbiorcza","kat":"powiatowa"},"geometry":{"type":"LineString","coordinates":[[22.23504,52.99144],[22.23573,52.99186]]}},{"type":"Feature","properties":{"numer":"63","klasa":"droga gĹ‚Ăłwna","kat":"krajowa"},"geometry":{"type":"LineString","coordinates":[[22.229,52.9922],[22.2285,52.99226],[22.22805,52.99221],[22.22557,52.99146]]}},{"type":"Feature","properties":{"numer":"105944B","klasa":"droga lokalna","kat":"powiatowa"},"geometry":{"type":"LineString","coordinates":[[22.25668,52.9863],[22.25827,52.98601]]}},{"type":"Feature","properties":{"numer":"105944B","klasa":"droga lokalna","kat":"powiatowa"},"geometry":{"type":"LineString","coordinates":[[22.25572,52.98645],[22.25668,52.9863]]}},{"type":"Feature","properties":{"numer":"2682B","klasa":"droga zbiorcza","kat":"powiatowa"},"geometry":{"type":"LineString","coordinates":[[22.25083,52.98925],[22.25248,52.98781],[22.25449,52.98522]]}},{"type":"Feature","properties":{"numer":"105989B","klasa":"droga lokalna","kat":"powiatowa"},"geometry":{"type":"LineString","coordinates":[[22.25117,52.99015],[22.25484,52.99186]]}},{"type":"Feature","properties":{"numer":"105989B","klasa":"droga lokalna","kat":"powiatowa"},"geometry":{"type":"LineString","coordinates":[[22.25484,52.99186],[22.25558,52.9922]]}},{"type":"Feature","properties":{"numer":"105989B","klasa":"droga lokalna","kat":"powiatowa"},"geometry":{"type":"LineString","coordinates":[[22.25558,52.9922],[22.2588,52.9937]]}},{"type":"Feature","properties":{"numer":"105989B","klasa":"droga lokalna","kat":"powiatowa"},"geometry":{"type":"LineString","coordinates":[[22.2588,52.9937],[22.26134,52.99488]]}},{"type":"Feature","properties":{"numer":"105989B","klasa":"droga lokalna","kat":"powiatowa"},"geometry":{"type":"LineString","coordinates":[[22.26134,52.99488],[22.26385,52.99606]]}},{"type":"Feature","properties":{"numer":"105989B","klasa":"droga lokalna","kat":"powiatowa"},"geometry":{"type":"LineString","coordinates":[[22.26385,52.99606],[22.26739,52.9977]]}},{"type":"Feature","properties":{"numer":"105989B","klasa":"droga lokalna","kat":"powiatowa"},"geometry":{"type":"LineString","coordinates":[[22.26739,52.9977],[22.26747,52.99773]]}},{"type":"Feature","properties":{"numer":"105931B","klasa":"droga zbiorcza","kat":"powiatowa"},"geometry":{"type":"LineString","coordinates":[[22.24754,52.99215],[22.24821,52.9917]]}},{"type":"Feature","properties":{"numer":"1993B","klasa":"","kat":"powiatowa"},"geometry":{"type":"LineString","coordinates":[[22.24656,52.99205],[22.24659,52.99229]]}},{"type":"Feature","properties":{"numer":"105931B","klasa":"droga zbiorcza","kat":"powiatowa"},"geometry":{"type":"LineString","coordinates":[[22.24723,52.99227],[22.24754,52.99215]]}},{"type":"Feature","properties":{"numer":"105933B","klasa":"droga zbiorcza","kat":"powiatowa"},"geometry":{"type":"LineString","coordinates":[[22.23573,52.99186],[22.23692,52.99236],[22.23877,52.99275]]}},{"type":"Feature","properties":{"numer":"105931B","klasa":"droga zbiorcza","kat":"powiatowa"},"geometry":{"type":"LineString","coordinates":[[22.24678,52.99238],[22.24723,52.99227]]}},{"type":"Feature","properties":{"numer":"1993B","klasa":"","kat":"powiatowa"},"geometry":{"type":"LineString","coordinates":[[22.24659,52.99229],[22.24663,52.99238]]}},{"type":"Feature","properties":{"numer":"105931B","klasa":"droga zbiorcza","kat":"powiatowa"},"geometry":{"type":"LineString","coordinates":[[22.24663,52.99238],[22.24678,52.99238]]}},{"type":"Feature","properties":{"numer":"105933B","klasa":"droga zbiorcza","kat":"powiatowa"},"geometry":{"type":"LineString","coordinates":[[22.24647,52.99239],[22.24663,52.99238]]}},{"type":"Feature","properties":{"numer":"105933B","klasa":"droga zbiorcza","kat":"powiatowa"},"geometry":{"type":"LineString","coordinates":[[22.24587,52.99247],[22.24647,52.99239]]}},{"type":"Feature","properties":{"numer":"1993B","klasa":"","kat":"powiatowa"},"geometry":{"type":"LineString","coordinates":[[22.24663,52.99238],[22.24664,52.99248]]}},{"type":"Feature","properties":{"numer":"105933B","klasa":"droga zbiorcza","kat":"powiatowa"},"geometry":{"type":"LineString","coordinates":[[22.24421,52.99268],[22.24587,52.99247]]}},{"type":"Feature","properties":{"numer":"1993B","klasa":"","kat":"powiatowa"},"geometry":{"type":"LineString","coordinates":[[22.24664,52.99248],[22.24664,52.99276]]}},{"type":"Feature","properties":{"numer":"105933B","klasa":"droga zbiorcza","kat":"powiatowa"},"geometry":{"type":"LineString","coordinates":[[22.24196,52.99279],[22.24421,52.99268]]}},{"type":"Feature","properties":{"numer":"105933B","klasa":"droga zbiorcza","kat":"powiatowa"},"geometry":{"type":"LineString","coordinates":[[22.23877,52.99275],[22.24019,52.99288],[22.24196,52.99279]]}},{"type":"Feature","properties":{"numer":"1993B","klasa":"","kat":"powiatowa"},"geometry":{"type":"LineString","coordinates":[[22.24664,52.99276],[22.24684,52.99431]]}},{"type":"Feature","properties":{"numer":"1993B","klasa":"","kat":"powiatowa"},"geometry":{"type":"LineString","coordinates":[[22.24684,52.99431],[22.24688,52.99445]]}},{"type":"Feature","properties":{"numer":"1993B","klasa":"","kat":"powiatowa"},"geometry":{"type":"LineString","coordinates":[[22.24688,52.99445],[22.24697,52.99467]]}},{"type":"Feature","properties":{"numer":"105989B","klasa":"droga lokalna","kat":"powiatowa"},"geometry":{"type":"LineString","coordinates":[[22.26747,52.99773],[22.26813,52.99804]]}},{"type":"Feature","properties":{"numer":"105989B","klasa":"droga lokalna","kat":"powiatowa"},"geometry":{"type":"LineString","coordinates":[[22.26813,52.99804],[22.26996,52.99888]]}},{"type":"Feature","properties":{"numer":"105989B","klasa":"droga lokalna","kat":"powiatowa"},"geometry":{"type":"LineString","coordinates":[[22.26996,52.99888],[22.27657671573984,53.00195690896544]]}},{"type":"Feature","properties":{"numer":"E67,S8","klasa":"droga ekspresowa","kat":"krajowa"},"geometry":{"type":"LineString","coordinates":[[22.2837,53.00601],[22.267948807214253,53.00307900881496]]}},{"type":"Feature","properties":{"numer":"E67,S8","klasa":"droga ekspresowa","kat":"krajowa"},"geometry":{"type":"LineString","coordinates":[[22.28374475759211,53.00601824148297],[22.2837,53.00601]]}},{"type":"Feature","properties":{"numer":"S8","klasa":"droga gĹ‚Ăłwna ruchu przyĹ›pieszonego","kat":"krajowa"},"geometry":{"type":"LineString","coordinates":[[22.2837,53.00601],[22.283752149685437,53.00602532233026]]}}]}