{"type":"FeatureCollection","features":[{"type":"Feature","properties":{"numer":"1737G","klasa":"","kat":"powiatowa"},"geometry":{"type":"LineString","coordinates":[[17.50098232424502,53.942873006480006],[17.50085,53.9428],[17.50046,53.94276],[17.49726,53.94303],[17.49588,53.94293],[17.49376,53.94336]]}},{"type":"Feature","properties":{"numer":"194037G","klasa":"droga lokalna","kat":"powiatowa"},"geometry":{"type":"LineString","coordinates":[[17.49376,53.94336],[17.493,53.94346]]}},{"type":"Feature","properties":{"numer":"194037G","klasa":"droga lokalna","kat":"powiatowa"},"geometry":{"type":"LineString","coordinates":[[17.493,53.94346],[17.49137,53.9439]]}},{"type":"Feature","properties":{"numer":"212","klasa":"droga zbiorcza","kat":"wojewodzka"},"geometry":{"type":"LineString","coordinates":[[17.4085,53.95892],[17.40843,53.95824],[17.4079,53.95736],[17.40589,53.95446],[17.40491,53.95366],[17.40464,53.95325],[17.40444,53.95076],[17.40493,53.94924],[17.40473,53.94869],[17.39795,53.94359],[17.39567,53.94116],[17.39305,53.93883],[17.39279,53.93824],[17.39274,53.93682],[17.39342,53.93013],[17.393572539163365,53.92706701359959]]}},{"type":"Feature","properties":{"numer":"194037G","klasa":"droga lokalna","kat":"powiatowa"},"geometry":{"type":"LineString","coordinates":[[17.4604,53.94422],[17.45883,53.94457]]}},{"type":"Feature","properties":{"numer":"194037G","klasa":"droga lokalna","kat":"powiatowa"},"geometry":{"type":"LineString","coordinates":[[17.45883,53.94457],[17.45388,53.94583],[17.45323,53.9461],[17.45302,53.94643]]}},{"type":"Feature","properties":{"numer":"194036G","klasa":"droga lokalna","kat":"powiatowa"},"geometry":{"type":"LineString","coordinates":[[17.43987,53.94684],[17.43948,53.94695]]}},{"type":"Feature","properties":{"numer":"194036G","klasa":"droga lokalna","kat":"powiatowa"},"geometry":{"type":"LineString","coordinates":[[17.44368,53.94686],[17.44312,53.94695]]}},{"type":"Feature","properties":{"numer":"194036G","klasa":"droga lokalna","kat":"powiatowa"},"geometry":{"type":"LineString","coordinates":[[17.44312,53.94695],[17.44248,53.94706],[17.44175,53.94707],[17.43987,53.94684]]}},{"type":"Feature","properties":{"numer":"194036G","klasa":"droga lokalna","kat":"powiatowa"},"geometry":{"type":"LineString","coordinates":[[17.43948,53.94695],[17.43822,53.94714],[17.43723,53.94759],[17.43646,53.94768]]}},{"type":"Feature","properties":{"numer":"1736G","klasa":"","kat":"powiatowa"},"geometry":{"type":"LineString","coordinates":[[17.45302,53.94643],[17.4529,53.94712],[17.4526,53.94771],[17.45259,53.94837]]}},{"type":"Feature","properties":{"numer":"1746G","klasa":"","kat":"powiatowa"},"geometry":{"type":"LineString","coordinates":[[17.32578,53.94873],[17.32714,53.94934],[17.32829,53.94944]]}},{"type":"Feature","properties":{"numer":"1746G","klasa":"","kat":"powiatowa"},"geometry":{"type":"LineString","coordinates":[[17.32842,53.94944],[17.32829,53.94944]]}},{"type":"Feature","properties":{"numer":"1734G","klasa":"","kat":"powiatowa"},"geometry":{"type":"LineString","coordinates":[[17.32578,53.94873],[17.32532,53.94924],[17.32478,53.95047],[17.3244,53.95066],[17.32245,53.95112],[17.32226,53.95126],[17.32132,53.95256],[17.32101,53.95438],[17.32082,53.95494],[17.3187,53.95837],[17.3179,53.95932],[17.3143,53.96262],[17.31425,53.96357],[17.31449,53.96399],[17.31548,53.96491],[17.3154,53.9656]]}},{"type":"Feature","properties":{"numer":"1746G","klasa":"","kat":"powiatowa"},"geometry":{"type":"LineString","coordinates":[[17.32842,53.94944],[17.33546,53.94949],[17.33607,53.94931],[17.3391,53.94794],[17.34025,53.94763],[17.34082,53.94758],[17.34155,53.9477],[17.34349,53.94844],[17.34452,53.94873],[17.34522,53.94883],[17.34738,53.94888],[17.34921,53.94929],[17.35005,53.94968],[17.35181,53.95102],[17.35393,53.95214],[17.35489,53.9524],[17.35774,53.95283],[17.35868,53.95306],[17.36185,53.95442],[17.37115,53.95751],[17.3725,53.95807],[17.37286,53.95833],[17.37297,53.9586],[17.37294,53.96066],[17.37303,53.96096],[17.37387,53.9616],[17.37465,53.96249],[17.3751,53.96278],[17.37586,53.96294],[17.3797,53.96325],[17.38049,53.96345],[17.38239,53.9643],[17.38368,53.96469],[17.3849,53.96489],[17.38694,53.96503],[17.39076,53.96585],[17.39149,53.96619],[17.39591,53.96877],[17.39659,53.96926],[17.39787,53.97046]]}},{"type":"Feature","properties":{"numer":"194036G","klasa":"droga lokalna","kat":"powiatowa"},"geometry":{"type":"LineString","coordinates":[[17.44878,53.94808],[17.44782,53.94779],[17.44654,53.94762],[17.44621,53.94763],[17.44549,53.94784],[17.44512,53.94784],[17.44455,53.94709],[17.44418,53.94693],[17.44368,53.94686]]}},{"type":"Feature","properties":{"numer":"194036G","klasa":"droga lokalna","kat":"powiatowa"},"geometry":{"type":"LineString","coordinates":[[17.45259,53.94837],[17.45241,53.94843],[17.45191,53.94839],[17.45092,53.9481],[17.44932,53.94814],[17.44878,53.94808]]}},{"type":"Feature","properties":{"numer":"194036G","klasa":"droga lokalna","kat":"powiatowa"},"geometry":{"type":"LineString","coordinates":[[17.43646,53.94768],[17.43606,53.9479],[17.43572,53.94826],[17.43482,53.94891],[17.43431,53.9492],[17.43385,53.94936],[17.43294,53.9495],[17.4325,53.94972],[17.43245,53.95031]]}},{"type":"Feature","properties":{"numer":"194036G","klasa":"droga lokalna","kat":"powiatowa"},"geometry":{"type":"LineString","coordinates":[[17.43245,53.95031],[17.43072,53.95036],[17.42932,53.9501],[17.42788,53.95],[17.42529,53.95031],[17.42491,53.95022],[17.42369,53.94965],[17.42323,53.94955],[17.42248,53.94951]]}},{"type":"Feature","properties":{"numer":"194036G","klasa":"droga lokalna","kat":"powiatowa"},"geometry":{"type":"LineString","coordinates":[[17.42249,53.94973],[17.42116,53.95013],[17.41957,53.9504],[17.41877,53.9508]]}},{"type":"Feature","properties":{"numer":"194036G","klasa":"droga lokalna","kat":"powiatowa"},"geometry":{"type":"LineString","coordinates":[[17.41877,53.9508],[17.41842,53.9511]]}},{"type":"Feature","properties":{"numer":"194036G","klasa":"droga lokalna","kat":"powiatowa"},"geometry":{"type":"LineString","coordinates":[[17.41842,53.9511],[17.41796,53.95191]]}},{"type":"Feature","properties":{"numer":"194036G","klasa":"droga lokalna","kat":"powiatowa"},"geometry":{"type":"LineString","coordinates":[[17.41796,53.95191],[17.41753,53.95222],[17.41626,53.95255]]}},{"type":"Feature","properties":{"numer":"194036G","klasa":"droga lokalna","kat":"powiatowa"},"geometry":{"type":"LineString","coordinates":[[17.41626,53.95255],[17.41588,53.95268]]}},{"type":"Feature","properties":{"numer":"194036G","klasa":"droga lokalna","kat":"powiatowa"},"geometry":{"type":"LineString","coordinates":[[17.41588,53.95268],[17.413,53.95416]]}},{"type":"Feature","properties":{"numer":"194036G","klasa":"droga lokalna","kat":"powiatowa"},"geometry":{"type":"LineString","coordinates":[[17.413,53.95416],[17.41214,53.95464],[17.41049,53.95591]]}},{"type":"Feature","properties":{"numer":"1736G","klasa":"","kat":"powiatowa"},"geometry":{"type":"LineString","coordinates":[[17.45259,53.94837],[17.45247,53.94885],[17.45205,53.94944],[17.44988,53.9517],[17.44908,53.9528],[17.44756,53.95431],[17.44508,53.95631],[17.44454,53.9571],[17.44268,53.95899],[17.4419,53.96026],[17.43959,53.96484]]}},{"type":"Feature","properties":{"numer":"194036G","klasa":"droga lokalna","kat":"powiatowa"},"geometry":{"type":"LineString","coordinates":[[17.41049,53.95591],[17.40923,53.95752],[17.40885,53.95833]]}},{"type":"Feature","properties":{"numer":"194036G","klasa":"droga lokalna","kat":"powiatowa"},"geometry":{"type":"LineString","coordinates":[[17.40885,53.95833],[17.4085,53.95892]]}},{"type":"Feature","properties":{"numer":"1736G","klasa":"","kat":"powiatowa"},"geometry":{"type":"LineString","coordinates":[[17.43959,53.96484],[17.44502,53.9671],[17.44754,53.96841],[17.449,53.96935],[17.45057,53.97015]]}},{"type":"Feature","properties":{"numer":"212","klasa":"droga zbiorcza","kat":"wojewodzka"},"geometry":{"type":"LineString","coordinates":[[17.40442,53.97823],[17.40683,53.97514],[17.40717,53.97439],[17.4081,53.96583],[17.4085,53.95892]]}},{"type":"Feature","properties":{"numer":"1746G","klasa":"","kat":"powiatowa"},"geometry":{"type":"LineString","coordinates":[[17.39787,53.97046],[17.39798,53.97056]]}},{"type":"Feature","properties":{"numer":"1736G","klasa":"","kat":"powiatowa"},"geometry":{"type":"LineString","coordinates":[[17.45057,53.97015],[17.45101,53.97077],[17.45268,53.97259],[17.45358,53.9734],[17.46016,53.9778]]}},{"type":"Feature","properties":{"numer":"1746G","klasa":"","kat":"powiatowa"},"geometry":{"type":"LineString","coordinates":[[17.39798,53.97056],[17.40009,53.97218],[17.40095,53.97301],[17.40317,53.97674],[17.40401,53.97785],[17.40442,53.97823]]}},{"type":"Feature","properties":{"numer":"1737G","klasa":"","kat":"powiatowa"},"geometry":{"type":"LineString","coordinates":[[17.46016,53.9778],[17.45943,53.97876],[17.4589,53.97982],[17.4589,53.98021],[17.45919,53.98111]]}},{"type":"Feature","properties":{"numer":"194029G","klasa":"droga lokalna","kat":"powiatowa"},"geometry":{"type":"LineString","coordinates":[[17.3154,53.9656],[17.31539,53.9658]]}},{"type":"Feature","properties":{"numer":"194029G","klasa":"droga lokalna","kat":"powiatowa"},"geometry":{"type":"LineString","coordinates":[[17.31539,53.9658],[17.31562,53.96609]]}},{"type":"Feature","properties":{"numer":"194029G","klasa":"droga lokalna","kat":"powiatowa"},"geometry":{"type":"LineString","coordinates":[[17.31562,53.96609],[17.31591,53.96653],[17.31554,53.96736]]}},{"type":"Feature","properties":{"numer":"194029G","klasa":"droga lokalna","kat":"powiatowa"},"geometry":{"type":"LineString","coordinates":[[17.31554,53.96736],[17.31523,53.96782]]}},{"type":"Feature","properties":{"numer":"194029G","klasa":"droga lokalna","kat":"powiatowa"},"geometry":{"type":"LineString","coordinates":[[17.31523,53.96782],[17.31519,53.96787]]}},{"type":"Feature","properties":{"numer":"194029G","klasa":"droga lokalna","kat":"powiatowa"},"geometry":{"type":"LineString","coordinates":[[17.31519,53.96787],[17.31511,53.96795]]}},{"type":"Feature","properties":{"numer":"194029G","klasa":"droga lokalna","kat":"powiatowa"},"geometry":{"type":"LineString","coordinates":[[17.31511,53.96795],[17.31505,53.96803]]}},{"type":"Feature","properties":{"numer":"194029G","klasa":"droga lokalna","kat":"powiatowa"},"geometry":{"type":"LineString","coordinates":[[17.31505,53.96803],[17.31484,53.96837]]}},{"type":"Feature","properties":{"numer":"194029G","klasa":"droga lokalna","kat":"powiatowa"},"geometry":{"type":"LineString","coordinates":[[17.31484,53.96837],[17.31437,53.96937]]}},{"type":"Feature","properties":{"numer":"194029G","klasa":"droga lokalna","kat":"powiatowa"},"geometry":{"type":"LineString","coordinates":[[17.31437,53.96937],[17.3144,53.96964],[17.31498,53.97006],[17.31547,53.97068]]}},{"type":"Feature","properties":{"numer":"194037G","klasa":"droga lokalna","kat":"powiatowa"},"geometry":{"type":"LineString","coordinates":[[17.46476,53.94356],[17.46371,53.94356],[17.4604,53.94422]]}},{"type":"Feature","properties":{"numer":"194037G","klasa":"droga lokalna","kat":"powiatowa"},"geometry":{"type":"LineString","coordinates":[[17.47344,53.94445],[17.47191,53.94411],[17.47074,53.94367],[17.47013,53.94357],[17.46731,53.94352],[17.46591,53.94365],[17.46476,53.94356]]}},{"type":"Feature","properties":{"numer":"1737G","klasa":"","kat":"powiatowa"},"geometry":{"type":"LineString","coordinates":[[17.49376,53.94336],[17.49233,53.94464]]}},{"type":"Feature","properties":{"numer":"194037G","klasa":"droga lokalna","kat":"powiatowa"},"geometry":{"type":"LineString","coordinates":[[17.49137,53.9439],[17.49048,53.94406],[17.48969,53.9443],[17.48724,53.94464],[17.48489,53.94453],[17.48398,53.94434],[17.4834,53.9443],[17.48303,53.94436],[17.48185,53.94482],[17.48076,53.94496],[17.47835,53.94488],[17.47402,53.94454]]}},{"type":"Feature","properties":{"numer":"194037G","klasa":"droga lokalna","kat":"powiatowa"},"geometry":{"type":"LineString","coordinates":[[17.47402,53.94454],[17.47344,53.94445]]}},{"type":"Feature","properties":{"numer":"1737G","klasa":"","kat":"powiatowa"},"geometry":{"type":"LineString","coordinates":[[17.49233,53.94464],[17.48936,53.94725],[17.48866,53.94979],[17.48814,53.95086],[17.48596,53.95374],[17.48051,53.95952],[17.4765,53.96551],[17.47208,53.96938],[17.47012,53.97071],[17.4694,53.97111],[17.46812,53.97157],[17.4657,53.97314],[17.46218,53.97581],[17.46016,53.9778]]}},{"type":"Feature","properties":{"numer":"1735G","klasa":"","kat":"powiatowa"},"geometry":{"type":"LineString","coordinates":[[17.45919,53.98111],[17.46105,53.98099],[17.46677,53.98091],[17.46742,53.981],[17.46785,53.98122],[17.47138,53.98406],[17.4731,53.98605],[17.47404,53.98739],[17.47519,53.9903],[17.47627,53.99221],[17.47709,53.99329]]}},{"type":"Feature","properties":{"numer":"194005G","klasa":"droga lokalna","kat":"powiatowa"},"geometry":{"type":"LineString","coordinates":[[17.47709,53.99329],[17.47752,53.99404],[17.47753,53.99488]]}},{"type":"Feature","properties":{"numer":"194005G","klasa":"droga lokalna","kat":"powiatowa"},"geometry":{"type":"LineString","coordinates":[[17.47753,53.99488],[17.47774,53.99538],[17.47841,53.99596]]}},{"type":"Feature","properties":{"numer":"194005G","klasa":"droga lokalna","kat":"powiatowa"},"geometry":{"type":"LineString","coordinates":[[17.47841,53.99596],[17.47834,53.9964],[17.47753,53.99735],[17.47754,53.99811],[17.47738,53.99835]]}},{"type":"Feature","properties":{"numer":"1750G","klasa":"","kat":"powiatowa"},"geometry":{"type":"LineString","coordinates":[[17.309366198041026,53.887299099760504],[17.29275,53.89738]]}},{"type":"Feature","properties":{"numer":"1746G","klasa":"","kat":"powiatowa"},"geometry":{"type":"LineString","coordinates":[[17.29275,53.89738],[17.29533,53.89889],[17.29583,53.89944],[17.29626,53.90193],[17.29881,53.90768],[17.29878,53.90827],[17.29772,53.91078],[17.29751,53.91156],[17.29757,53.91198],[17.29869,53.91422],[17.29886,53.91594],[17.29626,53.92215],[17.29624,53.92254],[17.2964,53.92301],[17.3003,53.92748],[17.30164,53.92869],[17.30342,53.92962],[17.30442,53.93],[17.30799,53.93103],[17.30865,53.93132],[17.3108,53.93322],[17.31277,53.93418],[17.31618,53.93643],[17.31658,53.93687],[17.31674,53.93726],[17.31705,53.93922],[17.31736,53.93999],[17.31823,53.94123],[17.31873,53.94172],[17.32021,53.9423],[17.32078,53.94265],[17.32302,53.94522],[17.3233,53.94577],[17.32344,53.94678],[17.32366,53.94736],[17.32433,53.94797],[17.32578,53.94873]]}},{"type":"Feature","properties":{"numer":"1734G","klasa":"","kat":"powiatowa"},"geometry":{"type":"LineString","coordinates":[[17.3154,53.9656],[17.31503,53.96571],[17.31165,53.96542],[17.30982,53.96556],[17.30839,53.96596],[17.30752,53.96611],[17.30501,53.96609],[17.29801,53.96429],[17.2905,53.96263],[17.2876,53.9617],[17.28265,53.96106],[17.28201,53.96101],[17.2814,53.96106],[17.28078,53.9612],[17.28005,53.96152],[17.27562,53.96545],[17.27276,53.96692],[17.27182,53.9673],[17.26875,53.968],[17.26292,53.96817],[17.26201,53.96828],[17.25271,53.97092],[17.2421,53.97531],[17.24149,53.97538],[17.2349,53.97526],[17.23419,53.97551],[17.23221,53.97664]]}},{"type":"Feature","properties":{"numer":"1744G","klasa":"","kat":"powiatowa"},"geometry":{"type":"LineString","coordinates":[[17.23192,53.97684],[17.23217,53.97832],[17.23179780821917,53.98108205479458]]}},{"type":"Feature","properties":{"numer":"1744G","klasa":"","kat":"powiatowa"},"geometry":{"type":"LineString","coordinates":[[17.231790692840647,53.98115004618937],[17.23183,53.98172],[17.23198,53.98203],[17.23574,53.98717],[17.24024,53.99191],[17.2421,53.99496],[17.24249,53.99696],[17.24277,53.99758],[17.24325,53.998],[17.2454,53.99944],[17.24577,53.99979],[17.24662,54.00099],[17.2478,54.00187],[17.24811,54.00229],[17.24814,54.00271],[17.24802,54.00303],[17.24651,54.00558],[17.24649,54.00596],[17.2467,54.00672],[17.24664,54.00722],[17.24591,54.00915],[17.24495,54.01097],[17.2444,54.0135],[17.24418,54.01522],[17.24406,54.01528],[17.24387,54.01586],[17.24447,54.01651],[17.24475,54.01706],[17.24469,54.01802],[17.24484,54.01865],[17.2453,54.01958],[17.24545,54.02122]]}},{"type":"Feature","properties":{"numer":"1731G","klasa":"","kat":"powiatowa"},"geometry":{"type":"LineString","coordinates":[[17.37068,54.03364],[17.368,54.03426],[17.36655,54.03493],[17.36476,54.03617],[17.36124,54.03766],[17.35998,54.03834],[17.35879,54.03868],[17.35777,54.03878],[17.35091,54.03799],[17.34612,54.03679],[17.34439,54.03587],[17.34162,54.03502],[17.34028,54.03448],[17.33882,54.03379],[17.33744,54.03278],[17.3368,54.03254],[17.33632,54.03255],[17.33568,54.0327],[17.33164,54.03378],[17.32591,54.03381],[17.32387,54.03375],[17.32271,54.0335],[17.31964,54.0319],[17.31911,54.03172],[17.31839,54.03161],[17.31608,54.03152],[17.31323,54.03151],[17.30862,54.03125],[17.30577,54.03127],[17.30019,54.03062],[17.29947,54.03073],[17.29773,54.03141],[17.29698,54.03147],[17.29658,54.03136],[17.29484,54.03059],[17.29285,54.03],[17.29198,54.02922],[17.29179,54.02915],[17.28911,54.02984],[17.28732,54.0298],[17.28435,54.03041],[17.28248,54.03063],[17.28042,54.03108],[17.2798,54.03137],[17.27918,54.03207],[17.2776,54.03331],[17.27739,54.03344],[17.27683,54.03356],[17.27565,54.03349],[17.27443,54.03299],[17.27327,54.0329],[17.27206,54.0327],[17.26923,54.03188],[17.2675,54.0319],[17.26601,54.03182],[17.26092,54.03122],[17.25867,54.03131],[17.25573,54.03251],[17.25505,54.03258],[17.25429,54.03227],[17.25373,54.03186],[17.25287,54.03097],[17.25245,54.03077],[17.25201,54.03067],[17.24887,54.0306],[17.24836,54.03039],[17.2476,54.02982],[17.24744,54.02948],[17.24745,54.02873],[17.24666,54.02792],[17.24654,54.0275],[17.2468,54.02722],[17.248,54.02666],[17.2481,54.02632],[17.24617,54.0236],[17.24545,54.02122]]}},{"type":"Feature","properties":{"numer":"194029G","klasa":"droga lokalna","kat":"powiatowa"},"geometry":{"type":"LineString","coordinates":[[17.31547,53.97068],[17.31611,53.97206]]}},{"type":"Feature","properties":{"numer":"194029G","klasa":"droga lokalna","kat":"powiatowa"},"geometry":{"type":"LineString","coordinates":[[17.31611,53.97206],[17.31622,53.97228]]}},{"type":"Feature","properties":{"numer":"194029G","klasa":"droga lokalna","kat":"powiatowa"},"geometry":{"type":"LineString","coordinates":[[17.31622,53.97228],[17.31698,53.97387],[17.31676,53.97475],[17.3169,53.97514]]}},{"type":"Feature","properties":{"numer":"194029G","klasa":"droga lokalna","kat":"powiatowa"},"geometry":{"type":"LineString","coordinates":[[17.3169,53.97514],[17.31701,53.97622]]}},{"type":"Feature","properties":{"numer":"194029G","klasa":"droga lokalna","kat":"powiatowa"},"geometry":{"type":"LineString","coordinates":[[17.31701,53.97622],[17.31721,53.97708],[17.31771,53.97801],[17.31773,53.97857]]}},{"type":"Feature","properties":{"numer":"194029G","klasa":"droga lokalna","kat":"powiatowa"},"geometry":{"type":"LineString","coordinates":[[17.31773,53.97857],[17.31792,53.97916]]}},{"type":"Feature","properties":{"numer":"194029G","klasa":"droga lokalna","kat":"powiatowa"},"geometry":{"type":"LineString","coordinates":[[17.31792,53.97916],[17.31928,53.98145],[17.32069,53.985],[17.32151,53.98625]]}},{"type":"Feature","properties":{"numer":"194029G","klasa":"droga lokalna","kat":"powiatowa"},"geometry":{"type":"LineString","coordinates":[[17.32151,53.98625],[17.32212,53.98747]]}},{"type":"Feature","properties":{"numer":"194029G","klasa":"droga lokalna","kat":"powiatowa"},"geometry":{"type":"LineString","coordinates":[[17.32212,53.98747],[17.32247,53.98805],[17.32395,53.9893]]}},{"type":"Feature","properties":{"numer":"194029G","klasa":"droga lokalna","kat":"powiatowa"},"geometry":{"type":"LineString","coordinates":[[17.32395,53.9893],[17.32487,53.99043],[17.32558,53.99181],[17.32725,53.993],[17.32902,53.99488],[17.32923,53.99526],[17.32926,53.9961]]}},{"type":"Feature","properties":{"numer":"212","klasa":"droga zbiorcza","kat":"wojewodzka"},"geometry":{"type":"LineString","coordinates":[[17.407,53.99625],[17.40711,53.99321],[17.40693,53.99273],[17.39907,53.9875],[17.39877,53.98722],[17.39867,53.98694],[17.3986,53.9857],[17.39879,53.98521],[17.39931,53.98441],[17.39926,53.98294],[17.39941,53.98246],[17.39971,53.98214],[17.40369,53.97903],[17.40442,53.97823]]}},{"type":"Feature","properties":{"numer":"1735G","klasa":"","kat":"powiatowa"},"geometry":{"type":"LineString","coordinates":[[17.45919,53.98111],[17.45594,53.98136],[17.45363,53.98176],[17.45121,53.98261],[17.44605,53.98384],[17.44499,53.98426],[17.44303,53.98521],[17.44228,53.98545],[17.43809,53.98605],[17.43508,53.98705],[17.4327,53.98741],[17.43104,53.98789],[17.43005,53.98797],[17.42801,53.98884],[17.42345,53.9892],[17.42278,53.98912],[17.42097,53.98871],[17.42006,53.98872],[17.41936,53.98886],[17.41782,53.98942],[17.41248,53.99267],[17.40951,53.99402],[17.40892,53.99452],[17.4083,53.99537],[17.40785,53.9958],[17.40732,53.99617],[17.407,53.99625]]}},{"type":"Feature","properties":{"numer":"212","klasa":"droga zbiorcza","kat":"wojewodzka"},"geometry":{"type":"LineString","coordinates":[[17.40696,53.9973],[17.407,53.99625]]}},{"type":"Feature","properties":{"numer":"212","klasa":"droga zbiorcza","kat":"wojewodzka"},"geometry":{"type":"LineString","coordinates":[[17.40491,54.00973],[17.40482,54.00907],[17.40584,54.0062],[17.4057,54.00385],[17.40612,54.00337],[17.40834,54.00215],[17.40871,54.00165],[17.4086,54.00106],[17.40701,53.99887],[17.40696,53.9973]]}},{"type":"Feature","properties":{"numer":"1729G","klasa":"","kat":"powiatowa"},"geometry":{"type":"LineString","coordinates":[[17.40491,54.00973],[17.40145,54.01123],[17.40058,54.01183],[17.39309,54.02345],[17.38914,54.02626],[17.38881,54.02688],[17.38808,54.02755],[17.38382,54.03049],[17.38214,54.03188],[17.38041,54.03276],[17.37945,54.03297],[17.37816,54.03288],[17.37692,54.03269],[17.37557,54.03215],[17.37512,54.0321],[17.37248,54.0331],[17.37068,54.03364]]}},{"type":"Feature","properties":{"numer":"212","klasa":"droga zbiorcza","kat":"wojewodzka"},"geometry":{"type":"LineString","coordinates":[[17.42741,54.0609],[17.42409,54.05866],[17.42364,54.05799],[17.42239,54.05381],[17.42329,54.05036],[17.42328,54.0499],[17.42044,54.04003],[17.42,54.03914],[17.41956,54.03838],[17.4191,54.03792],[17.41332,54.03341],[17.41071,54.03023],[17.4105,54.02981],[17.40656,54.01393],[17.40491,54.00973]]}},{"type":"Feature","properties":{"numer":"194005G","klasa":"droga lokalna","kat":"powiatowa"},"geometry":{"type":"LineString","coordinates":[[17.45985,54.03776],[17.4588,54.03825],[17.45783,54.03904],[17.45736,54.0393],[17.45665,54.04007]]}},{"type":"Feature","properties":{"numer":"194005G","klasa":"droga lokalna","kat":"powiatowa"},"geometry":{"type":"LineString","coordinates":[[17.45665,54.04007],[17.45576,54.04058],[17.45545,54.04094]]}},{"type":"Feature","properties":{"numer":"194005G","klasa":"droga lokalna","kat":"powiatowa"},"geometry":{"type":"LineString","coordinates":[[17.45545,54.04094],[17.45506,54.04123]]}},{"type":"Feature","properties":{"numer":"194005G","klasa":"droga lokalna","kat":"powiatowa"},"geometry":{"type":"LineString","coordinates":[[17.45506,54.04123],[17.45284,54.04301],[17.45264,54.0434],[17.45206,54.04405],[17.45156,54.04518],[17.45098,54.04593],[17.45073,54.04689]]}},{"type":"Feature","properties":{"numer":"194005G","klasa":"droga lokalna","kat":"powiatowa"},"geometry":{"type":"LineString","coordinates":[[17.48742,54.02452],[17.48717,54.02541]]}},{"type":"Feature","properties":{"numer":"194005G","klasa":"droga lokalna","kat":"powiatowa"},"geometry":{"type":"LineString","coordinates":[[17.48717,54.02541],[17.487,54.02699]]}},{"type":"Feature","properties":{"numer":"194005G","klasa":"droga lokalna","kat":"powiatowa"},"geometry":{"type":"LineString","coordinates":[[17.487,54.02699],[17.48665,54.02788]]}},{"type":"Feature","properties":{"numer":"194005G","klasa":"droga lokalna","kat":"powiatowa"},"geometry":{"type":"LineString","coordinates":[[17.48665,54.02788],[17.48598,54.0288],[17.48407,54.03074]]}},{"type":"Feature","properties":{"numer":"194005G","klasa":"droga lokalna","kat":"powiatowa"},"geometry":{"type":"LineString","coordinates":[[17.48407,54.03074],[17.48262,54.03237]]}},{"type":"Feature","properties":{"numer":"194005G","klasa":"droga lokalna","kat":"powiatowa"},"geometry":{"type":"LineString","coordinates":[[17.48262,54.03237],[17.47867,54.0335],[17.4753,54.03415]]}},{"type":"Feature","properties":{"numer":"194005G","klasa":"droga lokalna","kat":"powiatowa"},"geometry":{"type":"LineString","coordinates":[[17.4753,54.03415],[17.47259,54.03449],[17.47176,54.03442]]}},{"type":"Feature","properties":{"numer":"194005G","klasa":"droga lokalna","kat":"powiatowa"},"geometry":{"type":"LineString","coordinates":[[17.47176,54.03442],[17.46989,54.03403],[17.4685,54.034],[17.4678,54.03413],[17.46659,54.03453],[17.46545,54.03515],[17.46428,54.03539]]}},{"type":"Feature","properties":{"numer":"194005G","klasa":"droga lokalna","kat":"powiatowa"},"geometry":{"type":"LineString","coordinates":[[17.46428,54.03539],[17.46399,54.03549]]}},{"type":"Feature","properties":{"numer":"194005G","klasa":"droga lokalna","kat":"powiatowa"},"geometry":{"type":"LineString","coordinates":[[17.46399,54.03549],[17.46248,54.03627]]}},{"type":"Feature","properties":{"numer":"194029G","klasa":"droga lokalna","kat":"powiatowa"},"geometry":{"type":"LineString","coordinates":[[17.32926,53.9961],[17.32926,53.99681]]}},{"type":"Feature","properties":{"numer":"194029G","klasa":"droga lokalna","kat":"powiatowa"},"geometry":{"type":"LineString","coordinates":[[17.32926,53.99681],[17.32937,53.99741]]}},{"type":"Feature","properties":{"numer":"194029G","klasa":"droga lokalna","kat":"powiatowa"},"geometry":{"type":"LineString","coordinates":[[17.32937,53.99741],[17.33109,54.00028],[17.33127,54.00106],[17.33207,54.00209]]}},{"type":"Feature","properties":{"numer":"1732G","klasa":"","kat":"powiatowa"},"geometry":{"type":"LineString","coordinates":[[17.40696,53.9973],[17.40541,53.99736],[17.40449,53.99696],[17.40327,53.99666],[17.40182,53.99591],[17.40054,53.99571],[17.39981,53.99573],[17.39826,53.99601],[17.39801,53.99611],[17.39787,53.99627],[17.39789,53.99731],[17.39826,53.99809],[17.39864,53.99941],[17.39849,53.99963],[17.39798,53.99967],[17.39552,53.99956],[17.39394,53.99969],[17.39254,53.9997],[17.39006,53.99986],[17.38735,53.99979],[17.3808,54.00043],[17.37633,54.00168],[17.3755,54.00209],[17.37372,54.00322],[17.37247,54.00362],[17.37032,54.00403],[17.36845,54.00419],[17.36774,54.00431],[17.36565,54.00494],[17.36455,54.00515],[17.36327,54.00527],[17.36162,54.00519],[17.35849,54.00533],[17.35507,54.0059],[17.35354,54.00596],[17.34881,54.00576],[17.34533,54.00545],[17.33905,54.0041],[17.33773,54.00371],[17.33526,54.00358],[17.33406,54.0025],[17.33362,54.00244],[17.33318,54.00253]]}},{"type":"Feature","properties":{"numer":"194029G","klasa":"droga lokalna","kat":"powiatowa"},"geometry":{"type":"LineString","coordinates":[[17.33207,54.00209],[17.33271,54.00255]]}},{"type":"Feature","properties":{"numer":"194029G","klasa":"droga lokalna","kat":"powiatowa"},"geometry":{"type":"LineString","coordinates":[[17.33271,54.00255],[17.33318,54.00253]]}},{"type":"Feature","properties":{"numer":"1729G","klasa":"","kat":"powiatowa"},"geometry":{"type":"LineString","coordinates":[[17.37067,54.0339],[17.37068,54.03364]]}},{"type":"Feature","properties":{"numer":"1729G","klasa":"","kat":"powiatowa"},"geometry":{"type":"LineString","coordinates":[[17.35480349764778,54.07600122110861],[17.35526,54.07601],[17.35556,54.07589],[17.35647,54.07487],[17.35808,54.0724],[17.35834,54.07168],[17.35831,54.07046],[17.35806,54.06942],[17.35739,54.06823],[17.35726,54.0676],[17.35746,54.06682],[17.35813,54.06563],[17.35906,54.06356],[17.35923,54.06265],[17.35885,54.06188],[17.3574,54.06048],[17.35727,54.06018],[17.35732,54.05966],[17.3577,54.05884],[17.35762,54.05552],[17.35773,54.05505],[17.35949,54.05149],[17.36146,54.04962],[17.36363,54.04714],[17.36659,54.04322],[17.36788,54.0408],[17.36987,54.03807],[17.37108,54.03555],[17.37067,54.0339]]}},{"type":"Feature","properties":{"numer":"194005G","klasa":"droga lokalna","kat":"powiatowa"},"geometry":{"type":"LineString","coordinates":[[17.45073,54.04689],[17.45053,54.04798]]}},{"type":"Feature","properties":{"numer":"194005G","klasa":"droga lokalna","kat":"powiatowa"},"geometry":{"type":"LineString","coordinates":[[17.45053,54.04798],[17.4495,54.04891],[17.44771,54.05089]]}},{"type":"Feature","properties":{"numer":"194005G","klasa":"droga lokalna","kat":"powiatowa"},"geometry":{"type":"LineString","coordinates":[[17.44771,54.05089],[17.44751,54.05107]]}},{"type":"Feature","properties":{"numer":"194005G","klasa":"droga lokalna","kat":"powiatowa"},"geometry":{"type":"LineString","coordinates":[[17.44751,54.05107],[17.4468,54.05189],[17.44541,54.05262],[17.44425,54.05391],[17.44378,54.05425]]}},{"type":"Feature","properties":{"numer":"194005G","klasa":"droga lokalna","kat":"powiatowa"},"geometry":{"type":"LineString","coordinates":[[17.44179,54.0547],[17.44378,54.05425]]}},{"type":"Feature","properties":{"numer":"194005G","klasa":"droga lokalna","kat":"powiatowa"},"geometry":{"type":"LineString","coordinates":[[17.43591,54.05591],[17.43722,54.05574],[17.44034,54.05487],[17.44179,54.0547]]}},{"type":"Feature","properties":{"numer":"194005G","klasa":"droga lokalna","kat":"powiatowa"},"geometry":{"type":"LineString","coordinates":[[17.4357,54.05596],[17.43591,54.05591]]}},{"type":"Feature","properties":{"numer":"194005G","klasa":"droga lokalna","kat":"powiatowa"},"geometry":{"type":"LineString","coordinates":[[17.43553,54.05603],[17.4357,54.05596]]}},{"type":"Feature","properties":{"numer":"194005G","klasa":"droga lokalna","kat":"powiatowa"},"geometry":{"type":"LineString","coordinates":[[17.4354,54.05616],[17.43553,54.05603]]}},{"type":"Feature","properties":{"numer":"194005G","klasa":"droga lokalna","kat":"powiatowa"},"geometry":{"type":"LineString","coordinates":[[17.4353,54.05625],[17.4354,54.05616]]}},{"type":"Feature","properties":{"numer":"1746G","klasa":"","kat":"powiatowa"},"geometry":{"type":"LineString","coordinates":[[17.271978307862007,53.88561847563471],[17.29275,53.89738]]}},{"type":"Feature","properties":{"numer":"1744G","klasa":"","kat":"powiatowa"},"geometry":{"type":"LineString","coordinates":[[17.23187,53.97653],[17.23158,53.97537],[17.230358034595124,53.97352974931058]]}},{"type":"Feature","properties":{"numer":"1744G","klasa":"","kat":"powiatowa"},"geometry":{"type":"LineString","coordinates":[[17.228908500986194,53.971186252465486],[17.22885,53.97104],[17.22952,53.96856],[17.22959,53.96489],[17.23019,53.96384],[17.22842,53.96032],[17.22816,53.96001],[17.22755235834866,53.95955969413338]]}},{"type":"Feature","properties":{"numer":"1744G","klasa":"","kat":"powiatowa"},"geometry":{"type":"LineString","coordinates":[[17.226730734463267,53.958716101694904],[17.22666,53.95861],[17.22662668449198,53.958129304812836]]}},{"type":"Feature","properties":{"numer":"1744G","klasa":"","kat":"powiatowa"},"geometry":{"type":"LineString","coordinates":[[17.227119248613214,53.956189833585476],[17.2272755783617,53.9558723639424]]}},{"type":"Feature","properties":{"numer":"1734G","klasa":"","kat":"powiatowa"},"geometry":{"type":"LineString","coordinates":[[17.23187,53.97653],[17.23221,53.97664]]}},{"type":"Feature","properties":{"numer":"1744G","klasa":"","kat":"powiatowa"},"geometry":{"type":"LineString","coordinates":[[17.23187,53.97653],[17.23192,53.97684]]}},{"type":"Feature","properties":{"numer":"1734G","klasa":"","kat":"powiatowa"},"geometry":{"type":"LineString","coordinates":[[17.23192,53.97684],[17.23221,53.97664]]}},{"type":"Feature","properties":{"numer":"1731G","klasa":"","kat":"powiatowa"},"geometry":{"type":"LineString","coordinates":[[17.21339187336266,54.02557858583362],[17.21359,54.02552],[17.21417,54.02546],[17.2172,54.02562],[17.21841,54.02579],[17.22053,54.02577],[17.22224,54.02551],[17.22424,54.02532],[17.22587,54.02481],[17.22708,54.02459],[17.23062,54.02449],[17.23196,54.02432],[17.23302,54.02408],[17.23439,54.02364],[17.23526,54.02322],[17.23629,54.02254],[17.23682,54.02236],[17.24418,54.02153],[17.24545,54.02122]]}},{"type":"Feature","properties":{"numer":"1735G","klasa":"","kat":"powiatowa"},"geometry":{"type":"LineString","coordinates":[[17.47709,53.99329],[17.47816,53.9935],[17.47864,53.9935],[17.48192,53.99288],[17.48419,53.99283],[17.48613,53.99245],[17.48747,53.99208],[17.49112,53.99201],[17.49466,53.99205],[17.49607,53.99225],[17.49703,53.99252],[17.50046,53.9941],[17.50187,53.99454],[17.50298,53.99501],[17.50538,53.99556],[17.50859,53.99583],[17.51048,53.99546],[17.51315,53.99513],[17.51357,53.99515],[17.51443,53.99548],[17.51531,53.99596],[17.51832,53.99836],[17.52048,53.99972],[17.52238,54.00107],[17.52388,54.00185],[17.52579,54.00265],[17.52629,54.00278],[17.52802,54.00301]]}},{"type":"Feature","properties":{"numer":"194005G","klasa":"droga lokalna","kat":"powiatowa"},"geometry":{"type":"LineString","coordinates":[[17.47738,53.99835],[17.47681,53.99881],[17.47666,53.99904],[17.47666,53.9995],[17.47641,54.00045],[17.47582,54.00134],[17.47551,54.00288],[17.47507,54.00379]]}},{"type":"Feature","properties":{"numer":"194005G","klasa":"droga lokalna","kat":"powiatowa"},"geometry":{"type":"LineString","coordinates":[[17.47507,54.00379],[17.47508,54.0041],[17.47595,54.00599],[17.47719,54.00824]]}},{"type":"Feature","properties":{"numer":"194005G","klasa":"droga lokalna","kat":"powiatowa"},"geometry":{"type":"LineString","coordinates":[[17.47719,54.00824],[17.4782,54.01032]]}},{"type":"Feature","properties":{"numer":"194005G","klasa":"droga lokalna","kat":"powiatowa"},"geometry":{"type":"LineString","coordinates":[[17.4782,54.01032],[17.47939,54.01272],[17.4802,54.01375],[17.4807,54.01423],[17.48198,54.01504],[17.4827,54.01593]]}},{"type":"Feature","properties":{"numer":"194005G","klasa":"droga lokalna","kat":"powiatowa"},"geometry":{"type":"LineString","coordinates":[[17.4827,54.01593],[17.48352,54.0173]]}},{"type":"Feature","properties":{"numer":"194005G","klasa":"droga lokalna","kat":"powiatowa"},"geometry":{"type":"LineString","coordinates":[[17.48352,54.0173],[17.4845,54.01885],[17.48516,54.0209]]}},{"type":"Feature","properties":{"numer":"194005G","klasa":"droga lokalna","kat":"powiatowa"},"geometry":{"type":"LineString","coordinates":[[17.48709,54.02313],[17.48692,54.02252],[17.48631,54.0216],[17.48606,54.02136],[17.48516,54.0209]]}},{"type":"Feature","properties":{"numer":"194005G","klasa":"droga lokalna","kat":"powiatowa"},"geometry":{"type":"LineString","coordinates":[[17.48745,54.02392],[17.48709,54.02313]]}},{"type":"Feature","properties":{"numer":"194005G","klasa":"droga lokalna","kat":"powiatowa"},"geometry":{"type":"LineString","coordinates":[[17.48745,54.02392],[17.48742,54.02452]]}},{"type":"Feature","properties":{"numer":"1735G","klasa":"","kat":"powiatowa"},"geometry":{"type":"LineString","coordinates":[[17.5321686960013,54.00228558214228],[17.53189,54.00241],[17.530650400000003,54.002575279999995]]}},{"type":"Feature","properties":{"numer":"1735G","klasa":"","kat":"powiatowa"},"geometry":{"type":"LineString","coordinates":[[17.52829949661184,54.00302384317521],[17.52828,54.00303]]}},{"type":"Feature","properties":{"numer":"1735G","klasa":"","kat":"powiatowa"},"geometry":{"type":"LineString","coordinates":[[17.52828,54.00303],[17.528270898282678,54.003029299867904]]}},{"type":"Feature","properties":{"numer":"1735G","klasa":"","kat":"powiatowa"},"geometry":{"type":"LineString","coordinates":[[17.528165346602602,54.00302118050789],[17.52802,54.00301]]}},{"type":"Feature","properties":{"numer":"194005G","klasa":"droga lokalna","kat":"powiatowa"},"geometry":{"type":"LineString","coordinates":[[17.43478,54.05659],[17.4353,54.05625]]}},{"type":"Feature","properties":{"numer":"194005G","klasa":"droga lokalna","kat":"powiatowa"},"geometry":{"type":"LineString","coordinates":[[17.42992,54.05884],[17.43112,54.05847],[17.43171,54.0578],[17.43333,54.05754],[17.43443,54.0569],[17.43478,54.05659]]}},{"type":"Feature","properties":{"numer":"194005G","klasa":"droga lokalna","kat":"powiatowa"},"geometry":{"type":"LineString","coordinates":[[17.42723,54.06019],[17.42855,54.05965],[17.42992,54.05884]]}},{"type":"Feature","properties":{"numer":"194005G","klasa":"droga lokalna","kat":"powiatowa"},"geometry":{"type":"LineString","coordinates":[[17.42745,54.06082],[17.42705,54.06041],[17.42723,54.06019]]}},{"type":"Feature","properties":{"numer":"194005G","klasa":"droga lokalna","kat":"powiatowa"},"geometry":{"type":"LineString","coordinates":[[17.42741,54.0609],[17.42745,54.06082]]}},{"type":"Feature","properties":{"numer":"212","klasa":"droga zbiorcza","kat":"wojewodzka"},"geometry":{"type":"LineString","coordinates":[[17.434150613674987,54.07139084209084],[17.43414,54.07136],[17.43376,54.07097],[17.42928,54.06747],[17.42893,54.06705],[17.42797,54.06167],[17.4278,54.06125],[17.42741,54.0609]]}},{"type":"Feature","properties":{"numer":"194005G","klasa":"droga lokalna","kat":"powiatowa"},"geometry":{"type":"LineString","coordinates":[[17.46248,54.03627],[17.46214,54.03648],[17.46154,54.0367]]}},{"type":"Feature","properties":{"numer":"194005G","klasa":"droga lokalna","kat":"powiatowa"},"geometry":{"type":"LineString","coordinates":[[17.46154,54.0367],[17.46044,54.0375],[17.45985,54.03776]]}}]}