{"type":"FeatureCollection","features":[{"type":"Feature","properties":{"numer":"2408G","klasa":"","kat":"powiatowa"},"geometry":{"type":"LineString","coordinates":[[18.21152,54.04906],[18.21559,54.04731],[18.21751,54.04672],[18.22439,54.04386],[18.22477,54.04376],[18.22601,54.04365],[18.22843,54.04281],[18.22923,54.0422],[18.2298,54.04217],[18.23118,54.04238],[18.23228,54.04239],[18.23414,54.04219],[18.23606,54.04185],[18.23925,54.04162],[18.23974,54.04142],[18.23929,54.04023],[18.23947,54.03936],[18.24173,54.03575],[18.2437,54.03233],[18.24399,54.02919],[18.24463,54.02816],[18.24551,54.02768],[18.24779,54.02679],[18.24923,54.0258],[18.249282835043093,54.02574583298103]]}},{"type":"Feature","properties":{"numer":"2411G","klasa":"droga zbiorcza","kat":"powiatowa"},"geometry":{"type":"LineString","coordinates":[[18.21152,54.04906],[18.2117,54.052],[18.21184,54.05257],[18.21605,54.05875],[18.21865,54.06302],[18.22376,54.06874],[18.22502,54.07059],[18.22563,54.07178],[18.22664,54.07551],[18.22691,54.07597]]}},{"type":"Feature","properties":{"numer":"2411G","klasa":"droga zbiorcza","kat":"powiatowa"},"geometry":{"type":"LineString","coordinates":[[18.22691,54.07597],[18.22724,54.07624],[18.23601,54.08133],[18.23729,54.08243],[18.23784,54.08336],[18.24008,54.08939],[18.2406,54.09338],[18.24082,54.09387]]}},{"type":"Feature","properties":{"numer":"224","klasa":"droga zbiorcza","kat":"wojewodzka"},"geometry":{"type":"LineString","coordinates":[[18.23706,54.10724],[18.23831,54.09952],[18.2389,54.09872],[18.24155,54.09599],[18.2418,54.09558],[18.24182,54.09521],[18.24169,54.09491],[18.24082,54.09387]]}},{"type":"Feature","properties":{"numer":"2417G","klasa":"","kat":"powiatowa"},"geometry":{"type":"LineString","coordinates":[[18.25239,54.1056],[18.25227,54.10561]]}},{"type":"Feature","properties":{"numer":"2417G","klasa":"","kat":"powiatowa"},"geometry":{"type":"LineString","coordinates":[[18.25227,54.10561],[18.24892,54.10581],[18.24715,54.1062],[18.24488,54.10611],[18.24445,54.10633],[18.24398,54.10712],[18.2434,54.10732],[18.23706,54.10724]]}},{"type":"Feature","properties":{"numer":"224","klasa":"droga zbiorcza","kat":"wojewodzka"},"geometry":{"type":"LineString","coordinates":[[18.229923639296253,54.11618323174842],[18.23541,54.11201],[18.23584,54.11133],[18.23706,54.10724]]}},{"type":"Feature","properties":{"numer":"2414G","klasa":"","kat":"powiatowa"},"geometry":{"type":"LineString","coordinates":[[18.33065,54.05072],[18.32970358906038,54.049534442210046]]}},{"type":"Feature","properties":{"numer":"2414G","klasa":"","kat":"powiatowa"},"geometry":{"type":"LineString","coordinates":[[18.33114,54.05426],[18.33119,54.05373],[18.33184,54.05249],[18.33189,54.05195],[18.33171,54.05144],[18.33065,54.05072]]}},{"type":"Feature","properties":{"numer":"2414G","klasa":"","kat":"powiatowa"},"geometry":{"type":"LineString","coordinates":[[18.33185,54.05506],[18.3313,54.05457],[18.33114,54.05426]]}},{"type":"Feature","properties":{"numer":"2414G","klasa":"","kat":"powiatowa"},"geometry":{"type":"LineString","coordinates":[[18.3382,54.06229],[18.33825,54.06202],[18.33804,54.0616],[18.33714,54.06078],[18.33696,54.06047],[18.33702,54.06024],[18.33792,54.05929],[18.33789,54.05884],[18.33299,54.05597],[18.33185,54.05506]]}},{"type":"Feature","properties":{"numer":"224","klasa":"droga zbiorcza","kat":"wojewodzka"},"geometry":{"type":"LineString","coordinates":[[18.3382,54.06229],[18.33996,54.06271],[18.34046,54.06273],[18.34104,54.06255],[18.34302,54.06166],[18.34427,54.06141],[18.35116,54.06036],[18.360460074177375,54.05948160935228]]}},{"type":"Feature","properties":{"numer":"224","klasa":"droga zbiorcza","kat":"wojewodzka"},"geometry":{"type":"LineString","coordinates":[[18.31594,54.07163],[18.32396,54.06931],[18.32681,54.06752],[18.333,54.06483],[18.33666,54.06254],[18.3375,54.0623],[18.3382,54.06229]]}},{"type":"Feature","properties":{"numer":"2417G","klasa":"","kat":"powiatowa"},"geometry":{"type":"LineString","coordinates":[[18.31837,54.0842],[18.3183,54.08412]]}},{"type":"Feature","properties":{"numer":"2417G","klasa":"","kat":"powiatowa"},"geometry":{"type":"LineString","coordinates":[[18.31837,54.0842],[18.31901,54.08492],[18.3209,54.08634],[18.32297,54.08859]]}},{"type":"Feature","properties":{"numer":"2417G","klasa":"","kat":"powiatowa"},"geometry":{"type":"LineString","coordinates":[[18.3183,54.08412],[18.31812,54.08376],[18.31835,54.08301],[18.31789,54.0828],[18.31422,54.08182],[18.31337,54.08102],[18.31171,54.08005],[18.31031,54.07881],[18.30999,54.07838],[18.31036,54.07775],[18.3122,54.07589],[18.31256,54.07576],[18.31343,54.07574],[18.3158,54.0759],[18.31672,54.07535],[18.31683,54.07476],[18.31606,54.07309],[18.31594,54.07163]]}},{"type":"Feature","properties":{"numer":"224","klasa":"droga zbiorcza","kat":"wojewodzka"},"geometry":{"type":"LineString","coordinates":[[18.24082,54.09387],[18.24231,54.09274],[18.24332,54.0923],[18.25561,54.08882],[18.26228,54.08655],[18.26294,54.08619],[18.2725,54.07978],[18.27547,54.07787],[18.27887,54.07786],[18.27928,54.078],[18.27977,54.07855],[18.2801,54.07863],[18.28417,54.07797],[18.28498,54.0779],[18.28579,54.07797],[18.28764,54.07845],[18.2888,54.0786],[18.29262,54.07858],[18.29328,54.07852],[18.29451,54.07822],[18.30015,54.07647],[18.30239,54.0759],[18.30931,54.07353],[18.31594,54.07163]]}},{"type":"Feature","properties":{"numer":"2417G","klasa":"","kat":"powiatowa"},"geometry":{"type":"LineString","coordinates":[[18.32278,54.09021],[18.32273,54.09038],[18.32243,54.09056],[18.31572,54.09236],[18.311,54.09394],[18.30728,54.09476],[18.30422,54.09533],[18.28687,54.09919]]}},{"type":"Feature","properties":{"numer":"196015G,2417G","klasa":"","kat":"powiatowa"},"geometry":{"type":"LineString","coordinates":[[18.28593,54.09953],[18.28616,54.09937],[18.28687,54.09919]]}},{"type":"Feature","properties":{"numer":"196015G,2418G","klasa":"","kat":"powiatowa"},"geometry":{"type":"LineString","coordinates":[[18.28593,54.09953],[18.28715,54.10015],[18.28935,54.10227]]}},{"type":"Feature","properties":{"numer":"2417G","klasa":"","kat":"powiatowa"},"geometry":{"type":"LineString","coordinates":[[18.28593,54.09953],[18.28558,54.09977],[18.28467,54.1],[18.2837,54.09999],[18.26815,54.103],[18.26103,54.10656],[18.26029,54.10682],[18.25952,54.10687],[18.2585,54.10672],[18.25795,54.10649],[18.25713,54.10587],[18.25666,54.1057],[18.25381,54.10557],[18.25239,54.1056]]}},{"type":"Feature","properties":{"numer":"2418G","klasa":"","kat":"powiatowa"},"geometry":{"type":"LineString","coordinates":[[18.28935,54.10227],[18.29032,54.11638],[18.29061,54.12351],[18.29037,54.12394],[18.29007,54.12417],[18.28916,54.12445],[18.28256,54.1245],[18.2818,54.12467],[18.28121,54.12503],[18.28097,54.12546],[18.28086,54.12606],[18.2808363197026,54.126278587360616]]}},{"type":"Feature","properties":{"numer":"2418G","klasa":"","kat":"powiatowa"},"geometry":{"type":"LineString","coordinates":[[18.280744465032875,54.12731654512851],[18.280831177474404,54.1276555119454]]}},{"type":"Feature","properties":{"numer":"2418G","klasa":"","kat":"powiatowa"},"geometry":{"type":"LineString","coordinates":[[18.28089731707317,54.12777024390244],[18.281284391971663,54.12831214876033]]}},{"type":"Feature","properties":{"numer":"2411G","klasa":"droga zbiorcza","kat":"powiatowa"},"geometry":{"type":"LineString","coordinates":[[18.209359595320898,54.03974982611445],[18.20937,54.03984],[18.20895,54.04108],[18.20889,54.04325],[18.20848,54.04501],[18.20849,54.04552],[18.20877,54.04598],[18.21107,54.04835],[18.21152,54.04906]]}},{"type":"Feature","properties":{"numer":"2413G","klasa":"droga zbiorcza","kat":"powiatowa"},"geometry":{"type":"LineString","coordinates":[[18.15602,54.06939],[18.1576,54.06931],[18.1586,54.06947],[18.15953,54.06981],[18.16312,54.07146],[18.16496,54.07204],[18.16848,54.07291],[18.17536,54.07396],[18.17692,54.07432],[18.18034,54.07535],[18.18323,54.07553],[18.18768,54.07648],[18.19129,54.07704],[18.19219,54.07725],[18.194,54.07787],[18.19514,54.07837],[18.19579,54.07876],[18.19718,54.07993],[18.19833,54.08052],[18.19912,54.08074],[18.20028,54.08071],[18.20295,54.08041],[18.20434,54.08036],[18.20924,54.0808],[18.21134,54.08124],[18.21442,54.08116],[18.21611,54.08145],[18.21662,54.08143],[18.22123,54.07918],[18.2246,54.07739],[18.22691,54.07597]]}},{"type":"Feature","properties":{"numer":"2413G","klasa":"droga zbiorcza","kat":"powiatowa"},"geometry":{"type":"LineString","coordinates":[[18.129451598540825,54.065624559910205],[18.13084,54.06571],[18.13227,54.06609],[18.13299,54.06648],[18.13348,54.06662],[18.134,54.06664],[18.13513,54.06639],[18.13572,54.06636],[18.13736,54.06641],[18.14088,54.0667],[18.14363,54.06663],[18.14531,54.06683],[18.14918,54.06651],[18.15304,54.06609],[18.15418,54.06725],[18.15524,54.06859],[18.15602,54.06939]]}},{"type":"Feature","properties":{"numer":"2415G","klasa":"","kat":"powiatowa"},"geometry":{"type":"LineString","coordinates":[[18.15602,54.06939],[18.15137,54.07014],[18.15091,54.07029],[18.14774,54.0717],[18.14658,54.07287],[18.14457,54.07391],[18.13955,54.07469],[18.138976125927066,54.07486276313713]]}},{"type":"Feature","properties":{"numer":"2419G","klasa":"droga zbiorcza","kat":"powiatowa"},"geometry":{"type":"LineString","coordinates":[[18.32365,54.08872],[18.32297,54.08859]]}},{"type":"Feature","properties":{"numer":"2417G","klasa":"","kat":"powiatowa"},"geometry":{"type":"LineString","coordinates":[[18.32297,54.08859],[18.32307,54.08877],[18.32299,54.08901]]}},{"type":"Feature","properties":{"numer":"2419G","klasa":"","kat":"powiatowa"},"geometry":{"type":"LineString","coordinates":[[18.32365,54.08872],[18.32299,54.08901]]}},{"type":"Feature","properties":{"numer":"2417G","klasa":"","kat":"powiatowa"},"geometry":{"type":"LineString","coordinates":[[18.32299,54.08901],[18.32268,54.0897],[18.32278,54.09021]]}},{"type":"Feature","properties":{"numer":"2419G","klasa":"","kat":"powiatowa"},"geometry":{"type":"LineString","coordinates":[[18.334786684285373,54.08659236970393],[18.32553,54.08874],[18.32427,54.08863],[18.32365,54.08872]]}}]}