{"type":"FeatureCollection","features":[{"type":"Feature","properties":{"numer":"1302G","klasa":"","kat":"powiatowa"},"geometry":{"type":"LineString","coordinates":[[17.572667440412282,54.74982515997423],[17.57275,54.74982],[17.57316,54.74986],[17.57605,54.75058]]}},{"type":"Feature","properties":{"numer":"1302G","klasa":"","kat":"powiatowa"},"geometry":{"type":"LineString","coordinates":[[17.57605,54.75058],[17.57623,54.75063]]}},{"type":"Feature","properties":{"numer":"1302G","klasa":"","kat":"powiatowa"},"geometry":{"type":"LineString","coordinates":[[17.57623,54.75063],[17.58383,54.75254],[17.58798,54.75299],[17.58815,54.75259],[17.58784,54.75141],[17.58785,54.75065],[17.58799,54.75029],[17.58834,54.75001],[17.59102,54.7488]]}},{"type":"Feature","properties":{"numer":"214","klasa":"droga gĹ‚Ăłwna","kat":"wojewodzka"},"geometry":{"type":"LineString","coordinates":[[17.663785045510732,54.63489556242274],[17.66336,54.63548],[17.66168,54.63931],[17.66113,54.6401]]}},{"type":"Feature","properties":{"numer":"1312G","klasa":"droga zbiorcza","kat":"powiatowa"},"geometry":{"type":"LineString","coordinates":[[17.665653718924723,54.6403909299681],[17.66504,54.64031],[17.66113,54.6401]]}},{"type":"Feature","properties":{"numer":"1309G","klasa":"droga zbiorcza","kat":"powiatowa"},"geometry":{"type":"LineString","coordinates":[[17.70689,54.67672],[17.70691,54.67633],[17.70653,54.67488],[17.70709,54.67392],[17.70737,54.67259],[17.70837,54.671],[17.70808,54.66969],[17.70866,54.66808],[17.70854,54.66781],[17.70832,54.66765],[17.70726,54.66714],[17.70708,54.66679],[17.70753,54.6656],[17.70766,54.66151],[17.70778,54.66101],[17.70909,54.6586],[17.71166,54.65539],[17.712463632455666,54.654098726491135]]}},{"type":"Feature","properties":{"numer":"","klasa":"droga zbiorcza","kat":"powiatowa"},"geometry":{"type":"LineString","coordinates":[[17.70623,54.67854],[17.70689,54.67672]]}},{"type":"Feature","properties":{"numer":"105015G","klasa":"droga wewnÄ™trzna","kat":"powiatowa"},"geometry":{"type":"LineString","coordinates":[[17.65419,54.6382],[17.654277701073593,54.63575411450316]]}},{"type":"Feature","properties":{"numer":"105015G","klasa":"droga wewnÄ™trzna","kat":"powiatowa"},"geometry":{"type":"LineString","coordinates":[[17.65412,54.6402],[17.65419,54.6382]]}},{"type":"Feature","properties":{"numer":"1312G","klasa":"droga zbiorcza","kat":"powiatowa"},"geometry":{"type":"LineString","coordinates":[[17.66113,54.6401],[17.66049,54.64007],[17.65978,54.64026],[17.65517,54.64066],[17.65419,54.64054]]}},{"type":"Feature","properties":{"numer":"105015G","klasa":"droga wewnÄ™trzna","kat":"powiatowa"},"geometry":{"type":"LineString","coordinates":[[17.65419,54.64054],[17.65412,54.6402]]}},{"type":"Feature","properties":{"numer":"214","klasa":"droga gĹ‚Ăłwna","kat":"wojewodzka"},"geometry":{"type":"LineString","coordinates":[[17.66113,54.6401],[17.65999,54.64116],[17.65465,54.64514],[17.65261,54.64647],[17.63063,54.65849],[17.62597,54.66141],[17.6249,54.66226],[17.62397,54.66345],[17.62357,54.66469],[17.62368,54.66594]]}},{"type":"Feature","properties":{"numer":"213","klasa":"droga zbiorcza","kat":"wojewodzka"},"geometry":{"type":"LineString","coordinates":[[17.61665,54.66994],[17.6153,54.66908],[17.6148,54.66799],[17.61403,54.6669],[17.60903,54.66423],[17.60617,54.66251],[17.59867,54.66103],[17.59495,54.66043]]}},{"type":"Feature","properties":{"numer":"","klasa":"","kat":"gminna"},"geometry":{"type":"LineString","coordinates":[[17.62298,54.66601],[17.62368,54.66594]]}},{"type":"Feature","properties":{"numer":"1307G","klasa":"","kat":"powiatowa"},"geometry":{"type":"LineString","coordinates":[[17.643,54.66868],[17.6422,54.66953]]}},{"type":"Feature","properties":{"numer":"214","klasa":"droga gĹ‚Ăłwna","kat":"wojewodzka"},"geometry":{"type":"LineString","coordinates":[[17.62368,54.66594],[17.62477,54.66843],[17.62484,54.66919],[17.62473,54.66991],[17.62411,54.6712],[17.62142,54.67476]]}},{"type":"Feature","properties":{"numer":"213,214","klasa":"droga zbiorcza","kat":"powiatowa"},"geometry":{"type":"LineString","coordinates":[[17.61665,54.66994],[17.61689,54.67021],[17.61709,54.67084],[17.61684,54.67138]]}},{"type":"Feature","properties":{"numer":"213","klasa":"","kat":"wojewodzka"},"geometry":{"type":"LineString","coordinates":[[17.61684,54.67138],[17.61678,54.67148]]}},{"type":"Feature","properties":{"numer":"213","klasa":"droga zbiorcza","kat":"wojewodzka"},"geometry":{"type":"LineString","coordinates":[[17.6172,54.67158],[17.61684,54.67138]]}},{"type":"Feature","properties":{"numer":"","klasa":"droga lokalna","kat":"gminna"},"geometry":{"type":"LineString","coordinates":[[17.61678,54.67148],[17.61632,54.672],[17.61582,54.6723],[17.6141,54.67311],[17.61313,54.67341]]}},{"type":"Feature","properties":{"numer":"","klasa":"","kat":"gminna"},"geometry":{"type":"LineString","coordinates":[[17.6422,54.66953],[17.64119,54.67021],[17.63797,54.67122],[17.63606,54.67226],[17.63536,54.6728],[17.635,54.67326],[17.63491,54.67361],[17.63522,54.67635]]}},{"type":"Feature","properties":{"numer":"213","klasa":"droga zbiorcza","kat":"wojewodzka"},"geometry":{"type":"LineString","coordinates":[[17.61995,54.67503],[17.61764,54.67347],[17.61748,54.67308],[17.61753,54.67188],[17.6172,54.67158]]}},{"type":"Feature","properties":{"numer":"","klasa":"droga lokalna","kat":"gminna"},"geometry":{"type":"LineString","coordinates":[[17.61313,54.67341],[17.61159,54.67383]]}},{"type":"Feature","properties":{"numer":"","klasa":"droga lokalna","kat":"gminna"},"geometry":{"type":"LineString","coordinates":[[17.61159,54.67383],[17.61118,54.67394]]}},{"type":"Feature","properties":{"numer":"","klasa":"droga lokalna","kat":"gminna"},"geometry":{"type":"LineString","coordinates":[[17.61118,54.67394],[17.61007,54.67424]]}},{"type":"Feature","properties":{"numer":"","klasa":"droga lokalna","kat":"gminna"},"geometry":{"type":"LineString","coordinates":[[17.61007,54.67424],[17.60771,54.67488]]}},{"type":"Feature","properties":{"numer":"","klasa":"droga lokalna","kat":"gminna"},"geometry":{"type":"LineString","coordinates":[[17.60771,54.67488],[17.60761,54.6749]]}},{"type":"Feature","properties":{"numer":"","klasa":"droga gĹ‚Ăłwna","kat":"gminna"},"geometry":{"type":"LineString","coordinates":[[17.62142,54.67476],[17.62104,54.67521]]}},{"type":"Feature","properties":{"numer":"","klasa":"droga zbiorcza","kat":"powiatowa"},"geometry":{"type":"LineString","coordinates":[[17.62064,54.67528],[17.61995,54.67503]]}},{"type":"Feature","properties":{"numer":"","klasa":"droga lokalna","kat":"gminna"},"geometry":{"type":"LineString","coordinates":[[17.60761,54.6749],[17.60498,54.67563]]}},{"type":"Feature","properties":{"numer":"","klasa":"droga gĹ‚Ăłwna","kat":"gminna"},"geometry":{"type":"LineString","coordinates":[[17.62104,54.67521],[17.6209,54.67537]]}},{"type":"Feature","properties":{"numer":"","klasa":"droga gĹ‚Ăłwna","kat":"gminna"},"geometry":{"type":"LineString","coordinates":[[17.6209,54.67537],[17.62064,54.67528]]}},{"type":"Feature","properties":{"numer":"","klasa":"droga gĹ‚Ăłwna","kat":"gminna"},"geometry":{"type":"LineString","coordinates":[[17.62117,54.67544],[17.6209,54.67537]]}},{"type":"Feature","properties":{"numer":"","klasa":"droga gĹ‚Ăłwna","kat":"gminna"},"geometry":{"type":"LineString","coordinates":[[17.62076,54.67552],[17.6209,54.67537]]}},{"type":"Feature","properties":{"numer":"","klasa":"droga zbiorcza","kat":"powiatowa"},"geometry":{"type":"LineString","coordinates":[[17.6218,54.67562],[17.62117,54.67544]]}},{"type":"Feature","properties":{"numer":"213","klasa":"droga zbiorcza","kat":"wojewodzka"},"geometry":{"type":"LineString","coordinates":[[17.6686,54.67648],[17.66223,54.67518],[17.66138,54.67511],[17.65868,54.67519],[17.63522,54.67635]]}},{"type":"Feature","properties":{"numer":"","klasa":"droga lokalna","kat":"gminna"},"geometry":{"type":"LineString","coordinates":[[17.60498,54.67563],[17.60228,54.67636]]}},{"type":"Feature","properties":{"numer":"213","klasa":"droga zbiorcza","kat":"wojewodzka"},"geometry":{"type":"LineString","coordinates":[[17.63522,54.67635],[17.63334,54.67642],[17.62267,54.67573],[17.6218,54.67562]]}},{"type":"Feature","properties":{"numer":"","klasa":"droga lokalna","kat":"gminna"},"geometry":{"type":"LineString","coordinates":[[17.60228,54.67636],[17.60039,54.67695]]}},{"type":"Feature","properties":{"numer":"","klasa":"droga lokalna","kat":"gminna"},"geometry":{"type":"LineString","coordinates":[[17.60039,54.67695],[17.59955,54.67725],[17.59684,54.67722]]}},{"type":"Feature","properties":{"numer":"","klasa":"droga lokalna","kat":"gminna"},"geometry":{"type":"LineString","coordinates":[[17.59684,54.67722],[17.59641,54.67756]]}},{"type":"Feature","properties":{"numer":"","klasa":"droga lokalna","kat":"gminna"},"geometry":{"type":"LineString","coordinates":[[17.59641,54.67756],[17.59636,54.67766]]}},{"type":"Feature","properties":{"numer":"","klasa":"droga lokalna","kat":"gminna"},"geometry":{"type":"LineString","coordinates":[[17.59636,54.67766],[17.59633,54.67807]]}},{"type":"Feature","properties":{"numer":"","klasa":"droga lokalna","kat":"gminna"},"geometry":{"type":"LineString","coordinates":[[17.59633,54.67807],[17.59637,54.67849]]}},{"type":"Feature","properties":{"numer":"","klasa":"droga lokalna","kat":"gminna"},"geometry":{"type":"LineString","coordinates":[[17.59637,54.67849],[17.59631,54.67939]]}},{"type":"Feature","properties":{"numer":"214","klasa":"droga gĹ‚Ăłwna","kat":"wojewodzka"},"geometry":{"type":"LineString","coordinates":[[17.62076,54.67552],[17.61963,54.67668],[17.61845,54.6777],[17.61709,54.67871],[17.61541,54.67979],[17.61397,54.68059],[17.6122,54.68144],[17.60759,54.6833]]}},{"type":"Feature","properties":{"numer":"","klasa":"droga lokalna","kat":"gminna"},"geometry":{"type":"LineString","coordinates":[[17.59631,54.67939],[17.59628,54.67966]]}},{"type":"Feature","properties":{"numer":"","klasa":"droga lokalna","kat":"gminna"},"geometry":{"type":"LineString","coordinates":[[17.59628,54.67966],[17.59621,54.68017]]}},{"type":"Feature","properties":{"numer":"105020G","klasa":"droga wewnÄ™trzna","kat":"powiatowa"},"geometry":{"type":"LineString","coordinates":[[17.59751,54.6803],[17.59621,54.68017]]}},{"type":"Feature","properties":{"numer":"105020G","klasa":"droga wewnÄ™trzna","kat":"powiatowa"},"geometry":{"type":"LineString","coordinates":[[17.60213,54.68081],[17.59751,54.6803]]}},{"type":"Feature","properties":{"numer":"105020G","klasa":"droga wewnÄ™trzna","kat":"powiatowa"},"geometry":{"type":"LineString","coordinates":[[17.60535,54.68232],[17.60288,54.68107],[17.60213,54.68081]]}},{"type":"Feature","properties":{"numer":"1307G","klasa":"","kat":"powiatowa"},"geometry":{"type":"LineString","coordinates":[[17.63522,54.67635],[17.63521,54.67679],[17.63248,54.68245],[17.63179,54.68313],[17.62934,54.68465],[17.62901,54.68507],[17.62914,54.68522],[17.63025,54.68566],[17.63108,54.68627],[17.63174,54.68716],[17.63189,54.68781],[17.63432,54.68769],[17.63603,54.68724],[17.63746,54.68714],[17.63869,54.68713],[17.63917,54.68703]]}},{"type":"Feature","properties":{"numer":"1307G","klasa":"","kat":"powiatowa"},"geometry":{"type":"LineString","coordinates":[[17.63941,54.68698],[17.64039,54.68668],[17.64296,54.68656],[17.64513,54.68788],[17.64582,54.6881],[17.64829,54.68846],[17.65496,54.68889],[17.65631,54.6887],[17.65707,54.68879],[17.65898,54.68811],[17.66376,54.68729],[17.6651,54.68695],[17.66662,54.68624],[17.66733,54.68576],[17.66809,54.68549],[17.66839,54.68521],[17.66844,54.68408],[17.66882,54.68346],[17.66844,54.68253],[17.66839,54.68182],[17.66839,54.67771],[17.6686,54.67648]]}},{"type":"Feature","properties":{"numer":"213","klasa":"droga zbiorcza","kat":"wojewodzka"},"geometry":{"type":"LineString","coordinates":[[17.58712,54.65919],[17.58346,54.65866],[17.58007,54.65794],[17.56994,54.65528],[17.56762,54.65496],[17.56619,54.65484],[17.56539,54.65467],[17.564363215420205,54.65423457272834]]}},{"type":"Feature","properties":{"numer":"213","klasa":"droga zbiorcza","kat":"wojewodzka"},"geometry":{"type":"LineString","coordinates":[[17.58722,54.65921],[17.58712,54.65919]]}},{"type":"Feature","properties":{"numer":"213","klasa":"droga zbiorcza","kat":"wojewodzka"},"geometry":{"type":"LineString","coordinates":[[17.59495,54.66043],[17.58722,54.65921]]}},{"type":"Feature","properties":{"numer":"1305G","klasa":"","kat":"powiatowa"},"geometry":{"type":"LineString","coordinates":[[17.59495,54.66043],[17.59239,54.66257],[17.59181,54.66284],[17.58506,54.66397],[17.58292,54.66421],[17.57927,54.66437],[17.57847,54.66464],[17.57488,54.66634]]}},{"type":"Feature","properties":{"numer":"1304G","klasa":"","kat":"powiatowa"},"geometry":{"type":"LineString","coordinates":[[17.58553,54.70176],[17.58467,54.7018],[17.58225,54.70152],[17.57986,54.70144],[17.5775,54.70115],[17.57546,54.70061],[17.57384,54.70033],[17.57255,54.70029],[17.57166,54.70011],[17.56996,54.70016],[17.56828,54.69989],[17.56155,54.6982],[17.55716,54.69695],[17.55357,54.69576],[17.55247,54.69554],[17.55072,54.69537],[17.55032,54.69491],[17.55107,54.69374],[17.55185,54.69291],[17.55249,54.6925],[17.55371,54.69193],[17.56247,54.69068],[17.56489,54.69059],[17.56605,54.69043],[17.56685,54.69019],[17.56796,54.68968],[17.57055,54.68875],[17.57167,54.68824],[17.57309,54.68778],[17.575,54.68702],[17.58246,54.68325],[17.58553,54.68072],[17.58819,54.67926],[17.58925,54.67836],[17.58963,54.67817],[17.59104,54.67782],[17.59167,54.67775],[17.59633,54.67807]]}},{"type":"Feature","properties":{"numer":"1304G","klasa":"","kat":"powiatowa"},"geometry":{"type":"LineString","coordinates":[[17.58553,54.70176],[17.58636,54.70185]]}},{"type":"Feature","properties":{"numer":"214","klasa":"droga gĹ‚Ăłwna","kat":"wojewodzka"},"geometry":{"type":"LineString","coordinates":[[17.58636,54.70185],[17.58074,54.70954],[17.57803,54.71346]]}},{"type":"Feature","properties":{"numer":"105002G","klasa":"droga wewnÄ™trzna","kat":"powiatowa"},"geometry":{"type":"LineString","coordinates":[[17.52577,54.72052],[17.52553,54.72062]]}},{"type":"Feature","properties":{"numer":"105002G","klasa":"droga wewnÄ™trzna","kat":"powiatowa"},"geometry":{"type":"LineString","coordinates":[[17.52553,54.72062],[17.52487,54.72088]]}},{"type":"Feature","properties":{"numer":"105002G","klasa":"droga wewnÄ™trzna","kat":"powiatowa"},"geometry":{"type":"LineString","coordinates":[[17.52487,54.72088],[17.52467,54.72097]]}},{"type":"Feature","properties":{"numer":"105020G","klasa":"droga wewnÄ™trzna","kat":"powiatowa"},"geometry":{"type":"LineString","coordinates":[[17.60759,54.6833],[17.60692,54.68286],[17.60584,54.68256],[17.60535,54.68232]]}},{"type":"Feature","properties":{"numer":"1307G","klasa":"","kat":"powiatowa"},"geometry":{"type":"LineString","coordinates":[[17.63917,54.68703],[17.63941,54.68698]]}},{"type":"Feature","properties":{"numer":"214","klasa":"droga gĹ‚Ăłwna","kat":"wojewodzka"},"geometry":{"type":"LineString","coordinates":[[17.60759,54.6833],[17.60356,54.68491],[17.60075,54.68625],[17.59849,54.68758],[17.59611,54.68935],[17.59463,54.69074],[17.59343,54.69214],[17.58636,54.70185]]}},{"type":"Feature","properties":{"numer":"1306G","klasa":"droga zbiorcza","kat":"powiatowa"},"geometry":{"type":"LineString","coordinates":[[17.57803,54.71346],[17.58289,54.7141],[17.58408,54.71456],[17.58591,54.71413],[17.58964,54.7143],[17.59339,54.71491],[17.59807,54.71523],[17.60007,54.71581],[17.60128,54.71628],[17.60442,54.71837],[17.60814,54.72013],[17.60837,54.72039],[17.60823,54.72105],[17.6083,54.72128],[17.61009,54.72278],[17.61278,54.7238],[17.61553,54.72498],[17.61678,54.72582],[17.61767,54.72625]]}},{"type":"Feature","properties":{"numer":"1306G","klasa":"droga zbiorcza","kat":"powiatowa"},"geometry":{"type":"LineString","coordinates":[[17.61767,54.72625],[17.61989,54.72722],[17.62059,54.72774],[17.62384,54.72973],[17.62521,54.73121],[17.62611,54.73191],[17.62819,54.73294],[17.633,54.73598],[17.63556,54.7373]]}},{"type":"Feature","properties":{"numer":"1302G","klasa":"","kat":"powiatowa"},"geometry":{"type":"LineString","coordinates":[[17.59324,54.74713],[17.59371,54.74668],[17.59315,54.7451],[17.59378,54.74359],[17.59379,54.74185],[17.5955,54.73944],[17.59654,54.7385],[17.59749,54.7373],[17.59789,54.73592],[17.59823,54.73538],[17.59864,54.7351],[17.60024,54.73443],[17.60243,54.7331],[17.60703,54.73117],[17.61118,54.72796],[17.61303,54.72701],[17.61367,54.72674],[17.61477,54.72643],[17.61767,54.72625]]}},{"type":"Feature","properties":{"numer":"","klasa":"droga zbiorcza","kat":"powiatowa"},"geometry":{"type":"LineString","coordinates":[[17.63556,54.7373],[17.63784,54.73844]]}},{"type":"Feature","properties":{"numer":"213","klasa":"droga zbiorcza","kat":"wojewodzka"},"geometry":{"type":"LineString","coordinates":[[17.68417,54.67963],[17.6686,54.67648]]}},{"type":"Feature","properties":{"numer":"1309G","klasa":"droga zbiorcza","kat":"powiatowa"},"geometry":{"type":"LineString","coordinates":[[17.70656,54.68172],[17.70611,54.67949],[17.70623,54.67854]]}},{"type":"Feature","properties":{"numer":"213","klasa":"droga zbiorcza","kat":"wojewodzka"},"geometry":{"type":"LineString","coordinates":[[17.70656,54.68172],[17.70216,54.67945],[17.7003,54.67892],[17.69613,54.67974],[17.69462,54.67965],[17.68532,54.67974],[17.68417,54.67963]]}},{"type":"Feature","properties":{"numer":"1308G","klasa":"","kat":"powiatowa"},"geometry":{"type":"LineString","coordinates":[[17.68417,54.67963],[17.68353,54.68078],[17.68254,54.68179],[17.68165,54.68419],[17.6817,54.68438],[17.68215,54.68465],[17.68228,54.68485],[17.68272,54.68669],[17.68268,54.68779],[17.683,54.68866],[17.68254,54.68968],[17.68217,54.68992]]}},{"type":"Feature","properties":{"numer":"213","klasa":"droga zbiorcza","kat":"wojewodzka"},"geometry":{"type":"LineString","coordinates":[[17.73892,54.69566],[17.7362,54.69414],[17.72269,54.68912],[17.71496,54.68638],[17.71401,54.68592],[17.70656,54.68172]]}},{"type":"Feature","properties":{"numer":"1309G","klasa":"droga zbiorcza","kat":"powiatowa"},"geometry":{"type":"LineString","coordinates":[[17.71356,54.74373],[17.71627,54.74139],[17.71728,54.74007],[17.71783,54.73887],[17.71859,54.738],[17.72102,54.73621],[17.72221,54.73355],[17.72292,54.73227],[17.7228,54.73062],[17.72334,54.72974],[17.72341,54.72934],[17.72249,54.72704],[17.72146,54.72563],[17.71885,54.71836],[17.71848,54.71769],[17.7133,54.71032],[17.71251,54.70978],[17.70994,54.70874],[17.70913,54.7083],[17.70881,54.70795],[17.70794,54.70611],[17.70763,54.70498],[17.70761,54.70443],[17.70797,54.70098],[17.70791,54.70033],[17.70754,54.69978],[17.70553,54.69793],[17.70533,54.69752],[17.70463,54.69474],[17.70484,54.69417],[17.70691,54.69285],[17.70751,54.69228],[17.7089,54.68947],[17.70872,54.68874],[17.70688,54.68596],[17.70627,54.68466],[17.70617,54.68384],[17.70656,54.68172]]}},{"type":"Feature","properties":{"numer":"1306G","klasa":"droga zbiorcza","kat":"powiatowa"},"geometry":{"type":"LineString","coordinates":[[17.63784,54.73844],[17.64258,54.74048],[17.64382,54.74076],[17.6459,54.741],[17.6521,54.74329],[17.65786,54.74491],[17.66135,54.74611],[17.66242,54.7467],[17.66509,54.74972],[17.66628,54.75091],[17.66707,54.75141],[17.66826,54.7519],[17.66994,54.7523],[17.67124,54.75243],[17.67588,54.75234],[17.67693,54.75241],[17.68592,54.75401],[17.68714,54.75402],[17.68984,54.75362],[17.69137,54.7536],[17.69415,54.7542],[17.69805,54.75463],[17.69984,54.75511],[17.70088,54.75528],[17.70146,54.75531],[17.7033,54.75508],[17.70461,54.75506],[17.70514,54.75523],[17.70599,54.7557],[17.70688,54.756],[17.7072,54.75597],[17.7082,54.75501],[17.70948,54.75443],[17.70977,54.75415],[17.71125,54.75045],[17.71148,54.74815],[17.71274,54.74463],[17.71302,54.74421],[17.71356,54.74373]]}},{"type":"Feature","properties":{"numer":"105002G","klasa":"droga wewnÄ™trzna","kat":"powiatowa"},"geometry":{"type":"LineString","coordinates":[[17.52467,54.72097],[17.52413,54.72117]]}},{"type":"Feature","properties":{"numer":"105002G","klasa":"droga wewnÄ™trzna","kat":"powiatowa"},"geometry":{"type":"LineString","coordinates":[[17.52577,54.72052],[17.52707,54.72143],[17.52805,54.72198]]}},{"type":"Feature","properties":{"numer":"105002G","klasa":"droga wewnÄ™trzna","kat":"powiatowa"},"geometry":{"type":"LineString","coordinates":[[17.52413,54.72117],[17.52417,54.72133],[17.52526,54.72212]]}},{"type":"Feature","properties":{"numer":"105002G","klasa":"droga wewnÄ™trzna","kat":"powiatowa"},"geometry":{"type":"LineString","coordinates":[[17.52526,54.72212],[17.52583,54.72254]]}},{"type":"Feature","properties":{"numer":"105002G","klasa":"droga wewnÄ™trzna","kat":"powiatowa"},"geometry":{"type":"LineString","coordinates":[[17.52805,54.72198],[17.52903,54.72242],[17.53153,54.72331]]}},{"type":"Feature","properties":{"numer":"105002G","klasa":"droga wewnÄ™trzna","kat":"powiatowa"},"geometry":{"type":"LineString","coordinates":[[17.52583,54.72254],[17.52627,54.72286]]}},{"type":"Feature","properties":{"numer":"105002G","klasa":"droga wewnÄ™trzna","kat":"powiatowa"},"geometry":{"type":"LineString","coordinates":[[17.52627,54.72286],[17.52687,54.72329]]}},{"type":"Feature","properties":{"numer":"105002G","klasa":"droga wewnÄ™trzna","kat":"powiatowa"},"geometry":{"type":"LineString","coordinates":[[17.52687,54.72329],[17.52858,54.72454],[17.52873,54.72453]]}},{"type":"Feature","properties":{"numer":"105002G","klasa":"droga wewnÄ™trzna","kat":"powiatowa"},"geometry":{"type":"LineString","coordinates":[[17.52873,54.72453],[17.52922,54.72448],[17.53153,54.72331]]}},{"type":"Feature","properties":{"numer":"214","klasa":"droga gĹ‚Ăłwna","kat":"wojewodzka"},"geometry":{"type":"LineString","coordinates":[[17.57803,54.71346],[17.56996,54.72508],[17.56854,54.72761],[17.56781,54.72858],[17.56622,54.73003],[17.56045,54.73429],[17.55948,54.73526]]}},{"type":"Feature","properties":{"numer":"1303G","klasa":"","kat":"powiatowa"},"geometry":{"type":"LineString","coordinates":[[17.53153,54.72331],[17.53545,54.72194],[17.53615,54.72188],[17.53702,54.72208],[17.53832,54.72271],[17.54005,54.7229],[17.54072,54.72341],[17.54109,54.72358],[17.5429,54.72373],[17.54685,54.72433],[17.55051,54.72694],[17.55164,54.72853],[17.55186,54.72907],[17.55334,54.73005],[17.55394,54.73124],[17.5557,54.73265],[17.5568,54.73376],[17.55749,54.73423],[17.55948,54.73526]]}},{"type":"Feature","properties":{"numer":"214","klasa":"droga gĹ‚Ăłwna","kat":"wojewodzka"},"geometry":{"type":"LineString","coordinates":[[17.55948,54.73526],[17.5581,54.73668],[17.55769,54.73763],[17.557636535042384,54.73787073526371]]}},{"type":"Feature","properties":{"numer":"","klasa":"","kat":"gminna"},"geometry":{"type":"LineString","coordinates":[[17.59102,54.7488],[17.59324,54.74713]]}},{"type":"Feature","properties":{"numer":"","klasa":"","kat":"gminna"},"geometry":{"type":"LineString","coordinates":[[17.76938,54.68896],[17.7728,54.68956],[17.77759,54.69024]]}},{"type":"Feature","properties":{"numer":"1317G","klasa":"","kat":"powiatowa"},"geometry":{"type":"LineString","coordinates":[[17.77759,54.69024],[17.785110210065035,54.691302014398495]]}},{"type":"Feature","properties":{"numer":"1317G","klasa":"","kat":"powiatowa"},"geometry":{"type":"LineString","coordinates":[[17.73892,54.69566],[17.74484,54.6912],[17.74673,54.68989],[17.74756,54.68957],[17.75294,54.68819],[17.75597,54.68669],[17.75651,54.68669],[17.76938,54.68896]]}},{"type":"Feature","properties":{"numer":"213","klasa":"droga zbiorcza","kat":"wojewodzka"},"geometry":{"type":"LineString","coordinates":[[17.76936336527434,54.70950719733466],[17.75523,54.70802],[17.75033,54.70774],[17.74907,54.70742],[17.7482,54.70707],[17.7477,54.70675],[17.74475,54.70191],[17.74214,54.69898],[17.74033,54.69662],[17.73963,54.69607],[17.73892,54.69566]]}},{"type":"Feature","properties":{"numer":"1306G","klasa":"droga zbiorcza","kat":"powiatowa"},"geometry":{"type":"LineString","coordinates":[[17.71356,54.74373],[17.71672,54.74504],[17.71805,54.74551],[17.72698,54.74741],[17.7289,54.74743],[17.73499,54.74685],[17.73676,54.74598],[17.73732,54.74581],[17.73812,54.7457],[17.74189,54.74591],[17.74244,54.74599],[17.74366,54.74634],[17.743827000335916,54.746441765829694]]}}]}