{"type":"FeatureCollection","features":[{"type":"Feature","properties":{"numer":"216","klasa":"droga gĹ‚Ăłwna","kat":"wojewodzka"},"geometry":{"type":"LineString","coordinates":[[18.68667,54.69531],[18.68786,54.69504],[18.69211,54.69333],[18.69599,54.69248],[18.69772,54.69195],[18.70011,54.69072],[18.70362,54.68925],[18.7059,54.68872],[18.70662,54.68844],[18.70917,54.68651],[18.71333,54.68421],[18.71849,54.6805],[18.72001,54.67979],[18.72106,54.67909],[18.72482,54.67711],[18.7251115739772,54.676737569373664]]}},{"type":"Feature","properties":{"numer":"1535G","klasa":"droga zbiorcza","kat":"powiatowa"},"geometry":{"type":"LineString","coordinates":[[18.68666,54.6955],[18.68667,54.69531]]}},{"type":"Feature","properties":{"numer":"1535G","klasa":"droga zbiorcza","kat":"powiatowa"},"geometry":{"type":"LineString","coordinates":[[18.68666,54.6955],[18.68727,54.69531]]}},{"type":"Feature","properties":{"numer":"216","klasa":"droga gĹ‚Ăłwna","kat":"wojewodzka"},"geometry":{"type":"LineString","coordinates":[[18.68667,54.69531],[18.68226,54.69556],[18.68087,54.69557]]}},{"type":"Feature","properties":{"numer":"216","klasa":"droga gĹ‚Ăłwna","kat":"wojewodzka"},"geometry":{"type":"LineString","coordinates":[[18.66692,54.70248],[18.6662,54.70281],[18.66557,54.70299],[18.66194,54.70354],[18.66124,54.70373],[18.6602,54.70429],[18.65837,54.70582]]}},{"type":"Feature","properties":{"numer":"216","klasa":"droga gĹ‚Ăłwna","kat":"wojewodzka"},"geometry":{"type":"LineString","coordinates":[[18.65797,54.70598],[18.65837,54.70582]]}},{"type":"Feature","properties":{"numer":"216","klasa":"droga gĹ‚Ăłwna","kat":"wojewodzka"},"geometry":{"type":"LineString","coordinates":[[18.65766,54.70615],[18.65797,54.70598]]}},{"type":"Feature","properties":{"numer":"216","klasa":"droga gĹ‚Ăłwna","kat":"wojewodzka"},"geometry":{"type":"LineString","coordinates":[[18.65742,54.70635],[18.65766,54.70615]]}},{"type":"Feature","properties":{"numer":"1536G","klasa":"droga zbiorcza","kat":"powiatowa"},"geometry":{"type":"LineString","coordinates":[[18.6733,54.69579],[18.67333,54.69524],[18.6735,54.69517],[18.67361,54.69524],[18.67357,54.69587]]}},{"type":"Feature","properties":{"numer":"216","klasa":"droga gĹ‚Ăłwna","kat":"wojewodzka"},"geometry":{"type":"LineString","coordinates":[[18.68015,54.69554],[18.68087,54.69557]]}},{"type":"Feature","properties":{"numer":"216","klasa":"droga gĹ‚Ăłwna","kat":"wojewodzka"},"geometry":{"type":"LineString","coordinates":[[18.6797,54.69561],[18.68015,54.69554]]}},{"type":"Feature","properties":{"numer":"216","klasa":"droga gĹ‚Ăłwna","kat":"wojewodzka"},"geometry":{"type":"LineString","coordinates":[[18.67925,54.69575],[18.6797,54.69561]]}},{"type":"Feature","properties":{"numer":"112022G","klasa":"droga lokalna","kat":"powiatowa"},"geometry":{"type":"LineString","coordinates":[[18.67357,54.69587],[18.6733,54.69579]]}},{"type":"Feature","properties":{"numer":"216","klasa":"droga gĹ‚Ăłwna","kat":"wojewodzka"},"geometry":{"type":"LineString","coordinates":[[18.67925,54.69575],[18.67779,54.69627],[18.67496,54.69786]]}},{"type":"Feature","properties":{"numer":"1536G","klasa":"droga zbiorcza","kat":"powiatowa"},"geometry":{"type":"LineString","coordinates":[[18.67357,54.69587],[18.67496,54.69786]]}},{"type":"Feature","properties":{"numer":"1535G","klasa":"droga zbiorcza","kat":"powiatowa"},"geometry":{"type":"LineString","coordinates":[[18.67737,54.70029],[18.6795,54.69932],[18.68199,54.69796],[18.68391,54.69719],[18.68666,54.6955]]}},{"type":"Feature","properties":{"numer":"1536G","klasa":"droga zbiorcza","kat":"powiatowa"},"geometry":{"type":"LineString","coordinates":[[18.67496,54.69786],[18.67737,54.70029]]}},{"type":"Feature","properties":{"numer":"216","klasa":"droga gĹ‚Ăłwna","kat":"wojewodzka"},"geometry":{"type":"LineString","coordinates":[[18.67496,54.69786],[18.66692,54.70248]]}},{"type":"Feature","properties":{"numer":"112018G","klasa":"droga lokalna","kat":"powiatowa"},"geometry":{"type":"LineString","coordinates":[[18.67692,54.70123],[18.67773,54.70063],[18.67737,54.70029]]}},{"type":"Feature","properties":{"numer":"1535G","klasa":"droga zbiorcza","kat":"powiatowa"},"geometry":{"type":"LineString","coordinates":[[18.67327,54.70199],[18.67737,54.70029]]}},{"type":"Feature","properties":{"numer":"112018G","klasa":"droga lokalna","kat":"powiatowa"},"geometry":{"type":"LineString","coordinates":[[18.67559,54.70194],[18.67692,54.70123]]}},{"type":"Feature","properties":{"numer":"112016G","klasa":"droga lokalna","kat":"powiatowa"},"geometry":{"type":"LineString","coordinates":[[18.67327,54.70199],[18.67353,54.70241],[18.6737,54.70245]]}},{"type":"Feature","properties":{"numer":"112018G","klasa":"droga lokalna","kat":"powiatowa"},"geometry":{"type":"LineString","coordinates":[[18.67389,54.7025],[18.67559,54.70194]]}},{"type":"Feature","properties":{"numer":"1535G","klasa":"droga zbiorcza","kat":"powiatowa"},"geometry":{"type":"LineString","coordinates":[[18.66692,54.70248],[18.66743,54.70268],[18.66775,54.70269],[18.66934,54.70239],[18.67245,54.70214],[18.67327,54.70199]]}},{"type":"Feature","properties":{"numer":"112018G","klasa":"droga lokalna","kat":"powiatowa"},"geometry":{"type":"LineString","coordinates":[[18.6737,54.70245],[18.67389,54.7025]]}},{"type":"Feature","properties":{"numer":"216","klasa":"droga gĹ‚Ăłwna","kat":"wojewodzka"},"geometry":{"type":"LineString","coordinates":[[18.52696788115085,54.75370205969347],[18.54515,54.74668],[18.55989,54.74082],[18.5724,54.73727],[18.57629,54.73603],[18.5831,54.7349],[18.58369,54.73464],[18.5851,54.73351],[18.58693,54.73232],[18.59402,54.7294],[18.59936,54.72772],[18.60304,54.72704],[18.60419,54.72676],[18.60927,54.7251],[18.61684,54.72297],[18.61787,54.72255],[18.62153,54.72079],[18.62967,54.71772],[18.6322,54.71632],[18.63862,54.71353],[18.64788,54.71017],[18.64971,54.70932],[18.65703,54.70662],[18.65742,54.70635]]}}]}