{"type":"FeatureCollection","features":[{"type":"Feature","properties":{"numer":"134102G","klasa":"droga lokalna","kat":"powiatowa"},"geometry":{"type":"LineString","coordinates":[[18.42746,54.57279],[18.42714,54.57276]]}},{"type":"Feature","properties":{"numer":"134102G","klasa":"droga lokalna","kat":"powiatowa"},"geometry":{"type":"LineString","coordinates":[[18.42762,54.57279],[18.42751,54.57279]]}},{"type":"Feature","properties":{"numer":"134102G","klasa":"droga lokalna","kat":"powiatowa"},"geometry":{"type":"LineString","coordinates":[[18.42751,54.57279],[18.42746,54.57279]]}},{"type":"Feature","properties":{"numer":"134102G","klasa":"droga lokalna","kat":"powiatowa"},"geometry":{"type":"LineString","coordinates":[[18.42956,54.57288],[18.42762,54.57279]]}},{"type":"Feature","properties":{"numer":"134102G","klasa":"droga lokalna","kat":"powiatowa"},"geometry":{"type":"LineString","coordinates":[[18.4312,54.57297],[18.42956,54.57288]]}},{"type":"Feature","properties":{"numer":"134102G","klasa":"droga lokalna","kat":"powiatowa"},"geometry":{"type":"LineString","coordinates":[[18.43207,54.57302],[18.4312,54.57297]]}},{"type":"Feature","properties":{"numer":"134102G","klasa":"droga lokalna","kat":"powiatowa"},"geometry":{"type":"LineString","coordinates":[[18.43346,54.57309],[18.43207,54.57302]]}},{"type":"Feature","properties":{"numer":"134102G","klasa":"droga lokalna","kat":"powiatowa"},"geometry":{"type":"LineString","coordinates":[[18.43477,54.57317],[18.43346,54.57309]]}},{"type":"Feature","properties":{"numer":"1472G","klasa":"droga zbiorcza","kat":"powiatowa"},"geometry":{"type":"LineString","coordinates":[[18.42702407800769,54.57275975828603],[18.42703,54.57276]]}},{"type":"Feature","properties":{"numer":"134102G","klasa":"droga lokalna","kat":"powiatowa"},"geometry":{"type":"LineString","coordinates":[[18.43514,54.57319],[18.43477,54.57317]]}},{"type":"Feature","properties":{"numer":"134102G","klasa":"droga lokalna","kat":"powiatowa"},"geometry":{"type":"LineString","coordinates":[[18.43531,54.5732],[18.43514,54.57319]]}},{"type":"Feature","properties":{"numer":"134102G","klasa":"droga lokalna","kat":"powiatowa"},"geometry":{"type":"LineString","coordinates":[[18.43586,54.57323],[18.43531,54.5732]]}},{"type":"Feature","properties":{"numer":"134102G","klasa":"droga lokalna","kat":"powiatowa"},"geometry":{"type":"LineString","coordinates":[[18.43638,54.57326],[18.43586,54.57323]]}},{"type":"Feature","properties":{"numer":"134003G","klasa":"droga dojazdowa","kat":"powiatowa"},"geometry":{"type":"LineString","coordinates":[[18.43956,54.57351],[18.43921,54.57341],[18.43638,54.57326]]}},{"type":"Feature","properties":{"numer":"134003G","klasa":"droga dojazdowa","kat":"powiatowa"},"geometry":{"type":"LineString","coordinates":[[18.44008,54.57399],[18.43956,54.57351]]}},{"type":"Feature","properties":{"numer":"134003G","klasa":"droga dojazdowa","kat":"powiatowa"},"geometry":{"type":"LineString","coordinates":[[18.44012,54.57515],[18.44008,54.57399]]}},{"type":"Feature","properties":{"numer":"134003G","klasa":"droga dojazdowa","kat":"powiatowa"},"geometry":{"type":"LineString","coordinates":[[18.44108,54.57958],[18.4407,54.57732],[18.44012,54.57515]]}},{"type":"Feature","properties":{"numer":"134003G","klasa":"droga dojazdowa","kat":"powiatowa"},"geometry":{"type":"LineString","coordinates":[[18.44112,54.57977],[18.44108,54.57958]]}},{"type":"Feature","properties":{"numer":"134003G","klasa":"droga dojazdowa","kat":"powiatowa"},"geometry":{"type":"LineString","coordinates":[[18.44133,54.58056],[18.44112,54.57977]]}},{"type":"Feature","properties":{"numer":"134003G","klasa":"droga dojazdowa","kat":"powiatowa"},"geometry":{"type":"LineString","coordinates":[[18.44162,54.58163],[18.44133,54.58056]]}},{"type":"Feature","properties":{"numer":"134003G","klasa":"droga dojazdowa","kat":"powiatowa"},"geometry":{"type":"LineString","coordinates":[[18.44175,54.58204],[18.44162,54.58163]]}},{"type":"Feature","properties":{"numer":"134003G","klasa":"droga dojazdowa","kat":"powiatowa"},"geometry":{"type":"LineString","coordinates":[[18.44247,54.5832],[18.44192,54.58246],[18.44175,54.58204]]}},{"type":"Feature","properties":{"numer":"134003G","klasa":"droga dojazdowa","kat":"powiatowa"},"geometry":{"type":"LineString","coordinates":[[18.43727,54.58781],[18.44247,54.5832]]}},{"type":"Feature","properties":{"numer":"134003G","klasa":"droga dojazdowa","kat":"powiatowa"},"geometry":{"type":"LineString","coordinates":[[18.43639,54.58833],[18.43727,54.58781]]}},{"type":"Feature","properties":{"numer":"1519G","klasa":"","kat":"powiatowa"},"geometry":{"type":"LineString","coordinates":[[18.43639,54.58833],[18.43795,54.58872],[18.44056,54.58967],[18.44253,54.59025],[18.44651,54.59043],[18.44721,54.59038],[18.44867,54.59011],[18.45048,54.59015],[18.45126,54.59025],[18.45311,54.59073],[18.4548,54.591],[18.46125,54.59129],[18.46283,54.59151],[18.46408,54.59143],[18.46459,54.59128]]}},{"type":"Feature","properties":{"numer":"1519G","klasa":"","kat":"powiatowa"},"geometry":{"type":"LineString","coordinates":[[18.41904,54.6012],[18.42443,54.59909],[18.42529,54.59869],[18.42619,54.59812],[18.4282,54.59659],[18.42893,54.5959],[18.4348,54.58811],[18.43514,54.58801],[18.43639,54.58833]]}},{"type":"Feature","properties":{"numer":"1490G","klasa":"droga zbiorcza","kat":"powiatowa"},"geometry":{"type":"LineString","coordinates":[[18.41492027513227,54.600540275132275],[18.41502,54.60064]]}},{"type":"Feature","properties":{"numer":"1519G","klasa":"","kat":"powiatowa"},"geometry":{"type":"LineString","coordinates":[[18.41904,54.6012],[18.41894,54.60124]]}},{"type":"Feature","properties":{"numer":"1490G","klasa":"droga zbiorcza","kat":"powiatowa"},"geometry":{"type":"LineString","coordinates":[[18.41502,54.60064],[18.41653,54.60215]]}},{"type":"Feature","properties":{"numer":"1519G","klasa":"","kat":"powiatowa"},"geometry":{"type":"LineString","coordinates":[[18.41894,54.60124],[18.41653,54.60215]]}},{"type":"Feature","properties":{"numer":"1490G","klasa":"droga zbiorcza","kat":"powiatowa"},"geometry":{"type":"LineString","coordinates":[[18.41653,54.60215],[18.41783,54.60338],[18.4192,54.60419],[18.42082,54.60476],[18.42186,54.60498],[18.42308,54.60512],[18.4256,54.60514],[18.45331,54.60468]]}},{"type":"Feature","properties":{"numer":"1514G","klasa":"droga zbiorcza","kat":"powiatowa"},"geometry":{"type":"LineString","coordinates":[[18.45227,54.60782],[18.4532,54.60608],[18.45331,54.60468]]}},{"type":"Feature","properties":{"numer":"1514G","klasa":"droga zbiorcza","kat":"powiatowa"},"geometry":{"type":"LineString","coordinates":[[18.45222,54.6079],[18.45227,54.60782]]}},{"type":"Feature","properties":{"numer":"1514G","klasa":"droga zbiorcza","kat":"powiatowa"},"geometry":{"type":"LineString","coordinates":[[18.45041,54.61115],[18.45222,54.6079]]}},{"type":"Feature","properties":{"numer":"1514G","klasa":"droga zbiorcza","kat":"powiatowa"},"geometry":{"type":"LineString","coordinates":[[18.45038,54.6112],[18.45041,54.61115]]}},{"type":"Feature","properties":{"numer":"1514G","klasa":"droga zbiorcza","kat":"powiatowa"},"geometry":{"type":"LineString","coordinates":[[18.44505,54.62086],[18.45038,54.6112]]}},{"type":"Feature","properties":{"numer":"1514G","klasa":"droga zbiorcza","kat":"powiatowa"},"geometry":{"type":"LineString","coordinates":[[18.44501,54.62092],[18.44505,54.62086]]}},{"type":"Feature","properties":{"numer":"1514G","klasa":"droga zbiorcza","kat":"powiatowa"},"geometry":{"type":"LineString","coordinates":[[18.438431228236883,54.624204806124325],[18.4393,54.623],[18.43986,54.62255],[18.44072,54.62225],[18.44392,54.62197],[18.4446,54.62159],[18.44501,54.62092]]}},{"type":"Feature","properties":{"numer":"1606G","klasa":"droga zbiorcza","kat":"powiatowa"},"geometry":{"type":"LineString","coordinates":[[18.505315980195284,54.563642217278996],[18.50571,54.56368],[18.506035207827615,54.563674294599515]]}},{"type":"Feature","properties":{"numer":"1517G","klasa":"droga zbiorcza","kat":"powiatowa"},"geometry":{"type":"LineString","coordinates":[[18.48244,54.56451],[18.482434897448726,54.56449554277139]]}},{"type":"Feature","properties":{"numer":"1517G","klasa":"droga zbiorcza","kat":"powiatowa"},"geometry":{"type":"LineString","coordinates":[[18.4825,54.56462],[18.48244,54.56451]]}},{"type":"Feature","properties":{"numer":"1517G","klasa":"droga zbiorcza","kat":"powiatowa"},"geometry":{"type":"LineString","coordinates":[[18.48197,54.56454],[18.4825,54.56462]]}},{"type":"Feature","properties":{"numer":"1517G","klasa":"droga zbiorcza","kat":"powiatowa"},"geometry":{"type":"LineString","coordinates":[[18.49376,54.58335],[18.49265,54.58136],[18.49114,54.57691],[18.48919,54.57276],[18.4825,54.56462]]}},{"type":"Feature","properties":{"numer":"1518G","klasa":"","kat":"powiatowa"},"geometry":{"type":"LineString","coordinates":[[18.46989,54.57504],[18.4699,54.57482]]}},{"type":"Feature","properties":{"numer":"1518G","klasa":"","kat":"powiatowa"},"geometry":{"type":"LineString","coordinates":[[18.4699,54.57514],[18.46989,54.57504]]}},{"type":"Feature","properties":{"numer":"134029G","klasa":"droga dojazdowa","kat":"powiatowa"},"geometry":{"type":"LineString","coordinates":[[18.46996,54.57524],[18.4699,54.57514]]}},{"type":"Feature","properties":{"numer":"134029G","klasa":"","kat":"powiatowa"},"geometry":{"type":"LineString","coordinates":[[18.47009,54.57545],[18.46996,54.57524]]}},{"type":"Feature","properties":{"numer":"134029G","klasa":"droga dojazdowa","kat":"powiatowa"},"geometry":{"type":"LineString","coordinates":[[18.47051,54.57793],[18.47065,54.57663],[18.47009,54.57545]]}},{"type":"Feature","properties":{"numer":"134029G","klasa":"droga dojazdowa","kat":"powiatowa"},"geometry":{"type":"LineString","coordinates":[[18.47039,54.5785],[18.47051,54.57793]]}},{"type":"Feature","properties":{"numer":"134029G","klasa":"droga dojazdowa","kat":"powiatowa"},"geometry":{"type":"LineString","coordinates":[[18.4693,54.58184],[18.4696,54.58122],[18.47038,54.57853]]}},{"type":"Feature","properties":{"numer":"134029G","klasa":"droga dojazdowa","kat":"powiatowa"},"geometry":{"type":"LineString","coordinates":[[18.46889,54.5825],[18.4693,54.58184]]}},{"type":"Feature","properties":{"numer":"1517G","klasa":"droga zbiorcza","kat":"powiatowa"},"geometry":{"type":"LineString","coordinates":[[18.49395,54.58345],[18.49376,54.58335]]}},{"type":"Feature","properties":{"numer":"1517G","klasa":"droga zbiorcza","kat":"powiatowa"},"geometry":{"type":"LineString","coordinates":[[18.49407,54.58361],[18.49395,54.58345]]}},{"type":"Feature","properties":{"numer":"1517G","klasa":"droga zbiorcza","kat":"powiatowa"},"geometry":{"type":"LineString","coordinates":[[18.49407,54.58361],[18.49406,54.5839]]}},{"type":"Feature","properties":{"numer":"134029G","klasa":"droga dojazdowa","kat":"powiatowa"},"geometry":{"type":"LineString","coordinates":[[18.467,54.58502],[18.46841,54.58334],[18.46889,54.5825]]}},{"type":"Feature","properties":{"numer":"134029G","klasa":"droga dojazdowa","kat":"powiatowa"},"geometry":{"type":"LineString","coordinates":[[18.46635,54.5858],[18.467,54.58502]]}},{"type":"Feature","properties":{"numer":"134029G","klasa":"droga dojazdowa","kat":"powiatowa"},"geometry":{"type":"LineString","coordinates":[[18.46615,54.58604],[18.46635,54.5858]]}},{"type":"Feature","properties":{"numer":"1517G","klasa":"droga zbiorcza","kat":"powiatowa"},"geometry":{"type":"LineString","coordinates":[[18.49406,54.5839],[18.49352,54.5861],[18.49319,54.58819]]}},{"type":"Feature","properties":{"numer":"134029G","klasa":"droga dojazdowa","kat":"powiatowa"},"geometry":{"type":"LineString","coordinates":[[18.46559,54.58673],[18.46615,54.58604]]}},{"type":"Feature","properties":{"numer":"134029G","klasa":"droga dojazdowa","kat":"powiatowa"},"geometry":{"type":"LineString","coordinates":[[18.46533,54.58722],[18.46559,54.58673]]}},{"type":"Feature","properties":{"numer":"134029G","klasa":"droga dojazdowa","kat":"powiatowa"},"geometry":{"type":"LineString","coordinates":[[18.46491,54.58884],[18.46533,54.58722]]}},{"type":"Feature","properties":{"numer":"1517G","klasa":"droga zbiorcza","kat":"powiatowa"},"geometry":{"type":"LineString","coordinates":[[18.49319,54.58819],[18.49305,54.58877]]}},{"type":"Feature","properties":{"numer":"1517G","klasa":"droga zbiorcza","kat":"powiatowa"},"geometry":{"type":"LineString","coordinates":[[18.49305,54.58877],[18.49302,54.58885]]}},{"type":"Feature","properties":{"numer":"1519G","klasa":"","kat":"powiatowa"},"geometry":{"type":"LineString","coordinates":[[18.49302,54.58885],[18.49288,54.58887]]}},{"type":"Feature","properties":{"numer":"1517G","klasa":"droga zbiorcza","kat":"powiatowa"},"geometry":{"type":"LineString","coordinates":[[18.49302,54.58885],[18.49311,54.58892]]}},{"type":"Feature","properties":{"numer":"1519G","klasa":"","kat":"powiatowa"},"geometry":{"type":"LineString","coordinates":[[18.49288,54.58887],[18.49232,54.58892]]}},{"type":"Feature","properties":{"numer":"1517G","klasa":"droga zbiorcza","kat":"powiatowa"},"geometry":{"type":"LineString","coordinates":[[18.49311,54.58892],[18.49353,54.58918]]}},{"type":"Feature","properties":{"numer":"134029G","klasa":"droga dojazdowa","kat":"powiatowa"},"geometry":{"type":"LineString","coordinates":[[18.46472,54.58955],[18.46491,54.58884]]}},{"type":"Feature","properties":{"numer":"134029G","klasa":"droga dojazdowa","kat":"powiatowa"},"geometry":{"type":"LineString","coordinates":[[18.46465,54.58978],[18.46472,54.58955]]}},{"type":"Feature","properties":{"numer":"1519G","klasa":"","kat":"powiatowa"},"geometry":{"type":"LineString","coordinates":[[18.46865,54.59062],[18.47088,54.59068],[18.47482,54.59041],[18.47598,54.59025],[18.47816,54.58965],[18.48238,54.58924],[18.4886,54.58897],[18.49232,54.58892]]}},{"type":"Feature","properties":{"numer":"134029G","klasa":"droga dojazdowa","kat":"powiatowa"},"geometry":{"type":"LineString","coordinates":[[18.46456,54.59072],[18.46465,54.58978]]}},{"type":"Feature","properties":{"numer":"1519G","klasa":"","kat":"powiatowa"},"geometry":{"type":"LineString","coordinates":[[18.46792,54.59054],[18.46827,54.59055]]}},{"type":"Feature","properties":{"numer":"1519G","klasa":"","kat":"powiatowa"},"geometry":{"type":"LineString","coordinates":[[18.46755,54.59058],[18.46792,54.59054]]}},{"type":"Feature","properties":{"numer":"1519G","klasa":"","kat":"powiatowa"},"geometry":{"type":"LineString","coordinates":[[18.46827,54.59055],[18.46865,54.59062]]}},{"type":"Feature","properties":{"numer":"1519G","klasa":"","kat":"powiatowa"},"geometry":{"type":"LineString","coordinates":[[18.46459,54.59128],[18.46668,54.59072],[18.46755,54.59058]]}},{"type":"Feature","properties":{"numer":"134029G","klasa":"droga dojazdowa","kat":"powiatowa"},"geometry":{"type":"LineString","coordinates":[[18.46459,54.59128],[18.46456,54.59072]]}},{"type":"Feature","properties":{"numer":"1517G","klasa":"droga zbiorcza","kat":"powiatowa"},"geometry":{"type":"LineString","coordinates":[[18.49353,54.58918],[18.50052,54.59303],[18.5005,54.59456],[18.49987,54.59664]]}},{"type":"Feature","properties":{"numer":"1490G","klasa":"droga zbiorcza","kat":"powiatowa"},"geometry":{"type":"LineString","coordinates":[[18.49944,54.59673],[18.49987,54.59664]]}},{"type":"Feature","properties":{"numer":"1490G","klasa":"droga zbiorcza","kat":"powiatowa"},"geometry":{"type":"LineString","coordinates":[[18.45331,54.60468],[18.46424,54.6045],[18.47374,54.60476],[18.47557,54.60453],[18.47803,54.604],[18.48268,54.60344],[18.48315,54.60327],[18.48456,54.60218],[18.48633,54.60003],[18.48653,54.59925],[18.48688,54.59896],[18.48852,54.59854],[18.49121,54.59817],[18.4942,54.59791],[18.49591,54.59697],[18.4963,54.59692],[18.49873,54.5971],[18.49944,54.59673]]}},{"type":"Feature","properties":{"numer":"1517G","klasa":"droga zbiorcza","kat":"powiatowa"},"geometry":{"type":"LineString","coordinates":[[18.49987,54.59664],[18.4969,54.60522],[18.49622,54.60839]]}},{"type":"Feature","properties":{"numer":"1517G","klasa":"droga zbiorcza","kat":"powiatowa"},"geometry":{"type":"LineString","coordinates":[[18.49622,54.60839],[18.49571,54.6109],[18.49575,54.61126],[18.49597,54.61164]]}},{"type":"Feature","properties":{"numer":"1517G","klasa":"droga zbiorcza","kat":"powiatowa"},"geometry":{"type":"LineString","coordinates":[[18.49597,54.61164],[18.49601,54.61169]]}},{"type":"Feature","properties":{"numer":"1517G","klasa":"droga zbiorcza","kat":"powiatowa"},"geometry":{"type":"LineString","coordinates":[[18.49601,54.61169],[18.4962,54.61206],[18.49598,54.61332],[18.4969,54.63164],[18.49725,54.63182],[18.49831,54.63204],[18.50128,54.63214],[18.50785,54.63262],[18.50829,54.63262],[18.51054,54.63226]]}},{"type":"Feature","properties":{"numer":"134809G","klasa":"droga dojazdowa","kat":"powiatowa"},"geometry":{"type":"LineString","coordinates":[[18.51054,54.63226],[18.51053,54.63243]]}},{"type":"Feature","properties":{"numer":"1608G","klasa":"droga zbiorcza","kat":"powiatowa"},"geometry":{"type":"LineString","coordinates":[[18.53502,54.58248],[18.53510405797101,54.58231188405797]]}},{"type":"Feature","properties":{"numer":"1517G","klasa":"droga zbiorcza","kat":"powiatowa"},"geometry":{"type":"LineString","coordinates":[[18.51054,54.63226],[18.51123,54.63217],[18.51196,54.63221]]}},{"type":"Feature","properties":{"numer":"1517G","klasa":"droga zbiorcza","kat":"powiatowa"},"geometry":{"type":"LineString","coordinates":[[18.51196,54.63221],[18.51264,54.63228]]}},{"type":"Feature","properties":{"numer":"134813G","klasa":"droga dojazdowa","kat":"powiatowa"},"geometry":{"type":"LineString","coordinates":[[18.51264,54.63228],[18.51253,54.63265]]}},{"type":"Feature","properties":{"numer":"134815G","klasa":"droga dojazdowa","kat":"powiatowa"},"geometry":{"type":"LineString","coordinates":[[18.51253,54.63265],[18.51212,54.63265],[18.51163,54.63253],[18.51053,54.63243]]}}]}