{"type":"FeatureCollection","features":[{"type":"Feature","properties":{"numer":"1167G","klasa":"droga zbiorcza","kat":"powiatowa"},"geometry":{"type":"LineString","coordinates":[[17.00763,54.19618],[17.00833,54.19607]]}},{"type":"Feature","properties":{"numer":"1167G","klasa":"droga zbiorcza","kat":"powiatowa"},"geometry":{"type":"LineString","coordinates":[[17.00764,54.19631],[17.00763,54.19618]]}},{"type":"Feature","properties":{"numer":"1163G","klasa":"","kat":"powiatowa"},"geometry":{"type":"LineString","coordinates":[[16.831796883836827,54.098423708318165],[16.8318,54.09843]]}},{"type":"Feature","properties":{"numer":"206","klasa":"droga zbiorcza","kat":"wojewodzka"},"geometry":{"type":"LineString","coordinates":[[16.79916,54.10502],[16.81312,54.10022],[16.819143606637578,54.09827850695152]]}},{"type":"Feature","properties":{"numer":"1162G","klasa":"droga zbiorcza","kat":"powiatowa"},"geometry":{"type":"LineString","coordinates":[[16.84274,54.11993],[16.84933,54.12191],[16.84997,54.12205],[16.85976,54.12284]]}},{"type":"Feature","properties":{"numer":"1163G","klasa":"droga zbiorcza","kat":"powiatowa"},"geometry":{"type":"LineString","coordinates":[[16.84274,54.11993],[16.84234,54.11941],[16.84178,54.11676],[16.83894,54.11177],[16.83827,54.10889],[16.83754,54.10721],[16.83608,54.10476],[16.83229,54.0993],[16.8318,54.09843]]}},{"type":"Feature","properties":{"numer":"206","klasa":"droga gĹ‚Ăłwna","kat":"wojewodzka"},"geometry":{"type":"LineString","coordinates":[[16.799014368932056,54.10507],[16.79916,54.10502]]}},{"type":"Feature","properties":{"numer":"1162G","klasa":"droga zbiorcza","kat":"powiatowa"},"geometry":{"type":"LineString","coordinates":[[16.79350374772505,54.12125662466751],[16.80119,54.12238],[16.80348,54.12304],[16.80445,54.12316],[16.8082,54.12283],[16.817,54.12249],[16.82562,54.12132],[16.82865,54.12107],[16.83161,54.12073],[16.83561,54.11996],[16.83901,54.11942],[16.84091,54.1194],[16.84274,54.11993]]}},{"type":"Feature","properties":{"numer":"1163G","klasa":"droga zbiorcza","kat":"powiatowa"},"geometry":{"type":"LineString","coordinates":[[16.82031,54.16509],[16.82043,54.16484],[16.82833,54.15691],[16.82965,54.15547],[16.83072,54.15384],[16.8309,54.1534],[16.83055,54.14849],[16.83107,54.14723],[16.83131,54.14695],[16.8329,54.14579],[16.83342,54.14518],[16.83428,54.14471],[16.83561,54.14417],[16.83572,54.14406],[16.83758,54.14072],[16.83977,54.13777],[16.84264,54.13322],[16.84294,54.13241],[16.843,54.13181],[16.84238,54.12469],[16.84335,54.1225],[16.84335,54.12228],[16.84274,54.11993]]}},{"type":"Feature","properties":{"numer":"3558Z","klasa":"","kat":"powiatowa"},"geometry":{"type":"LineString","coordinates":[[16.775416666666672,54.14701666666667],[16.77568,54.14712]]}},{"type":"Feature","properties":{"numer":"1160G","klasa":"droga zbiorcza","kat":"powiatowa"},"geometry":{"type":"LineString","coordinates":[[16.78016,54.15375],[16.78019,54.15337],[16.78061,54.15272],[16.78059,54.15236],[16.78027,54.15183],[16.77869,54.15076],[16.7784,54.15049],[16.77831,54.15023],[16.77834,54.14875]]}},{"type":"Feature","properties":{"numer":"1160G","klasa":"droga zbiorcza","kat":"powiatowa"},"geometry":{"type":"LineString","coordinates":[[16.77588,54.16106],[16.78126,54.15615],[16.78126,54.15565],[16.78016,54.15375]]}},{"type":"Feature","properties":{"numer":"1161G","klasa":"droga zbiorcza","kat":"powiatowa"},"geometry":{"type":"LineString","coordinates":[[16.77588,54.16106],[16.7774,54.16226],[16.77928,54.1627],[16.77976,54.16274],[16.78201,54.1625],[16.78366,54.16223],[16.78815,54.16113],[16.78864,54.16106],[16.7926,54.16096],[16.80421,54.16131],[16.81205,54.16299],[16.81902,54.16317],[16.81935,54.16337],[16.8199,54.16412],[16.82031,54.16509]]}},{"type":"Feature","properties":{"numer":"208","klasa":"droga zbiorcza","kat":"wojewodzka"},"geometry":{"type":"LineString","coordinates":[[16.76819,54.16613],[16.76897,54.16642],[16.77424,54.16986],[16.7745,54.1703],[16.77442,54.17145],[16.7745,54.17203],[16.77473,54.17253],[16.77505,54.17282],[16.7852,54.17805],[16.78797,54.18033],[16.79371,54.18301],[16.79388,54.18319],[16.79396,54.18364],[16.79377,54.1859],[16.79394,54.18634],[16.79666,54.19083],[16.7981,54.19212],[16.79865,54.19243],[16.80036,54.19304],[16.80199,54.19319],[16.80638,54.19338],[16.81168,54.19596],[16.81223,54.19648],[16.81286,54.19829],[16.81725,54.20415],[16.8241,54.20963],[16.82461,54.20981],[16.82626,54.21002]]}},{"type":"Feature","properties":{"numer":"1162G","klasa":"droga zbiorcza","kat":"powiatowa"},"geometry":{"type":"LineString","coordinates":[[16.85976,54.12284],[16.86172,54.12306],[16.86453,54.1238],[16.86506,54.12383],[16.86596,54.12373]]}},{"type":"Feature","properties":{"numer":"1162G","klasa":"droga zbiorcza","kat":"powiatowa"},"geometry":{"type":"LineString","coordinates":[[16.86596,54.12373],[16.86631,54.12368]]}},{"type":"Feature","properties":{"numer":"1162G","klasa":"droga zbiorcza","kat":"powiatowa"},"geometry":{"type":"LineString","coordinates":[[16.86631,54.12368],[16.87059,54.12315],[16.87402,54.12414],[16.87672,54.12476],[16.87764,54.12492],[16.88135,54.12527],[16.88392,54.12595],[16.88498,54.12616],[16.88706,54.12676],[16.88865,54.12691],[16.88921,54.12712],[16.89,54.12774],[16.89081,54.12886],[16.89287,54.13028],[16.89349,54.13063],[16.89497,54.13114],[16.89666,54.13197],[16.89787,54.13355],[16.8986,54.13544],[16.89856,54.14023],[16.8994,54.14157],[16.90132,54.14422]]}},{"type":"Feature","properties":{"numer":"1161G","klasa":"droga zbiorcza","kat":"powiatowa"},"geometry":{"type":"LineString","coordinates":[[16.82031,54.16509],[16.8208,54.16644],[16.82092,54.16724],[16.82085,54.16788],[16.82104,54.16838],[16.82154,54.16871],[16.82291,54.1691],[16.82382,54.1692],[16.84134,54.17008],[16.84215,54.17017],[16.84263,54.1703],[16.84339,54.17066],[16.84756,54.1732],[16.84858,54.17374],[16.85123,54.17447],[16.85218,54.17465],[16.85797,54.17472],[16.86153,54.17402],[16.86275,54.17401],[16.86414,54.17413],[16.86767,54.17484],[16.87471,54.17586]]}},{"type":"Feature","properties":{"numer":"1147G","klasa":"droga zbiorcza","kat":"powiatowa"},"geometry":{"type":"LineString","coordinates":[[16.88743,54.16986],[16.88474,54.17083],[16.88286,54.1719],[16.88192,54.17283],[16.88052,54.1751],[16.8799,54.17563],[16.87935,54.17578],[16.87893,54.17577],[16.87562,54.17533],[16.87522,54.17542],[16.87471,54.17586]]}},{"type":"Feature","properties":{"numer":"1165G","klasa":"droga zbiorcza","kat":"powiatowa"},"geometry":{"type":"LineString","coordinates":[[16.88897,54.18455],[16.88763,54.18134],[16.88749,54.18056],[16.88751,54.17763],[16.88702,54.17599],[16.88699,54.17449],[16.88677,54.17309],[16.88694,54.17264],[16.88754,54.17194],[16.88743,54.16986]]}},{"type":"Feature","properties":{"numer":"1167G","klasa":"droga zbiorcza","kat":"powiatowa"},"geometry":{"type":"LineString","coordinates":[[16.8894,54.18465],[16.88897,54.18455]]}},{"type":"Feature","properties":{"numer":"1165G","klasa":"droga zbiorcza","kat":"powiatowa"},"geometry":{"type":"LineString","coordinates":[[16.88908,54.18481],[16.88897,54.18455]]}},{"type":"Feature","properties":{"numer":"1167G","klasa":"droga zbiorcza","kat":"powiatowa"},"geometry":{"type":"LineString","coordinates":[[16.88908,54.18481],[16.8894,54.18465]]}},{"type":"Feature","properties":{"numer":"1164G","klasa":"droga zbiorcza","kat":"powiatowa"},"geometry":{"type":"LineString","coordinates":[[16.87471,54.17586],[16.87482,54.17608],[16.8751,54.18013],[16.87534,54.18882],[16.87584,54.1931],[16.87922,54.19301],[16.88013,54.19317],[16.88282,54.19388],[16.88707,54.1934]]}},{"type":"Feature","properties":{"numer":"1169G","klasa":"droga zbiorcza","kat":"powiatowa"},"geometry":{"type":"LineString","coordinates":[[16.91821,54.14416],[16.9202,54.14515],[16.92835,54.14806],[16.92915,54.14818],[16.93354792739234,54.148110191628696]]}},{"type":"Feature","properties":{"numer":"1147G","klasa":"droga zbiorcza","kat":"powiatowa"},"geometry":{"type":"LineString","coordinates":[[16.91821,54.14416],[16.9171,54.14526],[16.91606,54.14728],[16.91563,54.1477],[16.91493,54.14798],[16.91043,54.14916],[16.90837,54.15032]]}},{"type":"Feature","properties":{"numer":"1162G","klasa":"droga zbiorcza","kat":"powiatowa"},"geometry":{"type":"LineString","coordinates":[[16.90132,54.14422],[16.90291,54.14706],[16.90337,54.14765],[16.90436,54.14836],[16.90837,54.15032]]}},{"type":"Feature","properties":{"numer":"1147G","klasa":"droga zbiorcza","kat":"powiatowa"},"geometry":{"type":"LineString","coordinates":[[16.90837,54.15032],[16.90783,54.15074],[16.90777,54.15105],[16.90906,54.15508],[16.90914,54.15595],[16.90818,54.15876],[16.90741,54.16029],[16.90705,54.16218],[16.90594,54.16445],[16.90528,54.16552],[16.90498,54.16566],[16.90454,54.16575],[16.9022,54.16584]]}},{"type":"Feature","properties":{"numer":"1147G","klasa":"droga zbiorcza","kat":"powiatowa"},"geometry":{"type":"LineString","coordinates":[[16.9022,54.16584],[16.90197,54.16584]]}},{"type":"Feature","properties":{"numer":"1147G","klasa":"droga zbiorcza","kat":"powiatowa"},"geometry":{"type":"LineString","coordinates":[[16.90197,54.16584],[16.89942,54.16593],[16.89872,54.16605],[16.88743,54.16986]]}},{"type":"Feature","properties":{"numer":"1167G","klasa":"droga zbiorcza","kat":"powiatowa"},"geometry":{"type":"LineString","coordinates":[[16.90055,54.18201],[16.90079,54.18217]]}},{"type":"Feature","properties":{"numer":"1167G","klasa":"droga zbiorcza","kat":"powiatowa"},"geometry":{"type":"LineString","coordinates":[[16.8894,54.18465],[16.8934,54.18457],[16.89414,54.1845],[16.89478,54.18418],[16.898,54.18177],[16.89839,54.18168],[16.89964,54.18168],[16.90004,54.18174],[16.90055,54.18201]]}},{"type":"Feature","properties":{"numer":"208","klasa":"droga zbiorcza","kat":"wojewodzka"},"geometry":{"type":"LineString","coordinates":[[16.89533,54.24005],[16.8949,54.24015]]}},{"type":"Feature","properties":{"numer":"1147G","klasa":"droga zbiorcza","kat":"powiatowa"},"geometry":{"type":"LineString","coordinates":[[16.93259227217072,54.13254103375897],[16.932465614035088,54.13306228070175]]}},{"type":"Feature","properties":{"numer":"1147G","klasa":"droga zbiorcza","kat":"powiatowa"},"geometry":{"type":"LineString","coordinates":[[16.932012041743814,54.13387604275374],[16.93033,54.13527],[16.92793,54.13684],[16.92448,54.13817],[16.92379,54.13855],[16.92082,54.14168],[16.91821,54.14416]]}},{"type":"Feature","properties":{"numer":"1167G","klasa":"droga zbiorcza","kat":"powiatowa"},"geometry":{"type":"LineString","coordinates":[[16.90079,54.18217],[16.90145,54.18254],[16.90376,54.18339],[16.90413,54.18345],[16.90638,54.18339],[16.91448,54.18294],[16.91492,54.18297],[16.91752,54.18351],[16.91815,54.18352],[16.91959,54.18337],[16.92031,54.18343],[16.9211,54.18364],[16.92149,54.18384],[16.92308,54.18534],[16.92362,54.18567],[16.92415,54.18573],[16.92639,54.18555],[16.92753,54.18573],[16.92837,54.18615],[16.92929,54.18699],[16.92981,54.18731],[16.93105,54.18761],[16.93369,54.18805],[16.93451,54.18835],[16.93578,54.18901],[16.93563,54.19007],[16.93584,54.1902],[16.93652,54.19026],[16.93853,54.18989],[16.93928,54.18997],[16.94075,54.19049],[16.9434,54.19165],[16.94699,54.19223],[16.94737,54.19248],[16.94971,54.19502],[16.94988,54.19536],[16.9497,54.19583],[16.94979,54.19607],[16.95342,54.19918],[16.95424,54.19948],[16.9605,54.20308],[16.96121,54.20337],[16.96219,54.20363],[16.96261,54.20365],[16.96436,54.2034],[16.9654,54.2034],[16.96793,54.20313],[16.97217,54.20213],[16.97861,54.20112],[16.97985,54.20114],[16.98291,54.20139],[16.98547,54.2014],[16.98692,54.2013],[16.99058,54.20019],[16.99583,54.19874],[16.99913,54.19825],[17.00275,54.19793],[17.00356,54.19793],[17.00468,54.19809],[17.00568,54.19804],[17.00633,54.19784],[17.00687,54.19749],[17.00764,54.19631]]}},{"type":"Feature","properties":{"numer":"208","klasa":"droga zbiorcza","kat":"wojewodzka"},"geometry":{"type":"LineString","coordinates":[[16.93905,54.25607],[16.94154,54.25786],[16.94387,54.26001],[16.94413,54.26043],[16.94459,54.26249],[16.94476,54.26284],[16.94711,54.26578],[16.95377,54.26933],[16.95772,54.27157],[16.95829,54.27197],[16.95905,54.27259],[16.95962,54.27328],[16.95974,54.27374],[16.95977,54.27497],[16.96004,54.27538],[16.96046,54.27575]]}},{"type":"Feature","properties":{"numer":"209","klasa":"droga zbiorcza","kat":"wojewodzka"},"geometry":{"type":"LineString","coordinates":[[16.96432,54.27692],[16.96607,54.27663],[16.96917,54.27576],[16.97562,54.27491],[16.97896,54.27419],[16.98115,54.27399],[16.98513,54.27257],[16.98778,54.27144],[16.99273,54.27038],[16.99636,54.26917],[16.99853,54.26859],[16.99946,54.26847],[17.00114,54.26871],[17.00185,54.26871],[17.00225,54.26862],[17.00279,54.26837],[17.00409,54.26732]]}},{"type":"Feature","properties":{"numer":"208","klasa":"droga zbiorcza","kat":"wojewodzka"},"geometry":{"type":"LineString","coordinates":[[16.96046,54.27575],[16.9618,54.27631],[16.96219,54.2768]]}},{"type":"Feature","properties":{"numer":"208","klasa":"droga zbiorcza","kat":"wojewodzka"},"geometry":{"type":"LineString","coordinates":[[16.96219,54.2768],[16.96432,54.27692]]}},{"type":"Feature","properties":{"numer":"208","klasa":"droga zbiorcza","kat":"wojewodzka"},"geometry":{"type":"LineString","coordinates":[[16.96219,54.2768],[16.96226,54.27733]]}},{"type":"Feature","properties":{"numer":"209","klasa":"droga zbiorcza","kat":"wojewodzka"},"geometry":{"type":"LineString","coordinates":[[16.96226,54.27733],[16.96432,54.27692]]}},{"type":"Feature","properties":{"numer":"209","klasa":"droga zbiorcza","kat":"wojewodzka"},"geometry":{"type":"LineString","coordinates":[[16.95738,54.28176],[16.95791,54.28129],[16.95855,54.27997],[16.96051,54.27809],[16.96136,54.27747],[16.96226,54.27733]]}},{"type":"Feature","properties":{"numer":"1165G","klasa":"droga zbiorcza","kat":"powiatowa"},"geometry":{"type":"LineString","coordinates":[[16.88762,54.19334],[16.88812,54.19248],[16.8889,54.19013],[16.89019,54.18801],[16.88999,54.18662],[16.88908,54.18481]]}},{"type":"Feature","properties":{"numer":"1147G","klasa":"droga zbiorcza","kat":"powiatowa"},"geometry":{"type":"LineString","coordinates":[[16.87471,54.17586],[16.87368,54.17678],[16.87257,54.17742],[16.83943,54.19335],[16.83897,54.19378],[16.83874,54.19424],[16.83727,54.20055],[16.83636,54.20207],[16.83579,54.20265],[16.82756,54.20927],[16.82626,54.21002]]}},{"type":"Feature","properties":{"numer":"1164G","klasa":"droga zbiorcza","kat":"powiatowa"},"geometry":{"type":"LineString","coordinates":[[16.88707,54.1934],[16.88762,54.19334]]}},{"type":"Feature","properties":{"numer":"1165G","klasa":"droga zbiorcza","kat":"powiatowa"},"geometry":{"type":"LineString","coordinates":[[16.8875,54.19364],[16.88762,54.19334]]}},{"type":"Feature","properties":{"numer":"1164G","klasa":"droga zbiorcza","kat":"powiatowa"},"geometry":{"type":"LineString","coordinates":[[16.88707,54.1934],[16.8875,54.19364]]}},{"type":"Feature","properties":{"numer":"1165G","klasa":"droga zbiorcza","kat":"powiatowa"},"geometry":{"type":"LineString","coordinates":[[16.89049,54.23586],[16.8919,54.23541],[16.89226,54.23516],[16.89244,54.23488],[16.89636,54.22377],[16.89656,54.22233],[16.89643,54.21931],[16.89715,54.21698],[16.89717,54.21613],[16.89677,54.21493],[16.89488,54.21226],[16.89466,54.21081],[16.89446,54.21039],[16.89305,54.20916],[16.89119,54.20699],[16.8907,54.20629],[16.88995,54.20484],[16.8881,54.20245],[16.88809,54.20171],[16.88834,54.20109],[16.88833,54.20062],[16.88725,54.19539],[16.8875,54.19364]]}},{"type":"Feature","properties":{"numer":"208","klasa":"droga zbiorcza","kat":"wojewodzka"},"geometry":{"type":"LineString","coordinates":[[16.85715,54.22242],[16.85735,54.22248],[16.85753,54.22271],[16.85785,54.22339],[16.85806,54.22346]]}},{"type":"Feature","properties":{"numer":"208","klasa":"droga zbiorcza","kat":"wojewodzka"},"geometry":{"type":"LineString","coordinates":[[16.85806,54.22346],[16.85836,54.22348],[16.8602,54.22322],[16.87012,54.22168],[16.87124,54.22174],[16.87212,54.22196],[16.87694,54.22473],[16.88971,54.23348],[16.8901,54.23396],[16.89049,54.23586]]}},{"type":"Feature","properties":{"numer":"208","klasa":"droga zbiorcza","kat":"wojewodzka"},"geometry":{"type":"LineString","coordinates":[[16.89049,54.23586],[16.89019,54.23827]]}},{"type":"Feature","properties":{"numer":"208","klasa":"droga zbiorcza","kat":"wojewodzka"},"geometry":{"type":"LineString","coordinates":[[16.89118,54.23844],[16.89019,54.23827]]}},{"type":"Feature","properties":{"numer":"1147G","klasa":"droga zbiorcza","kat":"powiatowa"},"geometry":{"type":"LineString","coordinates":[[16.82626,54.21002],[16.8198,54.21334],[16.81173,54.21586],[16.81113,54.21595],[16.80756,54.21603],[16.80324,54.21591],[16.80258,54.21597],[16.8016,54.21634]]}},{"type":"Feature","properties":{"numer":"208","klasa":"droga zbiorcza","kat":"wojewodzka"},"geometry":{"type":"LineString","coordinates":[[16.82626,54.21002],[16.8282,54.21029],[16.82947,54.2103],[16.83025,54.21055],[16.83087,54.21088],[16.83281,54.21224],[16.84272,54.22124],[16.84348,54.22185],[16.84389,54.22205],[16.84471,54.22233],[16.84718,54.22286],[16.84927,54.22316],[16.85061,54.22325],[16.85207,54.22324],[16.8539,54.22311],[16.8568,54.22242],[16.85715,54.22242]]}},{"type":"Feature","properties":{"numer":"1147G","klasa":"droga zbiorcza","kat":"powiatowa"},"geometry":{"type":"LineString","coordinates":[[16.78618,54.22395],[16.8016,54.21634]]}},{"type":"Feature","properties":{"numer":"1147G","klasa":"droga zbiorcza","kat":"powiatowa"},"geometry":{"type":"LineString","coordinates":[[16.77823,54.22786],[16.78618,54.22395]]}},{"type":"Feature","properties":{"numer":"208","klasa":"droga zbiorcza","kat":"wojewodzka"},"geometry":{"type":"LineString","coordinates":[[16.89533,54.24005],[16.89591,54.24002],[16.89651,54.24022],[16.89779,54.24136],[16.90431,54.24578],[16.90511,54.24646],[16.90531,54.24709],[16.90573,54.24751],[16.91026,54.2497],[16.91121,54.25006]]}},{"type":"Feature","properties":{"numer":"208","klasa":"droga zbiorcza","kat":"wojewodzka"},"geometry":{"type":"LineString","coordinates":[[16.91121,54.25006],[16.91133,54.25011]]}},{"type":"Feature","properties":{"numer":"208","klasa":"droga zbiorcza","kat":"wojewodzka"},"geometry":{"type":"LineString","coordinates":[[16.91133,54.25011],[16.91285,54.2506],[16.91547,54.251],[16.91638,54.251],[16.91971,54.25068],[16.92118,54.25075],[16.9227,54.25109],[16.92941,54.25307],[16.9348,54.25403],[16.93659,54.254],[16.93835,54.25421],[16.93864,54.25436],[16.93866,54.25457],[16.93809,54.25503],[16.93806,54.25532],[16.93905,54.25607]]}},{"type":"Feature","properties":{"numer":"1149G","klasa":"droga zbiorcza","kat":"powiatowa"},"geometry":{"type":"LineString","coordinates":[[16.93905,54.25607],[16.937,54.25736]]}},{"type":"Feature","properties":{"numer":"1149G","klasa":"droga zbiorcza","kat":"powiatowa"},"geometry":{"type":"LineString","coordinates":[[16.93559,54.25838],[16.937,54.25736]]}},{"type":"Feature","properties":{"numer":"1149G","klasa":"droga zbiorcza","kat":"powiatowa"},"geometry":{"type":"LineString","coordinates":[[16.92491,54.26843],[16.93149,54.26281],[16.93412,54.25969],[16.93559,54.25838]]}},{"type":"Feature","properties":{"numer":"1149G","klasa":"droga zbiorcza","kat":"powiatowa"},"geometry":{"type":"LineString","coordinates":[[16.92151,54.27036],[16.92295,54.27011],[16.92491,54.26843]]}},{"type":"Feature","properties":{"numer":"1149G","klasa":"droga zbiorcza","kat":"powiatowa"},"geometry":{"type":"LineString","coordinates":[[16.92079,54.27121],[16.92151,54.27036]]}},{"type":"Feature","properties":{"numer":"1149G","klasa":"droga zbiorcza","kat":"powiatowa"},"geometry":{"type":"LineString","coordinates":[[16.92079,54.27121],[16.92091,54.27272],[16.92412,54.27316],[16.9375,54.27366],[16.94545,54.27479],[16.94962,54.27547],[16.95136,54.27563],[16.95309,54.27602],[16.95507,54.2758],[16.95974,54.2758],[16.96046,54.27575]]}},{"type":"Feature","properties":{"numer":"209","klasa":"droga zbiorcza","kat":"wojewodzka"},"geometry":{"type":"LineString","coordinates":[[16.87562,54.30573],[16.87605,54.30456],[16.87656,54.30413],[16.88063,54.30175],[16.88425,54.29947],[16.88798,54.29754],[16.90508,54.28908],[16.9061,54.28886],[16.9071,54.28882],[16.91018,54.28927],[16.91127,54.28935],[16.91469,54.28889],[16.91662,54.28876],[16.91799,54.28896],[16.91888,54.28964],[16.91933,54.28986],[16.92067,54.29008],[16.92147,54.29012],[16.92185,54.29003],[16.92398,54.28912],[16.9251,54.28874],[16.93167,54.28737],[16.93739,54.28637],[16.94117,54.28532],[16.94198,54.28521],[16.94633,54.28492],[16.95329,54.28388],[16.95391,54.28364],[16.95517,54.28285],[16.95738,54.28176]]}},{"type":"Feature","properties":{"numer":"208","klasa":"droga zbiorcza","kat":"wojewodzka"},"geometry":{"type":"LineString","coordinates":[[16.89019,54.23827],[16.89016,54.23851]]}},{"type":"Feature","properties":{"numer":"159519G","klasa":"droga lokalna","kat":"powiatowa"},"geometry":{"type":"LineString","coordinates":[[16.89016,54.23851],[16.89016,54.23855]]}},{"type":"Feature","properties":{"numer":"159519G","klasa":"droga lokalna","kat":"powiatowa"},"geometry":{"type":"LineString","coordinates":[[16.89016,54.23855],[16.88996,54.23979]]}},{"type":"Feature","properties":{"numer":"208","klasa":"droga zbiorcza","kat":"wojewodzka"},"geometry":{"type":"LineString","coordinates":[[16.8949,54.24015],[16.89363,54.24024],[16.89256,54.23998],[16.89217,54.2397],[16.89201,54.23944],[16.892,54.23874],[16.8919,54.23857],[16.89118,54.23844]]}},{"type":"Feature","properties":{"numer":"159519G","klasa":"droga lokalna","kat":"powiatowa"},"geometry":{"type":"LineString","coordinates":[[16.88996,54.23979],[16.88972,54.24049]]}},{"type":"Feature","properties":{"numer":"1196G","klasa":"droga zbiorcza","kat":"powiatowa"},"geometry":{"type":"LineString","coordinates":[[16.88972,54.24049],[16.8894,54.24121],[16.88912,54.24303],[16.88922,54.24343],[16.88967,54.24404],[16.88944,54.24532],[16.88949,54.24665]]}},{"type":"Feature","properties":{"numer":"1196G","klasa":"droga zbiorcza","kat":"powiatowa"},"geometry":{"type":"LineString","coordinates":[[16.88949,54.24665],[16.88977,54.24773]]}},{"type":"Feature","properties":{"numer":"209","klasa":"droga zbiorcza","kat":"wojewodzka"},"geometry":{"type":"LineString","coordinates":[[16.87562,54.30573],[16.87559,54.30582]]}},{"type":"Feature","properties":{"numer":"209","klasa":"droga zbiorcza","kat":"wojewodzka"},"geometry":{"type":"LineString","coordinates":[[16.87559,54.30582],[16.87524,54.30741],[16.87488,54.30797],[16.87516,54.30872],[16.874678825505413,54.31385472508608]]}},{"type":"Feature","properties":{"numer":"1160G","klasa":"droga zbiorcza","kat":"powiatowa"},"geometry":{"type":"LineString","coordinates":[[16.76819,54.16613],[16.77129,54.16517],[16.77588,54.16106]]}},{"type":"Feature","properties":{"numer":"208","klasa":"droga zbiorcza","kat":"wojewodzka"},"geometry":{"type":"LineString","coordinates":[[16.76065,54.16833],[16.76113,54.16827],[16.76244,54.16778],[16.76711,54.16633],[16.76782,54.16613],[16.76819,54.16613]]}},{"type":"Feature","properties":{"numer":"208","klasa":"droga zbiorcza","kat":"wojewodzka"},"geometry":{"type":"LineString","coordinates":[[16.75354132518853,54.16668075635192],[16.75995,54.16822],[16.76065,54.16833]]}},{"type":"Feature","properties":{"numer":"1146G","klasa":"droga zbiorcza","kat":"powiatowa"},"geometry":{"type":"LineString","coordinates":[[16.76622,54.21856],[16.76624,54.2182],[16.76703,54.2172],[16.76756,54.2156],[16.76574,54.21532],[16.76532,54.21518],[16.76509,54.21487],[16.76493,54.21371],[16.76654,54.20681],[16.76687,54.20239],[16.76678,54.20167],[16.76656,54.20124],[16.76559,54.19996],[16.76519,54.19795],[16.76403,54.1957],[16.76347,54.19527],[16.76002,54.19327],[16.75978,54.19303],[16.75969,54.19268],[16.75973,54.19228],[16.76009,54.19163],[16.76188,54.18994],[16.76253,54.18915],[16.76274,54.18875],[16.76313,54.18741],[16.76333,54.18593],[16.7639,54.18504],[16.76409,54.18442],[16.76489,54.17916],[16.76475,54.17889],[16.76174,54.17579],[16.75923,54.17167],[16.75928,54.17121],[16.76065,54.16833]]}},{"type":"Feature","properties":{"numer":"1146G","klasa":"droga zbiorcza","kat":"powiatowa"},"geometry":{"type":"LineString","coordinates":[[16.76623,54.2186],[16.76622,54.21856]]}},{"type":"Feature","properties":{"numer":"1146G","klasa":"droga zbiorcza","kat":"powiatowa"},"geometry":{"type":"LineString","coordinates":[[16.77823,54.22786],[16.76922,54.22344],[16.76847,54.2223],[16.76695,54.22061],[16.76594,54.21994],[16.76595,54.21957],[16.76628,54.21893],[16.76623,54.2186]]}},{"type":"Feature","properties":{"numer":"1147G","klasa":"droga zbiorcza","kat":"powiatowa"},"geometry":{"type":"LineString","coordinates":[[16.75257,54.23464],[16.75375,54.23421],[16.75602,54.23311],[16.75756,54.2327],[16.76258,54.23219],[16.76652,54.23217],[16.76794,54.2319],[16.77462,54.22956],[16.77823,54.22786]]}},{"type":"Feature","properties":{"numer":"3552Z","klasa":"droga zbiorcza","kat":"powiatowa"},"geometry":{"type":"LineString","coordinates":[[16.752537862495316,54.23465232671413],[16.75257,54.23464]]}},{"type":"Feature","properties":{"numer":"1167G","klasa":"","kat":"powiatowa"},"geometry":{"type":"LineString","coordinates":[[17.00833,54.19607],[17.00847631084355,54.19606098083841]]}},{"type":"Feature","properties":{"numer":"209","klasa":"droga zbiorcza","kat":"wojewodzka"},"geometry":{"type":"LineString","coordinates":[[17.01167,54.26728],[17.01227,54.2675],[17.01237,54.26785],[17.01196,54.26813],[17.0102,54.2687],[17.01013,54.26908],[17.01077,54.26941],[17.01406,54.27019],[17.0206,54.26996],[17.02285,54.26965],[17.022988853691274,54.269586083221476]]}},{"type":"Feature","properties":{"numer":"1166G","klasa":"droga zbiorcza","kat":"powiatowa"},"geometry":{"type":"LineString","coordinates":[[16.99975,54.24194],[16.99929,54.23872],[16.99825,54.23483],[17.00004,54.23191],[17.0004,54.22866],[17.00136,54.22677],[17.00185,54.22499],[17.00471,54.21085],[17.00608,54.20852],[17.00646,54.20589],[17.00693,54.20427],[17.00724,54.20375],[17.00844,54.20236],[17.00863,54.20191],[17.00794,54.1988],[17.00808,54.19729],[17.00764,54.19631]]}},{"type":"Feature","properties":{"numer":"1166G","klasa":"droga zbiorcza","kat":"powiatowa"},"geometry":{"type":"LineString","coordinates":[[17.00684,54.25596],[17.00543,54.25497],[17.00469,54.25414],[17.00467,54.25168],[17.00009,54.24325],[16.99975,54.24194]]}},{"type":"Feature","properties":{"numer":"1166G","klasa":"droga zbiorcza","kat":"powiatowa"},"geometry":{"type":"LineString","coordinates":[[17.00409,54.26732],[17.00397,54.26621],[17.00519,54.26461],[17.00594,54.26398],[17.00986,54.26167],[17.01084,54.26086],[17.01148,54.26002],[17.01144,54.25978],[17.01118,54.25964],[17.00893,54.25915],[17.00869,54.25856],[17.00881,54.25756],[17.00869,54.25721],[17.00834,54.2568],[17.00684,54.25596]]}},{"type":"Feature","properties":{"numer":"209","klasa":"droga zbiorcza","kat":"wojewodzka"},"geometry":{"type":"LineString","coordinates":[[17.00409,54.26732],[17.00509,54.26652],[17.00563,54.26634],[17.00973,54.2669],[17.01149,54.26723]]}},{"type":"Feature","properties":{"numer":"209","klasa":"droga zbiorcza","kat":"wojewodzka"},"geometry":{"type":"LineString","coordinates":[[17.01149,54.26723],[17.01167,54.26728]]}},{"type":"Feature","properties":{"numer":"1157G","klasa":"droga zbiorcza","kat":"powiatowa"},"geometry":{"type":"LineString","coordinates":[[16.962231597963314,54.31028265257725],[16.96254,54.30931],[16.96134,54.30075],[16.9604,54.29251],[16.96071,54.28929],[16.96055,54.28897],[16.95967,54.28802],[16.95946,54.2876],[16.95852,54.28499],[16.95773,54.28213],[16.95738,54.28176]]}}]}