{"type":"FeatureCollection","features":[{"type":"Feature","properties":{"numer":"1201G","klasa":"droga zbiorcza","kat":"powiatowa"},"geometry":{"type":"LineString","coordinates":[[17.36516,54.24841],[17.36512864321608,54.2480964321608]]}},{"type":"Feature","properties":{"numer":"1201G","klasa":"droga zbiorcza","kat":"powiatowa"},"geometry":{"type":"LineString","coordinates":[[17.36516,54.24841],[17.36519,54.24854]]}},{"type":"Feature","properties":{"numer":"1201G","klasa":"droga zbiorcza","kat":"powiatowa"},"geometry":{"type":"LineString","coordinates":[[17.3746,54.29503],[17.37454,54.29348],[17.3742,54.29207],[17.37323,54.29069],[17.37255,54.29028],[17.3715,54.28994],[17.37071,54.28941],[17.37015,54.28895],[17.36896,54.28744],[17.36882,54.28711],[17.36906,54.28629],[17.36903,54.28592],[17.36826,54.28472],[17.36652,54.28286],[17.36584,54.28067],[17.36593,54.28018],[17.36776,54.27723],[17.3683,54.27432],[17.36853,54.27241],[17.36798,54.26922],[17.36694,54.26688],[17.36678,54.26586],[17.36629,54.26485],[17.36633,54.26449],[17.36676,54.26381],[17.3667,54.26271],[17.36641,54.26089],[17.36561,54.25814],[17.36636,54.2519],[17.36519,54.24854]]}},{"type":"Feature","properties":{"numer":"1200G,1201G","klasa":"droga zbiorcza","kat":"powiatowa"},"geometry":{"type":"LineString","coordinates":[[17.37393,54.29555],[17.37415,54.2953],[17.3746,54.29503]]}},{"type":"Feature","properties":{"numer":"1200G","klasa":"droga zbiorcza","kat":"powiatowa"},"geometry":{"type":"LineString","coordinates":[[17.37393,54.29555],[17.36762,54.29525],[17.346062472500247,54.2952799965596]]}},{"type":"Feature","properties":{"numer":"1199G","klasa":"droga zbiorcza","kat":"powiatowa"},"geometry":{"type":"LineString","coordinates":[[17.28052,54.32621],[17.28,54.32496],[17.28065,54.32388],[17.2857,54.32033],[17.28658,54.3201],[17.2904,54.31948],[17.29092,54.31922],[17.29125,54.3186],[17.29188,54.31645],[17.29192,54.3161],[17.29175,54.31508],[17.29186,54.31499],[17.29505,54.31376],[17.29837,54.31281],[17.29887,54.31246],[17.30163,54.31003],[17.30225,54.30968],[17.30326,54.3094],[17.30558,54.30922],[17.30776,54.30886],[17.30796,54.30869],[17.30797,54.30852],[17.307750846774194,54.30654762096774]]}},{"type":"Feature","properties":{"numer":"1175G","klasa":"","kat":"powiatowa"},"geometry":{"type":"LineString","coordinates":[[17.108098747864425,54.290107456599614],[17.1081,54.29011]]}},{"type":"Feature","properties":{"numer":"1176G","klasa":"droga zbiorcza","kat":"powiatowa"},"geometry":{"type":"LineString","coordinates":[[17.15328,54.33035],[17.15422,54.32851],[17.15579,54.32442],[17.15609,54.3239],[17.15751,54.32281],[17.16084,54.32148],[17.16129,54.32121],[17.16158,54.32089],[17.1627,54.31874],[17.16401,54.31518],[17.16501,54.31308],[17.16568,54.3125],[17.16586,54.3122],[17.16579,54.31177],[17.16554,54.31144],[17.16368,54.31035],[17.16319,54.30983],[17.16274,54.30851],[17.16294,54.3069],[17.16212,54.30458],[17.15799,54.301],[17.15775,54.30069],[17.15771,54.30026],[17.15787,54.29993],[17.16041,54.29761],[17.16038,54.29714],[17.15992,54.2964],[17.15979,54.29594],[17.16015,54.29406],[17.16227,54.29418],[17.16396,54.29476],[17.16416,54.29475],[17.16644,54.29299],[17.16686,54.29257],[17.16828,54.28906],[17.16841624861265,54.28885769145394]]}},{"type":"Feature","properties":{"numer":"1174G","klasa":"droga zbiorcza","kat":"powiatowa"},"geometry":{"type":"LineString","coordinates":[[17.19082,54.34419],[17.19361,54.34488],[17.19621,54.34586],[17.19829,54.34619]]}},{"type":"Feature","properties":{"numer":"1174G","klasa":"droga zbiorcza","kat":"powiatowa"},"geometry":{"type":"LineString","coordinates":[[17.19829,54.34619],[17.19901,54.34604],[17.19993,54.34641]]}},{"type":"Feature","properties":{"numer":"1174G,147050G","klasa":"droga zbiorcza","kat":"powiatowa"},"geometry":{"type":"LineString","coordinates":[[17.19993,54.34641],[17.20117,54.34616],[17.20312,54.34612],[17.2034,54.34723],[17.20336,54.34754],[17.20368,54.34809]]}},{"type":"Feature","properties":{"numer":"1174G","klasa":"droga zbiorcza","kat":"powiatowa"},"geometry":{"type":"LineString","coordinates":[[17.20368,54.34809],[17.20381,54.34812]]}},{"type":"Feature","properties":{"numer":"1175G","klasa":"droga zbiorcza","kat":"powiatowa"},"geometry":{"type":"LineString","coordinates":[[17.15328,54.33035],[17.15307,54.33024],[17.15265,54.33017],[17.14867,54.32976],[17.1402,54.33062],[17.13765,54.33016],[17.13198,54.32983],[17.12842,54.3293],[17.12475,54.32773],[17.12114,54.32639],[17.120575369885948,54.32604393638171]]}},{"type":"Feature","properties":{"numer":"1175G","klasa":"droga zbiorcza","kat":"powiatowa"},"geometry":{"type":"LineString","coordinates":[[17.121684010144303,54.32291667164707],[17.12175,54.32171],[17.12213,54.32058],[17.1221,54.32041],[17.12143,54.31967],[17.12129,54.31917],[17.12186,54.31736],[17.1221,54.31603],[17.12359,54.3146],[17.12374,54.31417],[17.12379,54.31365],[17.12336,54.31301],[17.12301,54.31187],[17.12351,54.31111],[17.12381,54.31021],[17.1251,54.30916],[17.12546,54.30851],[17.12544,54.30829],[17.12524,54.3081],[17.1249,54.30799],[17.12313,54.30815],[17.12277,54.30809],[17.12152,54.30735],[17.11859,54.30654],[17.11768,54.30619],[17.11738,54.30599],[17.11723,54.30575],[17.11703,54.3039],[17.11689,54.3035],[17.11409,54.30379],[17.11297,54.30332],[17.11201,54.30306],[17.11141,54.3027],[17.11111,54.30224],[17.11206,54.301],[17.11268,54.30039],[17.11263,54.29991],[17.11277,54.29883],[17.11091,54.29506],[17.1081,54.29011]]}},{"type":"Feature","properties":{"numer":"1176G","klasa":"droga zbiorcza","kat":"powiatowa"},"geometry":{"type":"LineString","coordinates":[[17.15599,54.35839],[17.1565,54.35772],[17.15661,54.35507],[17.15614,54.35322],[17.15593,54.34941],[17.15594,54.34852],[17.15641,54.34747],[17.15647,54.34696],[17.15632,54.34439],[17.15637,54.34122],[17.15611,54.33952],[17.15479,54.33755],[17.15347,54.33662],[17.15331,54.33631],[17.15296,54.33351],[17.15328,54.33035]]}},{"type":"Feature","properties":{"numer":"1176G","klasa":"droga zbiorcza","kat":"powiatowa"},"geometry":{"type":"LineString","coordinates":[[17.15599,54.35839],[17.15576,54.35863]]}},{"type":"Feature","properties":{"numer":"1172G","klasa":"droga zbiorcza","kat":"powiatowa"},"geometry":{"type":"LineString","coordinates":[[17.11893,54.36612],[17.12055,54.36635],[17.12219,54.36685],[17.1235,54.36695]]}},{"type":"Feature","properties":{"numer":"1172G","klasa":"droga zbiorcza","kat":"powiatowa"},"geometry":{"type":"LineString","coordinates":[[17.1235,54.36695],[17.12588,54.36666],[17.12672,54.36666],[17.13209,54.36766],[17.13251,54.36789],[17.13267,54.36848],[17.13279,54.36857],[17.13665,54.36869]]}},{"type":"Feature","properties":{"numer":"1172G","klasa":"droga zbiorcza","kat":"powiatowa"},"geometry":{"type":"LineString","coordinates":[[17.13665,54.36869],[17.13677,54.3687]]}},{"type":"Feature","properties":{"numer":"1172G","klasa":"droga zbiorcza","kat":"powiatowa"},"geometry":{"type":"LineString","coordinates":[[17.13677,54.3687],[17.13761,54.36877],[17.14025,54.36946],[17.14245,54.37032],[17.1444,54.37119],[17.1466,54.37196]]}},{"type":"Feature","properties":{"numer":"1174G","klasa":"droga zbiorcza","kat":"powiatowa"},"geometry":{"type":"LineString","coordinates":[[17.20381,54.34812],[17.20419,54.34821]]}},{"type":"Feature","properties":{"numer":"1174G","klasa":"droga zbiorcza","kat":"powiatowa"},"geometry":{"type":"LineString","coordinates":[[17.20419,54.34821],[17.20831,54.34935],[17.20872,54.34939],[17.20998,54.34926]]}},{"type":"Feature","properties":{"numer":"1174G","klasa":"droga zbiorcza","kat":"powiatowa"},"geometry":{"type":"LineString","coordinates":[[17.21167,54.34897],[17.21178,54.34898]]}},{"type":"Feature","properties":{"numer":"1174G","klasa":"droga zbiorcza","kat":"powiatowa"},"geometry":{"type":"LineString","coordinates":[[17.21178,54.34898],[17.21204,54.34899]]}},{"type":"Feature","properties":{"numer":"1174G","klasa":"droga zbiorcza","kat":"powiatowa"},"geometry":{"type":"LineString","coordinates":[[17.21204,54.34899],[17.21234,54.34901]]}},{"type":"Feature","properties":{"numer":"1174G","klasa":"droga zbiorcza","kat":"powiatowa"},"geometry":{"type":"LineString","coordinates":[[17.20998,54.34926],[17.21111,54.34899],[17.21167,54.34897]]}},{"type":"Feature","properties":{"numer":"1174G","klasa":"droga zbiorcza","kat":"powiatowa"},"geometry":{"type":"LineString","coordinates":[[17.21973,54.368],[17.21904,54.36449],[17.21501,54.35773],[17.21529,54.35337],[17.21598,54.35264],[17.21622,54.35211],[17.21513,54.35015],[17.21331,54.34906],[17.21234,54.34901]]}},{"type":"Feature","properties":{"numer":"1176G","klasa":"droga zbiorcza","kat":"powiatowa"},"geometry":{"type":"LineString","coordinates":[[17.15576,54.35863],[17.15575,54.35898],[17.15624,54.36077],[17.16036,54.36443],[17.16061,54.36483],[17.16075,54.36638],[17.16166,54.36778],[17.16491,54.36974]]}},{"type":"Feature","properties":{"numer":"210","klasa":"droga gĹ‚Ăłwna","kat":"wojewodzka"},"geometry":{"type":"LineString","coordinates":[[17.21973,54.368],[17.23223,54.36727],[17.23429,54.36702],[17.23944,54.36669],[17.24074,54.36647],[17.24141,54.36622]]}},{"type":"Feature","properties":{"numer":"210","klasa":"droga gĹ‚Ăłwna","kat":"wojewodzka"},"geometry":{"type":"LineString","coordinates":[[17.18533,54.36999],[17.21973,54.368]]}},{"type":"Feature","properties":{"numer":"210","klasa":"droga gĹ‚Ăłwna","kat":"wojewodzka"},"geometry":{"type":"LineString","coordinates":[[17.16491,54.36974],[17.16576,54.3696],[17.16637,54.3696],[17.18128,54.37011],[17.18533,54.36999]]}},{"type":"Feature","properties":{"numer":"210","klasa":"droga gĹ‚Ăłwna","kat":"wojewodzka"},"geometry":{"type":"LineString","coordinates":[[17.16301,54.37082],[17.16399,54.3701],[17.16491,54.36974]]}},{"type":"Feature","properties":{"numer":"210","klasa":"droga gĹ‚Ăłwna","kat":"wojewodzka"},"geometry":{"type":"LineString","coordinates":[[17.16282,54.37097],[17.16301,54.37082]]}},{"type":"Feature","properties":{"numer":"1174G","klasa":"droga zbiorcza","kat":"powiatowa"},"geometry":{"type":"LineString","coordinates":[[17.22305,54.37501],[17.22304,54.37467],[17.22266,54.37406],[17.22262,54.37282],[17.22232,54.37193],[17.22046,54.36948],[17.21973,54.368]]}},{"type":"Feature","properties":{"numer":"210","klasa":"droga gĹ‚Ăłwna","kat":"wojewodzka"},"geometry":{"type":"LineString","coordinates":[[17.16122,54.37373],[17.16122,54.37288],[17.1615,54.3722],[17.16199,54.37161],[17.16282,54.37097]]}},{"type":"Feature","properties":{"numer":"1174G","klasa":"droga zbiorcza","kat":"powiatowa"},"geometry":{"type":"LineString","coordinates":[[17.22305,54.37513],[17.22305,54.37501]]}},{"type":"Feature","properties":{"numer":"210","klasa":"droga gĹ‚Ăłwna","kat":"wojewodzka"},"geometry":{"type":"LineString","coordinates":[[17.15505,54.38319],[17.15599,54.38208],[17.15709,54.38116],[17.15957,54.37922],[17.16063,54.37872],[17.16108,54.37831],[17.16121,54.37701],[17.16122,54.37373]]}},{"type":"Feature","properties":{"numer":"1173G","klasa":"droga zbiorcza","kat":"powiatowa"},"geometry":{"type":"LineString","coordinates":[[17.15585,54.4117],[17.15619,54.41126],[17.15714,54.41059],[17.15793,54.41034],[17.15934,54.41007],[17.16065,54.40988],[17.16492,54.40954],[17.1709,54.40878],[17.17318,54.40861],[17.17403,54.40871],[17.1752,54.40897],[17.17725,54.40989],[17.17941,54.41024],[17.18058,54.4106],[17.1813,54.41088],[17.18253,54.41123],[17.18364,54.4119],[17.1849,54.41225],[17.1857,54.41233],[17.18904,54.41242],[17.19592,54.41203],[17.19627,54.41214],[17.19656,54.41235],[17.19848,54.41263]]}},{"type":"Feature","properties":{"numer":"1173G","klasa":"droga zbiorcza","kat":"powiatowa"},"geometry":{"type":"LineString","coordinates":[[17.19848,54.41263],[17.19926,54.41251],[17.20128,54.41196],[17.20369,54.41152]]}},{"type":"Feature","properties":{"numer":"1173G","klasa":"droga zbiorcza","kat":"powiatowa"},"geometry":{"type":"LineString","coordinates":[[17.20369,54.41152],[17.20457,54.41307],[17.20505,54.41352]]}},{"type":"Feature","properties":{"numer":"1174G","klasa":"droga zbiorcza","kat":"powiatowa"},"geometry":{"type":"LineString","coordinates":[[17.24937,54.40444],[17.24637,54.39649],[17.24099,54.38932],[17.24049,54.38903],[17.23794,54.38811],[17.23385,54.38866],[17.23311,54.38829],[17.23166,54.38721],[17.23007,54.38655],[17.22775,54.38507],[17.22743,54.38456],[17.2269,54.38249],[17.22453,54.37871],[17.22377,54.37783],[17.22317,54.37592],[17.22305,54.37513]]}},{"type":"Feature","properties":{"numer":"1136G","klasa":"droga zbiorcza","kat":"powiatowa"},"geometry":{"type":"LineString","coordinates":[[17.28276,54.39831],[17.28102,54.39762],[17.27977,54.3965],[17.27841,54.39579],[17.27339,54.39546],[17.26826,54.39491]]}},{"type":"Feature","properties":{"numer":"1136G","klasa":"droga zbiorcza","kat":"powiatowa"},"geometry":{"type":"LineString","coordinates":[[17.28282,54.40245],[17.28115,54.40109],[17.28182,54.4006],[17.28212,54.39958],[17.28276,54.39831]]}},{"type":"Feature","properties":{"numer":"1177G","klasa":"droga zbiorcza","kat":"powiatowa"},"geometry":{"type":"LineString","coordinates":[[17.25049,54.40715],[17.25114,54.407],[17.25206,54.40694],[17.25244,54.40682],[17.25588,54.40466],[17.25635,54.40405],[17.25732,54.40141],[17.25773,54.40096],[17.25874,54.40044],[17.26663,54.3969],[17.26718,54.39642],[17.26826,54.39491]]}},{"type":"Feature","properties":{"numer":"1136G","klasa":"droga zbiorcza","kat":"powiatowa"},"geometry":{"type":"LineString","coordinates":[[17.28304,54.40261],[17.28282,54.40245]]}},{"type":"Feature","properties":{"numer":"1174G","klasa":"droga zbiorcza","kat":"powiatowa"},"geometry":{"type":"LineString","coordinates":[[17.24919,54.40651],[17.24905,54.40616],[17.24957,54.40552],[17.24937,54.40444]]}},{"type":"Feature","properties":{"numer":"1174G","klasa":"droga zbiorcza","kat":"powiatowa"},"geometry":{"type":"LineString","coordinates":[[17.25049,54.40715],[17.2502,54.40695],[17.24919,54.40651]]}},{"type":"Feature","properties":{"numer":"1177G","klasa":"droga zbiorcza","kat":"powiatowa"},"geometry":{"type":"LineString","coordinates":[[17.22433,54.41363],[17.2268,54.41258],[17.22777,54.41228],[17.24797,54.40816],[17.24909,54.4078],[17.25049,54.40715]]}},{"type":"Feature","properties":{"numer":"1136G","klasa":"droga zbiorcza","kat":"powiatowa"},"geometry":{"type":"LineString","coordinates":[[17.2787,54.41909],[17.27969,54.41683],[17.27905,54.41331],[17.27902,54.41257],[17.28215,54.4055],[17.28387,54.40341],[17.28389,54.40322],[17.28304,54.40261]]}},{"type":"Feature","properties":{"numer":"1136G","klasa":"droga zbiorcza","kat":"powiatowa"},"geometry":{"type":"LineString","coordinates":[[17.27667,54.426487598039216],[17.27667,54.42327],[17.2787,54.41909]]}},{"type":"Feature","properties":{"numer":"1172G","klasa":"droga zbiorcza","kat":"powiatowa"},"geometry":{"type":"LineString","coordinates":[[17.1466,54.37196],[17.14829,54.37292],[17.15051,54.37339],[17.15092,54.37355],[17.15398,54.37492],[17.15758,54.37677],[17.15785,54.37665],[17.15873,54.37529],[17.15993,54.37373],[17.16013,54.37368],[17.16122,54.37373]]}},{"type":"Feature","properties":{"numer":"210","klasa":"droga gĹ‚Ăłwna","kat":"wojewodzka"},"geometry":{"type":"LineString","coordinates":[[17.13874,54.40326],[17.15505,54.38319]]}},{"type":"Feature","properties":{"numer":"210","klasa":"droga gĹ‚Ăłwna","kat":"wojewodzka"},"geometry":{"type":"LineString","coordinates":[[17.13623,54.40633],[17.13874,54.40326]]}},{"type":"Feature","properties":{"numer":"210","klasa":"droga gĹ‚Ăłwna","kat":"wojewodzka"},"geometry":{"type":"LineString","coordinates":[[17.13232382899628,54.41115],[17.13623,54.40633]]}},{"type":"Feature","properties":{"numer":"1173G","klasa":"droga zbiorcza","kat":"powiatowa"},"geometry":{"type":"LineString","coordinates":[[17.1361719692684,54.412011120010035],[17.1446,54.41291],[17.15164,54.41237],[17.15291,54.41246],[17.1536,54.41266],[17.15401,54.41268],[17.15476,54.41243],[17.15585,54.4117]]}},{"type":"Feature","properties":{"numer":"210","klasa":"droga gĹ‚Ăłwna","kat":"wojewodzka"},"geometry":{"type":"LineString","coordinates":[[17.124563481532515,54.42059374857379],[17.13000784871938,54.413974126732455]]}},{"type":"Feature","properties":{"numer":"1173G","klasa":"droga zbiorcza","kat":"powiatowa"},"geometry":{"type":"LineString","coordinates":[[17.20505,54.41352],[17.20814,54.41268],[17.20837,54.41268],[17.21086,54.41309],[17.2132,54.41312],[17.22433,54.41363]]}},{"type":"Feature","properties":{"numer":"1177G","klasa":"droga zbiorcza","kat":"powiatowa"},"geometry":{"type":"LineString","coordinates":[[17.206248627366513,54.418928259956814],[17.20631,54.4189],[17.21453,54.41644],[17.21978,54.41517],[17.22433,54.41363]]}},{"type":"Feature","properties":{"numer":"1201G","klasa":"droga zbiorcza","kat":"powiatowa"},"geometry":{"type":"LineString","coordinates":[[17.38734,54.31846],[17.38674,54.31805],[17.38647,54.31768],[17.38563,54.31528],[17.38544,54.31392],[17.38535,54.31034],[17.3825,54.306],[17.37984,54.30254],[17.37766,54.29907],[17.37712,54.29856],[17.37462,54.29697],[17.37432,54.29606],[17.37393,54.29555]]}},{"type":"Feature","properties":{"numer":"1198G","klasa":"droga zbiorcza","kat":"powiatowa"},"geometry":{"type":"LineString","coordinates":[[17.33088548860914,54.31383736517879],[17.33123,54.3147],[17.33279,54.3169],[17.33559,54.32032],[17.33576,54.32067],[17.33573,54.32094],[17.33541,54.32123],[17.33345,54.32266],[17.33202,54.32346],[17.33192,54.3236],[17.33196,54.32422],[17.33298,54.32517],[17.33336,54.32576]]}},{"type":"Feature","properties":{"numer":"210","klasa":"droga gĹ‚Ăłwna","kat":"wojewodzka"},"geometry":{"type":"LineString","coordinates":[[17.34042,54.32658],[17.36744,54.32396],[17.37753,54.32255],[17.37894,54.32217],[17.38307,54.32046],[17.38734,54.31846]]}},{"type":"Feature","properties":{"numer":"210","klasa":"droga gĹ‚Ăłwna","kat":"wojewodzka"},"geometry":{"type":"LineString","coordinates":[[17.33336,54.32576],[17.33363,54.32581],[17.33522,54.32681],[17.33562,54.32694],[17.34042,54.32658]]}},{"type":"Feature","properties":{"numer":"210","klasa":"droga gĹ‚Ăłwna","kat":"wojewodzka"},"geometry":{"type":"LineString","coordinates":[[17.31583,54.32765],[17.32219,54.32692],[17.33184,54.32605],[17.33336,54.32576]]}},{"type":"Feature","properties":{"numer":"1191G","klasa":"droga zbiorcza","kat":"powiatowa"},"geometry":{"type":"LineString","coordinates":[[17.34042,54.32658],[17.34195,54.32817]]}},{"type":"Feature","properties":{"numer":"1190G","klasa":"droga zbiorcza","kat":"powiatowa"},"geometry":{"type":"LineString","coordinates":[[17.31662,54.33149],[17.31638,54.32894],[17.31583,54.32765]]}},{"type":"Feature","properties":{"numer":"1191G","klasa":"droga zbiorcza","kat":"powiatowa"},"geometry":{"type":"LineString","coordinates":[[17.34195,54.32817],[17.34586,54.3322],[17.34805,54.33419]]}},{"type":"Feature","properties":{"numer":"1200G","klasa":"droga zbiorcza","kat":"powiatowa"},"geometry":{"type":"LineString","coordinates":[[17.41083,54.30017],[17.40694,54.29599],[17.40524,54.29391],[17.40317,54.29189],[17.40108,54.29071],[17.40009,54.28988],[17.39836,54.2892],[17.39577,54.28778],[17.39489,54.28709],[17.39447,54.28659],[17.39383,54.28614],[17.3936,54.28608],[17.39344,54.28617],[17.39226,54.28789],[17.3919,54.2882],[17.39036,54.28888],[17.38854,54.29006],[17.38832,54.29041],[17.38796,54.29067],[17.38699,54.2911],[17.38546,54.29162],[17.38422,54.29244],[17.38383,54.29257],[17.38268,54.29274],[17.3779,54.29443],[17.37495,54.29501],[17.3746,54.29503]]}},{"type":"Feature","properties":{"numer":"210","klasa":"droga gĹ‚Ăłwna","kat":"wojewodzka"},"geometry":{"type":"LineString","coordinates":[[17.41083,54.30017],[17.42315,54.29729],[17.424380192666252,54.29686416407707]]}},{"type":"Feature","properties":{"numer":"210","klasa":"droga gĹ‚Ăłwna","kat":"wojewodzka"},"geometry":{"type":"LineString","coordinates":[[17.38734,54.31846],[17.40145,54.31173],[17.40325,54.31065],[17.40414,54.30992],[17.40487,54.30918],[17.40908,54.30334],[17.40952,54.3008],[17.40994,54.30044],[17.41083,54.30017]]}},{"type":"Feature","properties":{"numer":"1194G","klasa":"droga zbiorcza","kat":"powiatowa"},"geometry":{"type":"LineString","coordinates":[[17.38734,54.31846],[17.38993,54.32034],[17.39336,54.32331],[17.3942,54.3238],[17.39555,54.32357],[17.39873,54.32233],[17.39933,54.32219],[17.40427,54.32228],[17.40457,54.32222],[17.40506,54.32181],[17.40539,54.32172],[17.40569,54.32175],[17.41116,54.32342],[17.41259,54.3236],[17.41282,54.32354],[17.41294,54.32342],[17.41437,54.32064],[17.41605,54.31797],[17.41639,54.31764],[17.41931,54.31563]]}},{"type":"Feature","properties":{"numer":"1195G","klasa":"droga zbiorcza","kat":"powiatowa"},"geometry":{"type":"LineString","coordinates":[[17.42975,54.36235],[17.43124,54.36064],[17.43361,54.35897],[17.43594,54.35787],[17.43978,54.35658],[17.44029,54.3563],[17.4477,54.34841],[17.44787,54.34811],[17.44826,54.34636]]}},{"type":"Feature","properties":{"numer":"1199G","klasa":"droga zbiorcza","kat":"powiatowa"},"geometry":{"type":"LineString","coordinates":[[17.2811,54.32738],[17.28052,54.32621]]}},{"type":"Feature","properties":{"numer":"210","klasa":"droga gĹ‚Ăłwna","kat":"wojewodzka"},"geometry":{"type":"LineString","coordinates":[[17.31583,54.32765],[17.3145,54.3277],[17.30986,54.32737],[17.30907,54.32725],[17.30767,54.32691],[17.30717,54.32699],[17.30551,54.32772],[17.30467,54.32789],[17.29659,54.32776],[17.28869,54.32728],[17.28324,54.32707],[17.28219,54.32715],[17.2811,54.32738]]}},{"type":"Feature","properties":{"numer":"1190G","klasa":"droga zbiorcza","kat":"powiatowa"},"geometry":{"type":"LineString","coordinates":[[17.29132,54.3518],[17.29454,54.35057],[17.29828,54.35018],[17.30254,54.34924],[17.30519,54.34893],[17.30758,54.34573],[17.30795,54.34463],[17.30979,54.34114],[17.31088,54.34014],[17.31096,54.33951],[17.31119,54.33907],[17.31083,54.33801],[17.30997,54.33647],[17.30996,54.33613],[17.31129,54.33497],[17.31396,54.33332]]}},{"type":"Feature","properties":{"numer":"210","klasa":"droga gĹ‚Ăłwna","kat":"wojewodzka"},"geometry":{"type":"LineString","coordinates":[[17.2811,54.32738],[17.27832,54.32808],[17.27516,54.32964],[17.27396,54.33038],[17.27272,54.33176],[17.27201,54.33321],[17.2719,54.33381],[17.27245,54.33507],[17.27322,54.33604],[17.27333,54.33637],[17.27345,54.33869],[17.27339,54.33915],[17.27318,54.33949],[17.27286,54.33972],[17.27249,54.33986],[17.26975,54.34059],[17.2644,54.34228],[17.26255,54.34318],[17.24576,54.36334],[17.24492,54.36397],[17.24141,54.36622]]}},{"type":"Feature","properties":{"numer":"1178G","klasa":"droga zbiorcza","kat":"powiatowa"},"geometry":{"type":"LineString","coordinates":[[17.24141,54.36622],[17.24364,54.36653],[17.24714,54.36688],[17.24873,54.36726],[17.25,54.36743]]}},{"type":"Feature","properties":{"numer":"1178G","klasa":"droga zbiorcza","kat":"powiatowa"},"geometry":{"type":"LineString","coordinates":[[17.25,54.36743],[17.25027,54.3675]]}},{"type":"Feature","properties":{"numer":"1178G","klasa":"droga zbiorcza","kat":"powiatowa"},"geometry":{"type":"LineString","coordinates":[[17.25027,54.3675],[17.25187,54.36799],[17.25246,54.3685],[17.25313,54.36885],[17.25552,54.36898],[17.25957,54.36971],[17.26233,54.37005],[17.26352,54.37045],[17.26767,54.37057],[17.27001,54.37082],[17.27658,54.37188],[17.2781,54.37231],[17.2801,54.3726],[17.28327,54.37348],[17.28488,54.37355],[17.28703,54.37391],[17.2902,54.37495],[17.29238,54.37575],[17.29244,54.37623],[17.29288,54.37701],[17.29287,54.37738]]}},{"type":"Feature","properties":{"numer":"1177G","klasa":"droga zbiorcza","kat":"powiatowa"},"geometry":{"type":"LineString","coordinates":[[17.29287,54.37738],[17.29307,54.37767],[17.29466,54.37874],[17.29577,54.38033],[17.29696,54.38146],[17.29749,54.38166],[17.29843,54.38169]]}},{"type":"Feature","properties":{"numer":"1177G","klasa":"droga zbiorcza","kat":"powiatowa"},"geometry":{"type":"LineString","coordinates":[[17.29843,54.38169],[17.29853,54.38169]]}},{"type":"Feature","properties":{"numer":"1177G","klasa":"droga zbiorcza","kat":"powiatowa"},"geometry":{"type":"LineString","coordinates":[[17.26826,54.39491],[17.27188,54.38996],[17.27652,54.38571],[17.27698,54.38542],[17.28067,54.38371],[17.29007,54.37808],[17.29133,54.37762],[17.29287,54.37738]]}},{"type":"Feature","properties":{"numer":"1190G","klasa":"droga zbiorcza","kat":"powiatowa"},"geometry":{"type":"LineString","coordinates":[[17.31396,54.33332],[17.31646,54.33179],[17.31662,54.33149]]}},{"type":"Feature","properties":{"numer":"1191G","klasa":"droga zbiorcza","kat":"powiatowa"},"geometry":{"type":"LineString","coordinates":[[17.34805,54.33419],[17.35083,54.33678],[17.34942,54.33761],[17.34784,54.33834],[17.34603,54.33881]]}},{"type":"Feature","properties":{"numer":"1191G","klasa":"droga zbiorcza","kat":"powiatowa"},"geometry":{"type":"LineString","coordinates":[[17.34603,54.33881],[17.34523,54.33912],[17.34435,54.33929],[17.34418,54.33943],[17.34379,54.34041],[17.3431,54.34087],[17.34252,54.34112],[17.33659,54.34268],[17.33497,54.34299]]}},{"type":"Feature","properties":{"numer":"1177G","klasa":"droga zbiorcza","kat":"powiatowa"},"geometry":{"type":"LineString","coordinates":[[17.29853,54.38169],[17.30042,54.38171],[17.30226,54.38123],[17.30272,54.38119],[17.30782,54.38157],[17.30979,54.38152],[17.31115,54.3813],[17.31212,54.38126],[17.31325,54.38134],[17.31433,54.38163],[17.31506,54.38171],[17.32001,54.38165],[17.32417,54.38058],[17.32852,54.37956],[17.32989,54.37934],[17.3313,54.37924],[17.33491,54.37929],[17.34245,54.37981],[17.34716,54.38056],[17.3507,54.38183],[17.3516,54.38199],[17.35565,54.38215],[17.35853,54.38217],[17.3598,54.38205],[17.36556,54.38121],[17.36773,54.38147],[17.36863,54.3818],[17.36997,54.3813],[17.37313,54.38122],[17.37366,54.3811],[17.37405,54.38092],[17.37552,54.37985],[17.37609,54.37957],[17.37816,54.37909],[17.38199,54.37775],[17.39068,54.37522],[17.39109,54.3749],[17.39263,54.37316],[17.39352,54.37202],[17.39454,54.37114],[17.39514,54.37027],[17.3958,54.36986],[17.40433,54.36749],[17.4127,54.36557],[17.42339,54.36455],[17.42616,54.36366],[17.42975,54.36235]]}},{"type":"Feature","properties":{"numer":"1177G","klasa":"droga zbiorcza","kat":"powiatowa"},"geometry":{"type":"LineString","coordinates":[[17.42975,54.36235],[17.43019,54.36258],[17.43068,54.36272],[17.43748,54.36395],[17.4582,54.36736],[17.45822283400812,54.367359028340076]]}}]}