{"type":"FeatureCollection","features":[{"type":"Feature","properties":{"numer":"2704G","klasa":"droga zbiorcza","kat":"powiatowa"},"geometry":{"type":"LineString","coordinates":[[18.32023,53.87506],[18.320275945945944,53.874970405405406]]}},{"type":"Feature","properties":{"numer":"22","klasa":"droga gĹ‚Ăłwna ruchu przyĹ›pieszonego","kat":"krajowa"},"geometry":{"type":"LineString","coordinates":[[18.2807,53.92068],[18.28014,53.9203]]}},{"type":"Feature","properties":{"numer":"22","klasa":"droga gĹ‚Ăłwna ruchu przyĹ›pieszonego","kat":"krajowa"},"geometry":{"type":"LineString","coordinates":[[18.33308,53.93254],[18.32497,53.93026],[18.31483,53.92905],[18.30251,53.92673],[18.29889,53.92622],[18.29356,53.92579],[18.29182,53.9255],[18.28874,53.92462],[18.28769,53.92421],[18.28317,53.92199],[18.2807,53.92068]]}},{"type":"Feature","properties":{"numer":"214","klasa":"droga gĹ‚Ăłwna","kat":"wojewodzka"},"geometry":{"type":"LineString","coordinates":[[18.34978,53.888],[18.34993,53.88583],[18.35014,53.88549],[18.35049,53.88519],[18.3517,53.88476],[18.35413,53.8844],[18.35505,53.88411],[18.35797,53.88297],[18.35838,53.88271],[18.35887,53.88198],[18.36246,53.88026],[18.37094,53.87732],[18.3715,53.87704],[18.3729955270428,53.87608181653697]]}},{"type":"Feature","properties":{"numer":"2704G","klasa":"droga zbiorcza","kat":"powiatowa"},"geometry":{"type":"LineString","coordinates":[[18.32016,53.87534],[18.32023,53.87506]]}},{"type":"Feature","properties":{"numer":"2704G","klasa":"droga zbiorcza","kat":"powiatowa"},"geometry":{"type":"LineString","coordinates":[[18.34978,53.888],[18.34792,53.88793],[18.34475,53.88656],[18.33733,53.88382],[18.32612,53.88161],[18.32414,53.88107],[18.32313,53.88041],[18.32034,53.87605],[18.32016,53.87534]]}},{"type":"Feature","properties":{"numer":"214,2704G","klasa":"droga gĹ‚Ăłwna","kat":"gminna"},"geometry":{"type":"LineString","coordinates":[[18.35083,53.88876],[18.34978,53.888]]}},{"type":"Feature","properties":{"numer":"2704G","klasa":"droga zbiorcza","kat":"powiatowa"},"geometry":{"type":"LineString","coordinates":[[18.40066,53.91446],[18.40018,53.91459],[18.39966,53.91508],[18.39855,53.91554],[18.39794,53.91552],[18.39707,53.91529],[18.3964,53.91485],[18.3924,53.91158],[18.38859,53.90875],[18.38258,53.90502],[18.38072,53.90296],[18.37677,53.89986],[18.35881,53.89204],[18.35269,53.88908],[18.35229,53.88896],[18.35083,53.88876]]}},{"type":"Feature","properties":{"numer":"214","klasa":"droga gĹ‚Ăłwna","kat":"wojewodzka"},"geometry":{"type":"LineString","coordinates":[[18.33518,53.93233],[18.33523,53.93087],[18.33538,53.93028],[18.33635,53.92885],[18.33653,53.92823],[18.33637,53.92212],[18.33799,53.91863],[18.33799,53.91797],[18.33722,53.91461],[18.33664,53.9111],[18.3366,53.90968],[18.33704,53.90882],[18.33731,53.90853],[18.34053,53.90563],[18.34349,53.90247],[18.34446,53.90121],[18.34716,53.89705],[18.34904,53.89541],[18.34954,53.89487],[18.35054,53.89235],[18.35055,53.89],[18.35083,53.88876]]}},{"type":"Feature","properties":{"numer":"22","klasa":"droga gĹ‚Ăłwna ruchu przyĹ›pieszonego","kat":"krajowa"},"geometry":{"type":"LineString","coordinates":[[18.33515,53.93285],[18.33677,53.93291],[18.37101,53.93149],[18.37264,53.93158],[18.37925,53.93243],[18.38136,53.93258],[18.38448,53.93251],[18.38946,53.93186],[18.39065,53.93182],[18.39205,53.9319],[18.3982,53.93277],[18.40007,53.93297],[18.40158318561569,53.93294478023974]]}},{"type":"Feature","properties":{"numer":"22","klasa":"droga gĹ‚Ăłwna ruchu przyĹ›pieszonego","kat":"krajowa"},"geometry":{"type":"LineString","coordinates":[[18.3334,53.9326],[18.33308,53.93254]]}},{"type":"Feature","properties":{"numer":"214","klasa":"droga gĹ‚Ăłwna","kat":"wojewodzka"},"geometry":{"type":"LineString","coordinates":[[18.33515,53.93285],[18.33518,53.93233]]}},{"type":"Feature","properties":{"numer":"22","klasa":"droga gĹ‚Ăłwna ruchu przyĹ›pieszonego","kat":"krajowa"},"geometry":{"type":"LineString","coordinates":[[18.334,53.9327],[18.3334,53.9326]]}},{"type":"Feature","properties":{"numer":"2721G","klasa":"","kat":"powiatowa"},"geometry":{"type":"LineString","coordinates":[[18.40982,53.90477],[18.41001816924784,53.90459570656515]]}},{"type":"Feature","properties":{"numer":"2721G","klasa":"","kat":"powiatowa"},"geometry":{"type":"LineString","coordinates":[[18.40795,53.90673],[18.4082,53.90623],[18.40982,53.90477]]}},{"type":"Feature","properties":{"numer":"2721G","klasa":"","kat":"powiatowa"},"geometry":{"type":"LineString","coordinates":[[18.40066,53.91446],[18.40066,53.91432],[18.40117,53.91372],[18.40344,53.91228],[18.40677,53.90943],[18.40785,53.90867],[18.40784,53.90705],[18.40795,53.90673]]}},{"type":"Feature","properties":{"numer":"2704G","klasa":"droga zbiorcza","kat":"powiatowa"},"geometry":{"type":"LineString","coordinates":[[18.406181050974663,53.928505796522984],[18.40424,53.91808],[18.40396,53.91777],[18.40191,53.91645],[18.40175,53.91602],[18.40168,53.91482],[18.40131,53.91454],[18.40066,53.91446]]}},{"type":"Feature","properties":{"numer":"22","klasa":"droga gĹ‚Ăłwna ruchu przyĹ›pieszonego","kat":"krajowa"},"geometry":{"type":"LineString","coordinates":[[18.28014,53.9203],[18.27819,53.9183],[18.2772,53.91768],[18.259742134081122,53.90900062302654]]}},{"type":"Feature","properties":{"numer":"2703G","klasa":"droga zbiorcza","kat":"powiatowa"},"geometry":{"type":"LineString","coordinates":[[18.40419530732529,53.933594035924784],[18.40346,53.93415],[18.40357,53.93427],[18.40482,53.93467],[18.40529,53.93502],[18.40564,53.93736],[18.4056,53.93793],[18.40283,53.94442],[18.39942,53.95172],[18.3995,53.95206],[18.39974,53.95224],[18.4006,53.95259],[18.40081,53.95293]]}},{"type":"Feature","properties":{"numer":"2703G","klasa":"droga zbiorcza","kat":"powiatowa"},"geometry":{"type":"LineString","coordinates":[[18.40081,53.95293],[18.4008,53.95305]]}},{"type":"Feature","properties":{"numer":"2703G","klasa":"droga zbiorcza","kat":"powiatowa"},"geometry":{"type":"LineString","coordinates":[[18.4008,53.95305],[18.40047,53.95332],[18.3981,53.95415],[18.39729,53.95489],[18.39751,53.95901]]}},{"type":"Feature","properties":{"numer":"210022G","klasa":"droga wewnÄ™trzna","kat":"powiatowa"},"geometry":{"type":"LineString","coordinates":[[18.42753,53.98117],[18.4298,53.97818],[18.430968887533417,53.97639626411085]]}},{"type":"Feature","properties":{"numer":"210022G","klasa":"droga wewnÄ™trzna","kat":"powiatowa"},"geometry":{"type":"LineString","coordinates":[[18.42688,53.98168],[18.42753,53.98117]]}},{"type":"Feature","properties":{"numer":"210022G","klasa":"droga wewnÄ™trzna","kat":"powiatowa"},"geometry":{"type":"LineString","coordinates":[[18.42318,53.9851],[18.42579,53.98371],[18.42616,53.98344],[18.42638,53.98299],[18.4266,53.98203],[18.42688,53.98168]]}},{"type":"Feature","properties":{"numer":"210022G","klasa":"droga wewnÄ™trzna","kat":"powiatowa"},"geometry":{"type":"LineString","coordinates":[[18.42215,53.98566],[18.42318,53.9851]]}},{"type":"Feature","properties":{"numer":"210022G","klasa":"droga wewnÄ™trzna","kat":"powiatowa"},"geometry":{"type":"LineString","coordinates":[[18.421,53.98628],[18.42215,53.98566]]}},{"type":"Feature","properties":{"numer":"210022G","klasa":"droga wewnÄ™trzna","kat":"powiatowa"},"geometry":{"type":"LineString","coordinates":[[18.40705,53.98617],[18.4076,53.98606],[18.41067,53.98684]]}},{"type":"Feature","properties":{"numer":"210038G","klasa":"droga lokalna","kat":"powiatowa"},"geometry":{"type":"LineString","coordinates":[[18.40705,53.98617],[18.40662,53.98625],[18.40604,53.98729]]}},{"type":"Feature","properties":{"numer":"22","klasa":"droga gĹ‚Ăłwna ruchu przyĹ›pieszonego","kat":"krajowa"},"geometry":{"type":"LineString","coordinates":[[18.3342,53.93274],[18.334,53.9327]]}},{"type":"Feature","properties":{"numer":"22","klasa":"droga gĹ‚Ăłwna ruchu przyĹ›pieszonego","kat":"krajowa"},"geometry":{"type":"LineString","coordinates":[[18.33515,53.93285],[18.3342,53.93274]]}},{"type":"Feature","properties":{"numer":"214","klasa":"droga gĹ‚Ăłwna","kat":"wojewodzka"},"geometry":{"type":"LineString","coordinates":[[18.33517,53.93337],[18.33515,53.93285]]}},{"type":"Feature","properties":{"numer":"214","klasa":"droga gĹ‚Ăłwna","kat":"wojewodzka"},"geometry":{"type":"LineString","coordinates":[[18.32913,53.93751],[18.33436,53.93483],[18.33495,53.93419],[18.33517,53.93337]]}},{"type":"Feature","properties":{"numer":"214","klasa":"droga gĹ‚Ăłwna","kat":"wojewodzka"},"geometry":{"type":"LineString","coordinates":[[18.32661,53.93895],[18.32913,53.93751]]}},{"type":"Feature","properties":{"numer":"2702G","klasa":"","kat":"powiatowa"},"geometry":{"type":"LineString","coordinates":[[18.32661,53.93895],[18.32694,53.93948],[18.32749,53.94263],[18.32836,53.94435],[18.33016,53.94737],[18.33871,53.9545],[18.33908,53.95473],[18.3394,53.95483],[18.3402,53.95485],[18.34508,53.95428],[18.34584,53.95431],[18.34637,53.9545],[18.34659,53.95472],[18.3471,53.95576],[18.34891,53.96035],[18.35047,53.96014],[18.35097,53.96015],[18.35795,53.96101],[18.35907,53.96109],[18.36021,53.96092],[18.36439,53.95982],[18.36812,53.95943],[18.37744,53.95978],[18.3934,53.95938],[18.39751,53.95901]]}},{"type":"Feature","properties":{"numer":"214","klasa":"droga gĹ‚Ăłwna","kat":"wojewodzka"},"geometry":{"type":"LineString","coordinates":[[18.3009,53.94859],[18.30196,53.94831],[18.30778,53.94749],[18.30919,53.94712],[18.31015,53.94663],[18.31177,53.94543],[18.31747,53.9424],[18.31858,53.94199],[18.32392,53.94047],[18.32473,53.94008],[18.32661,53.93895]]}},{"type":"Feature","properties":{"numer":"210034G,214","klasa":"droga gĹ‚Ăłwna","kat":"powiatowa"},"geometry":{"type":"LineString","coordinates":[[18.30071,53.94867],[18.3009,53.94859]]}},{"type":"Feature","properties":{"numer":"214","klasa":"droga gĹ‚Ăłwna","kat":"wojewodzka"},"geometry":{"type":"LineString","coordinates":[[18.292493204497543,53.96155365425158],[18.29309,53.96117],[18.29346,53.96079],[18.29501,53.95777],[18.29507,53.95706],[18.29446,53.95501],[18.29446,53.95457],[18.29584,53.95176],[18.29653,53.95105],[18.30015,53.94893],[18.30071,53.94867]]}},{"type":"Feature","properties":{"numer":"210022G","klasa":"droga wewnÄ™trzna","kat":"powiatowa"},"geometry":{"type":"LineString","coordinates":[[18.41528,53.98783],[18.41598,53.98785],[18.4164,53.98776],[18.41933,53.98704],[18.421,53.98628]]}},{"type":"Feature","properties":{"numer":"210022G","klasa":"droga wewnÄ™trzna","kat":"powiatowa"},"geometry":{"type":"LineString","coordinates":[[18.41067,53.98684],[18.41403,53.98768]]}},{"type":"Feature","properties":{"numer":"210038G","klasa":"droga lokalna","kat":"powiatowa"},"geometry":{"type":"LineString","coordinates":[[18.40604,53.98729],[18.40598,53.98751]]}},{"type":"Feature","properties":{"numer":"210022G","klasa":"droga wewnÄ™trzna","kat":"powiatowa"},"geometry":{"type":"LineString","coordinates":[[18.41403,53.98768],[18.41528,53.98783]]}},{"type":"Feature","properties":{"numer":"210038G","klasa":"droga lokalna","kat":"powiatowa"},"geometry":{"type":"LineString","coordinates":[[18.40598,53.98751],[18.40564,53.98889]]}},{"type":"Feature","properties":{"numer":"210038G","klasa":"droga lokalna","kat":"powiatowa"},"geometry":{"type":"LineString","coordinates":[[18.40564,53.98889],[18.40554,53.98928]]}},{"type":"Feature","properties":{"numer":"210038G","klasa":"droga lokalna","kat":"powiatowa"},"geometry":{"type":"LineString","coordinates":[[18.40554,53.98928],[18.40511,53.99001]]}},{"type":"Feature","properties":{"numer":"210038G","klasa":"droga lokalna","kat":"powiatowa"},"geometry":{"type":"LineString","coordinates":[[18.40511,53.99001],[18.40367,53.99191],[18.40304,53.9923],[18.40219,53.99263]]}},{"type":"Feature","properties":{"numer":"210038G","klasa":"droga lokalna","kat":"powiatowa"},"geometry":{"type":"LineString","coordinates":[[18.40219,53.99263],[18.40074,53.99322],[18.39713,53.99507],[18.39573,53.99564],[18.39469,53.99593]]}},{"type":"Feature","properties":{"numer":"2703G","klasa":"droga zbiorcza","kat":"powiatowa"},"geometry":{"type":"LineString","coordinates":[[18.39751,53.95901],[18.39688,53.96521],[18.39718,53.96657],[18.39811,53.96917],[18.39684,53.97408],[18.39675,53.97718],[18.39584,53.97946],[18.395,53.98063],[18.39422,53.98219],[18.39343,53.98321],[18.39309,53.98408],[18.39261,53.98461],[18.39122,53.9857],[18.39077,53.98628],[18.39013,53.98845],[18.39063,53.99418],[18.39245,53.99546],[18.3958,53.99622],[18.39991,53.99841],[18.40105,53.99912],[18.4044,54.0018],[18.40506,54.00487],[18.40577,54.00736],[18.40619,54.00791],[18.40797,54.00958],[18.40819,54.0102],[18.40831,54.01123],[18.40784,54.01324],[18.40656,54.01475],[18.40646,54.01537],[18.40573,54.01605],[18.40516,54.01711],[18.40574,54.02111],[18.4070381150225,54.02325581196702]]}}]}