{"type":"FeatureCollection","features":[{"type":"Feature","properties":{"numer":"91","klasa":"droga gĹ‚Ăłwna ruchu przyĹ›pieszonego","kat":"krajowa"},"geometry":{"type":"LineString","coordinates":[[18.76721,53.98457],[18.767501270917233,53.975051682526065]]}},{"type":"Feature","properties":{"numer":"2717G","klasa":"","kat":"powiatowa"},"geometry":{"type":"LineString","coordinates":[[18.76721,53.98457],[18.75745,53.98548]]}},{"type":"Feature","properties":{"numer":"2717G","klasa":"","kat":"powiatowa"},"geometry":{"type":"LineString","coordinates":[[18.75745,53.98548],[18.75734,53.98549]]}},{"type":"Feature","properties":{"numer":"2717G","klasa":"","kat":"powiatowa"},"geometry":{"type":"LineString","coordinates":[[18.75455,53.98798],[18.75494,53.98779],[18.75496,53.98751],[18.75424,53.98699],[18.75389,53.98584],[18.75734,53.98549]]}},{"type":"Feature","properties":{"numer":"91","klasa":"droga gĹ‚Ăłwna ruchu przyĹ›pieszonego","kat":"krajowa"},"geometry":{"type":"LineString","coordinates":[[18.76713,53.98967],[18.76721,53.98457]]}},{"type":"Feature","properties":{"numer":"2717G","klasa":"","kat":"powiatowa"},"geometry":{"type":"LineString","coordinates":[[18.75411,53.98804],[18.75455,53.98798]]}},{"type":"Feature","properties":{"numer":"230","klasa":"droga zbiorcza","kat":"wojewodzka"},"geometry":{"type":"LineString","coordinates":[[18.73281,53.99069],[18.73176,53.99036],[18.72855,53.98913],[18.71823,53.98515],[18.7177,53.98487],[18.71755,53.98454],[18.71745,53.98262],[18.71706169703511,53.98106678814043]]}},{"type":"Feature","properties":{"numer":"230,2717G","klasa":"droga zbiorcza","kat":"powiatowa"},"geometry":{"type":"LineString","coordinates":[[18.73281,53.99069],[18.73448,53.99045]]}},{"type":"Feature","properties":{"numer":"2717G","klasa":"","kat":"powiatowa"},"geometry":{"type":"LineString","coordinates":[[18.7041,53.99157],[18.70494,53.9915],[18.70675,53.99104],[18.70749,53.99092],[18.71575,53.99163],[18.71844,53.99221],[18.72058,53.99232],[18.72375,53.99263],[18.72505,53.9925],[18.7267,53.99253],[18.72717,53.99248],[18.72808,53.99217],[18.72989,53.99132],[18.73281,53.99069]]}},{"type":"Feature","properties":{"numer":"2717G","klasa":"","kat":"powiatowa"},"geometry":{"type":"LineString","coordinates":[[18.69564,53.99188],[18.69722,53.99194],[18.6988,53.99214],[18.70119,53.99172],[18.7041,53.99157]]}},{"type":"Feature","properties":{"numer":"2810G","klasa":"droga zbiorcza","kat":"powiatowa"},"geometry":{"type":"LineString","coordinates":[[18.780269649639347,53.97130254085087],[18.78164,53.97119],[18.78481,53.97047],[18.78854,53.96899],[18.79229,53.96812],[18.79581,53.96778],[18.79809,53.96792],[18.80051,53.96786],[18.80335,53.96748],[18.80421,53.96747],[18.80611,53.96762],[18.80872,53.96811],[18.8129,53.97062],[18.81426,53.97117],[18.81491,53.97182],[18.81578,53.97238],[18.81586,53.9727],[18.81573,53.97302]]}},{"type":"Feature","properties":{"numer":"2810G","klasa":"droga zbiorcza","kat":"powiatowa"},"geometry":{"type":"LineString","coordinates":[[18.81573,53.97302],[18.816,53.97342]]}},{"type":"Feature","properties":{"numer":"2813G","klasa":"droga zbiorcza","kat":"powiatowa"},"geometry":{"type":"LineString","coordinates":[[18.81573,53.97302],[18.81519,53.97345]]}},{"type":"Feature","properties":{"numer":"2813G","klasa":"droga zbiorcza","kat":"powiatowa"},"geometry":{"type":"LineString","coordinates":[[18.81519,53.97345],[18.81565,53.97337],[18.816,53.97342]]}},{"type":"Feature","properties":{"numer":"2810G","klasa":"droga zbiorcza","kat":"powiatowa"},"geometry":{"type":"LineString","coordinates":[[18.816,53.97342],[18.81719,53.97468],[18.81905,53.97515],[18.81936,53.97529],[18.82982,53.9835],[18.83258,53.98597]]}},{"type":"Feature","properties":{"numer":"2813G","klasa":"droga zbiorcza","kat":"powiatowa"},"geometry":{"type":"LineString","coordinates":[[18.76713,53.98967],[18.79143,53.98754],[18.79875,53.98544],[18.79966,53.98532],[18.80225,53.98342],[18.80421,53.9814],[18.80608,53.97989],[18.80783,53.97768],[18.81519,53.97345]]}},{"type":"Feature","properties":{"numer":"2812G","klasa":"droga zbiorcza","kat":"powiatowa"},"geometry":{"type":"LineString","coordinates":[[18.76999,54.00038],[18.77421,53.99975],[18.77603,53.9996],[18.77671,53.99974],[18.77828,54.00045],[18.77945,54.00089],[18.78305,54.00202],[18.78535,54.00224],[18.7864,54.00227],[18.79273,54.00179],[18.79568,54.00169],[18.79705,54.00178],[18.79751,54.00182],[18.80025,54.00246],[18.80374,54.00346],[18.80746,54.00394],[18.81006,54.00419],[18.81109,54.0042],[18.81422,54.00396],[18.81927,54.00402],[18.82583,54.00398],[18.82916,54.00405]]}},{"type":"Feature","properties":{"numer":"2810G","klasa":"droga zbiorcza","kat":"powiatowa"},"geometry":{"type":"LineString","coordinates":[[18.82916,54.00405],[18.82903,54.00452],[18.82798,54.00673],[18.82771,54.00703],[18.82323,54.00899],[18.82052,54.01063],[18.8198,54.01138],[18.81715,54.01641],[18.817,54.01707],[18.81571,54.02492],[18.8157,54.02957],[18.81606,54.03244],[18.81576,54.0335],[18.81583,54.03431],[18.80595,54.04498]]}},{"type":"Feature","properties":{"numer":"2810G","klasa":"droga zbiorcza","kat":"powiatowa"},"geometry":{"type":"LineString","coordinates":[[18.8059,54.04504],[18.80595,54.04498]]}},{"type":"Feature","properties":{"numer":"2810G","klasa":"droga zbiorcza","kat":"powiatowa"},"geometry":{"type":"LineString","coordinates":[[18.80580479787779,54.04514280847734],[18.8059,54.04504]]}},{"type":"Feature","properties":{"numer":"2717G","klasa":"","kat":"powiatowa"},"geometry":{"type":"LineString","coordinates":[[18.73448,53.99045],[18.7388,53.98969],[18.73896,53.98864],[18.73928,53.98839],[18.74289,53.98793],[18.74411,53.98758],[18.74698,53.9878],[18.75206,53.98798],[18.75332,53.98816],[18.75411,53.98804]]}},{"type":"Feature","properties":{"numer":"91","klasa":"droga gĹ‚Ăłwna ruchu przyĹ›pieszonego","kat":"krajowa"},"geometry":{"type":"LineString","coordinates":[[18.76862,53.99665],[18.76874,53.99597],[18.76868,53.99539],[18.76713,53.98967]]}},{"type":"Feature","properties":{"numer":"2811G","klasa":"droga zbiorcza","kat":"powiatowa"},"geometry":{"type":"LineString","coordinates":[[18.76862,53.99665],[18.76895,53.99683],[18.76911,53.99705],[18.76999,54.00038]]}},{"type":"Feature","properties":{"numer":"91","klasa":"droga gĹ‚Ăłwna ruchu przyĹ›pieszonego","kat":"krajowa"},"geometry":{"type":"LineString","coordinates":[[18.7649,54.01161],[18.76549,54.00806],[18.76587,54.00251],[18.7658,54.00042],[18.76629,53.9994],[18.76813,53.99749],[18.76862,53.99665]]}},{"type":"Feature","properties":{"numer":"91","klasa":"droga gĹ‚Ăłwna ruchu przyĹ›pieszonego","kat":"krajowa"},"geometry":{"type":"LineString","coordinates":[[18.76478,54.01223],[18.7649,54.01161]]}},{"type":"Feature","properties":{"numer":"2811G","klasa":"droga zbiorcza","kat":"powiatowa"},"geometry":{"type":"LineString","coordinates":[[18.76999,54.00038],[18.76969,54.00162],[18.77008,54.00294],[18.77,54.00548],[18.77038,54.0079],[18.77483,54.01284],[18.78045,54.02616]]}},{"type":"Feature","properties":{"numer":"230","klasa":"droga zbiorcza","kat":"wojewodzka"},"geometry":{"type":"LineString","coordinates":[[18.72541,54.00711],[18.7267,54.00856],[18.72774,54.01006],[18.7285,54.01063],[18.73396,54.01292],[18.73529,54.01321],[18.73745,54.0135],[18.74175,54.0148],[18.74194,54.01492],[18.74251,54.01597],[18.74334,54.01707],[18.7439,54.01835],[18.74421,54.0188],[18.74464,54.01916],[18.7468,54.0203],[18.74797,54.02176],[18.74842,54.02303],[18.74808,54.0244],[18.74819,54.02512],[18.74922,54.02701],[18.74978,54.02882],[18.75048,54.02995],[18.75076,54.03018],[18.75514,54.03252],[18.76013,54.03515],[18.76048,54.03526]]}},{"type":"Feature","properties":{"numer":"91","klasa":"droga gĹ‚Ăłwna ruchu przyĹ›pieszonego","kat":"krajowa"},"geometry":{"type":"LineString","coordinates":[[18.76048,54.03526],[18.76478,54.01223]]}},{"type":"Feature","properties":{"numer":"2811G","klasa":"droga zbiorcza","kat":"powiatowa"},"geometry":{"type":"LineString","coordinates":[[18.78045,54.02616],[18.78046,54.02621]]}},{"type":"Feature","properties":{"numer":"2811G","klasa":"droga zbiorcza","kat":"powiatowa"},"geometry":{"type":"LineString","coordinates":[[18.784866577012632,54.03878000176502],[18.78301,54.03524],[18.78172,54.03373],[18.78114,54.03251],[18.78068,54.03079],[18.78075,54.02805],[18.78046,54.02621]]}},{"type":"Feature","properties":{"numer":"2814G","klasa":"","kat":"powiatowa"},"geometry":{"type":"LineString","coordinates":[[18.83659,53.98372],[18.83773,53.98261],[18.8382,53.9817],[18.8392,53.98046],[18.84041,53.97936],[18.84158,53.97845],[18.84349,53.97716],[18.84616,53.97578],[18.84726,53.97507],[18.85095,53.97042],[18.85257,53.96871],[18.853514230013037,53.96781433038763]]}},{"type":"Feature","properties":{"numer":"2814G","klasa":"","kat":"powiatowa"},"geometry":{"type":"LineString","coordinates":[[18.83654,53.98377],[18.83659,53.98372]]}},{"type":"Feature","properties":{"numer":"2814G","klasa":"","kat":"powiatowa"},"geometry":{"type":"LineString","coordinates":[[18.83646,53.98382],[18.83654,53.98377]]}},{"type":"Feature","properties":{"numer":"2814G","klasa":"","kat":"powiatowa"},"geometry":{"type":"LineString","coordinates":[[18.83258,53.98597],[18.83571,53.9845],[18.83646,53.98382]]}},{"type":"Feature","properties":{"numer":"2810G","klasa":"droga zbiorcza","kat":"powiatowa"},"geometry":{"type":"LineString","coordinates":[[18.83258,53.98597],[18.83268,53.9864],[18.8324,53.98678],[18.83048,53.98745],[18.829,53.98845],[18.82771,53.99353],[18.82716,53.99517],[18.82912,54.00258],[18.82916,54.00405]]}},{"type":"Feature","properties":{"numer":"230","klasa":"droga zbiorcza","kat":"wojewodzka"},"geometry":{"type":"LineString","coordinates":[[18.73448,53.99045],[18.73437,53.99082],[18.72634,54.00451],[18.72586,54.00577],[18.72543,54.00655],[18.72541,54.00711]]}},{"type":"Feature","properties":{"numer":"2817G","klasa":"","kat":"powiatowa"},"geometry":{"type":"LineString","coordinates":[[18.69604421163884,54.03030401387836],[18.69578,54.02993],[18.69554,54.02945],[18.69496,54.02711],[18.6952,54.02514],[18.69502,54.02364],[18.69391,54.02205],[18.69376,54.02091],[18.69356,54.02045],[18.6931,54.01983],[18.69235,54.01922],[18.6924,54.01908],[18.69987,54.01747],[18.70345,54.01646],[18.70393,54.01621],[18.7043,54.01583],[18.70473,54.01419],[18.70512,54.01382],[18.70557,54.0136],[18.71035,54.01199],[18.71088,54.01173],[18.71194,54.01099],[18.71296,54.0105],[18.71897,54.00874],[18.72541,54.00711]]}},{"type":"Feature","properties":{"numer":"91","klasa":"droga gĹ‚Ăłwna ruchu przyĹ›pieszonego","kat":"krajowa"},"geometry":{"type":"LineString","coordinates":[[18.760305035505564,54.03619844592472],[18.76048,54.03526]]}},{"type":"Feature","properties":{"numer":"A1,E75","klasa":"autostrada","kat":"krajowa"},"geometry":{"type":"LineString","coordinates":[[18.66697295787021,54.02178895472424],[18.66151425592918,54.01144409645698]]}},{"type":"Feature","properties":{"numer":"2717G","klasa":"","kat":"powiatowa"},"geometry":{"type":"LineString","coordinates":[[18.663137316645283,53.98940100835275],[18.66508,53.99001],[18.66548,53.98998],[18.66711,53.98953],[18.66811,53.98966],[18.66927,53.98992],[18.67055,53.98996],[18.67177,53.9897],[18.6726,53.98927],[18.67353,53.98917],[18.67554,53.98936],[18.67682,53.9894],[18.67766,53.9896],[18.67879,53.98951],[18.67947,53.98967],[18.67998,53.98965],[18.68307,53.99009],[18.68487,53.99044],[18.68703,53.99065],[18.68939,53.99114],[18.69149,53.99118],[18.69564,53.99188]]}}]}