{"type":"FeatureCollection","features":[{"type":"Feature","properties":{"numer":"1451G","klasa":"droga zbiorcza","kat":"powiatowa"},"geometry":{"type":"LineString","coordinates":[[18.0984,54.4664],[18.09858,54.46638]]}},{"type":"Feature","properties":{"numer":"1451G","klasa":"droga zbiorcza","kat":"powiatowa"},"geometry":{"type":"LineString","coordinates":[[18.098290742244963,54.46641513527342],[18.0984,54.4664]]}},{"type":"Feature","properties":{"numer":"1489G","klasa":"droga zbiorcza","kat":"powiatowa"},"geometry":{"type":"LineString","coordinates":[[18.38738,54.44556],[18.3872,54.44575]]}},{"type":"Feature","properties":{"numer":"1489G","klasa":"droga zbiorcza","kat":"powiatowa"},"geometry":{"type":"LineString","coordinates":[[18.3872,54.44575],[18.38711,54.44584]]}},{"type":"Feature","properties":{"numer":"1405G","klasa":"droga zbiorcza","kat":"powiatowa"},"geometry":{"type":"LineString","coordinates":[[18.38692,54.44587],[18.38711,54.44584]]}},{"type":"Feature","properties":{"numer":"1489G","klasa":"droga zbiorcza","kat":"powiatowa"},"geometry":{"type":"LineString","coordinates":[[18.38711,54.44584],[18.38719,54.44594]]}},{"type":"Feature","properties":{"numer":"1405G","klasa":"droga zbiorcza","kat":"powiatowa"},"geometry":{"type":"LineString","coordinates":[[18.38641,54.44594],[18.38692,54.44587]]}},{"type":"Feature","properties":{"numer":"1489G","klasa":"droga zbiorcza","kat":"powiatowa"},"geometry":{"type":"LineString","coordinates":[[18.38719,54.44594],[18.38725,54.44611]]}},{"type":"Feature","properties":{"numer":"1405G","klasa":"droga zbiorcza","kat":"powiatowa"},"geometry":{"type":"LineString","coordinates":[[18.38366,54.44694],[18.38641,54.44594]]}},{"type":"Feature","properties":{"numer":"1405G","klasa":"droga zbiorcza","kat":"powiatowa"},"geometry":{"type":"LineString","coordinates":[[18.3827,54.44729],[18.38366,54.44694]]}},{"type":"Feature","properties":{"numer":"1416G","klasa":"","kat":"powiatowa"},"geometry":{"type":"LineString","coordinates":[[18.27879,54.42847],[18.278795744030113,54.428449140101165]]}},{"type":"Feature","properties":{"numer":"1415G","klasa":"","kat":"powiatowa"},"geometry":{"type":"LineString","coordinates":[[18.33367,54.45244],[18.33395,54.45123],[18.33401,54.45013],[18.32656,54.44365],[18.32592,54.4432],[18.32414,54.44225],[18.32351,54.44183],[18.32179,54.44005],[18.31997,54.43846],[18.31727,54.43576],[18.31357,54.43319],[18.31293,54.43294],[18.31192,54.4328],[18.31065,54.43246],[18.309,54.43213],[18.30628,54.43188],[18.30294,54.43137],[18.30175,54.43141],[18.30059,54.43131],[18.2999,54.43115],[18.29891,54.43067],[18.296,54.4303],[18.29537,54.43006],[18.29429,54.42948],[18.29184,54.42785],[18.29126,54.42767],[18.289859024861524,54.42752038129589]]}},{"type":"Feature","properties":{"numer":"1406G","klasa":"","kat":"powiatowa"},"geometry":{"type":"LineString","coordinates":[[18.33296,54.45258],[18.32957,54.45214],[18.32599,54.45215],[18.3254,54.45207],[18.31858,54.44949],[18.31376,54.44841],[18.3113,54.44793],[18.30605,54.44731],[18.30308,54.44649],[18.29906,54.44554],[18.28528,54.44376],[18.28394,54.44352],[18.28214,54.44297],[18.27569,54.44016],[18.27447,54.43972],[18.27347,54.43946],[18.26983,54.43881],[18.26389,54.4373],[18.26262,54.43679],[18.261,54.43565],[18.26057,54.43551]]}},{"type":"Feature","properties":{"numer":"1405G","klasa":"droga zbiorcza","kat":"powiatowa"},"geometry":{"type":"LineString","coordinates":[[18.2686,54.47775],[18.27049,54.47708],[18.27075,54.47665],[18.2714,54.47452],[18.27159,54.47423],[18.27508,54.47192],[18.27962,54.47021],[18.28195,54.46701],[18.28247,54.46668],[18.2831,54.46649],[18.28495,54.46642],[18.28649,54.46676],[18.28742,54.46719],[18.29041,54.4689],[18.29102,54.4691],[18.29284,54.46942],[18.29879,54.46921],[18.30081,54.46928],[18.30654,54.46864],[18.31079,54.46864],[18.31205,54.46822],[18.31247,54.46785],[18.31319,54.46592],[18.31351,54.4655],[18.32084,54.45986],[18.3283,54.45613],[18.32973,54.4548],[18.33159,54.45331],[18.33207,54.45308],[18.3328,54.45295]]}},{"type":"Feature","properties":{"numer":"1405G","klasa":"droga zbiorcza","kat":"powiatowa"},"geometry":{"type":"LineString","coordinates":[[18.26813,54.47793],[18.2686,54.47775]]}},{"type":"Feature","properties":{"numer":"1405G","klasa":"droga zbiorcza","kat":"powiatowa"},"geometry":{"type":"LineString","coordinates":[[18.26802,54.47799],[18.26813,54.47793]]}},{"type":"Feature","properties":{"numer":"1405G","klasa":"droga zbiorcza","kat":"powiatowa"},"geometry":{"type":"LineString","coordinates":[[18.26787,54.47801],[18.26802,54.47799]]}},{"type":"Feature","properties":{"numer":"1412G","klasa":"","kat":"powiatowa"},"geometry":{"type":"LineString","coordinates":[[18.26804,54.47808],[18.26802,54.47799]]}},{"type":"Feature","properties":{"numer":"1405G","klasa":"droga zbiorcza","kat":"powiatowa"},"geometry":{"type":"LineString","coordinates":[[18.37308,54.45109],[18.37616,54.44968],[18.3827,54.44729]]}},{"type":"Feature","properties":{"numer":"1489G","klasa":"droga zbiorcza","kat":"powiatowa"},"geometry":{"type":"LineString","coordinates":[[18.38725,54.44611],[18.38892,54.45337],[18.38948,54.45462],[18.38946,54.45487],[18.38865,54.45662]]}},{"type":"Feature","properties":{"numer":"1405G","klasa":"droga zbiorcza","kat":"powiatowa"},"geometry":{"type":"LineString","coordinates":[[18.37163,54.45178],[18.37308,54.45109]]}},{"type":"Feature","properties":{"numer":"1415G","klasa":"","kat":"powiatowa"},"geometry":{"type":"LineString","coordinates":[[18.33363,54.45267],[18.33367,54.45244]]}},{"type":"Feature","properties":{"numer":"1406G","klasa":"","kat":"powiatowa"},"geometry":{"type":"LineString","coordinates":[[18.33337,54.45273],[18.33296,54.45258]]}},{"type":"Feature","properties":{"numer":"1415G","klasa":"","kat":"powiatowa"},"geometry":{"type":"LineString","coordinates":[[18.3336,54.45283],[18.33363,54.45267]]}},{"type":"Feature","properties":{"numer":"1405G","klasa":"droga zbiorcza","kat":"powiatowa"},"geometry":{"type":"LineString","coordinates":[[18.3336,54.45283],[18.33337,54.45273]]}},{"type":"Feature","properties":{"numer":"1405G","klasa":"droga zbiorcza","kat":"powiatowa"},"geometry":{"type":"LineString","coordinates":[[18.33387,54.45281],[18.3345,54.45278]]}},{"type":"Feature","properties":{"numer":"1405G","klasa":"droga zbiorcza","kat":"powiatowa"},"geometry":{"type":"LineString","coordinates":[[18.3336,54.45283],[18.33387,54.45281]]}},{"type":"Feature","properties":{"numer":"1405G","klasa":"droga zbiorcza","kat":"powiatowa"},"geometry":{"type":"LineString","coordinates":[[18.33333,54.45287],[18.3336,54.45283]]}},{"type":"Feature","properties":{"numer":"1489G","klasa":"droga zbiorcza","kat":"powiatowa"},"geometry":{"type":"LineString","coordinates":[[18.39896700479372,54.4433073415558],[18.39696,54.44336],[18.38971,54.44432],[18.38896,54.44455],[18.38738,54.44556]]}},{"type":"Feature","properties":{"numer":"E28,S6","klasa":"droga ekspresowa","kat":"krajowa"},"geometry":{"type":"LineString","coordinates":[[18.38361,54.46539],[18.40093,54.46025],[18.41426075352552,54.45539075725239]]}},{"type":"Feature","properties":{"numer":"224","klasa":"droga zbiorcza","kat":"wojewodzka"},"geometry":{"type":"LineString","coordinates":[[18.1683,54.4377],[18.17358,54.4337],[18.17619,54.43117],[18.17905,54.42866],[18.18322,54.42417],[18.185572488268267,54.420790692748184]]}},{"type":"Feature","properties":{"numer":"224","klasa":"droga zbiorcza","kat":"wojewodzka"},"geometry":{"type":"LineString","coordinates":[[18.14016,54.46187],[18.14189,54.46625],[18.14217,54.46659],[18.14268,54.46685],[18.15328,54.47001],[18.15998,54.47055],[18.17017,54.47149],[18.17088,54.47178],[18.1794,54.47625],[18.18201,54.47694],[18.18424,54.47743],[18.18505,54.4775],[18.18705,54.47739],[18.1877,54.47745],[18.18813,54.47757],[18.1907,54.47874],[18.19167,54.47906]]}},{"type":"Feature","properties":{"numer":"224","klasa":"droga zbiorcza","kat":"wojewodzka"},"geometry":{"type":"LineString","coordinates":[[18.19167,54.47906],[18.19174,54.47908]]}},{"type":"Feature","properties":{"numer":"224","klasa":"droga zbiorcza","kat":"wojewodzka"},"geometry":{"type":"LineString","coordinates":[[18.19174,54.47908],[18.19356,54.47976],[18.1949,54.48017],[18.19884,54.48075],[18.20254,54.48085],[18.21447,54.48416],[18.21846,54.48475],[18.21883,54.48498],[18.22007,54.48674]]}},{"type":"Feature","properties":{"numer":"224","klasa":"droga zbiorcza","kat":"wojewodzka"},"geometry":{"type":"LineString","coordinates":[[18.22007,54.48674],[18.21856,54.48673],[18.21779,54.487],[18.21549,54.48872],[18.21061,54.49126],[18.20951,54.49204]]}},{"type":"Feature","properties":{"numer":"224","klasa":"droga zbiorcza","kat":"wojewodzka"},"geometry":{"type":"LineString","coordinates":[[18.20951,54.49204],[18.20947,54.49208]]}},{"type":"Feature","properties":{"numer":"224","klasa":"droga zbiorcza","kat":"wojewodzka"},"geometry":{"type":"LineString","coordinates":[[18.20913,54.49262],[18.20947,54.49208]]}},{"type":"Feature","properties":{"numer":"224","klasa":"droga zbiorcza","kat":"wojewodzka"},"geometry":{"type":"LineString","coordinates":[[18.20918,54.49297],[18.20913,54.49262]]}},{"type":"Feature","properties":{"numer":"224","klasa":"droga zbiorcza","kat":"wojewodzka"},"geometry":{"type":"LineString","coordinates":[[18.20927,54.49313],[18.20918,54.49297]]}},{"type":"Feature","properties":{"numer":"1416G","klasa":"","kat":"powiatowa"},"geometry":{"type":"LineString","coordinates":[[18.22771,54.48654],[18.22776,54.48591],[18.22747,54.48491],[18.22609,54.48128],[18.22496,54.47789],[18.22508,54.4773],[18.22589,54.47585],[18.22565,54.47375],[18.22568,54.473],[18.22718,54.46814],[18.22723,54.46633],[18.22796,54.46389],[18.22784,54.46342],[18.22705,54.462],[18.22725,54.45985],[18.22718,54.45818],[18.22692,54.45754],[18.22583,54.4562],[18.22579,54.45586],[18.22593,54.45551],[18.22802,54.45373],[18.22962,54.45214],[18.23535,54.44524],[18.236,54.44453],[18.236276719056974,54.44432092337917]]}},{"type":"Feature","properties":{"numer":"1416G","klasa":"","kat":"powiatowa"},"geometry":{"type":"LineString","coordinates":[[18.238468733307048,54.443624929847296],[18.23910819111806,54.4435421350343]]}},{"type":"Feature","properties":{"numer":"1416G","klasa":"","kat":"powiatowa"},"geometry":{"type":"LineString","coordinates":[[18.24322244728917,54.44270068524096],[18.24353,54.44258],[18.243722081468214,54.44247123097583]]}},{"type":"Feature","properties":{"numer":"1416G","klasa":"","kat":"powiatowa"},"geometry":{"type":"LineString","coordinates":[[18.247428627943485,54.43996640376766],[18.24927,54.43905],[18.25791,54.43562],[18.25889,54.43546],[18.26057,54.43551]]}},{"type":"Feature","properties":{"numer":"1405G","klasa":"droga zbiorcza","kat":"powiatowa"},"geometry":{"type":"LineString","coordinates":[[18.22771,54.48654],[18.22852,54.48645],[18.25155,54.48147],[18.25822,54.47989],[18.26735,54.47809]]}},{"type":"Feature","properties":{"numer":"1405G","klasa":"droga zbiorcza","kat":"powiatowa"},"geometry":{"type":"LineString","coordinates":[[18.22007,54.48674],[18.22167,54.48666],[18.22324,54.48671],[18.22771,54.48654]]}},{"type":"Feature","properties":{"numer":"E28,S6","klasa":"droga ekspresowa","kat":"krajowa"},"geometry":{"type":"LineString","coordinates":[[18.2098,54.49605],[18.21728,54.49364],[18.21989,54.49293],[18.22258,54.49232],[18.2258,54.49174],[18.22834,54.49141],[18.23516,54.49082],[18.23825,54.49042],[18.24127,54.4899],[18.24429,54.48924],[18.24636,54.48869],[18.24957,54.48769],[18.2528,54.48645],[18.26617,54.48018],[18.26867,54.47917]]}},{"type":"Feature","properties":{"numer":"1418G","klasa":"","kat":"powiatowa"},"geometry":{"type":"LineString","coordinates":[[18.1683,54.4377],[18.1652,54.43717],[18.16155,54.4367],[18.16081,54.43653],[18.1603,54.4363],[18.15481,54.43278],[18.15396,54.43247],[18.15155,54.43186],[18.14926,54.43101],[18.14754,54.43077],[18.14552,54.43126],[18.14454,54.43128],[18.13992,54.4311],[18.13787,54.43083],[18.13716,54.43065],[18.13381,54.42933],[18.13188,54.42866],[18.13085,54.42789],[18.13027,54.42761],[18.12646,54.42661],[18.12659,54.42555],[18.1258,54.42467],[18.12514,54.42418],[18.11857,54.42158],[18.11763,54.42105],[18.11724,54.42061],[18.11701,54.41995],[18.1172,54.41926],[18.11799,54.41816],[18.11796,54.41792],[18.11728,54.41682],[18.11707,54.41629],[18.117172836538465,54.41561299278844]]}},{"type":"Feature","properties":{"numer":"224","klasa":"droga zbiorcza","kat":"wojewodzka"},"geometry":{"type":"LineString","coordinates":[[18.1683,54.4377],[18.16188,54.44259],[18.14585,54.45528],[18.14272,54.45961],[18.14136,54.46127],[18.14099,54.46161],[18.14016,54.46187]]}},{"type":"Feature","properties":{"numer":"1451G","klasa":"droga zbiorcza","kat":"powiatowa"},"geometry":{"type":"LineString","coordinates":[[18.09858,54.46638],[18.10048,54.46615],[18.1049,54.46622],[18.10748,54.46591],[18.1118,54.46601],[18.11286,54.46583],[18.11476,54.46566],[18.11549,54.46537],[18.11633,54.46521],[18.12588,54.46448],[18.12903,54.46381],[18.13447,54.4638],[18.13502,54.46367],[18.13792,54.46242],[18.13887,54.46225],[18.14016,54.46187]]}},{"type":"Feature","properties":{"numer":"1336G","klasa":"droga zbiorcza","kat":"powiatowa"},"geometry":{"type":"LineString","coordinates":[[18.122361839221657,54.49084510294334],[18.12345,54.49124],[18.12535,54.49155],[18.1283,54.4925],[18.13059,54.4931],[18.13123,54.49317],[18.13566,54.49325],[18.13732,54.49362],[18.14219,54.49696],[18.14389,54.49954],[18.14434,54.49978],[18.14586,54.50022],[18.1463,54.50046],[18.14656,54.50073],[18.14724,54.50197]]}},{"type":"Feature","properties":{"numer":"1336G","klasa":"droga zbiorcza","kat":"powiatowa"},"geometry":{"type":"LineString","coordinates":[[18.14724,54.50197],[18.14736,54.50307],[18.14662,54.50463],[18.14664,54.50596],[18.1462,54.50715],[18.14569,54.50788],[18.13989,54.5131],[18.139858003132506,54.51315639051895]]}},{"type":"Feature","properties":{"numer":"1405G","klasa":"droga zbiorcza","kat":"powiatowa"},"geometry":{"type":"LineString","coordinates":[[18.3328,54.45295],[18.33333,54.45287]]}},{"type":"Feature","properties":{"numer":"1405G","klasa":"droga zbiorcza","kat":"powiatowa"},"geometry":{"type":"LineString","coordinates":[[18.36319,54.45489],[18.36669,54.45405],[18.37163,54.45178]]}},{"type":"Feature","properties":{"numer":"1405G","klasa":"droga zbiorcza","kat":"powiatowa"},"geometry":{"type":"LineString","coordinates":[[18.3345,54.45278],[18.3359,54.45294],[18.33922,54.45295],[18.3405,54.45333],[18.34162,54.45329],[18.34617,54.45469],[18.34821,54.4549],[18.35343,54.4562],[18.35415,54.4562],[18.35766,54.45584],[18.36203,54.45513]]}},{"type":"Feature","properties":{"numer":"1405G","klasa":"droga zbiorcza","kat":"powiatowa"},"geometry":{"type":"LineString","coordinates":[[18.36203,54.45513],[18.36319,54.45489]]}},{"type":"Feature","properties":{"numer":"1489G","klasa":"droga zbiorcza","kat":"powiatowa"},"geometry":{"type":"LineString","coordinates":[[18.38361,54.46539],[18.38342,54.46431],[18.38265,54.46296],[18.38273,54.46234],[18.38304,54.46197],[18.38464,54.46078],[18.38797,54.45785],[18.38865,54.45662]]}},{"type":"Feature","properties":{"numer":"1489G","klasa":"droga zbiorcza","kat":"powiatowa"},"geometry":{"type":"LineString","coordinates":[[18.37525,54.47534],[18.38208,54.4737],[18.38312,54.47332],[18.38358,54.47303],[18.38394,54.47226],[18.38385,54.4717],[18.38349,54.47112],[18.38346,54.47087],[18.38383,54.46999],[18.38374,54.4683],[18.384,54.46745],[18.38372,54.4664],[18.38361,54.46539]]}},{"type":"Feature","properties":{"numer":"E28,S6","klasa":"droga ekspresowa","kat":"krajowa"},"geometry":{"type":"LineString","coordinates":[[18.26867,54.47917],[18.27032,54.47856],[18.27309,54.47774],[18.27679,54.47696],[18.27884,54.47663],[18.28067,54.47645],[18.28497,54.47623],[18.28884,54.47634],[18.29281,54.47672],[18.29446,54.47696],[18.30236,54.47848],[18.3053,54.47887],[18.30924,54.47921],[18.31288,54.47933],[18.31668,54.47931],[18.32166,54.47916],[18.32834,54.47872],[18.33074,54.4784],[18.33307,54.47795],[18.33679,54.47692],[18.34247,54.47505],[18.34582,54.47421],[18.34796,54.47378],[18.35154,54.47322],[18.35371,54.47296],[18.36273,54.47232],[18.36499,54.472],[18.36761,54.47147],[18.37012,54.47073],[18.37158,54.4702],[18.379,54.46693],[18.38022,54.46646],[18.38361,54.46539]]}},{"type":"Feature","properties":{"numer":"1489G","klasa":"droga zbiorcza","kat":"powiatowa"},"geometry":{"type":"LineString","coordinates":[[18.34514,54.4844],[18.34569,54.484],[18.34686,54.4836],[18.34902,54.48365],[18.35131,54.48352],[18.35181,54.48344],[18.35329,54.48288],[18.35433,54.4817],[18.35565,54.48087],[18.36211,54.4784],[18.37525,54.47534]]}},{"type":"Feature","properties":{"numer":"1412G","klasa":"","kat":"powiatowa"},"geometry":{"type":"LineString","coordinates":[[18.34173,54.48768],[18.34033,54.48696],[18.33969,54.48672],[18.33721,54.48624],[18.33506,54.48517],[18.33275,54.48433],[18.32865,54.48336],[18.32756,54.48328],[18.32553,54.48337],[18.32467,54.48329],[18.32381,54.48307],[18.32223,54.48246],[18.32138,54.48222],[18.31713,54.48117],[18.3135,54.48044],[18.31259,54.48048],[18.31066,54.48133],[18.30791,54.48201],[18.30537,54.48232],[18.30358,54.48301],[18.30174,54.48326],[18.30007,54.48374],[18.29918,54.48377]]}},{"type":"Feature","properties":{"numer":"1489G","klasa":"droga zbiorcza","kat":"powiatowa"},"geometry":{"type":"LineString","coordinates":[[18.34514,54.4844],[18.34487,54.48467]]}},{"type":"Feature","properties":{"numer":"1489G","klasa":"droga zbiorcza","kat":"powiatowa"},"geometry":{"type":"LineString","coordinates":[[18.34467,54.48493],[18.34487,54.48467]]}},{"type":"Feature","properties":{"numer":"1489G","klasa":"droga zbiorcza","kat":"powiatowa"},"geometry":{"type":"LineString","coordinates":[[18.34447,54.48524],[18.34467,54.48493]]}},{"type":"Feature","properties":{"numer":"1489G","klasa":"droga zbiorcza","kat":"powiatowa"},"geometry":{"type":"LineString","coordinates":[[18.34447,54.48524],[18.34405,54.48591],[18.34347,54.48642]]}},{"type":"Feature","properties":{"numer":"1489G","klasa":"droga zbiorcza","kat":"powiatowa"},"geometry":{"type":"LineString","coordinates":[[18.34347,54.48642],[18.34264,54.48716],[18.34173,54.48768]]}},{"type":"Feature","properties":{"numer":"1412G","klasa":"","kat":"powiatowa"},"geometry":{"type":"LineString","coordinates":[[18.358039989861098,54.493393570921626],[18.35722,54.49297],[18.35509,54.49237],[18.35226,54.49083],[18.35,54.48896],[18.34779,54.4874],[18.34742,54.48699],[18.34666,54.48696],[18.34347,54.48642]]}},{"type":"Feature","properties":{"numer":"1489G","klasa":"droga zbiorcza","kat":"powiatowa"},"geometry":{"type":"LineString","coordinates":[[18.34173,54.48768],[18.34054,54.4884],[18.33969,54.48959],[18.33931,54.49059],[18.33792,54.4918],[18.33703,54.49238],[18.33468,54.49358],[18.33415,54.49407],[18.33282,54.49491],[18.33232,54.49592],[18.33257,54.49648],[18.33246,54.49686],[18.330133784478427,54.49914782912683]]}},{"type":"Feature","properties":{"numer":"1405G","klasa":"droga zbiorcza","kat":"powiatowa"},"geometry":{"type":"LineString","coordinates":[[18.26735,54.47809],[18.26787,54.47801]]}},{"type":"Feature","properties":{"numer":"1412G","klasa":"","kat":"powiatowa"},"geometry":{"type":"LineString","coordinates":[[18.26818,54.47843],[18.26804,54.47808]]}},{"type":"Feature","properties":{"numer":"1412G","klasa":"","kat":"powiatowa"},"geometry":{"type":"LineString","coordinates":[[18.26848,54.47892],[18.26818,54.47843]]}},{"type":"Feature","properties":{"numer":"1412G","klasa":"","kat":"powiatowa"},"geometry":{"type":"LineString","coordinates":[[18.26867,54.47917],[18.26848,54.47892]]}},{"type":"Feature","properties":{"numer":"1412G","klasa":"","kat":"powiatowa"},"geometry":{"type":"LineString","coordinates":[[18.26885,54.4794],[18.26867,54.47917]]}},{"type":"Feature","properties":{"numer":"1412G","klasa":"","kat":"powiatowa"},"geometry":{"type":"LineString","coordinates":[[18.26898,54.48137],[18.26925,54.4807],[18.26911,54.47989],[18.26885,54.4794]]}},{"type":"Feature","properties":{"numer":"1412G","klasa":"","kat":"powiatowa"},"geometry":{"type":"LineString","coordinates":[[18.27621,54.48521],[18.27569,54.48509],[18.27462,54.48513],[18.2737,54.48498],[18.27112,54.48348],[18.27025,54.48239],[18.26949,54.48199],[18.26907,54.48168],[18.26895,54.48154],[18.26898,54.48137]]}},{"type":"Feature","properties":{"numer":"1412G","klasa":"","kat":"powiatowa"},"geometry":{"type":"LineString","coordinates":[[18.29918,54.48377],[18.29764,54.48371],[18.29636,54.48346],[18.29528,54.48345],[18.29385,54.48374],[18.29293,54.48415],[18.29136,54.48412],[18.2905,54.48419],[18.28978,54.48414],[18.28846,54.48467],[18.28769,54.48523],[18.28687,54.4854],[18.28635,54.48539],[18.28517,54.48521],[18.28332,54.48517],[18.28064,54.48523],[18.2798,54.48515],[18.27926,54.4852],[18.27851,54.48545],[18.27811,54.48547],[18.27702,54.48542],[18.27621,54.48521]]}},{"type":"Feature","properties":{"numer":"1409G","klasa":"","kat":"powiatowa"},"geometry":{"type":"LineString","coordinates":[[18.20866,54.49306],[18.20899,54.4931]]}},{"type":"Feature","properties":{"numer":"1409G","klasa":"","kat":"powiatowa"},"geometry":{"type":"LineString","coordinates":[[18.20899,54.4931],[18.20927,54.49313]]}},{"type":"Feature","properties":{"numer":"224","klasa":"droga zbiorcza","kat":"wojewodzka"},"geometry":{"type":"LineString","coordinates":[[18.20927,54.49313],[18.20922,54.4933]]}},{"type":"Feature","properties":{"numer":"224","klasa":"droga zbiorcza","kat":"wojewodzka"},"geometry":{"type":"LineString","coordinates":[[18.20922,54.4933],[18.20911,54.49367]]}},{"type":"Feature","properties":{"numer":"224","klasa":"droga zbiorcza","kat":"wojewodzka"},"geometry":{"type":"LineString","coordinates":[[18.20911,54.49367],[18.20889,54.49446],[18.20893,54.49488],[18.2098,54.49605]]}},{"type":"Feature","properties":{"numer":"224","klasa":"droga zbiorcza","kat":"wojewodzka"},"geometry":{"type":"LineString","coordinates":[[18.2098,54.49605],[18.21051,54.49692]]}},{"type":"Feature","properties":{"numer":"224","klasa":"droga zbiorcza","kat":"wojewodzka"},"geometry":{"type":"LineString","coordinates":[[18.21051,54.49692],[18.21068,54.49725]]}},{"type":"Feature","properties":{"numer":"224","klasa":"droga zbiorcza","kat":"wojewodzka"},"geometry":{"type":"LineString","coordinates":[[18.21068,54.49725],[18.21083,54.49763]]}},{"type":"Feature","properties":{"numer":"1409G","klasa":"","kat":"powiatowa"},"geometry":{"type":"LineString","coordinates":[[18.14724,54.50197],[18.14809,54.5019],[18.14999,54.50193],[18.15811,54.50233],[18.165,54.50216],[18.16746,54.50252],[18.16897,54.50245],[18.16996,54.50217],[18.17229,54.50089],[18.17323,54.50055],[18.17475,54.50022],[18.17685,54.5],[18.1776,54.49986],[18.18614,54.49691],[18.18749,54.49671],[18.18943,54.49666],[18.19061,54.49643],[18.19317,54.49559],[18.19503,54.49472],[18.1957,54.4945],[18.19695,54.49432],[18.19959,54.49446],[18.20077,54.49441],[18.20181,54.49422],[18.20574,54.49305],[18.20703,54.49294],[18.20866,54.49306]]}},{"type":"Feature","properties":{"numer":"224","klasa":"droga zbiorcza","kat":"wojewodzka"},"geometry":{"type":"LineString","coordinates":[[18.21083,54.49763],[18.21094,54.49788]]}},{"type":"Feature","properties":{"numer":"224","klasa":"droga zbiorcza","kat":"wojewodzka"},"geometry":{"type":"LineString","coordinates":[[18.21094,54.49788],[18.21111,54.49912],[18.21069,54.50232],[18.20927,54.50399],[18.2087,54.50495],[18.20804,54.50712],[18.20382,54.51571]]}},{"type":"Feature","properties":{"numer":"E28,S6","klasa":"droga ekspresowa","kat":"krajowa"},"geometry":{"type":"LineString","coordinates":[[18.149553390355255,54.51697451755102],[18.15319,54.51507],[18.17284,54.50514],[18.1759,54.50376],[18.17901,54.5026],[18.18193,54.5017],[18.18494,54.50093],[18.18806,54.5003],[18.20501,54.49724],[18.20745,54.49669],[18.2098,54.49605]]}},{"type":"Feature","properties":{"numer":"224","klasa":"droga zbiorcza","kat":"wojewodzka"},"geometry":{"type":"LineString","coordinates":[[18.20382,54.51571],[18.20225,54.51906],[18.20238,54.5194],[18.20381,54.52058]]}},{"type":"Feature","properties":{"numer":"224","klasa":"droga zbiorcza","kat":"wojewodzka"},"geometry":{"type":"LineString","coordinates":[[18.20381,54.52058],[18.20387,54.52062]]}},{"type":"Feature","properties":{"numer":"224","klasa":"droga zbiorcza","kat":"wojewodzka"},"geometry":{"type":"LineString","coordinates":[[18.20387,54.52062],[18.20461,54.5215],[18.20493,54.52159],[18.20642,54.5216],[18.20744,54.52168],[18.20783,54.52182],[18.20998,54.52302],[18.21376,54.52732]]}},{"type":"Feature","properties":{"numer":"224","klasa":"droga zbiorcza","kat":"wojewodzka"},"geometry":{"type":"LineString","coordinates":[[18.215193394526544,54.53298044045539],[18.21482,54.53192],[18.21502,54.52898],[18.21484,54.52861],[18.21376,54.52732]]}}]}