{"type":"FeatureCollection","features":[{"type":"Feature","properties":{"numer":"942","klasa":"droga gĹ‚Ăłwna","kat":"wojewodzka"},"geometry":{"type":"LineString","coordinates":[[18.96038590604027,49.66480326174497],[18.96034,49.66479],[18.95985,49.66479],[18.95925,49.66503],[18.95874,49.66539],[18.95808,49.66613],[18.95777,49.66613],[18.95761,49.66601],[18.95766,49.66582],[18.95849,49.66467],[18.95867,49.6641],[18.95863,49.66384],[18.958,49.6631],[18.95786,49.6628],[18.95783642427556,49.66260634226353]]}},{"type":"Feature","properties":{"numer":"2602S","klasa":"droga zbiorcza","kat":"powiatowa"},"geometry":{"type":"LineString","coordinates":[[18.95461,49.71566],[18.95478,49.71565]]}},{"type":"Feature","properties":{"numer":"2602S","klasa":"droga zbiorcza","kat":"powiatowa"},"geometry":{"type":"LineString","coordinates":[[18.95478,49.71565],[18.95545,49.71565],[18.95609,49.71576],[18.9566,49.71609],[18.95803,49.7173],[18.96122,49.71815],[18.96175,49.7182],[18.9643,49.71789]]}},{"type":"Feature","properties":{"numer":"2603S","klasa":"","kat":"powiatowa"},"geometry":{"type":"LineString","coordinates":[[18.92617,49.67381],[18.92649,49.67332],[18.92693,49.67299],[18.92737,49.67249],[18.92778,49.67225]]}},{"type":"Feature","properties":{"numer":"2603S","klasa":"","kat":"powiatowa"},"geometry":{"type":"LineString","coordinates":[[18.92613,49.67386],[18.92617,49.67381]]}},{"type":"Feature","properties":{"numer":"2603S","klasa":"","kat":"powiatowa"},"geometry":{"type":"LineString","coordinates":[[18.91665,49.68042],[18.91733,49.68024],[18.91788,49.67999],[18.9187,49.67912],[18.91938,49.67862],[18.92002,49.67786],[18.92055,49.67751],[18.92145,49.67706],[18.9229,49.67665],[18.92392,49.67608],[18.92423,49.67583],[18.92494,49.67496],[18.92613,49.67386]]}},{"type":"Feature","properties":{"numer":"2603S","klasa":"","kat":"powiatowa"},"geometry":{"type":"LineString","coordinates":[[18.91652,49.68046],[18.91665,49.68042]]}},{"type":"Feature","properties":{"numer":"2603S","klasa":"","kat":"powiatowa"},"geometry":{"type":"LineString","coordinates":[[18.91285,49.68456],[18.91336,49.68406],[18.91487,49.68178],[18.91652,49.68046]]}},{"type":"Feature","properties":{"numer":"2603S","klasa":"","kat":"powiatowa"},"geometry":{"type":"LineString","coordinates":[[18.91279,49.68461],[18.91285,49.68456]]}},{"type":"Feature","properties":{"numer":"2603S","klasa":"","kat":"powiatowa"},"geometry":{"type":"LineString","coordinates":[[18.90408,49.69467],[18.90532,49.69393],[18.90623,49.6931],[18.90702,49.69207],[18.90723,49.69151],[18.9074,49.68895],[18.90772,49.68832],[18.90889,49.6867],[18.9096,49.6861],[18.91024,49.68569],[18.91122,49.6852],[18.9123,49.68491],[18.91279,49.68461]]}},{"type":"Feature","properties":{"numer":"2603S","klasa":"","kat":"powiatowa"},"geometry":{"type":"LineString","coordinates":[[18.90394,49.69479],[18.90408,49.69467]]}},{"type":"Feature","properties":{"numer":"2603S","klasa":"","kat":"powiatowa"},"geometry":{"type":"LineString","coordinates":[[18.90209,49.70103],[18.90232,49.69976],[18.90215,49.69831],[18.90221,49.69718],[18.90317,49.69617],[18.90363,49.69517],[18.90394,49.69479]]}},{"type":"Feature","properties":{"numer":"2603S","klasa":"","kat":"powiatowa"},"geometry":{"type":"LineString","coordinates":[[18.90206,49.70128],[18.90209,49.70103]]}},{"type":"Feature","properties":{"numer":"2603S","klasa":"","kat":"powiatowa"},"geometry":{"type":"LineString","coordinates":[[18.90237,49.70283],[18.90239,49.70238],[18.90211,49.70171],[18.90206,49.70128]]}},{"type":"Feature","properties":{"numer":"2603S","klasa":"","kat":"powiatowa"},"geometry":{"type":"LineString","coordinates":[[18.90235,49.70291],[18.90237,49.70283]]}},{"type":"Feature","properties":{"numer":"2603S","klasa":"","kat":"powiatowa"},"geometry":{"type":"LineString","coordinates":[[18.90225,49.70934],[18.90187,49.70855],[18.90175,49.70694],[18.90188,49.70484],[18.90235,49.70291]]}},{"type":"Feature","properties":{"numer":"2603S","klasa":"","kat":"powiatowa"},"geometry":{"type":"LineString","coordinates":[[18.90234,49.70945],[18.90225,49.70934]]}},{"type":"Feature","properties":{"numer":"2603S","klasa":"","kat":"powiatowa"},"geometry":{"type":"LineString","coordinates":[[18.90293,49.71997],[18.90493,49.71778],[18.90581,49.71584],[18.90605,49.71456],[18.90574,49.71329],[18.90513,49.71255],[18.90435,49.71134],[18.90404,49.71096],[18.90234,49.70945]]}},{"type":"Feature","properties":{"numer":"2603S","klasa":"","kat":"powiatowa"},"geometry":{"type":"LineString","coordinates":[[18.9027,49.72027],[18.90293,49.71997]]}},{"type":"Feature","properties":{"numer":"2602S","klasa":"droga zbiorcza","kat":"powiatowa"},"geometry":{"type":"LineString","coordinates":[[18.90726,49.72434],[18.90791,49.72433],[18.90838,49.72423],[18.91298,49.7223],[18.91379,49.72206],[18.91629,49.72159],[18.91954,49.7214],[18.92139,49.72092],[18.92529,49.72062],[18.93076,49.71909]]}},{"type":"Feature","properties":{"numer":"2603S","klasa":"","kat":"powiatowa"},"geometry":{"type":"LineString","coordinates":[[18.90231,49.72581],[18.90191,49.72487],[18.90125,49.72439],[18.90106,49.72412],[18.90115,49.7221],[18.90137,49.72148],[18.9027,49.72027]]}},{"type":"Feature","properties":{"numer":"2602S","klasa":"droga zbiorcza","kat":"powiatowa"},"geometry":{"type":"LineString","coordinates":[[18.90646,49.72431],[18.90726,49.72434]]}},{"type":"Feature","properties":{"numer":"2602S","klasa":"droga zbiorcza","kat":"powiatowa"},"geometry":{"type":"LineString","coordinates":[[18.90231,49.72581],[18.90541,49.72442],[18.90595,49.7243],[18.90646,49.72431]]}},{"type":"Feature","properties":{"numer":"2602S","klasa":"droga zbiorcza","kat":"powiatowa"},"geometry":{"type":"LineString","coordinates":[[18.89973,49.72698],[18.90231,49.72581]]}},{"type":"Feature","properties":{"numer":"2602S","klasa":"droga zbiorcza","kat":"powiatowa"},"geometry":{"type":"LineString","coordinates":[[18.89927,49.72719],[18.89973,49.72698]]}},{"type":"Feature","properties":{"numer":"2604S","klasa":"droga zbiorcza","kat":"powiatowa"},"geometry":{"type":"LineString","coordinates":[[18.851360490435663,49.75209843852701],[18.85412,49.75258],[18.85689,49.7528],[18.85777,49.75321],[18.85836,49.75333],[18.86106,49.75328],[18.86214,49.75313],[18.86548,49.75289],[18.86639,49.75268],[18.86809,49.75249],[18.86893,49.75216],[18.8694,49.75207]]}},{"type":"Feature","properties":{"numer":"2604S","klasa":"droga zbiorcza","kat":"powiatowa"},"geometry":{"type":"LineString","coordinates":[[18.8694,49.75207],[18.86951,49.75205]]}},{"type":"Feature","properties":{"numer":"2604S","klasa":"droga zbiorcza","kat":"powiatowa"},"geometry":{"type":"LineString","coordinates":[[18.86951,49.75205],[18.87,49.75207],[18.87073,49.75223]]}},{"type":"Feature","properties":{"numer":"2602S","klasa":"droga zbiorcza","kat":"powiatowa"},"geometry":{"type":"LineString","coordinates":[[18.87041,49.75251],[18.87073,49.75223]]}},{"type":"Feature","properties":{"numer":"2602S","klasa":"droga zbiorcza","kat":"powiatowa"},"geometry":{"type":"LineString","coordinates":[[18.93088,49.71905],[18.93563,49.71712],[18.93814,49.71645],[18.94051,49.71625],[18.94339,49.71578],[18.9466,49.71581],[18.94796,49.71536],[18.94883,49.71544],[18.95042,49.7154],[18.95131,49.71586],[18.95164,49.71594],[18.95346,49.71572],[18.95461,49.71566]]}},{"type":"Feature","properties":{"numer":"2602S","klasa":"droga zbiorcza","kat":"powiatowa"},"geometry":{"type":"LineString","coordinates":[[18.93076,49.71909],[18.93088,49.71905]]}},{"type":"Feature","properties":{"numer":"941","klasa":"droga gĹ‚Ăłwna","kat":"wojewodzka"},"geometry":{"type":"LineString","coordinates":[[18.80918,49.76836130952381],[18.80919,49.76832],[18.80920549276081,49.76801111308139]]}},{"type":"Feature","properties":{"numer":"2602S","klasa":"droga zbiorcza","kat":"powiatowa"},"geometry":{"type":"LineString","coordinates":[[18.87034,49.75257],[18.87041,49.75251]]}},{"type":"Feature","properties":{"numer":"2602S","klasa":"droga zbiorcza","kat":"powiatowa"},"geometry":{"type":"LineString","coordinates":[[18.85202,49.7719],[18.85395,49.77002],[18.85541,49.76845],[18.85779,49.76368],[18.85823,49.76305],[18.87034,49.75257]]}},{"type":"Feature","properties":{"numer":"2602S","klasa":"droga zbiorcza","kat":"powiatowa"},"geometry":{"type":"LineString","coordinates":[[18.85196,49.77195],[18.85202,49.7719]]}},{"type":"Feature","properties":{"numer":"2602S","klasa":"droga zbiorcza","kat":"powiatowa"},"geometry":{"type":"LineString","coordinates":[[18.8519,49.77199],[18.85196,49.77195]]}},{"type":"Feature","properties":{"numer":"2600S","klasa":"droga zbiorcza","kat":"powiatowa"},"geometry":{"type":"LineString","coordinates":[[18.85201,49.77199],[18.85196,49.77195]]}},{"type":"Feature","properties":{"numer":"2600S","klasa":"droga zbiorcza","kat":"powiatowa"},"geometry":{"type":"LineString","coordinates":[[18.85249,49.77232],[18.85201,49.77199]]}},{"type":"Feature","properties":{"numer":"2600S","klasa":"droga zbiorcza","kat":"powiatowa"},"geometry":{"type":"LineString","coordinates":[[18.85292,49.77266],[18.85249,49.77232]]}},{"type":"Feature","properties":{"numer":"2600S","klasa":"droga zbiorcza","kat":"powiatowa"},"geometry":{"type":"LineString","coordinates":[[18.85418,49.77353],[18.85292,49.77266]]}},{"type":"Feature","properties":{"numer":"2602S","klasa":"droga zbiorcza","kat":"powiatowa"},"geometry":{"type":"LineString","coordinates":[[18.84312,49.77444],[18.84388,49.77413],[18.84712,49.77337],[18.85105,49.77233],[18.8519,49.77199]]}},{"type":"Feature","properties":{"numer":"2600S","klasa":"droga zbiorcza","kat":"powiatowa"},"geometry":{"type":"LineString","coordinates":[[18.85431,49.77366],[18.85418,49.77353]]}},{"type":"Feature","properties":{"numer":"2602S","klasa":"droga zbiorcza","kat":"powiatowa"},"geometry":{"type":"LineString","coordinates":[[18.89591,49.72967],[18.89835,49.72771],[18.89927,49.72719]]}},{"type":"Feature","properties":{"numer":"2602S","klasa":"droga zbiorcza","kat":"powiatowa"},"geometry":{"type":"LineString","coordinates":[[18.89583,49.72974],[18.89591,49.72967]]}},{"type":"Feature","properties":{"numer":"2602S","klasa":"droga zbiorcza","kat":"powiatowa"},"geometry":{"type":"LineString","coordinates":[[18.88368,49.74071],[18.88725,49.73712],[18.89583,49.72974]]}},{"type":"Feature","properties":{"numer":"2602S","klasa":"droga zbiorcza","kat":"powiatowa"},"geometry":{"type":"LineString","coordinates":[[18.88362,49.74076],[18.88368,49.74071]]}},{"type":"Feature","properties":{"numer":"2602S","klasa":"droga zbiorcza","kat":"powiatowa"},"geometry":{"type":"LineString","coordinates":[[18.87073,49.75223],[18.88148,49.74303],[18.88362,49.74076]]}},{"type":"Feature","properties":{"numer":"2602S","klasa":"droga zbiorcza","kat":"powiatowa"},"geometry":{"type":"LineString","coordinates":[[18.84251,49.77474],[18.84312,49.77444]]}},{"type":"Feature","properties":{"numer":"2600S","klasa":"droga zbiorcza","kat":"powiatowa"},"geometry":{"type":"LineString","coordinates":[[18.85661,49.77643],[18.85608,49.77579],[18.8556,49.7749],[18.85497,49.77438],[18.85431,49.77366]]}},{"type":"Feature","properties":{"numer":"2600S","klasa":"droga zbiorcza","kat":"powiatowa"},"geometry":{"type":"LineString","coordinates":[[18.85674,49.77658],[18.85661,49.77643]]}},{"type":"Feature","properties":{"numer":"2600S","klasa":"droga zbiorcza","kat":"powiatowa"},"geometry":{"type":"LineString","coordinates":[[18.85728,49.7772],[18.85674,49.77658]]}},{"type":"Feature","properties":{"numer":"2602S","klasa":"droga zbiorcza","kat":"powiatowa"},"geometry":{"type":"LineString","coordinates":[[18.823244459449786,49.78278565173821],[18.8246,49.78131],[18.82769,49.77963],[18.83114,49.77802],[18.83195,49.77769],[18.83329,49.77731],[18.84144,49.77519],[18.84251,49.77474]]}},{"type":"Feature","properties":{"numer":"2600S","klasa":"droga zbiorcza","kat":"powiatowa"},"geometry":{"type":"LineString","coordinates":[[18.857202844670482,49.7924125763933],[18.858,49.78753],[18.85791,49.78707],[18.85733,49.78558],[18.8573,49.77954],[18.85743,49.77776],[18.85728,49.7772]]}},{"type":"Feature","properties":{"numer":"2600S","klasa":"","kat":"powiatowa"},"geometry":{"type":"LineString","coordinates":[[18.856607205387196,49.79519378226713],[18.85662151016457,49.79517198451113]]}}]}