{"type":"FeatureCollection","features":[{"type":"Feature","properties":{"numer":"2655S","klasa":"","kat":"powiatowa"},"geometry":{"type":"LineString","coordinates":[[18.87917,49.68112],[18.88023,49.68013],[18.88072,49.67918],[18.88133,49.67854],[18.88271,49.67767],[18.88416,49.67708],[18.88489,49.67659],[18.8875,49.67355],[18.88829,49.67217],[18.88873,49.67175],[18.89033,49.67063],[18.89052,49.6703]]}},{"type":"Feature","properties":{"numer":"2659S","klasa":"droga zbiorcza","kat":"powiatowa"},"geometry":{"type":"LineString","coordinates":[[18.8262,49.70021],[18.82598,49.69995]]}},{"type":"Feature","properties":{"numer":"2659S","klasa":"droga zbiorcza","kat":"powiatowa"},"geometry":{"type":"LineString","coordinates":[[18.82262,49.70439],[18.8235,49.70338],[18.82621,49.70068],[18.8262,49.70021]]}},{"type":"Feature","properties":{"numer":"941","klasa":"droga gĹ‚Ăłwna","kat":"wojewodzka"},"geometry":{"type":"LineString","coordinates":[[18.82155,49.70508],[18.8235,49.70216],[18.82423,49.70142],[18.82598,49.69995]]}},{"type":"Feature","properties":{"numer":"2659S","klasa":"droga zbiorcza","kat":"powiatowa"},"geometry":{"type":"LineString","coordinates":[[18.82259,49.70443],[18.82262,49.70439]]}},{"type":"Feature","properties":{"numer":"2659S","klasa":"droga zbiorcza","kat":"powiatowa"},"geometry":{"type":"LineString","coordinates":[[18.8224,49.7053],[18.82259,49.70443]]}},{"type":"Feature","properties":{"numer":"941","klasa":"droga gĹ‚Ăłwna","kat":"wojewodzka"},"geometry":{"type":"LineString","coordinates":[[18.83771,49.68419],[18.838,49.68385],[18.83825,49.68369],[18.83861,49.68358],[18.83931,49.68355],[18.84041,49.68207],[18.8413,49.6815],[18.845131951078518,49.68058446640899]]}},{"type":"Feature","properties":{"numer":"2655S","klasa":"","kat":"powiatowa"},"geometry":{"type":"LineString","coordinates":[[18.87355,49.68074],[18.8736,49.68075]]}},{"type":"Feature","properties":{"numer":"2655S","klasa":"","kat":"powiatowa"},"geometry":{"type":"LineString","coordinates":[[18.8736,49.68075],[18.87599,49.68148],[18.87647,49.68154],[18.87776,49.68146],[18.87902,49.68121]]}},{"type":"Feature","properties":{"numer":"2655S","klasa":"","kat":"powiatowa"},"geometry":{"type":"LineString","coordinates":[[18.85107,49.68645],[18.85179,49.68656],[18.85332,49.68635],[18.85409,49.68619],[18.85624,49.68552],[18.85787,49.68515],[18.85859,49.68507],[18.85971,49.68507],[18.86028,49.68496],[18.86106912232803,49.684660241861664]]}},{"type":"Feature","properties":{"numer":"2655S","klasa":"","kat":"powiatowa"},"geometry":{"type":"LineString","coordinates":[[18.861204786560553,49.68460870807997],[18.86465,49.6833],[18.86714,49.68274],[18.86902,49.68173],[18.86979,49.68147],[18.87022,49.68109],[18.87048,49.68098],[18.87267,49.68057],[18.87355,49.68074]]}},{"type":"Feature","properties":{"numer":"941","klasa":"droga gĹ‚Ăłwna","kat":"wojewodzka"},"geometry":{"type":"LineString","coordinates":[[18.83758,49.68436],[18.83771,49.68419]]}},{"type":"Feature","properties":{"numer":"2655S","klasa":"","kat":"powiatowa"},"geometry":{"type":"LineString","coordinates":[[18.84404,49.685],[18.84426,49.68496]]}},{"type":"Feature","properties":{"numer":"2655S","klasa":"","kat":"powiatowa"},"geometry":{"type":"LineString","coordinates":[[18.84426,49.68496],[18.84537,49.68483],[18.8462,49.68493],[18.85092,49.6864]]}},{"type":"Feature","properties":{"numer":"2655S","klasa":"","kat":"powiatowa"},"geometry":{"type":"LineString","coordinates":[[18.85092,49.6864],[18.85107,49.68645]]}},{"type":"Feature","properties":{"numer":"941","klasa":"droga gĹ‚Ăłwna","kat":"wojewodzka"},"geometry":{"type":"LineString","coordinates":[[18.83137,49.69372],[18.83264,49.69117],[18.83411,49.68785],[18.83528,49.68639],[18.83758,49.68436]]}},{"type":"Feature","properties":{"numer":"2655S","klasa":"","kat":"powiatowa"},"geometry":{"type":"LineString","coordinates":[[18.83547,49.69469],[18.83586,49.69444],[18.83688,49.69263],[18.83716,49.69195],[18.8373,49.69101],[18.83857,49.68992],[18.83919,49.68897],[18.83971,49.68756],[18.84073,49.68675],[18.84254,49.68557],[18.84338,49.68516],[18.84404,49.685]]}},{"type":"Feature","properties":{"numer":"2655S","klasa":"","kat":"powiatowa"},"geometry":{"type":"LineString","coordinates":[[18.87917,49.68112],[18.87902,49.68121]]}},{"type":"Feature","properties":{"numer":"2652S","klasa":"","kat":"powiatowa"},"geometry":{"type":"LineString","coordinates":[[18.83193,49.69382],[18.83137,49.69372]]}},{"type":"Feature","properties":{"numer":"2652S","klasa":"","kat":"powiatowa"},"geometry":{"type":"LineString","coordinates":[[18.83373,49.69424],[18.83193,49.69382]]}},{"type":"Feature","properties":{"numer":"2652S","klasa":"","kat":"powiatowa"},"geometry":{"type":"LineString","coordinates":[[18.83379,49.69425],[18.83373,49.69424]]}},{"type":"Feature","properties":{"numer":"2652S","klasa":"","kat":"powiatowa"},"geometry":{"type":"LineString","coordinates":[[18.83455,49.69443],[18.83379,49.69425]]}},{"type":"Feature","properties":{"numer":"2652S","klasa":"","kat":"powiatowa"},"geometry":{"type":"LineString","coordinates":[[18.83528,49.69461],[18.83455,49.69443]]}},{"type":"Feature","properties":{"numer":"2652S","klasa":"","kat":"powiatowa"},"geometry":{"type":"LineString","coordinates":[[18.83547,49.69469],[18.83528,49.69461]]}},{"type":"Feature","properties":{"numer":"941","klasa":"droga gĹ‚Ăłwna","kat":"wojewodzka"},"geometry":{"type":"LineString","coordinates":[[18.82814,49.69803],[18.83015,49.6959],[18.83078,49.69498],[18.83137,49.69372]]}},{"type":"Feature","properties":{"numer":"2652S","klasa":"","kat":"powiatowa"},"geometry":{"type":"LineString","coordinates":[[18.83473,49.69726],[18.83494,49.69687],[18.83567,49.69599],[18.83547,49.69469]]}},{"type":"Feature","properties":{"numer":"2651S","klasa":"","kat":"powiatowa"},"geometry":{"type":"LineString","coordinates":[[18.83473,49.69726],[18.83468,49.69739]]}},{"type":"Feature","properties":{"numer":"2651S","klasa":"","kat":"powiatowa"},"geometry":{"type":"LineString","coordinates":[[18.83468,49.69739],[18.83466,49.69752]]}},{"type":"Feature","properties":{"numer":"941","klasa":"droga gĹ‚Ăłwna","kat":"wojewodzka"},"geometry":{"type":"LineString","coordinates":[[18.82806,49.69811],[18.82814,49.69803]]}},{"type":"Feature","properties":{"numer":"941","klasa":"droga gĹ‚Ăłwna","kat":"wojewodzka"},"geometry":{"type":"LineString","coordinates":[[18.82598,49.69995],[18.82806,49.69811]]}},{"type":"Feature","properties":{"numer":"2652S","klasa":"","kat":"powiatowa"},"geometry":{"type":"LineString","coordinates":[[18.84183,49.70216],[18.8406,49.70114],[18.84017,49.70022],[18.83987,49.69984],[18.8375,49.69836],[18.83538,49.69769],[18.83473,49.69726]]}},{"type":"Feature","properties":{"numer":"2651S","klasa":"","kat":"powiatowa"},"geometry":{"type":"LineString","coordinates":[[18.83466,49.69752],[18.83439,49.69921],[18.83456,49.69961],[18.83476,49.69982],[18.83873,49.70239]]}},{"type":"Feature","properties":{"numer":"2652S","klasa":"","kat":"powiatowa"},"geometry":{"type":"LineString","coordinates":[[18.84191,49.70223],[18.84183,49.70216]]}},{"type":"Feature","properties":{"numer":"2651S","klasa":"","kat":"powiatowa"},"geometry":{"type":"LineString","coordinates":[[18.83535,49.70235],[18.83548,49.70251]]}},{"type":"Feature","properties":{"numer":"2651S","klasa":"","kat":"powiatowa"},"geometry":{"type":"LineString","coordinates":[[18.83548,49.70251],[18.83607,49.70245]]}},{"type":"Feature","properties":{"numer":"2651S","klasa":"","kat":"powiatowa"},"geometry":{"type":"LineString","coordinates":[[18.83607,49.70245],[18.8379,49.70272],[18.83932,49.70303],[18.83956,49.703],[18.83959,49.70277],[18.83873,49.70239]]}},{"type":"Feature","properties":{"numer":"2652S","klasa":"","kat":"powiatowa"},"geometry":{"type":"LineString","coordinates":[[18.84838,49.70494],[18.84492,49.70348],[18.84366,49.70264],[18.84219,49.70237],[18.84191,49.70223]]}},{"type":"Feature","properties":{"numer":"2651S","klasa":"","kat":"powiatowa"},"geometry":{"type":"LineString","coordinates":[[18.83548,49.70251],[18.83662,49.70371],[18.83746,49.70477]]}},{"type":"Feature","properties":{"numer":"2654S","klasa":"","kat":"powiatowa"},"geometry":{"type":"LineString","coordinates":[[18.8302,49.70638],[18.83273,49.70575],[18.83341,49.70537],[18.83482,49.70437],[18.83518,49.70396],[18.83524,49.70362],[18.8348,49.7025],[18.83498,49.70232],[18.83535,49.70235]]}},{"type":"Feature","properties":{"numer":"2652S","klasa":"","kat":"powiatowa"},"geometry":{"type":"LineString","coordinates":[[18.84852,49.70501],[18.84838,49.70494]]}},{"type":"Feature","properties":{"numer":"2652S","klasa":"","kat":"powiatowa"},"geometry":{"type":"LineString","coordinates":[[18.83746,49.70477],[18.8392,49.70464],[18.84067,49.70483],[18.84331,49.70493],[18.84679,49.70562],[18.8479,49.7057]]}},{"type":"Feature","properties":{"numer":"2652S","klasa":"","kat":"powiatowa"},"geometry":{"type":"LineString","coordinates":[[18.84977,49.70538],[18.84984,49.70528],[18.84968,49.70512],[18.84894,49.70511],[18.84852,49.70501]]}},{"type":"Feature","properties":{"numer":"2652S","klasa":"","kat":"powiatowa"},"geometry":{"type":"LineString","coordinates":[[18.84967,49.70542],[18.84977,49.70538]]}},{"type":"Feature","properties":{"numer":"2652S","klasa":"","kat":"powiatowa"},"geometry":{"type":"LineString","coordinates":[[18.84851,49.70572],[18.84967,49.70542]]}},{"type":"Feature","properties":{"numer":"2652S","klasa":"","kat":"powiatowa"},"geometry":{"type":"LineString","coordinates":[[18.8479,49.7057],[18.84832,49.70572]]}},{"type":"Feature","properties":{"numer":"2652S","klasa":"","kat":"powiatowa"},"geometry":{"type":"LineString","coordinates":[[18.84832,49.70572],[18.84851,49.70572]]}},{"type":"Feature","properties":{"numer":"592154S","klasa":"droga lokalna","kat":"powiatowa"},"geometry":{"type":"LineString","coordinates":[[18.8327,49.70642],[18.83204,49.70632],[18.83066,49.70668],[18.83041,49.70664],[18.8302,49.70638]]}},{"type":"Feature","properties":{"numer":"592154S","klasa":"droga lokalna","kat":"powiatowa"},"geometry":{"type":"LineString","coordinates":[[18.83301,49.70678],[18.8327,49.70642]]}},{"type":"Feature","properties":{"numer":"941","klasa":"droga gĹ‚Ăłwna","kat":"wojewodzka"},"geometry":{"type":"LineString","coordinates":[[18.8215,49.70515],[18.82155,49.70508]]}},{"type":"Feature","properties":{"numer":"2659S","klasa":"droga zbiorcza","kat":"powiatowa"},"geometry":{"type":"LineString","coordinates":[[18.82238,49.70537],[18.8224,49.7053]]}},{"type":"Feature","properties":{"numer":"2659S","klasa":"droga zbiorcza","kat":"powiatowa"},"geometry":{"type":"LineString","coordinates":[[18.82231,49.70594],[18.82238,49.70537]]}},{"type":"Feature","properties":{"numer":"2659S","klasa":"droga zbiorcza","kat":"powiatowa"},"geometry":{"type":"LineString","coordinates":[[18.82223,49.70636],[18.82231,49.70594]]}},{"type":"Feature","properties":{"numer":"941","klasa":"droga gĹ‚Ăłwna","kat":"wojewodzka"},"geometry":{"type":"LineString","coordinates":[[18.81879,49.70732],[18.82063,49.706],[18.8215,49.70515]]}},{"type":"Feature","properties":{"numer":"2654S","klasa":"","kat":"powiatowa"},"geometry":{"type":"LineString","coordinates":[[18.82204,49.7067],[18.82146,49.70659],[18.82124,49.70635],[18.82124,49.70617],[18.82137,49.706],[18.82166,49.70588],[18.82231,49.70594]]}},{"type":"Feature","properties":{"numer":"2659S","klasa":"droga zbiorcza","kat":"powiatowa"},"geometry":{"type":"LineString","coordinates":[[18.82221,49.70649],[18.82223,49.70636]]}},{"type":"Feature","properties":{"numer":"2659S","klasa":"droga zbiorcza","kat":"powiatowa"},"geometry":{"type":"LineString","coordinates":[[18.82214,49.70672],[18.82221,49.70649]]}},{"type":"Feature","properties":{"numer":"2654S","klasa":"","kat":"powiatowa"},"geometry":{"type":"LineString","coordinates":[[18.82204,49.7067],[18.82214,49.70672]]}},{"type":"Feature","properties":{"numer":"2654S","klasa":"","kat":"powiatowa"},"geometry":{"type":"LineString","coordinates":[[18.82214,49.70672],[18.82441,49.70703]]}},{"type":"Feature","properties":{"numer":"941","klasa":"droga gĹ‚Ăłwna","kat":"wojewodzka"},"geometry":{"type":"LineString","coordinates":[[18.81872,49.70737],[18.81879,49.70732]]}},{"type":"Feature","properties":{"numer":"2656S","klasa":"","kat":"powiatowa"},"geometry":{"type":"LineString","coordinates":[[18.79050871517029,49.706772801857575],[18.79279,49.70502],[18.79333,49.7048],[18.79399,49.70481],[18.79492,49.70551],[18.79554,49.70584],[18.79658,49.70624],[18.80047,49.7075],[18.80656,49.70917],[18.80678,49.70939],[18.80738,49.71062],[18.80764,49.71095],[18.80799,49.71125],[18.80911,49.71195]]}},{"type":"Feature","properties":{"numer":"941","klasa":"droga gĹ‚Ăłwna","kat":"wojewodzka"},"geometry":{"type":"LineString","coordinates":[[18.80939,49.71172],[18.81101,49.7105],[18.81233,49.70973],[18.81354,49.70925],[18.81765,49.70787],[18.81872,49.70737]]}},{"type":"Feature","properties":{"numer":"2659S","klasa":"droga zbiorcza","kat":"powiatowa"},"geometry":{"type":"LineString","coordinates":[[18.81804,49.7133],[18.81915,49.71173],[18.81961,49.7104],[18.82054,49.70925],[18.82176,49.70833],[18.82214,49.70672]]}},{"type":"Feature","properties":{"numer":"941","klasa":"droga gĹ‚Ăłwna","kat":"wojewodzka"},"geometry":{"type":"LineString","coordinates":[[18.80911,49.71195],[18.80939,49.71172]]}},{"type":"Feature","properties":{"numer":"941","klasa":"droga gĹ‚Ăłwna","kat":"wojewodzka"},"geometry":{"type":"LineString","coordinates":[[18.80895,49.71207],[18.80911,49.71195]]}},{"type":"Feature","properties":{"numer":"941","klasa":"droga gĹ‚Ăłwna","kat":"wojewodzka"},"geometry":{"type":"LineString","coordinates":[[18.80696,49.71354],[18.80895,49.71207]]}},{"type":"Feature","properties":{"numer":"2656S","klasa":"","kat":"powiatowa"},"geometry":{"type":"LineString","coordinates":[[18.80911,49.71195],[18.80945,49.71219],[18.80989,49.71315],[18.81063,49.71399],[18.81097,49.71411]]}},{"type":"Feature","properties":{"numer":"2659S","klasa":"droga zbiorcza","kat":"powiatowa"},"geometry":{"type":"LineString","coordinates":[[18.81801,49.71334],[18.81804,49.7133]]}},{"type":"Feature","properties":{"numer":"592058S","klasa":"droga lokalna","kat":"powiatowa"},"geometry":{"type":"LineString","coordinates":[[18.80696,49.71354],[18.80767,49.7136]]}},{"type":"Feature","properties":{"numer":"2654S","klasa":"","kat":"powiatowa"},"geometry":{"type":"LineString","coordinates":[[18.82441,49.70703],[18.82548,49.70718],[18.8264,49.70719],[18.82744,49.70702],[18.8302,49.70638]]}},{"type":"Feature","properties":{"numer":"592154S","klasa":"droga lokalna","kat":"powiatowa"},"geometry":{"type":"LineString","coordinates":[[18.83272,49.70783],[18.83294,49.70736],[18.83301,49.70678]]}},{"type":"Feature","properties":{"numer":"592154S","klasa":"droga lokalna","kat":"powiatowa"},"geometry":{"type":"LineString","coordinates":[[18.8313,49.70921],[18.83272,49.70783]]}},{"type":"Feature","properties":{"numer":"592154S","klasa":"droga lokalna","kat":"powiatowa"},"geometry":{"type":"LineString","coordinates":[[18.83095,49.70952],[18.8313,49.70921]]}},{"type":"Feature","properties":{"numer":"592154S","klasa":"droga lokalna","kat":"powiatowa"},"geometry":{"type":"LineString","coordinates":[[18.83085,49.70962],[18.83095,49.70952]]}},{"type":"Feature","properties":{"numer":"592154S","klasa":"droga lokalna","kat":"powiatowa"},"geometry":{"type":"LineString","coordinates":[[18.83074,49.70975],[18.83085,49.70962]]}},{"type":"Feature","properties":{"numer":"592154S","klasa":"droga lokalna","kat":"powiatowa"},"geometry":{"type":"LineString","coordinates":[[18.83052,49.71003],[18.83074,49.70975]]}},{"type":"Feature","properties":{"numer":"592154S","klasa":"droga lokalna","kat":"powiatowa"},"geometry":{"type":"LineString","coordinates":[[18.8302,49.71058],[18.83052,49.71003]]}},{"type":"Feature","properties":{"numer":"592154S","klasa":"droga lokalna","kat":"powiatowa"},"geometry":{"type":"LineString","coordinates":[[18.82994,49.71165],[18.8302,49.71058]]}},{"type":"Feature","properties":{"numer":"2652S","klasa":"","kat":"powiatowa"},"geometry":{"type":"LineString","coordinates":[[18.85293,49.72006],[18.85079,49.71832],[18.85025,49.71808],[18.84968,49.71802],[18.84315,49.71802],[18.84263,49.71792],[18.84221,49.71773],[18.84203,49.71747],[18.84212,49.7161],[18.84258,49.71573],[18.84378,49.71554],[18.84529,49.7156],[18.84887,49.71514],[18.8497,49.71484],[18.85105,49.71405],[18.85158,49.71386],[18.85163,49.71374],[18.85138,49.71366],[18.85071,49.71388],[18.84978,49.71399],[18.84644,49.71416],[18.84621,49.71413],[18.84563,49.71381],[18.84528,49.71342],[18.84525,49.71224],[18.84498,49.71197],[18.84441,49.71167],[18.84372,49.71151],[18.84211,49.7104],[18.8416,49.7099],[18.84128,49.70892],[18.84137,49.70832],[18.84158,49.70809],[18.84195,49.7079],[18.84253,49.70787],[18.84324,49.70796],[18.84348,49.70806],[18.84388,49.70844],[18.84409,49.70839],[18.84411,49.70828],[18.84348,49.70765],[18.84243,49.70697],[18.84142,49.70658],[18.84082,49.7062],[18.83896,49.7053],[18.83758,49.70496],[18.83746,49.70477]]}},{"type":"Feature","properties":{"numer":"592154S","klasa":"droga lokalna","kat":"powiatowa"},"geometry":{"type":"LineString","coordinates":[[18.82858,49.7143],[18.82902,49.71332],[18.82979,49.71217],[18.82994,49.71165]]}},{"type":"Feature","properties":{"numer":"592154S","klasa":"droga lokalna","kat":"powiatowa"},"geometry":{"type":"LineString","coordinates":[[18.8285,49.71461],[18.82858,49.7143]]}},{"type":"Feature","properties":{"numer":"592154S","klasa":"droga lokalna","kat":"powiatowa"},"geometry":{"type":"LineString","coordinates":[[18.82849,49.71468],[18.8285,49.71461]]}},{"type":"Feature","properties":{"numer":"592154S","klasa":"droga lokalna","kat":"powiatowa"},"geometry":{"type":"LineString","coordinates":[[18.82843,49.71502],[18.82849,49.71468]]}},{"type":"Feature","properties":{"numer":"592154S","klasa":"droga lokalna","kat":"powiatowa"},"geometry":{"type":"LineString","coordinates":[[18.8284,49.71515],[18.82843,49.71502]]}},{"type":"Feature","properties":{"numer":"592154S","klasa":"droga lokalna","kat":"powiatowa"},"geometry":{"type":"LineString","coordinates":[[18.8284,49.71515],[18.8282,49.7159]]}},{"type":"Feature","properties":{"numer":"592154S","klasa":"droga lokalna","kat":"powiatowa"},"geometry":{"type":"LineString","coordinates":[[18.82812,49.71608],[18.8282,49.7159]]}},{"type":"Feature","properties":{"numer":"592154S","klasa":"droga lokalna","kat":"powiatowa"},"geometry":{"type":"LineString","coordinates":[[18.82803,49.71622],[18.82812,49.71608]]}},{"type":"Feature","properties":{"numer":"592154S","klasa":"droga lokalna","kat":"powiatowa"},"geometry":{"type":"LineString","coordinates":[[18.82789,49.71641],[18.82803,49.71622]]}},{"type":"Feature","properties":{"numer":"592154S","klasa":"droga lokalna","kat":"powiatowa"},"geometry":{"type":"LineString","coordinates":[[18.82659,49.71735],[18.8273,49.71695],[18.82789,49.71641]]}},{"type":"Feature","properties":{"numer":"2656S","klasa":"","kat":"powiatowa"},"geometry":{"type":"LineString","coordinates":[[18.81097,49.71411],[18.81108,49.71413]]}},{"type":"Feature","properties":{"numer":"941","klasa":"droga gĹ‚Ăłwna","kat":"wojewodzka"},"geometry":{"type":"LineString","coordinates":[[18.80469,49.71525],[18.80696,49.71354]]}},{"type":"Feature","properties":{"numer":"2659S","klasa":"droga zbiorcza","kat":"powiatowa"},"geometry":{"type":"LineString","coordinates":[[18.8165,49.71545],[18.81801,49.71334]]}},{"type":"Feature","properties":{"numer":"2656S","klasa":"","kat":"powiatowa"},"geometry":{"type":"LineString","coordinates":[[18.81108,49.71413],[18.81435,49.7148],[18.8165,49.71545]]}},{"type":"Feature","properties":{"numer":"941","klasa":"droga gĹ‚Ăłwna","kat":"wojewodzka"},"geometry":{"type":"LineString","coordinates":[[18.80138,49.71702],[18.8032,49.71614],[18.80469,49.71525]]}},{"type":"Feature","properties":{"numer":"592148S","klasa":"droga lokalna","kat":"powiatowa"},"geometry":{"type":"LineString","coordinates":[[18.80138,49.71702],[18.80146,49.71703]]}},{"type":"Feature","properties":{"numer":"592148S","klasa":"","kat":"powiatowa"},"geometry":{"type":"LineString","coordinates":[[18.80146,49.71703],[18.80181,49.71707]]}},{"type":"Feature","properties":{"numer":"592148S","klasa":"droga lokalna","kat":"powiatowa"},"geometry":{"type":"LineString","coordinates":[[18.80181,49.71707],[18.8023,49.71712]]}},{"type":"Feature","properties":{"numer":"592148S","klasa":"droga lokalna","kat":"powiatowa"},"geometry":{"type":"LineString","coordinates":[[18.8023,49.71712],[18.80278,49.71717]]}},{"type":"Feature","properties":{"numer":"592148S","klasa":"droga lokalna","kat":"powiatowa"},"geometry":{"type":"LineString","coordinates":[[18.80278,49.71717],[18.80299,49.71719]]}},{"type":"Feature","properties":{"numer":"592148S","klasa":"droga lokalna","kat":"powiatowa"},"geometry":{"type":"LineString","coordinates":[[18.80299,49.71719],[18.80351,49.71724]]}},{"type":"Feature","properties":{"numer":"592148S","klasa":"droga lokalna","kat":"powiatowa"},"geometry":{"type":"LineString","coordinates":[[18.80351,49.71724],[18.80397,49.71732]]}},{"type":"Feature","properties":{"numer":"592148S","klasa":"droga lokalna","kat":"powiatowa"},"geometry":{"type":"LineString","coordinates":[[18.80397,49.71732],[18.80429,49.71737]]}},{"type":"Feature","properties":{"numer":"2659S","klasa":"droga zbiorcza","kat":"powiatowa"},"geometry":{"type":"LineString","coordinates":[[18.81236,49.7194],[18.81319,49.71876],[18.81567,49.71654],[18.8165,49.71545]]}},{"type":"Feature","properties":{"numer":"592148S","klasa":"droga lokalna","kat":"powiatowa"},"geometry":{"type":"LineString","coordinates":[[18.80429,49.71737],[18.80533,49.71753]]}},{"type":"Feature","properties":{"numer":"592154S","klasa":"droga lokalna","kat":"powiatowa"},"geometry":{"type":"LineString","coordinates":[[18.82618,49.71752],[18.82641,49.71744]]}},{"type":"Feature","properties":{"numer":"592148S","klasa":"droga lokalna","kat":"powiatowa"},"geometry":{"type":"LineString","coordinates":[[18.80533,49.71753],[18.80573,49.71762]]}},{"type":"Feature","properties":{"numer":"592154S","klasa":"droga lokalna","kat":"powiatowa"},"geometry":{"type":"LineString","coordinates":[[18.82556,49.71777],[18.82618,49.71752]]}},{"type":"Feature","properties":{"numer":"592148S","klasa":"droga lokalna","kat":"powiatowa"},"geometry":{"type":"LineString","coordinates":[[18.80573,49.71762],[18.80675,49.718]]}},{"type":"Feature","properties":{"numer":"592148S","klasa":"droga lokalna","kat":"powiatowa"},"geometry":{"type":"LineString","coordinates":[[18.80675,49.718],[18.80832,49.71836]]}},{"type":"Feature","properties":{"numer":"592148S","klasa":"droga lokalna","kat":"powiatowa"},"geometry":{"type":"LineString","coordinates":[[18.80832,49.71836],[18.80878,49.71848]]}},{"type":"Feature","properties":{"numer":"592148S","klasa":"droga lokalna","kat":"powiatowa"},"geometry":{"type":"LineString","coordinates":[[18.80878,49.71848],[18.80929,49.7186]]}},{"type":"Feature","properties":{"numer":"592154S","klasa":"droga lokalna","kat":"powiatowa"},"geometry":{"type":"LineString","coordinates":[[18.8244,49.7197],[18.82442,49.71888],[18.82459,49.71849],[18.82505,49.71803],[18.82556,49.71777]]}},{"type":"Feature","properties":{"numer":"592148S","klasa":"droga lokalna","kat":"powiatowa"},"geometry":{"type":"LineString","coordinates":[[18.80929,49.7186],[18.81032,49.71889]]}},{"type":"Feature","properties":{"numer":"592148S","klasa":"droga lokalna","kat":"powiatowa"},"geometry":{"type":"LineString","coordinates":[[18.81032,49.71889],[18.81108,49.71909]]}},{"type":"Feature","properties":{"numer":"592148S","klasa":"droga lokalna","kat":"powiatowa"},"geometry":{"type":"LineString","coordinates":[[18.81108,49.71909],[18.81115,49.71911]]}},{"type":"Feature","properties":{"numer":"592148S","klasa":"droga lokalna","kat":"powiatowa"},"geometry":{"type":"LineString","coordinates":[[18.81115,49.71911],[18.81128,49.71917]]}},{"type":"Feature","properties":{"numer":"592148S","klasa":"droga lokalna","kat":"powiatowa"},"geometry":{"type":"LineString","coordinates":[[18.81128,49.71917],[18.81161,49.71935]]}},{"type":"Feature","properties":{"numer":"2659S","klasa":"droga zbiorcza","kat":"powiatowa"},"geometry":{"type":"LineString","coordinates":[[18.81195,49.7196],[18.81236,49.7194]]}},{"type":"Feature","properties":{"numer":"2659S","klasa":"droga zbiorcza","kat":"powiatowa"},"geometry":{"type":"LineString","coordinates":[[18.81158,49.71984],[18.81195,49.7196]]}},{"type":"Feature","properties":{"numer":"2607S","klasa":"droga gĹ‚Ăłwna","kat":"powiatowa"},"geometry":{"type":"LineString","coordinates":[[18.78488795180723,49.72135469879518],[18.78521,49.72114],[18.78577,49.7204],[18.78607,49.72028],[18.7867,49.72037],[18.79339,49.7221],[18.79495,49.7226]]}},{"type":"Feature","properties":{"numer":"2606S","klasa":"droga zbiorcza","kat":"powiatowa"},"geometry":{"type":"LineString","coordinates":[[18.787776907171143,49.73755740871094],[18.78841,49.73632],[18.7887,49.73625],[18.78965,49.73629],[18.79084,49.73601]]}},{"type":"Feature","properties":{"numer":"941","klasa":"droga gĹ‚Ăłwna","kat":"wojewodzka"},"geometry":{"type":"LineString","coordinates":[[18.79022,49.74137],[18.7903,49.74133]]}},{"type":"Feature","properties":{"numer":"941","klasa":"droga gĹ‚Ăłwna","kat":"wojewodzka"},"geometry":{"type":"LineString","coordinates":[[18.79014,49.7414],[18.79022,49.74137]]}},{"type":"Feature","properties":{"numer":"2659S","klasa":"droga zbiorcza","kat":"powiatowa"},"geometry":{"type":"LineString","coordinates":[[18.80502,49.7508],[18.80436,49.74774],[18.80356,49.74661],[18.80348,49.74627],[18.80359,49.74543],[18.80415,49.74362],[18.8048,49.74082],[18.80541,49.73966],[18.80547,49.73933],[18.80531,49.73794],[18.80446,49.73686]]}},{"type":"Feature","properties":{"numer":"941","klasa":"droga gĹ‚Ăłwna","kat":"wojewodzka"},"geometry":{"type":"LineString","coordinates":[[18.79604,49.752],[18.79157,49.74849],[18.79068,49.74748],[18.79036,49.74693],[18.78999,49.74604],[18.78984,49.74509],[18.79022,49.74137]]}},{"type":"Feature","properties":{"numer":"2659S","klasa":"droga zbiorcza","kat":"powiatowa"},"geometry":{"type":"LineString","coordinates":[[18.80502,49.7508],[18.80542,49.75267]]}},{"type":"Feature","properties":{"numer":"2604S","klasa":"droga zbiorcza","kat":"powiatowa"},"geometry":{"type":"LineString","coordinates":[[18.81229,49.7522],[18.81322,49.75226]]}},{"type":"Feature","properties":{"numer":"2604S","klasa":"droga zbiorcza","kat":"powiatowa"},"geometry":{"type":"LineString","coordinates":[[18.80542,49.75267],[18.80942,49.75254],[18.81129,49.75223],[18.81229,49.7522]]}},{"type":"Feature","properties":{"numer":"941","klasa":"droga gĹ‚Ăłwna","kat":"wojewodzka"},"geometry":{"type":"LineString","coordinates":[[18.80389,49.75817],[18.79604,49.752]]}},{"type":"Feature","properties":{"numer":"2659S","klasa":"droga zbiorcza","kat":"powiatowa"},"geometry":{"type":"LineString","coordinates":[[18.80542,49.75267],[18.80505,49.75346],[18.80466,49.75584],[18.80485,49.75673],[18.80437,49.75778]]}},{"type":"Feature","properties":{"numer":"941","klasa":"droga gĹ‚Ăłwna","kat":"wojewodzka"},"geometry":{"type":"LineString","coordinates":[[18.79568,49.72286],[18.79602,49.72136],[18.79637,49.72053],[18.79701,49.71963],[18.79773,49.71896],[18.79879,49.71825],[18.80138,49.71702]]}},{"type":"Feature","properties":{"numer":"592154S","klasa":"droga lokalna","kat":"powiatowa"},"geometry":{"type":"LineString","coordinates":[[18.82441,49.72036],[18.8244,49.7197]]}},{"type":"Feature","properties":{"numer":"592154S","klasa":"droga lokalna","kat":"powiatowa"},"geometry":{"type":"LineString","coordinates":[[18.82441,49.7205],[18.82441,49.72036]]}},{"type":"Feature","properties":{"numer":"592154S","klasa":"droga lokalna","kat":"powiatowa"},"geometry":{"type":"LineString","coordinates":[[18.82441,49.72054],[18.82441,49.7205]]}},{"type":"Feature","properties":{"numer":"2650S","klasa":"","kat":"powiatowa"},"geometry":{"type":"LineString","coordinates":[[18.81232,49.71986],[18.81359,49.72055],[18.81547,49.72134],[18.817,49.72143],[18.81779,49.72162]]}},{"type":"Feature","properties":{"numer":"592154S","klasa":"droga lokalna","kat":"powiatowa"},"geometry":{"type":"LineString","coordinates":[[18.82443,49.72129],[18.82441,49.72054]]}},{"type":"Feature","properties":{"numer":"2659S","klasa":"droga zbiorcza","kat":"powiatowa"},"geometry":{"type":"LineString","coordinates":[[18.81158,49.71984],[18.81014,49.72019],[18.80922,49.72124],[18.80899,49.72181],[18.80871,49.72205]]}},{"type":"Feature","properties":{"numer":"592154S","klasa":"droga lokalna","kat":"powiatowa"},"geometry":{"type":"LineString","coordinates":[[18.82443,49.72147],[18.82443,49.72129]]}},{"type":"Feature","properties":{"numer":"592154S","klasa":"droga lokalna","kat":"powiatowa"},"geometry":{"type":"LineString","coordinates":[[18.82444,49.72191],[18.82443,49.72147]]}},{"type":"Feature","properties":{"numer":"2650S","klasa":"","kat":"powiatowa"},"geometry":{"type":"LineString","coordinates":[[18.81779,49.72162],[18.81847,49.72182]]}},{"type":"Feature","properties":{"numer":"592154S","klasa":"droga lokalna","kat":"powiatowa"},"geometry":{"type":"LineString","coordinates":[[18.82444,49.72237],[18.82444,49.72191]]}},{"type":"Feature","properties":{"numer":"2659S","klasa":"droga zbiorcza","kat":"powiatowa"},"geometry":{"type":"LineString","coordinates":[[18.80832,49.72233],[18.80871,49.72205]]}},{"type":"Feature","properties":{"numer":"2607S","klasa":"droga gĹ‚Ăłwna","kat":"powiatowa"},"geometry":{"type":"LineString","coordinates":[[18.80771,49.72228],[18.80832,49.72233]]}},{"type":"Feature","properties":{"numer":"592154S","klasa":"droga lokalna","kat":"powiatowa"},"geometry":{"type":"LineString","coordinates":[[18.82444,49.72249],[18.82444,49.72237]]}},{"type":"Feature","properties":{"numer":"2659S","klasa":"droga zbiorcza","kat":"powiatowa"},"geometry":{"type":"LineString","coordinates":[[18.80832,49.72233],[18.80819,49.72276]]}},{"type":"Feature","properties":{"numer":"2650S","klasa":"","kat":"powiatowa"},"geometry":{"type":"LineString","coordinates":[[18.81847,49.72182],[18.81881,49.72193],[18.81903,49.72219],[18.81862,49.72295],[18.81868,49.72329]]}},{"type":"Feature","properties":{"numer":"592154S","klasa":"droga lokalna","kat":"powiatowa"},"geometry":{"type":"LineString","coordinates":[[18.82444,49.72272],[18.82444,49.72249]]}},{"type":"Feature","properties":{"numer":"2607S","klasa":"droga gĹ‚Ăłwna","kat":"powiatowa"},"geometry":{"type":"LineString","coordinates":[[18.79655,49.72309],[18.79756,49.72319],[18.79866,49.72311],[18.79955,49.72286],[18.80036,49.7224],[18.80073,49.72229],[18.80137,49.72231],[18.80392,49.72272],[18.8045,49.72259],[18.80513,49.72216],[18.80548,49.72207],[18.80771,49.72228]]}},{"type":"Feature","properties":{"numer":"2607S","klasa":"droga gĹ‚Ăłwna","kat":"powiatowa"},"geometry":{"type":"LineString","coordinates":[[18.79495,49.7226],[18.79531,49.72273]]}},{"type":"Feature","properties":{"numer":"2607S","klasa":"droga gĹ‚Ăłwna","kat":"powiatowa"},"geometry":{"type":"LineString","coordinates":[[18.79531,49.72273],[18.7956,49.72284]]}},{"type":"Feature","properties":{"numer":"592154S","klasa":"droga lokalna","kat":"powiatowa"},"geometry":{"type":"LineString","coordinates":[[18.82445,49.72293],[18.82444,49.72272]]}},{"type":"Feature","properties":{"numer":"2607S","klasa":"droga gĹ‚Ăłwna","kat":"powiatowa"},"geometry":{"type":"LineString","coordinates":[[18.7956,49.72284],[18.79568,49.72286]]}},{"type":"Feature","properties":{"numer":"2607S","klasa":"droga gĹ‚Ăłwna","kat":"powiatowa"},"geometry":{"type":"LineString","coordinates":[[18.79568,49.72286],[18.79575,49.72289]]}},{"type":"Feature","properties":{"numer":"2607S","klasa":"droga gĹ‚Ăłwna","kat":"powiatowa"},"geometry":{"type":"LineString","coordinates":[[18.79575,49.72289],[18.79618,49.72299]]}},{"type":"Feature","properties":{"numer":"2659S","klasa":"droga zbiorcza","kat":"powiatowa"},"geometry":{"type":"LineString","coordinates":[[18.80799,49.72323],[18.80819,49.72276]]}},{"type":"Feature","properties":{"numer":"2607S","klasa":"droga gĹ‚Ăłwna","kat":"powiatowa"},"geometry":{"type":"LineString","coordinates":[[18.79618,49.72299],[18.79655,49.72309]]}},{"type":"Feature","properties":{"numer":"592154S","klasa":"droga lokalna","kat":"powiatowa"},"geometry":{"type":"LineString","coordinates":[[18.82445,49.7232],[18.82445,49.72293]]}},{"type":"Feature","properties":{"numer":"2659S","klasa":"droga zbiorcza","kat":"powiatowa"},"geometry":{"type":"LineString","coordinates":[[18.80783,49.7236],[18.80799,49.72323]]}},{"type":"Feature","properties":{"numer":"592153S","klasa":"droga lokalna","kat":"powiatowa"},"geometry":{"type":"LineString","coordinates":[[18.81868,49.72329],[18.81934,49.7236]]}},{"type":"Feature","properties":{"numer":"592154S","klasa":"droga lokalna","kat":"powiatowa"},"geometry":{"type":"LineString","coordinates":[[18.8242,49.72406],[18.82439,49.7237],[18.82445,49.7232]]}},{"type":"Feature","properties":{"numer":"592153S","klasa":"droga lokalna","kat":"powiatowa"},"geometry":{"type":"LineString","coordinates":[[18.81772,49.72409],[18.81868,49.72329]]}},{"type":"Feature","properties":{"numer":"2659S","klasa":"droga zbiorcza","kat":"powiatowa"},"geometry":{"type":"LineString","coordinates":[[18.8078,49.72401],[18.80783,49.7236]]}},{"type":"Feature","properties":{"numer":"592153S","klasa":"droga lokalna","kat":"powiatowa"},"geometry":{"type":"LineString","coordinates":[[18.8176,49.7242],[18.81772,49.72409]]}},{"type":"Feature","properties":{"numer":"592153S","klasa":"droga lokalna","kat":"powiatowa"},"geometry":{"type":"LineString","coordinates":[[18.81934,49.7236],[18.8221,49.72488]]}},{"type":"Feature","properties":{"numer":"592154S","klasa":"droga lokalna","kat":"powiatowa"},"geometry":{"type":"LineString","coordinates":[[18.8238,49.72444],[18.8242,49.72406]]}},{"type":"Feature","properties":{"numer":"592154S","klasa":"droga lokalna","kat":"powiatowa"},"geometry":{"type":"LineString","coordinates":[[18.82368,49.72454],[18.8238,49.72444]]}},{"type":"Feature","properties":{"numer":"592154S","klasa":"droga lokalna","kat":"powiatowa"},"geometry":{"type":"LineString","coordinates":[[18.82351,49.72467],[18.82368,49.72454]]}},{"type":"Feature","properties":{"numer":"592153S","klasa":"droga lokalna","kat":"powiatowa"},"geometry":{"type":"LineString","coordinates":[[18.81672,49.72559],[18.81693,49.72487],[18.8176,49.7242]]}},{"type":"Feature","properties":{"numer":"592154S","klasa":"droga lokalna","kat":"powiatowa"},"geometry":{"type":"LineString","coordinates":[[18.82289,49.72513],[18.82351,49.72467]]}},{"type":"Feature","properties":{"numer":"592153S","klasa":"droga lokalna","kat":"powiatowa"},"geometry":{"type":"LineString","coordinates":[[18.8221,49.72488],[18.82223,49.72497]]}},{"type":"Feature","properties":{"numer":"592153S","klasa":"droga lokalna","kat":"powiatowa"},"geometry":{"type":"LineString","coordinates":[[18.82223,49.72497],[18.8227,49.72528]]}},{"type":"Feature","properties":{"numer":"592154S","klasa":"droga lokalna","kat":"powiatowa"},"geometry":{"type":"LineString","coordinates":[[18.8227,49.72528],[18.82289,49.72513]]}},{"type":"Feature","properties":{"numer":"592153S","klasa":"droga lokalna","kat":"powiatowa"},"geometry":{"type":"LineString","coordinates":[[18.8227,49.72528],[18.82299,49.72542]]}},{"type":"Feature","properties":{"numer":"592153S","klasa":"droga lokalna","kat":"powiatowa"},"geometry":{"type":"LineString","coordinates":[[18.82299,49.72542],[18.82308,49.72546]]}},{"type":"Feature","properties":{"numer":"2659S","klasa":"droga zbiorcza","kat":"powiatowa"},"geometry":{"type":"LineString","coordinates":[[18.8057,49.72792],[18.80639,49.72646],[18.80727,49.72578],[18.80798,49.72489],[18.8078,49.72401]]}},{"type":"Feature","properties":{"numer":"592153S","klasa":"droga lokalna","kat":"powiatowa"},"geometry":{"type":"LineString","coordinates":[[18.81626,49.72683],[18.81671,49.72616],[18.81672,49.72559]]}},{"type":"Feature","properties":{"numer":"592153S","klasa":"droga lokalna","kat":"powiatowa"},"geometry":{"type":"LineString","coordinates":[[18.82308,49.72546],[18.8236,49.72575],[18.82369,49.72597],[18.82359,49.72615],[18.82253,49.72714]]}},{"type":"Feature","properties":{"numer":"592153S","klasa":"droga lokalna","kat":"powiatowa"},"geometry":{"type":"LineString","coordinates":[[18.81584,49.72799],[18.81626,49.72683]]}},{"type":"Feature","properties":{"numer":"592153S","klasa":"droga lokalna","kat":"powiatowa"},"geometry":{"type":"LineString","coordinates":[[18.82253,49.72714],[18.82193,49.72772],[18.82156,49.72844]]}},{"type":"Feature","properties":{"numer":"592153S","klasa":"droga lokalna","kat":"powiatowa"},"geometry":{"type":"LineString","coordinates":[[18.81578,49.7285],[18.81584,49.72799]]}},{"type":"Feature","properties":{"numer":"592153S","klasa":"droga lokalna","kat":"powiatowa"},"geometry":{"type":"LineString","coordinates":[[18.82156,49.72844],[18.82149,49.72877]]}},{"type":"Feature","properties":{"numer":"592153S","klasa":"droga lokalna","kat":"powiatowa"},"geometry":{"type":"LineString","coordinates":[[18.81594,49.72905],[18.81578,49.7285]]}},{"type":"Feature","properties":{"numer":"2659S","klasa":"droga zbiorcza","kat":"powiatowa"},"geometry":{"type":"LineString","coordinates":[[18.80591,49.73045],[18.80591,49.72908],[18.80567,49.7282],[18.8057,49.72792]]}},{"type":"Feature","properties":{"numer":"592153S","klasa":"droga lokalna","kat":"powiatowa"},"geometry":{"type":"LineString","coordinates":[[18.82149,49.72877],[18.82132,49.7298],[18.82084,49.7301]]}},{"type":"Feature","properties":{"numer":"941","klasa":"droga gĹ‚Ăłwna","kat":"wojewodzka"},"geometry":{"type":"LineString","coordinates":[[18.79084,49.73601],[18.79373,49.73059],[18.79568,49.72286]]}},{"type":"Feature","properties":{"numer":"592153S","klasa":"droga lokalna","kat":"powiatowa"},"geometry":{"type":"LineString","coordinates":[[18.81748,49.72992],[18.8167,49.72966],[18.81594,49.72905]]}},{"type":"Feature","properties":{"numer":"592121S","klasa":"droga zbiorcza","kat":"powiatowa"},"geometry":{"type":"LineString","coordinates":[[18.82691,49.72857],[18.82656,49.72948],[18.82642,49.73057],[18.82582,49.7309]]}},{"type":"Feature","properties":{"numer":"592153S","klasa":"droga lokalna","kat":"powiatowa"},"geometry":{"type":"LineString","coordinates":[[18.81939,49.72995],[18.81883,49.72988],[18.81748,49.72992]]}},{"type":"Feature","properties":{"numer":"592153S","klasa":"droga lokalna","kat":"powiatowa"},"geometry":{"type":"LineString","coordinates":[[18.82084,49.7301],[18.82027,49.73012],[18.81939,49.72995]]}},{"type":"Feature","properties":{"numer":"592062S","klasa":"droga zbiorcza","kat":"powiatowa"},"geometry":{"type":"LineString","coordinates":[[18.80723,49.73065],[18.80591,49.73045]]}},{"type":"Feature","properties":{"numer":"592062S","klasa":"droga zbiorcza","kat":"powiatowa"},"geometry":{"type":"LineString","coordinates":[[18.80871,49.73089],[18.80723,49.73065]]}},{"type":"Feature","properties":{"numer":"592062S","klasa":"droga zbiorcza","kat":"powiatowa"},"geometry":{"type":"LineString","coordinates":[[18.8098,49.73104],[18.80871,49.73089]]}},{"type":"Feature","properties":{"numer":"592121S","klasa":"droga zbiorcza","kat":"powiatowa"},"geometry":{"type":"LineString","coordinates":[[18.82582,49.7309],[18.82571,49.73114]]}},{"type":"Feature","properties":{"numer":"592062S","klasa":"droga zbiorcza","kat":"powiatowa"},"geometry":{"type":"LineString","coordinates":[[18.80998,49.73106],[18.8098,49.73104]]}},{"type":"Feature","properties":{"numer":"592062S","klasa":"droga zbiorcza","kat":"powiatowa"},"geometry":{"type":"LineString","coordinates":[[18.81202,49.73137],[18.81217,49.73125],[18.81299,49.73127],[18.81401,49.73096],[18.81445,49.73097],[18.81648,49.73076],[18.81711,49.73078],[18.81798,49.73096]]}},{"type":"Feature","properties":{"numer":"592062S","klasa":"droga zbiorcza","kat":"powiatowa"},"geometry":{"type":"LineString","coordinates":[[18.81014,49.73109],[18.80998,49.73106]]}},{"type":"Feature","properties":{"numer":"592062S","klasa":"droga zbiorcza","kat":"powiatowa"},"geometry":{"type":"LineString","coordinates":[[18.81093,49.73119],[18.81014,49.73109]]}},{"type":"Feature","properties":{"numer":"592062S","klasa":"droga zbiorcza","kat":"powiatowa"},"geometry":{"type":"LineString","coordinates":[[18.81103,49.7312],[18.81093,49.73119]]}},{"type":"Feature","properties":{"numer":"592062S","klasa":"droga zbiorcza","kat":"powiatowa"},"geometry":{"type":"LineString","coordinates":[[18.81798,49.73096],[18.82083,49.73108],[18.82259,49.73145]]}},{"type":"Feature","properties":{"numer":"592062S","klasa":"droga zbiorcza","kat":"powiatowa"},"geometry":{"type":"LineString","coordinates":[[18.81202,49.73137],[18.81174,49.73127],[18.81103,49.7312]]}},{"type":"Feature","properties":{"numer":"592121S","klasa":"droga zbiorcza","kat":"powiatowa"},"geometry":{"type":"LineString","coordinates":[[18.82571,49.73114],[18.82565,49.73152]]}},{"type":"Feature","properties":{"numer":"592121S","klasa":"droga zbiorcza","kat":"powiatowa"},"geometry":{"type":"LineString","coordinates":[[18.82565,49.73152],[18.82569,49.73174]]}},{"type":"Feature","properties":{"numer":"592121S","klasa":"droga zbiorcza","kat":"powiatowa"},"geometry":{"type":"LineString","coordinates":[[18.81208,49.73232],[18.81202,49.73137]]}},{"type":"Feature","properties":{"numer":"592121S","klasa":"droga zbiorcza","kat":"powiatowa"},"geometry":{"type":"LineString","coordinates":[[18.82569,49.73174],[18.82578,49.73217],[18.82515,49.73258]]}},{"type":"Feature","properties":{"numer":"592121S","klasa":"droga zbiorcza","kat":"powiatowa"},"geometry":{"type":"LineString","coordinates":[[18.82515,49.73258],[18.82471,49.73285]]}},{"type":"Feature","properties":{"numer":"592121S","klasa":"droga zbiorcza","kat":"powiatowa"},"geometry":{"type":"LineString","coordinates":[[18.81208,49.73358],[18.81208,49.73232]]}},{"type":"Feature","properties":{"numer":"592121S","klasa":"droga zbiorcza","kat":"powiatowa"},"geometry":{"type":"LineString","coordinates":[[18.82471,49.73285],[18.82434,49.73301],[18.82304,49.73307],[18.82251,49.73323]]}},{"type":"Feature","properties":{"numer":"592121S","klasa":"droga zbiorcza","kat":"powiatowa"},"geometry":{"type":"LineString","coordinates":[[18.82251,49.73323],[18.8219,49.7334],[18.82111,49.73346],[18.81994,49.73376]]}},{"type":"Feature","properties":{"numer":"2659S","klasa":"droga zbiorcza","kat":"powiatowa"},"geometry":{"type":"LineString","coordinates":[[18.80446,49.73686],[18.80422,49.73656],[18.80427,49.73501],[18.80389,49.73378],[18.80384,49.73208],[18.80426,49.73142],[18.80554,49.73094],[18.80591,49.73045]]}},{"type":"Feature","properties":{"numer":"592121S","klasa":"droga zbiorcza","kat":"powiatowa"},"geometry":{"type":"LineString","coordinates":[[18.81994,49.73376],[18.81935,49.73395]]}},{"type":"Feature","properties":{"numer":"592121S","klasa":"droga zbiorcza","kat":"powiatowa"},"geometry":{"type":"LineString","coordinates":[[18.81195,49.73446],[18.81208,49.73358]]}},{"type":"Feature","properties":{"numer":"592121S","klasa":"droga zbiorcza","kat":"powiatowa"},"geometry":{"type":"LineString","coordinates":[[18.81935,49.73395],[18.81806,49.73436],[18.81716,49.7345]]}},{"type":"Feature","properties":{"numer":"592121S","klasa":"droga zbiorcza","kat":"powiatowa"},"geometry":{"type":"LineString","coordinates":[[18.81716,49.7345],[18.81659,49.73452]]}},{"type":"Feature","properties":{"numer":"592121S","klasa":"droga zbiorcza","kat":"powiatowa"},"geometry":{"type":"LineString","coordinates":[[18.81659,49.73452],[18.81617,49.73452]]}},{"type":"Feature","properties":{"numer":"592121S","klasa":"droga zbiorcza","kat":"powiatowa"},"geometry":{"type":"LineString","coordinates":[[18.81617,49.73452],[18.81494,49.73456]]}},{"type":"Feature","properties":{"numer":"592121S","klasa":"droga zbiorcza","kat":"powiatowa"},"geometry":{"type":"LineString","coordinates":[[18.81184,49.73516],[18.81195,49.73446]]}},{"type":"Feature","properties":{"numer":"592121S","klasa":"droga zbiorcza","kat":"powiatowa"},"geometry":{"type":"LineString","coordinates":[[18.81494,49.73456],[18.81442,49.73507],[18.81373,49.73529],[18.81359,49.73566]]}},{"type":"Feature","properties":{"numer":"592121S","klasa":"droga zbiorcza","kat":"powiatowa"},"geometry":{"type":"LineString","coordinates":[[18.81184,49.73516],[18.8123,49.7353]]}},{"type":"Feature","properties":{"numer":"592121S","klasa":"droga zbiorcza","kat":"powiatowa"},"geometry":{"type":"LineString","coordinates":[[18.81359,49.73566],[18.81289,49.73531],[18.8123,49.7353]]}},{"type":"Feature","properties":{"numer":"592114S","klasa":"droga zbiorcza","kat":"powiatowa"},"geometry":{"type":"LineString","coordinates":[[18.81928,49.73568],[18.81688,49.73584]]}},{"type":"Feature","properties":{"numer":"592154S","klasa":"droga lokalna","kat":"powiatowa"},"geometry":{"type":"LineString","coordinates":[[18.82641,49.71744],[18.82659,49.71735]]}},{"type":"Feature","properties":{"numer":"592121S","klasa":"droga zbiorcza","kat":"powiatowa"},"geometry":{"type":"LineString","coordinates":[[18.8314,49.72643],[18.83091,49.72636],[18.82911,49.72659]]}},{"type":"Feature","properties":{"numer":"592121S","klasa":"droga zbiorcza","kat":"powiatowa"},"geometry":{"type":"LineString","coordinates":[[18.82911,49.72659],[18.82862,49.72726]]}},{"type":"Feature","properties":{"numer":"592121S","klasa":"droga zbiorcza","kat":"powiatowa"},"geometry":{"type":"LineString","coordinates":[[18.82862,49.72726],[18.82857,49.72731]]}},{"type":"Feature","properties":{"numer":"592121S","klasa":"droga zbiorcza","kat":"powiatowa"},"geometry":{"type":"LineString","coordinates":[[18.82857,49.72731],[18.82746,49.72809]]}},{"type":"Feature","properties":{"numer":"592121S","klasa":"droga zbiorcza","kat":"powiatowa"},"geometry":{"type":"LineString","coordinates":[[18.82746,49.72809],[18.82691,49.72857]]}},{"type":"Feature","properties":{"numer":"2604S","klasa":"droga zbiorcza","kat":"powiatowa"},"geometry":{"type":"LineString","coordinates":[[18.81322,49.75226],[18.81492,49.75231],[18.81759,49.7514],[18.82161,49.74986],[18.82438,49.74915],[18.82525,49.74903],[18.82637,49.74901],[18.82873,49.74914],[18.8297,49.74892],[18.83073,49.74885],[18.83107,49.74869],[18.83166,49.74801],[18.83202,49.74783],[18.83306,49.74798],[18.83336,49.74862],[18.83382,49.74891],[18.8341,49.74939],[18.83513,49.75041],[18.83615,49.75111],[18.8368,49.75124],[18.83876,49.75113],[18.8416,49.75065],[18.84335,49.75054],[18.84371,49.75047],[18.84455,49.75012],[18.84479,49.75011],[18.84559,49.75072],[18.84771,49.75162],[18.84902,49.75169],[18.851360490435663,49.75209843852701]]}},{"type":"Feature","properties":{"numer":"2605S","klasa":"","kat":"powiatowa"},"geometry":{"type":"LineString","coordinates":[[18.80315,49.76009],[18.79488,49.7579],[18.7947,49.75768],[18.79473,49.75691],[18.793842432432395,49.75661414414413]]}},{"type":"Feature","properties":{"numer":"2659S","klasa":"droga zbiorcza","kat":"powiatowa"},"geometry":{"type":"LineString","coordinates":[[18.80437,49.75778],[18.80395,49.75814]]}},{"type":"Feature","properties":{"numer":"2659S","klasa":"droga zbiorcza","kat":"powiatowa"},"geometry":{"type":"LineString","coordinates":[[18.80395,49.75814],[18.80389,49.75817]]}},{"type":"Feature","properties":{"numer":"2605S","klasa":"","kat":"powiatowa"},"geometry":{"type":"LineString","coordinates":[[18.80389,49.75817],[18.80351,49.75839],[18.80357,49.75853],[18.80453,49.759],[18.80477,49.75922],[18.80499,49.76006],[18.80372,49.76005],[18.80325,49.76012]]}},{"type":"Feature","properties":{"numer":"","klasa":"droga wewnÄ™trzna","kat":"gminna"},"geometry":{"type":"LineString","coordinates":[[18.80343,49.75844],[18.80325,49.75856],[18.80293,49.75918],[18.80315,49.76009]]}},{"type":"Feature","properties":{"numer":"2605S","klasa":"","kat":"powiatowa"},"geometry":{"type":"LineString","coordinates":[[18.80325,49.76012],[18.80315,49.76009]]}},{"type":"Feature","properties":{"numer":"592001S","klasa":"droga lokalna","kat":"powiatowa"},"geometry":{"type":"LineString","coordinates":[[18.80313,49.76102],[18.80314,49.7603],[18.80325,49.76012]]}},{"type":"Feature","properties":{"numer":"592001S","klasa":"droga lokalna","kat":"powiatowa"},"geometry":{"type":"LineString","coordinates":[[18.80313,49.76196],[18.80313,49.76102]]}},{"type":"Feature","properties":{"numer":"592001S","klasa":"droga lokalna","kat":"powiatowa"},"geometry":{"type":"LineString","coordinates":[[18.80311,49.76244],[18.80313,49.76196]]}},{"type":"Feature","properties":{"numer":"592004S","klasa":"droga lokalna","kat":"powiatowa"},"geometry":{"type":"LineString","coordinates":[[18.79613,49.76324],[18.79558,49.76317]]}},{"type":"Feature","properties":{"numer":"592001S","klasa":"droga lokalna","kat":"powiatowa"},"geometry":{"type":"LineString","coordinates":[[18.80307,49.76406],[18.80311,49.76244]]}},{"type":"Feature","properties":{"numer":"592004S","klasa":"droga lokalna","kat":"powiatowa"},"geometry":{"type":"LineString","coordinates":[[18.7968,49.76333],[18.79613,49.76324]]}},{"type":"Feature","properties":{"numer":"592004S","klasa":"droga lokalna","kat":"powiatowa"},"geometry":{"type":"LineString","coordinates":[[18.79933,49.76368],[18.7968,49.76333]]}},{"type":"Feature","properties":{"numer":"","klasa":"droga wewnÄ™trzna","kat":"gminna"},"geometry":{"type":"LineString","coordinates":[[18.79497,49.76401],[18.79558,49.76317]]}},{"type":"Feature","properties":{"numer":"592004S","klasa":"droga lokalna","kat":"powiatowa"},"geometry":{"type":"LineString","coordinates":[[18.80307,49.76406],[18.80141,49.76398],[18.79933,49.76368]]}},{"type":"Feature","properties":{"numer":"","klasa":"droga wewnÄ™trzna","kat":"gminna"},"geometry":{"type":"LineString","coordinates":[[18.7946,49.76454],[18.79497,49.76401]]}},{"type":"Feature","properties":{"numer":"","klasa":"droga wewnÄ™trzna","kat":"gminna"},"geometry":{"type":"LineString","coordinates":[[18.79457,49.76458],[18.7946,49.76454]]}},{"type":"Feature","properties":{"numer":"","klasa":"droga wewnÄ™trzna","kat":"gminna"},"geometry":{"type":"LineString","coordinates":[[18.794381826280624,49.764852984409806],[18.79457,49.76458]]}},{"type":"Feature","properties":{"numer":"941","klasa":"droga gĹ‚Ăłwna","kat":"wojewodzka"},"geometry":{"type":"LineString","coordinates":[[18.808646235930077,49.77466523108605],[18.80835,49.77179],[18.80918,49.76836130952381]]}},{"type":"Feature","properties":{"numer":"941","klasa":"droga gĹ‚Ăłwna","kat":"wojewodzka"},"geometry":{"type":"LineString","coordinates":[[18.80920549276081,49.76801111308139],[18.80935,49.76513],[18.80921,49.76364],[18.80871,49.7625],[18.80811,49.76166],[18.80709,49.76068],[18.80389,49.75817]]}},{"type":"Feature","properties":{"numer":"2606S","klasa":"droga zbiorcza","kat":"powiatowa"},"geometry":{"type":"LineString","coordinates":[[18.79202,49.73577],[18.79218,49.73575]]}},{"type":"Feature","properties":{"numer":"2606S","klasa":"droga zbiorcza","kat":"powiatowa"},"geometry":{"type":"LineString","coordinates":[[18.79084,49.73601],[18.79202,49.73577]]}},{"type":"Feature","properties":{"numer":"592114S","klasa":"droga zbiorcza","kat":"powiatowa"},"geometry":{"type":"LineString","coordinates":[[18.82249,49.73615],[18.82089,49.73568],[18.81928,49.73568]]}},{"type":"Feature","properties":{"numer":"592114S","klasa":"droga zbiorcza","kat":"powiatowa"},"geometry":{"type":"LineString","coordinates":[[18.81688,49.73584],[18.81468,49.73617],[18.81439,49.73613],[18.81359,49.73566]]}},{"type":"Feature","properties":{"numer":"592114S","klasa":"droga zbiorcza","kat":"powiatowa"},"geometry":{"type":"LineString","coordinates":[[18.82299,49.73634],[18.82249,49.73615]]}},{"type":"Feature","properties":{"numer":"2606S","klasa":"droga zbiorcza","kat":"powiatowa"},"geometry":{"type":"LineString","coordinates":[[18.79218,49.73575],[18.79294,49.73573],[18.79558,49.73619],[18.79942,49.73656],[18.80386,49.73691],[18.80446,49.73686]]}},{"type":"Feature","properties":{"numer":"941","klasa":"droga gĹ‚Ăłwna","kat":"wojewodzka"},"geometry":{"type":"LineString","coordinates":[[18.79025,49.7411],[18.79039,49.73807],[18.79084,49.73601]]}},{"type":"Feature","properties":{"numer":"941","klasa":"droga gĹ‚Ăłwna","kat":"wojewodzka"},"geometry":{"type":"LineString","coordinates":[[18.79017,49.74109],[18.79025,49.7411]]}},{"type":"Feature","properties":{"numer":"941","klasa":"droga gĹ‚Ăłwna","kat":"wojewodzka"},"geometry":{"type":"LineString","coordinates":[[18.79025,49.7411],[18.79033,49.74111]]}},{"type":"Feature","properties":{"numer":"941","klasa":"droga gĹ‚Ăłwna","kat":"wojewodzka"},"geometry":{"type":"LineString","coordinates":[[18.79022,49.74137],[18.79025,49.7411]]}}]}