{"type":"FeatureCollection","features":[{"type":"Feature","properties":{"numer":"791","klasa":"droga gĹ‚Ăłwna","kat":"wojewodzka"},"geometry":{"type":"LineString","coordinates":[[19.167113084425687,50.69458706343067],[19.17355,50.69222],[19.17409,50.69208],[19.195562305025994,50.690196464471406]]}},{"type":"Feature","properties":{"numer":"91,E75","klasa":"droga gĹ‚Ăłwna ruchu przyĹ›pieszonego","kat":"gminna"},"geometry":{"type":"LineString","coordinates":[[19.135841796407185,50.64152922155689],[19.13577,50.64196],[19.13008,50.65944],[19.12941,50.66065],[19.12859,50.66157],[19.12536,50.66411],[19.12429,50.6652],[19.12374,50.66593],[19.12307,50.66718],[19.12273,50.6683],[19.12258,50.66911],[19.1226,50.6706]]}},{"type":"Feature","properties":{"numer":"1023S","klasa":"droga zbiorcza","kat":"powiatowa"},"geometry":{"type":"LineString","coordinates":[[19.16266,50.69431],[19.16209,50.6941],[19.1568,50.69374],[19.15625,50.69358],[19.15593,50.69336],[19.15583,50.69316],[19.15595,50.69255],[19.15566,50.68857],[19.15294,50.68374],[19.15242,50.68319],[19.14734,50.67919],[19.14676,50.67896],[19.13693,50.67599],[19.13186,50.67434],[19.125,50.67161],[19.12449,50.67126],[19.12392,50.67115],[19.1226,50.6706]]}},{"type":"Feature","properties":{"numer":"91,E75","klasa":"droga gĹ‚Ăłwna ruchu przyĹ›pieszonego","kat":"gminna"},"geometry":{"type":"LineString","coordinates":[[19.1226,50.6706],[19.12284,50.67172],[19.12369,50.67342],[19.14197218011562,50.70138302977684]]}},{"type":"Feature","properties":{"numer":"1011S","klasa":"","kat":"powiatowa"},"geometry":{"type":"LineString","coordinates":[[19.19608237924866,50.69114729874777],[19.19618,50.69131],[19.19652,50.69161],[19.197401111111084,50.69218611111109]]}},{"type":"Feature","properties":{"numer":"1011S","klasa":"droga zbiorcza","kat":"powiatowa"},"geometry":{"type":"LineString","coordinates":[[19.198059785928727,50.69259675695079],[19.19847,50.69288]]}},{"type":"Feature","properties":{"numer":"1011S","klasa":"droga zbiorcza","kat":"powiatowa"},"geometry":{"type":"LineString","coordinates":[[19.19847,50.69288],[19.19962,50.69367],[19.20951,50.70119]]}},{"type":"Feature","properties":{"numer":"1023S","klasa":"droga zbiorcza","kat":"powiatowa"},"geometry":{"type":"LineString","coordinates":[[19.16266,50.69431],[19.162712997766192,50.6943407728965]]}},{"type":"Feature","properties":{"numer":"1023S","klasa":"droga zbiorcza","kat":"powiatowa"},"geometry":{"type":"LineString","coordinates":[[19.08416,50.66257],[19.08156,50.66229],[19.07532677175153,50.660779888001656]]}},{"type":"Feature","properties":{"numer":"1023S","klasa":"droga zbiorcza","kat":"powiatowa"},"geometry":{"type":"LineString","coordinates":[[19.08416,50.66257],[19.08434,50.66258]]}},{"type":"Feature","properties":{"numer":"1023S","klasa":"droga zbiorcza","kat":"powiatowa"},"geometry":{"type":"LineString","coordinates":[[19.1226,50.6706],[19.12209,50.67042],[19.12129,50.66991],[19.12058,50.66975],[19.10893,50.66841],[19.10073,50.66765],[19.09384,50.66684],[19.09327,50.66667],[19.08828,50.66442],[19.08794,50.66413],[19.08736,50.66294],[19.08705,50.6627],[19.08668,50.66262],[19.08544,50.66266],[19.08434,50.66258]]}},{"type":"Feature","properties":{"numer":"1011S","klasa":"droga zbiorcza","kat":"powiatowa"},"geometry":{"type":"LineString","coordinates":[[19.20951,50.70119],[19.21255,50.70052],[19.21366,50.70048],[19.21519,50.70057],[19.22299639795881,50.70179378101096]]}}]}