{"type":"FeatureCollection","features":[{"type":"Feature","properties":{"numer":"901","klasa":"droga gĹ‚Ăłwna","kat":"wojewodzka"},"geometry":{"type":"LineString","coordinates":[[18.61063,50.45138],[18.61159,50.44942],[18.61357,50.44621],[18.6137,50.44575],[18.61154,50.44069],[18.61058269882971,50.437299185574396]]}},{"type":"Feature","properties":{"numer":"2950S","klasa":"droga zbiorcza","kat":"powiatowa"},"geometry":{"type":"LineString","coordinates":[[18.61063,50.45138],[18.60682,50.45103],[18.60608,50.45108],[18.60423,50.45141],[18.60317,50.45136],[18.60242,50.45114],[18.59526,50.44818],[18.58827,50.44799],[18.58627,50.4476],[18.58572,50.44765],[18.58443,50.44795],[18.58228,50.44918],[18.58218780271911,50.44922175601489]]}},{"type":"Feature","properties":{"numer":"901","klasa":"droga gĹ‚Ăłwna","kat":"wojewodzka"},"geometry":{"type":"LineString","coordinates":[[18.60825,50.47588],[18.60829,50.47545],[18.61046,50.46946],[18.611,50.46581],[18.61023,50.45247],[18.6103,50.45208],[18.61063,50.45138]]}},{"type":"Feature","properties":{"numer":"673025S","klasa":"droga lokalna","kat":"powiatowa"},"geometry":{"type":"LineString","coordinates":[[18.5991,50.47302],[18.59905,50.47306]]}},{"type":"Feature","properties":{"numer":"673024S","klasa":"droga lokalna","kat":"powiatowa"},"geometry":{"type":"LineString","coordinates":[[18.60057,50.47352],[18.5991,50.47302]]}},{"type":"Feature","properties":{"numer":"673024S","klasa":"droga lokalna","kat":"powiatowa"},"geometry":{"type":"LineString","coordinates":[[18.60193,50.4742],[18.60057,50.47352]]}},{"type":"Feature","properties":{"numer":"673024S","klasa":"droga lokalna","kat":"powiatowa"},"geometry":{"type":"LineString","coordinates":[[18.60228,50.47435],[18.60193,50.4742]]}},{"type":"Feature","properties":{"numer":"673024S","klasa":"droga lokalna","kat":"powiatowa"},"geometry":{"type":"LineString","coordinates":[[18.60309,50.47468],[18.60228,50.47435]]}},{"type":"Feature","properties":{"numer":"673024S","klasa":"droga lokalna","kat":"powiatowa"},"geometry":{"type":"LineString","coordinates":[[18.60415,50.47502],[18.60309,50.47468]]}},{"type":"Feature","properties":{"numer":"2964S","klasa":"","kat":"powiatowa"},"geometry":{"type":"LineString","coordinates":[[18.59905,50.47306],[18.59749,50.4726],[18.59662,50.47259],[18.59434,50.47316],[18.59285,50.47408],[18.59247,50.47417],[18.58622,50.47362],[18.58591,50.47354],[18.5854,50.47313],[18.58484,50.47284],[18.58126,50.47159],[18.57733,50.47079],[18.57437,50.46978],[18.574271057657377,50.469776466344904]]}},{"type":"Feature","properties":{"numer":"2960S","klasa":"droga zbiorcza","kat":"powiatowa"},"geometry":{"type":"LineString","coordinates":[[18.53489,50.50927],[18.53512,50.5062],[18.52466,50.49417],[18.52398,50.4936],[18.52226,50.49274],[18.52167,50.49233],[18.520323149946414,50.49063061872433]]}},{"type":"Feature","properties":{"numer":"2954S","klasa":"droga zbiorcza","kat":"powiatowa"},"geometry":{"type":"LineString","coordinates":[[18.49213,50.50229],[18.50351,50.50287],[18.5055,50.50326],[18.50741,50.50385],[18.50891,50.50414],[18.5116,50.50486],[18.51552,50.50577],[18.52095,50.50654],[18.52304,50.50677],[18.52753,50.50783],[18.53336,50.50877],[18.53489,50.50927]]}},{"type":"Feature","properties":{"numer":"907","klasa":"droga zbiorcza","kat":"wojewodzka"},"geometry":{"type":"LineString","coordinates":[[18.56102,50.48501],[18.55734,50.48301],[18.556068394676927,50.48218648417173]]}},{"type":"Feature","properties":{"numer":"2958S","klasa":"droga zbiorcza","kat":"powiatowa"},"geometry":{"type":"LineString","coordinates":[[18.56415,50.49242],[18.56253,50.4894],[18.56096,50.48521],[18.56102,50.48501]]}},{"type":"Feature","properties":{"numer":"907","klasa":"droga zbiorcza","kat":"wojewodzka"},"geometry":{"type":"LineString","coordinates":[[18.5786,50.49246],[18.57521,50.49163],[18.57471,50.49134],[18.57271,50.48973],[18.57195,50.48924],[18.56102,50.48501]]}},{"type":"Feature","properties":{"numer":"2958S,673034S","klasa":"droga zbiorcza","kat":"powiatowa"},"geometry":{"type":"LineString","coordinates":[[18.56418,50.49248],[18.56415,50.49242]]}},{"type":"Feature","properties":{"numer":"2958S","klasa":"droga zbiorcza","kat":"powiatowa"},"geometry":{"type":"LineString","coordinates":[[18.56498,50.49416],[18.56494,50.4938],[18.56418,50.49248]]}},{"type":"Feature","properties":{"numer":"2959S","klasa":"droga zbiorcza","kat":"powiatowa"},"geometry":{"type":"LineString","coordinates":[[18.5786,50.49246],[18.56579,50.49415],[18.56519,50.4942],[18.56498,50.49416]]}},{"type":"Feature","properties":{"numer":"2912S","klasa":"droga zbiorcza","kat":"powiatowa"},"geometry":{"type":"LineString","coordinates":[[18.49213,50.50229],[18.499643868582872,50.496085846749125]]}},{"type":"Feature","properties":{"numer":"2912S","klasa":"droga zbiorcza","kat":"powiatowa"},"geometry":{"type":"LineString","coordinates":[[18.47403,50.51563],[18.47536,50.51499],[18.47928,50.51255],[18.48084,50.51187],[18.48598,50.50728],[18.49213,50.50229]]}},{"type":"Feature","properties":{"numer":"2912S","klasa":"droga zbiorcza","kat":"powiatowa"},"geometry":{"type":"LineString","coordinates":[[18.46525,50.52379],[18.47403,50.51563]]}},{"type":"Feature","properties":{"numer":"2912S","klasa":"droga zbiorcza","kat":"powiatowa"},"geometry":{"type":"LineString","coordinates":[[18.43968,50.54674],[18.44139,50.54559],[18.44372,50.54469],[18.44379,50.54459],[18.4437,50.54401],[18.44466,50.54305],[18.4451,50.54248],[18.46525,50.52379]]}},{"type":"Feature","properties":{"numer":"2912S","klasa":"droga zbiorcza","kat":"powiatowa"},"geometry":{"type":"LineString","coordinates":[[18.43968,50.54674],[18.43966,50.54677]]}},{"type":"Feature","properties":{"numer":"2904S","klasa":"droga zbiorcza","kat":"powiatowa"},"geometry":{"type":"LineString","coordinates":[[18.622846191304347,50.452712382608695],[18.61574,50.45209],[18.61063,50.45138]]}},{"type":"Feature","properties":{"numer":"2903S","klasa":"droga zbiorcza","kat":"powiatowa"},"geometry":{"type":"LineString","coordinates":[[18.60691,50.49128],[18.61041,50.49097],[18.61514,50.48998],[18.61834,50.48942],[18.62111,50.48879],[18.623120579619787,50.4882696741185]]}},{"type":"Feature","properties":{"numer":"2902S","klasa":"droga zbiorcza","kat":"powiatowa"},"geometry":{"type":"LineString","coordinates":[[18.64426,50.4942],[18.64252,50.49472],[18.63896,50.4964],[18.63591,50.49877],[18.63414,50.49952],[18.6317,50.50085],[18.63004,50.50138],[18.62929,50.50171],[18.62733,50.50318],[18.62299,50.50592],[18.62141,50.50661],[18.61929,50.50815],[18.61889,50.5083],[18.61777,50.50849],[18.61662,50.50934],[18.61614,50.50959]]}},{"type":"Feature","properties":{"numer":"2901S","klasa":"droga zbiorcza","kat":"powiatowa"},"geometry":{"type":"LineString","coordinates":[[18.61614,50.50959],[18.61649,50.50983],[18.61887,50.51072],[18.62044,50.51124],[18.62115,50.51138]]}},{"type":"Feature","properties":{"numer":"673024S","klasa":"droga lokalna","kat":"powiatowa"},"geometry":{"type":"LineString","coordinates":[[18.60485,50.47524],[18.60415,50.47502]]}},{"type":"Feature","properties":{"numer":"673024S","klasa":"droga lokalna","kat":"powiatowa"},"geometry":{"type":"LineString","coordinates":[[18.60622,50.47562],[18.60485,50.47524]]}},{"type":"Feature","properties":{"numer":"673024S","klasa":"droga lokalna","kat":"powiatowa"},"geometry":{"type":"LineString","coordinates":[[18.60825,50.47588],[18.60717,50.47584],[18.60622,50.47562]]}},{"type":"Feature","properties":{"numer":"901","klasa":"droga gĹ‚Ăłwna","kat":"wojewodzka"},"geometry":{"type":"LineString","coordinates":[[18.60691,50.49128],[18.60464,50.48576],[18.60457,50.48529],[18.60485,50.48459],[18.60677,50.48126],[18.60865,50.47735],[18.60867,50.47677],[18.60825,50.47588]]}},{"type":"Feature","properties":{"numer":"2903S","klasa":"droga zbiorcza","kat":"powiatowa"},"geometry":{"type":"LineString","coordinates":[[18.60691,50.49128],[18.6047,50.4915]]}},{"type":"Feature","properties":{"numer":"2903S","klasa":"droga zbiorcza","kat":"powiatowa"},"geometry":{"type":"LineString","coordinates":[[18.6047,50.4915],[18.59967,50.49196],[18.59767,50.4918],[18.59456,50.49218],[18.59341,50.49245]]}},{"type":"Feature","properties":{"numer":"2903S","klasa":"droga zbiorcza","kat":"powiatowa"},"geometry":{"type":"LineString","coordinates":[[18.59341,50.49245],[18.5902,50.4934]]}},{"type":"Feature","properties":{"numer":"2903S,673041S","klasa":"droga zbiorcza","kat":"powiatowa"},"geometry":{"type":"LineString","coordinates":[[18.5902,50.4934],[18.58938,50.49367],[18.58899,50.49372]]}},{"type":"Feature","properties":{"numer":"2903S","klasa":"droga zbiorcza","kat":"powiatowa"},"geometry":{"type":"LineString","coordinates":[[18.58899,50.49372],[18.58866,50.49376],[18.58721,50.49432]]}},{"type":"Feature","properties":{"numer":"907","klasa":"droga zbiorcza","kat":"wojewodzka"},"geometry":{"type":"LineString","coordinates":[[18.5899,50.49504],[18.58935,50.49471],[18.58872,50.4945],[18.58721,50.49432]]}},{"type":"Feature","properties":{"numer":"2902S","klasa":"droga gĹ‚Ăłwna","kat":"powiatowa"},"geometry":{"type":"LineString","coordinates":[[18.64426,50.4942],[18.64724,50.49371],[18.64791,50.49351],[18.64802904271868,50.493449705635996]]}},{"type":"Feature","properties":{"numer":"2901S","klasa":"droga zbiorcza","kat":"powiatowa"},"geometry":{"type":"LineString","coordinates":[[18.62115,50.51138],[18.62303,50.51146],[18.62486,50.51174],[18.62551,50.51191],[18.62715,50.51258],[18.62974,50.51322],[18.63252,50.51378],[18.643361270826166,50.515710637270416]]}},{"type":"Feature","properties":{"numer":"2957S","klasa":"droga zbiorcza","kat":"powiatowa"},"geometry":{"type":"LineString","coordinates":[[18.62115,50.51138],[18.62178,50.512],[18.63123,50.51985],[18.639081006192864,50.525740657033325]]}},{"type":"Feature","properties":{"numer":"2957S","klasa":"droga zbiorcza","kat":"powiatowa"},"geometry":{"type":"LineString","coordinates":[[18.64010429956417,50.527234147469535],[18.64054,50.52801]]}},{"type":"Feature","properties":{"numer":"907","klasa":"droga zbiorcza","kat":"wojewodzka"},"geometry":{"type":"LineString","coordinates":[[18.60806,50.52636],[18.63796,50.52789]]}},{"type":"Feature","properties":{"numer":"907","klasa":"droga zbiorcza","kat":"wojewodzka"},"geometry":{"type":"LineString","coordinates":[[18.63796,50.52789],[18.63806,50.52789]]}},{"type":"Feature","properties":{"numer":"907","klasa":"droga zbiorcza","kat":"wojewodzka"},"geometry":{"type":"LineString","coordinates":[[18.63806,50.52789],[18.64054,50.52801]]}},{"type":"Feature","properties":{"numer":"2900S","klasa":"","kat":"powiatowa"},"geometry":{"type":"LineString","coordinates":[[18.635445979314802,50.548795113122175],[18.63544,50.54877]]}},{"type":"Feature","properties":{"numer":"3211S","klasa":"","kat":"powiatowa"},"geometry":{"type":"LineString","coordinates":[[18.64612854136407,50.525708380048826],[18.644,50.52762],[18.64358,50.52816]]}},{"type":"Feature","properties":{"numer":"907","klasa":"droga zbiorcza","kat":"wojewodzka"},"geometry":{"type":"LineString","coordinates":[[18.64054,50.52801],[18.64358,50.52816]]}},{"type":"Feature","properties":{"numer":"907","klasa":"droga zbiorcza","kat":"wojewodzka"},"geometry":{"type":"LineString","coordinates":[[18.64358,50.52816],[18.64811,50.52838]]}},{"type":"Feature","properties":{"numer":"907","klasa":"droga zbiorcza","kat":"wojewodzka"},"geometry":{"type":"LineString","coordinates":[[18.64811,50.52838],[18.64823,50.52838]]}},{"type":"Feature","properties":{"numer":"2900S","klasa":"droga zbiorcza","kat":"powiatowa"},"geometry":{"type":"LineString","coordinates":[[18.63544,50.54877],[18.636590800000036,50.548386399999984]]}},{"type":"Feature","properties":{"numer":"2900S","klasa":"droga zbiorcza","kat":"powiatowa"},"geometry":{"type":"LineString","coordinates":[[18.637780781283077,50.54795115392759],[18.63879,50.54743],[18.64043,50.54694],[18.64139,50.53874],[18.64542,50.53381],[18.64483,50.53345],[18.64508,50.53277],[18.64501,50.53249],[18.64398,50.53197],[18.64189,50.53034],[18.64054,50.52801]]}},{"type":"Feature","properties":{"numer":"907","klasa":"droga zbiorcza","kat":"wojewodzka"},"geometry":{"type":"LineString","coordinates":[[18.60802,50.52636],[18.60806,50.52636]]}},{"type":"Feature","properties":{"numer":"901","klasa":"droga gĹ‚Ăłwna","kat":"wojewodzka"},"geometry":{"type":"LineString","coordinates":[[18.60517,50.52605],[18.6048,50.52692],[18.60432,50.52766],[18.60307,50.52894],[18.60182,50.52982],[18.59828,50.53182]]}},{"type":"Feature","properties":{"numer":"901","klasa":"droga gĹ‚Ăłwna","kat":"wojewodzka"},"geometry":{"type":"LineString","coordinates":[[18.59828,50.53182],[18.59797,50.53199]]}},{"type":"Feature","properties":{"numer":"2951S","klasa":"droga zbiorcza","kat":"powiatowa"},"geometry":{"type":"LineString","coordinates":[[18.60806,50.52636],[18.60685,50.53036],[18.6054,50.53238],[18.6046,50.5343],[18.60462,50.53526],[18.60418,50.53624],[18.60477,50.53699],[18.6049,50.53927],[18.60466,50.53949],[18.59951,50.54254],[18.59918,50.54269],[18.59872,50.54272],[18.5877,50.54296],[18.58742,50.54284],[18.58436,50.53962]]}},{"type":"Feature","properties":{"numer":"901","klasa":"droga gĹ‚Ăłwna","kat":"wojewodzka"},"geometry":{"type":"LineString","coordinates":[[18.59797,50.53199],[18.58436,50.53962]]}},{"type":"Feature","properties":{"numer":"1812O","klasa":"","kat":"powiatowa"},"geometry":{"type":"LineString","coordinates":[[18.43960970773005,50.546912704315986],[18.43966,50.54677]]}},{"type":"Feature","properties":{"numer":"673038S,907","klasa":"droga zbiorcza","kat":"powiatowa"},"geometry":{"type":"LineString","coordinates":[[18.58999,50.4951],[18.5899,50.49504]]}},{"type":"Feature","properties":{"numer":"901","klasa":"droga gĹ‚Ăłwna","kat":"wojewodzka"},"geometry":{"type":"LineString","coordinates":[[18.60467,50.50372],[18.60741,50.49428],[18.60741,50.4929],[18.60691,50.49128]]}},{"type":"Feature","properties":{"numer":"907","klasa":"droga zbiorcza","kat":"wojewodzka"},"geometry":{"type":"LineString","coordinates":[[18.60375,50.50314],[18.59594,50.49774],[18.59507,50.49734],[18.59171,50.49611],[18.58999,50.4951]]}},{"type":"Feature","properties":{"numer":"907","klasa":"droga zbiorcza","kat":"wojewodzka"},"geometry":{"type":"LineString","coordinates":[[18.60384,50.5032],[18.60375,50.50314]]}},{"type":"Feature","properties":{"numer":"907","klasa":"droga zbiorcza","kat":"wojewodzka"},"geometry":{"type":"LineString","coordinates":[[18.60467,50.50372],[18.60384,50.5032]]}},{"type":"Feature","properties":{"numer":"673001S","klasa":"","kat":"powiatowa"},"geometry":{"type":"LineString","coordinates":[[18.60467,50.50372],[18.60558,50.50444]]}},{"type":"Feature","properties":{"numer":"2955S","klasa":"droga zbiorcza","kat":"powiatowa"},"geometry":{"type":"LineString","coordinates":[[18.57382,50.50865],[18.57689,50.50805],[18.5962,50.50582],[18.60332,50.5048],[18.60347,50.50467],[18.60339,50.50408],[18.60345,50.50351],[18.60375,50.50314]]}},{"type":"Feature","properties":{"numer":"901,907","klasa":"droga gĹ‚Ăłwna","kat":"gminna"},"geometry":{"type":"LineString","coordinates":[[18.60467,50.50372],[18.60451,50.50472],[18.60454,50.50606],[18.60542,50.52444],[18.60538,50.5252],[18.60517,50.52605]]}},{"type":"Feature","properties":{"numer":"2902S","klasa":"droga zbiorcza","kat":"powiatowa"},"geometry":{"type":"LineString","coordinates":[[18.61614,50.50959],[18.61478,50.51173],[18.60802,50.52636]]}},{"type":"Feature","properties":{"numer":"907","klasa":"droga zbiorcza","kat":"wojewodzka"},"geometry":{"type":"LineString","coordinates":[[18.60517,50.52605],[18.60802,50.52636]]}},{"type":"Feature","properties":{"numer":"907","klasa":"droga zbiorcza","kat":"wojewodzka"},"geometry":{"type":"LineString","coordinates":[[18.58721,50.49432],[18.5858,50.49415],[18.5786,50.49246]]}},{"type":"Feature","properties":{"numer":"2956S","klasa":"droga zbiorcza","kat":"powiatowa"},"geometry":{"type":"LineString","coordinates":[[18.56498,50.49416],[18.5652,50.49434],[18.56561,50.49535]]}},{"type":"Feature","properties":{"numer":"2958S","klasa":"droga zbiorcza","kat":"powiatowa"},"geometry":{"type":"LineString","coordinates":[[18.54279,50.50501],[18.54489,50.50131],[18.54552,50.50052],[18.55147,50.49594],[18.55415,50.49517],[18.55649,50.49471],[18.55748,50.49426],[18.56292,50.49418],[18.56429,50.49428],[18.56498,50.49416]]}},{"type":"Feature","properties":{"numer":"2956S","klasa":"droga zbiorcza","kat":"powiatowa"},"geometry":{"type":"LineString","coordinates":[[18.57382,50.50865],[18.5693,50.50461],[18.56881,50.50407],[18.56708,50.50018],[18.56561,50.49535]]}},{"type":"Feature","properties":{"numer":"2955S","klasa":"droga zbiorcza","kat":"powiatowa"},"geometry":{"type":"LineString","coordinates":[[18.53925,50.51141],[18.54369,50.51158],[18.55894,50.51175],[18.57382,50.50865]]}},{"type":"Feature","properties":{"numer":"2956S","klasa":"droga zbiorcza","kat":"powiatowa"},"geometry":{"type":"LineString","coordinates":[[18.58073,50.52193],[18.57916,50.51808],[18.57858,50.51552],[18.57641,50.51103],[18.57382,50.50865]]}},{"type":"Feature","properties":{"numer":"2953S","klasa":"droga zbiorcza","kat":"powiatowa"},"geometry":{"type":"LineString","coordinates":[[18.53925,50.51141],[18.55715,50.51991],[18.56365,50.52342],[18.56991,50.52647],[18.57142,50.52737]]}},{"type":"Feature","properties":{"numer":"2956S","klasa":"droga zbiorcza","kat":"powiatowa"},"geometry":{"type":"LineString","coordinates":[[18.58073,50.52193],[18.5819,50.52377]]}},{"type":"Feature","properties":{"numer":"2956S","klasa":"droga zbiorcza","kat":"powiatowa"},"geometry":{"type":"LineString","coordinates":[[18.5817,50.52386],[18.5819,50.52377]]}},{"type":"Feature","properties":{"numer":"2956S","klasa":"droga zbiorcza","kat":"powiatowa"},"geometry":{"type":"LineString","coordinates":[[18.57279,50.52761],[18.57525,50.52664],[18.57752,50.52518],[18.57874,50.52491],[18.5817,50.52386]]}},{"type":"Feature","properties":{"numer":"2958S","klasa":"droga zbiorcza","kat":"powiatowa"},"geometry":{"type":"LineString","coordinates":[[18.53686,50.51075],[18.53696,50.51046],[18.53737,50.51004],[18.54035,50.50735],[18.54191,50.50615],[18.54279,50.50501]]}},{"type":"Feature","properties":{"numer":"2954S","klasa":"droga zbiorcza","kat":"powiatowa"},"geometry":{"type":"LineString","coordinates":[[18.53489,50.50927],[18.53643,50.50995],[18.53665,50.51051],[18.53686,50.51075]]}},{"type":"Feature","properties":{"numer":"2953S","klasa":"droga zbiorcza","kat":"powiatowa"},"geometry":{"type":"LineString","coordinates":[[18.53686,50.51075],[18.53763,50.51081],[18.53809,50.51093]]}},{"type":"Feature","properties":{"numer":"2953S","klasa":"droga zbiorcza","kat":"powiatowa"},"geometry":{"type":"LineString","coordinates":[[18.53809,50.51093],[18.53925,50.51141]]}},{"type":"Feature","properties":{"numer":"2953S","klasa":"droga zbiorcza","kat":"powiatowa"},"geometry":{"type":"LineString","coordinates":[[18.57142,50.52737],[18.57196,50.5276],[18.57279,50.52761]]}},{"type":"Feature","properties":{"numer":"2953S","klasa":"droga zbiorcza","kat":"powiatowa"},"geometry":{"type":"LineString","coordinates":[[18.57279,50.52761],[18.57332,50.52785]]}},{"type":"Feature","properties":{"numer":"2953S","klasa":"droga zbiorcza","kat":"powiatowa"},"geometry":{"type":"LineString","coordinates":[[18.57332,50.52785],[18.57857,50.53244],[18.57997,50.53382],[18.5832,50.53754],[18.58436,50.53962]]}},{"type":"Feature","properties":{"numer":"901","klasa":"droga gĹ‚Ăłwna","kat":"wojewodzka"},"geometry":{"type":"LineString","coordinates":[[18.58436,50.53962],[18.570994336283185,50.54706841865667]]}},{"type":"Feature","properties":{"numer":"907","klasa":"droga zbiorcza","kat":"wojewodzka"},"geometry":{"type":"LineString","coordinates":[[18.65532995035947,50.52872400688274],[18.64823,50.52838]]}}]}