{"type":"FeatureCollection","features":[{"type":"Feature","properties":{"numer":"94","klasa":"droga gĹ‚Ăłwna ruchu przyĹ›pieszonego","kat":"krajowa"},"geometry":{"type":"LineString","coordinates":[[18.60055,50.40337],[18.602168398946063,50.40295693583385]]}},{"type":"Feature","properties":{"numer":"94","klasa":"droga gĹ‚Ăłwna ruchu przyĹ›pieszonego","kat":"krajowa"},"geometry":{"type":"LineString","coordinates":[[18.60038,50.40341],[18.60055,50.40337]]}},{"type":"Feature","properties":{"numer":"94","klasa":"droga gĹ‚Ăłwna ruchu przyĹ›pieszonego","kat":"krajowa"},"geometry":{"type":"LineString","coordinates":[[18.59681,50.40502],[18.59918,50.40384],[18.60038,50.40341]]}},{"type":"Feature","properties":{"numer":"94","klasa":"droga gĹ‚Ăłwna ruchu przyĹ›pieszonego","kat":"krajowa"},"geometry":{"type":"LineString","coordinates":[[18.59658,50.40514],[18.59681,50.40502]]}},{"type":"Feature","properties":{"numer":"40","klasa":"droga gĹ‚Ăłwna","kat":"krajowa"},"geometry":{"type":"LineString","coordinates":[[18.56317547904193,50.390302634730546],[18.56316,50.3903],[18.56206,50.39001],[18.55671,50.38804],[18.5537,50.38743],[18.552049821602335,50.3868189879987]]}},{"type":"Feature","properties":{"numer":"2913S","klasa":"droga gĹ‚Ăłwna","kat":"powiatowa"},"geometry":{"type":"LineString","coordinates":[[18.55653,50.4064],[18.55214,50.40471],[18.54819,50.40182],[18.54553,50.4005],[18.5451766553768,50.40028782811177]]}},{"type":"Feature","properties":{"numer":"2913S","klasa":"droga gĹ‚Ăłwna","kat":"powiatowa"},"geometry":{"type":"LineString","coordinates":[[18.55663,50.40644],[18.55653,50.4064]]}},{"type":"Feature","properties":{"numer":"2913S","klasa":"droga gĹ‚Ăłwna","kat":"powiatowa"},"geometry":{"type":"LineString","coordinates":[[18.56554,50.41163],[18.56447,50.41089],[18.56287,50.41019],[18.56204,50.40969],[18.55975,50.40763],[18.55663,50.40644]]}},{"type":"Feature","properties":{"numer":"2913S","klasa":"droga gĹ‚Ăłwna","kat":"powiatowa"},"geometry":{"type":"LineString","coordinates":[[18.56558,50.41165],[18.56554,50.41163]]}},{"type":"Feature","properties":{"numer":"2913S","klasa":"droga gĹ‚Ăłwna","kat":"powiatowa"},"geometry":{"type":"LineString","coordinates":[[18.56558,50.41165],[18.56625,50.41192],[18.56905,50.41241],[18.5775,50.41464]]}},{"type":"Feature","properties":{"numer":"94","klasa":"droga gĹ‚Ăłwna ruchu przyĹ›pieszonego","kat":"krajowa"},"geometry":{"type":"LineString","coordinates":[[18.53441,50.43587],[18.54476,50.42867],[18.54579,50.42804],[18.56741,50.41931],[18.5775,50.41464]]}},{"type":"Feature","properties":{"numer":"2971S","klasa":"","kat":"powiatowa"},"geometry":{"type":"LineString","coordinates":[[18.527228660232897,50.4207194091435],[18.5273,50.42254],[18.52678,50.42437],[18.52712,50.42616],[18.52706,50.42703]]}},{"type":"Feature","properties":{"numer":"2971S","klasa":"","kat":"powiatowa"},"geometry":{"type":"LineString","coordinates":[[18.52706,50.42703],[18.52685,50.42712],[18.52645,50.42782],[18.5261,50.42918]]}},{"type":"Feature","properties":{"numer":"2973S","klasa":"","kat":"powiatowa"},"geometry":{"type":"LineString","coordinates":[[18.509011892356845,50.431026910788894],[18.50993,50.43089],[18.51059,50.43017],[18.51119,50.42995],[18.51247,50.42967],[18.51298,50.42967],[18.51585,50.43001],[18.51725,50.43008],[18.51731,50.42935],[18.5175,50.42906],[18.51892,50.42906],[18.5198,50.42914],[18.52349,50.42911],[18.5261,50.42918]]}},{"type":"Feature","properties":{"numer":"2971S","klasa":"droga zbiorcza","kat":"powiatowa"},"geometry":{"type":"LineString","coordinates":[[18.5261,50.42918],[18.52592,50.43026],[18.52605,50.43185],[18.52658,50.4335],[18.52785,50.43647],[18.52829,50.43817],[18.52992,50.43941],[18.53081,50.43996]]}},{"type":"Feature","properties":{"numer":"907","klasa":"droga zbiorcza","kat":"wojewodzka"},"geometry":{"type":"LineString","coordinates":[[18.505077164155384,50.43224159894317],[18.50514,50.43233]]}},{"type":"Feature","properties":{"numer":"2949S","klasa":"droga zbiorcza","kat":"powiatowa"},"geometry":{"type":"LineString","coordinates":[[18.454885777602943,50.445774628901134],[18.45535,50.44638]]}},{"type":"Feature","properties":{"numer":"94","klasa":"droga gĹ‚Ăłwna ruchu przyĹ›pieszonego","kat":"krajowa"},"geometry":{"type":"LineString","coordinates":[[18.53081,50.43996],[18.53158,50.43836],[18.532,50.43774],[18.5327,50.43708],[18.53441,50.43587]]}},{"type":"Feature","properties":{"numer":"2970S","klasa":"droga zbiorcza","kat":"powiatowa"},"geometry":{"type":"LineString","coordinates":[[18.54269,50.45105],[18.54384,50.44985],[18.5453,50.44807],[18.54566,50.4465],[18.54561,50.44559],[18.54451,50.44467],[18.54436,50.4438],[18.54403,50.44309],[18.54236,50.44279],[18.54015,50.44179],[18.5393,50.4411],[18.53807,50.43984],[18.53721,50.43937],[18.53711,50.43901],[18.53648,50.43806],[18.5351,50.43698],[18.53482,50.43663],[18.53466,50.43612],[18.53441,50.43587]]}},{"type":"Feature","properties":{"numer":"907","klasa":"droga zbiorcza","kat":"wojewodzka"},"geometry":{"type":"LineString","coordinates":[[18.50985,50.43816],[18.5106,50.43906],[18.51073,50.43941],[18.51039,50.44178],[18.50999,50.44223],[18.50997,50.44243],[18.51024,50.44277],[18.51133,50.44323],[18.51146,50.44419],[18.51188,50.44488],[18.51661,50.44963],[18.51667,50.45301],[18.51725,50.45413]]}},{"type":"Feature","properties":{"numer":"94","klasa":"droga gĹ‚Ăłwna ruchu przyĹ›pieszonego","kat":"krajowa"},"geometry":{"type":"LineString","coordinates":[[18.52191,50.45442],[18.52244,50.45397],[18.52462,50.45153],[18.52595,50.4498],[18.5266,50.44864],[18.53081,50.43996]]}},{"type":"Feature","properties":{"numer":"2950S","klasa":"droga zbiorcza","kat":"powiatowa"},"geometry":{"type":"LineString","coordinates":[[18.5431,50.45098],[18.54349,50.45091]]}},{"type":"Feature","properties":{"numer":"2950S","klasa":"droga zbiorcza","kat":"powiatowa"},"geometry":{"type":"LineString","coordinates":[[18.54269,50.45105],[18.5431,50.45098]]}},{"type":"Feature","properties":{"numer":"2950S","klasa":"droga zbiorcza","kat":"powiatowa"},"geometry":{"type":"LineString","coordinates":[[18.52463,50.45474],[18.52857,50.45412],[18.53186,50.4534],[18.53728,50.45198],[18.54269,50.45105]]}},{"type":"Feature","properties":{"numer":"907,94","klasa":"droga gĹ‚Ăłwna ruchu przyĹ›pieszonego","kat":"gminna"},"geometry":{"type":"LineString","coordinates":[[18.51725,50.45413],[18.51828,50.45392],[18.51899,50.45388],[18.51935,50.45396],[18.52055,50.45458],[18.52103,50.45457],[18.52191,50.45442]]}},{"type":"Feature","properties":{"numer":"907","klasa":"droga zbiorcza","kat":"wojewodzka"},"geometry":{"type":"LineString","coordinates":[[18.52191,50.45442],[18.52227,50.45448]]}},{"type":"Feature","properties":{"numer":"907","klasa":"droga zbiorcza","kat":"wojewodzka"},"geometry":{"type":"LineString","coordinates":[[18.52227,50.45448],[18.52339,50.45449],[18.52463,50.45474]]}},{"type":"Feature","properties":{"numer":"620280S","klasa":"droga lokalna","kat":"powiatowa"},"geometry":{"type":"LineString","coordinates":[[18.59424,50.43239],[18.59481,50.43164]]}},{"type":"Feature","properties":{"numer":"901","klasa":"droga gĹ‚Ăłwna","kat":"wojewodzka"},"geometry":{"type":"LineString","coordinates":[[18.61058269882971,50.437299185574396],[18.61047,50.4369],[18.6104,50.43555],[18.60997,50.43228],[18.61374,50.42262],[18.61424,50.42114],[18.61449,50.41965]]}},{"type":"Feature","properties":{"numer":"2950S","klasa":"droga zbiorcza","kat":"powiatowa"},"geometry":{"type":"LineString","coordinates":[[18.58218780271911,50.44922175601489],[18.57952,50.45043],[18.57892,50.45057],[18.57586,50.45077],[18.57383,50.4503],[18.57075,50.44999],[18.5689,50.44962],[18.56691,50.44957]]}},{"type":"Feature","properties":{"numer":"2973S","klasa":"","kat":"powiatowa"},"geometry":{"type":"LineString","coordinates":[[18.50514,50.43233],[18.50715,50.43182],[18.5075873594132,50.43148356968215]]}},{"type":"Feature","properties":{"numer":"907","klasa":"droga zbiorcza","kat":"wojewodzka"},"geometry":{"type":"LineString","coordinates":[[18.50514,50.43233],[18.50689,50.43474],[18.5098,50.43809]]}},{"type":"Feature","properties":{"numer":"907","klasa":"droga zbiorcza","kat":"wojewodzka"},"geometry":{"type":"LineString","coordinates":[[18.5098,50.43809],[18.50985,50.43816]]}},{"type":"Feature","properties":{"numer":"2949S","klasa":"droga zbiorcza","kat":"powiatowa"},"geometry":{"type":"LineString","coordinates":[[18.45535,50.44638],[18.45536,50.44643]]}},{"type":"Feature","properties":{"numer":"2949S","klasa":"droga zbiorcza","kat":"powiatowa"},"geometry":{"type":"LineString","coordinates":[[18.45536,50.44643],[18.45539,50.44674],[18.45508,50.44794],[18.45518,50.4484],[18.45543,50.44878],[18.45636,50.44979],[18.45915,50.45141]]}},{"type":"Feature","properties":{"numer":"2949S","klasa":"droga zbiorcza","kat":"powiatowa"},"geometry":{"type":"LineString","coordinates":[[18.45915,50.45141],[18.45983,50.45148],[18.46176,50.4513],[18.46649,50.45144],[18.47193,50.45247],[18.49293,50.45373],[18.49686,50.45372],[18.4973,50.4538],[18.49902,50.45448],[18.49972,50.45459]]}},{"type":"Feature","properties":{"numer":"2949S","klasa":"droga zbiorcza","kat":"powiatowa"},"geometry":{"type":"LineString","coordinates":[[18.49972,50.45459],[18.49983,50.45459]]}},{"type":"Feature","properties":{"numer":"2949S","klasa":"droga zbiorcza","kat":"powiatowa"},"geometry":{"type":"LineString","coordinates":[[18.49983,50.45459],[18.50077,50.45451],[18.50245,50.45386],[18.50314,50.45372],[18.50487,50.45352],[18.5067,50.45357],[18.50812,50.45395],[18.50894,50.45437],[18.51072,50.45605]]}},{"type":"Feature","properties":{"numer":"94","klasa":"droga gĹ‚Ăłwna ruchu przyĹ›pieszonego","kat":"krajowa"},"geometry":{"type":"LineString","coordinates":[[18.4832,50.46653],[18.49449,50.46373],[18.49569,50.46337],[18.49657,50.46298],[18.50018,50.46093],[18.50458,50.45938],[18.50582,50.45885],[18.50946,50.45694],[18.51072,50.45605]]}},{"type":"Feature","properties":{"numer":"2972S","klasa":"","kat":"powiatowa"},"geometry":{"type":"LineString","coordinates":[[18.56691,50.44957],[18.56837,50.44337],[18.56864,50.4426],[18.56905,50.44218],[18.57051,50.44128],[18.57146,50.44016],[18.5755,50.43735],[18.57649,50.43686],[18.57881,50.43601],[18.58331,50.4348],[18.58381,50.4346],[18.58813,50.43338],[18.58975,50.4332],[18.59104,50.43278],[18.59311,50.4324],[18.59383,50.43234],[18.59424,50.43239]]}},{"type":"Feature","properties":{"numer":"2950S","klasa":"droga zbiorcza","kat":"powiatowa"},"geometry":{"type":"LineString","coordinates":[[18.56691,50.44957],[18.56431,50.44961],[18.56044,50.44897],[18.55899,50.44892],[18.54792,50.45015],[18.54349,50.45091]]}},{"type":"Feature","properties":{"numer":"2964S","klasa":"","kat":"powiatowa"},"geometry":{"type":"LineString","coordinates":[[18.55914,50.46893],[18.55816,50.46896],[18.55629,50.46932]]}},{"type":"Feature","properties":{"numer":"620142S","klasa":"droga lokalna","kat":"powiatowa"},"geometry":{"type":"LineString","coordinates":[[18.55629,50.46932],[18.55611,50.46934]]}},{"type":"Feature","properties":{"numer":"620142S","klasa":"droga lokalna","kat":"powiatowa"},"geometry":{"type":"LineString","coordinates":[[18.55611,50.46934],[18.55588,50.46936]]}},{"type":"Feature","properties":{"numer":"620142S","klasa":"droga lokalna","kat":"powiatowa"},"geometry":{"type":"LineString","coordinates":[[18.55588,50.46936],[18.55529,50.46944]]}},{"type":"Feature","properties":{"numer":"620142S","klasa":"droga lokalna","kat":"powiatowa"},"geometry":{"type":"LineString","coordinates":[[18.55529,50.46944],[18.55434,50.4698]]}},{"type":"Feature","properties":{"numer":"620142S","klasa":"droga lokalna","kat":"powiatowa"},"geometry":{"type":"LineString","coordinates":[[18.55322,50.47024],[18.55434,50.4698]]}},{"type":"Feature","properties":{"numer":"620142S","klasa":"droga lokalna","kat":"powiatowa"},"geometry":{"type":"LineString","coordinates":[[18.55322,50.47024],[18.55215,50.4707],[18.55083,50.47157]]}},{"type":"Feature","properties":{"numer":"2964S","klasa":"","kat":"powiatowa"},"geometry":{"type":"LineString","coordinates":[[18.574271057657377,50.469776466344904],[18.57381,50.46976],[18.57183,50.46936],[18.57047,50.46873],[18.56922,50.46832],[18.5683,50.46812],[18.56519,50.46792],[18.56432,50.46806],[18.56138,50.46876],[18.5602,50.46894],[18.55914,50.46893]]}},{"type":"Feature","properties":{"numer":"94","klasa":"droga gĹ‚Ăłwna ruchu przyĹ›pieszonego","kat":"krajowa"},"geometry":{"type":"LineString","coordinates":[[18.51218,50.45526],[18.51359,50.45532],[18.51471,50.45513],[18.5156,50.45489],[18.51665,50.45433],[18.51725,50.45413]]}},{"type":"Feature","properties":{"numer":"94","klasa":"droga gĹ‚Ăłwna ruchu przyĹ›pieszonego","kat":"krajowa"},"geometry":{"type":"LineString","coordinates":[[18.51206,50.45528],[18.51218,50.45526]]}},{"type":"Feature","properties":{"numer":"94","klasa":"droga gĹ‚Ăłwna ruchu przyĹ›pieszonego","kat":"krajowa"},"geometry":{"type":"LineString","coordinates":[[18.51072,50.45605],[18.51125,50.4556],[18.51206,50.45528]]}},{"type":"Feature","properties":{"numer":"2989S","klasa":"droga zbiorcza","kat":"powiatowa"},"geometry":{"type":"LineString","coordinates":[[18.52468,50.45865],[18.5251,50.45803],[18.52426,50.45736],[18.52313,50.45687],[18.52281,50.45619],[18.52227,50.45448]]}},{"type":"Feature","properties":{"numer":"2912S","klasa":"droga zbiorcza","kat":"powiatowa"},"geometry":{"type":"LineString","coordinates":[[18.51127,50.45766],[18.51121,50.45697],[18.51072,50.45605]]}},{"type":"Feature","properties":{"numer":"2989S","klasa":"droga zbiorcza","kat":"powiatowa"},"geometry":{"type":"LineString","coordinates":[[18.52464,50.4587],[18.52468,50.45865]]}},{"type":"Feature","properties":{"numer":"2989S","klasa":"droga zbiorcza","kat":"powiatowa"},"geometry":{"type":"LineString","coordinates":[[18.52464,50.4587],[18.52401,50.45964],[18.52369,50.46044],[18.52351,50.46054],[18.52327,50.46055],[18.51882,50.45999],[18.51594,50.45946],[18.51301,50.45862],[18.51127,50.45766]]}},{"type":"Feature","properties":{"numer":"907","klasa":"droga zbiorcza","kat":"wojewodzka"},"geometry":{"type":"LineString","coordinates":[[18.54611,50.47461],[18.54086,50.46384],[18.53979,50.4619],[18.5393,50.46125],[18.53679,50.45886],[18.53593,50.45825],[18.53455,50.45771],[18.53017,50.45638],[18.526,50.45538],[18.52463,50.45474]]}},{"type":"Feature","properties":{"numer":"2960S","klasa":"droga zbiorcza","kat":"powiatowa"},"geometry":{"type":"LineString","coordinates":[[18.520323149946414,50.49063061872433],[18.52018,50.49045],[18.51807,50.48814],[18.51378,50.48489],[18.51284,50.48429],[18.51229,50.48406]]}},{"type":"Feature","properties":{"numer":"620142S","klasa":"droga lokalna","kat":"powiatowa"},"geometry":{"type":"LineString","coordinates":[[18.55083,50.47157],[18.55081,50.47162]]}},{"type":"Feature","properties":{"numer":"620142S","klasa":"droga lokalna","kat":"powiatowa"},"geometry":{"type":"LineString","coordinates":[[18.55081,50.47162],[18.55045,50.47234],[18.54942,50.4729]]}},{"type":"Feature","properties":{"numer":"620142S","klasa":"droga lokalna","kat":"powiatowa"},"geometry":{"type":"LineString","coordinates":[[18.54942,50.4729],[18.54631,50.47453]]}},{"type":"Feature","properties":{"numer":"620142S","klasa":"droga lokalna","kat":"powiatowa"},"geometry":{"type":"LineString","coordinates":[[18.54611,50.47461],[18.54631,50.47453]]}},{"type":"Feature","properties":{"numer":"907","klasa":"droga zbiorcza","kat":"wojewodzka"},"geometry":{"type":"LineString","coordinates":[[18.556068394676927,50.48218648417173],[18.54789,50.47689],[18.54714,50.47621],[18.54611,50.47461]]}},{"type":"Feature","properties":{"numer":"2918S","klasa":"droga gĹ‚Ăłwna","kat":"powiatowa"},"geometry":{"type":"LineString","coordinates":[[18.41511,50.45673],[18.41399,50.45373],[18.41417,50.44725],[18.41375,50.44003],[18.41318,50.43296],[18.413445497164464,50.42777395538751]]}},{"type":"Feature","properties":{"numer":"2918S","klasa":"droga gĹ‚Ăłwna","kat":"powiatowa"},"geometry":{"type":"LineString","coordinates":[[18.413431043537184,50.42550762663055],[18.41329,50.42092],[18.41307464604214,50.420419447557414]]}},{"type":"Feature","properties":{"numer":"2948S","klasa":"droga zbiorcza","kat":"powiatowa"},"geometry":{"type":"LineString","coordinates":[[18.4169,50.46191],[18.41726,50.4618],[18.42017,50.46032],[18.42485,50.45776],[18.42532,50.45758],[18.43094,50.45654],[18.43338,50.45636],[18.4375,50.45592],[18.43979,50.45552],[18.44656,50.45541],[18.44889,50.45515],[18.45628,50.45292],[18.45801,50.45212],[18.45915,50.45141]]}},{"type":"Feature","properties":{"numer":"2918S","klasa":"droga gĹ‚Ăłwna","kat":"powiatowa"},"geometry":{"type":"LineString","coordinates":[[18.41512,50.45677],[18.41511,50.45673]]}},{"type":"Feature","properties":{"numer":"2918S","klasa":"droga gĹ‚Ăłwna","kat":"powiatowa"},"geometry":{"type":"LineString","coordinates":[[18.4169,50.46191],[18.41656,50.46044],[18.41512,50.45677]]}},{"type":"Feature","properties":{"numer":"2918S","klasa":"droga gĹ‚Ăłwna","kat":"powiatowa"},"geometry":{"type":"LineString","coordinates":[[18.41516,50.46546],[18.41689,50.46384],[18.41703,50.46296],[18.4169,50.46191]]}},{"type":"Feature","properties":{"numer":"2918S","klasa":"droga gĹ‚Ăłwna","kat":"powiatowa"},"geometry":{"type":"LineString","coordinates":[[18.40565,50.47522],[18.40983,50.47186],[18.41264,50.46772],[18.41516,50.46546]]}},{"type":"Feature","properties":{"numer":"2946S","klasa":"droga zbiorcza","kat":"powiatowa"},"geometry":{"type":"LineString","coordinates":[[18.383037583233435,50.468550930004724],[18.39652,50.47816],[18.3972,50.47861],[18.397395928334156,50.478667625980634]]}},{"type":"Feature","properties":{"numer":"2947S","klasa":"droga zbiorcza","kat":"powiatowa"},"geometry":{"type":"LineString","coordinates":[[18.45,50.47774],[18.44893,50.47621],[18.44861,50.47591],[18.4367,50.46952],[18.43542,50.46843],[18.41516,50.46546]]}},{"type":"Feature","properties":{"numer":"94","klasa":"droga gĹ‚Ăłwna ruchu przyĹ›pieszonego","kat":"krajowa"},"geometry":{"type":"LineString","coordinates":[[18.45,50.47774],[18.4527,50.47693]]}},{"type":"Feature","properties":{"numer":"1802O","klasa":"droga zbiorcza","kat":"powiatowa"},"geometry":{"type":"LineString","coordinates":[[18.40565,50.47522],[18.405643465883415,50.47522521915951]]}},{"type":"Feature","properties":{"numer":"2947S","klasa":"droga zbiorcza","kat":"powiatowa"},"geometry":{"type":"LineString","coordinates":[[18.45,50.47774042654029],[18.45,50.47774]]}},{"type":"Feature","properties":{"numer":"94","klasa":"droga gĹ‚Ăłwna ruchu przyĹ›pieszonego","kat":"krajowa"},"geometry":{"type":"LineString","coordinates":[[18.449943387096372,50.47775741935496],[18.45,50.47774]]}},{"type":"Feature","properties":{"numer":"94","klasa":"droga gĹ‚Ăłwna ruchu przyĹ›pieszonego","kat":"krajowa"},"geometry":{"type":"LineString","coordinates":[[18.44004,50.48073],[18.44127,50.48036]]}},{"type":"Feature","properties":{"numer":"94","klasa":"droga gĹ‚Ăłwna ruchu przyĹ›pieszonego","kat":"krajowa"},"geometry":{"type":"LineString","coordinates":[[18.483199546514697,50.4665301123146],[18.4832,50.46653]]}},{"type":"Feature","properties":{"numer":"2912S","klasa":"droga zbiorcza","kat":"powiatowa"},"geometry":{"type":"LineString","coordinates":[[18.51229,50.48406],[18.51188,50.48358],[18.50965,50.48213],[18.50874,50.48122],[18.50794,50.47972],[18.50653,50.47826],[18.5059,50.47709],[18.50641,50.47407],[18.50725,50.47213],[18.51021,50.46273],[18.51109,50.46086],[18.51127,50.45766]]}},{"type":"Feature","properties":{"numer":"2912S","klasa":"droga zbiorcza","kat":"powiatowa"},"geometry":{"type":"LineString","coordinates":[[18.499643868582872,50.496085846749125],[18.50871,50.4886],[18.51134,50.48561],[18.51223,50.48433],[18.51229,50.48406]]}},{"type":"Feature","properties":{"numer":"94","klasa":"droga gĹ‚Ăłwna ruchu przyĹ›pieszonego","kat":"krajowa"},"geometry":{"type":"LineString","coordinates":[[18.5775,50.41464],[18.58061,50.41318],[18.59658,50.40514]]}},{"type":"Feature","properties":{"numer":"2913S","klasa":"droga gĹ‚Ăłwna","kat":"powiatowa"},"geometry":{"type":"LineString","coordinates":[[18.5775,50.41464],[18.58049,50.41542],[18.59005,50.41816],[18.5948,50.41852],[18.59596,50.41946],[18.59692,50.42055],[18.59906,50.42201],[18.59957,50.42277]]}},{"type":"Feature","properties":{"numer":"2913S","klasa":"droga gĹ‚Ăłwna","kat":"powiatowa"},"geometry":{"type":"LineString","coordinates":[[18.60198,50.42259],[18.60381,50.42235],[18.61309,50.41969],[18.61351,50.41963],[18.61449,50.41965]]}},{"type":"Feature","properties":{"numer":"2913S","klasa":"droga gĹ‚Ăłwna","kat":"powiatowa"},"geometry":{"type":"LineString","coordinates":[[18.6018,50.42261],[18.60198,50.42259]]}},{"type":"Feature","properties":{"numer":"2913S","klasa":"droga gĹ‚Ăłwna","kat":"powiatowa"},"geometry":{"type":"LineString","coordinates":[[18.59957,50.42277],[18.59983,50.42282],[18.6018,50.42261]]}},{"type":"Feature","properties":{"numer":"620280S","klasa":"droga lokalna","kat":"powiatowa"},"geometry":{"type":"LineString","coordinates":[[18.60003,50.42524],[18.60005,50.4247],[18.59969,50.42459],[18.59931,50.42343],[18.5994,50.42293],[18.59957,50.42277]]}},{"type":"Feature","properties":{"numer":"620280S","klasa":"droga lokalna","kat":"powiatowa"},"geometry":{"type":"LineString","coordinates":[[18.59933,50.42592],[18.59987,50.4256],[18.60003,50.42524]]}},{"type":"Feature","properties":{"numer":"620280S","klasa":"droga lokalna","kat":"powiatowa"},"geometry":{"type":"LineString","coordinates":[[18.59608,50.43026],[18.59651,50.42947],[18.59747,50.42863],[18.59811,50.42761],[18.59887,50.42682],[18.59933,50.42592]]}},{"type":"Feature","properties":{"numer":"620280S","klasa":"droga lokalna","kat":"powiatowa"},"geometry":{"type":"LineString","coordinates":[[18.59583,50.43057],[18.59608,50.43026]]}},{"type":"Feature","properties":{"numer":"620280S","klasa":"droga lokalna","kat":"powiatowa"},"geometry":{"type":"LineString","coordinates":[[18.59481,50.43164],[18.59583,50.43057]]}},{"type":"Feature","properties":{"numer":"901","klasa":"droga gĹ‚Ăłwna","kat":"wojewodzka"},"geometry":{"type":"LineString","coordinates":[[18.61449,50.41965],[18.614922793285583,50.41763527263608]]}}]}