{"type":"FeatureCollection","features":[{"type":"Feature","properties":{"numer":"1026S","klasa":"droga zbiorcza","kat":"powiatowa"},"geometry":{"type":"LineString","coordinates":[[19.052973182537173,50.95712647758689],[19.05573,50.96645]]}},{"type":"Feature","properties":{"numer":"1026S","klasa":"droga zbiorcza","kat":"powiatowa"},"geometry":{"type":"LineString","coordinates":[[19.05573,50.96645],[19.05581,50.96672]]}},{"type":"Feature","properties":{"numer":"1026S","klasa":"droga zbiorcza","kat":"powiatowa"},"geometry":{"type":"LineString","coordinates":[[19.05704,50.97319],[19.05725,50.97291],[19.05752,50.972],[19.05744,50.9709],[19.05649,50.96897],[19.05581,50.96672]]}},{"type":"Feature","properties":{"numer":"1027S","klasa":"","kat":"powiatowa"},"geometry":{"type":"LineString","coordinates":[[19.05834,50.97325],[19.05883,50.97297]]}},{"type":"Feature","properties":{"numer":"1027S","klasa":"","kat":"powiatowa"},"geometry":{"type":"LineString","coordinates":[[19.05704,50.97319],[19.05794,50.97325]]}},{"type":"Feature","properties":{"numer":"1027S","klasa":"","kat":"powiatowa"},"geometry":{"type":"LineString","coordinates":[[19.05883,50.97297],[19.07868,50.97072],[19.08560320994785,50.96962780394789]]}},{"type":"Feature","properties":{"numer":"492","klasa":"droga gĹ‚Ăłwna","kat":"wojewodzka"},"geometry":{"type":"LineString","coordinates":[[19.10603,51.02365],[19.09315,51.01958],[19.09239,51.0191],[19.06039,50.98504],[19.05414,50.97847],[19.05316,50.97762]]}},{"type":"Feature","properties":{"numer":"1027S","klasa":"","kat":"powiatowa"},"geometry":{"type":"LineString","coordinates":[[19.05794,50.97325],[19.05821,50.97325]]}},{"type":"Feature","properties":{"numer":"1027S","klasa":"","kat":"powiatowa"},"geometry":{"type":"LineString","coordinates":[[19.05821,50.97325],[19.05834,50.97325]]}},{"type":"Feature","properties":{"numer":"1026S","klasa":"droga zbiorcza","kat":"powiatowa"},"geometry":{"type":"LineString","coordinates":[[19.05527,50.97385],[19.05568,50.97381],[19.05613,50.97366],[19.05704,50.97319]]}},{"type":"Feature","properties":{"numer":"492","klasa":"droga gĹ‚Ăłwna","kat":"wojewodzka"},"geometry":{"type":"LineString","coordinates":[[19.05454,50.97349],[19.05519,50.97374],[19.05527,50.97385]]}},{"type":"Feature","properties":{"numer":"492","klasa":"droga gĹ‚Ăłwna","kat":"wojewodzka"},"geometry":{"type":"LineString","coordinates":[[19.05297,50.97746],[19.0521,50.97673],[19.05208,50.97658],[19.05452,50.97491],[19.05498,50.97443],[19.0553,50.97397],[19.05527,50.97385]]}},{"type":"Feature","properties":{"numer":"492","klasa":"droga gĹ‚Ăłwna","kat":"wojewodzka"},"geometry":{"type":"LineString","coordinates":[[19.05297,50.97746],[19.05316,50.97762]]}},{"type":"Feature","properties":{"numer":"2028S","klasa":"droga zbiorcza","kat":"powiatowa"},"geometry":{"type":"LineString","coordinates":[[19.00117,50.97063],[19.05294,50.97348],[19.05454,50.97349]]}},{"type":"Feature","properties":{"numer":"2027S","klasa":"droga zbiorcza","kat":"powiatowa"},"geometry":{"type":"LineString","coordinates":[[19.00487,51.00795],[19.00807,51.00449],[19.00922,51.00338]]}},{"type":"Feature","properties":{"numer":"492","klasa":"droga zbiorcza","kat":"wojewodzka"},"geometry":{"type":"LineString","coordinates":[[19.106092532979698,51.023670345658466],[19.10603,51.02365]]}},{"type":"Feature","properties":{"numer":"492","klasa":"droga gĹ‚Ăłwna","kat":"wojewodzka"},"geometry":{"type":"LineString","coordinates":[[19.05454,50.97349],[19.024847075260958,50.954299365997294]]}},{"type":"Feature","properties":{"numer":"491","klasa":"droga gĹ‚Ăłwna","kat":"wojewodzka"},"geometry":{"type":"LineString","coordinates":[[18.98143,50.96989],[18.98164,50.96851],[18.986115869475192,50.94789668133029]]}},{"type":"Feature","properties":{"numer":"2028S","klasa":"droga zbiorcza","kat":"powiatowa"},"geometry":{"type":"LineString","coordinates":[[18.98143,50.96989],[18.98552,50.9695],[18.98879,50.96997]]}},{"type":"Feature","properties":{"numer":"2028S","klasa":"droga zbiorcza","kat":"powiatowa"},"geometry":{"type":"LineString","coordinates":[[18.98879,50.96997],[19.00103,50.97062]]}},{"type":"Feature","properties":{"numer":"2028S","klasa":"droga zbiorcza","kat":"powiatowa"},"geometry":{"type":"LineString","coordinates":[[19.00103,50.97062],[19.00117,50.97063]]}},{"type":"Feature","properties":{"numer":"491","klasa":"droga gĹ‚Ăłwna","kat":"wojewodzka"},"geometry":{"type":"LineString","coordinates":[[18.97315,50.98368],[18.98252,50.97435],[18.98269,50.9739],[18.98266,50.97346],[18.98143,50.96989]]}},{"type":"Feature","properties":{"numer":"491","klasa":"droga gĹ‚Ăłwna","kat":"wojewodzka"},"geometry":{"type":"LineString","coordinates":[[18.97311,50.98373],[18.97315,50.98368]]}},{"type":"Feature","properties":{"numer":"2027S","klasa":"droga zbiorcza","kat":"powiatowa"},"geometry":{"type":"LineString","coordinates":[[19.00922,51.00338],[18.98979,50.97895],[18.98898,50.97763],[18.98849,50.97714],[18.98913,50.97123],[18.98879,50.96997]]}},{"type":"Feature","properties":{"numer":"2027S","klasa":"droga zbiorcza","kat":"powiatowa"},"geometry":{"type":"LineString","coordinates":[[18.98154,51.01832],[18.9887,51.01714],[18.99184,51.0161],[18.99747,51.01468],[18.99825,51.0144],[18.99913,51.01384],[19.00487,51.00795]]}},{"type":"Feature","properties":{"numer":"2022S","klasa":"droga zbiorcza","kat":"powiatowa"},"geometry":{"type":"LineString","coordinates":[[18.98143,50.96989],[18.97921,50.97005],[18.97383,50.96984],[18.96892,50.96997],[18.95653,50.96974],[18.94486,50.9649],[18.9333,50.96258],[18.93198,50.96262],[18.93122,50.96217],[18.91505,50.95912]]}},{"type":"Feature","properties":{"numer":"491","klasa":"droga gĹ‚Ăłwna","kat":"wojewodzka"},"geometry":{"type":"LineString","coordinates":[[18.9618,50.99489],[18.97311,50.98373]]}},{"type":"Feature","properties":{"numer":"491","klasa":"droga gĹ‚Ăłwna","kat":"wojewodzka"},"geometry":{"type":"LineString","coordinates":[[18.955342605166198,51.00126891197964],[18.9618,50.99489]]}},{"type":"Feature","properties":{"numer":"2026S","klasa":"droga zbiorcza","kat":"powiatowa"},"geometry":{"type":"LineString","coordinates":[[18.98154,51.01832],[18.9743,51.00807],[18.97312,51.00696],[18.9618,50.99489]]}},{"type":"Feature","properties":{"numer":"2025S","klasa":"droga zbiorcza","kat":"powiatowa"},"geometry":{"type":"LineString","coordinates":[[18.952979230769227,51.02067538461537],[18.952932576950612,51.02054708661418]]}},{"type":"Feature","properties":{"numer":"2025S","klasa":"droga zbiorcza","kat":"powiatowa"},"geometry":{"type":"LineString","coordinates":[[18.95288462831528,51.02014070227867],[18.95295,51.02008],[18.95317,51.02002],[18.97289,51.01735],[18.98116,51.01835],[18.98154,51.01832]]}},{"type":"Feature","properties":{"numer":"2023S","klasa":"droga zbiorcza","kat":"powiatowa"},"geometry":{"type":"LineString","coordinates":[[18.918128086510265,50.94020923753668],[18.91819,50.94224],[18.9171,50.94417],[18.91542,50.95647]]}},{"type":"Feature","properties":{"numer":"2021S","klasa":"droga zbiorcza","kat":"powiatowa"},"geometry":{"type":"LineString","coordinates":[[18.897762139216976,50.95596427036078],[18.89785,50.95598],[18.91542,50.95647]]}},{"type":"Feature","properties":{"numer":"2023S","klasa":"droga zbiorcza","kat":"powiatowa"},"geometry":{"type":"LineString","coordinates":[[18.91505,50.95912],[18.91462,50.96232],[18.91469,50.96285],[18.9273003259459,50.98989673734299]]}},{"type":"Feature","properties":{"numer":"2023S","klasa":"droga zbiorcza","kat":"powiatowa"},"geometry":{"type":"LineString","coordinates":[[18.91542,50.95647],[18.91505,50.95912]]}}]}