{"type":"FeatureCollection","features":[{"type":"Feature","properties":{"numer":"1022S","klasa":"","kat":"powiatowa"},"geometry":{"type":"LineString","coordinates":[[18.9678,50.68188],[18.96887,50.68143],[18.96992,50.68134],[18.97123,50.68143],[18.97431,50.68263],[18.9758,50.68295],[18.9767,50.68326],[18.97756,50.68387],[18.97823,50.68469],[18.97889,50.68451],[18.98121,50.68413],[18.9827,50.68403],[18.986041467419167,50.68446757311441]]}},{"type":"Feature","properties":{"numer":"905","klasa":"droga gĹ‚Ăłwna","kat":"wojewodzka"},"geometry":{"type":"LineString","coordinates":[[18.950367953730275,50.64635902618364],[18.94997,50.64673],[18.93697,50.65521]]}},{"type":"Feature","properties":{"numer":"1022S","klasa":"","kat":"powiatowa"},"geometry":{"type":"LineString","coordinates":[[18.96772,50.68192],[18.9678,50.68188]]}},{"type":"Feature","properties":{"numer":"1022S","klasa":"","kat":"powiatowa"},"geometry":{"type":"LineString","coordinates":[[18.94124,50.6871],[18.94175,50.68682],[18.94524,50.68544],[18.94634,50.68464],[18.94765,50.68388],[18.95192,50.68258],[18.95238,50.68257],[18.95734,50.68342],[18.96013,50.684],[18.96108,50.68407],[18.96183,50.68399],[18.96353,50.68362],[18.96659,50.68248],[18.96772,50.68192]]}},{"type":"Feature","properties":{"numer":"907","klasa":"droga zbiorcza","kat":"wojewodzka"},"geometry":{"type":"LineString","coordinates":[[18.953052345660826,50.69958637689701],[18.95261,50.69936],[18.9514,50.69858],[18.94326,50.69249],[18.93864,50.68981]]}},{"type":"Feature","properties":{"numer":"1022S","klasa":"droga zbiorcza","kat":"powiatowa"},"geometry":{"type":"LineString","coordinates":[[18.9860353645833,50.68446552083333],[18.98595,50.68445]]}},{"type":"Feature","properties":{"numer":"1021S","klasa":"droga zbiorcza","kat":"powiatowa"},"geometry":{"type":"LineString","coordinates":[[18.93739599209833,50.71513541032804],[18.9373,50.71504]]}},{"type":"Feature","properties":{"numer":"905","klasa":"droga gĹ‚Ăłwna","kat":"wojewodzka"},"geometry":{"type":"LineString","coordinates":[[18.93692,50.65524],[18.93697,50.65521]]}},{"type":"Feature","properties":{"numer":"905","klasa":"droga gĹ‚Ăłwna","kat":"wojewodzka"},"geometry":{"type":"LineString","coordinates":[[18.93692,50.65524],[18.92583,50.66248],[18.91728,50.67007],[18.91642,50.67046],[18.90991,50.67242],[18.90909,50.67282]]}},{"type":"Feature","properties":{"numer":"907","klasa":"droga zbiorcza","kat":"wojewodzka"},"geometry":{"type":"LineString","coordinates":[[18.93864,50.68981],[18.93373,50.68697],[18.92604,50.6831],[18.91106,50.67721],[18.91003,50.67693],[18.90796,50.6766]]}},{"type":"Feature","properties":{"numer":"1022S","klasa":"","kat":"powiatowa"},"geometry":{"type":"LineString","coordinates":[[18.94124,50.6871],[18.93864,50.68981]]}},{"type":"Feature","properties":{"numer":"907","klasa":"droga zbiorcza","kat":"wojewodzka"},"geometry":{"type":"LineString","coordinates":[[18.90464,50.67308],[18.90473,50.67314]]}},{"type":"Feature","properties":{"numer":"905","klasa":"droga gĹ‚Ăłwna","kat":"wojewodzka"},"geometry":{"type":"LineString","coordinates":[[18.90909,50.67282],[18.90679,50.67414]]}},{"type":"Feature","properties":{"numer":"907","klasa":"droga zbiorcza","kat":"wojewodzka"},"geometry":{"type":"LineString","coordinates":[[18.90473,50.67314],[18.90579,50.67385],[18.90643,50.67404]]}},{"type":"Feature","properties":{"numer":"907","klasa":"droga zbiorcza","kat":"wojewodzka"},"geometry":{"type":"LineString","coordinates":[[18.90679,50.67414],[18.90643,50.67404]]}},{"type":"Feature","properties":{"numer":"905","klasa":"droga gĹ‚Ăłwna","kat":"wojewodzka"},"geometry":{"type":"LineString","coordinates":[[18.90679,50.67414],[18.90673,50.67431]]}},{"type":"Feature","properties":{"numer":"905","klasa":"droga gĹ‚Ăłwna","kat":"wojewodzka"},"geometry":{"type":"LineString","coordinates":[[18.90673,50.67431],[18.90675,50.67442]]}},{"type":"Feature","properties":{"numer":"907","klasa":"droga zbiorcza","kat":"wojewodzka"},"geometry":{"type":"LineString","coordinates":[[18.90464,50.67308],[18.90382,50.67238],[18.90244,50.67169],[18.9014,50.67082],[18.901,50.6708],[18.89952,50.67144],[18.89897,50.67143],[18.87839,50.66393],[18.87612,50.66328],[18.87503,50.66249],[18.87303,50.66016],[18.87294,50.65865],[18.8735,50.65637],[18.87325,50.65574],[18.87251,50.65468],[18.866566401689717,50.64816941369301]]}},{"type":"Feature","properties":{"numer":"905","klasa":"droga gĹ‚Ăłwna","kat":"wojewodzka"},"geometry":{"type":"LineString","coordinates":[[18.90675,50.67442],[18.90679,50.67459]]}},{"type":"Feature","properties":{"numer":"905,907","klasa":"droga gĹ‚Ăłwna","kat":"gminna"},"geometry":{"type":"LineString","coordinates":[[18.90679,50.67459],[18.90705,50.67594]]}},{"type":"Feature","properties":{"numer":"905,907","klasa":"droga gĹ‚Ăłwna","kat":"gminna"},"geometry":{"type":"LineString","coordinates":[[18.90705,50.67594],[18.90719,50.67644]]}},{"type":"Feature","properties":{"numer":"905","klasa":"droga gĹ‚Ăłwna","kat":"wojewodzka"},"geometry":{"type":"LineString","coordinates":[[18.90726,50.67657],[18.90719,50.67644]]}},{"type":"Feature","properties":{"numer":"907","klasa":"droga zbiorcza","kat":"wojewodzka"},"geometry":{"type":"LineString","coordinates":[[18.90726,50.67657],[18.90746,50.67657]]}},{"type":"Feature","properties":{"numer":"907","klasa":"droga zbiorcza","kat":"wojewodzka"},"geometry":{"type":"LineString","coordinates":[[18.90796,50.6766],[18.90746,50.67657]]}},{"type":"Feature","properties":{"numer":"905","klasa":"droga gĹ‚Ăłwna","kat":"wojewodzka"},"geometry":{"type":"LineString","coordinates":[[18.90726,50.67657],[18.90717,50.67669]]}},{"type":"Feature","properties":{"numer":"905","klasa":"droga gĹ‚Ăłwna","kat":"wojewodzka"},"geometry":{"type":"LineString","coordinates":[[18.90698,50.67694],[18.90717,50.67669]]}},{"type":"Feature","properties":{"numer":"905","klasa":"droga gĹ‚Ăłwna","kat":"wojewodzka"},"geometry":{"type":"LineString","coordinates":[[18.90698,50.67694],[18.90635,50.67827],[18.90168,50.68622],[18.90162,50.68668],[18.90195,50.69149]]}},{"type":"Feature","properties":{"numer":"2327S","klasa":"","kat":"powiatowa"},"geometry":{"type":"LineString","coordinates":[[18.90195,50.69149],[18.89922,50.69142],[18.89771,50.6916],[18.89569,50.69197],[18.89547,50.69213],[18.8954,50.69268],[18.89451,50.69369],[18.89411,50.69437]]}},{"type":"Feature","properties":{"numer":"2327S","klasa":"","kat":"powiatowa"},"geometry":{"type":"LineString","coordinates":[[18.89411,50.69437],[18.88644,50.69702],[18.8861,50.69706],[18.88045,50.69699],[18.86744,50.69533],[18.86374,50.69506],[18.86302,50.69509],[18.86233,50.69521],[18.85976,50.69607],[18.859461771291986,50.696196368096615]]}},{"type":"Feature","properties":{"numer":"905","klasa":"droga gĹ‚Ăłwna","kat":"wojewodzka"},"geometry":{"type":"LineString","coordinates":[[18.886341954173815,50.707943425860506],[18.88622,50.70748],[18.88636,50.70693],[18.88688,50.70632],[18.90151,50.69531],[18.90187,50.69483],[18.9021,50.69412],[18.90195,50.69149]]}}]}