{"type":"FeatureCollection","features":[{"type":"Feature","properties":{"numer":"3210S","klasa":"","kat":"powiatowa"},"geometry":{"type":"LineString","coordinates":[[19.09234,50.5094],[19.092232110369444,50.509342458863706]]}},{"type":"Feature","properties":{"numer":"3210S","klasa":"droga zbiorcza","kat":"powiatowa"},"geometry":{"type":"LineString","coordinates":[[19.11327,50.53326],[19.1127,50.52859],[19.11256,50.52815],[19.11033,50.52453],[19.10929,50.52319],[19.10192,50.51557],[19.09616,50.51273],[19.09234,50.5094]]}},{"type":"Feature","properties":{"numer":"3210S","klasa":"droga zbiorcza","kat":"powiatowa"},"geometry":{"type":"LineString","coordinates":[[19.11329,50.53333],[19.11327,50.53326]]}},{"type":"Feature","properties":{"numer":"3210S","klasa":"droga zbiorcza","kat":"powiatowa"},"geometry":{"type":"LineString","coordinates":[[19.11786,50.55207],[19.1156,50.5511],[19.11535,50.55093],[19.11522,50.55067],[19.11364,50.53782],[19.11329,50.53333]]}},{"type":"Feature","properties":{"numer":"2312S","klasa":"droga zbiorcza","kat":"powiatowa"},"geometry":{"type":"LineString","coordinates":[[19.11786,50.55207],[19.09024,50.55972],[19.08992,50.55988],[19.08905,50.56063]]}},{"type":"Feature","properties":{"numer":"789","klasa":"droga gĹ‚Ăłwna","kat":"wojewodzka"},"geometry":{"type":"LineString","coordinates":[[19.11059,50.59596],[19.1033,50.59361],[19.09903,50.59087],[19.098712149414375,50.590716201329535]]}},{"type":"Feature","properties":{"numer":"2311S","klasa":"","kat":"powiatowa"},"geometry":{"type":"LineString","coordinates":[[19.11059,50.59596],[19.11065,50.59816],[19.11028,50.60031],[19.10952,50.60197],[19.10807,50.6057],[19.10749,50.60673],[19.10639,50.60828],[19.10579,50.6087],[19.10285,50.60989],[19.09928,50.61228],[19.09672,50.61329],[19.09545,50.61446],[19.09525,50.61455]]}},{"type":"Feature","properties":{"numer":"595020S","klasa":"droga lokalna","kat":"powiatowa"},"geometry":{"type":"LineString","coordinates":[[19.09109,50.61408],[19.09461,50.61437],[19.09525,50.61455]]}},{"type":"Feature","properties":{"numer":"595020S","klasa":"droga lokalna","kat":"powiatowa"},"geometry":{"type":"LineString","coordinates":[[19.09109,50.61408],[19.09104,50.61477],[19.09121,50.61526]]}},{"type":"Feature","properties":{"numer":"595020S","klasa":"droga lokalna","kat":"powiatowa"},"geometry":{"type":"LineString","coordinates":[[19.09121,50.61526],[19.09102,50.61534],[19.09067,50.61533]]}},{"type":"Feature","properties":{"numer":"2311S","klasa":"","kat":"powiatowa"},"geometry":{"type":"LineString","coordinates":[[19.09525,50.61455],[19.09531,50.6147],[19.09509,50.61533],[19.09507,50.61643],[19.09534,50.61673],[19.09613,50.61729]]}},{"type":"Feature","properties":{"numer":"2311S","klasa":"","kat":"powiatowa"},"geometry":{"type":"LineString","coordinates":[[19.09613,50.61729],[19.09569,50.61874]]}},{"type":"Feature","properties":{"numer":"91","klasa":"droga gĹ‚Ăłwna ruchu przyĹ›pieszonego","kat":"krajowa"},"geometry":{"type":"LineString","coordinates":[[19.19040096517358,50.532040975955326],[19.19037,50.53214]]}},{"type":"Feature","properties":{"numer":"4741S","klasa":"droga zbiorcza","kat":"powiatowa"},"geometry":{"type":"LineString","coordinates":[[19.2173,50.52181],[19.217320734663435,50.52169984710051]]}},{"type":"Feature","properties":{"numer":"595041S","klasa":"droga lokalna","kat":"powiatowa"},"geometry":{"type":"LineString","coordinates":[[19.21839,50.52632],[19.21841,50.52509],[19.2173,50.52181]]}},{"type":"Feature","properties":{"numer":"595041S","klasa":"droga lokalna","kat":"powiatowa"},"geometry":{"type":"LineString","coordinates":[[19.21835,50.52717],[19.21839,50.52632]]}},{"type":"Feature","properties":{"numer":"595041S","klasa":"droga lokalna","kat":"powiatowa"},"geometry":{"type":"LineString","coordinates":[[19.21832,50.52831],[19.21835,50.52717]]}},{"type":"Feature","properties":{"numer":"595041S","klasa":"droga lokalna","kat":"powiatowa"},"geometry":{"type":"LineString","coordinates":[[19.21912,50.53189],[19.21833,50.52922],[19.21832,50.52831]]}},{"type":"Feature","properties":{"numer":"91,E75","klasa":"droga gĹ‚Ăłwna ruchu przyĹ›pieszonego","kat":"gminna"},"geometry":{"type":"LineString","coordinates":[[19.19009,50.53282],[19.19037,50.53214]]}},{"type":"Feature","properties":{"numer":"595041S","klasa":"droga lokalna","kat":"powiatowa"},"geometry":{"type":"LineString","coordinates":[[19.21982,50.53508],[19.21912,50.53189]]}},{"type":"Feature","properties":{"numer":"91,E75","klasa":"droga gĹ‚Ăłwna ruchu przyĹ›pieszonego","kat":"gminna"},"geometry":{"type":"LineString","coordinates":[[19.18802,50.53625],[19.19009,50.53282]]}},{"type":"Feature","properties":{"numer":"3210S","klasa":"droga zbiorcza","kat":"powiatowa"},"geometry":{"type":"LineString","coordinates":[[19.14757,50.58671],[19.14354,50.58479],[19.13705,50.58134],[19.125,50.57004],[19.12187,50.56546],[19.11981,50.56212],[19.1185,50.5603],[19.11808,50.55889],[19.11791,50.55787],[19.11823,50.55672],[19.11838,50.55389],[19.11817,50.55247],[19.118,50.55215],[19.11786,50.55207]]}},{"type":"Feature","properties":{"numer":"3210S","klasa":"droga zbiorcza","kat":"powiatowa"},"geometry":{"type":"LineString","coordinates":[[19.14757,50.58671],[19.14765,50.58675]]}},{"type":"Feature","properties":{"numer":"789","klasa":"droga gĹ‚Ăłwna","kat":"wojewodzka"},"geometry":{"type":"LineString","coordinates":[[19.14955,50.59823],[19.13423,50.59962],[19.11137,50.59614],[19.11059,50.59596]]}},{"type":"Feature","properties":{"numer":"4739S","klasa":"","kat":"powiatowa"},"geometry":{"type":"LineString","coordinates":[[19.16791,50.53143],[19.168111861311466,50.531249387247634]]}},{"type":"Feature","properties":{"numer":"91,E75","klasa":"droga gĹ‚Ăłwna ruchu przyĹ›pieszonego","kat":"gminna"},"geometry":{"type":"LineString","coordinates":[[19.18129,50.5408],[19.18173,50.54027],[19.18263,50.53949],[19.18688,50.53723],[19.18794,50.53634]]}},{"type":"Feature","properties":{"numer":"2312S","klasa":"droga zbiorcza","kat":"powiatowa"},"geometry":{"type":"LineString","coordinates":[[19.18129,50.5408],[19.18039,50.5407],[19.1799,50.54072],[19.14563,50.54431],[19.11786,50.55207]]}},{"type":"Feature","properties":{"numer":"91,E75","klasa":"droga gĹ‚Ăłwna ruchu przyĹ›pieszonego","kat":"gminna"},"geometry":{"type":"LineString","coordinates":[[19.16182,50.58817],[19.16248,50.5871],[19.16371,50.5843],[19.16409,50.58289],[19.16401,50.58197],[19.16294,50.57712],[19.16297,50.57627],[19.16313,50.57577],[19.16637,50.57013],[19.16688,50.56939],[19.17413,50.56282],[19.17466,50.56225],[19.17512,50.5615],[19.18057,50.54716],[19.18069,50.54628],[19.18069,50.54226],[19.18088,50.5415],[19.18129,50.5408]]}},{"type":"Feature","properties":{"numer":"595056S","klasa":"droga lokalna","kat":"powiatowa"},"geometry":{"type":"LineString","coordinates":[[19.16182,50.58817],[19.16186,50.58825]]}},{"type":"Feature","properties":{"numer":"3210S","klasa":"droga zbiorcza","kat":"powiatowa"},"geometry":{"type":"LineString","coordinates":[[19.14765,50.58675],[19.14949,50.58752],[19.15862,50.59068]]}},{"type":"Feature","properties":{"numer":"595087S","klasa":"droga lokalna","kat":"powiatowa"},"geometry":{"type":"LineString","coordinates":[[19.16186,50.58825],[19.16162,50.58894],[19.1613,50.58944]]}},{"type":"Feature","properties":{"numer":"91,E75","klasa":"droga gĹ‚Ăłwna ruchu przyĹ›pieszonego","kat":"gminna"},"geometry":{"type":"LineString","coordinates":[[19.15862,50.59068],[19.15957,50.59016],[19.16047,50.58953],[19.16182,50.58817]]}},{"type":"Feature","properties":{"numer":"595087S","klasa":"droga lokalna","kat":"powiatowa"},"geometry":{"type":"LineString","coordinates":[[19.1613,50.58944],[19.15974,50.59107]]}},{"type":"Feature","properties":{"numer":"3804S","klasa":"droga zbiorcza","kat":"powiatowa"},"geometry":{"type":"LineString","coordinates":[[19.19009,50.53282],[19.19322,50.53347],[19.19378,50.53352],[19.2037,50.533],[19.20421,50.53303],[19.20493,50.53329],[19.2085,50.53592],[19.21478,50.53871],[19.21532,50.53875],[19.22055,50.53822]]}},{"type":"Feature","properties":{"numer":"91,E75","klasa":"droga gĹ‚Ăłwna ruchu przyĹ›pieszonego","kat":"gminna"},"geometry":{"type":"LineString","coordinates":[[19.18794,50.53634],[19.18802,50.53625]]}},{"type":"Feature","properties":{"numer":"595041S","klasa":"droga lokalna","kat":"powiatowa"},"geometry":{"type":"LineString","coordinates":[[19.22055,50.53822],[19.21982,50.53508]]}},{"type":"Feature","properties":{"numer":"3801S","klasa":"droga zbiorcza","kat":"powiatowa"},"geometry":{"type":"LineString","coordinates":[[19.22554,50.57311],[19.21828,50.57452],[19.21359,50.57503],[19.21161,50.57501],[19.21002,50.57529],[19.20929,50.57535],[19.20485,50.57494],[19.20402,50.57499],[19.20348,50.57515],[19.20213,50.57578],[19.19897,50.57747],[19.19685,50.57993],[19.18826,50.58447],[19.18704,50.58534],[19.186,50.58583],[19.18601,50.58599],[19.18486,50.58765],[19.18294,50.59815],[19.1825,50.59937]]}},{"type":"Feature","properties":{"numer":"789","klasa":"droga gĹ‚Ăłwna","kat":"wojewodzka"},"geometry":{"type":"LineString","coordinates":[[19.22293,50.60564],[19.22069,50.60576],[19.20869,50.60515],[19.18837,50.59929],[19.18568,50.59895],[19.1825,50.59937]]}},{"type":"Feature","properties":{"numer":"3800S","klasa":"","kat":"powiatowa"},"geometry":{"type":"LineString","coordinates":[[19.21622,50.62071],[19.2161,50.62071]]}},{"type":"Feature","properties":{"numer":"3800S","klasa":"","kat":"powiatowa"},"geometry":{"type":"LineString","coordinates":[[19.2161,50.62071],[19.21586,50.62083],[19.21513,50.6217],[19.21445,50.62217]]}},{"type":"Feature","properties":{"numer":"","klasa":"droga wewnÄ™trzna","kat":"gminna"},"geometry":{"type":"LineString","coordinates":[[19.21499,50.62275],[19.21445,50.62217]]}},{"type":"Feature","properties":{"numer":"","klasa":"droga wewnÄ™trzna","kat":"gminna"},"geometry":{"type":"LineString","coordinates":[[19.21579,50.62363],[19.21499,50.62275]]}},{"type":"Feature","properties":{"numer":"1012S","klasa":"droga zbiorcza","kat":"powiatowa"},"geometry":{"type":"LineString","coordinates":[[19.19901,50.62383],[19.19885,50.62361]]}},{"type":"Feature","properties":{"numer":"","klasa":"droga wewnÄ™trzna","kat":"gminna"},"geometry":{"type":"LineString","coordinates":[[19.15974,50.59107],[19.15862,50.59068]]}},{"type":"Feature","properties":{"numer":"","klasa":"droga wewnÄ™trzna","kat":"gminna"},"geometry":{"type":"LineString","coordinates":[[19.1617,50.59175],[19.15974,50.59107]]}},{"type":"Feature","properties":{"numer":"91,E75","klasa":"droga gĹ‚Ăłwna ruchu przyĹ›pieszonego","kat":"gminna"},"geometry":{"type":"LineString","coordinates":[[19.15432,50.59262],[19.15862,50.59068]]}},{"type":"Feature","properties":{"numer":"595056S","klasa":"droga lokalna","kat":"powiatowa"},"geometry":{"type":"LineString","coordinates":[[19.16176,50.59225],[19.1617,50.59175]]}},{"type":"Feature","properties":{"numer":"595087S","klasa":"droga lokalna","kat":"powiatowa"},"geometry":{"type":"LineString","coordinates":[[19.15974,50.59107],[19.15752,50.59327]]}},{"type":"Feature","properties":{"numer":"91,E75","klasa":"droga gĹ‚Ăłwna ruchu przyĹ›pieszonego","kat":"gminna"},"geometry":{"type":"LineString","coordinates":[[19.15409,50.59273],[19.15432,50.59262]]}},{"type":"Feature","properties":{"numer":"595087S","klasa":"droga lokalna","kat":"powiatowa"},"geometry":{"type":"LineString","coordinates":[[19.15752,50.59327],[19.15691,50.59387]]}},{"type":"Feature","properties":{"numer":"595056S","klasa":"droga lokalna","kat":"powiatowa"},"geometry":{"type":"LineString","coordinates":[[19.16183,50.59499],[19.16198,50.59392],[19.16176,50.59225]]}},{"type":"Feature","properties":{"numer":"595087S","klasa":"droga lokalna","kat":"powiatowa"},"geometry":{"type":"LineString","coordinates":[[19.15691,50.59387],[19.15674,50.59404]]}},{"type":"Feature","properties":{"numer":"595087S","klasa":"droga lokalna","kat":"powiatowa"},"geometry":{"type":"LineString","coordinates":[[19.15674,50.59404],[19.15542,50.59534]]}},{"type":"Feature","properties":{"numer":"595056S","klasa":"droga lokalna","kat":"powiatowa"},"geometry":{"type":"LineString","coordinates":[[19.16185,50.59516],[19.16183,50.59499]]}},{"type":"Feature","properties":{"numer":"595087S","klasa":"droga lokalna","kat":"powiatowa"},"geometry":{"type":"LineString","coordinates":[[19.15542,50.59534],[19.15528,50.59549]]}},{"type":"Feature","properties":{"numer":"595056S","klasa":"droga lokalna","kat":"powiatowa"},"geometry":{"type":"LineString","coordinates":[[19.16195,50.59572],[19.16185,50.59516]]}},{"type":"Feature","properties":{"numer":"91,E75","klasa":"droga gĹ‚Ăłwna ruchu przyĹ›pieszonego","kat":"gminna"},"geometry":{"type":"LineString","coordinates":[[19.14955,50.59823],[19.14955,50.59746],[19.14972,50.59661],[19.15008,50.59582],[19.15064,50.59503],[19.15136,50.5943],[19.15213,50.59373],[19.15409,50.59273]]}},{"type":"Feature","properties":{"numer":"595056S","klasa":"droga lokalna","kat":"powiatowa"},"geometry":{"type":"LineString","coordinates":[[19.16202,50.59616],[19.16195,50.59572]]}},{"type":"Feature","properties":{"numer":"595056S","klasa":"droga lokalna","kat":"powiatowa"},"geometry":{"type":"LineString","coordinates":[[19.16204,50.59629],[19.16202,50.59616]]}},{"type":"Feature","properties":{"numer":"595056S","klasa":"droga lokalna","kat":"powiatowa"},"geometry":{"type":"LineString","coordinates":[[19.1621,50.59661],[19.16204,50.59629]]}},{"type":"Feature","properties":{"numer":"595056S","klasa":"droga lokalna","kat":"powiatowa"},"geometry":{"type":"LineString","coordinates":[[19.16215,50.59703],[19.1621,50.59661]]}},{"type":"Feature","properties":{"numer":"595087S","klasa":"droga lokalna","kat":"powiatowa"},"geometry":{"type":"LineString","coordinates":[[19.15528,50.59549],[19.15349,50.59731],[19.15321,50.59786],[19.15311,50.59838]]}},{"type":"Feature","properties":{"numer":"595056S","klasa":"droga lokalna","kat":"powiatowa"},"geometry":{"type":"LineString","coordinates":[[19.16223,50.59745],[19.16215,50.59703]]}},{"type":"Feature","properties":{"numer":"595068S","klasa":"droga lokalna","kat":"powiatowa"},"geometry":{"type":"LineString","coordinates":[[19.16223,50.59745],[19.1617,50.59748]]}},{"type":"Feature","properties":{"numer":"789","klasa":"droga gĹ‚Ăłwna","kat":"wojewodzka"},"geometry":{"type":"LineString","coordinates":[[19.1617,50.59748],[19.16092,50.5975]]}},{"type":"Feature","properties":{"numer":"595056S","klasa":"droga lokalna","kat":"powiatowa"},"geometry":{"type":"LineString","coordinates":[[19.16232,50.59776],[19.16223,50.59745]]}},{"type":"Feature","properties":{"numer":"789","klasa":"droga gĹ‚Ăłwna","kat":"wojewodzka"},"geometry":{"type":"LineString","coordinates":[[19.16232,50.59776],[19.16201,50.59755],[19.1617,50.59748]]}},{"type":"Feature","properties":{"numer":"789","klasa":"droga gĹ‚Ăłwna","kat":"wojewodzka"},"geometry":{"type":"LineString","coordinates":[[19.16092,50.5975],[19.15463,50.59838],[19.15311,50.59838]]}},{"type":"Feature","properties":{"numer":"789","klasa":"droga gĹ‚Ăłwna","kat":"wojewodzka"},"geometry":{"type":"LineString","coordinates":[[19.15311,50.59838],[19.14955,50.59823]]}},{"type":"Feature","properties":{"numer":"789","klasa":"droga gĹ‚Ăłwna","kat":"wojewodzka"},"geometry":{"type":"LineString","coordinates":[[19.16267,50.59887],[19.16232,50.59776]]}},{"type":"Feature","properties":{"numer":"789","klasa":"droga gĹ‚Ăłwna","kat":"wojewodzka"},"geometry":{"type":"LineString","coordinates":[[19.16269,50.59893],[19.16267,50.59887]]}},{"type":"Feature","properties":{"numer":"789","klasa":"droga gĹ‚Ăłwna","kat":"wojewodzka"},"geometry":{"type":"LineString","coordinates":[[19.17982,50.59956],[19.17324,50.59841],[19.17251,50.59841],[19.16893,50.59867],[19.16779,50.59886]]}},{"type":"Feature","properties":{"numer":"595087S","klasa":"droga lokalna","kat":"powiatowa"},"geometry":{"type":"LineString","coordinates":[[19.15311,50.59838],[19.15325,50.59907],[19.1537,50.59982]]}},{"type":"Feature","properties":{"numer":"789","klasa":"droga gĹ‚Ăłwna","kat":"wojewodzka"},"geometry":{"type":"LineString","coordinates":[[19.16779,50.59886],[19.16409,50.59971]]}},{"type":"Feature","properties":{"numer":"91,E75","klasa":"droga gĹ‚Ăłwna ruchu przyĹ›pieszonego","kat":"gminna"},"geometry":{"type":"LineString","coordinates":[[19.15057,50.60054],[19.14987,50.59939],[19.14955,50.59823]]}},{"type":"Feature","properties":{"numer":"789","klasa":"droga gĹ‚Ăłwna","kat":"wojewodzka"},"geometry":{"type":"LineString","coordinates":[[19.16304,50.59992],[19.16269,50.59893]]}},{"type":"Feature","properties":{"numer":"789","klasa":"droga gĹ‚Ăłwna","kat":"wojewodzka"},"geometry":{"type":"LineString","coordinates":[[19.1825,50.59937],[19.18098,50.59958],[19.18025,50.5996]]}},{"type":"Feature","properties":{"numer":"789","klasa":"droga gĹ‚Ăłwna","kat":"wojewodzka"},"geometry":{"type":"LineString","coordinates":[[19.18025,50.5996],[19.17982,50.59956]]}},{"type":"Feature","properties":{"numer":"789","klasa":"droga gĹ‚Ăłwna","kat":"wojewodzka"},"geometry":{"type":"LineString","coordinates":[[19.16409,50.59971],[19.16304,50.59992]]}},{"type":"Feature","properties":{"numer":"595087S","klasa":"droga lokalna","kat":"powiatowa"},"geometry":{"type":"LineString","coordinates":[[19.1537,50.59982],[19.15384,50.59999]]}},{"type":"Feature","properties":{"numer":"595055S","klasa":"droga lokalna","kat":"powiatowa"},"geometry":{"type":"LineString","coordinates":[[19.16304,50.59992],[19.16241,50.60003]]}},{"type":"Feature","properties":{"numer":"595055S","klasa":"droga lokalna","kat":"powiatowa"},"geometry":{"type":"LineString","coordinates":[[19.16241,50.60003],[19.16113,50.60014]]}},{"type":"Feature","properties":{"numer":"595055S","klasa":"droga lokalna","kat":"powiatowa"},"geometry":{"type":"LineString","coordinates":[[19.16113,50.60014],[19.16026,50.60032],[19.16,50.60046]]}},{"type":"Feature","properties":{"numer":"595087S","klasa":"droga lokalna","kat":"powiatowa"},"geometry":{"type":"LineString","coordinates":[[19.15384,50.59999],[19.15463,50.60098]]}},{"type":"Feature","properties":{"numer":"91,E75","klasa":"droga gĹ‚Ăłwna ruchu przyĹ›pieszonego","kat":"gminna"},"geometry":{"type":"LineString","coordinates":[[19.15065,50.60065],[19.15057,50.60054]]}},{"type":"Feature","properties":{"numer":"595087S","klasa":"droga lokalna","kat":"powiatowa"},"geometry":{"type":"LineString","coordinates":[[19.15465,50.60101],[19.1549,50.60131]]}},{"type":"Feature","properties":{"numer":"595055S","klasa":"droga lokalna","kat":"powiatowa"},"geometry":{"type":"LineString","coordinates":[[19.16,50.60046],[19.1586,50.6019]]}},{"type":"Feature","properties":{"numer":"595087S","klasa":"droga lokalna","kat":"powiatowa"},"geometry":{"type":"LineString","coordinates":[[19.1549,50.60131],[19.15523,50.60172]]}},{"type":"Feature","properties":{"numer":"595087S","klasa":"droga lokalna","kat":"powiatowa"},"geometry":{"type":"LineString","coordinates":[[19.15523,50.60172],[19.15562,50.60221]]}},{"type":"Feature","properties":{"numer":"595087S","klasa":"droga lokalna","kat":"powiatowa"},"geometry":{"type":"LineString","coordinates":[[19.15562,50.60221],[19.15597,50.60269]]}},{"type":"Feature","properties":{"numer":"595055S","klasa":"droga lokalna","kat":"powiatowa"},"geometry":{"type":"LineString","coordinates":[[19.1586,50.6019],[19.15697,50.60355]]}},{"type":"Feature","properties":{"numer":"595087S","klasa":"droga lokalna","kat":"powiatowa"},"geometry":{"type":"LineString","coordinates":[[19.15597,50.60269],[19.15631,50.60337]]}},{"type":"Feature","properties":{"numer":"595087S","klasa":"droga lokalna","kat":"powiatowa"},"geometry":{"type":"LineString","coordinates":[[19.15631,50.60337],[19.1565,50.6037]]}},{"type":"Feature","properties":{"numer":"595055S","klasa":"droga lokalna","kat":"powiatowa"},"geometry":{"type":"LineString","coordinates":[[19.15697,50.60355],[19.15687,50.60365]]}},{"type":"Feature","properties":{"numer":"595055S","klasa":"droga lokalna","kat":"powiatowa"},"geometry":{"type":"LineString","coordinates":[[19.15687,50.60365],[19.15676,50.60372]]}},{"type":"Feature","properties":{"numer":"595087S","klasa":"droga lokalna","kat":"powiatowa"},"geometry":{"type":"LineString","coordinates":[[19.1565,50.6037],[19.15663,50.60371]]}},{"type":"Feature","properties":{"numer":"595055S","klasa":"droga lokalna","kat":"powiatowa"},"geometry":{"type":"LineString","coordinates":[[19.15676,50.60372],[19.15663,50.60371]]}},{"type":"Feature","properties":{"numer":"595055S","klasa":"droga lokalna","kat":"powiatowa"},"geometry":{"type":"LineString","coordinates":[[19.15661,50.60395],[19.15657,50.60431]]}},{"type":"Feature","properties":{"numer":"595055S","klasa":"droga lokalna","kat":"powiatowa"},"geometry":{"type":"LineString","coordinates":[[19.15657,50.60431],[19.15642,50.60463]]}},{"type":"Feature","properties":{"numer":"91,E75","klasa":"droga gĹ‚Ăłwna ruchu przyĹ›pieszonego","kat":"gminna"},"geometry":{"type":"LineString","coordinates":[[19.15065,50.60065],[19.15428,50.60587],[19.15466,50.60711],[19.15461,50.60835]]}},{"type":"Feature","properties":{"numer":"595055S","klasa":"droga lokalna","kat":"powiatowa"},"geometry":{"type":"LineString","coordinates":[[19.15642,50.60463],[19.15623,50.60503]]}},{"type":"Feature","properties":{"numer":"595022S","klasa":"droga lokalna","kat":"powiatowa"},"geometry":{"type":"LineString","coordinates":[[19.15584,50.60527],[19.15623,50.60503]]}},{"type":"Feature","properties":{"numer":"595022S","klasa":"droga lokalna","kat":"powiatowa"},"geometry":{"type":"LineString","coordinates":[[19.15472,50.60586],[19.15584,50.60527]]}},{"type":"Feature","properties":{"numer":"595019S","klasa":"droga lokalna","kat":"powiatowa"},"geometry":{"type":"LineString","coordinates":[[19.07709,50.61536],[19.07572,50.6154]]}},{"type":"Feature","properties":{"numer":"595088S","klasa":"droga lokalna","kat":"powiatowa"},"geometry":{"type":"LineString","coordinates":[[19.07709,50.61536],[19.07905,50.61549]]}},{"type":"Feature","properties":{"numer":"595019S","klasa":"droga lokalna","kat":"powiatowa"},"geometry":{"type":"LineString","coordinates":[[19.07572,50.6154],[19.07353,50.61556]]}},{"type":"Feature","properties":{"numer":"595088S","klasa":"droga lokalna","kat":"powiatowa"},"geometry":{"type":"LineString","coordinates":[[19.07905,50.61549],[19.08192,50.61566]]}},{"type":"Feature","properties":{"numer":"595088S","klasa":"droga lokalna","kat":"powiatowa"},"geometry":{"type":"LineString","coordinates":[[19.08858,50.61583],[19.08911,50.61584],[19.09067,50.61533]]}},{"type":"Feature","properties":{"numer":"595088S","klasa":"droga lokalna","kat":"powiatowa"},"geometry":{"type":"LineString","coordinates":[[19.08192,50.61566],[19.08416,50.61578]]}},{"type":"Feature","properties":{"numer":"595019S","klasa":"droga lokalna","kat":"powiatowa"},"geometry":{"type":"LineString","coordinates":[[19.07353,50.61556],[19.073384121621622,50.61596116554054]]}},{"type":"Feature","properties":{"numer":"595088S","klasa":"droga lokalna","kat":"powiatowa"},"geometry":{"type":"LineString","coordinates":[[19.08774,50.61584],[19.0882,50.61578],[19.08858,50.61583]]}},{"type":"Feature","properties":{"numer":"595088S","klasa":"droga lokalna","kat":"powiatowa"},"geometry":{"type":"LineString","coordinates":[[19.08416,50.61578],[19.0869,50.61592],[19.08774,50.61584]]}},{"type":"Feature","properties":{"numer":"595055S","klasa":"droga lokalna","kat":"powiatowa"},"geometry":{"type":"LineString","coordinates":[[19.15584,50.60527],[19.15603,50.60547],[19.1556,50.60636]]}},{"type":"Feature","properties":{"numer":"595022S","klasa":"droga lokalna","kat":"powiatowa"},"geometry":{"type":"LineString","coordinates":[[19.15443,50.60601],[19.15472,50.60586]]}},{"type":"Feature","properties":{"numer":"595055S","klasa":"droga lokalna","kat":"powiatowa"},"geometry":{"type":"LineString","coordinates":[[19.1556,50.60636],[19.15521,50.60718]]}},{"type":"Feature","properties":{"numer":"595055S","klasa":"droga lokalna","kat":"powiatowa"},"geometry":{"type":"LineString","coordinates":[[19.15521,50.60718],[19.155,50.60762]]}},{"type":"Feature","properties":{"numer":"595055S","klasa":"droga lokalna","kat":"powiatowa"},"geometry":{"type":"LineString","coordinates":[[19.155,50.60762],[19.1547,50.60831]]}},{"type":"Feature","properties":{"numer":"595055S","klasa":"droga lokalna","kat":"powiatowa"},"geometry":{"type":"LineString","coordinates":[[19.1547,50.60831],[19.15461,50.60835]]}},{"type":"Feature","properties":{"numer":"1012S","klasa":"droga zbiorcza","kat":"powiatowa"},"geometry":{"type":"LineString","coordinates":[[19.19885,50.62361],[19.19831,50.62297],[19.19731,50.62219],[19.18794,50.61682],[19.17804,50.60973],[19.17082,50.60598],[19.16516,50.60084],[19.16409,50.59971]]}},{"type":"Feature","properties":{"numer":"2310S","klasa":"droga zbiorcza","kat":"powiatowa"},"geometry":{"type":"LineString","coordinates":[[19.18356,50.62541],[19.18354,50.62546]]}},{"type":"Feature","properties":{"numer":"2310S","klasa":"droga zbiorcza","kat":"powiatowa"},"geometry":{"type":"LineString","coordinates":[[19.18354,50.62546],[19.18294,50.62609],[19.18267,50.62659],[19.18231,50.62682],[19.18184,50.62702],[19.18042,50.6274],[19.17799,50.62858],[19.17656,50.62906],[19.17495,50.62973],[19.17248,50.62965],[19.17137,50.62931],[19.17059,50.6292],[19.16894,50.62929],[19.16711,50.62915],[19.16644,50.62888],[19.16484,50.62786],[19.16299,50.62749],[19.14002,50.62904]]}},{"type":"Feature","properties":{"numer":"3800S","klasa":"","kat":"powiatowa"},"geometry":{"type":"LineString","coordinates":[[19.19885,50.62361],[19.19912,50.62364],[19.20003,50.62443],[19.2013,50.62478],[19.20226,50.6249],[19.20368,50.62536],[19.20572,50.62512],[19.20567,50.62439],[19.20549,50.62393],[19.2051,50.62337],[19.20722,50.62253],[19.20793,50.62236],[19.20988,50.62236],[19.21055,50.62256],[19.21151,50.62316],[19.21171,50.62337],[19.2125,50.62331],[19.2126,50.62311],[19.21318,50.62287],[19.21309,50.62269],[19.21321,50.62258],[19.21445,50.62217]]}},{"type":"Feature","properties":{"numer":"","klasa":"droga wewnÄ™trzna","kat":"gminna"},"geometry":{"type":"LineString","coordinates":[[19.21704,50.62528],[19.2165,50.62437],[19.21579,50.62363]]}},{"type":"Feature","properties":{"numer":"2310S","klasa":"droga zbiorcza","kat":"powiatowa"},"geometry":{"type":"LineString","coordinates":[[19.19901,50.62383],[19.1957,50.62545],[19.1929,50.62504],[19.19154,50.62504],[19.19068,50.62496],[19.18981,50.62506],[19.1885,50.62541],[19.18651,50.6257],[19.18554,50.62561],[19.18385,50.62516],[19.18359,50.62529],[19.18356,50.62541]]}},{"type":"Feature","properties":{"numer":"","klasa":"droga wewnÄ™trzna","kat":"gminna"},"geometry":{"type":"LineString","coordinates":[[19.21733,50.62598],[19.21704,50.62528]]}},{"type":"Feature","properties":{"numer":"","klasa":"droga wewnÄ™trzna","kat":"gminna"},"geometry":{"type":"LineString","coordinates":[[19.21739,50.62611],[19.21733,50.62598]]}},{"type":"Feature","properties":{"numer":"","klasa":"droga wewnÄ™trzna","kat":"gminna"},"geometry":{"type":"LineString","coordinates":[[19.21854,50.62864],[19.21806,50.62737],[19.21739,50.62611]]}},{"type":"Feature","properties":{"numer":"1012S","klasa":"droga zbiorcza","kat":"powiatowa"},"geometry":{"type":"LineString","coordinates":[[19.202238512200633,50.63027063601446],[19.19901,50.62383]]}},{"type":"Feature","properties":{"numer":"","klasa":"droga wewnÄ™trzna","kat":"gminna"},"geometry":{"type":"LineString","coordinates":[[19.218668465505797,50.629046807435024],[19.21854,50.62864]]}},{"type":"Feature","properties":{"numer":"91,E75","klasa":"droga gĹ‚Ăłwna ruchu przyĹ›pieszonego","kat":"gminna"},"geometry":{"type":"LineString","coordinates":[[19.15461,50.60835],[19.15422,50.60938],[19.15242,50.61303],[19.15176,50.6141],[19.14117,50.62768],[19.14002,50.62904]]}},{"type":"Feature","properties":{"numer":"91,E75","klasa":"droga gĹ‚Ăłwna ruchu przyĹ›pieszonego","kat":"gminna"},"geometry":{"type":"LineString","coordinates":[[19.14002,50.62904],[19.13673,50.63283],[19.13637,50.63338],[19.13601,50.63427],[19.1359,50.63499],[19.1358,50.63829],[19.13589,50.64124],[19.135841796407185,50.64152922155689]]}},{"type":"Feature","properties":{"numer":"2310S","klasa":"droga zbiorcza","kat":"powiatowa"},"geometry":{"type":"LineString","coordinates":[[19.14002,50.62904],[19.09925,50.63182],[19.09902,50.63176],[19.09866,50.63077],[19.09861127512427,50.63024377134212]]}},{"type":"Feature","properties":{"numer":"789,791","klasa":"droga gĹ‚Ăłwna","kat":"gminna"},"geometry":{"type":"LineString","coordinates":[[19.27117,50.60479],[19.271323039399626,50.604776575491265]]}},{"type":"Feature","properties":{"numer":"3804S","klasa":"droga zbiorcza","kat":"powiatowa"},"geometry":{"type":"LineString","coordinates":[[19.26715,50.54696],[19.26892,50.54658],[19.269342576395037,50.54655135075288]]}},{"type":"Feature","properties":{"numer":"3803S","klasa":"droga zbiorcza","kat":"powiatowa"},"geometry":{"type":"LineString","coordinates":[[19.22991,50.53706],[19.22863,50.53219],[19.22947,50.52781],[19.23083,50.52538],[19.23111,50.52129],[19.23110990358213,50.5212766943338]]}},{"type":"Feature","properties":{"numer":"4738S","klasa":"","kat":"powiatowa"},"geometry":{"type":"LineString","coordinates":[[19.26172,50.53358],[19.261929782383422,50.53348260103627]]}},{"type":"Feature","properties":{"numer":"3803S,3804S","klasa":"droga zbiorcza","kat":"powiatowa"},"geometry":{"type":"LineString","coordinates":[[19.22859,50.53727],[19.22991,50.53706]]}},{"type":"Feature","properties":{"numer":"3804S","klasa":"droga zbiorcza","kat":"powiatowa"},"geometry":{"type":"LineString","coordinates":[[19.22055,50.53822],[19.22605,50.53767],[19.22859,50.53727]]}},{"type":"Feature","properties":{"numer":"3804S","klasa":"droga zbiorcza","kat":"powiatowa"},"geometry":{"type":"LineString","coordinates":[[19.22991,50.53706],[19.23218,50.53677],[19.23826,50.53632],[19.24085,50.53682],[19.25207,50.53842],[19.25234,50.53862],[19.25383,50.54134],[19.25605,50.54312],[19.25755,50.54374],[19.25974,50.54429],[19.2657,50.54701],[19.26637,50.5471],[19.26715,50.54696]]}},{"type":"Feature","properties":{"numer":"3803S","klasa":"droga zbiorcza","kat":"powiatowa"},"geometry":{"type":"LineString","coordinates":[[19.22859,50.53727],[19.22862,50.53818],[19.22917,50.53984],[19.22916,50.54047],[19.22893,50.54131],[19.22901,50.54216],[19.22936,50.54309],[19.22995,50.5464],[19.22783,50.55667],[19.22786,50.5572],[19.22831,50.55764],[19.22833,50.55799],[19.22495,50.57015],[19.2251,50.57036],[19.22669,50.57066],[19.22686,50.57078],[19.22586,50.57217],[19.22548,50.57291]]}},{"type":"Feature","properties":{"numer":"3802S","klasa":"droga zbiorcza","kat":"powiatowa"},"geometry":{"type":"LineString","coordinates":[[19.23999,50.57581],[19.2431,50.56718],[19.24359,50.56347],[19.24905,50.5601],[19.251,50.55779],[19.25314,50.55548],[19.26688,50.54738],[19.26709,50.54718],[19.26715,50.54696]]}},{"type":"Feature","properties":{"numer":"3803S","klasa":"droga zbiorcza","kat":"powiatowa"},"geometry":{"type":"LineString","coordinates":[[19.22548,50.57291],[19.22554,50.57311]]}},{"type":"Feature","properties":{"numer":"3801S","klasa":"droga zbiorcza","kat":"powiatowa"},"geometry":{"type":"LineString","coordinates":[[19.23999,50.57581],[19.23824,50.57572],[19.23768,50.57562],[19.2307,50.57314],[19.23004,50.57306],[19.22646,50.57298],[19.22554,50.57311]]}},{"type":"Feature","properties":{"numer":"3801S","klasa":"droga zbiorcza","kat":"powiatowa"},"geometry":{"type":"LineString","coordinates":[[19.28453,50.58628],[19.2708,50.58176],[19.26298,50.57837],[19.26218,50.57811],[19.26081,50.57801],[19.25274,50.5788],[19.25158,50.5788],[19.25096,50.5787],[19.25016,50.57845],[19.24472,50.57606],[19.23999,50.57581]]}},{"type":"Feature","properties":{"numer":"791","klasa":"droga gĹ‚Ăłwna","kat":"wojewodzka"},"geometry":{"type":"LineString","coordinates":[[19.294034031413613,50.572276125654454],[19.2935,50.57286]]}},{"type":"Feature","properties":{"numer":"791","klasa":"droga gĹ‚Ăłwna","kat":"wojewodzka"},"geometry":{"type":"LineString","coordinates":[[19.2935,50.57286],[19.29211,50.57444],[19.29156,50.57527],[19.29123,50.57597]]}},{"type":"Feature","properties":{"numer":"791","klasa":"droga gĹ‚Ăłwna","kat":"wojewodzka"},"geometry":{"type":"LineString","coordinates":[[19.29123,50.57597],[19.29118,50.57611]]}},{"type":"Feature","properties":{"numer":"3811S","klasa":"droga zbiorcza","kat":"powiatowa"},"geometry":{"type":"LineString","coordinates":[[19.29583,50.57756],[19.295881076923077,50.57753446153846]]}},{"type":"Feature","properties":{"numer":"791","klasa":"droga gĹ‚Ăłwna","kat":"wojewodzka"},"geometry":{"type":"LineString","coordinates":[[19.29145,50.58062],[19.29103,50.57984],[19.29092,50.57856],[19.29092,50.57718],[19.29118,50.57611]]}},{"type":"Feature","properties":{"numer":"3811S","klasa":"droga zbiorcza","kat":"powiatowa"},"geometry":{"type":"LineString","coordinates":[[19.29145,50.58062],[19.29206,50.58027],[19.29492,50.57802],[19.29583,50.57756]]}},{"type":"Feature","properties":{"numer":"791","klasa":"droga gĹ‚Ăłwna","kat":"wojewodzka"},"geometry":{"type":"LineString","coordinates":[[19.28453,50.58628],[19.28557,50.5854],[19.28668,50.58374],[19.28695,50.58348],[19.28753,50.5831],[19.29032,50.58164],[19.29145,50.58062]]}},{"type":"Feature","properties":{"numer":"791","klasa":"droga gĹ‚Ăłwna","kat":"wojewodzka"},"geometry":{"type":"LineString","coordinates":[[19.27347,50.59576],[19.27841,50.59114],[19.28453,50.58628]]}},{"type":"Feature","properties":{"numer":"791","klasa":"droga gĹ‚Ăłwna","kat":"wojewodzka"},"geometry":{"type":"LineString","coordinates":[[19.27337,50.59584],[19.27347,50.59576]]}},{"type":"Feature","properties":{"numer":"791","klasa":"droga gĹ‚Ăłwna","kat":"wojewodzka"},"geometry":{"type":"LineString","coordinates":[[19.26238,50.60238],[19.27337,50.59584]]}},{"type":"Feature","properties":{"numer":"3802S","klasa":"droga zbiorcza","kat":"powiatowa"},"geometry":{"type":"LineString","coordinates":[[19.26238,50.60238],[19.26191,50.60218],[19.24319,50.6007],[19.24251,50.59251],[19.24278,50.58917],[19.24267,50.58912],[19.23704,50.58889],[19.23772,50.58212],[19.23999,50.57581]]}},{"type":"Feature","properties":{"numer":"791","klasa":"droga gĹ‚Ăłwna","kat":"wojewodzka"},"geometry":{"type":"LineString","coordinates":[[19.25678,50.60565],[19.25807,50.60466],[19.26238,50.60238]]}},{"type":"Feature","properties":{"numer":"789,791","klasa":"droga gĹ‚Ăłwna","kat":"gminna"},"geometry":{"type":"LineString","coordinates":[[19.25678,50.60565],[19.26187,50.60588],[19.27117,50.60479]]}},{"type":"Feature","properties":{"numer":"789","klasa":"droga gĹ‚Ăłwna","kat":"wojewodzka"},"geometry":{"type":"LineString","coordinates":[[19.2373,50.60535],[19.23101,50.60509],[19.22306,50.60563]]}},{"type":"Feature","properties":{"numer":"789","klasa":"droga gĹ‚Ăłwna","kat":"wojewodzka"},"geometry":{"type":"LineString","coordinates":[[19.24114,50.60552],[19.2373,50.60535]]}},{"type":"Feature","properties":{"numer":"789","klasa":"droga gĹ‚Ăłwna","kat":"wojewodzka"},"geometry":{"type":"LineString","coordinates":[[19.25678,50.60565],[19.25144,50.60537],[19.24356,50.60561],[19.24122,50.60552]]}},{"type":"Feature","properties":{"numer":"789","klasa":"droga gĹ‚Ăłwna","kat":"wojewodzka"},"geometry":{"type":"LineString","coordinates":[[19.24122,50.60552],[19.24114,50.60552]]}},{"type":"Feature","properties":{"numer":"789","klasa":"droga gĹ‚Ăłwna","kat":"wojewodzka"},"geometry":{"type":"LineString","coordinates":[[19.22306,50.60563],[19.22293,50.60564]]}},{"type":"Feature","properties":{"numer":"3800S","klasa":"","kat":"powiatowa"},"geometry":{"type":"LineString","coordinates":[[19.21622,50.62071],[19.2167,50.62073],[19.21747,50.62111],[19.23014,50.62054],[19.2359,50.62093],[19.23616,50.6209],[19.23638,50.62077],[19.23703,50.6201],[19.23812,50.61854],[19.23822,50.61816],[19.2373,50.60535]]}}]}