{"type":"FeatureCollection","features":[{"type":"Feature","properties":{"numer":"930","klasa":"droga gĹ‚Ăłwna","kat":"wojewodzka"},"geometry":{"type":"LineString","coordinates":[[18.57932,50.00265],[18.5797,50.00191],[18.57956,50.00115],[18.57841,49.99899],[18.57703,49.99723],[18.576856048834625,49.996923514613385]]}},{"type":"Feature","properties":{"numer":"A1","klasa":"autostrada","kat":"krajowa"},"geometry":{"type":"LineString","coordinates":[[18.57641,49.99934],[18.57783,50.00103],[18.57911,50.00294]]}},{"type":"Feature","properties":{"numer":"930","klasa":"droga gĹ‚Ăłwna","kat":"wojewodzka"},"geometry":{"type":"LineString","coordinates":[[18.57911,50.00294],[18.57932,50.00265]]}},{"type":"Feature","properties":{"numer":"930","klasa":"droga gĹ‚Ăłwna","kat":"wojewodzka"},"geometry":{"type":"LineString","coordinates":[[18.57891,50.0032],[18.57911,50.00294]]}},{"type":"Feature","properties":{"numer":"930","klasa":"droga gĹ‚Ăłwna","kat":"wojewodzka"},"geometry":{"type":"LineString","coordinates":[[18.57699,50.01843],[18.57712,50.01747],[18.57793,50.01593],[18.57891,50.01114],[18.57885,50.01059],[18.57806,50.00882],[18.57794,50.0081],[18.57859,50.00614],[18.57818,50.00479],[18.57817,50.00438],[18.57835,50.00395],[18.57891,50.0032]]}},{"type":"Feature","properties":{"numer":"932","klasa":"droga gĹ‚Ăłwna","kat":"wojewodzka"},"geometry":{"type":"LineString","coordinates":[[18.57699,50.01843],[18.57614,50.01805],[18.57545,50.01788],[18.57304,50.01799],[18.57219,50.01795],[18.56654,50.017],[18.56205,50.01646],[18.5614,50.01642],[18.55916,50.01652],[18.55845,50.01631],[18.55647,50.01501],[18.55567,50.01487],[18.55542607124047,50.01487847628894]]}},{"type":"Feature","properties":{"numer":"932","klasa":"droga gĹ‚Ăłwna","kat":"wojewodzka"},"geometry":{"type":"LineString","coordinates":[[18.58932,50.02708],[18.58831,50.02642],[18.58634,50.02469],[18.58377,50.02263],[18.57699,50.01843]]}},{"type":"Feature","properties":{"numer":"929","klasa":"droga gĹ‚Ăłwna","kat":"wojewodzka"},"geometry":{"type":"LineString","coordinates":[[18.57298,50.04318],[18.57787,50.03852],[18.58123,50.03397],[18.58193,50.0332],[18.5826,50.03268],[18.58889,50.02863]]}},{"type":"Feature","properties":{"numer":"5610S","klasa":"droga zbiorcza","kat":"powiatowa"},"geometry":{"type":"LineString","coordinates":[[18.57372,50.04322],[18.58023,50.04348],[18.58136,50.04336],[18.58499,50.04271]]}},{"type":"Feature","properties":{"numer":"5610S","klasa":"droga zbiorcza","kat":"powiatowa"},"geometry":{"type":"LineString","coordinates":[[18.57231,50.04315],[18.57298,50.04318]]}},{"type":"Feature","properties":{"numer":"5610S","klasa":"droga zbiorcza","kat":"powiatowa"},"geometry":{"type":"LineString","coordinates":[[18.57298,50.04318],[18.57372,50.04322]]}},{"type":"Feature","properties":{"numer":"5610S","klasa":"droga zbiorcza","kat":"powiatowa"},"geometry":{"type":"LineString","coordinates":[[18.531927479925663,50.046099963044554],[18.53664,50.04609],[18.55529,50.04244],[18.55654,50.04227],[18.56575,50.04285],[18.57231,50.04315]]}},{"type":"Feature","properties":{"numer":"929","klasa":"droga gĹ‚Ăłwna","kat":"wojewodzka"},"geometry":{"type":"LineString","coordinates":[[18.56709,50.04875],[18.57298,50.04318]]}},{"type":"Feature","properties":{"numer":"619058S","klasa":"droga lokalna","kat":"powiatowa"},"geometry":{"type":"LineString","coordinates":[[18.56754,50.0491],[18.56709,50.04875]]}},{"type":"Feature","properties":{"numer":"619058S","klasa":"droga lokalna","kat":"powiatowa"},"geometry":{"type":"LineString","coordinates":[[18.57036,50.05058],[18.56754,50.0491]]}},{"type":"Feature","properties":{"numer":"619058S","klasa":"droga lokalna","kat":"powiatowa"},"geometry":{"type":"LineString","coordinates":[[18.57182,50.05104],[18.57036,50.05058]]}},{"type":"Feature","properties":{"numer":"619058S","klasa":"droga lokalna","kat":"powiatowa"},"geometry":{"type":"LineString","coordinates":[[18.57257,50.05127],[18.57182,50.05104]]}},{"type":"Feature","properties":{"numer":"7026S","klasa":"","kat":"powiatowa"},"geometry":{"type":"LineString","coordinates":[[18.53279,50.04732],[18.53273,50.04694],[18.532662569089048,50.04687367451382]]}},{"type":"Feature","properties":{"numer":"7026S","klasa":"droga zbiorcza","kat":"powiatowa"},"geometry":{"type":"LineString","coordinates":[[18.532701225806452,50.047530838709676],[18.53279,50.04732]]}},{"type":"Feature","properties":{"numer":"7026S","klasa":"","kat":"powiatowa"},"geometry":{"type":"LineString","coordinates":[[18.5333,50.04828],[18.533093662092632,50.04814945969125]]}},{"type":"Feature","properties":{"numer":"7026S","klasa":"","kat":"powiatowa"},"geometry":{"type":"LineString","coordinates":[[18.532741472081216,50.04786720812182],[18.532719032258065,50.047833548387096]]}},{"type":"Feature","properties":{"numer":"7026S","klasa":"droga zbiorcza","kat":"powiatowa"},"geometry":{"type":"LineString","coordinates":[[18.5333,50.04828],[18.53384,50.04871]]}},{"type":"Feature","properties":{"numer":"7026S","klasa":"","kat":"powiatowa"},"geometry":{"type":"LineString","coordinates":[[18.534312244897958,50.0493425510204],[18.5342,50.04909],[18.53416867088608,50.04905693037975]]}},{"type":"Feature","properties":{"numer":"7026S","klasa":"","kat":"powiatowa"},"geometry":{"type":"LineString","coordinates":[[18.53398790697674,50.04886612403101],[18.53384,50.04871]]}},{"type":"Feature","properties":{"numer":"7026S","klasa":"","kat":"powiatowa"},"geometry":{"type":"LineString","coordinates":[[18.534848364580327,50.0521901211422],[18.53499,50.05166],[18.53505227647432,50.05095716550411]]}},{"type":"Feature","properties":{"numer":"7026S","klasa":"droga zbiorcza","kat":"powiatowa"},"geometry":{"type":"LineString","coordinates":[[18.53488885106383,50.05194531914894],[18.53498,50.05157]]}},{"type":"Feature","properties":{"numer":"7806S","klasa":"droga zbiorcza","kat":"powiatowa"},"geometry":{"type":"LineString","coordinates":[[18.60541,50.01745],[18.6049,50.0173],[18.60438,50.01685],[18.60402,50.01622],[18.60386,50.01552],[18.60436,50.0121],[18.60484,50.01082],[18.60459,50.00848],[18.60468,50.00754],[18.60526,50.0033],[18.605523970318004,50.002406840156894]]}},{"type":"Feature","properties":{"numer":"A1","klasa":"autostrada","kat":"krajowa"},"geometry":{"type":"LineString","coordinates":[[18.57911,50.00294],[18.58069,50.00528],[18.58303,50.00838],[18.58428,50.0097],[18.58593,50.01119],[18.58902,50.01345],[18.59622,50.01805],[18.59831,50.01971]]}},{"type":"Feature","properties":{"numer":"7800S","klasa":"droga zbiorcza","kat":"powiatowa"},"geometry":{"type":"LineString","coordinates":[[18.61199,50.01563],[18.61206104731096,50.01560868580671]]}},{"type":"Feature","properties":{"numer":"5612S","klasa":"droga zbiorcza","kat":"powiatowa"},"geometry":{"type":"LineString","coordinates":[[18.60541,50.01745],[18.60619,50.01743],[18.60659,50.01735],[18.60929,50.0164],[18.61199,50.01563]]}},{"type":"Feature","properties":{"numer":"5612S","klasa":"droga zbiorcza","kat":"powiatowa"},"geometry":{"type":"LineString","coordinates":[[18.59869,50.01957],[18.60168,50.01846],[18.60416,50.01764],[18.60473,50.01749],[18.60541,50.01745]]}},{"type":"Feature","properties":{"numer":"5612S","klasa":"droga zbiorcza","kat":"powiatowa"},"geometry":{"type":"LineString","coordinates":[[18.59831,50.01971],[18.59869,50.01957]]}},{"type":"Feature","properties":{"numer":"5612S","klasa":"droga zbiorcza","kat":"powiatowa"},"geometry":{"type":"LineString","coordinates":[[18.59793,50.01984],[18.59831,50.01971]]}},{"type":"Feature","properties":{"numer":"A1","klasa":"autostrada","kat":"krajowa"},"geometry":{"type":"LineString","coordinates":[[18.59831,50.01971],[18.59962,50.02101],[18.60061,50.02232],[18.60156,50.02396],[18.60215,50.0256]]}},{"type":"Feature","properties":{"numer":"5612S","klasa":"droga zbiorcza","kat":"powiatowa"},"geometry":{"type":"LineString","coordinates":[[18.58932,50.02708],[18.59011,50.02669],[18.59222,50.02611],[18.59329,50.02549],[18.59456,50.02417],[18.5949,50.02239],[18.59608,50.0206],[18.59644,50.02034],[18.59793,50.01984]]}},{"type":"Feature","properties":{"numer":"A1","klasa":"autostrada","kat":"krajowa"},"geometry":{"type":"LineString","coordinates":[[18.60215,50.0256],[18.60335,50.02547],[18.60393,50.02548],[18.60451,50.02569],[18.6048,50.02607],[18.60476,50.02644],[18.60443,50.02676],[18.60255,50.02744]]}},{"type":"Feature","properties":{"numer":"A1","klasa":"autostrada","kat":"krajowa"},"geometry":{"type":"LineString","coordinates":[[18.60215,50.0256],[18.60255,50.02744]]}},{"type":"Feature","properties":{"numer":"932","klasa":"droga gĹ‚Ăłwna","kat":"wojewodzka"},"geometry":{"type":"LineString","coordinates":[[18.59046,50.02759],[18.58932,50.02708]]}},{"type":"Feature","properties":{"numer":"929","klasa":"droga gĹ‚Ăłwna","kat":"wojewodzka"},"geometry":{"type":"LineString","coordinates":[[18.58889,50.02863],[18.59046,50.02759]]}},{"type":"Feature","properties":{"numer":"A1","klasa":"autostrada","kat":"krajowa"},"geometry":{"type":"LineString","coordinates":[[18.60128,50.03075],[18.59901,50.02777],[18.59884,50.0274],[18.59883,50.02698],[18.59911,50.02646],[18.5995,50.02614],[18.59991,50.02595],[18.60041,50.02582],[18.60215,50.0256]]}},{"type":"Feature","properties":{"numer":"A1","klasa":"autostrada","kat":"krajowa"},"geometry":{"type":"LineString","coordinates":[[18.60255,50.02744],[18.603207726682342,50.03080835785805]]}},{"type":"Feature","properties":{"numer":"932","klasa":"droga gĹ‚Ăłwna","kat":"wojewodzka"},"geometry":{"type":"LineString","coordinates":[[18.60102,50.03073],[18.60018,50.03074],[18.59907,50.0306],[18.59551,50.0297],[18.59372,50.02908],[18.59046,50.02759]]}},{"type":"Feature","properties":{"numer":"932","klasa":"droga gĹ‚Ăłwna","kat":"wojewodzka"},"geometry":{"type":"LineString","coordinates":[[18.60128,50.03075],[18.60102,50.03073]]}},{"type":"Feature","properties":{"numer":"932","klasa":"droga gĹ‚Ăłwna","kat":"wojewodzka"},"geometry":{"type":"LineString","coordinates":[[18.60148,50.03086],[18.60128,50.03075]]}},{"type":"Feature","properties":{"numer":"932","klasa":"droga gĹ‚Ăłwna","kat":"wojewodzka"},"geometry":{"type":"LineString","coordinates":[[18.60148,50.03086],[18.60244010104021,50.03115158624184]]}},{"type":"Feature","properties":{"numer":"5611S","klasa":"droga zbiorcza","kat":"powiatowa"},"geometry":{"type":"LineString","coordinates":[[18.590848042226487,50.03575114633662],[18.5889,50.0315],[18.58889,50.02863]]}},{"type":"Feature","properties":{"numer":"A1","klasa":"autostrada","kat":"krajowa"},"geometry":{"type":"LineString","coordinates":[[18.603531842105266,50.03231490712075],[18.60366,50.03282],[18.60438,50.03449],[18.60545,50.03611],[18.6061,50.03688],[18.60752,50.03829],[18.60913,50.03947],[18.61064,50.04038]]}},{"type":"Feature","properties":{"numer":"A1,E75","klasa":"autostrada","kat":"krajowa"},"geometry":{"type":"LineString","coordinates":[[18.61067,50.0404],[18.61067079681275,50.040400398406376]]}},{"type":"Feature","properties":{"numer":"9002S","klasa":"droga zbiorcza","kat":"powiatowa"},"geometry":{"type":"LineString","coordinates":[[18.60936977749251,50.04202264869491],[18.60942,50.04163],[18.61028131979695,50.0408404568528]]}},{"type":"Feature","properties":{"numer":"5610S","klasa":"droga zbiorcza","kat":"powiatowa"},"geometry":{"type":"LineString","coordinates":[[18.58573,50.04258],[18.588220873454354,50.04216349329124]]}},{"type":"Feature","properties":{"numer":"5610S","klasa":"droga zbiorcza","kat":"powiatowa"},"geometry":{"type":"LineString","coordinates":[[18.58499,50.04271],[18.58573,50.04258]]}},{"type":"Feature","properties":{"numer":"","klasa":"droga wewnÄ™trzna","kat":"gminna"},"geometry":{"type":"LineString","coordinates":[[18.58292,50.05471],[18.582981674073135,50.05469775266633]]}},{"type":"Feature","properties":{"numer":"7025S","klasa":"","kat":"powiatowa"},"geometry":{"type":"LineString","coordinates":[[18.5808,50.05605],[18.580915555293615,50.05614310930133]]}},{"type":"Feature","properties":{"numer":"619058S","klasa":"droga lokalna","kat":"powiatowa"},"geometry":{"type":"LineString","coordinates":[[18.57364,50.05173],[18.57257,50.05127]]}},{"type":"Feature","properties":{"numer":"619058S","klasa":"droga lokalna","kat":"powiatowa"},"geometry":{"type":"LineString","coordinates":[[18.57441,50.0521],[18.57364,50.05173]]}},{"type":"Feature","properties":{"numer":"619058S","klasa":"droga lokalna","kat":"powiatowa"},"geometry":{"type":"LineString","coordinates":[[18.57484,50.0523],[18.57441,50.0521]]}},{"type":"Feature","properties":{"numer":"619058S","klasa":"droga lokalna","kat":"powiatowa"},"geometry":{"type":"LineString","coordinates":[[18.57502,50.05238],[18.57484,50.0523]]}},{"type":"Feature","properties":{"numer":"619058S","klasa":"droga lokalna","kat":"powiatowa"},"geometry":{"type":"LineString","coordinates":[[18.57629,50.05299],[18.57502,50.05238]]}},{"type":"Feature","properties":{"numer":"929","klasa":"droga gĹ‚Ăłwna","kat":"wojewodzka"},"geometry":{"type":"LineString","coordinates":[[18.55795531938097,50.0568327227877],[18.55863,50.05504],[18.56054,50.05281],[18.56128,50.05236],[18.56331,50.0518],[18.56402,50.05144],[18.56486,50.05089],[18.56709,50.04875]]}},{"type":"Feature","properties":{"numer":"619058S","klasa":"droga lokalna","kat":"powiatowa"},"geometry":{"type":"LineString","coordinates":[[18.57653,50.05311],[18.57629,50.05299]]}},{"type":"Feature","properties":{"numer":"619058S","klasa":"droga lokalna","kat":"powiatowa"},"geometry":{"type":"LineString","coordinates":[[18.57839,50.05408],[18.57653,50.05311]]}},{"type":"Feature","properties":{"numer":"619058S","klasa":"droga lokalna","kat":"powiatowa"},"geometry":{"type":"LineString","coordinates":[[18.57961,50.05483],[18.57912,50.05445],[18.57839,50.05408]]}},{"type":"Feature","properties":{"numer":"619058S","klasa":"droga lokalna","kat":"powiatowa"},"geometry":{"type":"LineString","coordinates":[[18.5805,50.05568],[18.57961,50.05483]]}},{"type":"Feature","properties":{"numer":"619073S,7026S","klasa":"droga zbiorcza","kat":"powiatowa"},"geometry":{"type":"LineString","coordinates":[[18.53496,50.05414],[18.53466550530527,50.05329578187511]]}},{"type":"Feature","properties":{"numer":"7026S","klasa":"","kat":"powiatowa"},"geometry":{"type":"LineString","coordinates":[[18.5351,50.05446],[18.53496,50.05414]]}},{"type":"Feature","properties":{"numer":"7026S","klasa":"droga zbiorcza","kat":"powiatowa"},"geometry":{"type":"LineString","coordinates":[[18.53544742596811,50.055154851936216],[18.5351,50.05446]]}},{"type":"Feature","properties":{"numer":"619071S","klasa":"droga dojazdowa","kat":"powiatowa"},"geometry":{"type":"LineString","coordinates":[[18.54046,50.05632],[18.54058,50.05634]]}},{"type":"Feature","properties":{"numer":"619071S","klasa":"droga dojazdowa","kat":"powiatowa"},"geometry":{"type":"LineString","coordinates":[[18.5397,50.05717],[18.54046,50.05632]]}},{"type":"Feature","properties":{"numer":"619071S","klasa":"droga dojazdowa","kat":"powiatowa"},"geometry":{"type":"LineString","coordinates":[[18.5394,50.05734],[18.5397,50.05717]]}},{"type":"Feature","properties":{"numer":"7026S","klasa":"droga zbiorcza","kat":"powiatowa"},"geometry":{"type":"LineString","coordinates":[[18.54172,50.05869],[18.54131,50.05845],[18.54091,50.05799],[18.54072,50.05636],[18.54058,50.05634]]}},{"type":"Feature","properties":{"numer":"619058S","klasa":"droga lokalna","kat":"powiatowa"},"geometry":{"type":"LineString","coordinates":[[18.5808,50.05605],[18.5805,50.05568]]}},{"type":"Feature","properties":{"numer":"","klasa":"droga wewnÄ™trzna","kat":"gminna"},"geometry":{"type":"LineString","coordinates":[[18.57783,50.05704],[18.57739,50.0572]]}},{"type":"Feature","properties":{"numer":"929","klasa":"droga gĹ‚Ăłwna","kat":"wojewodzka"},"geometry":{"type":"LineString","coordinates":[[18.55712317880795,50.05786656688742],[18.557198358208954,50.05778537313433]]}},{"type":"Feature","properties":{"numer":"","klasa":"droga wewnÄ™trzna","kat":"gminna"},"geometry":{"type":"LineString","coordinates":[[18.57739,50.0572],[18.57633,50.05743],[18.57397,50.05762],[18.57309,50.0578],[18.57237,50.05812],[18.57172,50.05866]]}},{"type":"Feature","properties":{"numer":"180439S","klasa":"droga dojazdowa","kat":"powiatowa"},"geometry":{"type":"LineString","coordinates":[[18.571638371189604,50.05874536041316],[18.57172,50.05866]]}},{"type":"Feature","properties":{"numer":"7026S","klasa":"","kat":"powiatowa"},"geometry":{"type":"LineString","coordinates":[[18.541840239445875,50.05874965844629],[18.54172,50.05869]]}},{"type":"Feature","properties":{"numer":"619071S","klasa":"droga dojazdowa","kat":"powiatowa"},"geometry":{"type":"LineString","coordinates":[[18.53863,50.05776],[18.5394,50.05734]]}},{"type":"Feature","properties":{"numer":"619071S","klasa":"droga dojazdowa","kat":"powiatowa"},"geometry":{"type":"LineString","coordinates":[[18.538432088499473,50.05796690747782],[18.53863,50.05776]]}}]}