{"type":"FeatureCollection","features":[{"type":"Feature","properties":{"numer":"931","klasa":"droga gĹ‚Ăłwna","kat":"wojewodzka"},"geometry":{"type":"LineString","coordinates":[[19.106885712234227,50.061464110896594],[19.10927,50.06318]]}},{"type":"Feature","properties":{"numer":"931","klasa":"droga gĹ‚Ăłwna","kat":"wojewodzka"},"geometry":{"type":"LineString","coordinates":[[19.10927,50.06318],[19.10931,50.06322]]}},{"type":"Feature","properties":{"numer":"931","klasa":"droga gĹ‚Ăłwna","kat":"wojewodzka"},"geometry":{"type":"LineString","coordinates":[[19.10931,50.06322],[19.11424,50.06675]]}},{"type":"Feature","properties":{"numer":"5905S","klasa":"droga zbiorcza","kat":"powiatowa"},"geometry":{"type":"LineString","coordinates":[[19.09956,50.08216],[19.1,50.08073],[19.10026,50.07946],[19.10008,50.07548],[19.10077,50.07454],[19.10188,50.07355],[19.10428,50.07208],[19.10511,50.07136],[19.10544,50.07086],[19.10637,50.06889],[19.10701,50.06843],[19.10867,50.0669],[19.1092,50.06657],[19.10955,50.06647],[19.11327,50.06695],[19.11376,50.06692],[19.11424,50.06675]]}},{"type":"Feature","properties":{"numer":"480023S,5905S","klasa":"droga zbiorcza","kat":"powiatowa"},"geometry":{"type":"LineString","coordinates":[[19.09873,50.0831],[19.09956,50.08216]]}},{"type":"Feature","properties":{"numer":"44","klasa":"droga gĹ‚Ăłwna ruchu przyĹ›pieszonego","kat":"krajowa"},"geometry":{"type":"LineString","coordinates":[[19.12109,50.08365],[19.12172,50.08333]]}},{"type":"Feature","properties":{"numer":"44","klasa":"droga gĹ‚Ăłwna ruchu przyĹ›pieszonego","kat":"krajowa"},"geometry":{"type":"LineString","coordinates":[[19.12172,50.08333],[19.12132,50.08302],[19.12101,50.08299],[19.12015,50.0835],[19.11945,50.08374],[19.11825,50.08382],[19.11812,50.08399],[19.11704,50.08401],[19.11588,50.08423]]}},{"type":"Feature","properties":{"numer":"5905S","klasa":"droga zbiorcza","kat":"powiatowa"},"geometry":{"type":"LineString","coordinates":[[19.09698,50.08413],[19.09793,50.0839],[19.09873,50.0831]]}},{"type":"Feature","properties":{"numer":"44","klasa":"droga gĹ‚Ăłwna ruchu przyĹ›pieszonego","kat":"krajowa"},"geometry":{"type":"LineString","coordinates":[[19.11701,50.08419],[19.11946,50.08408],[19.1201,50.08396],[19.12109,50.08365]]}},{"type":"Feature","properties":{"numer":"44","klasa":"droga gĹ‚Ăłwna ruchu przyĹ›pieszonego","kat":"krajowa"},"geometry":{"type":"LineString","coordinates":[[19.11678,50.0842],[19.11701,50.08419]]}},{"type":"Feature","properties":{"numer":"44","klasa":"droga gĹ‚Ăłwna ruchu przyĹ›pieszonego","kat":"krajowa"},"geometry":{"type":"LineString","coordinates":[[19.11678,50.0842],[19.11588,50.08423]]}},{"type":"Feature","properties":{"numer":"44","klasa":"droga gĹ‚Ăłwna ruchu przyĹ›pieszonego","kat":"krajowa"},"geometry":{"type":"LineString","coordinates":[[19.11588,50.08423],[19.11222,50.0844]]}},{"type":"Feature","properties":{"numer":"480014S,5905S","klasa":"droga zbiorcza","kat":"powiatowa"},"geometry":{"type":"LineString","coordinates":[[19.09703,50.08481],[19.09683,50.08434],[19.09698,50.08413]]}},{"type":"Feature","properties":{"numer":"5906S","klasa":"droga zbiorcza","kat":"powiatowa"},"geometry":{"type":"LineString","coordinates":[[19.07917,50.07694],[19.07962,50.07762],[19.0806,50.07857],[19.0815,50.08027],[19.0823,50.08121],[19.08447,50.08417],[19.08508,50.08665],[19.08533,50.08704],[19.08589,50.08763],[19.08654,50.08803],[19.08981,50.08902]]}},{"type":"Feature","properties":{"numer":"480030S","klasa":"droga lokalna","kat":"powiatowa"},"geometry":{"type":"LineString","coordinates":[[19.09048,50.09294],[19.0905,50.09267]]}},{"type":"Feature","properties":{"numer":"8020S","klasa":"","kat":"powiatowa"},"geometry":{"type":"LineString","coordinates":[[19.059297963978075,50.093130407204384],[19.05985,50.09302],[19.06128,50.09304]]}},{"type":"Feature","properties":{"numer":"480030S,480031S","klasa":"droga lokalna","kat":"powiatowa"},"geometry":{"type":"LineString","coordinates":[[19.09053,50.09359],[19.09048,50.09294]]}},{"type":"Feature","properties":{"numer":"480030S","klasa":"droga lokalna","kat":"powiatowa"},"geometry":{"type":"LineString","coordinates":[[19.09053,50.09364],[19.09053,50.09359]]}},{"type":"Feature","properties":{"numer":"480028S","klasa":"droga lokalna","kat":"powiatowa"},"geometry":{"type":"LineString","coordinates":[[19.09068,50.09568],[19.09064,50.09585],[19.09028,50.09614]]}},{"type":"Feature","properties":{"numer":"480028S","klasa":"droga lokalna","kat":"powiatowa"},"geometry":{"type":"LineString","coordinates":[[19.09028,50.09614],[19.09026,50.09616]]}},{"type":"Feature","properties":{"numer":"480028S","klasa":"droga lokalna","kat":"powiatowa"},"geometry":{"type":"LineString","coordinates":[[19.09026,50.09616],[19.09003,50.09634]]}},{"type":"Feature","properties":{"numer":"480028S","klasa":"droga lokalna","kat":"powiatowa"},"geometry":{"type":"LineString","coordinates":[[19.09003,50.09634],[19.09,50.09637]]}},{"type":"Feature","properties":{"numer":"5900S","klasa":"droga zbiorcza","kat":"powiatowa"},"geometry":{"type":"LineString","coordinates":[[19.055277351743218,50.08797836272453],[19.05772,50.08931]]}},{"type":"Feature","properties":{"numer":"5900S","klasa":"droga zbiorcza","kat":"powiatowa"},"geometry":{"type":"LineString","coordinates":[[19.05814,50.08953],[19.05772,50.08931]]}},{"type":"Feature","properties":{"numer":"5900S","klasa":"droga zbiorcza","kat":"powiatowa"},"geometry":{"type":"LineString","coordinates":[[19.06128,50.09304],[19.0598,50.09051],[19.05814,50.08953]]}},{"type":"Feature","properties":{"numer":"44","klasa":"droga gĹ‚Ăłwna ruchu przyĹ›pieszonego","kat":"krajowa"},"geometry":{"type":"LineString","coordinates":[[19.11277,50.08504],[19.11478,50.08448],[19.11678,50.0842]]}},{"type":"Feature","properties":{"numer":"44","klasa":"droga gĹ‚Ăłwna ruchu przyĹ›pieszonego","kat":"krajowa"},"geometry":{"type":"LineString","coordinates":[[19.11222,50.0844],[19.11265,50.08491]]}},{"type":"Feature","properties":{"numer":"44","klasa":"droga gĹ‚Ăłwna ruchu przyĹ›pieszonego","kat":"krajowa"},"geometry":{"type":"LineString","coordinates":[[19.11265,50.08491],[19.11277,50.08504]]}},{"type":"Feature","properties":{"numer":"5905S","klasa":"droga zbiorcza","kat":"powiatowa"},"geometry":{"type":"LineString","coordinates":[[19.09503,50.08704],[19.09703,50.08481]]}},{"type":"Feature","properties":{"numer":"44","klasa":"droga gĹ‚Ăłwna ruchu przyĹ›pieszonego","kat":"krajowa"},"geometry":{"type":"LineString","coordinates":[[19.10945,50.08691],[19.11103,50.08581],[19.11277,50.08504]]}},{"type":"Feature","properties":{"numer":"5907S","klasa":"droga zbiorcza","kat":"powiatowa"},"geometry":{"type":"LineString","coordinates":[[19.11222,50.0844],[19.11034,50.08453],[19.10868,50.08479],[19.09869,50.08718],[19.09513,50.0884],[19.09339,50.08928]]}},{"type":"Feature","properties":{"numer":"44","klasa":"droga gĹ‚Ăłwna ruchu przyĹ›pieszonego","kat":"krajowa"},"geometry":{"type":"LineString","coordinates":[[19.10936,50.08699],[19.10945,50.08691]]}},{"type":"Feature","properties":{"numer":"480040S,5905S","klasa":"droga zbiorcza","kat":"powiatowa"},"geometry":{"type":"LineString","coordinates":[[19.09402,50.08805],[19.09503,50.08704]]}},{"type":"Feature","properties":{"numer":"5905S","klasa":"droga zbiorcza","kat":"powiatowa"},"geometry":{"type":"LineString","coordinates":[[19.09339,50.08928],[19.09333,50.08917],[19.0935,50.08882],[19.09402,50.08805]]}},{"type":"Feature","properties":{"numer":"44","klasa":"droga gĹ‚Ăłwna ruchu przyĹ›pieszonego","kat":"krajowa"},"geometry":{"type":"LineString","coordinates":[[19.10606,50.09065],[19.10936,50.08699]]}},{"type":"Feature","properties":{"numer":"5906S","klasa":"droga zbiorcza","kat":"powiatowa"},"geometry":{"type":"LineString","coordinates":[[19.09292,50.08998],[19.08981,50.08902]]}},{"type":"Feature","properties":{"numer":"5907S","klasa":"droga zbiorcza","kat":"powiatowa"},"geometry":{"type":"LineString","coordinates":[[19.09339,50.08928],[19.09303,50.08957],[19.09292,50.08998]]}},{"type":"Feature","properties":{"numer":"480028S","klasa":"droga lokalna","kat":"powiatowa"},"geometry":{"type":"LineString","coordinates":[[19.09289,50.09011],[19.09292,50.08998]]}},{"type":"Feature","properties":{"numer":"480028S","klasa":"droga lokalna","kat":"powiatowa"},"geometry":{"type":"LineString","coordinates":[[19.09288,50.09018],[19.09289,50.09011]]}},{"type":"Feature","properties":{"numer":"480028S","klasa":"droga lokalna","kat":"powiatowa"},"geometry":{"type":"LineString","coordinates":[[19.09263,50.09154],[19.09288,50.09018]]}},{"type":"Feature","properties":{"numer":"5906S","klasa":"droga zbiorcza","kat":"powiatowa"},"geometry":{"type":"LineString","coordinates":[[19.10168,50.09196],[19.09945,50.09139],[19.0965,50.09088],[19.09292,50.08998]]}},{"type":"Feature","properties":{"numer":"480032S","klasa":"droga lokalna","kat":"powiatowa"},"geometry":{"type":"LineString","coordinates":[[19.09109,50.0914],[19.09069,50.09138]]}},{"type":"Feature","properties":{"numer":"480032S","klasa":"droga lokalna","kat":"powiatowa"},"geometry":{"type":"LineString","coordinates":[[19.09138,50.09142],[19.09109,50.0914]]}},{"type":"Feature","properties":{"numer":"480032S,480034S","klasa":"droga lokalna","kat":"powiatowa"},"geometry":{"type":"LineString","coordinates":[[19.09179,50.09146],[19.09138,50.09142]]}},{"type":"Feature","properties":{"numer":"480030S","klasa":"droga lokalna","kat":"powiatowa"},"geometry":{"type":"LineString","coordinates":[[19.09064,50.09159],[19.09069,50.09138]]}},{"type":"Feature","properties":{"numer":"5927S","klasa":"droga zbiorcza","kat":"powiatowa"},"geometry":{"type":"LineString","coordinates":[[19.216,50.07038],[19.21662,50.07047],[19.21728,50.07071],[19.21898,50.07046],[19.22016,50.07081],[19.22132,50.07073],[19.22235,50.07122],[19.22278,50.0713],[19.22347,50.07114],[19.22371,50.07101],[19.22568,50.06932],[19.22598,50.06919]]}},{"type":"Feature","properties":{"numer":"4137S","klasa":"droga zbiorcza","kat":"powiatowa"},"geometry":{"type":"LineString","coordinates":[[19.14965,50.05743],[19.14965,50.05733699853587]]}},{"type":"Feature","properties":{"numer":"4137S","klasa":"droga zbiorcza","kat":"powiatowa"},"geometry":{"type":"LineString","coordinates":[[19.16958,50.07295],[19.1679,50.07202],[19.16613,50.07123],[19.16447,50.07],[19.16407,50.06939],[19.16393,50.06876],[19.16352,50.06782],[19.1634,50.06645],[19.16328,50.06629],[19.16011,50.06604],[19.14996,50.06341],[19.14917,50.06324],[19.14817,50.06318],[19.14781,50.06305],[19.14771,50.06276],[19.14808,50.06235],[19.14838,50.06175],[19.1493,50.06143],[19.15008,50.06065],[19.15015,50.06008],[19.14966,50.05822],[19.14965,50.05743]]}},{"type":"Feature","properties":{"numer":"44","klasa":"droga gĹ‚Ăłwna ruchu przyĹ›pieszonego","kat":"krajowa"},"geometry":{"type":"LineString","coordinates":[[19.18116,50.07323],[19.18195,50.07261]]}},{"type":"Feature","properties":{"numer":"5925S","klasa":"droga zbiorcza","kat":"powiatowa"},"geometry":{"type":"LineString","coordinates":[[19.18195,50.07261],[19.18304,50.07328]]}},{"type":"Feature","properties":{"numer":"44","klasa":"droga gĹ‚Ăłwna ruchu przyĹ›pieszonego","kat":"krajowa"},"geometry":{"type":"LineString","coordinates":[[19.192392202367405,50.064039259048485],[19.19189,50.06468]]}},{"type":"Feature","properties":{"numer":"S1","klasa":"droga ekspresowa","kat":"krajowa"},"geometry":{"type":"LineString","coordinates":[[19.135594748607737,50.0579574335242],[19.13605,50.05844]]}},{"type":"Feature","properties":{"numer":"S1","klasa":"droga ekspresowa","kat":"krajowa"},"geometry":{"type":"LineString","coordinates":[[19.13605,50.05844],[19.13855,50.06155],[19.13973,50.06285]]}},{"type":"Feature","properties":{"numer":"S1","klasa":"droga ekspresowa","kat":"krajowa"},"geometry":{"type":"LineString","coordinates":[[19.13973,50.06285],[19.13995,50.06308]]}},{"type":"Feature","properties":{"numer":"S1","klasa":"droga ekspresowa","kat":"krajowa"},"geometry":{"type":"LineString","coordinates":[[19.13995,50.06308],[19.14427,50.06759],[19.14579,50.06951],[19.14666,50.07096],[19.14726,50.07228],[19.1477,50.07362],[19.14797,50.07493]]}},{"type":"Feature","properties":{"numer":"44","klasa":"droga gĹ‚Ăłwna ruchu przyĹ›pieszonego","kat":"krajowa"},"geometry":{"type":"LineString","coordinates":[[19.18873,50.06729],[19.19146,50.06512],[19.19189,50.06468]]}},{"type":"Feature","properties":{"numer":"5927S","klasa":"droga zbiorcza","kat":"powiatowa"},"geometry":{"type":"LineString","coordinates":[[19.19585,50.06727],[19.19606,50.06729]]}},{"type":"Feature","properties":{"numer":"5927S","klasa":"droga zbiorcza","kat":"powiatowa"},"geometry":{"type":"LineString","coordinates":[[19.19606,50.06729],[19.20907,50.06804]]}},{"type":"Feature","properties":{"numer":"5927S","klasa":"droga zbiorcza","kat":"powiatowa"},"geometry":{"type":"LineString","coordinates":[[19.19052,50.0686],[19.19205,50.06777],[19.19318,50.06694],[19.19383,50.06695],[19.19585,50.06727]]}},{"type":"Feature","properties":{"numer":"5926S","klasa":"droga zbiorcza","kat":"powiatowa"},"geometry":{"type":"LineString","coordinates":[[19.18873,50.06729],[19.18967,50.0677],[19.19052,50.0686]]}},{"type":"Feature","properties":{"numer":"480074S,5927S","klasa":"droga zbiorcza","kat":"powiatowa"},"geometry":{"type":"LineString","coordinates":[[19.20907,50.06804],[19.20892,50.06971],[19.20906,50.06988],[19.20975,50.0703]]}},{"type":"Feature","properties":{"numer":"44","klasa":"droga gĹ‚Ăłwna ruchu przyĹ›pieszonego","kat":"krajowa"},"geometry":{"type":"LineString","coordinates":[[19.18195,50.07261],[19.18873,50.06729]]}},{"type":"Feature","properties":{"numer":"5927S","klasa":"droga zbiorcza","kat":"powiatowa"},"geometry":{"type":"LineString","coordinates":[[19.21461,50.07023],[19.20975,50.0703]]}},{"type":"Feature","properties":{"numer":"480073S,5927S","klasa":"droga zbiorcza","kat":"powiatowa"},"geometry":{"type":"LineString","coordinates":[[19.216,50.07038],[19.21461,50.07023]]}},{"type":"Feature","properties":{"numer":"5926S","klasa":"droga zbiorcza","kat":"powiatowa"},"geometry":{"type":"LineString","coordinates":[[19.19052,50.0686],[19.1892,50.06933],[19.1881,50.07018],[19.1875,50.07086],[19.18628,50.07258],[19.18804,50.07641],[19.18802,50.07655]]}},{"type":"Feature","properties":{"numer":"931","klasa":"droga gĹ‚Ăłwna","kat":"wojewodzka"},"geometry":{"type":"LineString","coordinates":[[19.11424,50.06675],[19.13118,50.07899]]}},{"type":"Feature","properties":{"numer":"44","klasa":"droga gĹ‚Ăłwna ruchu przyĹ›pieszonego","kat":"krajowa"},"geometry":{"type":"LineString","coordinates":[[19.14833,50.0749],[19.14797,50.07493]]}},{"type":"Feature","properties":{"numer":"44","klasa":"droga gĹ‚Ăłwna ruchu przyĹ›pieszonego","kat":"krajowa"},"geometry":{"type":"LineString","coordinates":[[19.14797,50.07493],[19.14762,50.07495]]}},{"type":"Feature","properties":{"numer":"44","klasa":"droga gĹ‚Ăłwna ruchu przyĹ›pieszonego","kat":"krajowa"},"geometry":{"type":"LineString","coordinates":[[19.14762,50.07495],[19.14501,50.07518],[19.14296,50.07556]]}},{"type":"Feature","properties":{"numer":"44","klasa":"droga gĹ‚Ăłwna ruchu przyĹ›pieszonego","kat":"krajowa"},"geometry":{"type":"LineString","coordinates":[[19.14296,50.07556],[19.14031,50.07625],[19.13787,50.07701],[19.13168,50.07936]]}},{"type":"Feature","properties":{"numer":"S1","klasa":"droga ekspresowa","kat":"krajowa"},"geometry":{"type":"LineString","coordinates":[[19.14797,50.07493],[19.1481,50.07608],[19.14816,50.07905],[19.14861,50.08201]]}},{"type":"Feature","properties":{"numer":"931","klasa":"droga gĹ‚Ăłwna","kat":"wojewodzka"},"geometry":{"type":"LineString","coordinates":[[19.13118,50.07899],[19.13168,50.07936]]}},{"type":"Feature","properties":{"numer":"931","klasa":"droga gĹ‚Ăłwna","kat":"wojewodzka"},"geometry":{"type":"LineString","coordinates":[[19.13168,50.07936],[19.13217,50.07971]]}},{"type":"Feature","properties":{"numer":"44","klasa":"droga gĹ‚Ăłwna ruchu przyĹ›pieszonego","kat":"krajowa"},"geometry":{"type":"LineString","coordinates":[[19.12753,50.08094],[19.13168,50.07936]]}},{"type":"Feature","properties":{"numer":"44","klasa":"droga gĹ‚Ăłwna ruchu przyĹ›pieszonego","kat":"krajowa"},"geometry":{"type":"LineString","coordinates":[[19.12727,50.08104],[19.12753,50.08094]]}},{"type":"Feature","properties":{"numer":"4137S","klasa":"droga zbiorcza","kat":"powiatowa"},"geometry":{"type":"LineString","coordinates":[[19.17075,50.07337],[19.17023,50.07326],[19.16958,50.07295]]}},{"type":"Feature","properties":{"numer":"4137S","klasa":"droga zbiorcza","kat":"powiatowa"},"geometry":{"type":"LineString","coordinates":[[19.16958,50.07295],[19.16995,50.07338]]}},{"type":"Feature","properties":{"numer":"4137S","klasa":"droga zbiorcza","kat":"powiatowa"},"geometry":{"type":"LineString","coordinates":[[19.16995,50.07338],[19.17075,50.07337]]}},{"type":"Feature","properties":{"numer":"","klasa":"droga zbiorcza","kat":"powiatowa"},"geometry":{"type":"LineString","coordinates":[[19.16931,50.07361],[19.16995,50.07338]]}},{"type":"Feature","properties":{"numer":"44,480063S","klasa":"droga gĹ‚Ăłwna ruchu przyĹ›pieszonego","kat":"gminna"},"geometry":{"type":"LineString","coordinates":[[19.18034,50.07388],[19.18116,50.07323]]}},{"type":"Feature","properties":{"numer":"5925S","klasa":"droga zbiorcza","kat":"powiatowa"},"geometry":{"type":"LineString","coordinates":[[19.18304,50.07328],[19.18413,50.07393]]}},{"type":"Feature","properties":{"numer":"44","klasa":"droga gĹ‚Ăłwna ruchu przyĹ›pieszonego","kat":"krajowa"},"geometry":{"type":"LineString","coordinates":[[19.17986,50.07427],[19.18034,50.07388]]}},{"type":"Feature","properties":{"numer":"4137S","klasa":"droga zbiorcza","kat":"powiatowa"},"geometry":{"type":"LineString","coordinates":[[19.17798,50.07521],[19.17493,50.07405],[19.17179,50.07348],[19.17075,50.07337]]}},{"type":"Feature","properties":{"numer":"","klasa":"droga zbiorcza","kat":"powiatowa"},"geometry":{"type":"LineString","coordinates":[[19.1585,50.0753],[19.16114,50.07539],[19.16274,50.0753],[19.164,50.07514],[19.16646,50.07459],[19.16931,50.07361]]}},{"type":"Feature","properties":{"numer":"5919S","klasa":"droga zbiorcza","kat":"powiatowa"},"geometry":{"type":"LineString","coordinates":[[19.18304,50.07328],[19.18067,50.07568],[19.18059,50.07591]]}},{"type":"Feature","properties":{"numer":"44","klasa":"droga gĹ‚Ăłwna ruchu przyĹ›pieszonego","kat":"krajowa"},"geometry":{"type":"LineString","coordinates":[[19.15197,50.07476],[19.15115,50.07479]]}},{"type":"Feature","properties":{"numer":"","klasa":"droga zbiorcza","kat":"powiatowa"},"geometry":{"type":"LineString","coordinates":[[19.15197,50.07476],[19.1527,50.07482]]}},{"type":"Feature","properties":{"numer":"44","klasa":"droga gĹ‚Ăłwna ruchu przyĹ›pieszonego","kat":"krajowa"},"geometry":{"type":"LineString","coordinates":[[19.15115,50.07479],[19.14833,50.0749]]}},{"type":"Feature","properties":{"numer":"44","klasa":"droga gĹ‚Ăłwna ruchu przyĹ›pieszonego","kat":"krajowa"},"geometry":{"type":"LineString","coordinates":[[19.17844,50.07546],[19.17986,50.07427]]}},{"type":"Feature","properties":{"numer":"5925S","klasa":"droga zbiorcza","kat":"powiatowa"},"geometry":{"type":"LineString","coordinates":[[19.18413,50.07393],[19.18267,50.07598]]}},{"type":"Feature","properties":{"numer":"","klasa":"droga zbiorcza","kat":"powiatowa"},"geometry":{"type":"LineString","coordinates":[[19.1527,50.07482],[19.15697,50.07518]]}},{"type":"Feature","properties":{"numer":"","klasa":"droga zbiorcza","kat":"powiatowa"},"geometry":{"type":"LineString","coordinates":[[19.15697,50.07518],[19.15774,50.07524]]}},{"type":"Feature","properties":{"numer":"","klasa":"droga zbiorcza","kat":"powiatowa"},"geometry":{"type":"LineString","coordinates":[[19.15774,50.07524],[19.1585,50.0753]]}},{"type":"Feature","properties":{"numer":"4137S","klasa":"droga zbiorcza","kat":"powiatowa"},"geometry":{"type":"LineString","coordinates":[[19.17844,50.07546],[19.17798,50.07521]]}},{"type":"Feature","properties":{"numer":"934","klasa":"droga gĹ‚Ăłwna","kat":"wojewodzka"},"geometry":{"type":"LineString","coordinates":[[19.17844,50.07546],[19.17899,50.07565]]}},{"type":"Feature","properties":{"numer":"44","klasa":"droga gĹ‚Ăłwna ruchu przyĹ›pieszonego","kat":"krajowa"},"geometry":{"type":"LineString","coordinates":[[19.17804,50.07571],[19.17844,50.07546]]}},{"type":"Feature","properties":{"numer":"934","klasa":"droga gĹ‚Ăłwna","kat":"wojewodzka"},"geometry":{"type":"LineString","coordinates":[[19.17899,50.07565],[19.17974,50.07583],[19.18059,50.07591]]}},{"type":"Feature","properties":{"numer":"934","klasa":"droga gĹ‚Ăłwna","kat":"wojewodzka"},"geometry":{"type":"LineString","coordinates":[[19.18059,50.07591],[19.18152,50.07607]]}},{"type":"Feature","properties":{"numer":"5925S","klasa":"droga zbiorcza","kat":"powiatowa"},"geometry":{"type":"LineString","coordinates":[[19.18152,50.07607],[19.18168,50.07598],[19.18257,50.07605],[19.18267,50.07598]]}},{"type":"Feature","properties":{"numer":"934","klasa":"droga gĹ‚Ăłwna","kat":"wojewodzka"},"geometry":{"type":"LineString","coordinates":[[19.18152,50.07607],[19.18217,50.07619],[19.18295,50.07615]]}},{"type":"Feature","properties":{"numer":"934","klasa":"droga gĹ‚Ăłwna","kat":"wojewodzka"},"geometry":{"type":"LineString","coordinates":[[19.18295,50.07615],[19.18335,50.07611]]}},{"type":"Feature","properties":{"numer":"934","klasa":"droga gĹ‚Ăłwna","kat":"wojewodzka"},"geometry":{"type":"LineString","coordinates":[[19.18335,50.07611],[19.18427,50.07606],[19.18589,50.07634]]}},{"type":"Feature","properties":{"numer":"44","klasa":"droga gĹ‚Ăłwna ruchu przyĹ›pieszonego","kat":"krajowa"},"geometry":{"type":"LineString","coordinates":[[19.16505,50.07906],[19.17223,50.07855],[19.17367,50.07831],[19.17481,50.07793],[19.17573,50.07747],[19.17804,50.07571]]}},{"type":"Feature","properties":{"numer":"44","klasa":"droga gĹ‚Ăłwna ruchu przyĹ›pieszonego","kat":"krajowa"},"geometry":{"type":"LineString","coordinates":[[19.16505,50.07906],[19.16403,50.07915]]}},{"type":"Feature","properties":{"numer":"44","klasa":"droga gĹ‚Ăłwna ruchu przyĹ›pieszonego","kat":"krajowa"},"geometry":{"type":"LineString","coordinates":[[19.16127,50.07934],[19.16403,50.07915]]}},{"type":"Feature","properties":{"numer":"44","klasa":"droga gĹ‚Ăłwna ruchu przyĹ›pieszonego","kat":"krajowa"},"geometry":{"type":"LineString","coordinates":[[19.14861,50.08201],[19.15879,50.07974],[19.16127,50.07934]]}},{"type":"Feature","properties":{"numer":"S1","klasa":"droga ekspresowa","kat":"krajowa"},"geometry":{"type":"LineString","coordinates":[[19.14861,50.08201],[19.1493,50.08422],[19.15044,50.08699],[19.15102,50.08917]]}},{"type":"Feature","properties":{"numer":"5924S","klasa":"droga zbiorcza","kat":"powiatowa"},"geometry":{"type":"LineString","coordinates":[[19.164731666666533,50.08689],[19.16493,50.08689],[19.1649921728516,50.08690162109375]]}},{"type":"Feature","properties":{"numer":"5924S","klasa":"droga zbiorcza","kat":"powiatowa"},"geometry":{"type":"LineString","coordinates":[[19.16623138185648,50.087133248945136],[19.16707,50.08729],[19.167372454769726,50.087375542763155]]}},{"type":"Feature","properties":{"numer":"S1","klasa":"droga ekspresowa","kat":"krajowa"},"geometry":{"type":"LineString","coordinates":[[19.15102,50.08917],[19.15119,50.09011]]}},{"type":"Feature","properties":{"numer":"480044S","klasa":"droga lokalna","kat":"powiatowa"},"geometry":{"type":"LineString","coordinates":[[19.15256,50.09258],[19.16110053407732,50.08871428457553]]}},{"type":"Feature","properties":{"numer":"480044S","klasa":"droga lokalna","kat":"powiatowa"},"geometry":{"type":"LineString","coordinates":[[19.15218,50.09271],[19.15256,50.09258]]}},{"type":"Feature","properties":{"numer":"480032S","klasa":"droga lokalna","kat":"powiatowa"},"geometry":{"type":"LineString","coordinates":[[19.09263,50.09154],[19.09179,50.09146]]}},{"type":"Feature","properties":{"numer":"44","klasa":"droga gĹ‚Ăłwna ruchu przyĹ›pieszonego","kat":"krajowa"},"geometry":{"type":"LineString","coordinates":[[19.10415,50.09271],[19.10606,50.09065]]}},{"type":"Feature","properties":{"numer":"480028S","klasa":"droga lokalna","kat":"powiatowa"},"geometry":{"type":"LineString","coordinates":[[19.09245,50.09217],[19.09263,50.09154]]}},{"type":"Feature","properties":{"numer":"480030S","klasa":"droga lokalna","kat":"powiatowa"},"geometry":{"type":"LineString","coordinates":[[19.0905,50.09267],[19.0906,50.09252],[19.09064,50.09159]]}},{"type":"Feature","properties":{"numer":"480028S,480033S","klasa":"droga lokalna","kat":"powiatowa"},"geometry":{"type":"LineString","coordinates":[[19.0924,50.0923],[19.09245,50.09217]]}},{"type":"Feature","properties":{"numer":"5906S","klasa":"droga zbiorcza","kat":"powiatowa"},"geometry":{"type":"LineString","coordinates":[[19.10168,50.09196],[19.10415,50.09271]]}},{"type":"Feature","properties":{"numer":"480028S","klasa":"droga lokalna","kat":"powiatowa"},"geometry":{"type":"LineString","coordinates":[[19.0924,50.0923],[19.09224,50.09281]]}},{"type":"Feature","properties":{"numer":"480028S","klasa":"droga lokalna","kat":"powiatowa"},"geometry":{"type":"LineString","coordinates":[[19.09219,50.09294],[19.09224,50.09281]]}},{"type":"Feature","properties":{"numer":"480028S","klasa":"droga lokalna","kat":"powiatowa"},"geometry":{"type":"LineString","coordinates":[[19.09211,50.09317],[19.09219,50.09294]]}},{"type":"Feature","properties":{"numer":"480028S","klasa":"droga lokalna","kat":"powiatowa"},"geometry":{"type":"LineString","coordinates":[[19.09214,50.09351],[19.09211,50.09317]]}},{"type":"Feature","properties":{"numer":"480028S","klasa":"droga lokalna","kat":"powiatowa"},"geometry":{"type":"LineString","coordinates":[[19.09222,50.09355],[19.09214,50.09351]]}},{"type":"Feature","properties":{"numer":"44","klasa":"droga gĹ‚Ăłwna ruchu przyĹ›pieszonego","kat":"krajowa"},"geometry":{"type":"LineString","coordinates":[[19.10257,50.09463],[19.10415,50.09271]]}},{"type":"Feature","properties":{"numer":"480038S","klasa":"droga lokalna","kat":"powiatowa"},"geometry":{"type":"LineString","coordinates":[[19.09222,50.09355],[19.09223,50.09395]]}},{"type":"Feature","properties":{"numer":"480032S","klasa":"droga lokalna","kat":"powiatowa"},"geometry":{"type":"LineString","coordinates":[[19.09133,50.09401],[19.09223,50.09395]]}},{"type":"Feature","properties":{"numer":"480030S","klasa":"droga lokalna","kat":"powiatowa"},"geometry":{"type":"LineString","coordinates":[[19.09067,50.09556],[19.09053,50.09364]]}},{"type":"Feature","properties":{"numer":"480028S","klasa":"droga lokalna","kat":"powiatowa"},"geometry":{"type":"LineString","coordinates":[[19.09133,50.09401],[19.09132,50.09495],[19.09094,50.09558],[19.09068,50.09568]]}},{"type":"Feature","properties":{"numer":"480030S","klasa":"droga lokalna","kat":"powiatowa"},"geometry":{"type":"LineString","coordinates":[[19.09068,50.09568],[19.09067,50.09556]]}},{"type":"Feature","properties":{"numer":"44","klasa":"droga gĹ‚Ăłwna ruchu przyĹ›pieszonego","kat":"krajowa"},"geometry":{"type":"LineString","coordinates":[[19.09942,50.09823],[19.10257,50.09463]]}},{"type":"Feature","properties":{"numer":"44","klasa":"droga gĹ‚Ăłwna ruchu przyĹ›pieszonego","kat":"krajowa"},"geometry":{"type":"LineString","coordinates":[[19.09915,50.09849],[19.09942,50.09823]]}},{"type":"Feature","properties":{"numer":"44","klasa":"droga gĹ‚Ăłwna ruchu przyĹ›pieszonego","kat":"krajowa"},"geometry":{"type":"LineString","coordinates":[[19.09915,50.09849],[19.09663,50.10128]]}},{"type":"Feature","properties":{"numer":"480005S","klasa":"droga lokalna","kat":"powiatowa"},"geometry":{"type":"LineString","coordinates":[[19.08815,50.09622],[19.08887,50.09652]]}},{"type":"Feature","properties":{"numer":"480028S","klasa":"droga lokalna","kat":"powiatowa"},"geometry":{"type":"LineString","coordinates":[[19.09,50.09637],[19.08949,50.09677]]}},{"type":"Feature","properties":{"numer":"480005S","klasa":"droga lokalna","kat":"powiatowa"},"geometry":{"type":"LineString","coordinates":[[19.08887,50.09652],[19.08926,50.09668]]}},{"type":"Feature","properties":{"numer":"480029S","klasa":"droga lokalna","kat":"powiatowa"},"geometry":{"type":"LineString","coordinates":[[19.08526,50.09706],[19.08778,50.09652],[19.08815,50.09622]]}},{"type":"Feature","properties":{"numer":"480005S","klasa":"droga lokalna","kat":"powiatowa"},"geometry":{"type":"LineString","coordinates":[[19.08926,50.09668],[19.08949,50.09677]]}},{"type":"Feature","properties":{"numer":"480029S","klasa":"droga lokalna","kat":"powiatowa"},"geometry":{"type":"LineString","coordinates":[[19.08523,50.0973],[19.08526,50.09706]]}},{"type":"Feature","properties":{"numer":"480029S","klasa":"droga lokalna","kat":"powiatowa"},"geometry":{"type":"LineString","coordinates":[[19.08523,50.0973],[19.08621,50.09714],[19.08633,50.09735]]}},{"type":"Feature","properties":{"numer":"480029S","klasa":"droga lokalna","kat":"powiatowa"},"geometry":{"type":"LineString","coordinates":[[19.08633,50.09735],[19.08656,50.0978]]}},{"type":"Feature","properties":{"numer":"480029S","klasa":"droga lokalna","kat":"powiatowa"},"geometry":{"type":"LineString","coordinates":[[19.08656,50.0978],[19.08713,50.09828]]}},{"type":"Feature","properties":{"numer":"5900S","klasa":"droga zbiorcza","kat":"powiatowa"},"geometry":{"type":"LineString","coordinates":[[19.060176851464433,50.103114676224465],[19.05934,50.10023],[19.0594,50.09949],[19.06104,50.09781],[19.0634,50.09713],[19.06352,50.097],[19.06128,50.09304]]}},{"type":"Feature","properties":{"numer":"44","klasa":"droga gĹ‚Ăłwna ruchu przyĹ›pieszonego","kat":"krajowa"},"geometry":{"type":"LineString","coordinates":[[19.09663,50.10128],[19.09632,50.10164]]}},{"type":"Feature","properties":{"numer":"5909S","klasa":"droga gĹ‚Ăłwna","kat":"powiatowa"},"geometry":{"type":"LineString","coordinates":[[19.09632,50.10164],[19.09574,50.10154],[19.09519,50.10154],[19.09362,50.10181],[19.0936,50.10191]]}},{"type":"Feature","properties":{"numer":"44","klasa":"droga gĹ‚Ăłwna ruchu przyĹ›pieszonego","kat":"krajowa"},"geometry":{"type":"LineString","coordinates":[[19.09632,50.10164],[19.09612,50.10186]]}},{"type":"Feature","properties":{"numer":"5909S","klasa":"droga gĹ‚Ăłwna","kat":"powiatowa"},"geometry":{"type":"LineString","coordinates":[[19.09701,50.10189],[19.09632,50.10164]]}},{"type":"Feature","properties":{"numer":"","klasa":"droga wewnÄ™trzna","kat":"gminna"},"geometry":{"type":"LineString","coordinates":[[19.09168,50.10218],[19.09329,50.10188]]}},{"type":"Feature","properties":{"numer":"44","klasa":"droga gĹ‚Ăłwna ruchu przyĹ›pieszonego","kat":"krajowa"},"geometry":{"type":"LineString","coordinates":[[19.0935,50.1023],[19.0936,50.10191]]}},{"type":"Feature","properties":{"numer":"","klasa":"droga wewnÄ™trzna","kat":"gminna"},"geometry":{"type":"LineString","coordinates":[[19.09168,50.10218],[19.09136,50.10224]]}},{"type":"Feature","properties":{"numer":"5909S","klasa":"droga gĹ‚Ăłwna","kat":"powiatowa"},"geometry":{"type":"LineString","coordinates":[[19.09759,50.10262],[19.09751,50.10216],[19.09701,50.10189]]}},{"type":"Feature","properties":{"numer":"","klasa":"droga wewnÄ™trzna","kat":"gminna"},"geometry":{"type":"LineString","coordinates":[[19.09136,50.10224],[19.091233922299093,50.10226521554018]]}},{"type":"Feature","properties":{"numer":"480029S","klasa":"droga lokalna","kat":"powiatowa"},"geometry":{"type":"LineString","coordinates":[[19.08713,50.09828],[19.08738,50.09841]]}},{"type":"Feature","properties":{"numer":"480028S","klasa":"droga lokalna","kat":"powiatowa"},"geometry":{"type":"LineString","coordinates":[[19.08622859813084,50.099245700934574],[19.08676,50.09898],[19.08738,50.09841]]}},{"type":"Feature","properties":{"numer":"44","klasa":"droga gĹ‚Ăłwna ruchu przyĹ›pieszonego","kat":"krajowa"},"geometry":{"type":"LineString","coordinates":[[19.09433,50.10389],[19.09327,50.10504],[19.09188,50.10598],[19.09059,50.10654],[19.08938,50.1069],[19.08778,50.10717],[19.08247,50.1077],[19.07571,50.1085]]}},{"type":"Feature","properties":{"numer":"44","klasa":"droga gĹ‚Ăłwna ruchu przyĹ›pieszonego","kat":"krajowa"},"geometry":{"type":"LineString","coordinates":[[19.07571,50.1085],[19.075678741592217,50.108503665775146]]}},{"type":"Feature","properties":{"numer":"44","klasa":"droga gĹ‚Ăłwna ruchu przyĹ›pieszonego","kat":"krajowa"},"geometry":{"type":"LineString","coordinates":[[19.0939,50.10319],[19.0935,50.1023]]}},{"type":"Feature","properties":{"numer":"44","klasa":"droga gĹ‚Ăłwna ruchu przyĹ›pieszonego","kat":"krajowa"},"geometry":{"type":"LineString","coordinates":[[19.09612,50.10186],[19.09433,50.10389]]}},{"type":"Feature","properties":{"numer":"44","klasa":"droga gĹ‚Ăłwna ruchu przyĹ›pieszonego","kat":"krajowa"},"geometry":{"type":"LineString","coordinates":[[19.0939,50.10319],[19.09433,50.10389]]}},{"type":"Feature","properties":{"numer":"5909S","klasa":"droga gĹ‚Ăłwna","kat":"powiatowa"},"geometry":{"type":"LineString","coordinates":[[19.09776,50.10512],[19.09759,50.10262]]}},{"type":"Feature","properties":{"numer":"44","klasa":"droga gĹ‚Ăłwna ruchu przyĹ›pieszonego","kat":"krajowa"},"geometry":{"type":"LineString","coordinates":[[19.09506,50.10415],[19.09433,50.10389]]}},{"type":"Feature","properties":{"numer":"44","klasa":"droga gĹ‚Ăłwna ruchu przyĹ›pieszonego","kat":"krajowa"},"geometry":{"type":"LineString","coordinates":[[19.09717,50.10493],[19.09506,50.10415]]}},{"type":"Feature","properties":{"numer":"44","klasa":"droga gĹ‚Ăłwna ruchu przyĹ›pieszonego","kat":"krajowa"},"geometry":{"type":"LineString","coordinates":[[19.09776,50.10512],[19.09717,50.10493]]}},{"type":"Feature","properties":{"numer":"5909S","klasa":"droga gĹ‚Ăłwna","kat":"powiatowa"},"geometry":{"type":"LineString","coordinates":[[19.09918571668864,50.109029808155654],[19.09821,50.10713],[19.09796,50.10645],[19.09776,50.10512]]}},{"type":"Feature","properties":{"numer":"934","klasa":"droga gĹ‚Ăłwna","kat":"wojewodzka"},"geometry":{"type":"LineString","coordinates":[[19.18589,50.07634],[19.18802,50.07655]]}},{"type":"Feature","properties":{"numer":"934","klasa":"droga gĹ‚Ăłwna","kat":"wojewodzka"},"geometry":{"type":"LineString","coordinates":[[19.18802,50.07655],[19.19085,50.07723]]}},{"type":"Feature","properties":{"numer":"934","klasa":"droga gĹ‚Ăłwna","kat":"wojewodzka"},"geometry":{"type":"LineString","coordinates":[[19.19085,50.07723],[19.19089,50.07724]]}},{"type":"Feature","properties":{"numer":"934","klasa":"droga gĹ‚Ăłwna","kat":"wojewodzka"},"geometry":{"type":"LineString","coordinates":[[19.19089,50.07724],[19.191300335197162,50.07736547439914]]}},{"type":"Feature","properties":{"numer":"931","klasa":"droga gĹ‚Ăłwna","kat":"wojewodzka"},"geometry":{"type":"LineString","coordinates":[[19.13217,50.07971],[19.13259,50.08007],[19.13298,50.08059],[19.13445,50.08369]]}},{"type":"Feature","properties":{"numer":"44","klasa":"droga gĹ‚Ăłwna ruchu przyĹ›pieszonego","kat":"krajowa"},"geometry":{"type":"LineString","coordinates":[[19.12172,50.08333],[19.12364,50.08246],[19.12727,50.08104]]}},{"type":"Feature","properties":{"numer":"44","klasa":"droga gĹ‚Ăłwna ruchu przyĹ›pieszonego","kat":"krajowa"},"geometry":{"type":"LineString","coordinates":[[19.14332,50.08317],[19.14861,50.08201]]}},{"type":"Feature","properties":{"numer":"44","klasa":"droga gĹ‚Ăłwna ruchu przyĹ›pieszonego","kat":"krajowa"},"geometry":{"type":"LineString","coordinates":[[19.14147,50.08336],[19.14332,50.08317]]}},{"type":"Feature","properties":{"numer":"44,480045S","klasa":"droga gĹ‚Ăłwna ruchu przyĹ›pieszonego","kat":"gminna"},"geometry":{"type":"LineString","coordinates":[[19.1404,50.08341],[19.14147,50.08336]]}},{"type":"Feature","properties":{"numer":"44","klasa":"droga gĹ‚Ăłwna ruchu przyĹ›pieszonego","kat":"krajowa"},"geometry":{"type":"LineString","coordinates":[[19.12172,50.08333],[19.12223,50.08371]]}},{"type":"Feature","properties":{"numer":"44","klasa":"droga gĹ‚Ăłwna ruchu przyĹ›pieszonego","kat":"krajowa"},"geometry":{"type":"LineString","coordinates":[[19.13445,50.08369],[19.1404,50.08341]]}},{"type":"Feature","properties":{"numer":"44","klasa":"droga gĹ‚Ăłwna ruchu przyĹ›pieszonego","kat":"krajowa"},"geometry":{"type":"LineString","coordinates":[[19.12223,50.08371],[19.12256,50.08385],[19.12311,50.08392],[19.12552,50.08383],[19.12802,50.08398],[19.13445,50.08369]]}},{"type":"Feature","properties":{"numer":"5904S","klasa":"droga zbiorcza","kat":"powiatowa"},"geometry":{"type":"LineString","coordinates":[[19.14873554366587,50.094019482223004],[19.14796,50.09227],[19.14578,50.08837],[19.14332,50.08317]]}},{"type":"Feature","properties":{"numer":"","klasa":"droga dojazdowa","kat":"gminna"},"geometry":{"type":"LineString","coordinates":[[19.15218,50.09271],[19.15197,50.09456],[19.1515,50.09704]]}},{"type":"Feature","properties":{"numer":"S1","klasa":"droga ekspresowa","kat":"krajowa"},"geometry":{"type":"LineString","coordinates":[[19.15119,50.09011],[19.15136,50.09229],[19.15131,50.09366],[19.15114,50.09507],[19.15076,50.09678],[19.15031,50.09818],[19.150168914835927,50.09851942227879]]}},{"type":"Feature","properties":{"numer":"","klasa":"droga dojazdowa","kat":"gminna"},"geometry":{"type":"LineString","coordinates":[[19.1515,50.09704],[19.15167,50.09755],[19.15282,50.09888],[19.15281,50.09917],[19.15252,50.09964]]}},{"type":"Feature","properties":{"numer":"","klasa":"droga dojazdowa","kat":"gminna"},"geometry":{"type":"LineString","coordinates":[[19.15252,50.09964],[19.15247304630382,50.099724516653126]]}}]}