{"type":"FeatureCollection","features":[{"type":"Feature","properties":{"numer":"780","klasa":"droga gĹ‚Ăłwna","kat":"wojewodzka"},"geometry":{"type":"LineString","coordinates":[[19.22532,50.09774],[19.225340725856313,50.09773663905033]]}},{"type":"Feature","properties":{"numer":"780","klasa":"droga gĹ‚Ăłwna","kat":"wojewodzka"},"geometry":{"type":"LineString","coordinates":[[19.2246,50.09785],[19.22532,50.09774]]}},{"type":"Feature","properties":{"numer":"5924S","klasa":"droga zbiorcza","kat":"powiatowa"},"geometry":{"type":"LineString","coordinates":[[19.16111,50.08871],[19.16297,50.08751],[19.16431,50.08689],[19.164731666666533,50.08689]]}},{"type":"Feature","properties":{"numer":"5924S","klasa":"droga zbiorcza","kat":"powiatowa"},"geometry":{"type":"LineString","coordinates":[[19.1649921728516,50.08690162109375],[19.16623138185648,50.087133248945136]]}},{"type":"Feature","properties":{"numer":"5924S","klasa":"droga zbiorcza","kat":"powiatowa"},"geometry":{"type":"LineString","coordinates":[[19.167372454769726,50.087375542763155],[19.16806,50.08757],[19.17188,50.08841],[19.1772,50.09023],[19.17779,50.09059],[19.17816,50.09121]]}},{"type":"Feature","properties":{"numer":"5924S","klasa":"droga zbiorcza","kat":"powiatowa"},"geometry":{"type":"LineString","coordinates":[[19.18354,50.08914],[19.18383,50.08912]]}},{"type":"Feature","properties":{"numer":"5924S","klasa":"droga zbiorcza","kat":"powiatowa"},"geometry":{"type":"LineString","coordinates":[[19.18079,50.0898],[19.1818,50.08955],[19.18195,50.08959],[19.1822,50.08985],[19.18267,50.0899],[19.18295,50.08973],[19.18316,50.08926],[19.18354,50.08914]]}},{"type":"Feature","properties":{"numer":"5924S","klasa":"droga zbiorcza","kat":"powiatowa"},"geometry":{"type":"LineString","coordinates":[[19.18383,50.08912],[19.18411,50.08926],[19.18413,50.09007]]}},{"type":"Feature","properties":{"numer":"5924S","klasa":"droga zbiorcza","kat":"powiatowa"},"geometry":{"type":"LineString","coordinates":[[19.17816,50.09121],[19.17864,50.09112],[19.18079,50.0898]]}},{"type":"Feature","properties":{"numer":"480044S","klasa":"droga lokalna","kat":"powiatowa"},"geometry":{"type":"LineString","coordinates":[[19.16110053407732,50.08871428457553],[19.16111,50.08871]]}},{"type":"Feature","properties":{"numer":"934","klasa":"droga gĹ‚Ăłwna","kat":"wojewodzka"},"geometry":{"type":"LineString","coordinates":[[19.191300335197162,50.07736547439914],[19.1921,50.07761],[19.19279,50.07814],[19.20178,50.08826]]}},{"type":"Feature","properties":{"numer":"934","klasa":"droga gĹ‚Ăłwna","kat":"wojewodzka"},"geometry":{"type":"LineString","coordinates":[[19.20178,50.08826],[19.20193,50.08865]]}},{"type":"Feature","properties":{"numer":"780","klasa":"droga gĹ‚Ăłwna","kat":"wojewodzka"},"geometry":{"type":"LineString","coordinates":[[19.20193,50.08865],[19.20234,50.08886]]}},{"type":"Feature","properties":{"numer":"934","klasa":"droga gĹ‚Ăłwna","kat":"wojewodzka"},"geometry":{"type":"LineString","coordinates":[[19.20193,50.08865],[19.20164,50.08902]]}},{"type":"Feature","properties":{"numer":"934","klasa":"droga gĹ‚Ăłwna","kat":"wojewodzka"},"geometry":{"type":"LineString","coordinates":[[19.20164,50.08902],[19.20131,50.09116]]}},{"type":"Feature","properties":{"numer":"5924S","klasa":"droga zbiorcza","kat":"powiatowa"},"geometry":{"type":"LineString","coordinates":[[19.18413,50.09007],[19.1841,50.09054],[19.18421,50.091],[19.18481,50.09174],[19.1857,50.09227],[19.18678,50.0925],[19.18855,50.09244],[19.19431,50.09205],[19.20131,50.09116]]}},{"type":"Feature","properties":{"numer":"780","klasa":"droga gĹ‚Ăłwna","kat":"wojewodzka"},"geometry":{"type":"LineString","coordinates":[[19.20234,50.08886],[19.20499,50.09174],[19.20675,50.09328],[19.2158,50.09914],[19.21635,50.09917],[19.2246,50.09785]]}},{"type":"Feature","properties":{"numer":"5921S","klasa":"droga zbiorcza","kat":"powiatowa"},"geometry":{"type":"LineString","coordinates":[[19.20071,50.11405],[19.20053,50.11395],[19.19989,50.1131],[19.19838,50.1106],[19.19625,50.10905],[19.19484,50.10758],[19.18897,50.1066],[19.18858,50.10659],[19.18676,50.10684],[19.18415,50.10735],[19.17257,50.10847],[19.17241916089726,50.10843845195237]]}},{"type":"Feature","properties":{"numer":"683024S","klasa":"droga dojazdowa","kat":"powiatowa"},"geometry":{"type":"LineString","coordinates":[[19.18099,50.11826],[19.17906,50.1188],[19.17838,50.11856],[19.1776,50.11841]]}},{"type":"Feature","properties":{"numer":"934","klasa":"droga gĹ‚Ăłwna","kat":"wojewodzka"},"geometry":{"type":"LineString","coordinates":[[19.20131,50.09116],[19.20089,50.09455],[19.20158,50.09725],[19.20268,50.10443],[19.20071,50.11405]]}},{"type":"Feature","properties":{"numer":"934","klasa":"droga gĹ‚Ăłwna","kat":"wojewodzka"},"geometry":{"type":"LineString","coordinates":[[19.20071,50.11405],[19.20061,50.11476],[19.20074,50.11616],[19.20069,50.11703]]}},{"type":"Feature","properties":{"numer":"5920S","klasa":"droga zbiorcza","kat":"powiatowa"},"geometry":{"type":"LineString","coordinates":[[19.18089,50.11933],[19.18178,50.11935],[19.20069,50.11703]]}},{"type":"Feature","properties":{"numer":"934","klasa":"droga gĹ‚Ăłwna","kat":"wojewodzka"},"geometry":{"type":"LineString","coordinates":[[19.20069,50.11703],[19.19922,50.13002],[19.19879,50.13122],[19.197797563550488,50.13295842894847]]}},{"type":"Feature","properties":{"numer":"683004S","klasa":"droga dojazdowa","kat":"powiatowa"},"geometry":{"type":"LineString","coordinates":[[19.18099,50.11826],[19.18107,50.11839],[19.18089,50.11933]]}},{"type":"Feature","properties":{"numer":"683054S","klasa":"droga dojazdowa","kat":"powiatowa"},"geometry":{"type":"LineString","coordinates":[[19.17753,50.11946],[19.1776,50.11841]]}},{"type":"Feature","properties":{"numer":"5920S","klasa":"droga zbiorcza","kat":"powiatowa"},"geometry":{"type":"LineString","coordinates":[[19.17753,50.11946],[19.18089,50.11933]]}}]}