{"type":"FeatureCollection","features":[{"type":"Feature","properties":{"numer":"936","klasa":"droga gĹ‚Ăłwna","kat":"wojewodzka"},"geometry":{"type":"LineString","coordinates":[[18.28881,49.99382],[18.287631694427308,49.99331031433368]]}},{"type":"Feature","properties":{"numer":"936","klasa":"droga gĹ‚Ăłwna","kat":"wojewodzka"},"geometry":{"type":"LineString","coordinates":[[18.29604,49.99866],[18.29507,49.99731],[18.29453,49.9968],[18.29079,49.99476],[18.28881,49.99382]]}},{"type":"Feature","properties":{"numer":"936","klasa":"droga gĹ‚Ăłwna","kat":"wojewodzka"},"geometry":{"type":"LineString","coordinates":[[18.29609,49.99872],[18.29604,49.99866]]}},{"type":"Feature","properties":{"numer":"3512S","klasa":"droga zbiorcza","kat":"powiatowa"},"geometry":{"type":"LineString","coordinates":[[18.33181,50.01043],[18.33407,50.00808],[18.33567,50.00618],[18.3374,50.00489],[18.33773701810993,50.0045646765248]]}},{"type":"Feature","properties":{"numer":"936","klasa":"droga gĹ‚Ăłwna","kat":"wojewodzka"},"geometry":{"type":"LineString","coordinates":[[18.32604,50.01278],[18.31591,50.00373],[18.315,50.00301]]}},{"type":"Feature","properties":{"numer":"3512S","klasa":"droga zbiorcza","kat":"powiatowa"},"geometry":{"type":"LineString","coordinates":[[18.33164,50.01062],[18.33181,50.01043]]}},{"type":"Feature","properties":{"numer":"3512S","klasa":"droga zbiorcza","kat":"powiatowa"},"geometry":{"type":"LineString","coordinates":[[18.33076,50.01223],[18.33112,50.01133],[18.33164,50.01062]]}},{"type":"Feature","properties":{"numer":"936","klasa":"droga gĹ‚Ăłwna","kat":"wojewodzka"},"geometry":{"type":"LineString","coordinates":[[18.32609,50.01282],[18.32604,50.01278]]}},{"type":"Feature","properties":{"numer":"5048S","klasa":"","kat":"powiatowa"},"geometry":{"type":"LineString","coordinates":[[18.28893,49.99886],[18.28909,49.99867],[18.28954,49.9985],[18.29159,49.99848],[18.292,49.99858],[18.29306,49.99907],[18.29432,49.99935],[18.29533,49.99939],[18.29646,49.99923]]}},{"type":"Feature","properties":{"numer":"5048S","klasa":"","kat":"powiatowa"},"geometry":{"type":"LineString","coordinates":[[18.2888,49.99904],[18.28893,49.99886]]}},{"type":"Feature","properties":{"numer":"936","klasa":"droga gĹ‚Ăłwna","kat":"wojewodzka"},"geometry":{"type":"LineString","coordinates":[[18.29646,49.99923],[18.29609,49.99872]]}},{"type":"Feature","properties":{"numer":"5048S","klasa":"","kat":"powiatowa"},"geometry":{"type":"LineString","coordinates":[[18.2889,49.99922],[18.2888,49.99904]]}},{"type":"Feature","properties":{"numer":"5048S,936","klasa":"droga gĹ‚Ăłwna","kat":"powiatowa"},"geometry":{"type":"LineString","coordinates":[[18.29753,50.00071],[18.29646,49.99923]]}},{"type":"Feature","properties":{"numer":"5048S,936","klasa":"droga gĹ‚Ăłwna","kat":"powiatowa"},"geometry":{"type":"LineString","coordinates":[[18.29984,50.00376],[18.2996,50.0036],[18.29753,50.00071]]}},{"type":"Feature","properties":{"numer":"5048S,936","klasa":"droga gĹ‚Ăłwna","kat":"powiatowa"},"geometry":{"type":"LineString","coordinates":[[18.31159,50.00247],[18.31141,50.00243]]}},{"type":"Feature","properties":{"numer":"5048S","klasa":"","kat":"powiatowa"},"geometry":{"type":"LineString","coordinates":[[18.315,50.00301],[18.315108970527305,50.0029022011988]]}},{"type":"Feature","properties":{"numer":"5048S,936","klasa":"droga gĹ‚Ăłwna","kat":"powiatowa"},"geometry":{"type":"LineString","coordinates":[[18.315,50.00301],[18.31159,50.00247]]}},{"type":"Feature","properties":{"numer":"3512S","klasa":"droga zbiorcza","kat":"powiatowa"},"geometry":{"type":"LineString","coordinates":[[18.32999,50.01383],[18.33076,50.01223]]}},{"type":"Feature","properties":{"numer":"3512S","klasa":"droga zbiorcza","kat":"powiatowa"},"geometry":{"type":"LineString","coordinates":[[18.32995,50.01388],[18.32999,50.01383]]}},{"type":"Feature","properties":{"numer":"936","klasa":"droga gĹ‚Ăłwna","kat":"wojewodzka"},"geometry":{"type":"LineString","coordinates":[[18.32943,50.01529],[18.32823,50.01463],[18.32609,50.01282]]}},{"type":"Feature","properties":{"numer":"3512S","klasa":"droga zbiorcza","kat":"powiatowa"},"geometry":{"type":"LineString","coordinates":[[18.32943,50.01529],[18.32966,50.01447],[18.32995,50.01388]]}},{"type":"Feature","properties":{"numer":"936","klasa":"droga gĹ‚Ăłwna","kat":"wojewodzka"},"geometry":{"type":"LineString","coordinates":[[18.35694,50.01881],[18.35790087210695,50.01845291349898]]}},{"type":"Feature","properties":{"numer":"5048S,936","klasa":"droga gĹ‚Ăłwna","kat":"powiatowa"},"geometry":{"type":"LineString","coordinates":[[18.31141,50.00243],[18.30911,50.00185],[18.30843,50.00174],[18.30791,50.00174],[18.3002,50.00375],[18.29984,50.00376]]}},{"type":"Feature","properties":{"numer":"5048S","klasa":"","kat":"powiatowa"},"geometry":{"type":"LineString","coordinates":[[18.2907,50.00903],[18.29038,50.00766],[18.28979,50.00635],[18.28828,50.00438],[18.28738,50.00346],[18.28716,50.00291],[18.28729,50.00133],[18.28779,50.00087],[18.28835,50.00069],[18.28879,50.00021],[18.28898,49.99943],[18.2889,49.99922]]}},{"type":"Feature","properties":{"numer":"3544S","klasa":"droga zbiorcza","kat":"powiatowa"},"geometry":{"type":"LineString","coordinates":[[18.2907,50.00903],[18.29149,50.00843],[18.29984,50.00376]]}},{"type":"Feature","properties":{"numer":"3544S","klasa":"droga zbiorcza","kat":"powiatowa"},"geometry":{"type":"LineString","coordinates":[[18.29057,50.00927],[18.2907,50.00903]]}},{"type":"Feature","properties":{"numer":"3544S","klasa":"droga zbiorcza","kat":"powiatowa"},"geometry":{"type":"LineString","coordinates":[[18.29047,50.00933],[18.29057,50.00927]]}},{"type":"Feature","properties":{"numer":"5054S","klasa":"","kat":"powiatowa"},"geometry":{"type":"LineString","coordinates":[[18.31102,50.01958],[18.31031,50.01735]]}},{"type":"Feature","properties":{"numer":"5054S","klasa":"","kat":"powiatowa"},"geometry":{"type":"LineString","coordinates":[[18.31795,50.02129],[18.31102,50.01958]]}},{"type":"Feature","properties":{"numer":"3544S","klasa":"droga zbiorcza","kat":"powiatowa"},"geometry":{"type":"LineString","coordinates":[[18.30362,50.03446],[18.29988,50.03096],[18.2955,50.0288],[18.2934,50.02641],[18.29066,50.02508],[18.29014,50.02469],[18.2895,50.02399],[18.28909,50.0222],[18.28834,50.0206],[18.28838,50.01926],[18.28769,50.01808],[18.28746,50.01743],[18.28749,50.01708],[18.28807,50.01573],[18.28704,50.01434],[18.28659,50.01346],[18.28658,50.01317],[18.28683,50.01212],[18.28771,50.01081],[18.29047,50.00933]]}},{"type":"Feature","properties":{"numer":"3512S","klasa":"droga zbiorcza","kat":"powiatowa"},"geometry":{"type":"LineString","coordinates":[[18.30362,50.03446],[18.30541,50.03433],[18.30634,50.03414],[18.31657,50.03074],[18.31779,50.03017],[18.31868,50.02928]]}},{"type":"Feature","properties":{"numer":"3512S","klasa":"droga zbiorcza","kat":"powiatowa"},"geometry":{"type":"LineString","coordinates":[[18.30154,50.0351],[18.3028,50.03462],[18.30362,50.03446]]}},{"type":"Feature","properties":{"numer":"936","klasa":"droga gĹ‚Ăłwna","kat":"wojewodzka"},"geometry":{"type":"LineString","coordinates":[[18.34356,50.01877],[18.34161,50.01809],[18.33583,50.01664],[18.33464,50.01641],[18.3322,50.01614],[18.32943,50.01529]]}},{"type":"Feature","properties":{"numer":"936","klasa":"droga gĹ‚Ăłwna","kat":"wojewodzka"},"geometry":{"type":"LineString","coordinates":[[18.34389,50.0189],[18.34356,50.01877]]}},{"type":"Feature","properties":{"numer":"936","klasa":"droga gĹ‚Ăłwna","kat":"wojewodzka"},"geometry":{"type":"LineString","coordinates":[[18.35673,50.01889],[18.35694,50.01881]]}},{"type":"Feature","properties":{"numer":"5053S","klasa":"","kat":"powiatowa"},"geometry":{"type":"LineString","coordinates":[[18.34335,50.01894],[18.34356,50.01877]]}},{"type":"Feature","properties":{"numer":"3512S","klasa":"droga zbiorcza","kat":"powiatowa"},"geometry":{"type":"LineString","coordinates":[[18.32433,50.02287],[18.3275,50.01927],[18.32889,50.01739],[18.32924,50.0167],[18.32943,50.01529]]}},{"type":"Feature","properties":{"numer":"936","klasa":"droga gĹ‚Ăłwna","kat":"wojewodzka"},"geometry":{"type":"LineString","coordinates":[[18.34558,50.01963],[18.34389,50.0189]]}},{"type":"Feature","properties":{"numer":"936","klasa":"droga gĹ‚Ăłwna","kat":"wojewodzka"},"geometry":{"type":"LineString","coordinates":[[18.34558,50.01963],[18.3514,50.02014],[18.35275,50.02015],[18.35402,50.01989],[18.35673,50.01889]]}},{"type":"Feature","properties":{"numer":"5036S","klasa":"droga zbiorcza","kat":"powiatowa"},"geometry":{"type":"LineString","coordinates":[[18.34558,50.01963],[18.34548,50.01984],[18.34512,50.02016],[18.34454,50.02046],[18.344,50.02066],[18.34286,50.02086],[18.34196,50.02113],[18.34132,50.02138],[18.34066,50.02176],[18.33982,50.02236],[18.33836,50.02408]]}},{"type":"Feature","properties":{"numer":"5053S","klasa":"","kat":"powiatowa"},"geometry":{"type":"LineString","coordinates":[[18.33246,50.02491],[18.34335,50.01894]]}},{"type":"Feature","properties":{"numer":"5054S","klasa":"","kat":"powiatowa"},"geometry":{"type":"LineString","coordinates":[[18.32433,50.02287],[18.31795,50.02129]]}},{"type":"Feature","properties":{"numer":"5054S","klasa":"","kat":"powiatowa"},"geometry":{"type":"LineString","coordinates":[[18.33246,50.02491],[18.32433,50.02287]]}},{"type":"Feature","properties":{"numer":"5036S","klasa":"droga zbiorcza","kat":"powiatowa"},"geometry":{"type":"LineString","coordinates":[[18.33836,50.02408],[18.33824,50.02438],[18.33832,50.02487],[18.33809,50.02567],[18.33863,50.02687],[18.33942,50.02748],[18.33985,50.02797]]}},{"type":"Feature","properties":{"numer":"3512S","klasa":"droga zbiorcza","kat":"powiatowa"},"geometry":{"type":"LineString","coordinates":[[18.31868,50.02928],[18.32433,50.02287]]}},{"type":"Feature","properties":{"numer":"5053S","klasa":"","kat":"powiatowa"},"geometry":{"type":"LineString","coordinates":[[18.31868,50.02928],[18.31932,50.02947],[18.31977,50.02946],[18.32529,50.02817],[18.32724,50.02778],[18.33246,50.02491]]}},{"type":"Feature","properties":{"numer":"5036S","klasa":"droga zbiorcza","kat":"powiatowa"},"geometry":{"type":"LineString","coordinates":[[18.33985,50.02797],[18.34015,50.02906],[18.34047,50.02937],[18.34157,50.02969],[18.34274,50.02978],[18.3445,50.02944],[18.34512,50.02944],[18.34556,50.02968],[18.34746,50.03133]]}},{"type":"Feature","properties":{"numer":"5036S","klasa":"droga zbiorcza","kat":"powiatowa"},"geometry":{"type":"LineString","coordinates":[[18.34746,50.03133],[18.34854,50.03225],[18.3515,50.03444],[18.3522,50.0348],[18.35364,50.03537],[18.355186304351182,50.035606135147226]]}},{"type":"Feature","properties":{"numer":"3545S","klasa":"droga zbiorcza","kat":"powiatowa"},"geometry":{"type":"LineString","coordinates":[[18.32443,50.05356],[18.32443,50.05352]]}},{"type":"Feature","properties":{"numer":"3545S","klasa":"droga zbiorcza","kat":"powiatowa"},"geometry":{"type":"LineString","coordinates":[[18.32443,50.05359],[18.32443,50.05356]]}},{"type":"Feature","properties":{"numer":"3545S","klasa":"droga zbiorcza","kat":"powiatowa"},"geometry":{"type":"LineString","coordinates":[[18.30175,50.03532],[18.30154,50.0351]]}},{"type":"Feature","properties":{"numer":"3545S","klasa":"droga zbiorcza","kat":"powiatowa"},"geometry":{"type":"LineString","coordinates":[[18.30778,50.04002],[18.30707,50.0396],[18.30613,50.03859],[18.30458,50.03778],[18.30342,50.03701],[18.30202,50.03582],[18.30175,50.03532]]}},{"type":"Feature","properties":{"numer":"3545S","klasa":"droga zbiorcza","kat":"powiatowa"},"geometry":{"type":"LineString","coordinates":[[18.3083,50.0402],[18.30778,50.04002]]}},{"type":"Feature","properties":{"numer":"3545S","klasa":"droga zbiorcza","kat":"powiatowa"},"geometry":{"type":"LineString","coordinates":[[18.30878,50.04034],[18.30862,50.04021],[18.3083,50.0402]]}},{"type":"Feature","properties":{"numer":"3512S","klasa":"droga zbiorcza","kat":"powiatowa"},"geometry":{"type":"LineString","coordinates":[[18.28259,50.04931],[18.28517,50.0469],[18.28623,50.04573],[18.28838,50.04161],[18.28877,50.04112],[18.28929,50.04082],[18.29669,50.03761],[18.29939,50.03599],[18.30154,50.0351]]}},{"type":"Feature","properties":{"numer":"3544S","klasa":"droga zbiorcza","kat":"powiatowa"},"geometry":{"type":"LineString","coordinates":[[18.30778,50.04002],[18.30624,50.04089],[18.30408,50.04391],[18.30388,50.04478],[18.30434,50.04577],[18.30438,50.04632],[18.3027,50.05152]]}},{"type":"Feature","properties":{"numer":"3545S","klasa":"droga zbiorcza","kat":"powiatowa"},"geometry":{"type":"LineString","coordinates":[[18.32443,50.05352],[18.32451,50.05261],[18.32398,50.0516],[18.32368,50.05134],[18.32279,50.0509],[18.31945,50.04874],[18.31875,50.04784],[18.31862,50.04727],[18.31845,50.04697],[18.31716,50.04519],[18.31297,50.04238],[18.31026,50.04104],[18.30952,50.04077],[18.30878,50.04034]]}},{"type":"Feature","properties":{"numer":"3512S","klasa":"droga zbiorcza","kat":"powiatowa"},"geometry":{"type":"LineString","coordinates":[[18.282565312225156,50.04933116094987],[18.28259,50.04931]]}},{"type":"Feature","properties":{"numer":"3544S","klasa":"droga zbiorcza","kat":"powiatowa"},"geometry":{"type":"LineString","coordinates":[[18.302693746982133,50.051532506035734],[18.3027,50.05152]]}},{"type":"Feature","properties":{"numer":"3544S","klasa":"droga zbiorcza","kat":"powiatowa"},"geometry":{"type":"LineString","coordinates":[[18.302695525887174,50.05153246360002],[18.3027,50.05152]]}},{"type":"Feature","properties":{"numer":"3545S","klasa":"droga zbiorcza","kat":"powiatowa"},"geometry":{"type":"LineString","coordinates":[[18.32443921980198,50.053593421782175],[18.32443,50.05356]]}}]}