{"type":"FeatureCollection","features":[{"type":"Feature","properties":{"numer":"1435S","klasa":"droga gĹ‚Ăłwna","kat":"powiatowa"},"geometry":{"type":"LineString","coordinates":[[19.09957,49.57425],[19.09651,49.57258],[19.09457,49.5711],[19.093493941813893,49.57044433730596]]}},{"type":"Feature","properties":{"numer":"1435S","klasa":"droga gĹ‚Ăłwna","kat":"powiatowa"},"geometry":{"type":"LineString","coordinates":[[19.0997,49.57432],[19.09957,49.57425]]}},{"type":"Feature","properties":{"numer":"1434S","klasa":"droga zbiorcza","kat":"powiatowa"},"geometry":{"type":"LineString","coordinates":[[19.19459,49.55275],[19.19466,49.5532]]}},{"type":"Feature","properties":{"numer":"1434S","klasa":"droga zbiorcza","kat":"powiatowa"},"geometry":{"type":"LineString","coordinates":[[19.19466,49.5532],[19.19468,49.55335]]}},{"type":"Feature","properties":{"numer":"1434S","klasa":"droga zbiorcza","kat":"powiatowa"},"geometry":{"type":"LineString","coordinates":[[19.19331,49.55466],[19.19373,49.55417],[19.19449,49.55367],[19.19472,49.55343],[19.19468,49.55335]]}},{"type":"Feature","properties":{"numer":"1434S","klasa":"droga zbiorcza","kat":"powiatowa"},"geometry":{"type":"LineString","coordinates":[[19.19325,49.55475],[19.19331,49.55466]]}},{"type":"Feature","properties":{"numer":"1434S","klasa":"droga zbiorcza","kat":"powiatowa"},"geometry":{"type":"LineString","coordinates":[[19.188,49.55971],[19.18801,49.55901],[19.18815,49.55873],[19.18912,49.55828],[19.19078,49.55716],[19.19137,49.55659],[19.19249,49.55577],[19.19325,49.55475]]}},{"type":"Feature","properties":{"numer":"1434S","klasa":"droga zbiorcza","kat":"powiatowa"},"geometry":{"type":"LineString","coordinates":[[19.16974,49.5706],[19.1714,49.56934],[19.17265,49.5691],[19.17375,49.56867],[19.17578,49.56804],[19.17626,49.56773],[19.17806,49.56608],[19.17983,49.56487],[19.18102,49.5637],[19.18337,49.56274],[19.18386,49.5624],[19.18498,49.56186],[19.18572,49.56163]]}},{"type":"Feature","properties":{"numer":"1434S","klasa":"droga zbiorcza","kat":"powiatowa"},"geometry":{"type":"LineString","coordinates":[[19.16968,49.57064],[19.16974,49.5706]]}},{"type":"Feature","properties":{"numer":"1434S","klasa":"droga zbiorcza","kat":"powiatowa"},"geometry":{"type":"LineString","coordinates":[[19.16221,49.57671],[19.16392,49.5757],[19.16509,49.57515],[19.16527,49.57482],[19.16508,49.57403],[19.16517,49.57379],[19.16625,49.57321],[19.16787,49.57208],[19.16851,49.57138],[19.16968,49.57064]]}},{"type":"Feature","properties":{"numer":"1434S","klasa":"droga zbiorcza","kat":"powiatowa"},"geometry":{"type":"LineString","coordinates":[[19.16207,49.57689],[19.16221,49.57671]]}},{"type":"Feature","properties":{"numer":"1434S","klasa":"droga zbiorcza","kat":"powiatowa"},"geometry":{"type":"LineString","coordinates":[[19.15899,49.57897],[19.16038,49.57836],[19.16103,49.57758],[19.16207,49.57689]]}},{"type":"Feature","properties":{"numer":"1434S,596195S","klasa":"droga zbiorcza","kat":"powiatowa"},"geometry":{"type":"LineString","coordinates":[[19.1589,49.57901],[19.15899,49.57897]]}},{"type":"Feature","properties":{"numer":"1434S","klasa":"droga zbiorcza","kat":"powiatowa"},"geometry":{"type":"LineString","coordinates":[[19.14585,49.58362],[19.1472,49.58352],[19.1502,49.58344],[19.15337,49.58252],[19.15494,49.58189],[19.1555,49.58145],[19.15644,49.58043],[19.1589,49.57901]]}},{"type":"Feature","properties":{"numer":"1434S","klasa":"droga zbiorcza","kat":"powiatowa"},"geometry":{"type":"LineString","coordinates":[[19.14542,49.58366],[19.14585,49.58362]]}},{"type":"Feature","properties":{"numer":"1434S","klasa":"droga zbiorcza","kat":"powiatowa"},"geometry":{"type":"LineString","coordinates":[[19.13571,49.58686],[19.13617,49.58644],[19.13851,49.5855],[19.13979,49.58519],[19.14083,49.58474],[19.1421,49.58456],[19.14325,49.58411],[19.14423,49.58381],[19.14542,49.58366]]}},{"type":"Feature","properties":{"numer":"1434S","klasa":"droga zbiorcza","kat":"powiatowa"},"geometry":{"type":"LineString","coordinates":[[19.1356,49.58703],[19.13571,49.58686]]}},{"type":"Feature","properties":{"numer":"1434S","klasa":"droga zbiorcza","kat":"powiatowa"},"geometry":{"type":"LineString","coordinates":[[19.11456,49.6028],[19.11632,49.60191],[19.11698,49.60186],[19.11807,49.60206],[19.11848,49.60198],[19.11876,49.60174],[19.12241,49.59738],[19.1224,49.59706],[19.1215,49.59578],[19.12153,49.59554],[19.12177,49.59524],[19.12422,49.59393],[19.12766,49.59161],[19.12991,49.59051],[19.13107,49.58971],[19.1341,49.58845],[19.1356,49.58703]]}},{"type":"Feature","properties":{"numer":"1433S","klasa":"droga zbiorcza","kat":"powiatowa"},"geometry":{"type":"LineString","coordinates":[[19.141,49.60237],[19.14151,49.60169],[19.1415,49.601],[19.14177,49.60049],[19.14194,49.59975],[19.14234,49.59914],[19.14236,49.59781],[19.14272,49.59694],[19.14295,49.59597],[19.14471,49.59391],[19.14628,49.59292],[19.14772,49.5923],[19.14894,49.59225],[19.15096,49.59255]]}},{"type":"Feature","properties":{"numer":"1433S","klasa":"droga zbiorcza","kat":"powiatowa"},"geometry":{"type":"LineString","coordinates":[[19.14103,49.6025],[19.141,49.60237]]}},{"type":"Feature","properties":{"numer":"1433S","klasa":"droga zbiorcza","kat":"powiatowa"},"geometry":{"type":"LineString","coordinates":[[19.13693,49.61061],[19.13767,49.61021],[19.1379,49.60945],[19.13769,49.60816],[19.13747,49.60765],[19.13842,49.6071],[19.13862,49.60688],[19.13887,49.60625],[19.13952,49.6054],[19.14015,49.60498],[19.14059,49.60444],[19.14118,49.60406],[19.1414,49.60381],[19.14143,49.60347],[19.14103,49.6025]]}},{"type":"Feature","properties":{"numer":"1435S","klasa":"droga gĹ‚Ăłwna","kat":"powiatowa"},"geometry":{"type":"LineString","coordinates":[[19.12305,49.60839],[19.12311,49.60845]]}},{"type":"Feature","properties":{"numer":"1433S,596040S","klasa":"droga zbiorcza","kat":"powiatowa"},"geometry":{"type":"LineString","coordinates":[[19.13685,49.61066],[19.13693,49.61061]]}},{"type":"Feature","properties":{"numer":"1434S","klasa":"droga zbiorcza","kat":"powiatowa"},"geometry":{"type":"LineString","coordinates":[[19.18796,49.55981],[19.188,49.55971]]}},{"type":"Feature","properties":{"numer":"1434S","klasa":"droga zbiorcza","kat":"powiatowa"},"geometry":{"type":"LineString","coordinates":[[19.18588,49.56159],[19.18755,49.56075],[19.18796,49.55981]]}},{"type":"Feature","properties":{"numer":"1434S","klasa":"droga zbiorcza","kat":"powiatowa"},"geometry":{"type":"LineString","coordinates":[[19.18572,49.56163],[19.18588,49.56159]]}},{"type":"Feature","properties":{"numer":"1435S","klasa":"droga gĹ‚Ăłwna","kat":"powiatowa"},"geometry":{"type":"LineString","coordinates":[[19.11423,49.60315],[19.11414,49.60307]]}},{"type":"Feature","properties":{"numer":"1435S","klasa":"droga gĹ‚Ăłwna","kat":"powiatowa"},"geometry":{"type":"LineString","coordinates":[[19.11454,49.6034],[19.11423,49.60315]]}},{"type":"Feature","properties":{"numer":"1435S","klasa":"droga gĹ‚Ăłwna","kat":"powiatowa"},"geometry":{"type":"LineString","coordinates":[[19.11529,49.60433],[19.11454,49.6034]]}},{"type":"Feature","properties":{"numer":"1435S","klasa":"droga gĹ‚Ăłwna","kat":"powiatowa"},"geometry":{"type":"LineString","coordinates":[[19.11622,49.60636],[19.11529,49.60433]]}},{"type":"Feature","properties":{"numer":"1","klasa":"","kat":"krajowa"},"geometry":{"type":"LineString","coordinates":[[19.10501,49.60241],[19.10558,49.60333],[19.10556,49.60376],[19.10531,49.60417],[19.10516,49.60499],[19.10577,49.60614],[19.10683,49.60717],[19.10959,49.60893],[19.11107,49.60938]]}},{"type":"Feature","properties":{"numer":"1435S","klasa":"droga gĹ‚Ăłwna","kat":"powiatowa"},"geometry":{"type":"LineString","coordinates":[[19.11624,49.60641],[19.11622,49.60636]]}},{"type":"Feature","properties":{"numer":"1435S","klasa":"droga gĹ‚Ăłwna","kat":"powiatowa"},"geometry":{"type":"LineString","coordinates":[[19.11624,49.60641],[19.11628,49.60649],[19.11667,49.60652],[19.1184,49.60639],[19.11974,49.60601],[19.12028,49.60599],[19.12305,49.60839]]}},{"type":"Feature","properties":{"numer":"1","klasa":"","kat":"krajowa"},"geometry":{"type":"LineString","coordinates":[[19.11107,49.60938],[19.11112,49.6094]]}},{"type":"Feature","properties":{"numer":"1","klasa":"","kat":"krajowa"},"geometry":{"type":"LineString","coordinates":[[19.11112,49.6094],[19.11179,49.60947],[19.11392,49.60932],[19.11543,49.60947],[19.11628,49.60967]]}},{"type":"Feature","properties":{"numer":"S1","klasa":"droga ekspresowa","kat":"krajowa"},"geometry":{"type":"LineString","coordinates":[[19.1133,49.61349],[19.11468,49.61447]]}},{"type":"Feature","properties":{"numer":"1433S","klasa":"droga zbiorcza","kat":"powiatowa"},"geometry":{"type":"LineString","coordinates":[[19.15096,49.59255],[19.15115,49.5926]]}},{"type":"Feature","properties":{"numer":"1433S","klasa":"droga zbiorcza","kat":"powiatowa"},"geometry":{"type":"LineString","coordinates":[[19.15115,49.5926],[19.15348,49.59337],[19.15495,49.59362],[19.15963,49.59382],[19.16438,49.59419],[19.16685,49.59414],[19.16795,49.59431],[19.16859,49.5946],[19.16902,49.59457],[19.17087,49.59377]]}},{"type":"Feature","properties":{"numer":"1432S","klasa":"droga zbiorcza","kat":"powiatowa"},"geometry":{"type":"LineString","coordinates":[[19.146,49.62108],[19.15198,49.62234],[19.15274,49.62232],[19.15446,49.62281],[19.156710631152762,49.62325251310192]]}},{"type":"Feature","properties":{"numer":"1435S","klasa":"droga gĹ‚Ăłwna","kat":"powiatowa"},"geometry":{"type":"LineString","coordinates":[[19.14889,49.62477],[19.14869,49.6242]]}},{"type":"Feature","properties":{"numer":"1435S","klasa":"droga gĹ‚Ăłwna","kat":"powiatowa"},"geometry":{"type":"LineString","coordinates":[[19.14889,49.62477],[19.148889214129483,49.62477570483785]]}},{"type":"Feature","properties":{"numer":"S1","klasa":"droga ekspresowa","kat":"krajowa"},"geometry":{"type":"LineString","coordinates":[[19.14938,49.62875],[19.148526811989097,49.62870029972752]]}},{"type":"Feature","properties":{"numer":"1433S","klasa":"droga zbiorcza","kat":"powiatowa"},"geometry":{"type":"LineString","coordinates":[[19.13683,49.61329],[19.13685,49.61307],[19.1363,49.61247],[19.13616,49.6119],[19.13685,49.61066]]}},{"type":"Feature","properties":{"numer":"1435S","klasa":"droga gĹ‚Ăłwna","kat":"powiatowa"},"geometry":{"type":"LineString","coordinates":[[19.12311,49.60845],[19.12559,49.61068],[19.12658,49.61197],[19.12707,49.61245],[19.13179,49.61613],[19.13246,49.61647],[19.13372,49.61679],[19.1355,49.61679],[19.13734,49.61688],[19.13762,49.61696]]}},{"type":"Feature","properties":{"numer":"1433S","klasa":"droga zbiorcza","kat":"powiatowa"},"geometry":{"type":"LineString","coordinates":[[19.13678,49.61336],[19.13683,49.61329]]}},{"type":"Feature","properties":{"numer":"1","klasa":"droga gĹ‚Ăłwna ruchu przyĹ›pieszonego","kat":"krajowa"},"geometry":{"type":"LineString","coordinates":[[19.12779,49.61959],[19.12679,49.61841],[19.12392,49.61623],[19.11674,49.61036],[19.11636,49.61001],[19.11628,49.60967]]}},{"type":"Feature","properties":{"numer":"1433S","klasa":"droga zbiorcza","kat":"powiatowa"},"geometry":{"type":"LineString","coordinates":[[19.13762,49.61696],[19.13748,49.61633],[19.13696,49.61605],[19.13707,49.61546],[19.13637,49.61429],[19.1364,49.61403],[19.13678,49.61336]]}},{"type":"Feature","properties":{"numer":"1435S","klasa":"droga gĹ‚Ăłwna","kat":"powiatowa"},"geometry":{"type":"LineString","coordinates":[[19.13762,49.61696],[19.13863,49.61762],[19.13981,49.61815],[19.14073,49.61867],[19.14368,49.62089]]}},{"type":"Feature","properties":{"numer":"1","klasa":"droga gĹ‚Ăłwna ruchu przyĹ›pieszonego","kat":"krajowa"},"geometry":{"type":"LineString","coordinates":[[19.12781,49.61961],[19.12779,49.61959]]}},{"type":"Feature","properties":{"numer":"1432S","klasa":"droga zbiorcza","kat":"powiatowa"},"geometry":{"type":"LineString","coordinates":[[19.14453,49.62085],[19.14471,49.62084]]}},{"type":"Feature","properties":{"numer":"1432S","klasa":"droga zbiorcza","kat":"powiatowa"},"geometry":{"type":"LineString","coordinates":[[19.14368,49.62089],[19.14453,49.62085]]}},{"type":"Feature","properties":{"numer":"1432S","klasa":"droga zbiorcza","kat":"powiatowa"},"geometry":{"type":"LineString","coordinates":[[19.14471,49.62084],[19.14594,49.62107]]}},{"type":"Feature","properties":{"numer":"S1","klasa":"droga ekspresowa","kat":"krajowa"},"geometry":{"type":"LineString","coordinates":[[19.11957,49.61825],[19.12258,49.62039],[19.12843,49.62385]]}},{"type":"Feature","properties":{"numer":"1432S","klasa":"droga zbiorcza","kat":"powiatowa"},"geometry":{"type":"LineString","coordinates":[[19.14594,49.62107],[19.146,49.62108]]}},{"type":"Feature","properties":{"numer":"1","klasa":"droga gĹ‚Ăłwna ruchu przyĹ›pieszonego","kat":"krajowa"},"geometry":{"type":"LineString","coordinates":[[19.133015573770493,49.62327365126677],[19.13284,49.62313],[19.13256835133865,49.62268228276185]]}},{"type":"Feature","properties":{"numer":"1","klasa":"droga gĹ‚Ăłwna ruchu przyĹ›pieszonego","kat":"krajowa"},"geometry":{"type":"LineString","coordinates":[[19.127898703037573,49.61968652811085],[19.12781,49.61961]]}},{"type":"Feature","properties":{"numer":"1435S","klasa":"droga gĹ‚Ăłwna","kat":"powiatowa"},"geometry":{"type":"LineString","coordinates":[[19.14368,49.62089],[19.14687,49.62328],[19.14734,49.62354],[19.14851,49.62395],[19.14869,49.6242]]}},{"type":"Feature","properties":{"numer":"S1","klasa":"droga ekspresowa","kat":"krajowa"},"geometry":{"type":"LineString","coordinates":[[19.12843,49.62385],[19.13112,49.62536],[19.13399878312669,49.626561916187576]]}},{"type":"Feature","properties":{"numer":"S1","klasa":"droga ekspresowa","kat":"krajowa"},"geometry":{"type":"LineString","coordinates":[[19.14954411733333,49.62877177066667],[19.14938,49.62875]]}},{"type":"Feature","properties":{"numer":"1435S","klasa":"droga gĹ‚Ăłwna","kat":"powiatowa"},"geometry":{"type":"LineString","coordinates":[[19.10147,49.57761],[19.10115,49.57539],[19.10068,49.57485],[19.0997,49.57432]]}},{"type":"Feature","properties":{"numer":"1435S","klasa":"droga gĹ‚Ăłwna","kat":"powiatowa"},"geometry":{"type":"LineString","coordinates":[[19.10149,49.57766],[19.10147,49.57761]]}},{"type":"Feature","properties":{"numer":"1435S","klasa":"droga gĹ‚Ăłwna","kat":"powiatowa"},"geometry":{"type":"LineString","coordinates":[[19.10336,49.58756],[19.10326,49.58723],[19.10327,49.58614],[19.10312,49.58547],[19.1009,49.58125],[19.10097,49.58056],[19.10154,49.57904],[19.10158,49.57806],[19.10149,49.57766]]}},{"type":"Feature","properties":{"numer":"1436S","klasa":"","kat":"powiatowa"},"geometry":{"type":"LineString","coordinates":[[19.10029,49.58808],[19.10336,49.58756]]}},{"type":"Feature","properties":{"numer":"1","klasa":"","kat":"krajowa"},"geometry":{"type":"LineString","coordinates":[[19.09455,49.58802],[19.09457,49.58806]]}},{"type":"Feature","properties":{"numer":"1436S","klasa":"","kat":"powiatowa"},"geometry":{"type":"LineString","coordinates":[[19.09872,49.58835],[19.10029,49.58808]]}},{"type":"Feature","properties":{"numer":"1","klasa":"","kat":"krajowa"},"geometry":{"type":"LineString","coordinates":[[19.09457,49.58806],[19.09469,49.5883],[19.09494,49.58849],[19.09567,49.58891]]}},{"type":"Feature","properties":{"numer":"1436S","klasa":"","kat":"powiatowa"},"geometry":{"type":"LineString","coordinates":[[19.09567,49.58891],[19.09872,49.58835]]}},{"type":"Feature","properties":{"numer":"1435S","klasa":"droga gĹ‚Ăłwna","kat":"powiatowa"},"geometry":{"type":"LineString","coordinates":[[19.11078,49.60074],[19.10786,49.59826],[19.10722,49.59617],[19.1073,49.59503],[19.10714,49.59432],[19.10737,49.59305],[19.10707,49.59173],[19.10496,49.58917],[19.10408,49.58841],[19.10336,49.58756]]}},{"type":"Feature","properties":{"numer":"1","klasa":"","kat":"krajowa"},"geometry":{"type":"LineString","coordinates":[[19.09567,49.58891],[19.09676,49.58985],[19.09775,49.59128],[19.09809,49.59213],[19.09828,49.59393],[19.09842,49.59434],[19.10169,49.59964],[19.102,49.59998]]}},{"type":"Feature","properties":{"numer":"S1","klasa":"droga ekspresowa","kat":"krajowa"},"geometry":{"type":"LineString","coordinates":[[19.08502,49.57623],[19.08559,49.57787],[19.08617,49.58068],[19.08684,49.58273],[19.08767,49.58454],[19.08852,49.58605],[19.08929,49.58723],[19.09039,49.5885],[19.09816,49.59841],[19.09973,49.60102],[19.10071,49.60327],[19.10166,49.60601],[19.10261,49.60741],[19.10398,49.60877],[19.10606,49.61021],[19.10736,49.61083],[19.1118,49.61265],[19.1133,49.61349]]}},{"type":"Feature","properties":{"numer":"1","klasa":"","kat":"krajowa"},"geometry":{"type":"LineString","coordinates":[[19.102,49.59998],[19.10204,49.60001]]}},{"type":"Feature","properties":{"numer":"1435S","klasa":"droga gĹ‚Ăłwna","kat":"powiatowa"},"geometry":{"type":"LineString","coordinates":[[19.111,49.60095],[19.11078,49.60074]]}},{"type":"Feature","properties":{"numer":"1","klasa":"","kat":"krajowa"},"geometry":{"type":"LineString","coordinates":[[19.10204,49.60001],[19.10421,49.60164],[19.10495,49.60235]]}},{"type":"Feature","properties":{"numer":"1435S","klasa":"droga gĹ‚Ăłwna","kat":"powiatowa"},"geometry":{"type":"LineString","coordinates":[[19.11373,49.60276],[19.11183,49.60169],[19.111,49.60095]]}},{"type":"Feature","properties":{"numer":"1","klasa":"","kat":"krajowa"},"geometry":{"type":"LineString","coordinates":[[19.10495,49.60235],[19.10501,49.60241]]}},{"type":"Feature","properties":{"numer":"1435S","klasa":"droga gĹ‚Ăłwna","kat":"powiatowa"},"geometry":{"type":"LineString","coordinates":[[19.11406,49.603],[19.11373,49.60276]]}},{"type":"Feature","properties":{"numer":"1434S","klasa":"droga zbiorcza","kat":"powiatowa"},"geometry":{"type":"LineString","coordinates":[[19.11422,49.603],[19.11456,49.6028]]}},{"type":"Feature","properties":{"numer":"1435S","klasa":"droga gĹ‚Ăłwna","kat":"powiatowa"},"geometry":{"type":"LineString","coordinates":[[19.11414,49.60307],[19.11406,49.603]]}},{"type":"Feature","properties":{"numer":"1434S","klasa":"droga zbiorcza","kat":"powiatowa"},"geometry":{"type":"LineString","coordinates":[[19.11414,49.60307],[19.11422,49.603]]}},{"type":"Feature","properties":{"numer":"S1","klasa":"droga ekspresowa","kat":"krajowa"},"geometry":{"type":"LineString","coordinates":[[19.08429,49.573],[19.08403240163326,49.57180083518931]]}},{"type":"Feature","properties":{"numer":"S1","klasa":"droga ekspresowa","kat":"krajowa"},"geometry":{"type":"LineString","coordinates":[[19.08471,49.57498],[19.08429,49.573]]}},{"type":"Feature","properties":{"numer":"S1","klasa":"droga ekspresowa","kat":"krajowa"},"geometry":{"type":"LineString","coordinates":[[19.08471,49.57498],[19.08502,49.57623]]}},{"type":"Feature","properties":{"numer":"1","klasa":"","kat":"krajowa"},"geometry":{"type":"LineString","coordinates":[[19.08722405363286,49.57161019759475],[19.0873,49.57189],[19.08731,49.57238],[19.08814,49.57375],[19.08888,49.5745],[19.08994,49.57664],[19.09145,49.58079],[19.09303,49.58393],[19.09321,49.58473],[19.09323,49.58562],[19.09427,49.58733],[19.09455,49.58802]]}},{"type":"Feature","properties":{"numer":"S1","klasa":"droga ekspresowa","kat":"krajowa"},"geometry":{"type":"LineString","coordinates":[[19.11468,49.61447],[19.11526,49.61492]]}},{"type":"Feature","properties":{"numer":"S1","klasa":"droga ekspresowa","kat":"krajowa"},"geometry":{"type":"LineString","coordinates":[[19.11526,49.61492],[19.11957,49.61825]]}}]}