{"type":"FeatureCollection","features":[{"type":"Feature","properties":{"numer":"E462,E75,S1","klasa":"droga ekspresowa","kat":"krajowa"},"geometry":{"type":"LineString","coordinates":[[19.13406,50.15584],[19.126900704180212,50.155042553683444]]}},{"type":"Feature","properties":{"numer":"E462,E75,S1","klasa":"droga ekspresowa","kat":"krajowa"},"geometry":{"type":"LineString","coordinates":[[19.13507,50.15594],[19.13406,50.15584]]}},{"type":"Feature","properties":{"numer":"E462,E75,S1","klasa":"droga ekspresowa","kat":"krajowa"},"geometry":{"type":"LineString","coordinates":[[19.135698591006424,50.1560073490364],[19.13507,50.15594]]}},{"type":"Feature","properties":{"numer":"S1","klasa":"droga ekspresowa","kat":"krajowa"},"geometry":{"type":"LineString","coordinates":[[19.149798759280646,50.1589958554694],[19.1498,50.159]]}},{"type":"Feature","properties":{"numer":"934","klasa":"droga gĹ‚Ăłwna","kat":"wojewodzka"},"geometry":{"type":"LineString","coordinates":[[19.17696722144522,50.15864441465941],[19.17692,50.15871]]}},{"type":"Feature","properties":{"numer":"5916S","klasa":"droga zbiorcza","kat":"powiatowa"},"geometry":{"type":"LineString","coordinates":[[19.17692,50.15871],[19.17724,50.15885]]}},{"type":"Feature","properties":{"numer":"5916S","klasa":"droga zbiorcza","kat":"powiatowa"},"geometry":{"type":"LineString","coordinates":[[19.17729822202949,50.158820888985254],[19.17724,50.15885]]}},{"type":"Feature","properties":{"numer":"5916S","klasa":"droga zbiorcza","kat":"powiatowa"},"geometry":{"type":"LineString","coordinates":[[19.177516274461233,50.15893714453802],[19.17756,50.159]]}},{"type":"Feature","properties":{"numer":"5916S","klasa":"droga zbiorcza","kat":"powiatowa"},"geometry":{"type":"LineString","coordinates":[[19.17724,50.15885],[19.17756,50.159]]}},{"type":"Feature","properties":{"numer":"E462,E75,S1","klasa":"droga ekspresowa","kat":"krajowa"},"geometry":{"type":"LineString","coordinates":[[19.16288,50.16822],[19.15924,50.16696],[19.157,50.16593],[19.15603,50.16533],[19.15459,50.16422],[19.149597044220577,50.15980847899711]]}},{"type":"Feature","properties":{"numer":"5916S","klasa":"droga zbiorcza","kat":"powiatowa"},"geometry":{"type":"LineString","coordinates":[[19.17756,50.159],[19.18371,50.16223],[19.1849774894341,50.1626496417721]]}},{"type":"Feature","properties":{"numer":"A4,E40,E462","klasa":"autostrada","kat":"krajowa"},"geometry":{"type":"LineString","coordinates":[[19.19683,50.18124],[19.20049,50.17849],[19.228813503907755,50.15939935985832]]}},{"type":"Feature","properties":{"numer":"8800S","klasa":"droga zbiorcza","kat":"powiatowa"},"geometry":{"type":"LineString","coordinates":[[19.19655,50.18148],[19.20192,50.18051],[19.2026,50.18045],[19.2029,50.18048],[19.20351,50.18072],[19.20514,50.18178],[19.20551,50.18187],[19.20597,50.18182],[19.20805,50.18103],[19.20852,50.18049],[19.21035,50.17972],[19.21096,50.17919],[19.21234,50.17862],[19.21275,50.17824],[19.2148,50.17769],[19.2184,50.17608],[19.21968,50.17543],[19.22067,50.17474],[19.2228,50.17377],[19.22336,50.17356],[19.22652,50.17288],[19.22771,50.17239],[19.22861,50.1718],[19.22916,50.17116],[19.23012,50.16948],[19.2304,50.1676],[19.23274,50.16438],[19.23488,50.16186],[19.2353,50.16143],[19.2357,50.1612],[19.23619,50.16113],[19.23777,50.16111],[19.2381,50.16102]]}},{"type":"Feature","properties":{"numer":"A4,E40,E462","klasa":"autostrada","kat":"krajowa"},"geometry":{"type":"LineString","coordinates":[[19.19655,50.18148],[19.19683,50.18124]]}},{"type":"Feature","properties":{"numer":"5914S","klasa":"droga zbiorcza","kat":"powiatowa"},"geometry":{"type":"LineString","coordinates":[[19.11689,50.15742],[19.11649,50.15706],[19.116475766164747,50.15697459698849]]}},{"type":"Feature","properties":{"numer":"5914S","klasa":"droga zbiorcza","kat":"powiatowa"},"geometry":{"type":"LineString","coordinates":[[19.11703,50.17092],[19.11739,50.17069],[19.11789,50.16982],[19.11818,50.16906],[19.11823,50.16809],[19.11838,50.16757],[19.11906,50.16623],[19.11926,50.16561],[19.11943,50.16371],[19.1192,50.16284],[19.11902,50.1614],[19.11922,50.1606],[19.11962,50.15984],[19.11965,50.15951],[19.11954,50.15906],[19.11924,50.15872],[19.11751,50.15801],[19.11715,50.15772]]}},{"type":"Feature","properties":{"numer":"5914S","klasa":"droga zbiorcza","kat":"powiatowa"},"geometry":{"type":"LineString","coordinates":[[19.1093,50.17957],[19.11031,50.1778],[19.11016,50.17758],[19.10943,50.1771],[19.10938,50.17689],[19.11017,50.17581],[19.11054,50.17475],[19.11126,50.17375],[19.11191,50.17326],[19.11477,50.17226],[19.11703,50.17092]]}},{"type":"Feature","properties":{"numer":"8812S","klasa":"droga zbiorcza","kat":"powiatowa"},"geometry":{"type":"LineString","coordinates":[[19.12731,50.17856],[19.12297,50.17732],[19.12199,50.17722],[19.11912,50.17757],[19.11573,50.17849],[19.11299,50.17911],[19.1093,50.17957]]}},{"type":"Feature","properties":{"numer":"6454S","klasa":"droga zbiorcza","kat":"powiatowa"},"geometry":{"type":"LineString","coordinates":[[19.071585344862143,50.2035504850116],[19.0721,50.20373]]}},{"type":"Feature","properties":{"numer":"240209S","klasa":"droga zbiorcza","kat":"powiatowa"},"geometry":{"type":"LineString","coordinates":[[19.0721,50.20373],[19.07326,50.20416]]}},{"type":"Feature","properties":{"numer":"240209S","klasa":"droga zbiorcza","kat":"powiatowa"},"geometry":{"type":"LineString","coordinates":[[19.07326,50.20416],[19.07429,50.20489]]}},{"type":"Feature","properties":{"numer":"240209S","klasa":"droga zbiorcza","kat":"powiatowa"},"geometry":{"type":"LineString","coordinates":[[19.07429,50.20489],[19.07465,50.20508]]}},{"type":"Feature","properties":{"numer":"5914S","klasa":"droga zbiorcza","kat":"powiatowa"},"geometry":{"type":"LineString","coordinates":[[19.10356,50.18443],[19.10448,50.18416],[19.10555,50.18417],[19.10581,50.18409],[19.10738,50.18285],[19.1093,50.17957]]}},{"type":"Feature","properties":{"numer":"8801S","klasa":"droga zbiorcza","kat":"powiatowa"},"geometry":{"type":"LineString","coordinates":[[19.10356,50.18443],[19.100395240972713,50.182691744295454]]}},{"type":"Feature","properties":{"numer":"8801S","klasa":"droga zbiorcza","kat":"powiatowa"},"geometry":{"type":"LineString","coordinates":[[19.11431,50.19146],[19.11318,50.19099],[19.11209,50.19032],[19.11118,50.18998],[19.10973,50.18981],[19.10817,50.18989],[19.10691,50.18986],[19.10287,50.18917],[19.10282,50.18856],[19.10299,50.18734],[19.10356,50.18443]]}},{"type":"Feature","properties":{"numer":"8801S","klasa":"droga zbiorcza","kat":"powiatowa"},"geometry":{"type":"LineString","coordinates":[[19.11475,50.19172],[19.11431,50.19146]]}},{"type":"Feature","properties":{"numer":"8800S","klasa":"","kat":"powiatowa"},"geometry":{"type":"LineString","coordinates":[[19.11475,50.19172],[19.11535,50.19166]]}},{"type":"Feature","properties":{"numer":"240209S,8801S","klasa":"droga zbiorcza","kat":"powiatowa"},"geometry":{"type":"LineString","coordinates":[[19.11436,50.19203],[19.11475,50.19172]]}},{"type":"Feature","properties":{"numer":"240209S,8801S","klasa":"droga zbiorcza","kat":"powiatowa"},"geometry":{"type":"LineString","coordinates":[[19.11426,50.1922],[19.11436,50.19203]]}},{"type":"Feature","properties":{"numer":"240209S,8801S","klasa":"droga zbiorcza","kat":"powiatowa"},"geometry":{"type":"LineString","coordinates":[[19.11341,50.19361],[19.11366,50.19337],[19.11426,50.1922]]}},{"type":"Feature","properties":{"numer":"240209S,8801S","klasa":"droga zbiorcza","kat":"powiatowa"},"geometry":{"type":"LineString","coordinates":[[19.11282,50.19495],[19.11306,50.19406],[19.11341,50.19361]]}},{"type":"Feature","properties":{"numer":"5918S","klasa":"droga zbiorcza","kat":"powiatowa"},"geometry":{"type":"LineString","coordinates":[[19.23510934906196,50.15860564809551],[19.23678,50.16026],[19.2381,50.16102]]}},{"type":"Feature","properties":{"numer":"8800S","klasa":"droga zbiorcza","kat":"powiatowa"},"geometry":{"type":"LineString","coordinates":[[19.2381,50.16102],[19.23888,50.16132]]}},{"type":"Feature","properties":{"numer":"6805S","klasa":"droga zbiorcza","kat":"powiatowa"},"geometry":{"type":"LineString","coordinates":[[19.23925,50.16152],[19.23888,50.16132]]}},{"type":"Feature","properties":{"numer":"6805S","klasa":"droga zbiorcza","kat":"powiatowa"},"geometry":{"type":"LineString","coordinates":[[19.240078918322293,50.16215836238614],[19.23925,50.16152]]}},{"type":"Feature","properties":{"numer":"8803S","klasa":"droga zbiorcza","kat":"powiatowa"},"geometry":{"type":"LineString","coordinates":[[19.14109143574499,50.15790622794847],[19.14112,50.15792],[19.14953,50.16086],[19.15071,50.16139],[19.15166,50.162],[19.15552,50.16532],[19.15623,50.16612],[19.15663,50.16683],[19.15681,50.16747],[19.15703,50.17022]]}},{"type":"Feature","properties":{"numer":"934","klasa":"droga gĹ‚Ăłwna","kat":"wojewodzka"},"geometry":{"type":"LineString","coordinates":[[19.17692,50.15871],[19.17128,50.16744],[19.1703,50.16864],[19.16897,50.17093]]}},{"type":"Feature","properties":{"numer":"E462,E75,S1","klasa":"droga ekspresowa","kat":"krajowa"},"geometry":{"type":"LineString","coordinates":[[19.16877,50.1713],[19.16808,50.17054],[19.16713,50.16985],[19.16601,50.16932],[19.16288,50.16822]]}},{"type":"Feature","properties":{"numer":"934","klasa":"droga gĹ‚Ăłwna","kat":"wojewodzka"},"geometry":{"type":"LineString","coordinates":[[19.16897,50.17093],[19.16877,50.1713]]}},{"type":"Feature","properties":{"numer":"8803S","klasa":"droga zbiorcza","kat":"powiatowa"},"geometry":{"type":"LineString","coordinates":[[19.15703,50.17022],[19.15735,50.17474],[19.15714,50.17547],[19.15624,50.17695],[19.15586,50.17928],[19.15596,50.1798],[19.15643,50.18077]]}},{"type":"Feature","properties":{"numer":"E462,E75,S1","klasa":"droga ekspresowa","kat":"krajowa"},"geometry":{"type":"LineString","coordinates":[[19.1675,50.18228],[19.16937,50.17362],[19.16932,50.17243],[19.16877,50.1713]]}},{"type":"Feature","properties":{"numer":"8803S","klasa":"droga zbiorcza","kat":"powiatowa"},"geometry":{"type":"LineString","coordinates":[[19.15643,50.18077],[19.15655,50.1812]]}},{"type":"Feature","properties":{"numer":"8800S","klasa":"","kat":"powiatowa"},"geometry":{"type":"LineString","coordinates":[[19.15595,50.18124],[19.15655,50.1812]]}},{"type":"Feature","properties":{"numer":"8800S,8803S","klasa":"droga zbiorcza","kat":"powiatowa"},"geometry":{"type":"LineString","coordinates":[[19.15655,50.1812],[19.15711,50.18141]]}},{"type":"Feature","properties":{"numer":"8800S","klasa":"droga zbiorcza","kat":"powiatowa"},"geometry":{"type":"LineString","coordinates":[[19.1675,50.18228],[19.16801,50.18219]]}},{"type":"Feature","properties":{"numer":"8813S","klasa":"droga zbiorcza","kat":"powiatowa"},"geometry":{"type":"LineString","coordinates":[[19.12731,50.17856],[19.13067,50.17752],[19.13405,50.17705],[19.13684,50.17601],[19.13798,50.1753],[19.13901,50.17478],[19.14292,50.17322],[19.14451,50.17248],[19.14619,50.17185],[19.14962,50.17079],[19.15037,50.17067],[19.15277,50.17062],[19.15543,50.17097],[19.15578,50.17089],[19.15638,50.17047],[19.15703,50.17022]]}},{"type":"Feature","properties":{"numer":"8812S","klasa":"droga zbiorcza","kat":"powiatowa"},"geometry":{"type":"LineString","coordinates":[[19.13394,50.18513],[19.13264,50.18273],[19.13231,50.1823],[19.12984,50.18038],[19.12881,50.17944],[19.12731,50.17856]]}},{"type":"Feature","properties":{"numer":"8800S","klasa":"","kat":"powiatowa"},"geometry":{"type":"LineString","coordinates":[[19.13394,50.18513],[19.13523,50.18651],[19.13561,50.18673],[19.13591,50.18675],[19.13809,50.18618],[19.13866,50.18595],[19.1392,50.18557],[19.14003,50.18471],[19.14046,50.1845],[19.14241,50.18399],[19.14525,50.18351],[19.15162,50.18207],[19.15334,50.18192],[19.15497,50.1813],[19.15595,50.18124]]}},{"type":"Feature","properties":{"numer":"8800S","klasa":"droga zbiorcza","kat":"powiatowa"},"geometry":{"type":"LineString","coordinates":[[19.16693,50.18239],[19.1675,50.18228]]}},{"type":"Feature","properties":{"numer":"8800S","klasa":"droga zbiorcza","kat":"powiatowa"},"geometry":{"type":"LineString","coordinates":[[19.16801,50.18219],[19.16924,50.18199],[19.17011,50.18193],[19.1764,50.18213],[19.17932,50.18307],[19.18173,50.18339],[19.18669,50.18422],[19.1875,50.18429],[19.18803,50.18423],[19.18853,50.18404],[19.18981,50.18296],[19.19049,50.18263],[19.19156,50.18248],[19.19655,50.18148]]}},{"type":"Feature","properties":{"numer":"8800S,8803S","klasa":"droga zbiorcza","kat":"powiatowa"},"geometry":{"type":"LineString","coordinates":[[19.15711,50.18141],[19.15796,50.18178],[19.16011,50.18445],[19.16026,50.18457],[19.16066,50.18469]]}},{"type":"Feature","properties":{"numer":"8800S","klasa":"droga zbiorcza","kat":"powiatowa"},"geometry":{"type":"LineString","coordinates":[[19.16066,50.18469],[19.16054,50.18422],[19.16063,50.18389],[19.16099,50.18349],[19.16145,50.18327],[19.16442,50.18286],[19.16693,50.18239]]}},{"type":"Feature","properties":{"numer":"240010S","klasa":"droga lokalna","kat":"powiatowa"},"geometry":{"type":"LineString","coordinates":[[19.16089,50.18544],[19.16066,50.18469]]}},{"type":"Feature","properties":{"numer":"240010S","klasa":"droga lokalna","kat":"powiatowa"},"geometry":{"type":"LineString","coordinates":[[19.16158,50.18767],[19.16089,50.18544]]}},{"type":"Feature","properties":{"numer":"E462,E75,S1","klasa":"droga ekspresowa","kat":"krajowa"},"geometry":{"type":"LineString","coordinates":[[19.16694,50.19101],[19.16644,50.18904],[19.1664,50.18754],[19.1675,50.18228]]}},{"type":"Feature","properties":{"numer":"240010S","klasa":"droga lokalna","kat":"powiatowa"},"geometry":{"type":"LineString","coordinates":[[19.16235,50.19017],[19.16158,50.18767]]}},{"type":"Feature","properties":{"numer":"240026S","klasa":"droga lokalna","kat":"powiatowa"},"geometry":{"type":"LineString","coordinates":[[19.16996,50.19033],[19.17105,50.19024]]}},{"type":"Feature","properties":{"numer":"240026S","klasa":"droga lokalna","kat":"powiatowa"},"geometry":{"type":"LineString","coordinates":[[19.16916,50.19054],[19.16996,50.19033]]}},{"type":"Feature","properties":{"numer":"240010S","klasa":"droga lokalna","kat":"powiatowa"},"geometry":{"type":"LineString","coordinates":[[19.16258,50.1909],[19.16235,50.19017]]}},{"type":"Feature","properties":{"numer":"240058S","klasa":"droga lokalna","kat":"powiatowa"},"geometry":{"type":"LineString","coordinates":[[19.17105,50.19024],[19.17123,50.19105]]}},{"type":"Feature","properties":{"numer":"240026S","klasa":"droga lokalna","kat":"powiatowa"},"geometry":{"type":"LineString","coordinates":[[19.16732,50.19098],[19.16916,50.19054]]}},{"type":"Feature","properties":{"numer":"240026S","klasa":"droga lokalna","kat":"powiatowa"},"geometry":{"type":"LineString","coordinates":[[19.16694,50.19101],[19.16732,50.19098]]}},{"type":"Feature","properties":{"numer":"240058S","klasa":"droga lokalna","kat":"powiatowa"},"geometry":{"type":"LineString","coordinates":[[19.17123,50.19105],[19.17137,50.19184]]}},{"type":"Feature","properties":{"numer":"240010S","klasa":"droga lokalna","kat":"powiatowa"},"geometry":{"type":"LineString","coordinates":[[19.163,50.19302],[19.163,50.19233],[19.16258,50.1909]]}},{"type":"Feature","properties":{"numer":"240058S","klasa":"droga lokalna","kat":"powiatowa"},"geometry":{"type":"LineString","coordinates":[[19.17137,50.19184],[19.17154,50.19281]]}},{"type":"Feature","properties":{"numer":"E462,E75,S1","klasa":"droga ekspresowa","kat":"krajowa"},"geometry":{"type":"LineString","coordinates":[[19.16772,50.19389],[19.16694,50.19101]]}},{"type":"Feature","properties":{"numer":"","klasa":"droga lokalna","kat":"gminna"},"geometry":{"type":"LineString","coordinates":[[19.17157,50.193],[19.17154,50.19281]]}},{"type":"Feature","properties":{"numer":"","klasa":"droga lokalna","kat":"gminna"},"geometry":{"type":"LineString","coordinates":[[19.1711,50.19349],[19.17157,50.193]]}},{"type":"Feature","properties":{"numer":"A4,E40,E462","klasa":"autostrada","kat":"krajowa"},"geometry":{"type":"LineString","coordinates":[[19.19591,50.18204],[19.19655,50.18148]]}},{"type":"Feature","properties":{"numer":"A4,E40,E462","klasa":"autostrada","kat":"krajowa"},"geometry":{"type":"LineString","coordinates":[[19.18748,50.19364],[19.19047,50.18833],[19.19123,50.18722],[19.19324,50.1847],[19.19422,50.18363],[19.19591,50.18204]]}},{"type":"Feature","properties":{"numer":"A4,E40,E462","klasa":"autostrada","kat":"krajowa"},"geometry":{"type":"LineString","coordinates":[[19.18748,50.19364],[19.18585,50.19662],[19.18446,50.19853]]}},{"type":"Feature","properties":{"numer":"8800S","klasa":"","kat":"powiatowa"},"geometry":{"type":"LineString","coordinates":[[19.13378,50.18518],[19.13394,50.18513]]}},{"type":"Feature","properties":{"numer":"8800S","klasa":"","kat":"powiatowa"},"geometry":{"type":"LineString","coordinates":[[19.11535,50.19166],[19.11698,50.19151],[19.11934,50.19025],[19.12819,50.18724],[19.13015,50.18636],[19.13224,50.18573],[19.13378,50.18518]]}},{"type":"Feature","properties":{"numer":"8801S","klasa":"droga zbiorcza","kat":"powiatowa"},"geometry":{"type":"LineString","coordinates":[[19.1252,50.19743],[19.12584,50.19747]]}},{"type":"Feature","properties":{"numer":"8801S","klasa":"droga zbiorcza","kat":"powiatowa"},"geometry":{"type":"LineString","coordinates":[[19.12584,50.19747],[19.12614,50.19771]]}},{"type":"Feature","properties":{"numer":"8801S","klasa":"droga zbiorcza","kat":"powiatowa"},"geometry":{"type":"LineString","coordinates":[[19.12614,50.19771],[19.12712,50.19849],[19.12787,50.19955],[19.12857,50.19985]]}},{"type":"Feature","properties":{"numer":"8801S","klasa":"droga zbiorcza","kat":"powiatowa"},"geometry":{"type":"LineString","coordinates":[[19.12857,50.19985],[19.1338,50.20109]]}},{"type":"Feature","properties":{"numer":"240221S","klasa":"droga zbiorcza","kat":"powiatowa"},"geometry":{"type":"LineString","coordinates":[[19.14837,50.20137],[19.14847,50.20119]]}},{"type":"Feature","properties":{"numer":"240221S","klasa":"droga zbiorcza","kat":"powiatowa"},"geometry":{"type":"LineString","coordinates":[[19.14819,50.20167],[19.14837,50.20137]]}},{"type":"Feature","properties":{"numer":"240221S","klasa":"droga zbiorcza","kat":"powiatowa"},"geometry":{"type":"LineString","coordinates":[[19.14809,50.20185],[19.14819,50.20167]]}},{"type":"Feature","properties":{"numer":"8801S","klasa":"droga zbiorcza","kat":"powiatowa"},"geometry":{"type":"LineString","coordinates":[[19.1338,50.20109],[19.13908,50.20108],[19.14238,50.20149],[19.14383,50.2019],[19.14774,50.20267]]}},{"type":"Feature","properties":{"numer":"240010S","klasa":"droga lokalna","kat":"powiatowa"},"geometry":{"type":"LineString","coordinates":[[19.16292,50.1935],[19.163,50.19302]]}},{"type":"Feature","properties":{"numer":"","klasa":"droga lokalna","kat":"gminna"},"geometry":{"type":"LineString","coordinates":[[19.1692,50.19383],[19.1708,50.19378],[19.1711,50.19349]]}},{"type":"Feature","properties":{"numer":"240010S","klasa":"droga lokalna","kat":"powiatowa"},"geometry":{"type":"LineString","coordinates":[[19.16302,50.19382],[19.16292,50.1935]]}},{"type":"Feature","properties":{"numer":"934","klasa":"droga gĹ‚Ăłwna","kat":"wojewodzka"},"geometry":{"type":"LineString","coordinates":[[19.16806,50.19388],[19.1692,50.19383]]}},{"type":"Feature","properties":{"numer":"934","klasa":"droga gĹ‚Ăłwna","kat":"wojewodzka"},"geometry":{"type":"LineString","coordinates":[[19.16772,50.19389],[19.16806,50.19388]]}},{"type":"Feature","properties":{"numer":"934","klasa":"droga gĹ‚Ăłwna","kat":"wojewodzka"},"geometry":{"type":"LineString","coordinates":[[19.16405,50.19388],[19.16739,50.1939]]}},{"type":"Feature","properties":{"numer":"934","klasa":"droga gĹ‚Ăłwna","kat":"wojewodzka"},"geometry":{"type":"LineString","coordinates":[[19.16739,50.1939],[19.16772,50.19389]]}},{"type":"Feature","properties":{"numer":"934","klasa":"droga gĹ‚Ăłwna","kat":"wojewodzka"},"geometry":{"type":"LineString","coordinates":[[19.16313,50.19396],[19.16405,50.19388]]}},{"type":"Feature","properties":{"numer":"934","klasa":"droga gĹ‚Ăłwna","kat":"wojewodzka"},"geometry":{"type":"LineString","coordinates":[[19.16274,50.19424],[19.16313,50.19396]]}},{"type":"Feature","properties":{"numer":"240221S","klasa":"droga zbiorcza","kat":"powiatowa"},"geometry":{"type":"LineString","coordinates":[[19.15024,50.19502],[19.14983,50.19409]]}},{"type":"Feature","properties":{"numer":"240221S","klasa":"droga zbiorcza","kat":"powiatowa"},"geometry":{"type":"LineString","coordinates":[[19.15024,50.19508],[19.15024,50.19502]]}},{"type":"Feature","properties":{"numer":"240221S","klasa":"droga zbiorcza","kat":"powiatowa"},"geometry":{"type":"LineString","coordinates":[[19.15022,50.19602],[19.15024,50.19508]]}},{"type":"Feature","properties":{"numer":"240221S","klasa":"droga zbiorcza","kat":"powiatowa"},"geometry":{"type":"LineString","coordinates":[[19.1502,50.19651],[19.15022,50.19602]]}},{"type":"Feature","properties":{"numer":"240221S","klasa":"droga zbiorcza","kat":"powiatowa"},"geometry":{"type":"LineString","coordinates":[[19.15019,50.19712],[19.1502,50.19651]]}},{"type":"Feature","properties":{"numer":"240221S","klasa":"droga zbiorcza","kat":"powiatowa"},"geometry":{"type":"LineString","coordinates":[[19.15019,50.19804],[19.15019,50.19712]]}},{"type":"Feature","properties":{"numer":"E462,E75,S1","klasa":"droga ekspresowa","kat":"krajowa"},"geometry":{"type":"LineString","coordinates":[[19.16772,50.20178],[19.16853,50.1999],[19.16877,50.19866],[19.16855,50.19687],[19.16772,50.19389]]}},{"type":"Feature","properties":{"numer":"934","klasa":"droga gĹ‚Ăłwna","kat":"wojewodzka"},"geometry":{"type":"LineString","coordinates":[[19.15838,50.20193],[19.15856,50.20059],[19.15941,50.19895],[19.16091,50.19655],[19.16231,50.19462],[19.16274,50.19424]]}},{"type":"Feature","properties":{"numer":"240221S","klasa":"droga zbiorcza","kat":"powiatowa"},"geometry":{"type":"LineString","coordinates":[[19.15016,50.19821],[19.15019,50.19804]]}},{"type":"Feature","properties":{"numer":"240221S","klasa":"droga zbiorcza","kat":"powiatowa"},"geometry":{"type":"LineString","coordinates":[[19.14976,50.19896],[19.15016,50.19821]]}},{"type":"Feature","properties":{"numer":"240221S","klasa":"droga zbiorcza","kat":"powiatowa"},"geometry":{"type":"LineString","coordinates":[[19.14939,50.1996],[19.14976,50.19896]]}},{"type":"Feature","properties":{"numer":"240209S,8801S","klasa":"droga zbiorcza","kat":"powiatowa"},"geometry":{"type":"LineString","coordinates":[[19.11269,50.19587],[19.11282,50.19495]]}},{"type":"Feature","properties":{"numer":"240209S,8801S","klasa":"droga zbiorcza","kat":"powiatowa"},"geometry":{"type":"LineString","coordinates":[[19.11269,50.19652],[19.11269,50.19587]]}},{"type":"Feature","properties":{"numer":"8801S","klasa":"droga zbiorcza","kat":"powiatowa"},"geometry":{"type":"LineString","coordinates":[[19.11269,50.19652],[19.11313,50.19668],[19.11662,50.19676],[19.11962,50.19728],[19.1252,50.19743]]}},{"type":"Feature","properties":{"numer":"240209S","klasa":"droga zbiorcza","kat":"powiatowa"},"geometry":{"type":"LineString","coordinates":[[19.11072,50.2],[19.11107,50.19958],[19.1118,50.19734],[19.11269,50.19652]]}},{"type":"Feature","properties":{"numer":"240209S","klasa":"droga zbiorcza","kat":"powiatowa"},"geometry":{"type":"LineString","coordinates":[[19.11005,50.20016],[19.11072,50.2]]}},{"type":"Feature","properties":{"numer":"240209S","klasa":"droga zbiorcza","kat":"powiatowa"},"geometry":{"type":"LineString","coordinates":[[19.10969,50.20021],[19.11005,50.20016]]}},{"type":"Feature","properties":{"numer":"240209S","klasa":"droga zbiorcza","kat":"powiatowa"},"geometry":{"type":"LineString","coordinates":[[19.10854,50.20075],[19.10919,50.20033],[19.10969,50.20021]]}},{"type":"Feature","properties":{"numer":"240209S","klasa":"droga zbiorcza","kat":"powiatowa"},"geometry":{"type":"LineString","coordinates":[[19.10804,50.20136],[19.10854,50.20075]]}},{"type":"Feature","properties":{"numer":"240209S","klasa":"droga zbiorcza","kat":"powiatowa"},"geometry":{"type":"LineString","coordinates":[[19.10787,50.20148],[19.10804,50.20136]]}},{"type":"Feature","properties":{"numer":"240209S","klasa":"droga zbiorcza","kat":"powiatowa"},"geometry":{"type":"LineString","coordinates":[[19.10646,50.20243],[19.10701,50.20194],[19.10787,50.20148]]}},{"type":"Feature","properties":{"numer":"240221S","klasa":"droga zbiorcza","kat":"powiatowa"},"geometry":{"type":"LineString","coordinates":[[19.14907,50.2002],[19.14939,50.1996]]}},{"type":"Feature","properties":{"numer":"240221S","klasa":"droga zbiorcza","kat":"powiatowa"},"geometry":{"type":"LineString","coordinates":[[19.14899,50.20034],[19.14907,50.2002]]}},{"type":"Feature","properties":{"numer":"240221S","klasa":"droga zbiorcza","kat":"powiatowa"},"geometry":{"type":"LineString","coordinates":[[19.14868,50.20083],[19.14899,50.20034]]}},{"type":"Feature","properties":{"numer":"240221S","klasa":"droga zbiorcza","kat":"powiatowa"},"geometry":{"type":"LineString","coordinates":[[19.14847,50.20119],[19.14868,50.20083]]}},{"type":"Feature","properties":{"numer":"934","klasa":"droga gĹ‚Ăłwna","kat":"wojewodzka"},"geometry":{"type":"LineString","coordinates":[[19.15838,50.202],[19.15838,50.20193]]}},{"type":"Feature","properties":{"numer":"E462,E75,S1","klasa":"droga ekspresowa","kat":"krajowa"},"geometry":{"type":"LineString","coordinates":[[19.16742,50.20238],[19.16772,50.20178]]}},{"type":"Feature","properties":{"numer":"A4,E40,E462","klasa":"autostrada","kat":"krajowa"},"geometry":{"type":"LineString","coordinates":[[19.17412,50.2057],[19.1769,50.20446],[19.17968,50.20285],[19.1811,50.20183],[19.18229,50.20085],[19.18344,50.19975],[19.18446,50.19853]]}},{"type":"Feature","properties":{"numer":"934","klasa":"droga gĹ‚Ăłwna","kat":"wojewodzka"},"geometry":{"type":"LineString","coordinates":[[19.15838,50.20234],[19.15838,50.202]]}},{"type":"Feature","properties":{"numer":"8801S","klasa":"droga zbiorcza","kat":"powiatowa"},"geometry":{"type":"LineString","coordinates":[[19.15838,50.20234],[19.16659,50.20228],[19.16742,50.20238]]}},{"type":"Feature","properties":{"numer":"E462,E75,S1","klasa":"droga ekspresowa","kat":"krajowa"},"geometry":{"type":"LineString","coordinates":[[19.16727,50.2027],[19.16742,50.20238]]}},{"type":"Feature","properties":{"numer":"240209S","klasa":"droga zbiorcza","kat":"powiatowa"},"geometry":{"type":"LineString","coordinates":[[19.10593,50.20286],[19.10646,50.20243]]}},{"type":"Feature","properties":{"numer":"240209S","klasa":"droga zbiorcza","kat":"powiatowa"},"geometry":{"type":"LineString","coordinates":[[19.1041,50.20341],[19.10593,50.20286]]}},{"type":"Feature","properties":{"numer":"240209S","klasa":"droga zbiorcza","kat":"powiatowa"},"geometry":{"type":"LineString","coordinates":[[19.10324,50.20365],[19.1041,50.20341]]}},{"type":"Feature","properties":{"numer":"240209S","klasa":"droga zbiorcza","kat":"powiatowa"},"geometry":{"type":"LineString","coordinates":[[19.10305,50.20374],[19.10324,50.20365]]}},{"type":"Feature","properties":{"numer":"240209S","klasa":"droga zbiorcza","kat":"powiatowa"},"geometry":{"type":"LineString","coordinates":[[19.10245,50.2041],[19.10305,50.20374]]}},{"type":"Feature","properties":{"numer":"240209S","klasa":"droga zbiorcza","kat":"powiatowa"},"geometry":{"type":"LineString","coordinates":[[19.10171,50.20455],[19.10245,50.2041]]}},{"type":"Feature","properties":{"numer":"240209S","klasa":"droga zbiorcza","kat":"powiatowa"},"geometry":{"type":"LineString","coordinates":[[19.10124,50.20483],[19.10171,50.20455]]}},{"type":"Feature","properties":{"numer":"240209S","klasa":"droga zbiorcza","kat":"powiatowa"},"geometry":{"type":"LineString","coordinates":[[19.10044,50.20533],[19.10124,50.20483]]}},{"type":"Feature","properties":{"numer":"240209S","klasa":"droga zbiorcza","kat":"powiatowa"},"geometry":{"type":"LineString","coordinates":[[19.09978,50.20573],[19.10044,50.20533]]}},{"type":"Feature","properties":{"numer":"240209S","klasa":"droga zbiorcza","kat":"powiatowa"},"geometry":{"type":"LineString","coordinates":[[19.09959,50.20586],[19.09978,50.20573]]}},{"type":"Feature","properties":{"numer":"240209S","klasa":"droga zbiorcza","kat":"powiatowa"},"geometry":{"type":"LineString","coordinates":[[19.07465,50.20508],[19.07538,50.2053]]}},{"type":"Feature","properties":{"numer":"240209S","klasa":"droga zbiorcza","kat":"powiatowa"},"geometry":{"type":"LineString","coordinates":[[19.07538,50.2053],[19.07635,50.20553]]}},{"type":"Feature","properties":{"numer":"240209S","klasa":"droga zbiorcza","kat":"powiatowa"},"geometry":{"type":"LineString","coordinates":[[19.07635,50.20553],[19.07646,50.20555]]}},{"type":"Feature","properties":{"numer":"240209S","klasa":"droga zbiorcza","kat":"powiatowa"},"geometry":{"type":"LineString","coordinates":[[19.07646,50.20555],[19.0775,50.20579]]}},{"type":"Feature","properties":{"numer":"240209S","klasa":"droga zbiorcza","kat":"powiatowa"},"geometry":{"type":"LineString","coordinates":[[19.0775,50.20579],[19.07881,50.20599]]}},{"type":"Feature","properties":{"numer":"240209S","klasa":"droga zbiorcza","kat":"powiatowa"},"geometry":{"type":"LineString","coordinates":[[19.07881,50.20599],[19.07965,50.20608]]}},{"type":"Feature","properties":{"numer":"240209S","klasa":"droga zbiorcza","kat":"powiatowa"},"geometry":{"type":"LineString","coordinates":[[19.07965,50.20608],[19.08196,50.20634]]}},{"type":"Feature","properties":{"numer":"","klasa":"droga wewnÄ™trzna","kat":"gminna"},"geometry":{"type":"LineString","coordinates":[[19.07618,50.20637],[19.07617,50.2064]]}},{"type":"Feature","properties":{"numer":"240209S","klasa":"droga zbiorcza","kat":"powiatowa"},"geometry":{"type":"LineString","coordinates":[[19.08196,50.20634],[19.08286,50.20644]]}},{"type":"Feature","properties":{"numer":"240209S","klasa":"droga zbiorcza","kat":"powiatowa"},"geometry":{"type":"LineString","coordinates":[[19.08286,50.20644],[19.08397,50.20656]]}},{"type":"Feature","properties":{"numer":"240209S","klasa":"droga zbiorcza","kat":"powiatowa"},"geometry":{"type":"LineString","coordinates":[[19.09923,50.20608],[19.09959,50.20586]]}},{"type":"Feature","properties":{"numer":"240209S","klasa":"droga zbiorcza","kat":"powiatowa"},"geometry":{"type":"LineString","coordinates":[[19.09887,50.20629],[19.09923,50.20608]]}},{"type":"Feature","properties":{"numer":"240209S","klasa":"droga zbiorcza","kat":"powiatowa"},"geometry":{"type":"LineString","coordinates":[[19.09854,50.20649],[19.09887,50.20629]]}},{"type":"Feature","properties":{"numer":"240209S","klasa":"droga zbiorcza","kat":"powiatowa"},"geometry":{"type":"LineString","coordinates":[[19.09834,50.20662],[19.09854,50.20649]]}},{"type":"Feature","properties":{"numer":"240209S","klasa":"droga zbiorcza","kat":"powiatowa"},"geometry":{"type":"LineString","coordinates":[[19.09785,50.20694],[19.09834,50.20662]]}},{"type":"Feature","properties":{"numer":"240209S","klasa":"droga zbiorcza","kat":"powiatowa"},"geometry":{"type":"LineString","coordinates":[[19.09729,50.20716],[19.09785,50.20694]]}},{"type":"Feature","properties":{"numer":"240209S","klasa":"droga zbiorcza","kat":"powiatowa"},"geometry":{"type":"LineString","coordinates":[[19.09037,50.20717],[19.09094,50.2072]]}},{"type":"Feature","properties":{"numer":"240209S","klasa":"droga zbiorcza","kat":"powiatowa"},"geometry":{"type":"LineString","coordinates":[[19.09651,50.20729],[19.09729,50.20716]]}},{"type":"Feature","properties":{"numer":"240209S","klasa":"droga zbiorcza","kat":"powiatowa"},"geometry":{"type":"LineString","coordinates":[[19.09094,50.2072],[19.09293,50.2073]]}},{"type":"Feature","properties":{"numer":"240209S","klasa":"droga zbiorcza","kat":"powiatowa"},"geometry":{"type":"LineString","coordinates":[[19.09634,50.20732],[19.09651,50.20729]]}},{"type":"Feature","properties":{"numer":"240209S","klasa":"droga zbiorcza","kat":"powiatowa"},"geometry":{"type":"LineString","coordinates":[[19.08397,50.20656],[19.0844,50.20661]]}},{"type":"Feature","properties":{"numer":"240209S","klasa":"droga zbiorcza","kat":"powiatowa"},"geometry":{"type":"LineString","coordinates":[[19.0844,50.20661],[19.08519,50.20669]]}},{"type":"Feature","properties":{"numer":"100034S","klasa":"droga dojazdowa","kat":"powiatowa"},"geometry":{"type":"LineString","coordinates":[[19.07617,50.2064],[19.07617,50.20642422413793]]}},{"type":"Feature","properties":{"numer":"240209S","klasa":"droga zbiorcza","kat":"powiatowa"},"geometry":{"type":"LineString","coordinates":[[19.08519,50.20669],[19.08752,50.20695]]}},{"type":"Feature","properties":{"numer":"240209S","klasa":"droga zbiorcza","kat":"powiatowa"},"geometry":{"type":"LineString","coordinates":[[19.08752,50.20695],[19.08839,50.20704]]}},{"type":"Feature","properties":{"numer":"240209S","klasa":"droga zbiorcza","kat":"powiatowa"},"geometry":{"type":"LineString","coordinates":[[19.08839,50.20704],[19.0892,50.20711]]}},{"type":"Feature","properties":{"numer":"240209S","klasa":"droga zbiorcza","kat":"powiatowa"},"geometry":{"type":"LineString","coordinates":[[19.0892,50.20711],[19.09037,50.20717]]}},{"type":"Feature","properties":{"numer":"240209S","klasa":"droga zbiorcza","kat":"powiatowa"},"geometry":{"type":"LineString","coordinates":[[19.09293,50.2073],[19.09416,50.20737]]}},{"type":"Feature","properties":{"numer":"240209S","klasa":"droga zbiorcza","kat":"powiatowa"},"geometry":{"type":"LineString","coordinates":[[19.09557,50.20741],[19.09634,50.20732]]}},{"type":"Feature","properties":{"numer":"240209S","klasa":"droga zbiorcza","kat":"powiatowa"},"geometry":{"type":"LineString","coordinates":[[19.09416,50.20737],[19.09474,50.20739]]}},{"type":"Feature","properties":{"numer":"240209S","klasa":"droga zbiorcza","kat":"powiatowa"},"geometry":{"type":"LineString","coordinates":[[19.09474,50.20739],[19.09557,50.20741]]}},{"type":"Feature","properties":{"numer":"A4,E40","klasa":"autostrada","kat":"krajowa"},"geometry":{"type":"LineString","coordinates":[[19.11124,50.21879],[19.12134,50.21761],[19.12533,50.21698],[19.12838,50.2164]]}},{"type":"Feature","properties":{"numer":"A4,E40","klasa":"autostrada","kat":"krajowa"},"geometry":{"type":"LineString","coordinates":[[19.11112,50.2188],[19.11124,50.21879]]}},{"type":"Feature","properties":{"numer":"A4,E40","klasa":"autostrada","kat":"krajowa"},"geometry":{"type":"LineString","coordinates":[[19.09612827270806,50.22175251818758],[19.09977,50.22066],[19.10352,50.2198],[19.10666,50.21931],[19.11112,50.2188]]}},{"type":"Feature","properties":{"numer":"6490S","klasa":"droga gĹ‚Ăłwna ruchu przyĹ›pieszonego","kat":"powiatowa"},"geometry":{"type":"LineString","coordinates":[[19.11343,50.23206],[19.11472,50.23159],[19.1196,50.23041],[19.12098,50.22991],[19.12191,50.22938],[19.12269,50.22874],[19.12306,50.22833],[19.12368,50.22736]]}},{"type":"Feature","properties":{"numer":"8801S,934","klasa":"droga gĹ‚Ăłwna","kat":"powiatowa"},"geometry":{"type":"LineString","coordinates":[[19.15831,50.20424],[19.15838,50.20234]]}},{"type":"Feature","properties":{"numer":"8801S","klasa":"droga zbiorcza","kat":"powiatowa"},"geometry":{"type":"LineString","coordinates":[[19.14774,50.20267],[19.14878,50.203],[19.15022,50.20372],[19.15081,50.20393]]}},{"type":"Feature","properties":{"numer":"8801S","klasa":"droga zbiorcza","kat":"powiatowa"},"geometry":{"type":"LineString","coordinates":[[19.16742,50.20238],[19.16793,50.20258],[19.16837,50.2029],[19.16909,50.20402],[19.16968,50.20446],[19.17354,50.20555]]}},{"type":"Feature","properties":{"numer":"8801S","klasa":"droga zbiorcza","kat":"powiatowa"},"geometry":{"type":"LineString","coordinates":[[19.15081,50.20393],[19.15177,50.2041]]}},{"type":"Feature","properties":{"numer":"8801S","klasa":"droga zbiorcza","kat":"powiatowa"},"geometry":{"type":"LineString","coordinates":[[19.15177,50.2041],[19.15367,50.2044]]}},{"type":"Feature","properties":{"numer":"8801S","klasa":"droga zbiorcza","kat":"powiatowa"},"geometry":{"type":"LineString","coordinates":[[19.15374,50.20441],[19.15525,50.20448],[19.15831,50.20424]]}},{"type":"Feature","properties":{"numer":"8801S","klasa":"droga zbiorcza","kat":"powiatowa"},"geometry":{"type":"LineString","coordinates":[[19.15367,50.2044],[19.15374,50.20441]]}},{"type":"Feature","properties":{"numer":"E462,E75,S1","klasa":"droga ekspresowa","kat":"krajowa"},"geometry":{"type":"LineString","coordinates":[[19.16629,50.20749],[19.16615,50.20651],[19.16621,50.20538],[19.16645,50.20447],[19.16727,50.2027]]}},{"type":"Feature","properties":{"numer":"934","klasa":"droga gĹ‚Ăłwna","kat":"wojewodzka"},"geometry":{"type":"LineString","coordinates":[[19.15829,50.20645],[19.15831,50.20424]]}},{"type":"Feature","properties":{"numer":"8801S","klasa":"droga zbiorcza","kat":"powiatowa"},"geometry":{"type":"LineString","coordinates":[[19.17354,50.20555],[19.17412,50.2057]]}},{"type":"Feature","properties":{"numer":"8801S","klasa":"droga zbiorcza","kat":"powiatowa"},"geometry":{"type":"LineString","coordinates":[[19.17412,50.2057],[19.17457,50.20582]]}},{"type":"Feature","properties":{"numer":"8801S","klasa":"droga zbiorcza","kat":"powiatowa"},"geometry":{"type":"LineString","coordinates":[[19.17457,50.20582],[19.17595,50.2062]]}},{"type":"Feature","properties":{"numer":"6808S","klasa":"droga zbiorcza","kat":"powiatowa"},"geometry":{"type":"LineString","coordinates":[[19.17627981324666,50.20628944088045],[19.17595,50.2062]]}},{"type":"Feature","properties":{"numer":"A4,E40,E462","klasa":"autostrada","kat":"krajowa"},"geometry":{"type":"LineString","coordinates":[[19.16634,50.20787],[19.17136,50.20664],[19.17412,50.2057]]}},{"type":"Feature","properties":{"numer":"8805S","klasa":"","kat":"powiatowa"},"geometry":{"type":"LineString","coordinates":[[19.15109,50.20726],[19.15536,50.20671],[19.15829,50.20645]]}},{"type":"Feature","properties":{"numer":"8805S","klasa":"","kat":"powiatowa"},"geometry":{"type":"LineString","coordinates":[[19.151,50.20728],[19.15109,50.20726]]}},{"type":"Feature","properties":{"numer":"934","klasa":"droga gĹ‚Ăłwna","kat":"wojewodzka"},"geometry":{"type":"LineString","coordinates":[[19.15827,50.20861],[19.15829,50.20645]]}},{"type":"Feature","properties":{"numer":"E462,E75,S1","klasa":"droga ekspresowa","kat":"krajowa"},"geometry":{"type":"LineString","coordinates":[[19.16629,50.20749],[19.16634,50.20787]]}},{"type":"Feature","properties":{"numer":"E462,E75,S1","klasa":"droga ekspresowa","kat":"krajowa"},"geometry":{"type":"LineString","coordinates":[[19.16634,50.20787],[19.16638,50.20823]]}},{"type":"Feature","properties":{"numer":"A4,E40,E462","klasa":"autostrada","kat":"krajowa"},"geometry":{"type":"LineString","coordinates":[[19.16212,50.20882],[19.16634,50.20787]]}},{"type":"Feature","properties":{"numer":"240221S","klasa":"droga zbiorcza","kat":"powiatowa"},"geometry":{"type":"LineString","coordinates":[[19.14799,50.20205],[19.14809,50.20185]]}},{"type":"Feature","properties":{"numer":"240221S","klasa":"droga zbiorcza","kat":"powiatowa"},"geometry":{"type":"LineString","coordinates":[[19.14774,50.20267],[19.14799,50.20205]]}},{"type":"Feature","properties":{"numer":"8805S","klasa":"","kat":"powiatowa"},"geometry":{"type":"LineString","coordinates":[[19.12857,50.19985],[19.11844,50.20857],[19.11892,50.20938],[19.13184,50.21056]]}},{"type":"Feature","properties":{"numer":"6490S","klasa":"droga zbiorcza","kat":"powiatowa"},"geometry":{"type":"LineString","coordinates":[[19.13184,50.21056],[19.1338,50.20109]]}},{"type":"Feature","properties":{"numer":"8805S","klasa":"","kat":"powiatowa"},"geometry":{"type":"LineString","coordinates":[[19.13184,50.21056],[19.13599,50.21082],[19.13649,50.2107],[19.13772,50.21016],[19.13838,50.20996],[19.14287,50.20926],[19.14668,50.20824],[19.14812,50.20777],[19.151,50.20728]]}},{"type":"Feature","properties":{"numer":"6490S","klasa":"droga gĹ‚Ăłwna ruchu przyĹ›pieszonego","kat":"powiatowa"},"geometry":{"type":"LineString","coordinates":[[19.13184,50.21056],[19.13148,50.21234]]}},{"type":"Feature","properties":{"numer":"A4,E40","klasa":"autostrada","kat":"krajowa"},"geometry":{"type":"LineString","coordinates":[[19.14499,50.21268],[19.14884,50.21182]]}},{"type":"Feature","properties":{"numer":"6490S","klasa":"droga gĹ‚Ăłwna ruchu przyĹ›pieszonego","kat":"powiatowa"},"geometry":{"type":"LineString","coordinates":[[19.1285,50.21601],[19.12888,50.2152],[19.13095,50.21327],[19.13148,50.21234]]}},{"type":"Feature","properties":{"numer":"A4,E40","klasa":"autostrada","kat":"krajowa"},"geometry":{"type":"LineString","coordinates":[[19.12838,50.2164],[19.14499,50.21268]]}},{"type":"Feature","properties":{"numer":"6490S","klasa":"droga gĹ‚Ăłwna ruchu przyĹ›pieszonego","kat":"powiatowa"},"geometry":{"type":"LineString","coordinates":[[19.12838,50.2164],[19.1285,50.21601]]}},{"type":"Feature","properties":{"numer":"934","klasa":"droga gĹ‚Ăłwna","kat":"wojewodzka"},"geometry":{"type":"LineString","coordinates":[[19.15827,50.20861],[19.15828,50.20884]]}},{"type":"Feature","properties":{"numer":"A4,E40,E462","klasa":"autostrada","kat":"krajowa"},"geometry":{"type":"LineString","coordinates":[[19.16169,50.20891],[19.16212,50.20882]]}},{"type":"Feature","properties":{"numer":"934","klasa":"droga gĹ‚Ăłwna","kat":"wojewodzka"},"geometry":{"type":"LineString","coordinates":[[19.15828,50.20884],[19.15828,50.20895]]}},{"type":"Feature","properties":{"numer":"A4,E40","klasa":"autostrada","kat":"krajowa"},"geometry":{"type":"LineString","coordinates":[[19.15827,50.20969],[19.16169,50.20891]]}},{"type":"Feature","properties":{"numer":"E75,S1","klasa":"droga ekspresowa","kat":"krajowa"},"geometry":{"type":"LineString","coordinates":[[19.16638,50.20823],[19.16683,50.21048]]}},{"type":"Feature","properties":{"numer":"934","klasa":"droga gĹ‚Ăłwna","kat":"wojewodzka"},"geometry":{"type":"LineString","coordinates":[[19.15828,50.20895],[19.15794,50.20977]]}},{"type":"Feature","properties":{"numer":"A4,E40","klasa":"autostrada","kat":"krajowa"},"geometry":{"type":"LineString","coordinates":[[19.15794,50.20977],[19.15827,50.20969]]}},{"type":"Feature","properties":{"numer":"A4,E40","klasa":"autostrada","kat":"krajowa"},"geometry":{"type":"LineString","coordinates":[[19.15754,50.20986],[19.15794,50.20977]]}},{"type":"Feature","properties":{"numer":"934","klasa":"droga gĹ‚Ăłwna","kat":"wojewodzka"},"geometry":{"type":"LineString","coordinates":[[19.15794,50.20977],[19.15745,50.21097]]}},{"type":"Feature","properties":{"numer":"E75,S1","klasa":"droga ekspresowa","kat":"krajowa"},"geometry":{"type":"LineString","coordinates":[[19.16683,50.21048],[19.16689,50.21068]]}},{"type":"Feature","properties":{"numer":"A4,E40","klasa":"autostrada","kat":"krajowa"},"geometry":{"type":"LineString","coordinates":[[19.14884,50.21182],[19.15754,50.20986]]}},{"type":"Feature","properties":{"numer":"E75,S1","klasa":"droga ekspresowa","kat":"krajowa"},"geometry":{"type":"LineString","coordinates":[[19.16689,50.21068],[19.16756,50.21216],[19.16863,50.21376]]}},{"type":"Feature","properties":{"numer":"E75,S1","klasa":"droga ekspresowa","kat":"krajowa"},"geometry":{"type":"LineString","coordinates":[[19.16863,50.21376],[19.168707470045177,50.213851995678645]]}},{"type":"Feature","properties":{"numer":"934","klasa":"droga gĹ‚Ăłwna","kat":"wojewodzka"},"geometry":{"type":"LineString","coordinates":[[19.15745,50.21097],[19.15684,50.21234],[19.15671,50.21287],[19.15679,50.21375],[19.15712,50.21489],[19.15728,50.21639],[19.15718,50.2172],[19.15685,50.21819],[19.15617,50.21922],[19.15281,50.22376],[19.15172,50.22462],[19.15147,50.22472],[19.15099,50.22474]]}},{"type":"Feature","properties":{"numer":"934","klasa":"droga gĹ‚Ăłwna","kat":"wojewodzka"},"geometry":{"type":"LineString","coordinates":[[19.15027,50.22459],[19.15099,50.22474]]}},{"type":"Feature","properties":{"numer":"934","klasa":"droga gĹ‚Ăłwna","kat":"wojewodzka"},"geometry":{"type":"LineString","coordinates":[[19.14887,50.22648],[19.14949,50.2258],[19.15027,50.22459]]}},{"type":"Feature","properties":{"numer":"6490S","klasa":"droga gĹ‚Ăłwna ruchu przyĹ›pieszonego","kat":"powiatowa"},"geometry":{"type":"LineString","coordinates":[[19.12826,50.21678],[19.12838,50.2164]]}},{"type":"Feature","properties":{"numer":"6490S","klasa":"droga gĹ‚Ăłwna ruchu przyĹ›pieszonego","kat":"powiatowa"},"geometry":{"type":"LineString","coordinates":[[19.12405,50.22672],[19.12826,50.21678]]}},{"type":"Feature","properties":{"numer":"6490S","klasa":"droga gĹ‚Ăłwna ruchu przyĹ›pieszonego","kat":"powiatowa"},"geometry":{"type":"LineString","coordinates":[[19.12368,50.22736],[19.12405,50.22672]]}},{"type":"Feature","properties":{"numer":"934","klasa":"droga gĹ‚Ăłwna","kat":"wojewodzka"},"geometry":{"type":"LineString","coordinates":[[19.14545,50.22888],[19.14861,50.22673]]}},{"type":"Feature","properties":{"numer":"934","klasa":"droga gĹ‚Ăłwna","kat":"wojewodzka"},"geometry":{"type":"LineString","coordinates":[[19.14437,50.22967],[19.14545,50.22888]]}},{"type":"Feature","properties":{"numer":"8807S","klasa":"droga zbiorcza","kat":"powiatowa"},"geometry":{"type":"LineString","coordinates":[[19.12473,50.23439],[19.12496,50.23415],[19.12501,50.23392],[19.12441,50.23241],[19.12435,50.23161],[19.12394,50.2304],[19.12404,50.23005],[19.12456,50.22945],[19.12481,50.22889],[19.12463,50.22744],[19.1248,50.22732],[19.13168,50.22619],[19.13234,50.22616],[19.13759,50.22802],[19.13814,50.22809],[19.13929,50.22787],[19.13963,50.2279],[19.14437,50.22967]]}},{"type":"Feature","properties":{"numer":"8807S","klasa":"droga zbiorcza","kat":"powiatowa"},"geometry":{"type":"LineString","coordinates":[[19.12433,50.23463],[19.12473,50.23439]]}},{"type":"Feature","properties":{"numer":"8804S","klasa":"droga gĹ‚Ăłwna","kat":"powiatowa"},"geometry":{"type":"LineString","coordinates":[[19.12388,50.23443],[19.12433,50.23463]]}},{"type":"Feature","properties":{"numer":"8804S","klasa":"droga gĹ‚Ăłwna","kat":"powiatowa"},"geometry":{"type":"LineString","coordinates":[[19.12433,50.23463],[19.12485,50.23482]]}},{"type":"Feature","properties":{"numer":"8807S","klasa":"droga zbiorcza","kat":"powiatowa"},"geometry":{"type":"LineString","coordinates":[[19.12383,50.23484],[19.12433,50.23463]]}},{"type":"Feature","properties":{"numer":"934","klasa":"droga gĹ‚Ăłwna","kat":"wojewodzka"},"geometry":{"type":"LineString","coordinates":[[19.14861,50.22673],[19.14887,50.22648]]}},{"type":"Feature","properties":{"numer":"8804S","klasa":"droga gĹ‚Ăłwna","kat":"powiatowa"},"geometry":{"type":"LineString","coordinates":[[19.099481251366868,50.23049852310005],[19.1,50.23064],[19.10913,50.23199]]}},{"type":"Feature","properties":{"numer":"8804S","klasa":"droga gĹ‚Ăłwna","kat":"powiatowa"},"geometry":{"type":"LineString","coordinates":[[19.11294,50.23233],[19.10913,50.23199]]}},{"type":"Feature","properties":{"numer":"6490S","klasa":"droga gĹ‚Ăłwna ruchu przyĹ›pieszonego","kat":"powiatowa"},"geometry":{"type":"LineString","coordinates":[[19.11294,50.23233],[19.11343,50.23206]]}},{"type":"Feature","properties":{"numer":"6490S","klasa":"droga gĹ‚Ăłwna ruchu przyĹ›pieszonego","kat":"powiatowa"},"geometry":{"type":"LineString","coordinates":[[19.11259,50.23255],[19.11294,50.23233]]}},{"type":"Feature","properties":{"numer":"8804S","klasa":"droga gĹ‚Ăłwna","kat":"powiatowa"},"geometry":{"type":"LineString","coordinates":[[19.11564,50.23266],[19.1144,50.23246],[19.11294,50.23233]]}},{"type":"Feature","properties":{"numer":"8804S","klasa":"droga gĹ‚Ăłwna","kat":"powiatowa"},"geometry":{"type":"LineString","coordinates":[[19.11564,50.23266],[19.11943,50.23349],[19.12242,50.2339],[19.12388,50.23443]]}},{"type":"Feature","properties":{"numer":"6490S","klasa":"droga gĹ‚Ăłwna ruchu przyĹ›pieszonego","kat":"powiatowa"},"geometry":{"type":"LineString","coordinates":[[19.10641,50.23757],[19.10775,50.23697],[19.10897,50.23616],[19.11259,50.23255]]}},{"type":"Feature","properties":{"numer":"8807S","klasa":"droga zbiorcza","kat":"powiatowa"},"geometry":{"type":"LineString","coordinates":[[19.12383,50.23484],[19.12275,50.23521],[19.11938,50.23706],[19.1186,50.23728]]}},{"type":"Feature","properties":{"numer":"8809S","klasa":"droga zbiorcza","kat":"powiatowa"},"geometry":{"type":"LineString","coordinates":[[19.1186,50.23728],[19.11904,50.2375]]}},{"type":"Feature","properties":{"numer":"6490S","klasa":"droga gĹ‚Ăłwna ruchu przyĹ›pieszonego","kat":"powiatowa"},"geometry":{"type":"LineString","coordinates":[[19.10599,50.23775],[19.10641,50.23757]]}},{"type":"Feature","properties":{"numer":"8807S","klasa":"droga zbiorcza","kat":"powiatowa"},"geometry":{"type":"LineString","coordinates":[[19.1186,50.23728],[19.11676,50.23762],[19.11627,50.23781],[19.11481,50.23879],[19.11177,50.23967]]}},{"type":"Feature","properties":{"numer":"6490S","klasa":"droga gĹ‚Ăłwna ruchu przyĹ›pieszonego","kat":"powiatowa"},"geometry":{"type":"LineString","coordinates":[[19.102789675541537,50.23912831082872],[19.10599,50.23775]]}},{"type":"Feature","properties":{"numer":"240038S","klasa":"","kat":"powiatowa"},"geometry":{"type":"LineString","coordinates":[[19.102863532332,50.2393209609819],[19.10298,50.23937]]}},{"type":"Feature","properties":{"numer":"240038S","klasa":"droga lokalna","kat":"powiatowa"},"geometry":{"type":"LineString","coordinates":[[19.10298,50.23937],[19.10445,50.23988]]}},{"type":"Feature","properties":{"numer":"8811S","klasa":"droga zbiorcza","kat":"powiatowa"},"geometry":{"type":"LineString","coordinates":[[19.11177,50.23967],[19.11249,50.24006],[19.11332,50.24008]]}},{"type":"Feature","properties":{"numer":"8807S","klasa":"droga zbiorcza","kat":"powiatowa"},"geometry":{"type":"LineString","coordinates":[[19.11177,50.23967],[19.11078,50.23991],[19.10851,50.24001],[19.10619,50.24048]]}},{"type":"Feature","properties":{"numer":"240038S","klasa":"droga lokalna","kat":"powiatowa"},"geometry":{"type":"LineString","coordinates":[[19.10445,50.23988],[19.10594,50.24032]]}},{"type":"Feature","properties":{"numer":"934","klasa":"droga gĹ‚Ăłwna","kat":"wojewodzka"},"geometry":{"type":"LineString","coordinates":[[19.13873,50.24068],[19.13929,50.24031],[19.13965,50.23993],[19.14061,50.23855],[19.14393,50.23039],[19.14437,50.22967]]}},{"type":"Feature","properties":{"numer":"8804S","klasa":"droga gĹ‚Ăłwna","kat":"powiatowa"},"geometry":{"type":"LineString","coordinates":[[19.12485,50.23482],[19.13399,50.23858]]}},{"type":"Feature","properties":{"numer":"8810S","klasa":"droga zbiorcza","kat":"powiatowa"},"geometry":{"type":"LineString","coordinates":[[19.13674,50.23604],[19.13399,50.23858]]}},{"type":"Feature","properties":{"numer":"8804S","klasa":"droga gĹ‚Ăłwna","kat":"powiatowa"},"geometry":{"type":"LineString","coordinates":[[19.13399,50.23858],[19.13803,50.24026]]}},{"type":"Feature","properties":{"numer":"8809S","klasa":"droga zbiorcza","kat":"powiatowa"},"geometry":{"type":"LineString","coordinates":[[19.13013,50.24251],[19.12353,50.23972],[19.11904,50.2375]]}},{"type":"Feature","properties":{"numer":"8804S","klasa":"droga gĹ‚Ăłwna","kat":"powiatowa"},"geometry":{"type":"LineString","coordinates":[[19.13803,50.24026],[19.13873,50.24068]]}},{"type":"Feature","properties":{"numer":"8810S","klasa":"droga zbiorcza","kat":"powiatowa"},"geometry":{"type":"LineString","coordinates":[[19.13399,50.23858],[19.13028,50.24258]]}},{"type":"Feature","properties":{"numer":"8806S","klasa":"","kat":"powiatowa"},"geometry":{"type":"LineString","coordinates":[[19.14165,50.2429],[19.14173,50.24263],[19.14167,50.2421],[19.14329,50.23903],[19.14321,50.23888],[19.14264,50.23873],[19.14243,50.23879],[19.14224,50.23897],[19.14094,50.24134],[19.14074,50.24138],[19.13942,50.24112],[19.1392,50.24113],[19.139,50.24129],[19.13867,50.24202],[19.13826,50.24223]]}},{"type":"Feature","properties":{"numer":"934","klasa":"droga gĹ‚Ăłwna","kat":"wojewodzka"},"geometry":{"type":"LineString","coordinates":[[19.13686,50.24147],[19.13873,50.24068]]}},{"type":"Feature","properties":{"numer":"79","klasa":"droga gĹ‚Ăłwna ruchu przyĹ›pieszonego","kat":"krajowa"},"geometry":{"type":"LineString","coordinates":[[19.13686,50.24147],[19.13729,50.24174]]}},{"type":"Feature","properties":{"numer":"240002S","klasa":"droga zbiorcza","kat":"powiatowa"},"geometry":{"type":"LineString","coordinates":[[19.11332,50.24008],[19.11326,50.24052]]}},{"type":"Feature","properties":{"numer":"240038S","klasa":"","kat":"powiatowa"},"geometry":{"type":"LineString","coordinates":[[19.10594,50.24032],[19.10619,50.24048]]}},{"type":"Feature","properties":{"numer":"240002S","klasa":"droga zbiorcza","kat":"powiatowa"},"geometry":{"type":"LineString","coordinates":[[19.11326,50.24052],[19.1132,50.24069]]}},{"type":"Feature","properties":{"numer":"240002S","klasa":"droga zbiorcza","kat":"powiatowa"},"geometry":{"type":"LineString","coordinates":[[19.1132,50.24069],[19.11296,50.24131]]}},{"type":"Feature","properties":{"numer":"240002S","klasa":"droga zbiorcza","kat":"powiatowa"},"geometry":{"type":"LineString","coordinates":[[19.11296,50.24131],[19.11273,50.24181]]}},{"type":"Feature","properties":{"numer":"8807S","klasa":"droga zbiorcza","kat":"powiatowa"},"geometry":{"type":"LineString","coordinates":[[19.10619,50.24048],[19.10362,50.24138],[19.10299,50.24172],[19.10241,50.24225],[19.1019803271028,50.2429620293725]]}},{"type":"Feature","properties":{"numer":"240002S","klasa":"droga zbiorcza","kat":"powiatowa"},"geometry":{"type":"LineString","coordinates":[[19.11273,50.24181],[19.11251,50.24227]]}},{"type":"Feature","properties":{"numer":"8811S","klasa":"droga zbiorcza","kat":"powiatowa"},"geometry":{"type":"LineString","coordinates":[[19.11332,50.24008],[19.11663,50.24057],[19.12027,50.24168],[19.12102,50.24195],[19.12473,50.24365],[19.12745,50.24499],[19.12772,50.24502]]}},{"type":"Feature","properties":{"numer":"240002S","klasa":"droga zbiorcza","kat":"powiatowa"},"geometry":{"type":"LineString","coordinates":[[19.11251,50.24227],[19.11228,50.24276],[19.11178,50.24326]]}},{"type":"Feature","properties":{"numer":"79","klasa":"droga gĹ‚Ăłwna ruchu przyĹ›pieszonego","kat":"krajowa"},"geometry":{"type":"LineString","coordinates":[[19.13729,50.24174],[19.13778,50.24203]]}},{"type":"Feature","properties":{"numer":"79","klasa":"droga gĹ‚Ăłwna ruchu przyĹ›pieszonego","kat":"krajowa"},"geometry":{"type":"LineString","coordinates":[[19.13778,50.24203],[19.13826,50.24223]]}},{"type":"Feature","properties":{"numer":"79","klasa":"droga gĹ‚Ăłwna ruchu przyĹ›pieszonego","kat":"krajowa"},"geometry":{"type":"LineString","coordinates":[[19.13826,50.24223],[19.1391,50.24237]]}},{"type":"Feature","properties":{"numer":"8806S","klasa":"droga zbiorcza","kat":"powiatowa"},"geometry":{"type":"LineString","coordinates":[[19.13799,50.24254],[19.13826,50.24223]]}},{"type":"Feature","properties":{"numer":"8809S,8810S","klasa":"droga zbiorcza","kat":"powiatowa"},"geometry":{"type":"LineString","coordinates":[[19.13028,50.24258],[19.13013,50.24251]]}},{"type":"Feature","properties":{"numer":"79","klasa":"droga gĹ‚Ăłwna ruchu przyĹ›pieszonego","kat":"krajowa"},"geometry":{"type":"LineString","coordinates":[[19.13311,50.24379],[19.1356,50.24208],[19.13686,50.24147]]}},{"type":"Feature","properties":{"numer":"79","klasa":"droga gĹ‚Ăłwna ruchu przyĹ›pieszonego","kat":"krajowa"},"geometry":{"type":"LineString","coordinates":[[19.14165,50.2429],[19.1391,50.24237]]}},{"type":"Feature","properties":{"numer":"240052S","klasa":"droga zbiorcza","kat":"powiatowa"},"geometry":{"type":"LineString","coordinates":[[19.12941,50.24322],[19.13013,50.24251]]}},{"type":"Feature","properties":{"numer":"79","klasa":"droga gĹ‚Ăłwna ruchu przyĹ›pieszonego","kat":"krajowa"},"geometry":{"type":"LineString","coordinates":[[19.14165,50.2429],[19.14244,50.24304]]}},{"type":"Feature","properties":{"numer":"79","klasa":"droga gĹ‚Ăłwna ruchu przyĹ›pieszonego","kat":"krajowa"},"geometry":{"type":"LineString","coordinates":[[19.14244,50.24304],[19.143163129021953,50.243147339464194]]}},{"type":"Feature","properties":{"numer":"8809S","klasa":"droga zbiorcza","kat":"powiatowa"},"geometry":{"type":"LineString","coordinates":[[19.13311,50.24379],[19.13028,50.24258]]}},{"type":"Feature","properties":{"numer":"240052S","klasa":"droga zbiorcza","kat":"powiatowa"},"geometry":{"type":"LineString","coordinates":[[19.12923,50.24339],[19.12941,50.24322]]}},{"type":"Feature","properties":{"numer":"240052S","klasa":"droga zbiorcza","kat":"powiatowa"},"geometry":{"type":"LineString","coordinates":[[19.12873,50.24389],[19.12923,50.24339]]}},{"type":"Feature","properties":{"numer":"240052S","klasa":"droga zbiorcza","kat":"powiatowa"},"geometry":{"type":"LineString","coordinates":[[19.12845,50.24416],[19.12873,50.24389]]}},{"type":"Feature","properties":{"numer":"240052S","klasa":"droga zbiorcza","kat":"powiatowa"},"geometry":{"type":"LineString","coordinates":[[19.12806,50.24455],[19.12845,50.24416]]}},{"type":"Feature","properties":{"numer":"240052S","klasa":"droga zbiorcza","kat":"powiatowa"},"geometry":{"type":"LineString","coordinates":[[19.12795,50.24467],[19.12806,50.24455]]}},{"type":"Feature","properties":{"numer":"240052S","klasa":"droga zbiorcza","kat":"powiatowa"},"geometry":{"type":"LineString","coordinates":[[19.12783,50.24478],[19.12795,50.24467]]}},{"type":"Feature","properties":{"numer":"8806S","klasa":"droga zbiorcza","kat":"powiatowa"},"geometry":{"type":"LineString","coordinates":[[19.1338,50.24723],[19.13489,50.24689],[19.13592,50.24634],[19.13755,50.24471],[19.13844,50.24254],[19.13826,50.24223]]}},{"type":"Feature","properties":{"numer":"8806S","klasa":"droga zbiorcza","kat":"powiatowa"},"geometry":{"type":"LineString","coordinates":[[19.13185,50.24723],[19.13529,50.24471],[19.13604,50.24391],[19.13799,50.24254]]}},{"type":"Feature","properties":{"numer":"240052S","klasa":"droga zbiorcza","kat":"powiatowa"},"geometry":{"type":"LineString","coordinates":[[19.12772,50.24502],[19.12783,50.24478]]}},{"type":"Feature","properties":{"numer":"79","klasa":"droga gĹ‚Ăłwna ruchu przyĹ›pieszonego","kat":"krajowa"},"geometry":{"type":"LineString","coordinates":[[19.1285,50.2468],[19.13016,50.24603],[19.13311,50.24379]]}},{"type":"Feature","properties":{"numer":"8811S","klasa":"droga zbiorcza","kat":"powiatowa"},"geometry":{"type":"LineString","coordinates":[[19.12772,50.24502],[19.12772,50.24525],[19.12618,50.24673],[19.12566,50.24692],[19.12491,50.24704],[19.12428,50.24687],[19.12398,50.24686],[19.1237,50.24697],[19.12345,50.24724],[19.1232,50.24731]]}},{"type":"Feature","properties":{"numer":"8806S","klasa":"droga zbiorcza","kat":"powiatowa"},"geometry":{"type":"LineString","coordinates":[[19.1285,50.2468],[19.12864,50.2469],[19.12927,50.24704]]}},{"type":"Feature","properties":{"numer":"79","klasa":"droga gĹ‚Ăłwna ruchu przyĹ›pieszonego","kat":"krajowa"},"geometry":{"type":"LineString","coordinates":[[19.12378,50.24756],[19.1285,50.2468]]}},{"type":"Feature","properties":{"numer":"8806S","klasa":"droga zbiorcza","kat":"powiatowa"},"geometry":{"type":"LineString","coordinates":[[19.12927,50.24704],[19.13086,50.24741],[19.13176,50.24745]]}},{"type":"Feature","properties":{"numer":"8806S","klasa":"droga zbiorcza","kat":"powiatowa"},"geometry":{"type":"LineString","coordinates":[[19.13249,50.24743],[19.1338,50.24723]]}},{"type":"Feature","properties":{"numer":"8806S","klasa":"droga zbiorcza","kat":"powiatowa"},"geometry":{"type":"LineString","coordinates":[[19.13176,50.24745],[19.13185,50.24723]]}},{"type":"Feature","properties":{"numer":"8806S","klasa":"droga zbiorcza","kat":"powiatowa"},"geometry":{"type":"LineString","coordinates":[[19.13363,50.24747],[19.1338,50.24723]]}},{"type":"Feature","properties":{"numer":"8806S","klasa":"droga zbiorcza","kat":"powiatowa"},"geometry":{"type":"LineString","coordinates":[[19.13176,50.24745],[19.13249,50.24743]]}},{"type":"Feature","properties":{"numer":"8811S","klasa":"droga zbiorcza","kat":"powiatowa"},"geometry":{"type":"LineString","coordinates":[[19.12334,50.24762],[19.1232,50.24731]]}},{"type":"Feature","properties":{"numer":"79","klasa":"droga gĹ‚Ăłwna ruchu przyĹ›pieszonego","kat":"krajowa"},"geometry":{"type":"LineString","coordinates":[[19.12334,50.24762],[19.12378,50.24756]]}},{"type":"Feature","properties":{"numer":"8806S","klasa":"droga zbiorcza","kat":"powiatowa"},"geometry":{"type":"LineString","coordinates":[[19.13249,50.24743],[19.13284,50.24753],[19.13323,50.24776]]}},{"type":"Feature","properties":{"numer":"8806S","klasa":"droga zbiorcza","kat":"powiatowa"},"geometry":{"type":"LineString","coordinates":[[19.13339,50.24783],[19.13363,50.24747]]}},{"type":"Feature","properties":{"numer":"79","klasa":"droga gĹ‚Ăłwna ruchu przyĹ›pieszonego","kat":"krajowa"},"geometry":{"type":"LineString","coordinates":[[19.12255,50.24782],[19.12334,50.24762]]}},{"type":"Feature","properties":{"numer":"8806S","klasa":"droga zbiorcza","kat":"powiatowa"},"geometry":{"type":"LineString","coordinates":[[19.13323,50.24776],[19.13339,50.24783]]}},{"type":"Feature","properties":{"numer":"8806S","klasa":"droga zbiorcza","kat":"powiatowa"},"geometry":{"type":"LineString","coordinates":[[19.13056,50.25025],[19.13304,50.24826],[19.13339,50.24783]]}},{"type":"Feature","properties":{"numer":"240002S","klasa":"droga zbiorcza","kat":"powiatowa"},"geometry":{"type":"LineString","coordinates":[[19.11178,50.24326],[19.11154,50.24349]]}},{"type":"Feature","properties":{"numer":"240002S","klasa":"droga zbiorcza","kat":"powiatowa"},"geometry":{"type":"LineString","coordinates":[[19.11154,50.24349],[19.11126,50.24389]]}},{"type":"Feature","properties":{"numer":"240002S","klasa":"droga zbiorcza","kat":"powiatowa"},"geometry":{"type":"LineString","coordinates":[[19.11126,50.24389],[19.11116,50.24404]]}},{"type":"Feature","properties":{"numer":"240002S","klasa":"droga zbiorcza","kat":"powiatowa"},"geometry":{"type":"LineString","coordinates":[[19.11116,50.24404],[19.11104,50.24416]]}},{"type":"Feature","properties":{"numer":"6490S","klasa":"droga gĹ‚Ăłwna","kat":"powiatowa"},"geometry":{"type":"LineString","coordinates":[[19.102495033238366,50.243472298195634],[19.10315,50.24349],[19.10437,50.24373],[19.10745,50.24457],[19.1098,50.24532]]}},{"type":"Feature","properties":{"numer":"240002S","klasa":"droga zbiorcza","kat":"powiatowa"},"geometry":{"type":"LineString","coordinates":[[19.11104,50.24416],[19.11053,50.24465]]}},{"type":"Feature","properties":{"numer":"240002S","klasa":"droga zbiorcza","kat":"powiatowa"},"geometry":{"type":"LineString","coordinates":[[19.11053,50.24465],[19.11019,50.24497]]}},{"type":"Feature","properties":{"numer":"240002S","klasa":"droga zbiorcza","kat":"powiatowa"},"geometry":{"type":"LineString","coordinates":[[19.11019,50.24497],[19.1098,50.24532]]}},{"type":"Feature","properties":{"numer":"6490S","klasa":"droga gĹ‚Ăłwna","kat":"powiatowa"},"geometry":{"type":"LineString","coordinates":[[19.1098,50.24532],[19.11192,50.24599],[19.11322,50.2465],[19.11435,50.24698],[19.11681,50.2482]]}},{"type":"Feature","properties":{"numer":"79","klasa":"droga gĹ‚Ăłwna ruchu przyĹ›pieszonego","kat":"krajowa"},"geometry":{"type":"LineString","coordinates":[[19.11815,50.24885],[19.12255,50.24782]]}},{"type":"Feature","properties":{"numer":"6490S","klasa":"droga gĹ‚Ăłwna","kat":"powiatowa"},"geometry":{"type":"LineString","coordinates":[[19.11681,50.2482],[19.11815,50.24885]]}},{"type":"Feature","properties":{"numer":"6490S","klasa":"droga gĹ‚Ăłwna","kat":"powiatowa"},"geometry":{"type":"LineString","coordinates":[[19.11815,50.24885],[19.11985,50.24984],[19.12049,50.25011]]}},{"type":"Feature","properties":{"numer":"79","klasa":"droga gĹ‚Ăłwna ruchu przyĹ›pieszonego","kat":"krajowa"},"geometry":{"type":"LineString","coordinates":[[19.1121,50.2503],[19.11395,50.24986],[19.11416,50.24976],[19.11815,50.24885]]}},{"type":"Feature","properties":{"numer":"79","klasa":"droga gĹ‚Ăłwna ruchu przyĹ›pieszonego","kat":"krajowa"},"geometry":{"type":"LineString","coordinates":[[19.11203,50.25032],[19.1121,50.2503]]}},{"type":"Feature","properties":{"numer":"79","klasa":"droga gĹ‚Ăłwna ruchu przyĹ›pieszonego","kat":"krajowa"},"geometry":{"type":"LineString","coordinates":[[19.11069651792229,50.25063147026632],[19.11203,50.25032]]}},{"type":"Feature","properties":{"numer":"240001S","klasa":"droga zbiorcza","kat":"powiatowa"},"geometry":{"type":"LineString","coordinates":[[19.13103,50.25049],[19.13056,50.25025]]}},{"type":"Feature","properties":{"numer":"240001S","klasa":"droga zbiorcza","kat":"powiatowa"},"geometry":{"type":"LineString","coordinates":[[19.13137,50.25067],[19.13103,50.25049]]}},{"type":"Feature","properties":{"numer":"240001S","klasa":"droga zbiorcza","kat":"powiatowa"},"geometry":{"type":"LineString","coordinates":[[19.13177,50.25089],[19.13137,50.25067]]}},{"type":"Feature","properties":{"numer":"8806S","klasa":"droga zbiorcza","kat":"powiatowa"},"geometry":{"type":"LineString","coordinates":[[19.12868,50.25172],[19.13056,50.25025]]}},{"type":"Feature","properties":{"numer":"240001S","klasa":"droga zbiorcza","kat":"powiatowa"},"geometry":{"type":"LineString","coordinates":[[19.13218,50.2511],[19.13177,50.25089]]}},{"type":"Feature","properties":{"numer":"6490S","klasa":"droga gĹ‚Ăłwna","kat":"powiatowa"},"geometry":{"type":"LineString","coordinates":[[19.12049,50.25011],[19.1243,50.25219]]}},{"type":"Feature","properties":{"numer":"240001S","klasa":"droga zbiorcza","kat":"powiatowa"},"geometry":{"type":"LineString","coordinates":[[19.13304,50.25156],[19.13218,50.2511]]}},{"type":"Feature","properties":{"numer":"8806S","klasa":"droga zbiorcza","kat":"powiatowa"},"geometry":{"type":"LineString","coordinates":[[19.12863,50.25176],[19.12868,50.25172]]}},{"type":"Feature","properties":{"numer":"240001S","klasa":"droga zbiorcza","kat":"powiatowa"},"geometry":{"type":"LineString","coordinates":[[19.13413,50.25213],[19.13304,50.25156]]}},{"type":"Feature","properties":{"numer":"8806S","klasa":"droga zbiorcza","kat":"powiatowa"},"geometry":{"type":"LineString","coordinates":[[19.12665,50.25242],[19.12779,50.25217],[19.12863,50.25176]]}},{"type":"Feature","properties":{"numer":"240001S","klasa":"droga zbiorcza","kat":"powiatowa"},"geometry":{"type":"LineString","coordinates":[[19.13492,50.25254],[19.13413,50.25213]]}},{"type":"Feature","properties":{"numer":"6490S","klasa":"droga gĹ‚Ăłwna","kat":"powiatowa"},"geometry":{"type":"LineString","coordinates":[[19.1243,50.25219],[19.12516,50.25271]]}},{"type":"Feature","properties":{"numer":"8806S","klasa":"droga zbiorcza","kat":"powiatowa"},"geometry":{"type":"LineString","coordinates":[[19.12516,50.25271],[19.12665,50.25242]]}},{"type":"Feature","properties":{"numer":"240001S","klasa":"droga zbiorcza","kat":"powiatowa"},"geometry":{"type":"LineString","coordinates":[[19.13515,50.25274],[19.13492,50.25254]]}},{"type":"Feature","properties":{"numer":"240001S","klasa":"droga zbiorcza","kat":"powiatowa"},"geometry":{"type":"LineString","coordinates":[[19.13515,50.25274],[19.13516,50.25278]]}},{"type":"Feature","properties":{"numer":"8806S","klasa":"droga zbiorcza","kat":"powiatowa"},"geometry":{"type":"LineString","coordinates":[[19.12372,50.25295],[19.12516,50.25271]]}},{"type":"Feature","properties":{"numer":"240001S","klasa":"droga zbiorcza","kat":"powiatowa"},"geometry":{"type":"LineString","coordinates":[[19.13516,50.25278],[19.13515,50.253]]}},{"type":"Feature","properties":{"numer":"240001S","klasa":"droga zbiorcza","kat":"powiatowa"},"geometry":{"type":"LineString","coordinates":[[19.13515,50.253],[19.13516,50.25319]]}},{"type":"Feature","properties":{"numer":"240001S","klasa":"droga zbiorcza","kat":"powiatowa"},"geometry":{"type":"LineString","coordinates":[[19.13516,50.25319],[19.13518,50.25343]]}},{"type":"Feature","properties":{"numer":"240001S","klasa":"droga zbiorcza","kat":"powiatowa"},"geometry":{"type":"LineString","coordinates":[[19.13518,50.25343],[19.13523,50.25577]]}},{"type":"Feature","properties":{"numer":"6490S","klasa":"droga gĹ‚Ăłwna","kat":"powiatowa"},"geometry":{"type":"LineString","coordinates":[[19.12516,50.25271],[19.12641,50.25339],[19.13331,50.25652],[19.1343,50.25689],[19.13507,50.25695]]}},{"type":"Feature","properties":{"numer":"240001S","klasa":"droga zbiorcza","kat":"powiatowa"},"geometry":{"type":"LineString","coordinates":[[19.13523,50.25577],[19.13522,50.25591]]}},{"type":"Feature","properties":{"numer":"240001S","klasa":"droga zbiorcza","kat":"powiatowa"},"geometry":{"type":"LineString","coordinates":[[19.13507,50.25695],[19.13522,50.25591]]}},{"type":"Feature","properties":{"numer":"6490S","klasa":"droga zbiorcza","kat":"powiatowa"},"geometry":{"type":"LineString","coordinates":[[19.13507,50.25695],[19.13587,50.25791]]}},{"type":"Feature","properties":{"numer":"6490S","klasa":"droga zbiorcza","kat":"powiatowa"},"geometry":{"type":"LineString","coordinates":[[19.13587,50.25791],[19.13597,50.25812]]}},{"type":"Feature","properties":{"numer":"6490S","klasa":"droga zbiorcza","kat":"powiatowa"},"geometry":{"type":"LineString","coordinates":[[19.13597,50.25812],[19.13602,50.25823]]}},{"type":"Feature","properties":{"numer":"6490S","klasa":"droga zbiorcza","kat":"powiatowa"},"geometry":{"type":"LineString","coordinates":[[19.13602,50.25823],[19.136377040399456,50.25922078710849]]}},{"type":"Feature","properties":{"numer":"8806S","klasa":"droga zbiorcza","kat":"powiatowa"},"geometry":{"type":"LineString","coordinates":[[19.11863,50.2558],[19.12114,50.25432],[19.12145,50.25391],[19.12186,50.25362],[19.1229,50.25316],[19.12372,50.25295]]}},{"type":"Feature","properties":{"numer":"8806S","klasa":"droga zbiorcza","kat":"powiatowa"},"geometry":{"type":"LineString","coordinates":[[19.11863,50.2558],[19.11851,50.25587]]}},{"type":"Feature","properties":{"numer":"8806S","klasa":"droga zbiorcza","kat":"powiatowa"},"geometry":{"type":"LineString","coordinates":[[19.11851,50.25587],[19.11698,50.25675],[19.11543692307692,50.25752153846154]]}}]}