{"type":"FeatureCollection","features":[{"type":"Feature","properties":{"numer":"0382T","klasa":"droga zbiorcza","kat":"powiatowa"},"geometry":{"type":"LineString","coordinates":[[20.549022287125574,50.715908319662844],[20.54853,50.71627],[20.54488,50.71809],[20.54275,50.71893],[20.54157,50.71928],[20.54092,50.7196],[20.54004,50.72022],[20.53949,50.72078],[20.53896,50.7215],[20.53819,50.72174],[20.53777,50.72206]]}},{"type":"Feature","properties":{"numer":"0156T","klasa":"","kat":"powiatowa"},"geometry":{"type":"LineString","coordinates":[[20.516932472218215,50.71499537595613],[20.52098,50.71674],[20.52493,50.71809],[20.52726,50.71909],[20.52885,50.71931],[20.53038,50.71983],[20.53549,50.72119],[20.53621,50.72153],[20.53714,50.72176],[20.53777,50.72206]]}},{"type":"Feature","properties":{"numer":"0156T","klasa":"","kat":"powiatowa"},"geometry":{"type":"LineString","coordinates":[[20.53874,50.72467],[20.53936,50.72483],[20.54164,50.7251],[20.549,50.72556],[20.55192,50.72508],[20.55705,50.7244],[20.557476812080544,50.72442701342282]]}},{"type":"Feature","properties":{"numer":"0156T,0382T","klasa":"droga zbiorcza","kat":"powiatowa"},"geometry":{"type":"LineString","coordinates":[[20.53874,50.72467],[20.5388,50.72434],[20.5392,50.72384],[20.53921,50.72356],[20.53887,50.72308],[20.53777,50.72206]]}},{"type":"Feature","properties":{"numer":"0382T","klasa":"droga zbiorcza","kat":"powiatowa"},"geometry":{"type":"LineString","coordinates":[[20.53874,50.72467],[20.53851,50.72521],[20.537,50.72618],[20.5352,50.72769],[20.53421,50.72824],[20.53304,50.72873],[20.53195,50.72947],[20.53179,50.72973],[20.53177,50.73025]]}},{"type":"Feature","properties":{"numer":"0382T","klasa":"droga zbiorcza","kat":"powiatowa"},"geometry":{"type":"LineString","coordinates":[[20.53177,50.73025],[20.5306,50.73083],[20.5258,50.73286],[20.51983,50.73442],[20.5173,50.73517],[20.51521,50.73567],[20.51377,50.73615],[20.51034,50.73771],[20.50906,50.73799]]}},{"type":"Feature","properties":{"numer":"0384T","klasa":"","kat":"powiatowa"},"geometry":{"type":"LineString","coordinates":[[20.53177,50.73025],[20.53188,50.73163],[20.53137,50.73458],[20.53176,50.73593],[20.53185,50.73739],[20.53118,50.74073],[20.53103,50.74106],[20.52897,50.74336],[20.52845,50.74411],[20.5254,50.75102],[20.52522,50.75246],[20.52533,50.75331],[20.52472,50.75422]]}},{"type":"Feature","properties":{"numer":"0386T","klasa":"","kat":"powiatowa"},"geometry":{"type":"LineString","coordinates":[[20.50271,50.73182],[20.50284,50.73118],[20.50328,50.73024],[20.50355,50.72801],[20.50366845676275,50.727703986696234]]}},{"type":"Feature","properties":{"numer":"0386T","klasa":"","kat":"powiatowa"},"geometry":{"type":"LineString","coordinates":[[20.50906,50.73799],[20.50871,50.73643],[20.50836,50.73564],[20.50799,50.73526],[20.50717,50.73468],[20.50251,50.73224],[20.50271,50.73182]]}},{"type":"Feature","properties":{"numer":"0382T","klasa":"droga zbiorcza","kat":"powiatowa"},"geometry":{"type":"LineString","coordinates":[[20.50906,50.73799],[20.50665,50.73882],[20.49972,50.74014],[20.49516,50.74228],[20.49216,50.74379],[20.48722,50.74661],[20.48708,50.74697],[20.48762,50.74792],[20.48753,50.74845],[20.48568,50.74999],[20.48481,50.75058],[20.48349,50.7521],[20.48319,50.75226]]}},{"type":"Feature","properties":{"numer":"0383T","klasa":"droga zbiorcza","kat":"powiatowa"},"geometry":{"type":"LineString","coordinates":[[20.48319,50.75226],[20.48516,50.75254],[20.48643,50.75283],[20.48834,50.75342],[20.49056,50.75429],[20.49122,50.75448],[20.49732,50.75409],[20.50713,50.75387],[20.50757,50.75394],[20.50959,50.75481],[20.51002,50.7549],[20.51883,50.75483],[20.52144,50.75476],[20.52225,50.75466],[20.5225,50.75473]]}},{"type":"Feature","properties":{"numer":"0377T","klasa":"droga zbiorcza","kat":"powiatowa"},"geometry":{"type":"LineString","coordinates":[[20.47304,50.78552],[20.47151,50.78218],[20.47159,50.78163],[20.47522,50.78097],[20.4758,50.78078],[20.47642,50.78038],[20.47783,50.78026],[20.47867,50.77993],[20.4791,50.77955],[20.4819,50.77586],[20.48231,50.77554],[20.48345,50.77525],[20.49342,50.77339],[20.494,50.77274],[20.50059,50.76946],[20.50107,50.76931],[20.50699,50.77398],[20.51041,50.7769],[20.5171,50.78233]]}},{"type":"Feature","properties":{"numer":"763","klasa":"droga gĹ‚Ăłwna","kat":"wojewodzka"},"geometry":{"type":"LineString","coordinates":[[20.48517,50.7933],[20.48543,50.79303],[20.48595,50.79276],[20.49235,50.79018],[20.49841,50.78914],[20.50572,50.78803],[20.51579,50.78308],[20.5171,50.78233]]}},{"type":"Feature","properties":{"numer":"0383T","klasa":"droga zbiorcza","kat":"powiatowa"},"geometry":{"type":"LineString","coordinates":[[20.555799095500248,50.7497539483143],[20.55538,50.74973],[20.5538,50.74999],[20.55066,50.75065],[20.54359,50.75161],[20.53965,50.75233],[20.53713,50.75306],[20.53428,50.75356],[20.53352,50.75391],[20.53275,50.75412],[20.52592,50.75526],[20.52574,50.75522],[20.52472,50.75422]]}},{"type":"Feature","properties":{"numer":"0383T,0384T","klasa":"droga zbiorcza","kat":"powiatowa"},"geometry":{"type":"LineString","coordinates":[[20.52472,50.75422],[20.52369,50.75469],[20.52261,50.75491]]}},{"type":"Feature","properties":{"numer":"0383T","klasa":"droga zbiorcza","kat":"powiatowa"},"geometry":{"type":"LineString","coordinates":[[20.5225,50.75473],[20.52255,50.75481]]}},{"type":"Feature","properties":{"numer":"0383T","klasa":"droga zbiorcza","kat":"powiatowa"},"geometry":{"type":"LineString","coordinates":[[20.52255,50.75481],[20.52261,50.75491]]}},{"type":"Feature","properties":{"numer":"0384T","klasa":"","kat":"powiatowa"},"geometry":{"type":"LineString","coordinates":[[20.52261,50.75491],[20.52395,50.75703]]}},{"type":"Feature","properties":{"numer":"0384T","klasa":"","kat":"powiatowa"},"geometry":{"type":"LineString","coordinates":[[20.52395,50.75703],[20.52408,50.75727]]}},{"type":"Feature","properties":{"numer":"0384T","klasa":"","kat":"powiatowa"},"geometry":{"type":"LineString","coordinates":[[20.52408,50.75727],[20.52431,50.7576],[20.52458,50.75773],[20.53088103724588,50.758864702478114]]}},{"type":"Feature","properties":{"numer":"E77,S7","klasa":"droga ekspresowa","kat":"krajowa"},"geometry":{"type":"LineString","coordinates":[[20.41542,50.74374],[20.41727,50.7453],[20.41792697975709,50.74570856950068]]}},{"type":"Feature","properties":{"numer":"E77,S7","klasa":"droga ekspresowa","kat":"krajowa"},"geometry":{"type":"LineString","coordinates":[[20.419977769511192,50.74687172606205],[20.42095,50.74732],[20.42248,50.74786],[20.42439,50.74839],[20.4255,50.74862],[20.42834,50.74899],[20.43036,50.74907],[20.43906,50.74876],[20.44189,50.74878],[20.44509,50.74912],[20.44747,50.74964],[20.44998,50.75047],[20.45133,50.7511],[20.45316,50.75213],[20.45474,50.75332],[20.45867,50.75666]]}},{"type":"Feature","properties":{"numer":"0382T","klasa":"droga zbiorcza","kat":"powiatowa"},"geometry":{"type":"LineString","coordinates":[[20.48319,50.75226],[20.47959,50.75211],[20.47818,50.75221],[20.47805,50.75225],[20.47806,50.75255],[20.47791,50.75265],[20.47528,50.75327],[20.47352,50.75355],[20.46807,50.75405],[20.46496,50.75464],[20.4626,50.7548],[20.46078,50.75477]]}},{"type":"Feature","properties":{"numer":"0382T","klasa":"droga zbiorcza","kat":"powiatowa"},"geometry":{"type":"LineString","coordinates":[[20.46012,50.75467],[20.45997,50.75464],[20.45991,50.75474]]}},{"type":"Feature","properties":{"numer":"E77,S7","klasa":"droga ekspresowa","kat":"krajowa"},"geometry":{"type":"LineString","coordinates":[[20.41421964208243,50.74232970294047],[20.41542,50.74374]]}},{"type":"Feature","properties":{"numer":"","klasa":"droga lokalna","kat":"gminna"},"geometry":{"type":"LineString","coordinates":[[20.413846526392604,50.74259917538312],[20.41498,50.74392]]}},{"type":"Feature","properties":{"numer":"","klasa":"droga lokalna","kat":"gminna"},"geometry":{"type":"LineString","coordinates":[[20.41498,50.74392],[20.41542,50.74374]]}},{"type":"Feature","properties":{"numer":"0382T","klasa":"droga zbiorcza","kat":"powiatowa"},"geometry":{"type":"LineString","coordinates":[[20.46012,50.75467],[20.46078,50.75477]]}},{"type":"Feature","properties":{"numer":"","klasa":"droga gĹ‚Ăłwna","kat":"gminna"},"geometry":{"type":"LineString","coordinates":[[20.41498,50.74392],[20.42767,50.75898],[20.42818,50.75945],[20.42894,50.75989],[20.43006,50.76026],[20.43207,50.76054],[20.43642,50.76094],[20.4374,50.76119],[20.43843,50.76169],[20.44261,50.76453],[20.44477,50.76566]]}},{"type":"Feature","properties":{"numer":"0382T","klasa":"droga zbiorcza","kat":"powiatowa"},"geometry":{"type":"LineString","coordinates":[[20.45991,50.75474],[20.45971,50.75509]]}},{"type":"Feature","properties":{"numer":"0382T","klasa":"droga zbiorcza","kat":"powiatowa"},"geometry":{"type":"LineString","coordinates":[[20.45945,50.75556],[20.45971,50.75509]]}},{"type":"Feature","properties":{"numer":"0382T","klasa":"droga zbiorcza","kat":"powiatowa"},"geometry":{"type":"LineString","coordinates":[[20.45945,50.75556],[20.45926,50.7559]]}},{"type":"Feature","properties":{"numer":"0382T","klasa":"droga zbiorcza","kat":"powiatowa"},"geometry":{"type":"LineString","coordinates":[[20.45926,50.7559],[20.45912,50.75614]]}},{"type":"Feature","properties":{"numer":"0382T","klasa":"droga zbiorcza","kat":"powiatowa"},"geometry":{"type":"LineString","coordinates":[[20.45912,50.75614],[20.4589,50.75644]]}},{"type":"Feature","properties":{"numer":"0382T","klasa":"droga zbiorcza","kat":"powiatowa"},"geometry":{"type":"LineString","coordinates":[[20.4589,50.75644],[20.45867,50.75666]]}},{"type":"Feature","properties":{"numer":"0382T","klasa":"droga zbiorcza","kat":"powiatowa"},"geometry":{"type":"LineString","coordinates":[[20.45867,50.75666],[20.45791,50.75715],[20.45669,50.75767],[20.45369,50.75894],[20.4517,50.75963],[20.45147,50.75983],[20.45091,50.76097],[20.45056,50.76138],[20.44857,50.76268],[20.44733,50.76383],[20.44477,50.76566]]}},{"type":"Feature","properties":{"numer":"","klasa":"droga gĹ‚Ăłwna","kat":"gminna"},"geometry":{"type":"LineString","coordinates":[[20.44477,50.76566],[20.44907,50.76788],[20.44973,50.76839],[20.45036,50.76945],[20.45235,50.77395]]}},{"type":"Feature","properties":{"numer":"0154T","klasa":"","kat":"powiatowa"},"geometry":{"type":"LineString","coordinates":[[20.40905,50.777],[20.39968,50.77217],[20.398331573849884,50.77163062953995]]}},{"type":"Feature","properties":{"numer":"0273T","klasa":"","kat":"powiatowa"},"geometry":{"type":"LineString","coordinates":[[20.40905,50.777],[20.39802,50.78581],[20.39016,50.79228],[20.38747,50.79434],[20.38584,50.79587],[20.38441,50.7979],[20.38392,50.79894],[20.38398,50.79949],[20.38442,50.80018],[20.38458,50.80096],[20.3851,50.80182],[20.38504,50.80222]]}},{"type":"Feature","properties":{"numer":"762","klasa":"droga gĹ‚Ăłwna","kat":"wojewodzka"},"geometry":{"type":"LineString","coordinates":[[20.38059,50.80153],[20.38287,50.80174],[20.38369,50.80188]]}},{"type":"Feature","properties":{"numer":"762","klasa":"droga gĹ‚Ăłwna","kat":"wojewodzka"},"geometry":{"type":"LineString","coordinates":[[20.38369,50.80188],[20.38392,50.80192]]}},{"type":"Feature","properties":{"numer":"762","klasa":"droga gĹ‚Ăłwna","kat":"wojewodzka"},"geometry":{"type":"LineString","coordinates":[[20.38392,50.80192],[20.38504,50.80222]]}},{"type":"Feature","properties":{"numer":"762","klasa":"droga gĹ‚Ăłwna","kat":"wojewodzka"},"geometry":{"type":"LineString","coordinates":[[20.38504,50.80222],[20.38606,50.80263],[20.38827,50.80399],[20.38905,50.80434],[20.39033,50.80473],[20.39127,50.80486],[20.3923,50.80489],[20.419,50.80203],[20.42035,50.80202]]}},{"type":"Feature","properties":{"numer":"","klasa":"droga gĹ‚Ăłwna","kat":"gminna"},"geometry":{"type":"LineString","coordinates":[[20.45235,50.77395],[20.45251,50.77432]]}},{"type":"Feature","properties":{"numer":"","klasa":"droga gĹ‚Ăłwna","kat":"gminna"},"geometry":{"type":"LineString","coordinates":[[20.45251,50.77432],[20.45459,50.77894]]}},{"type":"Feature","properties":{"numer":"E77,S7","klasa":"droga ekspresowa","kat":"krajowa"},"geometry":{"type":"LineString","coordinates":[[20.45867,50.75666],[20.46036,50.75812],[20.46191,50.75977],[20.46291,50.76123],[20.46376,50.76319],[20.46407,50.76449],[20.46418,50.76584],[20.46399,50.77365],[20.46406,50.77457],[20.46456,50.7768],[20.46546,50.77873],[20.46654,50.78029],[20.46746,50.78134],[20.476,50.79],[20.47836,50.79252],[20.48019,50.79497],[20.48178,50.79776]]}},{"type":"Feature","properties":{"numer":"0273T","klasa":"","kat":"powiatowa"},"geometry":{"type":"LineString","coordinates":[[20.45459,50.77894],[20.44934,50.77831],[20.44799,50.77825],[20.44477,50.77855],[20.44251,50.779],[20.43943,50.77908],[20.43816,50.77888],[20.43614,50.77809],[20.43398,50.77751],[20.42783,50.77663],[20.42709,50.77657],[20.42163,50.77657],[20.41122,50.77549],[20.41097,50.7755],[20.41073,50.77562],[20.40905,50.777]]}},{"type":"Feature","properties":{"numer":"","klasa":"droga gĹ‚Ăłwna","kat":"gminna"},"geometry":{"type":"LineString","coordinates":[[20.45459,50.77894],[20.45497,50.77948]]}},{"type":"Feature","properties":{"numer":"","klasa":"droga gĹ‚Ăłwna","kat":"gminna"},"geometry":{"type":"LineString","coordinates":[[20.45497,50.77948],[20.45609,50.78048]]}},{"type":"Feature","properties":{"numer":"0274T","klasa":"","kat":"powiatowa"},"geometry":{"type":"LineString","coordinates":[[20.45497,50.77948],[20.45488,50.77967],[20.45535,50.78069]]}},{"type":"Feature","properties":{"numer":"0274T","klasa":"","kat":"powiatowa"},"geometry":{"type":"LineString","coordinates":[[20.45535,50.78069],[20.4557,50.7805],[20.45609,50.78048]]}},{"type":"Feature","properties":{"numer":"","klasa":"droga gĹ‚Ăłwna","kat":"gminna"},"geometry":{"type":"LineString","coordinates":[[20.45609,50.78048],[20.47543,50.79017],[20.47858,50.79348],[20.47933,50.79491]]}},{"type":"Feature","properties":{"numer":"0274T","klasa":"","kat":"powiatowa"},"geometry":{"type":"LineString","coordinates":[[20.45535,50.78069],[20.4559,50.78197],[20.45581,50.7826],[20.45352,50.78454],[20.45293,50.7851],[20.45277,50.78539],[20.45284,50.78562],[20.4532,50.78586],[20.45458,50.78625],[20.45476,50.78645],[20.45478,50.78671],[20.45407,50.78747],[20.45163,50.7891],[20.45102,50.78994],[20.45076,50.79073],[20.45098,50.79119],[20.45191,50.79174],[20.45268,50.79202],[20.45386,50.7923],[20.45433,50.7926],[20.45439,50.79303],[20.45393,50.79394],[20.45389,50.79434],[20.45446,50.79592]]}},{"type":"Feature","properties":{"numer":"762","klasa":"droga gĹ‚Ăłwna","kat":"wojewodzka"},"geometry":{"type":"LineString","coordinates":[[20.33950319797414,50.79230728859546],[20.33966,50.79233],[20.34282,50.79255],[20.34955,50.79336],[20.35265,50.79393],[20.35617,50.79496]]}},{"type":"Feature","properties":{"numer":"762","klasa":"droga gĹ‚Ăłwna","kat":"wojewodzka"},"geometry":{"type":"LineString","coordinates":[[20.35617,50.79496],[20.36256,50.79687]]}},{"type":"Feature","properties":{"numer":"762","klasa":"droga gĹ‚Ăłwna","kat":"wojewodzka"},"geometry":{"type":"LineString","coordinates":[[20.36256,50.79687],[20.36506,50.79762]]}},{"type":"Feature","properties":{"numer":"762","klasa":"droga gĹ‚Ăłwna","kat":"wojewodzka"},"geometry":{"type":"LineString","coordinates":[[20.36506,50.79762],[20.36572,50.79781]]}},{"type":"Feature","properties":{"numer":"0276T","klasa":"","kat":"powiatowa"},"geometry":{"type":"LineString","coordinates":[[20.36485,50.79789],[20.36506,50.79762]]}},{"type":"Feature","properties":{"numer":"762","klasa":"droga gĹ‚Ăłwna","kat":"wojewodzka"},"geometry":{"type":"LineString","coordinates":[[20.36572,50.79781],[20.36829,50.79874]]}},{"type":"Feature","properties":{"numer":"763","klasa":"droga gĹ‚Ăłwna","kat":"wojewodzka"},"geometry":{"type":"LineString","coordinates":[[20.48517,50.7933],[20.48507,50.79351]]}},{"type":"Feature","properties":{"numer":"763","klasa":"droga gĹ‚Ăłwna","kat":"wojewodzka"},"geometry":{"type":"LineString","coordinates":[[20.485,50.79381],[20.48507,50.79351]]}},{"type":"Feature","properties":{"numer":"763","klasa":"droga gĹ‚Ăłwna","kat":"wojewodzka"},"geometry":{"type":"LineString","coordinates":[[20.48498,50.79405],[20.485,50.79381]]}},{"type":"Feature","properties":{"numer":"","klasa":"droga gĹ‚Ăłwna","kat":"gminna"},"geometry":{"type":"LineString","coordinates":[[20.47933,50.79491],[20.47939,50.79505]]}},{"type":"Feature","properties":{"numer":"0274T","klasa":"droga zbiorcza","kat":"powiatowa"},"geometry":{"type":"LineString","coordinates":[[20.47933,50.79506],[20.47939,50.79505]]}},{"type":"Feature","properties":{"numer":"0274T","klasa":"droga zbiorcza","kat":"powiatowa"},"geometry":{"type":"LineString","coordinates":[[20.47893,50.79516],[20.47933,50.79506]]}},{"type":"Feature","properties":{"numer":"","klasa":"droga gĹ‚Ăłwna","kat":"gminna"},"geometry":{"type":"LineString","coordinates":[[20.47939,50.79505],[20.47954,50.79537]]}},{"type":"Feature","properties":{"numer":"0274T","klasa":"droga zbiorcza","kat":"powiatowa"},"geometry":{"type":"LineString","coordinates":[[20.47436,50.79631],[20.47597,50.79572],[20.47893,50.79516]]}},{"type":"Feature","properties":{"numer":"763","klasa":"droga gĹ‚Ăłwna","kat":"wojewodzka"},"geometry":{"type":"LineString","coordinates":[[20.48178,50.79776],[20.48264,50.79758],[20.48346,50.79727],[20.48391,50.797],[20.48444,50.79653],[20.48479,50.79583],[20.48498,50.79405]]}},{"type":"Feature","properties":{"numer":"","klasa":"droga gĹ‚Ăłwna","kat":"gminna"},"geometry":{"type":"LineString","coordinates":[[20.47954,50.79537],[20.48061,50.79742]]}},{"type":"Feature","properties":{"numer":"763","klasa":"droga gĹ‚Ăłwna","kat":"wojewodzka"},"geometry":{"type":"LineString","coordinates":[[20.52196,50.7805],[20.52253484008529,50.780471257995735]]}},{"type":"Feature","properties":{"numer":"763","klasa":"droga gĹ‚Ăłwna","kat":"wojewodzka"},"geometry":{"type":"LineString","coordinates":[[20.5171,50.78233],[20.52009,50.78085],[20.52078,50.78065],[20.52196,50.7805]]}},{"type":"Feature","properties":{"numer":"0377T","klasa":"droga zbiorcza","kat":"powiatowa"},"geometry":{"type":"LineString","coordinates":[[20.527047367946444,50.79039474587985],[20.5171,50.78233]]}},{"type":"Feature","properties":{"numer":"","klasa":"droga gĹ‚Ăłwna","kat":"gminna"},"geometry":{"type":"LineString","coordinates":[[20.48061,50.79742],[20.48083,50.79779]]}},{"type":"Feature","properties":{"numer":"763","klasa":"droga gĹ‚Ăłwna","kat":"wojewodzka"},"geometry":{"type":"LineString","coordinates":[[20.4816,50.7978],[20.48178,50.79776]]}},{"type":"Feature","properties":{"numer":"763","klasa":"droga gĹ‚Ăłwna","kat":"wojewodzka"},"geometry":{"type":"LineString","coordinates":[[20.48114,50.7979],[20.4816,50.7978]]}},{"type":"Feature","properties":{"numer":"763","klasa":"droga gĹ‚Ăłwna","kat":"wojewodzka"},"geometry":{"type":"LineString","coordinates":[[20.48092,50.79795],[20.48114,50.7979]]}},{"type":"Feature","properties":{"numer":"","klasa":"","kat":"gminna"},"geometry":{"type":"LineString","coordinates":[[20.48092,50.79795],[20.48068,50.798]]}},{"type":"Feature","properties":{"numer":"763","klasa":"droga gĹ‚Ăłwna","kat":"wojewodzka"},"geometry":{"type":"LineString","coordinates":[[20.48068,50.798],[20.48015,50.79813]]}},{"type":"Feature","properties":{"numer":"763","klasa":"droga gĹ‚Ăłwna","kat":"wojewodzka"},"geometry":{"type":"LineString","coordinates":[[20.48015,50.79813],[20.47932,50.79842],[20.47835,50.79893],[20.47763,50.79952],[20.47712,50.80017],[20.47684,50.80083],[20.47677,50.80137],[20.47713,50.80411],[20.47708,50.80442],[20.47683,50.80471]]}},{"type":"Feature","properties":{"numer":"E77,S7","klasa":"droga ekspresowa","kat":"krajowa"},"geometry":{"type":"LineString","coordinates":[[20.48178,50.79776],[20.48495,50.80411],[20.48525,50.80523],[20.48547,50.80677],[20.48535,50.80843]]}},{"type":"Feature","properties":{"numer":"0381T","klasa":"","kat":"powiatowa"},"geometry":{"type":"LineString","coordinates":[[20.49611,50.81234],[20.49629,50.8123],[20.49648,50.81236],[20.49683,50.81305],[20.49753,50.81337],[20.49902,50.81319],[20.49943,50.81307],[20.50179,50.8116],[20.50185,50.81106],[20.501854458161862,50.81105279835391]]}},{"type":"Feature","properties":{"numer":"0381T","klasa":"","kat":"powiatowa"},"geometry":{"type":"LineString","coordinates":[[20.502674502529505,50.810452293423275],[20.503096699585857,50.810210522459386]]}},{"type":"Feature","properties":{"numer":"","klasa":"droga zbiorcza","kat":"powiatowa"},"geometry":{"type":"LineString","coordinates":[[20.47615,50.80466],[20.47632,50.80483]]}},{"type":"Feature","properties":{"numer":"763","klasa":"droga gĹ‚Ăłwna","kat":"wojewodzka"},"geometry":{"type":"LineString","coordinates":[[20.47683,50.80471],[20.47662,50.80486]]}},{"type":"Feature","properties":{"numer":"","klasa":"droga zbiorcza","kat":"powiatowa"},"geometry":{"type":"LineString","coordinates":[[20.47632,50.80483],[20.47643,50.80497]]}},{"type":"Feature","properties":{"numer":"763","klasa":"droga gĹ‚Ăłwna","kat":"wojewodzka"},"geometry":{"type":"LineString","coordinates":[[20.47662,50.80486],[20.47643,50.80497]]}},{"type":"Feature","properties":{"numer":"762","klasa":"droga gĹ‚Ăłwna","kat":"wojewodzka"},"geometry":{"type":"LineString","coordinates":[[20.47328,50.80498],[20.47441,50.80489],[20.47587,50.80495]]}},{"type":"Feature","properties":{"numer":"762","klasa":"droga gĹ‚Ăłwna","kat":"wojewodzka"},"geometry":{"type":"LineString","coordinates":[[20.47587,50.80495],[20.47618,50.80497]]}},{"type":"Feature","properties":{"numer":"762","klasa":"droga gĹ‚Ăłwna","kat":"wojewodzka"},"geometry":{"type":"LineString","coordinates":[[20.47618,50.80497],[20.47643,50.80497]]}},{"type":"Feature","properties":{"numer":"762","klasa":"droga gĹ‚Ăłwna","kat":"wojewodzka"},"geometry":{"type":"LineString","coordinates":[[20.47643,50.80497],[20.47667,50.80504]]}},{"type":"Feature","properties":{"numer":"762","klasa":"droga gĹ‚Ăłwna","kat":"wojewodzka"},"geometry":{"type":"LineString","coordinates":[[20.47667,50.80504],[20.47696,50.80511]]}},{"type":"Feature","properties":{"numer":"762","klasa":"droga gĹ‚Ăłwna","kat":"wojewodzka"},"geometry":{"type":"LineString","coordinates":[[20.47696,50.80511],[20.47833,50.80553],[20.48276,50.80736]]}},{"type":"Feature","properties":{"numer":"762","klasa":"droga gĹ‚Ăłwna","kat":"wojewodzka"},"geometry":{"type":"LineString","coordinates":[[20.48276,50.80736],[20.48302,50.80747]]}},{"type":"Feature","properties":{"numer":"762","klasa":"droga gĹ‚Ăłwna","kat":"wojewodzka"},"geometry":{"type":"LineString","coordinates":[[20.48302,50.80747],[20.48481,50.8082]]}},{"type":"Feature","properties":{"numer":"762","klasa":"droga gĹ‚Ăłwna","kat":"wojewodzka"},"geometry":{"type":"LineString","coordinates":[[20.48481,50.8082],[20.48535,50.80843]]}},{"type":"Feature","properties":{"numer":"762","klasa":"droga gĹ‚Ăłwna","kat":"wojewodzka"},"geometry":{"type":"LineString","coordinates":[[20.48535,50.80843],[20.48973,50.81027]]}},{"type":"Feature","properties":{"numer":"762","klasa":"droga gĹ‚Ăłwna","kat":"wojewodzka"},"geometry":{"type":"LineString","coordinates":[[20.48973,50.81027],[20.4959,50.81291]]}},{"type":"Feature","properties":{"numer":"315004T","klasa":"droga lokalna","kat":"powiatowa"},"geometry":{"type":"LineString","coordinates":[[20.49611,50.81234],[20.49613,50.81242]]}},{"type":"Feature","properties":{"numer":"315004T","klasa":"","kat":"powiatowa"},"geometry":{"type":"LineString","coordinates":[[20.49613,50.81242],[20.49605,50.81273]]}},{"type":"Feature","properties":{"numer":"0381T","klasa":"","kat":"powiatowa"},"geometry":{"type":"LineString","coordinates":[[20.49605,50.81273],[20.4959,50.81291]]}},{"type":"Feature","properties":{"numer":"0379T","klasa":"","kat":"powiatowa"},"geometry":{"type":"LineString","coordinates":[[20.4959,50.81291],[20.49572,50.81306]]}},{"type":"Feature","properties":{"numer":"0379T","klasa":"","kat":"powiatowa"},"geometry":{"type":"LineString","coordinates":[[20.49572,50.81306],[20.4954,50.81329]]}},{"type":"Feature","properties":{"numer":"0379T","klasa":"","kat":"powiatowa"},"geometry":{"type":"LineString","coordinates":[[20.4954,50.81329],[20.49395,50.81431],[20.49259,50.81503],[20.49239,50.81521],[20.49243,50.81541],[20.4932,50.81595],[20.49327,50.81641],[20.49284,50.81684],[20.49215,50.81795],[20.49147,50.81867],[20.49033,50.81953],[20.48999,50.8199],[20.48978,50.82058],[20.48961,50.82202]]}},{"type":"Feature","properties":{"numer":"762","klasa":"droga gĹ‚Ăłwna","kat":"wojewodzka"},"geometry":{"type":"LineString","coordinates":[[20.4959,50.81291],[20.512142388389424,50.819660842263886]]}},{"type":"Feature","properties":{"numer":"E77,S7","klasa":"droga ekspresowa","kat":"krajowa"},"geometry":{"type":"LineString","coordinates":[[20.48535,50.80843],[20.48505,50.80959],[20.48419,50.81144],[20.48333,50.81271],[20.48234,50.81378],[20.48115,50.81484],[20.47913,50.81622],[20.47217,50.81969],[20.47089,50.82048],[20.46997,50.82117],[20.46889,50.82228],[20.46812,50.82332],[20.46746,50.8248],[20.46725,50.82578],[20.46723,50.82723],[20.467378833943314,50.82781444548472]]}},{"type":"Feature","properties":{"numer":"0274T","klasa":"","kat":"powiatowa"},"geometry":{"type":"LineString","coordinates":[[20.42035,50.80202],[20.42042,50.8018],[20.42067,50.8016],[20.43258,50.7943],[20.44202,50.78863],[20.44439,50.78696],[20.44589,50.78609],[20.44915,50.78399],[20.45101,50.78232],[20.45535,50.78069]]}},{"type":"Feature","properties":{"numer":"315032T","klasa":"droga lokalna","kat":"powiatowa"},"geometry":{"type":"LineString","coordinates":[[20.45446,50.79592],[20.45497,50.79646],[20.45596,50.79688]]}},{"type":"Feature","properties":{"numer":"315032T","klasa":"droga lokalna","kat":"powiatowa"},"geometry":{"type":"LineString","coordinates":[[20.45596,50.79688],[20.45618,50.79707]]}},{"type":"Feature","properties":{"numer":"315032T","klasa":"droga lokalna","kat":"powiatowa"},"geometry":{"type":"LineString","coordinates":[[20.45618,50.79707],[20.45642,50.79753],[20.45632,50.79831],[20.45646,50.79866]]}},{"type":"Feature","properties":{"numer":"","klasa":"droga zbiorcza","kat":"powiatowa"},"geometry":{"type":"LineString","coordinates":[[20.46799,50.80073],[20.4653,50.79884],[20.46579,50.79853],[20.46623,50.79841],[20.46928,50.79785],[20.47091,50.79713],[20.47338,50.79665],[20.47436,50.79631]]}},{"type":"Feature","properties":{"numer":"315027T","klasa":"droga lokalna","kat":"powiatowa"},"geometry":{"type":"LineString","coordinates":[[20.45646,50.79866],[20.45753,50.79934],[20.45816,50.8],[20.45863,50.80018]]}},{"type":"Feature","properties":{"numer":"315027T","klasa":"droga lokalna","kat":"powiatowa"},"geometry":{"type":"LineString","coordinates":[[20.46063,50.8001],[20.46143,50.79988]]}},{"type":"Feature","properties":{"numer":"315025T","klasa":"droga lokalna","kat":"powiatowa"},"geometry":{"type":"LineString","coordinates":[[20.46143,50.79988],[20.46183,50.80035]]}},{"type":"Feature","properties":{"numer":"315027T","klasa":"droga lokalna","kat":"powiatowa"},"geometry":{"type":"LineString","coordinates":[[20.45863,50.80018],[20.46012,50.80019],[20.46063,50.8001]]}},{"type":"Feature","properties":{"numer":"315033T","klasa":"droga lokalna","kat":"powiatowa"},"geometry":{"type":"LineString","coordinates":[[20.46221,50.8011],[20.46212,50.80108],[20.46183,50.80035]]}},{"type":"Feature","properties":{"numer":"","klasa":"droga zbiorcza","kat":"powiatowa"},"geometry":{"type":"LineString","coordinates":[[20.46821,50.80105],[20.46799,50.80073]]}},{"type":"Feature","properties":{"numer":"315020T","klasa":"droga lokalna","kat":"powiatowa"},"geometry":{"type":"LineString","coordinates":[[20.46221,50.8011],[20.46239,50.80114],[20.46342,50.80085]]}},{"type":"Feature","properties":{"numer":"315028T","klasa":"","kat":"powiatowa"},"geometry":{"type":"LineString","coordinates":[[20.46752,50.80115],[20.46821,50.80105]]}},{"type":"Feature","properties":{"numer":"","klasa":"droga zbiorcza","kat":"powiatowa"},"geometry":{"type":"LineString","coordinates":[[20.46873,50.80126],[20.46821,50.80105]]}},{"type":"Feature","properties":{"numer":"315021T","klasa":"droga lokalna","kat":"powiatowa"},"geometry":{"type":"LineString","coordinates":[[20.46342,50.80085],[20.46403,50.8016]]}},{"type":"Feature","properties":{"numer":"315028T","klasa":"droga lokalna","kat":"powiatowa"},"geometry":{"type":"LineString","coordinates":[[20.4665,50.80136],[20.46752,50.80115]]}},{"type":"Feature","properties":{"numer":"","klasa":"droga lokalna","kat":"gminna"},"geometry":{"type":"LineString","coordinates":[[20.45881,50.8013],[20.45907,50.80122]]}},{"type":"Feature","properties":{"numer":"","klasa":"droga lokalna","kat":"gminna"},"geometry":{"type":"LineString","coordinates":[[20.45907,50.80122],[20.45919,50.80141]]}},{"type":"Feature","properties":{"numer":"","klasa":"droga zbiorcza","kat":"powiatowa"},"geometry":{"type":"LineString","coordinates":[[20.46873,50.80126],[20.46918,50.80147]]}},{"type":"Feature","properties":{"numer":"315028T","klasa":"droga lokalna","kat":"powiatowa"},"geometry":{"type":"LineString","coordinates":[[20.46539,50.80146],[20.4665,50.80136]]}},{"type":"Feature","properties":{"numer":"315028T","klasa":"droga lokalna","kat":"powiatowa"},"geometry":{"type":"LineString","coordinates":[[20.46403,50.8016],[20.46539,50.80146]]}},{"type":"Feature","properties":{"numer":"","klasa":"droga lokalna","kat":"gminna"},"geometry":{"type":"LineString","coordinates":[[20.45919,50.80141],[20.45933,50.80174]]}},{"type":"Feature","properties":{"numer":"","klasa":"droga lokalna","kat":"gminna"},"geometry":{"type":"LineString","coordinates":[[20.4563,50.80194],[20.45881,50.8013]]}},{"type":"Feature","properties":{"numer":"","klasa":"droga zbiorcza","kat":"powiatowa"},"geometry":{"type":"LineString","coordinates":[[20.46918,50.80147],[20.4696,50.80177]]}},{"type":"Feature","properties":{"numer":"","klasa":"droga lokalna","kat":"gminna"},"geometry":{"type":"LineString","coordinates":[[20.45933,50.80174],[20.4594,50.80182]]}},{"type":"Feature","properties":{"numer":"","klasa":"droga zbiorcza","kat":"powiatowa"},"geometry":{"type":"LineString","coordinates":[[20.4696,50.80177],[20.47027,50.80197]]}},{"type":"Feature","properties":{"numer":"315023T","klasa":"","kat":"powiatowa"},"geometry":{"type":"LineString","coordinates":[[20.4594,50.80182],[20.45924,50.80197]]}},{"type":"Feature","properties":{"numer":"315034T","klasa":"droga lokalna","kat":"powiatowa"},"geometry":{"type":"LineString","coordinates":[[20.46779,50.80252],[20.46912,50.80192]]}},{"type":"Feature","properties":{"numer":"","klasa":"droga lokalna","kat":"gminna"},"geometry":{"type":"LineString","coordinates":[[20.45069,50.80305],[20.45279,50.80279],[20.4563,50.80194]]}},{"type":"Feature","properties":{"numer":"315023T","klasa":"droga lokalna","kat":"powiatowa"},"geometry":{"type":"LineString","coordinates":[[20.45924,50.80197],[20.45911,50.80314]]}},{"type":"Feature","properties":{"numer":"315034T","klasa":"droga lokalna","kat":"powiatowa"},"geometry":{"type":"LineString","coordinates":[[20.46779,50.80252],[20.46679,50.80295]]}},{"type":"Feature","properties":{"numer":"762","klasa":"droga gĹ‚Ăłwna","kat":"wojewodzka"},"geometry":{"type":"LineString","coordinates":[[20.42035,50.80202],[20.42405,50.80238],[20.43034,50.80228],[20.43139,50.8022],[20.43617,50.80139],[20.43815,50.80139],[20.43942,50.80159],[20.44066,50.80194],[20.44599,50.80431]]}},{"type":"Feature","properties":{"numer":"","klasa":"droga lokalna","kat":"gminna"},"geometry":{"type":"LineString","coordinates":[[20.45037,50.80313],[20.45069,50.80305]]}},{"type":"Feature","properties":{"numer":"315034T","klasa":"droga lokalna","kat":"powiatowa"},"geometry":{"type":"LineString","coordinates":[[20.46679,50.80295],[20.46542,50.80355]]}},{"type":"Feature","properties":{"numer":"","klasa":"droga lokalna","kat":"gminna"},"geometry":{"type":"LineString","coordinates":[[20.4494,50.80348],[20.45037,50.80313]]}},{"type":"Feature","properties":{"numer":"","klasa":"droga zbiorcza","kat":"powiatowa"},"geometry":{"type":"LineString","coordinates":[[20.47027,50.80197],[20.47615,50.80466]]}},{"type":"Feature","properties":{"numer":"315023T","klasa":"droga lokalna","kat":"powiatowa"},"geometry":{"type":"LineString","coordinates":[[20.45911,50.80314],[20.45906,50.80375]]}},{"type":"Feature","properties":{"numer":"","klasa":"droga lokalna","kat":"gminna"},"geometry":{"type":"LineString","coordinates":[[20.44908,50.80359],[20.4494,50.80348]]}},{"type":"Feature","properties":{"numer":"","klasa":"droga lokalna","kat":"gminna"},"geometry":{"type":"LineString","coordinates":[[20.44865,50.80374],[20.44908,50.80359]]}},{"type":"Feature","properties":{"numer":"315034T","klasa":"droga lokalna","kat":"powiatowa"},"geometry":{"type":"LineString","coordinates":[[20.46542,50.80355],[20.46416,50.80403]]}},{"type":"Feature","properties":{"numer":"","klasa":"droga lokalna","kat":"gminna"},"geometry":{"type":"LineString","coordinates":[[20.44724,50.80424],[20.44865,50.80374]]}},{"type":"Feature","properties":{"numer":"315023T","klasa":"droga lokalna","kat":"powiatowa"},"geometry":{"type":"LineString","coordinates":[[20.45906,50.80375],[20.45911,50.8044]]}},{"type":"Feature","properties":{"numer":"315034T","klasa":"droga lokalna","kat":"powiatowa"},"geometry":{"type":"LineString","coordinates":[[20.46416,50.80403],[20.46297,50.80434],[20.46169,50.80454]]}},{"type":"Feature","properties":{"numer":"762","klasa":"droga gĹ‚Ăłwna","kat":"wojewodzka"},"geometry":{"type":"LineString","coordinates":[[20.44599,50.80431],[20.44625,50.80445]]}},{"type":"Feature","properties":{"numer":"315023T","klasa":"droga lokalna","kat":"powiatowa"},"geometry":{"type":"LineString","coordinates":[[20.45911,50.8044],[20.45914,50.80455]]}},{"type":"Feature","properties":{"numer":"762","klasa":"droga gĹ‚Ăłwna","kat":"wojewodzka"},"geometry":{"type":"LineString","coordinates":[[20.44625,50.80445],[20.44645,50.80456]]}},{"type":"Feature","properties":{"numer":"315034T","klasa":"droga lokalna","kat":"powiatowa"},"geometry":{"type":"LineString","coordinates":[[20.46169,50.80454],[20.46035,50.8046]]}},{"type":"Feature","properties":{"numer":"315034T","klasa":"droga lokalna","kat":"powiatowa"},"geometry":{"type":"LineString","coordinates":[[20.45985,50.8046],[20.45914,50.80455]]}},{"type":"Feature","properties":{"numer":"315034T","klasa":"droga lokalna","kat":"powiatowa"},"geometry":{"type":"LineString","coordinates":[[20.46035,50.8046],[20.45985,50.8046]]}},{"type":"Feature","properties":{"numer":"762","klasa":"droga gĹ‚Ăłwna","kat":"wojewodzka"},"geometry":{"type":"LineString","coordinates":[[20.44645,50.80456],[20.44668,50.80464]]}},{"type":"Feature","properties":{"numer":"0275T","klasa":"","kat":"powiatowa"},"geometry":{"type":"LineString","coordinates":[[20.44624,50.80465],[20.44645,50.80456]]}},{"type":"Feature","properties":{"numer":"0275T","klasa":"","kat":"powiatowa"},"geometry":{"type":"LineString","coordinates":[[20.44595,50.80474],[20.44624,50.80465]]}},{"type":"Feature","properties":{"numer":"762","klasa":"droga gĹ‚Ăłwna","kat":"wojewodzka"},"geometry":{"type":"LineString","coordinates":[[20.44668,50.80464],[20.44698,50.80476]]}},{"type":"Feature","properties":{"numer":"762","klasa":"droga gĹ‚Ăłwna","kat":"wojewodzka"},"geometry":{"type":"LineString","coordinates":[[20.47019,50.80558],[20.47328,50.80498]]}},{"type":"Feature","properties":{"numer":"315023T","klasa":"droga lokalna","kat":"powiatowa"},"geometry":{"type":"LineString","coordinates":[[20.45914,50.80455],[20.45928,50.80517],[20.46005,50.80709]]}},{"type":"Feature","properties":{"numer":"762","klasa":"droga gĹ‚Ăłwna","kat":"wojewodzka"},"geometry":{"type":"LineString","coordinates":[[20.44698,50.80476],[20.45009,50.80615],[20.45218,50.80687],[20.45435,50.80735],[20.45708,50.80764]]}},{"type":"Feature","properties":{"numer":"762","klasa":"droga gĹ‚Ăłwna","kat":"wojewodzka"},"geometry":{"type":"LineString","coordinates":[[20.46278,50.80712],[20.47019,50.80558]]}},{"type":"Feature","properties":{"numer":"315023T","klasa":"droga lokalna","kat":"powiatowa"},"geometry":{"type":"LineString","coordinates":[[20.46005,50.80709],[20.4601,50.80728]]}},{"type":"Feature","properties":{"numer":"762","klasa":"droga gĹ‚Ăłwna","kat":"wojewodzka"},"geometry":{"type":"LineString","coordinates":[[20.46017,50.80754],[20.46278,50.80712]]}},{"type":"Feature","properties":{"numer":"315023T","klasa":"","kat":"powiatowa"},"geometry":{"type":"LineString","coordinates":[[20.4601,50.80728],[20.46017,50.80754]]}},{"type":"Feature","properties":{"numer":"762","klasa":"droga gĹ‚Ăłwna","kat":"wojewodzka"},"geometry":{"type":"LineString","coordinates":[[20.45939,50.80763],[20.46017,50.80754]]}},{"type":"Feature","properties":{"numer":"762","klasa":"droga gĹ‚Ăłwna","kat":"wojewodzka"},"geometry":{"type":"LineString","coordinates":[[20.45708,50.80764],[20.45939,50.80763]]}},{"type":"Feature","properties":{"numer":"315018T","klasa":"","kat":"powiatowa"},"geometry":{"type":"LineString","coordinates":[[20.45944,50.80786],[20.45939,50.80763]]}},{"type":"Feature","properties":{"numer":"315018T","klasa":"droga lokalna","kat":"powiatowa"},"geometry":{"type":"LineString","coordinates":[[20.45947,50.808],[20.45944,50.80786]]}},{"type":"Feature","properties":{"numer":"315018T","klasa":"droga lokalna","kat":"powiatowa"},"geometry":{"type":"LineString","coordinates":[[20.45854,50.81024],[20.45947,50.808]]}},{"type":"Feature","properties":{"numer":"315018T","klasa":"droga lokalna","kat":"powiatowa"},"geometry":{"type":"LineString","coordinates":[[20.45356,50.81641],[20.45392,50.8161],[20.45493,50.81486],[20.45543,50.8135],[20.45661,50.81271],[20.45854,50.81024]]}},{"type":"Feature","properties":{"numer":"315018T","klasa":"droga lokalna","kat":"powiatowa"},"geometry":{"type":"LineString","coordinates":[[20.45118,50.81842],[20.45267,50.81736],[20.45356,50.81641]]}},{"type":"Feature","properties":{"numer":"315018T","klasa":"droga lokalna","kat":"powiatowa"},"geometry":{"type":"LineString","coordinates":[[20.44991,50.81929],[20.45094,50.81865],[20.45118,50.81842]]}},{"type":"Feature","properties":{"numer":"315018T","klasa":"droga lokalna","kat":"powiatowa"},"geometry":{"type":"LineString","coordinates":[[20.44989,50.82022],[20.44971,50.81969],[20.44991,50.81929]]}},{"type":"Feature","properties":{"numer":"315018T","klasa":"droga lokalna","kat":"powiatowa"},"geometry":{"type":"LineString","coordinates":[[20.44986,50.82035],[20.44989,50.82022]]}},{"type":"Feature","properties":{"numer":"762","klasa":"droga gĹ‚Ăłwna","kat":"wojewodzka"},"geometry":{"type":"LineString","coordinates":[[20.36829,50.79874],[20.37097,50.79974],[20.37396,50.80061],[20.37751,50.80122]]}},{"type":"Feature","properties":{"numer":"762","klasa":"droga gĹ‚Ăłwna","kat":"wojewodzka"},"geometry":{"type":"LineString","coordinates":[[20.37751,50.80122],[20.38059,50.80153]]}},{"type":"Feature","properties":{"numer":"0276T","klasa":"","kat":"powiatowa"},"geometry":{"type":"LineString","coordinates":[[20.35171,50.8088],[20.35383,50.80785],[20.35564,50.80635],[20.35621,50.80432],[20.35644,50.804],[20.36099,50.80082],[20.36485,50.79789]]}},{"type":"Feature","properties":{"numer":"0279T","klasa":"","kat":"powiatowa"},"geometry":{"type":"LineString","coordinates":[[20.35171,50.8088],[20.35263,50.80989],[20.35307,50.81076],[20.35433,50.81141]]}},{"type":"Feature","properties":{"numer":"0279T","klasa":"","kat":"powiatowa"},"geometry":{"type":"LineString","coordinates":[[20.35433,50.81141],[20.35317,50.81343],[20.35349,50.81405],[20.35417,50.81474],[20.35584,50.81553],[20.35927,50.81646],[20.36031,50.81707],[20.36314,50.81906],[20.36386,50.81946],[20.36527,50.82055],[20.36652,50.82135],[20.36773,50.82248],[20.36843,50.82297],[20.36934,50.82335],[20.3701,50.8239],[20.37188,50.82493],[20.3732,50.82553],[20.37429,50.8262]]}},{"type":"Feature","properties":{"numer":"0279T","klasa":"","kat":"powiatowa"},"geometry":{"type":"LineString","coordinates":[[20.37478,50.82627],[20.37607,50.82598],[20.37822,50.82586],[20.3798,50.82649],[20.38127,50.82589],[20.38158,50.8256]]}},{"type":"Feature","properties":{"numer":"0279T","klasa":"","kat":"powiatowa"},"geometry":{"type":"LineString","coordinates":[[20.37429,50.8262],[20.37478,50.82627]]}},{"type":"Feature","properties":{"numer":"0279T","klasa":"","kat":"powiatowa"},"geometry":{"type":"LineString","coordinates":[[20.37429,50.8262],[20.37448,50.82633]]}},{"type":"Feature","properties":{"numer":"0279T","klasa":"","kat":"powiatowa"},"geometry":{"type":"LineString","coordinates":[[20.37448,50.82633],[20.37478,50.82627]]}},{"type":"Feature","properties":{"numer":"0276T","klasa":"","kat":"powiatowa"},"geometry":{"type":"LineString","coordinates":[[20.3406054028436,50.82969625592417],[20.3406,50.82969],[20.33924,50.82715],[20.33649,50.82614],[20.33493,50.82568],[20.33312,50.82484],[20.33246,50.82437],[20.3308,50.82261],[20.33067,50.82237],[20.33993,50.8148],[20.34549,50.81282],[20.34682,50.81196],[20.34745,50.81114],[20.34784,50.81034],[20.34823,50.80998],[20.35003,50.80917],[20.35093,50.80892],[20.35171,50.8088]]}},{"type":"Feature","properties":{"numer":"0275T","klasa":"","kat":"powiatowa"},"geometry":{"type":"LineString","coordinates":[[20.36503,50.8411],[20.37075,50.83797],[20.37626,50.83515],[20.38085,50.8335],[20.38507,50.8324],[20.3863,50.83172]]}},{"type":"Feature","properties":{"numer":"0281T","klasa":"","kat":"powiatowa"},"geometry":{"type":"LineString","coordinates":[[20.361848501875112,50.85012431820164],[20.36316,50.84922],[20.36499,50.84841],[20.36535,50.84806],[20.36572,50.84659],[20.36567,50.84568],[20.36589,50.84501],[20.36573,50.84492],[20.36493,50.84486],[20.36471,50.84441],[20.36394,50.8439],[20.36409,50.84375],[20.36583,50.84328],[20.3661,50.84284],[20.36605,50.84252],[20.36503,50.8411]]}},{"type":"Feature","properties":{"numer":"0275T","klasa":"","kat":"powiatowa"},"geometry":{"type":"LineString","coordinates":[[20.35438,50.846096],[20.35438,50.84605],[20.35459,50.84591],[20.36044,50.84355],[20.36503,50.8411]]}},{"type":"Feature","properties":{"numer":"315018T","klasa":"droga lokalna","kat":"powiatowa"},"geometry":{"type":"LineString","coordinates":[[20.44984,50.82041],[20.44986,50.82035]]}},{"type":"Feature","properties":{"numer":"0282T","klasa":"","kat":"powiatowa"},"geometry":{"type":"LineString","coordinates":[[20.448937373737373,50.82270131313132],[20.44931,50.82143],[20.44984,50.82041]]}},{"type":"Feature","properties":{"numer":"0275T","klasa":"","kat":"powiatowa"},"geometry":{"type":"LineString","coordinates":[[20.40615,50.81439],[20.40643,50.81439],[20.40679,50.81452],[20.41152,50.81733],[20.41188,50.81734],[20.41683,50.81648],[20.42222,50.81465],[20.42559,50.81307],[20.42753,50.81201],[20.42964,50.81102],[20.43532,50.80877],[20.43885,50.80804],[20.4412,50.80741],[20.443,50.80676],[20.44519,50.80513],[20.44595,50.80474]]}},{"type":"Feature","properties":{"numer":"0275T","klasa":"","kat":"powiatowa"},"geometry":{"type":"LineString","coordinates":[[20.38526,50.82574],[20.38709,50.82484],[20.38865,50.82369],[20.39037,50.82266],[20.39309,50.82174],[20.39483,50.82103],[20.39779,50.81895],[20.40046,50.81747],[20.40161,50.81671],[20.40411,50.81557],[20.40572,50.81453],[20.40615,50.81439]]}},{"type":"Feature","properties":{"numer":"0279T","klasa":"","kat":"powiatowa"},"geometry":{"type":"LineString","coordinates":[[20.3817,50.82551],[20.38208,50.82535],[20.38306,50.82524],[20.38526,50.82574]]}},{"type":"Feature","properties":{"numer":"0279T","klasa":"","kat":"powiatowa"},"geometry":{"type":"LineString","coordinates":[[20.38158,50.8256],[20.3817,50.82551]]}},{"type":"Feature","properties":{"numer":"0275T","klasa":"","kat":"powiatowa"},"geometry":{"type":"LineString","coordinates":[[20.38639,50.83166],[20.38688,50.83134],[20.38692,50.83108],[20.38667,50.8308],[20.38558,50.83002],[20.38538,50.82978],[20.38493,50.82796],[20.38485,50.82713],[20.38526,50.82574]]}},{"type":"Feature","properties":{"numer":"0275T","klasa":"","kat":"powiatowa"},"geometry":{"type":"LineString","coordinates":[[20.3863,50.83172],[20.38639,50.83166]]}}]}