{"type":"FeatureCollection","features":[{"type":"Feature","properties":{"numer":"1524T","klasa":"droga zbiorcza","kat":"powiatowa"},"geometry":{"type":"LineString","coordinates":[[21.60894,50.96728],[21.60889,50.96632],[21.60757,50.96296],[21.60852,50.96115],[21.61186,50.9572],[21.61194,50.95539],[21.61169,50.95469],[21.61199,50.95272],[21.61576571425676,50.94358873315273]]}},{"type":"Feature","properties":{"numer":"1522T","klasa":"droga zbiorcza","kat":"powiatowa"},"geometry":{"type":"LineString","coordinates":[[21.60894,50.96728],[21.61115,50.96872],[21.61442,50.97018],[21.61683,50.97107],[21.61738,50.97119],[21.62012,50.97101],[21.62302,50.97033],[21.62463,50.97009],[21.63131,50.96948],[21.63425,50.96966],[21.64118,50.96967],[21.64532,50.97043],[21.65058,50.97097],[21.65129,50.97102],[21.65394,50.97088],[21.65456,50.97072],[21.66156,50.96802],[21.66373,50.96704],[21.66583,50.96627],[21.66973,50.96502],[21.67234,50.96409],[21.68424,50.96106],[21.69493,50.95842],[21.70028,50.95775]]}},{"type":"Feature","properties":{"numer":"1522T","klasa":"droga zbiorcza","kat":"powiatowa"},"geometry":{"type":"LineString","coordinates":[[21.7577,50.96389],[21.75789,50.96376],[21.75856,50.96257],[21.76298,50.95438],[21.76374,50.95368],[21.76336,50.95017],[21.76254,50.94454],[21.76253,50.94432],[21.76264,50.94427],[21.78519,50.94284],[21.79281,50.94398],[21.79959,50.94509]]}},{"type":"Feature","properties":{"numer":"1522T","klasa":"droga zbiorcza","kat":"powiatowa"},"geometry":{"type":"LineString","coordinates":[[21.71686,50.95874],[21.72566,50.96336],[21.72672,50.96377],[21.72798,50.96406],[21.73731,50.96373],[21.75302,50.96304],[21.7577,50.96389]]}},{"type":"Feature","properties":{"numer":"1526T","klasa":"droga zbiorcza","kat":"powiatowa"},"geometry":{"type":"LineString","coordinates":[[21.72156,50.93605],[21.721381045757912,50.93548993950161]]}},{"type":"Feature","properties":{"numer":"1526T","klasa":"droga zbiorcza","kat":"powiatowa"},"geometry":{"type":"LineString","coordinates":[[21.72137858128079,50.93548222660098],[21.72102,50.93436],[21.72088,50.93283],[21.720981798816563,50.93266402366865]]}},{"type":"Feature","properties":{"numer":"1526T","klasa":"droga zbiorcza","kat":"powiatowa"},"geometry":{"type":"LineString","coordinates":[[21.721802355658202,50.93069810623556],[21.72183472606666,50.930562150520025]]}},{"type":"Feature","properties":{"numer":"79","klasa":"droga gĹ‚Ăłwna","kat":"krajowa"},"geometry":{"type":"LineString","coordinates":[[21.68879,50.93984],[21.68712185687841,50.93589236848757]]}},{"type":"Feature","properties":{"numer":"1525T","klasa":"","kat":"powiatowa"},"geometry":{"type":"LineString","coordinates":[[21.71589,50.93686],[21.7195,50.93625],[21.72156,50.93605]]}},{"type":"Feature","properties":{"numer":"1525T","klasa":"","kat":"powiatowa"},"geometry":{"type":"LineString","coordinates":[[21.70047,50.93842],[21.70533,50.93769],[21.70669,50.9376],[21.71014,50.9371],[21.71241,50.9372],[21.71589,50.93686]]}},{"type":"Feature","properties":{"numer":"1525T","klasa":"","kat":"powiatowa"},"geometry":{"type":"LineString","coordinates":[[21.68879,50.93984],[21.68992,50.93966],[21.69167,50.93925],[21.69356,50.93912],[21.6983,50.93858],[21.70047,50.93842]]}},{"type":"Feature","properties":{"numer":"1525T","klasa":"","kat":"powiatowa"},"geometry":{"type":"LineString","coordinates":[[21.681436923667956,50.94040849451816],[21.68188,50.94027],[21.68733,50.94003],[21.68879,50.93984]]}},{"type":"Feature","properties":{"numer":"1526T","klasa":"droga zbiorcza","kat":"powiatowa"},"geometry":{"type":"LineString","coordinates":[[21.71686,50.95874],[21.71655,50.9576],[21.71627,50.95585],[21.72168,50.94644],[21.72199,50.94543],[21.72299,50.94399],[21.72298,50.94237],[21.72268,50.94033],[21.72243,50.93976],[21.72138,50.93821],[21.72139,50.93786],[21.72189,50.93692],[21.72156,50.93605]]}},{"type":"Feature","properties":{"numer":"79","klasa":"droga gĹ‚Ăłwna","kat":"krajowa"},"geometry":{"type":"LineString","coordinates":[[21.70028,50.95775],[21.68879,50.93984]]}},{"type":"Feature","properties":{"numer":"1522T","klasa":"droga zbiorcza","kat":"powiatowa"},"geometry":{"type":"LineString","coordinates":[[21.70076,50.95871],[21.70811,50.95836],[21.71379,50.95755],[21.7143,50.95759],[21.71477,50.95772],[21.71686,50.95874]]}},{"type":"Feature","properties":{"numer":"1522T,79","klasa":"droga gĹ‚Ăłwna","kat":"powiatowa"},"geometry":{"type":"LineString","coordinates":[[21.70076,50.95871],[21.70028,50.95775]]}},{"type":"Feature","properties":{"numer":"1576T","klasa":"droga zbiorcza","kat":"powiatowa"},"geometry":{"type":"LineString","coordinates":[[21.80168113660384,50.93250066225759],[21.80198,50.93387],[21.80185,50.93769],[21.80166,50.93808],[21.80035,50.93902],[21.79996,50.93946],[21.79959,50.94509]]}},{"type":"Feature","properties":{"numer":"1576T","klasa":"droga zbiorcza","kat":"powiatowa"},"geometry":{"type":"LineString","coordinates":[[21.79959,50.94509],[21.80198,50.94553],[21.80477,50.94637],[21.80548,50.94672],[21.80541,50.94692],[21.80496,50.94724],[21.80496,50.94742],[21.80519,50.94752],[21.80636,50.94771],[21.80638,50.94787],[21.8062,50.94808],[21.80574,50.9483],[21.8047,50.94861],[21.80409,50.94869],[21.80196,50.94872],[21.80166,50.94883],[21.80134,50.94929],[21.80013,50.95046],[21.79966,50.95109],[21.79896,50.95236],[21.79844,50.95302]]}},{"type":"Feature","properties":{"numer":"1576T,391013T","klasa":"droga zbiorcza","kat":"powiatowa"},"geometry":{"type":"LineString","coordinates":[[21.79844,50.95302],[21.798,50.95321],[21.79779,50.95341],[21.79796,50.9546]]}},{"type":"Feature","properties":{"numer":"1576T","klasa":"droga zbiorcza","kat":"powiatowa"},"geometry":{"type":"LineString","coordinates":[[21.79796,50.9546],[21.7989,50.96068],[21.79925,50.96196],[21.7999,50.96347],[21.80075,50.96412],[21.80104,50.96461],[21.80146,50.96483],[21.80142,50.96497],[21.80094,50.96524],[21.80075,50.96544],[21.80034,50.96615]]}},{"type":"Feature","properties":{"numer":"1576T,391040T","klasa":"droga zbiorcza","kat":"powiatowa"},"geometry":{"type":"LineString","coordinates":[[21.80034,50.96615],[21.8004,50.96629],[21.80075,50.96651],[21.80054,50.96701],[21.80075,50.96755],[21.80067,50.96787],[21.79967,50.96963],[21.79896,50.97025],[21.79871,50.97101]]}},{"type":"Feature","properties":{"numer":"1576T","klasa":"droga zbiorcza","kat":"powiatowa"},"geometry":{"type":"LineString","coordinates":[[21.79548,50.98599],[21.79609,50.98543],[21.7964,50.98498],[21.79627,50.98432],[21.79601,50.98406],[21.79617,50.98397],[21.79645,50.98334],[21.79809,50.98181]]}},{"type":"Feature","properties":{"numer":"1522T","klasa":"droga zbiorcza","kat":"powiatowa"},"geometry":{"type":"LineString","coordinates":[[21.596717535474234,50.965869895444364],[21.59693,50.96576],[21.59931,50.96346],[21.59959,50.96329],[21.60295,50.96481],[21.60478,50.96541],[21.60894,50.96728]]}},{"type":"Feature","properties":{"numer":"1628T","klasa":"","kat":"powiatowa"},"geometry":{"type":"LineString","coordinates":[[21.62996619654723,50.97944847900041],[21.63006,50.97917]]}},{"type":"Feature","properties":{"numer":"754","klasa":"droga gĹ‚Ăłwna","kat":"wojewodzka"},"geometry":{"type":"LineString","coordinates":[[21.657435802386935,51.03106889158912],[21.6592,51.03135],[21.66279,51.03133],[21.66424,51.03139],[21.66473,51.03156],[21.66599,51.03248],[21.66782,51.03335],[21.66865,51.03355],[21.67021,51.03366],[21.6719,51.03401],[21.675,51.03429],[21.67821,51.0344],[21.67895,51.03437],[21.68024,51.03411],[21.68094,51.03413]]}},{"type":"Feature","properties":{"numer":"79","klasa":"droga gĹ‚Ăłwna","kat":"krajowa"},"geometry":{"type":"LineString","coordinates":[[21.65119161876572,51.06996201849934],[21.65121,51.06995]]}},{"type":"Feature","properties":{"numer":"1526T","klasa":"droga zbiorcza","kat":"powiatowa"},"geometry":{"type":"LineString","coordinates":[[21.71509,50.98668],[21.71617,50.98568],[21.71774,50.98488],[21.71927,50.9839],[21.71756,50.98162],[21.71727,50.98106],[21.71724,50.98044],[21.71772,50.97638],[21.71893,50.97063],[21.71945,50.9692],[21.72024,50.96792],[21.72044,50.96731],[21.72024,50.96665],[21.71861,50.96487],[21.71831,50.96435],[21.71795,50.9634],[21.71686,50.95874]]}},{"type":"Feature","properties":{"numer":"79","klasa":"droga gĹ‚Ăłwna","kat":"krajowa"},"geometry":{"type":"LineString","coordinates":[[21.71671,50.99162],[21.71611,50.99057],[21.7137,50.98793],[21.71311,50.98709],[21.70076,50.95871]]}},{"type":"Feature","properties":{"numer":"1526T,391015T","klasa":"droga zbiorcza","kat":"powiatowa"},"geometry":{"type":"LineString","coordinates":[[21.71486,50.98706],[21.71509,50.98668]]}},{"type":"Feature","properties":{"numer":"1526T","klasa":"droga zbiorcza","kat":"powiatowa"},"geometry":{"type":"LineString","coordinates":[[21.71671,50.99162],[21.7168,50.99161],[21.7168,50.99152],[21.71667,50.99065],[21.71491,50.98742],[21.71486,50.98706]]}},{"type":"Feature","properties":{"numer":"79","klasa":"droga gĹ‚Ăłwna","kat":"krajowa"},"geometry":{"type":"LineString","coordinates":[[21.71616,50.99742],[21.71675,50.99259],[21.71671,50.99162]]}},{"type":"Feature","properties":{"numer":"1521T","klasa":"","kat":"powiatowa"},"geometry":{"type":"LineString","coordinates":[[21.71616,50.99742],[21.71752,50.9975],[21.71954,50.99799]]}},{"type":"Feature","properties":{"numer":"79","klasa":"droga gĹ‚Ăłwna","kat":"krajowa"},"geometry":{"type":"LineString","coordinates":[[21.71508,51.00085],[21.71585,50.99993],[21.71616,50.99742]]}},{"type":"Feature","properties":{"numer":"79","klasa":"droga gĹ‚Ăłwna","kat":"krajowa"},"geometry":{"type":"LineString","coordinates":[[21.71494,51.00147],[21.71508,51.00085]]}},{"type":"Feature","properties":{"numer":"1571T","klasa":"","kat":"powiatowa"},"geometry":{"type":"LineString","coordinates":[[21.668098171927948,51.002059415016944],[21.6681,51.00206]]}},{"type":"Feature","properties":{"numer":"1571T","klasa":"droga zbiorcza","kat":"powiatowa"},"geometry":{"type":"LineString","coordinates":[[21.6681,51.00206],[21.66944,51.0026],[21.67374,51.00495],[21.6795,51.00634],[21.68002,51.00633],[21.68462,51.00581],[21.68888,51.00565],[21.68985,51.00575],[21.69148,51.00613],[21.6936,51.00605],[21.69613,51.00637],[21.69743,51.00638],[21.69912,51.00622],[21.70164,51.00522],[21.70266,51.00504],[21.70318,51.00523],[21.70375,51.00637],[21.70393,51.00652],[21.70424,51.00659],[21.70535,51.00618],[21.70809,51.00479],[21.70924,51.00395],[21.71292,51.0021],[21.71458,51.00102],[21.71508,51.00085]]}},{"type":"Feature","properties":{"numer":"1576T","klasa":"droga zbiorcza","kat":"powiatowa"},"geometry":{"type":"LineString","coordinates":[[21.79383,50.98527],[21.79465,50.98581],[21.79548,50.98599]]}},{"type":"Feature","properties":{"numer":"1576T","klasa":"droga zbiorcza","kat":"powiatowa"},"geometry":{"type":"LineString","coordinates":[[21.79383,50.98527],[21.79191,50.98565],[21.79101,50.98651],[21.79003,50.98723],[21.78935,50.98798],[21.78845,50.98877],[21.78699,50.99054],[21.78618,50.99173],[21.78474,50.99255],[21.78363,50.99338],[21.78313,50.99415],[21.78229,50.99498],[21.78203,50.99539],[21.78178,50.99676],[21.78145,50.99703],[21.7799,50.99792],[21.77909,50.99937],[21.77925,51.00006],[21.77899,51.00049],[21.77907,51.00058],[21.77957,51.00062],[21.77966,51.00068],[21.77885,51.00091],[21.77873,51.00102],[21.77886,51.00108],[21.78077,51.0011],[21.78268,51.00141],[21.78487,51.00145],[21.78599,51.00169],[21.78616,51.00184],[21.78655,51.00243],[21.78661,51.00293],[21.78601,51.00523],[21.7862,51.00762]]}},{"type":"Feature","properties":{"numer":"1520T","klasa":"droga zbiorcza","kat":"powiatowa"},"geometry":{"type":"LineString","coordinates":[[21.77573,51.02747],[21.77868,51.02798],[21.78653,51.02983],[21.80214,51.03769]]}},{"type":"Feature","properties":{"numer":"1522T","klasa":"droga zbiorcza","kat":"powiatowa"},"geometry":{"type":"LineString","coordinates":[[21.7577,50.96389],[21.77188,50.96685],[21.78609,50.97101],[21.78722,50.97112],[21.79692,50.97081],[21.79772,50.97084],[21.79871,50.97101]]}},{"type":"Feature","properties":{"numer":"1521T","klasa":"","kat":"powiatowa"},"geometry":{"type":"LineString","coordinates":[[21.71954,50.99799],[21.72006,50.99811],[21.72058,50.99814],[21.72313,50.99785],[21.73041,50.99568],[21.73638,50.99373],[21.73907,50.99312],[21.74393,50.9922],[21.75135,50.98981],[21.75568,50.98895],[21.75599,50.98872],[21.75584,50.98755],[21.75595,50.9874],[21.75617,50.98735],[21.76106,50.98671],[21.76409,50.9864],[21.76779,50.98551],[21.77424,50.98444],[21.77737,50.98376],[21.78192,50.98332],[21.78769,50.98315],[21.78965,50.98344],[21.79133,50.98384],[21.79254,50.98458],[21.7934,50.98489],[21.79383,50.98527]]}},{"type":"Feature","properties":{"numer":"1520T","klasa":"droga zbiorcza","kat":"powiatowa"},"geometry":{"type":"LineString","coordinates":[[21.71494,51.00147],[21.71523,51.00141],[21.71611,51.00059],[21.71637,51.00046],[21.71705,51.00037],[21.7188,51.00043],[21.7198,51.00078],[21.7223,51.00218],[21.72478,51.00313],[21.72736,51.00445],[21.7279,51.00482],[21.72887,51.00583],[21.73014,51.00763],[21.73144,51.0086],[21.73926,51.01065],[21.74478,51.01322],[21.74678,51.01465],[21.74802,51.01576],[21.75013,51.01857],[21.75042,51.01885],[21.76858,51.02731],[21.76916,51.02749],[21.77014,51.02756],[21.7731,51.02759],[21.77522,51.02743],[21.77573,51.02747]]}},{"type":"Feature","properties":{"numer":"1576T","klasa":"droga zbiorcza","kat":"powiatowa"},"geometry":{"type":"LineString","coordinates":[[21.7862,51.00762],[21.78661,51.01116],[21.78636,51.01213],[21.78565,51.01344],[21.78493,51.0153],[21.78473,51.01597],[21.78484,51.01649],[21.78453,51.01751],[21.78433,51.01764],[21.78017,51.01787],[21.77978,51.01804],[21.7795,51.01844],[21.77859,51.02041],[21.7777,51.02276],[21.7777,51.02311],[21.77818,51.02446],[21.77748,51.0263],[21.77741,51.02647],[21.77714,51.02656],[21.77677,51.02689],[21.77573,51.02747]]}},{"type":"Feature","properties":{"numer":"1576T","klasa":"droga zbiorcza","kat":"powiatowa"},"geometry":{"type":"LineString","coordinates":[[21.77573,51.02747],[21.77395,51.02874],[21.77344,51.02919],[21.77299,51.02979],[21.77269,51.03089],[21.77195,51.03237],[21.77203,51.03405],[21.77147,51.03643],[21.76828,51.04182],[21.76784,51.04278]]}},{"type":"Feature","properties":{"numer":"79","klasa":"droga gĹ‚Ăłwna","kat":"krajowa"},"geometry":{"type":"LineString","coordinates":[[21.68785,51.02684],[21.68929,51.02581],[21.69502,51.02226],[21.696,51.0219],[21.70194,51.02025],[21.70314,51.0197],[21.70433,51.01883],[21.70491,51.01815],[21.70533,51.01735],[21.70656,51.01299],[21.70835,51.0087],[21.70995,51.00646],[21.71151,51.00501],[21.71331,51.00306],[21.71481,51.0017],[21.71494,51.00147]]}},{"type":"Feature","properties":{"numer":"391011T,79","klasa":"droga gĹ‚Ăłwna","kat":"powiatowa"},"geometry":{"type":"LineString","coordinates":[[21.68772,51.02696],[21.68785,51.02684]]}},{"type":"Feature","properties":{"numer":"79","klasa":"droga gĹ‚Ăłwna","kat":"krajowa"},"geometry":{"type":"LineString","coordinates":[[21.68175,51.03309],[21.6838,51.03059],[21.68772,51.02696]]}},{"type":"Feature","properties":{"numer":"79","klasa":"droga gĹ‚Ăłwna","kat":"krajowa"},"geometry":{"type":"LineString","coordinates":[[21.68175,51.03309],[21.68129,51.03368]]}},{"type":"Feature","properties":{"numer":"79","klasa":"droga gĹ‚Ăłwna","kat":"krajowa"},"geometry":{"type":"LineString","coordinates":[[21.68094,51.03413],[21.68129,51.03368]]}},{"type":"Feature","properties":{"numer":"754","klasa":"droga gĹ‚Ăłwna","kat":"wojewodzka"},"geometry":{"type":"LineString","coordinates":[[21.68094,51.03413],[21.68214,51.03418],[21.68693,51.03386],[21.68771,51.03401],[21.68951,51.03529],[21.69188,51.03662],[21.69309,51.03817],[21.69349,51.03904],[21.6939,51.03935],[21.6952,51.03986],[21.69671,51.04063],[21.69908,51.04145],[21.69977,51.04159],[21.70176,51.04174],[21.70246,51.04185],[21.70519,51.04281]]}},{"type":"Feature","properties":{"numer":"79","klasa":"droga gĹ‚Ăłwna","kat":"krajowa"},"geometry":{"type":"LineString","coordinates":[[21.65121,51.06995],[21.65327,51.06862],[21.65533,51.06665],[21.65718,51.06411],[21.65816,51.06212],[21.6585,51.0606],[21.66058,51.05674],[21.66138,51.05331],[21.66169,51.05091],[21.66339,51.04643],[21.66403,51.04548],[21.66993,51.04063],[21.6717,51.03904],[21.67493,51.03737],[21.67567,51.03708],[21.6777,51.03648],[21.67884,51.03598],[21.67998,51.03519],[21.68094,51.03413]]}},{"type":"Feature","properties":{"numer":"754","klasa":"droga gĹ‚Ăłwna","kat":"wojewodzka"},"geometry":{"type":"LineString","coordinates":[[21.705538492881697,51.042926023564064],[21.70547,51.04291],[21.70519,51.04281]]}},{"type":"Feature","properties":{"numer":"1585T","klasa":"","kat":"powiatowa"},"geometry":{"type":"LineString","coordinates":[[21.773906208178452,51.04829594795538],[21.77461,51.04812],[21.77579543850184,51.04751451448829]]}},{"type":"Feature","properties":{"numer":"1585T","klasa":"","kat":"powiatowa"},"geometry":{"type":"LineString","coordinates":[[21.78044183489828,51.04559264736567],[21.78897,51.0436],[21.79808,51.04171],[21.80214,51.03769]]}},{"type":"Feature","properties":{"numer":"1520T","klasa":"droga zbiorcza","kat":"powiatowa"},"geometry":{"type":"LineString","coordinates":[[21.80214,51.03769],[21.8134,51.03939],[21.81567,51.0399],[21.81578,51.04012],[21.81597,51.04193],[21.81571,51.04322],[21.81564,51.04442],[21.81477,51.04588],[21.81039,51.05166],[21.80712,51.05674],[21.79219,51.05909]]}},{"type":"Feature","properties":{"numer":"1520T","klasa":"droga zbiorcza","kat":"powiatowa"},"geometry":{"type":"LineString","coordinates":[[21.79219,51.05909],[21.789532388197934,51.059485183911086]]}}]}