{"type":"FeatureCollection","features":[{"type":"Feature","properties":{"numer":"0009T","klasa":"","kat":"powiatowa"},"geometry":{"type":"LineString","coordinates":[[20.64492,50.58955],[20.64492020593958,50.58954849252227]]}},{"type":"Feature","properties":{"numer":"1264T","klasa":"","kat":"powiatowa"},"geometry":{"type":"LineString","coordinates":[[20.64243,50.59585],[20.64492,50.58955]]}},{"type":"Feature","properties":{"numer":"1673T","klasa":"","kat":"powiatowa"},"geometry":{"type":"LineString","coordinates":[[20.61846,50.59599],[20.62593,50.59597],[20.62876,50.59522],[20.62954,50.59517],[20.62996,50.59522],[20.63123,50.59567],[20.63239,50.59566]]}},{"type":"Feature","properties":{"numer":"1673T","klasa":"","kat":"powiatowa"},"geometry":{"type":"LineString","coordinates":[[20.63239,50.59566],[20.63273,50.59687],[20.63414,50.59637],[20.63669,50.59594],[20.64055,50.59579],[20.64243,50.59585]]}},{"type":"Feature","properties":{"numer":"1264T","klasa":"","kat":"powiatowa"},"geometry":{"type":"LineString","coordinates":[[20.6424,50.60004],[20.64243,50.59585]]}},{"type":"Feature","properties":{"numer":"78","klasa":"droga gĹ‚Ăłwna ruchu przyĹ›pieszonego","kat":"krajowa"},"geometry":{"type":"LineString","coordinates":[[20.6424,50.60004],[20.64,50.60023],[20.63838,50.60048],[20.63736,50.60075],[20.63565,50.60135]]}},{"type":"Feature","properties":{"numer":"78","klasa":"droga gĹ‚Ăłwna ruchu przyĹ›pieszonego","kat":"krajowa"},"geometry":{"type":"LineString","coordinates":[[20.63565,50.60135],[20.63531,50.60148]]}},{"type":"Feature","properties":{"numer":"78","klasa":"droga gĹ‚Ăłwna ruchu przyĹ›pieszonego","kat":"krajowa"},"geometry":{"type":"LineString","coordinates":[[20.66697367378498,50.60332623784978],[20.66568,50.60312],[20.66526897042043,50.60303945024722]]}},{"type":"Feature","properties":{"numer":"78","klasa":"droga gĹ‚Ăłwna ruchu przyĹ›pieszonego","kat":"krajowa"},"geometry":{"type":"LineString","coordinates":[[20.660269374411637,50.60205967593781],[20.6493,50.59991],[20.64764,50.59975],[20.6464,50.59974],[20.6424,50.60004]]}},{"type":"Feature","properties":{"numer":"78","klasa":"droga gĹ‚Ăłwna ruchu przyĹ›pieszonego","kat":"krajowa"},"geometry":{"type":"LineString","coordinates":[[20.63531,50.60148],[20.63392,50.60202],[20.63258,50.60276],[20.62877,50.60575],[20.62766,50.60649],[20.62639,50.60713],[20.62484,50.6077],[20.62241,50.60823],[20.61822,50.60877],[20.60879,50.60921]]}},{"type":"Feature","properties":{"numer":"78","klasa":"droga gĹ‚Ăłwna ruchu przyĹ›pieszonego","kat":"krajowa"},"geometry":{"type":"LineString","coordinates":[[20.498297905980774,50.60422208754544],[20.49967,50.60424]]}},{"type":"Feature","properties":{"numer":"78","klasa":"droga gĹ‚Ăłwna ruchu przyĹ›pieszonego","kat":"krajowa"},"geometry":{"type":"LineString","coordinates":[[20.50019,50.60425],[20.49967,50.60424]]}},{"type":"Feature","properties":{"numer":"1656T","klasa":"droga zbiorcza","kat":"powiatowa"},"geometry":{"type":"LineString","coordinates":[[20.616916335160766,50.57033987576943],[20.6166,50.57083]]}},{"type":"Feature","properties":{"numer":"1657T","klasa":"","kat":"powiatowa"},"geometry":{"type":"LineString","coordinates":[[20.59062,50.57162],[20.59049,50.5716]]}},{"type":"Feature","properties":{"numer":"1657T","klasa":"","kat":"powiatowa"},"geometry":{"type":"LineString","coordinates":[[20.59062,50.57162],[20.59096,50.57168]]}},{"type":"Feature","properties":{"numer":"1657T","klasa":"","kat":"powiatowa"},"geometry":{"type":"LineString","coordinates":[[20.59096,50.57168],[20.59528,50.57247],[20.59601,50.57254],[20.6048,50.57147],[20.60764,50.57126],[20.6166,50.57083]]}},{"type":"Feature","properties":{"numer":"1657T","klasa":"","kat":"powiatowa"},"geometry":{"type":"LineString","coordinates":[[20.59049,50.5716],[20.59005,50.57298],[20.58996,50.57392],[20.59007,50.57543],[20.58843,50.57801],[20.58692,50.5789],[20.5856,50.57938],[20.58229,50.57915],[20.58182,50.57915],[20.58132,50.57924],[20.57804,50.58044],[20.57795,50.58065],[20.57812,50.5813]]}},{"type":"Feature","properties":{"numer":"1656T","klasa":"droga zbiorcza","kat":"powiatowa"},"geometry":{"type":"LineString","coordinates":[[20.6166,50.57083],[20.61642,50.57172],[20.61647,50.57232],[20.61718,50.57377],[20.61705,50.57398],[20.61641,50.57435],[20.61625,50.57453],[20.61622,50.57477],[20.61643,50.57525],[20.61618,50.57567],[20.61613,50.57598],[20.60416,50.58881],[20.6032,50.58952],[20.60257,50.58984],[20.60144,50.59025]]}},{"type":"Feature","properties":{"numer":"1658T","klasa":"","kat":"powiatowa"},"geometry":{"type":"LineString","coordinates":[[20.59049,50.5716],[20.58939,50.57109],[20.58671,50.5709],[20.58432,50.57007],[20.58212,50.56959],[20.58071,50.56905],[20.57836,50.56834],[20.57549,50.56716],[20.573,50.56641],[20.572909465428676,50.566338383100295]]}},{"type":"Feature","properties":{"numer":"766","klasa":"droga gĹ‚Ăłwna","kat":"wojewodzka"},"geometry":{"type":"LineString","coordinates":[[20.55536,50.58286],[20.551043630937805,50.571852834886585]]}},{"type":"Feature","properties":{"numer":"1659T","klasa":"","kat":"powiatowa"},"geometry":{"type":"LineString","coordinates":[[20.52405,50.57397],[20.5242,50.57472],[20.52455,50.57522],[20.52362,50.57863],[20.52566,50.57857],[20.52757,50.57867],[20.53612,50.5807],[20.54904,50.58264],[20.55536,50.58286]]}},{"type":"Feature","properties":{"numer":"1657T","klasa":"","kat":"powiatowa"},"geometry":{"type":"LineString","coordinates":[[20.57812,50.5813],[20.57813,50.58136]]}},{"type":"Feature","properties":{"numer":"1657T","klasa":"","kat":"powiatowa"},"geometry":{"type":"LineString","coordinates":[[20.57813,50.58136],[20.57833,50.5822]]}},{"type":"Feature","properties":{"numer":"1655T","klasa":"","kat":"powiatowa"},"geometry":{"type":"LineString","coordinates":[[20.55726,50.58768],[20.56101,50.58622],[20.56219,50.58545],[20.56624,50.58391],[20.56768,50.58368],[20.56958,50.58349],[20.57227,50.58295],[20.57732,50.58227],[20.57833,50.5822]]}},{"type":"Feature","properties":{"numer":"766","klasa":"droga gĹ‚Ăłwna","kat":"wojewodzka"},"geometry":{"type":"LineString","coordinates":[[20.55726,50.58768],[20.55536,50.58286]]}},{"type":"Feature","properties":{"numer":"766","klasa":"droga gĹ‚Ăłwna","kat":"wojewodzka"},"geometry":{"type":"LineString","coordinates":[[20.56907,50.60154],[20.5686,50.60054],[20.56788,50.59963],[20.55861,50.59083],[20.55826,50.59022],[20.55726,50.58768]]}},{"type":"Feature","properties":{"numer":"766","klasa":"droga gĹ‚Ăłwna","kat":"wojewodzka"},"geometry":{"type":"LineString","coordinates":[[20.56924,50.60226],[20.56907,50.60154]]}},{"type":"Feature","properties":{"numer":"766","klasa":"droga gĹ‚Ăłwna","kat":"wojewodzka"},"geometry":{"type":"LineString","coordinates":[[20.56926,50.60253],[20.56924,50.60226]]}},{"type":"Feature","properties":{"numer":"78","klasa":"droga gĹ‚Ăłwna ruchu przyĹ›pieszonego","kat":"krajowa"},"geometry":{"type":"LineString","coordinates":[[20.57033,50.60255],[20.56924,50.60226]]}},{"type":"Feature","properties":{"numer":"766","klasa":"droga gĹ‚Ăłwna","kat":"wojewodzka"},"geometry":{"type":"LineString","coordinates":[[20.56931,50.60315],[20.56926,50.60253]]}},{"type":"Feature","properties":{"numer":"766","klasa":"droga gĹ‚Ăłwna","kat":"wojewodzka"},"geometry":{"type":"LineString","coordinates":[[20.56931,50.60315],[20.56977,50.6031],[20.57,50.603],[20.57033,50.60255]]}},{"type":"Feature","properties":{"numer":"78","klasa":"droga gĹ‚Ăłwna ruchu przyĹ›pieszonego","kat":"krajowa"},"geometry":{"type":"LineString","coordinates":[[20.50019,50.60425],[20.51029,50.60437],[20.52664,50.60276],[20.55288,50.60199],[20.55575,50.60185],[20.56195,50.6014],[20.5638,50.60142],[20.56596,50.60161],[20.56768,50.60189],[20.56924,50.60226]]}},{"type":"Feature","properties":{"numer":"1655T","klasa":"","kat":"powiatowa"},"geometry":{"type":"LineString","coordinates":[[20.57833,50.5822],[20.57892,50.58228],[20.57948,50.58227],[20.58389,50.58138],[20.58455,50.58133],[20.58538,50.5814],[20.58758,50.58195],[20.58832,50.58194],[20.58873,50.58183],[20.58911,50.58159],[20.59013,50.58039],[20.59077,50.58024],[20.59152,50.58025],[20.59178,50.58042],[20.59185,50.58059],[20.59216,50.58449],[20.60144,50.59025]]}},{"type":"Feature","properties":{"numer":"1655T","klasa":"","kat":"powiatowa"},"geometry":{"type":"LineString","coordinates":[[20.60144,50.59025],[20.6033,50.59148],[20.60374,50.59219],[20.60437,50.59254],[20.60516,50.59312],[20.60612,50.59451],[20.60618,50.59515],[20.60748,50.5957],[20.60978,50.59555]]}},{"type":"Feature","properties":{"numer":"1673T","klasa":"","kat":"powiatowa"},"geometry":{"type":"LineString","coordinates":[[20.60978,50.59555],[20.61046,50.59544],[20.61144,50.59545],[20.61443,50.59599],[20.61846,50.59599]]}},{"type":"Feature","properties":{"numer":"1655T","klasa":"","kat":"powiatowa"},"geometry":{"type":"LineString","coordinates":[[20.60978,50.59555],[20.61059,50.59804],[20.61047,50.59842],[20.60997,50.59921],[20.60917,50.59954],[20.60846,50.59966],[20.60432,50.59903]]}},{"type":"Feature","properties":{"numer":"1655T","klasa":"","kat":"powiatowa"},"geometry":{"type":"LineString","coordinates":[[20.60432,50.59903],[20.60301,50.59884],[20.60244,50.59884],[20.60152,50.59894],[20.60071,50.5992],[20.59388,50.60303],[20.59153,50.60429],[20.58916,50.60545],[20.58845,50.60571],[20.58714,50.6059],[20.58491,50.60643],[20.58472,50.60666]]}},{"type":"Feature","properties":{"numer":"1652T","klasa":"droga zbiorcza","kat":"powiatowa"},"geometry":{"type":"LineString","coordinates":[[20.60879,50.60921],[20.60839,50.60774],[20.60437,50.60025],[20.60426,50.59988],[20.60432,50.59903]]}},{"type":"Feature","properties":{"numer":"78","klasa":"droga gĹ‚Ăłwna ruchu przyĹ›pieszonego","kat":"krajowa"},"geometry":{"type":"LineString","coordinates":[[20.60879,50.60921],[20.60265,50.60914],[20.59641,50.60924],[20.59472,50.60916],[20.59312,50.60894],[20.59209,50.60871],[20.58472,50.60666]]}},{"type":"Feature","properties":{"numer":"1652T","klasa":"droga zbiorcza","kat":"powiatowa"},"geometry":{"type":"LineString","coordinates":[[20.61227,50.61573],[20.60952,50.61239],[20.60879,50.60921]]}},{"type":"Feature","properties":{"numer":"1654T","klasa":"","kat":"powiatowa"},"geometry":{"type":"LineString","coordinates":[[20.62376,50.61428],[20.62351,50.61435],[20.61634,50.61475],[20.61592,50.61485],[20.61387,50.61486],[20.61343,50.61493],[20.61285,50.61522],[20.61227,50.61573]]}},{"type":"Feature","properties":{"numer":"1654T","klasa":"","kat":"powiatowa"},"geometry":{"type":"LineString","coordinates":[[20.61227,50.61573],[20.61159,50.61625],[20.61078,50.61668],[20.60775,50.61802],[20.60626,50.61857],[20.60393,50.6211],[20.60307,50.62218]]}},{"type":"Feature","properties":{"numer":"78","klasa":"droga gĹ‚Ăłwna ruchu przyĹ›pieszonego","kat":"krajowa"},"geometry":{"type":"LineString","coordinates":[[20.58472,50.60666],[20.57033,50.60255]]}},{"type":"Feature","properties":{"numer":"766","klasa":"droga gĹ‚Ăłwna","kat":"wojewodzka"},"geometry":{"type":"LineString","coordinates":[[20.5714,50.60732],[20.57066,50.60608],[20.56948,50.6037],[20.56931,50.60315]]}},{"type":"Feature","properties":{"numer":"330032T","klasa":"droga lokalna","kat":"powiatowa"},"geometry":{"type":"LineString","coordinates":[[20.56486,50.60723],[20.56509,50.60726]]}},{"type":"Feature","properties":{"numer":"330032T","klasa":"droga lokalna","kat":"powiatowa"},"geometry":{"type":"LineString","coordinates":[[20.57073,50.60738],[20.5714,50.60732]]}},{"type":"Feature","properties":{"numer":"330032T","klasa":"droga lokalna","kat":"powiatowa"},"geometry":{"type":"LineString","coordinates":[[20.57063,50.60739],[20.57073,50.60738]]}},{"type":"Feature","properties":{"numer":"330032T","klasa":"droga lokalna","kat":"powiatowa"},"geometry":{"type":"LineString","coordinates":[[20.56509,50.60726],[20.56758,50.60759],[20.56936,50.6075]]}},{"type":"Feature","properties":{"numer":"330032T","klasa":"droga lokalna","kat":"powiatowa"},"geometry":{"type":"LineString","coordinates":[[20.56936,50.6075],[20.57063,50.60739]]}},{"type":"Feature","properties":{"numer":"766","klasa":"droga gĹ‚Ăłwna","kat":"wojewodzka"},"geometry":{"type":"LineString","coordinates":[[20.57376,50.61146],[20.57178,50.60818],[20.5714,50.60732]]}},{"type":"Feature","properties":{"numer":"1124T","klasa":"droga zbiorcza","kat":"powiatowa"},"geometry":{"type":"LineString","coordinates":[[20.51504,50.62949],[20.51648,50.62326],[20.52091,50.6232],[20.52119,50.62315],[20.52141,50.62298],[20.52191,50.61649],[20.53101,50.61716],[20.53515,50.61554],[20.54358,50.61324],[20.55232,50.61281],[20.55303,50.61271],[20.55469,50.61202],[20.56486,50.60723]]}},{"type":"Feature","properties":{"numer":"766","klasa":"droga gĹ‚Ăłwna","kat":"wojewodzka"},"geometry":{"type":"LineString","coordinates":[[20.58322,50.62598],[20.57838,50.61786],[20.57448,50.61261],[20.57376,50.61146]]}},{"type":"Feature","properties":{"numer":"1653T","klasa":"","kat":"powiatowa"},"geometry":{"type":"LineString","coordinates":[[20.56362,50.63037],[20.56195,50.62763],[20.56322,50.6262],[20.5644,50.62396],[20.5658,50.62177],[20.56611,50.61745],[20.56838,50.61456],[20.569,50.61393],[20.57376,50.61146]]}},{"type":"Feature","properties":{"numer":"1654T","klasa":"","kat":"powiatowa"},"geometry":{"type":"LineString","coordinates":[[20.56362,50.63037],[20.56466,50.63022],[20.56677,50.63053],[20.5681,50.63044],[20.57246,50.62925],[20.57259,50.62906],[20.57251,50.62835],[20.57259,50.62822],[20.57286,50.62818],[20.57308,50.62826],[20.57308,50.62887],[20.57324,50.62897],[20.57345,50.62897],[20.57673,50.62805],[20.57811,50.6275],[20.57943,50.62718],[20.58322,50.62598]]}},{"type":"Feature","properties":{"numer":"1672T","klasa":"","kat":"powiatowa"},"geometry":{"type":"LineString","coordinates":[[20.51504,50.62949],[20.5309,50.62915],[20.53422,50.62787],[20.53449,50.62782],[20.53549,50.63064],[20.54138,50.63713]]}},{"type":"Feature","properties":{"numer":"1653T","klasa":"","kat":"powiatowa"},"geometry":{"type":"LineString","coordinates":[[20.54138,50.63713],[20.54797,50.63518],[20.55357,50.63404],[20.56362,50.63037]]}},{"type":"Feature","properties":{"numer":"1653T","klasa":"","kat":"powiatowa"},"geometry":{"type":"LineString","coordinates":[[20.53011,50.6408],[20.53363,50.63926],[20.5369,50.63842],[20.54138,50.63713]]}},{"type":"Feature","properties":{"numer":"1192T","klasa":"","kat":"powiatowa"},"geometry":{"type":"LineString","coordinates":[[20.547120627739513,50.643828227927365],[20.54711,50.64382]]}},{"type":"Feature","properties":{"numer":"1264T","klasa":"","kat":"powiatowa"},"geometry":{"type":"LineString","coordinates":[[20.62464,50.61048],[20.62615,50.61072],[20.62714,50.61069],[20.62961,50.61087],[20.63074,50.61067],[20.63319,50.60983],[20.64081,50.61088],[20.64207,50.61065],[20.64234,50.60956],[20.64274,50.60448],[20.6424,50.60004]]}},{"type":"Feature","properties":{"numer":"1264T","klasa":"","kat":"powiatowa"},"geometry":{"type":"LineString","coordinates":[[20.62376,50.61428],[20.62451,50.61059],[20.62464,50.61048]]}},{"type":"Feature","properties":{"numer":"1264T","klasa":"","kat":"powiatowa"},"geometry":{"type":"LineString","coordinates":[[20.62568,50.62779],[20.62355,50.61805],[20.62376,50.61428]]}},{"type":"Feature","properties":{"numer":"1264T","klasa":"","kat":"powiatowa"},"geometry":{"type":"LineString","coordinates":[[20.61728,50.62934],[20.62503,50.62799],[20.62568,50.62779]]}},{"type":"Feature","properties":{"numer":"1652T","klasa":"droga zbiorcza","kat":"powiatowa"},"geometry":{"type":"LineString","coordinates":[[20.61728,50.62934],[20.61295,50.62051],[20.61289,50.61998],[20.61311,50.6167],[20.61293,50.61629],[20.61227,50.61573]]}},{"type":"Feature","properties":{"numer":"1654T","klasa":"","kat":"powiatowa"},"geometry":{"type":"LineString","coordinates":[[20.60307,50.62218],[20.60245,50.62294],[20.60081,50.62319],[20.59761,50.624],[20.59137,50.62541],[20.58405,50.62729]]}},{"type":"Feature","properties":{"numer":"1654T,766","klasa":"droga gĹ‚Ăłwna","kat":"powiatowa"},"geometry":{"type":"LineString","coordinates":[[20.58405,50.62729],[20.58322,50.62598]]}},{"type":"Feature","properties":{"numer":"766","klasa":"droga gĹ‚Ăłwna","kat":"wojewodzka"},"geometry":{"type":"LineString","coordinates":[[20.59627,50.6507],[20.59561,50.64915],[20.59406,50.64343],[20.59031,50.63681],[20.58405,50.62729]]}},{"type":"Feature","properties":{"numer":"1652T","klasa":"droga zbiorcza","kat":"powiatowa"},"geometry":{"type":"LineString","coordinates":[[20.59627,50.6507],[20.60288,50.64963],[20.60377,50.64939],[20.60388,50.64925],[20.60403,50.6478],[20.60758,50.64546],[20.60969,50.6446],[20.61146,50.64372],[20.61308,50.6424],[20.61352,50.6417],[20.61362,50.64128],[20.61374,50.63651],[20.61389,50.63587],[20.61066,50.63143],[20.61044,50.63101],[20.61059,50.63092],[20.61253,50.63047],[20.61643,50.62991],[20.61695,50.62972],[20.61728,50.62934]]}},{"type":"Feature","properties":{"numer":"766","klasa":"droga gĹ‚Ăłwna","kat":"wojewodzka"},"geometry":{"type":"LineString","coordinates":[[20.59744,50.65342],[20.59627,50.6507]]}},{"type":"Feature","properties":{"numer":"766","klasa":"droga gĹ‚Ăłwna","kat":"wojewodzka"},"geometry":{"type":"LineString","coordinates":[[20.59364,50.66118],[20.59732,50.65393],[20.59744,50.65342]]}},{"type":"Feature","properties":{"numer":"1259T","klasa":"","kat":"powiatowa"},"geometry":{"type":"LineString","coordinates":[[20.632309536508473,50.66244142455483],[20.63195,50.66228],[20.63109,50.66205],[20.62706,50.66139],[20.62558,50.66106],[20.61716,50.65876],[20.61247,50.65719],[20.60979,50.65668],[20.60703,50.65637],[20.60424,50.65273],[20.60208,50.65264],[20.60063,50.65293],[20.59884,50.65304],[20.59744,50.65342]]}},{"type":"Feature","properties":{"numer":"1122T","klasa":"droga zbiorcza","kat":"powiatowa"},"geometry":{"type":"LineString","coordinates":[[20.570830639286093,50.66264269872331],[20.5802,50.66041],[20.58581,50.66067],[20.59364,50.66118]]}},{"type":"Feature","properties":{"numer":"766","klasa":"droga gĹ‚Ăłwna","kat":"wojewodzka"},"geometry":{"type":"LineString","coordinates":[[20.593745969878043,50.66839125917473],[20.5939,50.66721],[20.59306,50.66273],[20.59316,50.66218],[20.59364,50.66118]]}},{"type":"Feature","properties":{"numer":"1124T","klasa":"droga zbiorcza","kat":"powiatowa"},"geometry":{"type":"LineString","coordinates":[[20.51677097391698,50.63817471396278],[20.51504,50.62949]]}}]}