{"type":"FeatureCollection","features":[{"type":"Feature","properties":{"numer":"1700T","klasa":"","kat":"powiatowa"},"geometry":{"type":"LineString","coordinates":[[21.80736,50.69467],[21.808,50.69389],[21.80807,50.69296],[21.80785,50.6919],[21.80762,50.6917],[21.80722,50.6916],[21.80436,50.6911],[21.80207,50.69147],[21.80005,50.69118],[21.79842,50.69078],[21.79605,50.68963],[21.79554,50.68953],[21.78353,50.68986],[21.77908,50.69151],[21.77747927883266,50.691721494247496]]}},{"type":"Feature","properties":{"numer":"1701T","klasa":"","kat":"powiatowa"},"geometry":{"type":"LineString","coordinates":[[21.77581,50.70508],[21.7774,50.70455],[21.77828,50.70404],[21.77871,50.70389],[21.78129,50.70399],[21.78225,50.70394],[21.78388,50.70399],[21.78483,50.7041],[21.78663,50.70447],[21.78777,50.70453],[21.78844,50.70446],[21.78921,50.70392],[21.79081,50.70347],[21.79219,50.70298],[21.79358,50.70274],[21.79431,50.70282],[21.79565,50.70278],[21.79761,50.70303],[21.79792,50.70299],[21.7988,50.70229],[21.80617,50.69459],[21.80638,50.69453],[21.80736,50.69467]]}},{"type":"Feature","properties":{"numer":"1700T","klasa":"","kat":"powiatowa"},"geometry":{"type":"LineString","coordinates":[[21.78591,50.72041],[21.78684,50.72026],[21.7882,50.72038],[21.78923,50.7202],[21.79005,50.71983],[21.79049,50.71953],[21.79136,50.71836],[21.79158,50.7182],[21.79562,50.71715],[21.79638,50.71703],[21.79989,50.7168],[21.80005,50.71667],[21.80044,50.71579],[21.80107,50.71507],[21.80322,50.71363],[21.80382,50.71291],[21.80443,50.7124],[21.80558,50.71194],[21.8069,50.71156],[21.80721,50.71154],[21.8074,50.71168],[21.80775,50.71229],[21.80815,50.71244],[21.80908,50.71236],[21.80978,50.71216],[21.81068,50.71229],[21.81234,50.71224],[21.81256,50.71206],[21.81294,50.71145],[21.81334,50.71039],[21.81505,50.70749],[21.81535,50.70513],[21.81563,50.70418],[21.81562,50.70376],[21.81504,50.7023],[21.81482,50.70217],[21.81381,50.70196],[21.81356,50.70176],[21.81302,50.69979],[21.8116,50.69538],[21.81116,50.69521],[21.80736,50.69467]]}},{"type":"Feature","properties":{"numer":"777","klasa":"droga gĹ‚Ăłwna","kat":"wojewodzka"},"geometry":{"type":"LineString","coordinates":[[21.77581,50.70508],[21.77145320441988,50.69971779005524]]}},{"type":"Feature","properties":{"numer":"777","klasa":"droga gĹ‚Ăłwna","kat":"wojewodzka"},"geometry":{"type":"LineString","coordinates":[[21.78476,50.71849],[21.784,50.71667],[21.78112,50.71251],[21.78025,50.71102],[21.7787,50.70884],[21.77581,50.70508]]}},{"type":"Feature","properties":{"numer":"1698T","klasa":"","kat":"powiatowa"},"geometry":{"type":"LineString","coordinates":[[21.742172979638532,50.71793162990749],[21.74222,50.71793],[21.74514,50.71761],[21.74582,50.71782],[21.74867,50.71917],[21.74954,50.71937],[21.75017,50.71938],[21.75171,50.71929],[21.75279,50.71903],[21.75556,50.71865],[21.75758,50.71809],[21.75846,50.71803],[21.75974,50.71733],[21.76384,50.7185],[21.76412,50.71867],[21.76482,50.71936],[21.76522,50.7195],[21.76784,50.71953],[21.77041,50.71985],[21.77097,50.71971],[21.77262,50.71894]]}},{"type":"Feature","properties":{"numer":"1698T","klasa":"","kat":"powiatowa"},"geometry":{"type":"LineString","coordinates":[[21.78476,50.71849],[21.78281,50.71868],[21.77801,50.71882],[21.77682,50.71875],[21.77382,50.71838],[21.77347,50.71846],[21.77268,50.71891]]}},{"type":"Feature","properties":{"numer":"1698T","klasa":"","kat":"powiatowa"},"geometry":{"type":"LineString","coordinates":[[21.77268,50.71891],[21.77262,50.71894]]}},{"type":"Feature","properties":{"numer":"777","klasa":"droga gĹ‚Ăłwna","kat":"wojewodzka"},"geometry":{"type":"LineString","coordinates":[[21.78591,50.72041],[21.78568,50.7198],[21.78476,50.71849]]}},{"type":"Feature","properties":{"numer":"777","klasa":"droga gĹ‚Ăłwna","kat":"wojewodzka"},"geometry":{"type":"LineString","coordinates":[[21.78596,50.72081],[21.78591,50.72041]]}},{"type":"Feature","properties":{"numer":"777","klasa":"droga gĹ‚Ăłwna","kat":"wojewodzka"},"geometry":{"type":"LineString","coordinates":[[21.78596,50.7209],[21.78596,50.72081]]}},{"type":"Feature","properties":{"numer":"777","klasa":"droga gĹ‚Ăłwna","kat":"wojewodzka"},"geometry":{"type":"LineString","coordinates":[[21.78671,50.7296],[21.7868,50.72867],[21.78758,50.72736],[21.78773,50.7264],[21.78752,50.72576],[21.78621,50.72302],[21.78596,50.7209]]}},{"type":"Feature","properties":{"numer":"777","klasa":"droga gĹ‚Ăłwna","kat":"wojewodzka"},"geometry":{"type":"LineString","coordinates":[[21.78911,50.73558],[21.78891,50.73448],[21.78762,50.7326],[21.78727,50.73189],[21.78681,50.73032],[21.78671,50.7296]]}},{"type":"Feature","properties":{"numer":"1697T","klasa":"","kat":"powiatowa"},"geometry":{"type":"LineString","coordinates":[[21.78852,50.73565],[21.78911,50.73558]]}},{"type":"Feature","properties":{"numer":"1699T","klasa":"","kat":"powiatowa"},"geometry":{"type":"LineString","coordinates":[[21.78671,50.7296],[21.79335,50.72945],[21.79715,50.72922],[21.79964,50.72893],[21.80396,50.72937],[21.80979,50.72876],[21.81373,50.72939],[21.81686,50.72955],[21.82456,50.72775],[21.82495,50.72772],[21.8249,50.72865],[21.82505,50.72941],[21.82536,50.72951],[21.82632,50.72962],[21.82652,50.72979],[21.82635,50.73078],[21.826,50.73162],[21.8252,50.7364],[21.82552,50.73714],[21.82658,50.7383],[21.82135,50.74133],[21.81835,50.74246],[21.81787,50.74281],[21.81683,50.74381],[21.81622,50.74401]]}},{"type":"Feature","properties":{"numer":"1697T","klasa":"","kat":"powiatowa"},"geometry":{"type":"LineString","coordinates":[[21.78139,50.73622],[21.78176,50.73614],[21.78333,50.7364],[21.78372,50.73641],[21.78449,50.7362],[21.78488,50.73588],[21.78518,50.73578],[21.78852,50.73565]]}},{"type":"Feature","properties":{"numer":"777","klasa":"droga gĹ‚Ăłwna","kat":"wojewodzka"},"geometry":{"type":"LineString","coordinates":[[21.79044,50.73702],[21.79013,50.73661],[21.78926,50.73584],[21.78911,50.73558]]}},{"type":"Feature","properties":{"numer":"777","klasa":"droga gĹ‚Ăłwna","kat":"wojewodzka"},"geometry":{"type":"LineString","coordinates":[[21.79058,50.73724],[21.79044,50.73702]]}},{"type":"Feature","properties":{"numer":"79","klasa":"droga gĹ‚Ăłwna","kat":"krajowa"},"geometry":{"type":"LineString","coordinates":[[21.705665063291136,50.737753037974684],[21.70565,50.73788],[21.705632252747254,50.73790615384615]]}},{"type":"Feature","properties":{"numer":"1697T","klasa":"","kat":"powiatowa"},"geometry":{"type":"LineString","coordinates":[[21.70544045105566,50.73880122840691],[21.705539866828083,50.73882363196126]]}},{"type":"Feature","properties":{"numer":"1697T","klasa":"","kat":"powiatowa"},"geometry":{"type":"LineString","coordinates":[[21.728969908177664,50.739332622412235],[21.73029,50.74014],[21.73379,50.7419],[21.73409,50.74197],[21.73476,50.74176],[21.73653,50.74047],[21.7372,50.7395],[21.73753,50.73919],[21.73788,50.73904]]}},{"type":"Feature","properties":{"numer":"1695T","klasa":"","kat":"powiatowa"},"geometry":{"type":"LineString","coordinates":[[21.713001675766485,50.76003974380512],[21.71349,50.76023],[21.71524,50.76146],[21.72099,50.77157],[21.72154,50.77187],[21.72458,50.77296],[21.72461350636631,50.77303005876592]]}},{"type":"Feature","properties":{"numer":"1695T","klasa":"","kat":"powiatowa"},"geometry":{"type":"LineString","coordinates":[[21.724639757045676,50.77308494655005],[21.72469,50.77319],[21.72475,50.774],[21.72496,50.77424],[21.72594,50.77432],[21.72639,50.77417]]}},{"type":"Feature","properties":{"numer":"777","klasa":"droga gĹ‚Ăłwna","kat":"wojewodzka"},"geometry":{"type":"LineString","coordinates":[[21.79246,50.73878],[21.79189,50.7385],[21.79091,50.73767],[21.79058,50.73724]]}},{"type":"Feature","properties":{"numer":"1699T","klasa":"","kat":"powiatowa"},"geometry":{"type":"LineString","coordinates":[[21.81622,50.74401],[21.8158,50.74411]]}},{"type":"Feature","properties":{"numer":"777","klasa":"droga gĹ‚Ăłwna","kat":"wojewodzka"},"geometry":{"type":"LineString","coordinates":[[21.80953,50.75185],[21.80697,50.74897],[21.80283,50.74668],[21.80009,50.74494],[21.79883,50.74394],[21.79704,50.74209],[21.79482,50.74047],[21.79348,50.73912],[21.79317,50.73896],[21.79246,50.73878]]}},{"type":"Feature","properties":{"numer":"1699T","klasa":"","kat":"powiatowa"},"geometry":{"type":"LineString","coordinates":[[21.8158,50.74411],[21.8155,50.74418],[21.81539,50.74428],[21.81524,50.74628],[21.81449,50.74815],[21.81427,50.74828],[21.81261,50.74836],[21.81166,50.74954],[21.81112,50.75047],[21.81021,50.75096],[21.81006,50.75149]]}},{"type":"Feature","properties":{"numer":"1699T","klasa":"","kat":"powiatowa"},"geometry":{"type":"LineString","coordinates":[[21.81003,50.75154],[21.81006,50.75149]]}},{"type":"Feature","properties":{"numer":"1699T","klasa":"","kat":"powiatowa"},"geometry":{"type":"LineString","coordinates":[[21.80953,50.75185],[21.81003,50.75154]]}},{"type":"Feature","properties":{"numer":"777","klasa":"droga gĹ‚Ăłwna","kat":"wojewodzka"},"geometry":{"type":"LineString","coordinates":[[21.81099,50.75352],[21.81045,50.75276],[21.80953,50.75185]]}},{"type":"Feature","properties":{"numer":"1694T","klasa":"droga zbiorcza","kat":"powiatowa"},"geometry":{"type":"LineString","coordinates":[[21.76938,50.77673],[21.76952,50.77665],[21.77424,50.77544],[21.778,50.77434],[21.784,50.77289],[21.78926,50.77033],[21.79464,50.76593],[21.80115,50.75953],[21.80653,50.75724],[21.80766,50.75651],[21.80852,50.75608],[21.80962,50.75526],[21.81052,50.75472],[21.81078,50.75416],[21.81084,50.75372],[21.81099,50.75352]]}},{"type":"Feature","properties":{"numer":"777","klasa":"droga gĹ‚Ăłwna","kat":"wojewodzka"},"geometry":{"type":"LineString","coordinates":[[21.840058625318008,50.78267075160102],[21.83925,50.78242],[21.83722,50.78162],[21.8337,50.78039],[21.83039,50.77883],[21.82789,50.77739],[21.82474,50.7762],[21.81978,50.77385],[21.81392,50.76921],[21.81369,50.76891],[21.81357,50.7685],[21.81198,50.75587],[21.81099,50.75352]]}},{"type":"Feature","properties":{"numer":"1697T","klasa":"","kat":"powiatowa"},"geometry":{"type":"LineString","coordinates":[[21.78114,50.7363],[21.78139,50.73622]]}},{"type":"Feature","properties":{"numer":"1697T","klasa":"","kat":"powiatowa"},"geometry":{"type":"LineString","coordinates":[[21.73788,50.73904],[21.73832,50.73901],[21.73932,50.73913],[21.74109,50.73998],[21.74227,50.74031],[21.74342,50.74017],[21.74697,50.74012],[21.7477,50.7399],[21.7487,50.73931],[21.74953,50.73756],[21.74971,50.73739],[21.74995,50.73732],[21.75044,50.73735],[21.75285,50.73777],[21.75369,50.73783],[21.75462,50.73771],[21.75699,50.73722],[21.76261,50.73724],[21.76591,50.73679],[21.77074,50.73696],[21.77376,50.73668],[21.77653,50.73664],[21.7777,50.73652],[21.77949,50.73667],[21.78003,50.7366],[21.78114,50.7363]]}},{"type":"Feature","properties":{"numer":"1696T","klasa":"","kat":"powiatowa"},"geometry":{"type":"LineString","coordinates":[[21.75651,50.75222],[21.756,50.75085],[21.75414,50.74448],[21.75407,50.74417],[21.75421,50.74404],[21.76715,50.74469],[21.76904,50.74457],[21.772,50.74424],[21.77731,50.74392],[21.78038,50.74468],[21.78144,50.74487],[21.78291,50.74529],[21.78317,50.7453],[21.78348,50.74518],[21.78481,50.74434],[21.78643,50.74286],[21.78919,50.74144],[21.79041,50.74059],[21.79311,50.73982],[21.79316,50.73959],[21.79246,50.73878]]}},{"type":"Feature","properties":{"numer":"1696T","klasa":"","kat":"powiatowa"},"geometry":{"type":"LineString","coordinates":[[21.72639,50.77417],[21.73197,50.75715],[21.73507,50.75704],[21.749,50.7535],[21.75056,50.75341],[21.75651,50.75222]]}},{"type":"Feature","properties":{"numer":"1702T","klasa":"","kat":"powiatowa"},"geometry":{"type":"LineString","coordinates":[[21.76938,50.77673],[21.76897,50.77465],[21.76946,50.77405],[21.7693,50.77343],[21.76929,50.77282],[21.76899,50.7721],[21.76862,50.77167],[21.76821,50.77024],[21.76699,50.76803],[21.76673,50.76777],[21.76127,50.76481],[21.75947,50.76234],[21.75888,50.76089],[21.75749,50.75948],[21.7568,50.75362],[21.75651,50.75222]]}},{"type":"Feature","properties":{"numer":"1694T","klasa":"droga zbiorcza","kat":"powiatowa"},"geometry":{"type":"LineString","coordinates":[[21.76567,50.78237],[21.77031,50.78065],[21.77052,50.78048],[21.77049,50.78007],[21.76938,50.77673]]}},{"type":"Feature","properties":{"numer":"1695T","klasa":"","kat":"powiatowa"},"geometry":{"type":"LineString","coordinates":[[21.73497,50.77431],[21.73606,50.77432],[21.73738,50.77752],[21.74095,50.78167],[21.74682,50.78942]]}},{"type":"Feature","properties":{"numer":"1694T","klasa":"droga zbiorcza","kat":"powiatowa"},"geometry":{"type":"LineString","coordinates":[[21.74682,50.78942],[21.76567,50.78237]]}},{"type":"Feature","properties":{"numer":"1693T","klasa":"","kat":"powiatowa"},"geometry":{"type":"LineString","coordinates":[[21.76567,50.78237],[21.76767,50.78738],[21.76715,50.7957],[21.76701,50.79588],[21.76463,50.7972],[21.76477,50.79899],[21.764741405021557,50.7989920923155]]}},{"type":"Feature","properties":{"numer":"1694T","klasa":"droga zbiorcza","kat":"powiatowa"},"geometry":{"type":"LineString","coordinates":[[21.743657573203258,50.79244971032476],[21.74366,50.79243],[21.74339,50.79095],[21.74344,50.79074],[21.74373,50.79056],[21.74682,50.78942]]}},{"type":"Feature","properties":{"numer":"1695T","klasa":"","kat":"powiatowa"},"geometry":{"type":"LineString","coordinates":[[21.72639,50.77417],[21.72715,50.77534],[21.72788,50.77688],[21.72814,50.77721]]}},{"type":"Feature","properties":{"numer":"1695T","klasa":"","kat":"powiatowa"},"geometry":{"type":"LineString","coordinates":[[21.72814,50.77721],[21.73111,50.77496],[21.73132,50.77491],[21.73216,50.775],[21.73497,50.77431]]}},{"type":"Feature","properties":{"numer":"1567T","klasa":"droga zbiorcza","kat":"powiatowa"},"geometry":{"type":"LineString","coordinates":[[21.764368921054608,50.80460418841534],[21.764631016753736,50.80471566065252]]}},{"type":"Feature","properties":{"numer":"1567T","klasa":"droga zbiorcza","kat":"powiatowa"},"geometry":{"type":"LineString","coordinates":[[21.77253862477474,50.8072150296163],[21.77267,50.80725],[21.77492,50.80795],[21.77554,50.80804],[21.78239095902968,50.808468780467784]]}}]}