{"type":"FeatureCollection","features":[{"type":"Feature","properties":{"numer":"1400T","klasa":"droga zbiorcza","kat":"powiatowa"},"geometry":{"type":"LineString","coordinates":[[21.00844,51.05696],[21.00701,51.05559],[21.00662,51.05505]]}},{"type":"Feature","properties":{"numer":"1400T","klasa":"droga zbiorcza","kat":"powiatowa"},"geometry":{"type":"LineString","coordinates":[[21.01035,51.05968],[21.00962,51.05815],[21.00844,51.05696]]}},{"type":"Feature","properties":{"numer":"","klasa":"droga gĹ‚Ăłwna","kat":"gminna"},"geometry":{"type":"LineString","coordinates":[[20.9833,51.06843],[20.98816,51.0652],[20.992,51.06297],[20.99477,51.06169],[20.99694,51.06108],[20.99896,51.06062],[21.00078,51.06033],[21.00275,51.06014],[21.01035,51.05968]]}},{"type":"Feature","properties":{"numer":"0582T","klasa":"droga zbiorcza","kat":"powiatowa"},"geometry":{"type":"LineString","coordinates":[[20.96031,51.01307],[20.96030487655309,51.013066032565476]]}},{"type":"Feature","properties":{"numer":"1400T","klasa":"droga zbiorcza","kat":"powiatowa"},"geometry":{"type":"LineString","coordinates":[[20.96361,51.0149],[20.96172,51.01408],[20.96031,51.01307]]}},{"type":"Feature","properties":{"numer":"1400T","klasa":"","kat":"powiatowa"},"geometry":{"type":"LineString","coordinates":[[20.9729,51.0184],[20.96361,51.0149]]}},{"type":"Feature","properties":{"numer":"1400T","klasa":"droga zbiorcza","kat":"powiatowa"},"geometry":{"type":"LineString","coordinates":[[20.97328,51.01854],[20.9729,51.0184]]}},{"type":"Feature","properties":{"numer":"1400T","klasa":"","kat":"powiatowa"},"geometry":{"type":"LineString","coordinates":[[21.00662,51.05505],[20.99914,51.04214],[20.99282,51.03154],[20.99353,51.02952],[20.99354,51.0292],[20.99135,51.02537],[20.99111,51.0252],[20.97328,51.01854]]}},{"type":"Feature","properties":{"numer":"42","klasa":"droga gĹ‚Ăłwna ruchu przyĹ›pieszonego","kat":"krajowa"},"geometry":{"type":"LineString","coordinates":[[20.97097,51.07001],[20.9833,51.06843]]}},{"type":"Feature","properties":{"numer":"","klasa":"droga gĹ‚Ăłwna","kat":"gminna"},"geometry":{"type":"LineString","coordinates":[[20.97096,51.07071],[20.97525,51.07056],[20.9778,51.07026],[20.9799,51.0698],[20.98258,51.06889],[20.9833,51.06843]]}},{"type":"Feature","properties":{"numer":"42","klasa":"droga gĹ‚Ăłwna ruchu przyĹ›pieszonego","kat":"krajowa"},"geometry":{"type":"LineString","coordinates":[[20.96141,51.07123],[20.97097,51.07001]]}},{"type":"Feature","properties":{"numer":"1758T","klasa":"droga zbiorcza","kat":"powiatowa"},"geometry":{"type":"LineString","coordinates":[[20.915748872235156,51.06652769083652],[20.91635,51.06852],[20.91721,51.06969],[20.91757,51.07],[20.91975,51.07125],[20.92016,51.07162],[20.92108,51.07353],[20.9212,51.07422],[20.92116,51.07551]]}},{"type":"Feature","properties":{"numer":"42","klasa":"droga gĹ‚Ăłwna ruchu przyĹ›pieszonego","kat":"krajowa"},"geometry":{"type":"LineString","coordinates":[[20.92328,51.07556],[20.92653,51.07564],[20.92756,51.07558],[20.9613,51.07125]]}},{"type":"Feature","properties":{"numer":"","klasa":"droga gĹ‚Ăłwna","kat":"gminna"},"geometry":{"type":"LineString","coordinates":[[20.92425,51.07875],[20.93285,51.07763],[20.93656,51.07702],[20.94237,51.07588],[20.96019,51.07191],[20.96499,51.07112],[20.96748,51.07089],[20.97096,51.07071]]}},{"type":"Feature","properties":{"numer":"42","klasa":"droga gĹ‚Ăłwna ruchu przyĹ›pieszonego","kat":"krajowa"},"geometry":{"type":"LineString","coordinates":[[20.92116,51.07551],[20.92328,51.07556]]}},{"type":"Feature","properties":{"numer":"42","klasa":"droga gĹ‚Ăłwna ruchu przyĹ›pieszonego","kat":"krajowa"},"geometry":{"type":"LineString","coordinates":[[20.91949,51.07557],[20.92116,51.07551]]}},{"type":"Feature","properties":{"numer":"42","klasa":"droga gĹ‚Ăłwna ruchu przyĹ›pieszonego","kat":"krajowa"},"geometry":{"type":"LineString","coordinates":[[20.91931,51.0756],[20.91949,51.07557]]}},{"type":"Feature","properties":{"numer":"1765T","klasa":"droga zbiorcza","kat":"powiatowa"},"geometry":{"type":"LineString","coordinates":[[20.92328,51.07556],[20.92425,51.07875]]}},{"type":"Feature","properties":{"numer":"1765T","klasa":"droga zbiorcza","kat":"powiatowa"},"geometry":{"type":"LineString","coordinates":[[20.92425,51.07875],[20.92452,51.0796]]}},{"type":"Feature","properties":{"numer":"756","klasa":"droga gĹ‚Ăłwna","kat":"wojewodzka"},"geometry":{"type":"LineString","coordinates":[[21.085132953328664,51.01107937108907],[21.084155782045745,51.00935566522355]]}},{"type":"Feature","properties":{"numer":"42","klasa":"droga gĹ‚Ăłwna ruchu przyĹ›pieszonego","kat":"krajowa"},"geometry":{"type":"LineString","coordinates":[[21.075765462786954,51.01899440269048],[21.07601,51.01739],[21.07608971156101,51.017289563433124]]}},{"type":"Feature","properties":{"numer":"42","klasa":"droga gĹ‚Ăłwna ruchu przyĹ›pieszonego","kat":"krajowa"},"geometry":{"type":"LineString","coordinates":[[20.90702,51.08084],[20.9176,51.0761],[20.91834,51.07582],[20.91931,51.0756]]}},{"type":"Feature","properties":{"numer":"1764T","klasa":"","kat":"powiatowa"},"geometry":{"type":"LineString","coordinates":[[20.90895,51.08253],[20.90702,51.08084]]}},{"type":"Feature","properties":{"numer":"42","klasa":"droga gĹ‚Ăłwna ruchu przyĹ›pieszonego","kat":"krajowa"},"geometry":{"type":"LineString","coordinates":[[20.902891751182146,51.082689492003574],[20.90702,51.08084]]}},{"type":"Feature","properties":{"numer":"","klasa":"droga gĹ‚Ăłwna","kat":"gminna"},"geometry":{"type":"LineString","coordinates":[[20.90414003198668,51.083787377530456],[20.90895,51.08253]]}},{"type":"Feature","properties":{"numer":"1764T","klasa":"","kat":"powiatowa"},"geometry":{"type":"LineString","coordinates":[[20.91352876628441,51.08657890905062],[20.90895,51.08253]]}},{"type":"Feature","properties":{"numer":"42","klasa":"droga gĹ‚Ăłwna ruchu przyĹ›pieszonego","kat":"krajowa"},"geometry":{"type":"LineString","coordinates":[[21.02897,51.0652],[21.02863,51.06559]]}},{"type":"Feature","properties":{"numer":"42","klasa":"droga gĹ‚Ăłwna ruchu przyĹ›pieszonego","kat":"krajowa"},"geometry":{"type":"LineString","coordinates":[[21.02826,51.06588],[21.02853,51.06578],[21.02863,51.06559]]}},{"type":"Feature","properties":{"numer":"42","klasa":"droga gĹ‚Ăłwna ruchu przyĹ›pieszonego","kat":"krajowa"},"geometry":{"type":"LineString","coordinates":[[21.02746,51.06631],[21.02826,51.06588]]}},{"type":"Feature","properties":{"numer":"744","klasa":"","kat":"wojewodzka"},"geometry":{"type":"LineString","coordinates":[[21.02973,51.06646],[21.02875,51.06591]]}},{"type":"Feature","properties":{"numer":"744","klasa":"droga wewnÄ™trzna","kat":"wojewodzka"},"geometry":{"type":"LineString","coordinates":[[21.03276,51.06782],[21.02973,51.06646]]}},{"type":"Feature","properties":{"numer":"744","klasa":"droga wewnÄ™trzna","kat":"wojewodzka"},"geometry":{"type":"LineString","coordinates":[[21.03276,51.06782],[21.03512444444445,51.06865740740741]]}},{"type":"Feature","properties":{"numer":"744","klasa":"droga wewnÄ™trzna","kat":"wojewodzka"},"geometry":{"type":"LineString","coordinates":[[21.058015331814268,51.071907815437186],[21.058664754219258,51.07226981080698]]}},{"type":"Feature","properties":{"numer":"","klasa":"droga wewnÄ™trzna","kat":"gminna"},"geometry":{"type":"LineString","coordinates":[[21.065816272253215,51.07381837798957],[21.0654,51.0739],[21.063845084897196,51.073954084003574]]}},{"type":"Feature","properties":{"numer":"","klasa":"droga wewnÄ™trzna","kat":"gminna"},"geometry":{"type":"LineString","coordinates":[[21.058532085768377,51.07428826652399],[21.05851,51.07429]]}},{"type":"Feature","properties":{"numer":"744","klasa":"droga wewnÄ™trzna","kat":"wojewodzka"},"geometry":{"type":"LineString","coordinates":[[21.062078992194788,51.07407567031564],[21.0629,51.07443],[21.06426,51.07488],[21.06651,51.07532],[21.06858,51.07545],[21.07075,51.07535]]}},{"type":"Feature","properties":{"numer":"744","klasa":"","kat":"wojewodzka"},"geometry":{"type":"LineString","coordinates":[[21.062078992194788,51.07407567031564],[21.0629,51.07443],[21.06426,51.07488],[21.06651,51.07532],[21.06799,51.07544],[21.06925,51.07545],[21.0725,51.07519]]}},{"type":"Feature","properties":{"numer":"744","klasa":"droga gĹ‚Ăłwna","kat":"wojewodzka"},"geometry":{"type":"LineString","coordinates":[[21.0725,51.07519],[21.07245,51.07504]]}},{"type":"Feature","properties":{"numer":"744","klasa":"droga wewnÄ™trzna","kat":"wojewodzka"},"geometry":{"type":"LineString","coordinates":[[21.07075,51.07535],[21.07172,51.07527]]}},{"type":"Feature","properties":{"numer":"744","klasa":"droga wewnÄ™trzna","kat":"wojewodzka"},"geometry":{"type":"LineString","coordinates":[[21.03945695703054,51.069677986958695],[21.04062,51.06989],[21.04209,51.07003],[21.042295138543682,51.07002234557673]]}},{"type":"Feature","properties":{"numer":"744","klasa":"","kat":"wojewodzka"},"geometry":{"type":"LineString","coordinates":[[21.02973,51.06646],[21.03276,51.06782],[21.035143254161593,51.06864717756124]]}},{"type":"Feature","properties":{"numer":"744","klasa":"","kat":"wojewodzka"},"geometry":{"type":"LineString","coordinates":[[21.039552904180052,51.06968962829582],[21.04062,51.06989],[21.04209,51.07003],[21.042295138543682,51.07002234557673]]}},{"type":"Feature","properties":{"numer":"744","klasa":"","kat":"wojewodzka"},"geometry":{"type":"LineString","coordinates":[[21.0581464102564,51.07196431476569],[21.058665537726718,51.07225789030063]]}},{"type":"Feature","properties":{"numer":"1771T","klasa":"droga zbiorcza","kat":"powiatowa"},"geometry":{"type":"LineString","coordinates":[[21.01656,51.07804],[21.01823,51.07867],[21.02084,51.0804],[21.02125,51.08083],[21.0223,51.08257],[21.02335,51.08347],[21.02579,51.08585],[21.02789,51.08749],[21.02979,51.08832],[21.030259108950187,51.08860824766819]]}},{"type":"Feature","properties":{"numer":"744","klasa":"droga gĹ‚Ăłwna","kat":"wojewodzka"},"geometry":{"type":"LineString","coordinates":[[21.073428009415153,51.07829932441374],[21.0725,51.07519]]}},{"type":"Feature","properties":{"numer":"1780T","klasa":"droga zbiorcza","kat":"powiatowa"},"geometry":{"type":"LineString","coordinates":[[21.00844,51.05696],[21.01792,51.05345],[21.01916,51.0524],[21.02054,51.05182],[21.0271,51.04853],[21.02767,51.04831],[21.02812270256773,51.04821287668392]]}},{"type":"Feature","properties":{"numer":"42","klasa":"droga gĹ‚Ăłwna ruchu przyĹ›pieszonego","kat":"krajowa"},"geometry":{"type":"LineString","coordinates":[[21.03823,51.0537],[21.039760807933718,51.05268436781321]]}},{"type":"Feature","properties":{"numer":"","klasa":"droga gĹ‚Ăłwna","kat":"gminna"},"geometry":{"type":"LineString","coordinates":[[21.01035,51.05968],[21.01225,51.05958],[21.01685,51.0595],[21.02277,51.05921],[21.02608,51.05882],[21.02847,51.05837],[21.03613,51.05486],[21.03823,51.0537]]}},{"type":"Feature","properties":{"numer":"42","klasa":"droga gĹ‚Ăłwna ruchu przyĹ›pieszonego","kat":"krajowa"},"geometry":{"type":"LineString","coordinates":[[21.02897,51.0652],[21.02906,51.06492],[21.02983,51.06413],[21.03734,51.05467],[21.03823,51.0537]]}},{"type":"Feature","properties":{"numer":"1400T","klasa":"droga zbiorcza","kat":"powiatowa"},"geometry":{"type":"LineString","coordinates":[[21.01262,51.07352],[21.01247,51.0729],[21.01123,51.07263],[21.01099,51.07242],[21.01193,51.07178],[21.01228,51.07085],[21.01293,51.07067],[21.01309,51.07055],[21.0136,51.06972],[21.01367,51.06886],[21.01293,51.06542],[21.01035,51.05968]]}},{"type":"Feature","properties":{"numer":"42","klasa":"droga gĹ‚Ăłwna ruchu przyĹ›pieszonego","kat":"krajowa"},"geometry":{"type":"LineString","coordinates":[[20.9833,51.06843],[20.98675,51.06799],[20.98773,51.06796],[20.98829,51.06803],[20.99835,51.07062],[21.00113,51.07152]]}},{"type":"Feature","properties":{"numer":"42","klasa":"droga gĹ‚Ăłwna ruchu przyĹ›pieszonego","kat":"krajowa"},"geometry":{"type":"LineString","coordinates":[[21.01262,51.07352],[21.01855,51.07214],[21.01966,51.07175],[21.02564,51.06785],[21.02746,51.06631]]}},{"type":"Feature","properties":{"numer":"42","klasa":"droga gĹ‚Ăłwna ruchu przyĹ›pieszonego","kat":"krajowa"},"geometry":{"type":"LineString","coordinates":[[21.00113,51.07152],[21.00706,51.07352],[21.00819,51.07369],[21.00956,51.07365]]}},{"type":"Feature","properties":{"numer":"42","klasa":"droga gĹ‚Ăłwna ruchu przyĹ›pieszonego","kat":"krajowa"},"geometry":{"type":"LineString","coordinates":[[21.01242,51.07354],[21.01262,51.07352]]}},{"type":"Feature","properties":{"numer":"42","klasa":"droga gĹ‚Ăłwna ruchu przyĹ›pieszonego","kat":"krajowa"},"geometry":{"type":"LineString","coordinates":[[21.00964,51.07365],[21.01242,51.07354]]}},{"type":"Feature","properties":{"numer":"42","klasa":"droga gĹ‚Ăłwna ruchu przyĹ›pieszonego","kat":"krajowa"},"geometry":{"type":"LineString","coordinates":[[21.00964,51.07365],[21.00956,51.07365]]}},{"type":"Feature","properties":{"numer":"1771T","klasa":"droga zbiorcza","kat":"powiatowa"},"geometry":{"type":"LineString","coordinates":[[21.01242,51.07354],[21.01252,51.07471],[21.01268,51.07526],[21.01306,51.07585],[21.01353,51.07623]]}},{"type":"Feature","properties":{"numer":"1771T","klasa":"droga zbiorcza","kat":"powiatowa"},"geometry":{"type":"LineString","coordinates":[[21.01353,51.07623],[21.01542,51.07739]]}},{"type":"Feature","properties":{"numer":"1771T","klasa":"droga zbiorcza","kat":"powiatowa"},"geometry":{"type":"LineString","coordinates":[[21.01542,51.07739],[21.01581,51.07763]]}},{"type":"Feature","properties":{"numer":"42","klasa":"droga gĹ‚Ăłwna ruchu przyĹ›pieszonego","kat":"krajowa"},"geometry":{"type":"LineString","coordinates":[[20.96141,51.07123],[20.9613,51.07125]]}},{"type":"Feature","properties":{"numer":"1779T","klasa":"","kat":"powiatowa"},"geometry":{"type":"LineString","coordinates":[[20.96398,51.07189],[20.97094,51.07193]]}},{"type":"Feature","properties":{"numer":"1779T","klasa":"","kat":"powiatowa"},"geometry":{"type":"LineString","coordinates":[[20.97094,51.07193],[20.97345,51.07195],[20.97449,51.07205],[20.97605,51.07189],[20.97955,51.07225],[20.98415,51.07214],[20.99617,51.07252],[20.99675,51.07239],[20.99744,51.07193],[20.99779,51.07183],[21.00113,51.07152]]}},{"type":"Feature","properties":{"numer":"1779T","klasa":"","kat":"powiatowa"},"geometry":{"type":"LineString","coordinates":[[20.9622,51.07294],[20.96284,51.07272],[20.96292,51.07234],[20.96325,51.07206],[20.96398,51.07189]]}},{"type":"Feature","properties":{"numer":"1763T","klasa":"droga zbiorcza","kat":"powiatowa"},"geometry":{"type":"LineString","coordinates":[[20.96612,51.09518],[20.9679,51.09433],[20.97088,51.09262],[20.97725,51.09094],[20.98463,51.08589],[20.98554,51.08567],[20.99022,51.08595],[20.991,51.0859],[20.99145,51.08579],[20.99399,51.08454],[20.99573,51.08348],[20.99775,51.08265],[21.00009,51.08195],[21.0019,51.08083],[21.00852,51.0779],[21.00938,51.07741],[21.01242,51.07663],[21.01353,51.07623]]}},{"type":"Feature","properties":{"numer":"1763T","klasa":"","kat":"powiatowa"},"geometry":{"type":"LineString","coordinates":[[20.96608496892892,51.09519548992939],[20.96612,51.09518]]}},{"type":"Feature","properties":{"numer":"","klasa":"droga gĹ‚Ăłwna","kat":"gminna"},"geometry":{"type":"LineString","coordinates":[[20.90895,51.08253],[20.91167,51.08181],[20.91839,51.07987],[20.92425,51.07875]]}},{"type":"Feature","properties":{"numer":"1765T","klasa":"","kat":"powiatowa"},"geometry":{"type":"LineString","coordinates":[[20.92452,51.0796],[20.924535901248223,51.07964967963941]]}},{"type":"Feature","properties":{"numer":"1771T","klasa":"droga zbiorcza","kat":"powiatowa"},"geometry":{"type":"LineString","coordinates":[[21.01581,51.07763],[21.01642,51.07798]]}},{"type":"Feature","properties":{"numer":"1771T","klasa":"droga zbiorcza","kat":"powiatowa"},"geometry":{"type":"LineString","coordinates":[[21.01642,51.07798],[21.01656,51.07804]]}}]}