{"type":"FeatureCollection","features":[{"type":"Feature","properties":{"numer":"1073T","klasa":"","kat":"powiatowa"},"geometry":{"type":"LineString","coordinates":[[21.08954,50.43443],[21.08821,50.43398],[21.0841,50.43322],[21.08072153546372,50.4303151519875]]}},{"type":"Feature","properties":{"numer":"1821T","klasa":"","kat":"powiatowa"},"geometry":{"type":"LineString","coordinates":[[21.10604,50.43955],[21.10621,50.43845],[21.10666,50.43719],[21.10794,50.43645],[21.10938,50.43412],[21.109386635164455,50.434023641566945]]}},{"type":"Feature","properties":{"numer":"1073T","klasa":"","kat":"powiatowa"},"geometry":{"type":"LineString","coordinates":[[21.10604,50.43955],[21.10567,50.43941],[21.10442,50.43918],[21.10088,50.43907],[21.1005,50.439],[21.09792,50.43816],[21.08954,50.43443]]}},{"type":"Feature","properties":{"numer":"1821T","klasa":"","kat":"powiatowa"},"geometry":{"type":"LineString","coordinates":[[21.10818,50.45546],[21.11018,50.45119],[21.11107,50.44745],[21.11105,50.44655],[21.11087,50.44575],[21.11052,50.44497],[21.11004,50.44437],[21.10929,50.44387],[21.10908,50.4436],[21.10896,50.44297],[21.10916,50.44185],[21.10901,50.44136],[21.10867,50.44107],[21.10756,50.44075],[21.10667,50.44037],[21.10604,50.43955]]}},{"type":"Feature","properties":{"numer":"1067T","klasa":"droga zbiorcza","kat":"powiatowa"},"geometry":{"type":"LineString","coordinates":[[21.10818,50.45546],[21.10269,50.45509],[21.09998,50.45508],[21.09195,50.45527],[21.09086,50.45523],[21.06809,50.45323],[21.06648,50.45339]]}},{"type":"Feature","properties":{"numer":"1067T","klasa":"droga zbiorcza","kat":"powiatowa"},"geometry":{"type":"LineString","coordinates":[[21.13002,50.45798],[21.12535,50.45837],[21.12445,50.45832],[21.11362,50.45564],[21.11012,50.45558],[21.10818,50.45546]]}},{"type":"Feature","properties":{"numer":"1876T","klasa":"droga zbiorcza","kat":"powiatowa"},"geometry":{"type":"LineString","coordinates":[[21.06648,50.45339],[21.06693,50.45394],[21.08042,50.46523],[21.08634,50.46711],[21.10038,50.47136],[21.10189,50.47195],[21.10386,50.47318],[21.10449,50.47343]]}},{"type":"Feature","properties":{"numer":"1072T","klasa":"droga zbiorcza","kat":"powiatowa"},"geometry":{"type":"LineString","coordinates":[[21.0637375785124,50.43305376033057],[21.06373,50.43307]]}},{"type":"Feature","properties":{"numer":"1071T","klasa":"droga zbiorcza","kat":"powiatowa"},"geometry":{"type":"LineString","coordinates":[[21.06217,50.44939],[21.05291,50.43731],[21.050943649903466,50.43321602188103]]}},{"type":"Feature","properties":{"numer":"1822T","klasa":"","kat":"powiatowa"},"geometry":{"type":"LineString","coordinates":[[21.06655,50.44702],[21.07073,50.44615],[21.07111,50.44601],[21.08562,50.43666],[21.08954,50.43443]]}},{"type":"Feature","properties":{"numer":"1876T","klasa":"droga zbiorcza","kat":"powiatowa"},"geometry":{"type":"LineString","coordinates":[[21.0674,50.44282],[21.06655,50.44702]]}},{"type":"Feature","properties":{"numer":"1876T","klasa":"droga zbiorcza","kat":"powiatowa"},"geometry":{"type":"LineString","coordinates":[[21.06655,50.44702],[21.06623,50.44724],[21.06549,50.44861],[21.06589,50.44942],[21.06482,50.44985],[21.06476,50.45001],[21.06643,50.45325]]}},{"type":"Feature","properties":{"numer":"1071T","klasa":"droga zbiorcza","kat":"powiatowa"},"geometry":{"type":"LineString","coordinates":[[21.06415,50.45307],[21.06319,50.45044],[21.06217,50.44939]]}},{"type":"Feature","properties":{"numer":"1067T","klasa":"droga zbiorcza","kat":"powiatowa"},"geometry":{"type":"LineString","coordinates":[[21.06415,50.45307],[21.06482,50.45309],[21.06552,50.45323],[21.06643,50.45325]]}},{"type":"Feature","properties":{"numer":"1876T","klasa":"droga zbiorcza","kat":"powiatowa"},"geometry":{"type":"LineString","coordinates":[[21.06643,50.45325],[21.06648,50.45339]]}},{"type":"Feature","properties":{"numer":"1071T","klasa":"droga zbiorcza","kat":"powiatowa"},"geometry":{"type":"LineString","coordinates":[[21.06384,50.45385],[21.06415,50.45307]]}},{"type":"Feature","properties":{"numer":"1071T","klasa":"droga zbiorcza","kat":"powiatowa"},"geometry":{"type":"LineString","coordinates":[[21.06323,50.45436],[21.06384,50.45385]]}},{"type":"Feature","properties":{"numer":"1067T","klasa":"droga zbiorcza","kat":"powiatowa"},"geometry":{"type":"LineString","coordinates":[[21.14549010113794,50.45741988954817],[21.13713,50.45843],[21.13527,50.45854],[21.13424,50.45869],[21.13103,50.45937],[21.13073,50.45926],[21.13036,50.45814],[21.13002,50.45798]]}},{"type":"Feature","properties":{"numer":"356003T","klasa":"droga dojazdowa","kat":"powiatowa"},"geometry":{"type":"LineString","coordinates":[[21.13002,50.45798],[21.13007,50.45868],[21.13058,50.46002],[21.13094,50.46069]]}},{"type":"Feature","properties":{"numer":"356003T","klasa":"droga dojazdowa","kat":"powiatowa"},"geometry":{"type":"LineString","coordinates":[[21.13094,50.46069],[21.13119,50.46129]]}},{"type":"Feature","properties":{"numer":"356003T","klasa":"droga dojazdowa","kat":"powiatowa"},"geometry":{"type":"LineString","coordinates":[[21.13119,50.46129],[21.13124,50.46147]]}},{"type":"Feature","properties":{"numer":"356003T","klasa":"droga dojazdowa","kat":"powiatowa"},"geometry":{"type":"LineString","coordinates":[[21.13124,50.46147],[21.13143,50.4621]]}},{"type":"Feature","properties":{"numer":"356003T","klasa":"droga dojazdowa","kat":"powiatowa"},"geometry":{"type":"LineString","coordinates":[[21.13143,50.4621],[21.13198,50.46388]]}},{"type":"Feature","properties":{"numer":"356003T","klasa":"droga dojazdowa","kat":"powiatowa"},"geometry":{"type":"LineString","coordinates":[[21.13198,50.46388],[21.13287,50.46735],[21.13282,50.46749]]}},{"type":"Feature","properties":{"numer":"1820T","klasa":"","kat":"powiatowa"},"geometry":{"type":"LineString","coordinates":[[21.12026,50.47373],[21.12117,50.47266],[21.12263,50.46973],[21.12289,50.4694],[21.13282,50.46749]]}},{"type":"Feature","properties":{"numer":"1067T","klasa":"droga zbiorcza","kat":"powiatowa"},"geometry":{"type":"LineString","coordinates":[[21.027126792452837,50.44256467924529],[21.03408,50.44326],[21.03555,50.44351],[21.05079,50.44684],[21.06094,50.44897],[21.06185,50.44921],[21.06217,50.44939]]}},{"type":"Feature","properties":{"numer":"1817T","klasa":"","kat":"powiatowa"},"geometry":{"type":"LineString","coordinates":[[21.0608,50.45671],[21.05954,50.4558],[21.05909,50.45566],[21.03959,50.45447],[21.03943,50.45706],[21.03564,50.4567],[21.03106,50.45657],[21.02989,50.45671],[21.02458,50.45794],[21.02448,50.45809],[21.02465,50.45892],[21.02452,50.45944],[21.02414,50.45985],[21.02346,50.46014],[21.01246,50.46012],[21.01107,50.46111],[21.01049,50.46194],[21.00875,50.46188],[21.00636,50.46196],[21.00582,50.46206]]}},{"type":"Feature","properties":{"numer":"1071T","klasa":"droga zbiorcza","kat":"powiatowa"},"geometry":{"type":"LineString","coordinates":[[21.02782,50.47296],[21.02816,50.47287],[21.03304,50.47252],[21.03352,50.47243],[21.0339,50.47226],[21.03618,50.47067],[21.04439,50.46637],[21.04924,50.4628],[21.05301,50.46051],[21.05377,50.46021],[21.05797,50.45939],[21.05869,50.45919],[21.05895,50.45898],[21.0608,50.45671]]}},{"type":"Feature","properties":{"numer":"1818T","klasa":"","kat":"powiatowa"},"geometry":{"type":"LineString","coordinates":[[21.03502,50.47486],[21.0356,50.47449],[21.03563,50.4742],[21.03962,50.47346],[21.04293,50.47242],[21.04507,50.47128],[21.04655,50.47068],[21.047,50.47059],[21.04743,50.47076],[21.04808,50.47057],[21.05033,50.4697],[21.05233,50.46924],[21.05353,50.46907],[21.05375,50.46916],[21.05706,50.46863],[21.05723,50.46865],[21.05751,50.46892],[21.05808,50.46919],[21.05966,50.46958],[21.06038,50.46957],[21.06168,50.46969],[21.06667,50.46921]]}},{"type":"Feature","properties":{"numer":"757","klasa":"droga gĹ‚Ăłwna","kat":"wojewodzka"},"geometry":{"type":"LineString","coordinates":[[21.03502,50.47486],[21.0341,50.47476],[21.03165,50.47493],[21.03098,50.47488],[21.0304,50.47461],[21.02782,50.47296]]}},{"type":"Feature","properties":{"numer":"757","klasa":"droga gĹ‚Ăłwna","kat":"wojewodzka"},"geometry":{"type":"LineString","coordinates":[[21.04405,50.48117],[21.03883,50.47624],[21.03787,50.47576],[21.03502,50.47486]]}},{"type":"Feature","properties":{"numer":"1019T","klasa":"","kat":"powiatowa"},"geometry":{"type":"LineString","coordinates":[[20.99709,50.46052],[20.998,50.46024],[21.00065,50.46003]]}},{"type":"Feature","properties":{"numer":"1019T","klasa":"","kat":"powiatowa"},"geometry":{"type":"LineString","coordinates":[[20.99708,50.4609],[20.99709,50.46052]]}},{"type":"Feature","properties":{"numer":"757","klasa":"droga gĹ‚Ăłwna","kat":"wojewodzka"},"geometry":{"type":"LineString","coordinates":[[21.00582,50.46206],[21.00065,50.46003]]}},{"type":"Feature","properties":{"numer":"1012T","klasa":"","kat":"powiatowa"},"geometry":{"type":"LineString","coordinates":[[20.99708,50.4609],[20.99712,50.46261],[20.99809,50.46799]]}},{"type":"Feature","properties":{"numer":"757","klasa":"droga gĹ‚Ăłwna","kat":"wojewodzka"},"geometry":{"type":"LineString","coordinates":[[21.02782,50.47296],[21.01881,50.4672],[21.00582,50.46206]]}},{"type":"Feature","properties":{"numer":"1012T","klasa":"droga gĹ‚Ăłwna","kat":"powiatowa"},"geometry":{"type":"LineString","coordinates":[[20.99809,50.46799],[20.998111358379088,50.46821578857891]]}},{"type":"Feature","properties":{"numer":"757","klasa":"droga gĹ‚Ăłwna","kat":"wojewodzka"},"geometry":{"type":"LineString","coordinates":[[21.00065,50.46003],[20.98901930570239,50.45546254115515]]}},{"type":"Feature","properties":{"numer":"1019T","klasa":"","kat":"powiatowa"},"geometry":{"type":"LineString","coordinates":[[20.97719,50.46334],[20.977186864456083,50.46334179173938]]}},{"type":"Feature","properties":{"numer":"1019T","klasa":"","kat":"powiatowa"},"geometry":{"type":"LineString","coordinates":[[20.99709,50.46052],[20.99467,50.46135],[20.99348,50.46164],[20.98848,50.46204],[20.98255,50.46239]]}},{"type":"Feature","properties":{"numer":"757","klasa":"droga gĹ‚Ăłwna","kat":"wojewodzka"},"geometry":{"type":"LineString","coordinates":[[21.04446,50.48156],[21.04405,50.48117]]}},{"type":"Feature","properties":{"numer":"1819T","klasa":"","kat":"powiatowa"},"geometry":{"type":"LineString","coordinates":[[21.06382,50.45443],[21.06391,50.45404],[21.06384,50.45385]]}},{"type":"Feature","properties":{"numer":"1071T","klasa":"droga zbiorcza","kat":"powiatowa"},"geometry":{"type":"LineString","coordinates":[[21.06314,50.45442],[21.06323,50.45436]]}},{"type":"Feature","properties":{"numer":"1819T","klasa":"","kat":"powiatowa"},"geometry":{"type":"LineString","coordinates":[[21.06381,50.45449],[21.06382,50.45443]]}},{"type":"Feature","properties":{"numer":"1071T","klasa":"droga zbiorcza","kat":"powiatowa"},"geometry":{"type":"LineString","coordinates":[[21.0608,50.45671],[21.06195,50.45534],[21.06314,50.45442]]}},{"type":"Feature","properties":{"numer":"1819T","klasa":"","kat":"powiatowa"},"geometry":{"type":"LineString","coordinates":[[21.06667,50.46921],[21.06774,50.46446],[21.06555,50.46207],[21.06523,50.46189],[21.06432,50.4616],[21.06421,50.46148],[21.06397,50.45971],[21.06327,50.45871],[21.06311,50.45674],[21.06381,50.45449]]}},{"type":"Feature","properties":{"numer":"757","klasa":"droga gĹ‚Ăłwna","kat":"wojewodzka"},"geometry":{"type":"LineString","coordinates":[[21.046070317504334,50.483090818477145],[21.04446,50.48156]]}},{"type":"Feature","properties":{"numer":"1819T","klasa":"","kat":"powiatowa"},"geometry":{"type":"LineString","coordinates":[[21.06667,50.46921],[21.06838,50.46902],[21.07388,50.46894],[21.07591,50.46921],[21.07805,50.46908],[21.08329,50.4696],[21.08481,50.4699],[21.08632,50.47068],[21.08741,50.47128],[21.08805,50.4721],[21.08827,50.47222],[21.09119,50.47268],[21.09622,50.47314],[21.10449,50.47343]]}},{"type":"Feature","properties":{"numer":"1820T","klasa":"","kat":"powiatowa"},"geometry":{"type":"LineString","coordinates":[[21.12016,50.47382],[21.12026,50.47373]]}},{"type":"Feature","properties":{"numer":"1876T","klasa":"droga zbiorcza","kat":"powiatowa"},"geometry":{"type":"LineString","coordinates":[[21.10449,50.47343],[21.10774,50.47448]]}},{"type":"Feature","properties":{"numer":"1876T","klasa":"droga zbiorcza","kat":"powiatowa"},"geometry":{"type":"LineString","coordinates":[[21.10774,50.47448],[21.1082,50.47469]]}},{"type":"Feature","properties":{"numer":"1820T","klasa":"","kat":"powiatowa"},"geometry":{"type":"LineString","coordinates":[[21.11256,50.47728],[21.11351,50.47712],[21.11922,50.47491],[21.12016,50.47382]]}},{"type":"Feature","properties":{"numer":"1876T","klasa":"droga zbiorcza","kat":"powiatowa"},"geometry":{"type":"LineString","coordinates":[[21.1082,50.47469],[21.11134,50.47649],[21.11256,50.47728]]}},{"type":"Feature","properties":{"numer":"1876T","klasa":"droga zbiorcza","kat":"powiatowa"},"geometry":{"type":"LineString","coordinates":[[21.11256,50.47728],[21.1176,50.48513]]}},{"type":"Feature","properties":{"numer":"1876T","klasa":"droga zbiorcza","kat":"powiatowa"},"geometry":{"type":"LineString","coordinates":[[21.11761930419339,50.485157347607306],[21.1176,50.48513]]}}]}