{"type":"FeatureCollection","features":[{"type":"Feature","properties":{"numer":"4606W","klasa":"droga zbiorcza","kat":"powiatowa"},"geometry":{"type":"LineString","coordinates":[[20.01395,53.15164],[20.013927009494907,53.15159102022828]]}},{"type":"Feature","properties":{"numer":"4602W","klasa":"droga zbiorcza","kat":"powiatowa"},"geometry":{"type":"LineString","coordinates":[[20.0562,53.15656],[20.05623022116461,53.15651288353864]]}},{"type":"Feature","properties":{"numer":"1361N","klasa":"","kat":"powiatowa"},"geometry":{"type":"LineString","coordinates":[[20.0471,53.16904],[20.05263,53.16203],[20.0562,53.15656]]}},{"type":"Feature","properties":{"numer":"1302N","klasa":"","kat":"powiatowa"},"geometry":{"type":"LineString","coordinates":[[20.01498,53.15726],[20.01611,53.15662],[20.034287001000795,53.147626431610384]]}},{"type":"Feature","properties":{"numer":"1359N","klasa":"droga zbiorcza","kat":"powiatowa"},"geometry":{"type":"LineString","coordinates":[[20.01395,53.15164],[20.01411,53.15261],[20.01427,53.15675],[20.01446,53.15701],[20.01498,53.15726]]}},{"type":"Feature","properties":{"numer":"1359N","klasa":"droga zbiorcza","kat":"powiatowa"},"geometry":{"type":"LineString","coordinates":[[20.01498,53.15726],[20.0133,53.15864],[20.01288,53.15957]]}},{"type":"Feature","properties":{"numer":"1359N","klasa":"droga zbiorcza","kat":"powiatowa"},"geometry":{"type":"LineString","coordinates":[[20.01288,53.15957],[20.0126,53.16062],[20.01239,53.16257],[20.01299,53.16457],[20.01267,53.16746],[20.01031,53.17307],[20.00837,53.17686],[20.00632,53.18207],[20.00567,53.18307]]}},{"type":"Feature","properties":{"numer":"1294N","klasa":"droga zbiorcza","kat":"powiatowa"},"geometry":{"type":"LineString","coordinates":[[19.99159758815233,53.18103658060955],[19.99373,53.18136],[20.00327,53.18157],[20.00364,53.18167],[20.00398,53.18189],[20.00537,53.18311]]}},{"type":"Feature","properties":{"numer":"1359N","klasa":"droga zbiorcza","kat":"powiatowa"},"geometry":{"type":"LineString","coordinates":[[20.00567,53.18307],[20.00537,53.18311]]}},{"type":"Feature","properties":{"numer":"1359N","klasa":"droga zbiorcza","kat":"powiatowa"},"geometry":{"type":"LineString","coordinates":[[20.00553,53.18327],[20.00567,53.18307]]}},{"type":"Feature","properties":{"numer":"1294N","klasa":"droga zbiorcza","kat":"powiatowa"},"geometry":{"type":"LineString","coordinates":[[20.00537,53.18311],[20.00553,53.18327]]}},{"type":"Feature","properties":{"numer":"1294N","klasa":"droga zbiorcza","kat":"powiatowa"},"geometry":{"type":"LineString","coordinates":[[20.00553,53.18327],[20.00682,53.18433],[20.01016,53.1867],[20.01112,53.18727],[20.01174,53.18751],[20.01222,53.18759],[20.01366,53.18748],[20.01414,53.18736],[20.01442,53.1872]]}},{"type":"Feature","properties":{"numer":"1304N","klasa":"droga zbiorcza","kat":"powiatowa"},"geometry":{"type":"LineString","coordinates":[[20.04715,53.17444],[20.04756,53.17453],[20.0513,53.17443],[20.06495,53.17449],[20.07217,53.17459],[20.07829276946637,53.1750227203193]]}},{"type":"Feature","properties":{"numer":"544","klasa":"droga gĹ‚Ăłwna","kat":"wojewodzka"},"geometry":{"type":"LineString","coordinates":[[19.99944,53.23108],[19.99768,53.23052],[19.99482,53.22986],[19.99322,53.22955],[19.99184,53.22947],[19.97764,53.23059],[19.96845,53.23061],[19.96395,53.23083],[19.96239,53.23097],[19.96146,53.23113],[19.95191,53.2334],[19.9465,53.2343],[19.94562,53.23452]]}},{"type":"Feature","properties":{"numer":"1288N","klasa":"droga zbiorcza","kat":"powiatowa"},"geometry":{"type":"LineString","coordinates":[[19.94562,53.23452],[19.94606,53.23575],[19.94641,53.23614],[19.95984,53.24538],[19.96322,53.24756],[19.97027,53.25235],[19.97367,53.2552],[19.97403,53.25534],[19.97683,53.25591],[19.98037,53.25683],[19.98071,53.25709],[19.98157,53.2583],[19.98196,53.25867],[19.98468,53.26012],[19.98836,53.26287],[19.98886,53.26303],[19.99163,53.26355],[19.99457,53.26495],[19.99762,53.26653],[20.0053,53.2715],[20.00585,53.27174],[20.00682,53.27195]]}},{"type":"Feature","properties":{"numer":"1286N","klasa":"","kat":"powiatowa"},"geometry":{"type":"LineString","coordinates":[[19.98638,53.27431],[19.98459,53.27465],[19.98271,53.27474],[19.98023,53.27504],[19.97417,53.27553],[19.96507,53.27662],[19.95803,53.27567],[19.9561,53.27564],[19.95467,53.27544],[19.95359,53.27515],[19.9515,53.2741]]}},{"type":"Feature","properties":{"numer":"1255N","klasa":"droga zbiorcza","kat":"powiatowa"},"geometry":{"type":"LineString","coordinates":[[19.98433,53.30484],[19.980655677116655,53.309138080614204]]}},{"type":"Feature","properties":{"numer":"1300N","klasa":"","kat":"powiatowa"},"geometry":{"type":"LineString","coordinates":[[20.04662,53.16941],[20.04643,53.16888],[20.04552,53.16813],[20.04471,53.16781],[20.03812,53.16581],[20.03207,53.1617],[20.02782,53.15994],[20.02699,53.1598],[20.02636,53.1598],[20.01836,53.16038],[20.01687,53.16044],[20.01499,53.16021],[20.01387,53.15976],[20.01288,53.15957]]}},{"type":"Feature","properties":{"numer":"1361N","klasa":"","kat":"powiatowa"},"geometry":{"type":"LineString","coordinates":[[20.04662,53.16941],[20.0471,53.16904]]}},{"type":"Feature","properties":{"numer":"1361N","klasa":"","kat":"powiatowa"},"geometry":{"type":"LineString","coordinates":[[20.04715,53.17444],[20.04724,53.17396],[20.04706,53.1729],[20.04641,53.17071],[20.04662,53.16941]]}},{"type":"Feature","properties":{"numer":"1304N","klasa":"droga zbiorcza","kat":"powiatowa"},"geometry":{"type":"LineString","coordinates":[[20.01442,53.1872],[20.02674,53.17945],[20.02946,53.1775],[20.03048,53.17698],[20.03195,53.17657],[20.03686,53.17589],[20.04073,53.17527],[20.04715,53.17444]]}},{"type":"Feature","properties":{"numer":"1361N","klasa":"","kat":"powiatowa"},"geometry":{"type":"LineString","coordinates":[[20.04624,53.21021],[20.04605,53.2096],[20.04634,53.20609],[20.04632,53.20524],[20.04617,53.20466],[20.04628,53.20283],[20.04703,53.19941],[20.04767,53.19767],[20.04788,53.19269],[20.04754,53.18784],[20.04667,53.18438],[20.04503,53.17658],[20.04525,53.17609],[20.04686,53.17495],[20.04715,53.17444]]}},{"type":"Feature","properties":{"numer":"1361N","klasa":"","kat":"powiatowa"},"geometry":{"type":"LineString","coordinates":[[20.04631,53.21048],[20.04624,53.21021]]}},{"type":"Feature","properties":{"numer":"1361N","klasa":"","kat":"powiatowa"},"geometry":{"type":"LineString","coordinates":[[20.03465,53.22614],[20.0347,53.22516],[20.03485,53.22497],[20.03512,53.22485],[20.04386,53.22335],[20.04378,53.22177],[20.04416,53.21969],[20.04432,53.21942],[20.04528,53.21847],[20.04548,53.2181],[20.04653,53.21268],[20.04664,53.21168],[20.04631,53.21048]]}},{"type":"Feature","properties":{"numer":"1361N","klasa":"","kat":"powiatowa"},"geometry":{"type":"LineString","coordinates":[[20.03241,53.22683],[20.03248,53.22657],[20.03283,53.2264],[20.03465,53.22614]]}},{"type":"Feature","properties":{"numer":"1361N","klasa":"","kat":"powiatowa"},"geometry":{"type":"LineString","coordinates":[[20.03243,53.22704],[20.03241,53.22683]]}},{"type":"Feature","properties":{"numer":"1361N","klasa":"","kat":"powiatowa"},"geometry":{"type":"LineString","coordinates":[[20.03443,53.2333],[20.03411,53.2311],[20.03243,53.22704]]}},{"type":"Feature","properties":{"numer":"544","klasa":"droga gĹ‚Ăłwna","kat":"wojewodzka"},"geometry":{"type":"LineString","coordinates":[[19.94562,53.23452],[19.9433,53.23487],[19.9373,53.23658],[19.92917,53.24068],[19.92371303444458,53.2439069921834]]}},{"type":"Feature","properties":{"numer":"1304N","klasa":"droga zbiorcza","kat":"powiatowa"},"geometry":{"type":"LineString","coordinates":[[20.00549,53.20585],[20.01053,53.20227],[20.0129,53.20001],[20.01663,53.19701],[20.01713,53.19631],[20.01724,53.19563],[20.01712,53.19508],[20.01442,53.1872]]}},{"type":"Feature","properties":{"numer":"1304N","klasa":"droga zbiorcza","kat":"powiatowa"},"geometry":{"type":"LineString","coordinates":[[20.00525,53.20602],[20.00549,53.20585]]}},{"type":"Feature","properties":{"numer":"1304N","klasa":"droga zbiorcza","kat":"powiatowa"},"geometry":{"type":"LineString","coordinates":[[20.00525,53.20602],[20.00394,53.20698],[20.0026,53.20894],[20.00247,53.20936],[20.00492,53.21838],[20.00493,53.21912],[20.00304,53.22248],[20.00177,53.22645],[19.99944,53.23108]]}},{"type":"Feature","properties":{"numer":"544","klasa":"droga gĹ‚Ăłwna","kat":"wojewodzka"},"geometry":{"type":"LineString","coordinates":[[20.02683,53.23357],[20.02001,53.23443],[20.01765,53.2346],[20.01358,53.23473],[20.00653,53.23364],[20.00417,53.23285],[19.99944,53.23108]]}},{"type":"Feature","properties":{"numer":"1255N","klasa":"droga zbiorcza","kat":"powiatowa"},"geometry":{"type":"LineString","coordinates":[[20.02683,53.23357],[20.0255,53.24374],[20.02506,53.24417],[20.02086,53.24698],[20.02052,53.24733],[20.01806,53.25317],[20.01606,53.26074],[20.01343,53.26658]]}},{"type":"Feature","properties":{"numer":"1255N","klasa":"droga zbiorcza","kat":"powiatowa"},"geometry":{"type":"LineString","coordinates":[[20.01343,53.26658],[20.01245,53.26793],[20.01171,53.26925],[20.01075,53.27158]]}},{"type":"Feature","properties":{"numer":"1255N,1288N","klasa":"droga zbiorcza","kat":"powiatowa"},"geometry":{"type":"LineString","coordinates":[[20.01075,53.27158],[20.01026,53.27245]]}},{"type":"Feature","properties":{"numer":"1288N","klasa":"droga zbiorcza","kat":"powiatowa"},"geometry":{"type":"LineString","coordinates":[[20.00682,53.27195],[20.01026,53.27245]]}},{"type":"Feature","properties":{"numer":"1286N","klasa":"","kat":"powiatowa"},"geometry":{"type":"LineString","coordinates":[[20.00682,53.27195],[20.00493,53.27268],[19.99814,53.27385],[19.99675,53.27392],[19.99161,53.27383],[19.98922,53.27399],[19.98803,53.27399],[19.98649,53.27429]]}},{"type":"Feature","properties":{"numer":"1286N","klasa":"","kat":"powiatowa"},"geometry":{"type":"LineString","coordinates":[[19.98649,53.27429],[19.98638,53.27431]]}},{"type":"Feature","properties":{"numer":"1288N","klasa":"droga zbiorcza","kat":"powiatowa"},"geometry":{"type":"LineString","coordinates":[[20.01075,53.27158],[20.02321,53.27335],[20.03813,53.27203],[20.0395,53.27173],[20.05045,53.26872],[20.05596,53.26674],[20.05658,53.26664],[20.06231,53.26752],[20.06387,53.26788],[20.06703,53.26767],[20.06922,53.26772],[20.08122,53.27075],[20.09802,53.27157],[20.10018,53.27199],[20.11915,53.27407],[20.12289629227434,53.27408589657259]]}},{"type":"Feature","properties":{"numer":"544","klasa":"droga gĹ‚Ăłwna","kat":"wojewodzka"},"geometry":{"type":"LineString","coordinates":[[20.03443,53.2333],[20.03294,53.23335],[20.02962,53.23329],[20.02683,53.23357]]}},{"type":"Feature","properties":{"numer":"544","klasa":"droga gĹ‚Ăłwna","kat":"wojewodzka"},"geometry":{"type":"LineString","coordinates":[[20.067856247181812,53.23418162209267],[20.06415,53.23441],[20.06012,53.23507],[20.05615,53.23583],[20.05443,53.23595],[20.05327,53.23588],[20.04914,53.23506],[20.04412,53.23448],[20.0354,53.23335],[20.03443,53.2333]]}},{"type":"Feature","properties":{"numer":"1290N","klasa":"","kat":"powiatowa"},"geometry":{"type":"LineString","coordinates":[[20.074041700589124,53.24332134878099],[20.07028,53.24641],[20.06902,53.24653],[20.06793,53.24648],[20.06636,53.24683],[20.06432,53.2467],[20.06059,53.24631],[20.05994,53.24635],[20.05909,53.2466],[20.05417,53.2491],[20.04772,53.25174],[20.04733,53.25195],[20.04713,53.2522],[20.04065,53.25442],[20.0373,53.25587],[20.03646,53.25628],[20.03189,53.25948],[20.0293,53.26091],[20.02449,53.26294],[20.01504,53.26597],[20.01343,53.26658]]}},{"type":"Feature","properties":{"numer":"1373N","klasa":"","kat":"powiatowa"},"geometry":{"type":"LineString","coordinates":[[20.046172738579244,53.316350061661815],[20.0454,53.31657],[20.04486,53.31683],[20.04446,53.31735],[20.04446,53.3177],[20.044700899677096,53.31824202427347]]}},{"type":"Feature","properties":{"numer":"1255N","klasa":"droga zbiorcza","kat":"powiatowa"},"geometry":{"type":"LineString","coordinates":[[20.01026,53.27245],[20.00978,53.27351],[20.00932,53.27416],[20.0093,53.27492],[20.00897,53.27629],[20.00876,53.27661],[20.00762,53.27699],[20.00493,53.27703],[20.00383,53.27721],[20.00296,53.27746],[20.00233,53.27781],[20.00174,53.27946],[19.99845,53.28404],[19.99908,53.28702],[19.99897,53.28749],[19.99683,53.29019],[19.99389,53.29153],[19.9928,53.29211],[19.99189,53.29264],[19.99001,53.29399],[19.98945,53.2948],[19.98859,53.29642],[19.9884,53.29952],[19.98809,53.30054],[19.98773,53.30109],[19.98433,53.30484]]}},{"type":"Feature","properties":{"numer":"1282N","klasa":"","kat":"powiatowa"},"geometry":{"type":"LineString","coordinates":[[20.01884,53.32243],[20.0182,53.32212],[20.00669,53.31478],[20.00244,53.31314],[19.98739,53.30683],[19.98669,53.30645],[19.98433,53.30484]]}},{"type":"Feature","properties":{"numer":"1286N","klasa":"","kat":"powiatowa"},"geometry":{"type":"LineString","coordinates":[[19.91772,53.2867],[19.9158,53.28862],[19.91216,53.29007],[19.91118,53.29039],[19.91026,53.2904],[19.90869,53.29019],[19.906735300261094,53.289246644908616]]}},{"type":"Feature","properties":{"numer":"1286N","klasa":"","kat":"powiatowa"},"geometry":{"type":"LineString","coordinates":[[19.9515,53.2741],[19.95046,53.27365],[19.94959,53.27345],[19.94868,53.27334],[19.94797,53.27343],[19.94573,53.27408],[19.9442,53.27471],[19.94214,53.27581],[19.94068,53.27633],[19.93765,53.27759],[19.93732,53.27784],[19.93592,53.27946],[19.93518,53.27987],[19.92507,53.28317],[19.92353,53.28376],[19.92129,53.28407],[19.91997,53.28456],[19.91937,53.28494],[19.91776,53.28665]]}},{"type":"Feature","properties":{"numer":"1286N","klasa":"","kat":"powiatowa"},"geometry":{"type":"LineString","coordinates":[[19.91776,53.28665],[19.91772,53.2867]]}}]}