{"type":"FeatureCollection","features":[{"type":"Feature","properties":{"numer":"2910G","klasa":"droga zbiorcza","kat":"powiatowa"},"geometry":{"type":"LineString","coordinates":[[19.28087,54.04456],[19.280723423941453,54.044530684788285]]}},{"type":"Feature","properties":{"numer":"2910G","klasa":"droga zbiorcza","kat":"powiatowa"},"geometry":{"type":"LineString","coordinates":[[19.2809,54.04457],[19.28087,54.04456]]}},{"type":"Feature","properties":{"numer":"1117N","klasa":"","kat":"powiatowa"},"geometry":{"type":"LineString","coordinates":[[19.28086,54.04458],[19.28087,54.04456]]}},{"type":"Feature","properties":{"numer":"2910G","klasa":"droga zbiorcza","kat":"powiatowa"},"geometry":{"type":"LineString","coordinates":[[19.28098,54.04459],[19.2809,54.04457]]}},{"type":"Feature","properties":{"numer":"1117N","klasa":"","kat":"powiatowa"},"geometry":{"type":"LineString","coordinates":[[19.27494,54.05306],[19.27752,54.05016],[19.27875,54.04859],[19.2809,54.04457]]}},{"type":"Feature","properties":{"numer":"1122N","klasa":"droga zbiorcza","kat":"powiatowa"},"geometry":{"type":"LineString","coordinates":[[19.28098,54.04459],[19.29618,54.04828],[19.29754,54.04834],[19.29902,54.0487],[19.30076,54.04921],[19.3125,54.05334]]}},{"type":"Feature","properties":{"numer":"1117N","klasa":"","kat":"powiatowa"},"geometry":{"type":"LineString","coordinates":[[19.27494,54.05306],[19.27482,54.05318]]}},{"type":"Feature","properties":{"numer":"1122N","klasa":"droga zbiorcza","kat":"powiatowa"},"geometry":{"type":"LineString","coordinates":[[19.3125,54.05334],[19.31428,54.05396]]}},{"type":"Feature","properties":{"numer":"1103N","klasa":"droga zbiorcza","kat":"powiatowa"},"geometry":{"type":"LineString","coordinates":[[19.31317,54.07787],[19.31414,54.07743],[19.31658,54.07656],[19.3178,54.07598],[19.31863,54.07539],[19.32178,54.07252]]}},{"type":"Feature","properties":{"numer":"1103N","klasa":"droga zbiorcza","kat":"powiatowa"},"geometry":{"type":"LineString","coordinates":[[19.33891,54.05353],[19.339023171839514,54.05346662376987]]}},{"type":"Feature","properties":{"numer":"1103N","klasa":"droga zbiorcza","kat":"powiatowa"},"geometry":{"type":"LineString","coordinates":[[19.32931,54.05926],[19.33891,54.05353]]}},{"type":"Feature","properties":{"numer":"1122N","klasa":"droga zbiorcza","kat":"powiatowa"},"geometry":{"type":"LineString","coordinates":[[19.31428,54.05396],[19.32931,54.05926]]}},{"type":"Feature","properties":{"numer":"1103N","klasa":"droga zbiorcza","kat":"powiatowa"},"geometry":{"type":"LineString","coordinates":[[19.32352,54.06466],[19.32931,54.05926]]}},{"type":"Feature","properties":{"numer":"1122N","klasa":"droga zbiorcza","kat":"powiatowa"},"geometry":{"type":"LineString","coordinates":[[19.32931,54.05926],[19.33811,54.06573],[19.34056,54.06655]]}},{"type":"Feature","properties":{"numer":"1103N","klasa":"droga zbiorcza","kat":"powiatowa"},"geometry":{"type":"LineString","coordinates":[[19.32337,54.06481],[19.32352,54.06466]]}},{"type":"Feature","properties":{"numer":"2914G","klasa":"","kat":"powiatowa"},"geometry":{"type":"LineString","coordinates":[[19.247893114720053,54.05992002076757],[19.24794,54.05997]]}},{"type":"Feature","properties":{"numer":"1117N","klasa":"","kat":"powiatowa"},"geometry":{"type":"LineString","coordinates":[[19.25278,54.0647],[19.25848,54.06202],[19.26342,54.0594],[19.27058,54.0559],[19.2725,54.05475],[19.27482,54.05318]]}},{"type":"Feature","properties":{"numer":"2911G","klasa":"droga zbiorcza","kat":"powiatowa"},"geometry":{"type":"LineString","coordinates":[[19.229587341041505,54.06591795025395],[19.22959,54.06592]]}},{"type":"Feature","properties":{"numer":"1125N","klasa":"","kat":"powiatowa"},"geometry":{"type":"LineString","coordinates":[[19.25278,54.0647],[19.25168,54.06393],[19.24794,54.05997]]}},{"type":"Feature","properties":{"numer":"1117N","klasa":"","kat":"powiatowa"},"geometry":{"type":"LineString","coordinates":[[19.2476,54.06707],[19.25278,54.0647]]}},{"type":"Feature","properties":{"numer":"1120N","klasa":"droga zbiorcza","kat":"powiatowa"},"geometry":{"type":"LineString","coordinates":[[19.22959,54.06592],[19.23323,54.06863],[19.23393,54.06895],[19.23526,54.06916],[19.23831,54.06899],[19.24084,54.06934]]}},{"type":"Feature","properties":{"numer":"1122N","klasa":"droga zbiorcza","kat":"powiatowa"},"geometry":{"type":"LineString","coordinates":[[19.35122,54.06499],[19.351240771573604,54.06498865989848]]}},{"type":"Feature","properties":{"numer":"1122N","klasa":"droga zbiorcza","kat":"powiatowa"},"geometry":{"type":"LineString","coordinates":[[19.34103,54.06659],[19.34973,54.06506],[19.35122,54.06499]]}},{"type":"Feature","properties":{"numer":"102069N,1122N","klasa":"droga zbiorcza","kat":"powiatowa"},"geometry":{"type":"LineString","coordinates":[[19.34056,54.06655],[19.34081,54.06662]]}},{"type":"Feature","properties":{"numer":"1122N","klasa":"droga zbiorcza","kat":"powiatowa"},"geometry":{"type":"LineString","coordinates":[[19.34097,54.0666],[19.34103,54.06659]]}},{"type":"Feature","properties":{"numer":"1122N","klasa":"droga zbiorcza","kat":"powiatowa"},"geometry":{"type":"LineString","coordinates":[[19.34081,54.06662],[19.34097,54.0666]]}},{"type":"Feature","properties":{"numer":"1103N","klasa":"droga zbiorcza","kat":"powiatowa"},"geometry":{"type":"LineString","coordinates":[[19.32191,54.07236],[19.32205,54.07181],[19.3217,54.06783],[19.32175,54.0671],[19.32222,54.06607],[19.32337,54.06481]]}},{"type":"Feature","properties":{"numer":"1103N","klasa":"droga zbiorcza","kat":"powiatowa"},"geometry":{"type":"LineString","coordinates":[[19.32191,54.07236],[19.32178,54.07252]]}},{"type":"Feature","properties":{"numer":"1120N","klasa":"droga zbiorcza","kat":"powiatowa"},"geometry":{"type":"LineString","coordinates":[[19.32218,54.08763],[19.33086,54.09037],[19.33172,54.0906],[19.3331,54.09082],[19.33379,54.0909],[19.33419,54.09086],[19.3373,54.08984],[19.33778,54.08975],[19.3384,54.08979],[19.35515,54.09474],[19.35631,54.09497],[19.35691,54.09498],[19.35723,54.09492],[19.36569,54.09188]]}},{"type":"Feature","properties":{"numer":"1117N","klasa":"","kat":"powiatowa"},"geometry":{"type":"LineString","coordinates":[[19.24261,54.06974],[19.24339,54.06904],[19.2476,54.06707]]}},{"type":"Feature","properties":{"numer":"1117N,1120N","klasa":"droga zbiorcza","kat":"powiatowa"},"geometry":{"type":"LineString","coordinates":[[19.24084,54.06934],[19.24197,54.06952],[19.24261,54.06974]]}},{"type":"Feature","properties":{"numer":"1117N","klasa":"","kat":"powiatowa"},"geometry":{"type":"LineString","coordinates":[[19.22573,54.07693],[19.24084,54.06934]]}},{"type":"Feature","properties":{"numer":"22","klasa":"droga gĹ‚Ăłwna ruchu przyĹ›pieszonego","kat":"krajowa"},"geometry":{"type":"LineString","coordinates":[[19.22252619308027,54.07281804869076],[19.22439,54.07582],[19.22497,54.07644],[19.22573,54.07693]]}},{"type":"Feature","properties":{"numer":"2931G","klasa":"droga zbiorcza","kat":"powiatowa"},"geometry":{"type":"LineString","coordinates":[[19.22563,54.07711],[19.225619204338095,54.07714321742124]]}},{"type":"Feature","properties":{"numer":"22","klasa":"droga gĹ‚Ăłwna ruchu przyĹ›pieszonego","kat":"krajowa"},"geometry":{"type":"LineString","coordinates":[[19.22573,54.07693],[19.22678,54.07738],[19.226971857506346,54.07743207560886]]}},{"type":"Feature","properties":{"numer":"22","klasa":"droga gĹ‚Ăłwna ruchu przyĹ›pieszonego","kat":"krajowa"},"geometry":{"type":"LineString","coordinates":[[19.228716589648954,54.07780466200162],[19.23217,54.07846],[19.23508,54.0794],[19.23742,54.08032],[19.23884,54.08076],[19.25247,54.08342],[19.25426,54.08386],[19.25566,54.08439],[19.25661,54.08488],[19.25746,54.08553],[19.25932,54.08763],[19.26035,54.0885],[19.26376,54.09027],[19.26753,54.09241],[19.26987,54.09418],[19.27278,54.09697]]}},{"type":"Feature","properties":{"numer":"2934G","klasa":"","kat":"powiatowa"},"geometry":{"type":"LineString","coordinates":[[19.241775448742306,54.10038823434167],[19.24194,54.10045]]}},{"type":"Feature","properties":{"numer":"2934G","klasa":"","kat":"powiatowa"},"geometry":{"type":"LineString","coordinates":[[19.24194,54.10045],[19.24181,54.1004]]}},{"type":"Feature","properties":{"numer":"1120N","klasa":"droga zbiorcza","kat":"powiatowa"},"geometry":{"type":"LineString","coordinates":[[19.24261,54.06974],[19.2439,54.07058],[19.24535,54.07178],[19.24714,54.07288],[19.24862,54.07364],[19.25142,54.07437],[19.25438,54.07454],[19.25594,54.0748],[19.25964,54.07581],[19.26323,54.07723],[19.2778,54.08071],[19.27852,54.08078],[19.2796,54.08039],[19.28371,54.08001],[19.28604,54.07923],[19.28703,54.07916],[19.28776,54.07952],[19.28964,54.08073],[19.2911,54.08147],[19.29326,54.08226],[19.29469,54.08263],[19.29655,54.08285],[19.30173,54.08305],[19.30346,54.08327],[19.3065,54.08292]]}},{"type":"Feature","properties":{"numer":"1103N","klasa":"droga zbiorcza","kat":"powiatowa"},"geometry":{"type":"LineString","coordinates":[[19.31302,54.07794],[19.31317,54.07787]]}},{"type":"Feature","properties":{"numer":"1103N","klasa":"droga zbiorcza","kat":"powiatowa"},"geometry":{"type":"LineString","coordinates":[[19.3065,54.08292],[19.30787,54.08077],[19.30841,54.08021],[19.31302,54.07794]]}},{"type":"Feature","properties":{"numer":"1120N","klasa":"droga zbiorcza","kat":"powiatowa"},"geometry":{"type":"LineString","coordinates":[[19.3065,54.08292],[19.30676,54.08298],[19.31052,54.08535],[19.3125,54.0859]]}},{"type":"Feature","properties":{"numer":"1120N","klasa":"droga zbiorcza","kat":"powiatowa"},"geometry":{"type":"LineString","coordinates":[[19.3125,54.0859],[19.31389,54.08625],[19.32008,54.08707],[19.32218,54.08763]]}},{"type":"Feature","properties":{"numer":"1103N","klasa":"droga zbiorcza","kat":"powiatowa"},"geometry":{"type":"LineString","coordinates":[[19.30481,54.09987],[19.31101,54.09144],[19.31091,54.0911],[19.31064,54.09086],[19.30699,54.08868],[19.30654,54.08831],[19.30623,54.0841],[19.30629,54.08344],[19.3065,54.08292]]}},{"type":"Feature","properties":{"numer":"22","klasa":"droga gĹ‚Ăłwna ruchu przyĹ›pieszonego","kat":"krajowa"},"geometry":{"type":"LineString","coordinates":[[19.27278,54.09697],[19.27288,54.09707]]}},{"type":"Feature","properties":{"numer":"1103N","klasa":"droga zbiorcza","kat":"powiatowa"},"geometry":{"type":"LineString","coordinates":[[19.30481,54.09987],[19.30472,54.1]]}},{"type":"Feature","properties":{"numer":"22","klasa":"droga gĹ‚Ăłwna ruchu przyĹ›pieszonego","kat":"krajowa"},"geometry":{"type":"LineString","coordinates":[[19.27288,54.09707],[19.27397,54.09817],[19.27452,54.09921],[19.27739,54.10925],[19.27761,54.11094],[19.28254,54.11733],[19.28371,54.11831]]}},{"type":"Feature","properties":{"numer":"1103N","klasa":"droga zbiorcza","kat":"powiatowa"},"geometry":{"type":"LineString","coordinates":[[19.2965,54.12234],[19.30257,54.11727],[19.30321,54.11656],[19.30364,54.11576],[19.30378,54.11458],[19.30278,54.10984],[19.30198,54.10408],[19.30225,54.10339],[19.30472,54.1]]}},{"type":"Feature","properties":{"numer":"1118N","klasa":"","kat":"powiatowa"},"geometry":{"type":"LineString","coordinates":[[19.26965,54.11196],[19.27299,54.11469],[19.27788,54.11842]]}},{"type":"Feature","properties":{"numer":"1116N","klasa":"","kat":"powiatowa"},"geometry":{"type":"LineString","coordinates":[[19.27788,54.11842],[19.27962,54.11828],[19.28015,54.11818],[19.28045,54.11805],[19.28142,54.11835],[19.28294,54.11849]]}},{"type":"Feature","properties":{"numer":"1116N","klasa":"","kat":"powiatowa"},"geometry":{"type":"LineString","coordinates":[[19.28294,54.11849],[19.28371,54.11831]]}},{"type":"Feature","properties":{"numer":"22","klasa":"droga gĹ‚Ăłwna ruchu przyĹ›pieszonego","kat":"krajowa"},"geometry":{"type":"LineString","coordinates":[[19.28371,54.11831],[19.28434,54.11866]]}},{"type":"Feature","properties":{"numer":"1116N","klasa":"","kat":"powiatowa"},"geometry":{"type":"LineString","coordinates":[[19.28294,54.11849],[19.28434,54.11866]]}},{"type":"Feature","properties":{"numer":"22","klasa":"droga gĹ‚Ăłwna ruchu przyĹ›pieszonego","kat":"krajowa"},"geometry":{"type":"LineString","coordinates":[[19.28434,54.11866],[19.28732,54.11993],[19.2906,54.12111],[19.29515,54.12204]]}},{"type":"Feature","properties":{"numer":"22","klasa":"droga gĹ‚Ăłwna ruchu przyĹ›pieszonego","kat":"krajowa"},"geometry":{"type":"LineString","coordinates":[[19.29515,54.12204],[19.2965,54.12234]]}},{"type":"Feature","properties":{"numer":"1103N","klasa":"droga zbiorcza","kat":"powiatowa"},"geometry":{"type":"LineString","coordinates":[[19.29586,54.12969],[19.29434,54.12746],[19.29421,54.12699],[19.29418,54.12576],[19.29382,54.12549],[19.2938,54.12436],[19.29515,54.12204]]}},{"type":"Feature","properties":{"numer":"22","klasa":"droga gĹ‚Ăłwna ruchu przyĹ›pieszonego","kat":"krajowa"},"geometry":{"type":"LineString","coordinates":[[19.2965,54.12234],[19.30382,54.12418],[19.30505,54.12455],[19.30697,54.12558],[19.31172,54.12768],[19.31982,54.13161],[19.32229,54.1329],[19.32344,54.13363]]}},{"type":"Feature","properties":{"numer":"1103N","klasa":"droga zbiorcza","kat":"powiatowa"},"geometry":{"type":"LineString","coordinates":[[19.29589,54.12974],[19.29586,54.12969]]}},{"type":"Feature","properties":{"numer":"1119N","klasa":"droga zbiorcza","kat":"powiatowa"},"geometry":{"type":"LineString","coordinates":[[19.37333,54.08538],[19.37339867026725,54.08532310177856]]}},{"type":"Feature","properties":{"numer":"1119N","klasa":"droga zbiorcza","kat":"powiatowa"},"geometry":{"type":"LineString","coordinates":[[19.36569,54.09188],[19.36592,54.09137],[19.36645,54.09088],[19.37333,54.08538]]}},{"type":"Feature","properties":{"numer":"1119N","klasa":"droga zbiorcza","kat":"powiatowa"},"geometry":{"type":"LineString","coordinates":[[19.36254,54.1024],[19.36333,54.10168],[19.36353,54.10132],[19.36569,54.09188]]}},{"type":"Feature","properties":{"numer":"22","klasa":"droga gĹ‚Ăłwna ruchu przyĹ›pieszonego","kat":"krajowa"},"geometry":{"type":"LineString","coordinates":[[19.36324,54.14382],[19.36458476593823,54.14348709377425]]}},{"type":"Feature","properties":{"numer":"1119N","klasa":"droga zbiorcza","kat":"powiatowa"},"geometry":{"type":"LineString","coordinates":[[19.36252,54.10244],[19.36254,54.1024]]}},{"type":"Feature","properties":{"numer":"1119N","klasa":"droga zbiorcza","kat":"powiatowa"},"geometry":{"type":"LineString","coordinates":[[19.36169,54.10876],[19.36236,54.10281],[19.36252,54.10244]]}},{"type":"Feature","properties":{"numer":"1119N","klasa":"droga zbiorcza","kat":"powiatowa"},"geometry":{"type":"LineString","coordinates":[[19.36168,54.10882],[19.36169,54.10876]]}},{"type":"Feature","properties":{"numer":"1111N","klasa":"","kat":"powiatowa"},"geometry":{"type":"LineString","coordinates":[[19.33384,54.11522],[19.33531,54.11144]]}},{"type":"Feature","properties":{"numer":"1111N","klasa":"","kat":"powiatowa"},"geometry":{"type":"LineString","coordinates":[[19.33126,54.12417],[19.33153,54.1207],[19.33219,54.11942],[19.33384,54.11522]]}},{"type":"Feature","properties":{"numer":"1111N","klasa":"","kat":"powiatowa"},"geometry":{"type":"LineString","coordinates":[[19.33084,54.12728],[19.33114,54.126],[19.33126,54.12417]]}},{"type":"Feature","properties":{"numer":"1119N","klasa":"droga zbiorcza","kat":"powiatowa"},"geometry":{"type":"LineString","coordinates":[[19.36295,54.14367],[19.36017,54.14214],[19.35854,54.14154],[19.35803,54.14117],[19.35771,54.14076],[19.35711,54.13951],[19.35705,54.13909],[19.35719,54.13812],[19.35732,54.13788],[19.35762,54.13764],[19.3589,54.13719],[19.35923,54.1368],[19.35922,54.1365],[19.35892,54.13622],[19.35743,54.13562],[19.35692,54.13533],[19.35599,54.13441],[19.3557,54.13387],[19.36168,54.10882]]}},{"type":"Feature","properties":{"numer":"1111N","klasa":"","kat":"powiatowa"},"geometry":{"type":"LineString","coordinates":[[19.32824,54.13559],[19.32789,54.13441],[19.32814,54.13265],[19.32971,54.12996],[19.33084,54.12728]]}},{"type":"Feature","properties":{"numer":"22","klasa":"droga gĹ‚Ăłwna ruchu przyĹ›pieszonego","kat":"krajowa"},"geometry":{"type":"LineString","coordinates":[[19.32344,54.13363],[19.32371,54.13381]]}},{"type":"Feature","properties":{"numer":"22","klasa":"droga gĹ‚Ăłwna ruchu przyĹ›pieszonego","kat":"krajowa"},"geometry":{"type":"LineString","coordinates":[[19.32371,54.13381],[19.32523,54.13471],[19.32709,54.13537]]}},{"type":"Feature","properties":{"numer":"1118N","klasa":"","kat":"powiatowa"},"geometry":{"type":"LineString","coordinates":[[19.24205,54.1005],[19.24194,54.10045]]}},{"type":"Feature","properties":{"numer":"1118N","klasa":"","kat":"powiatowa"},"geometry":{"type":"LineString","coordinates":[[19.26965,54.11196],[19.26786,54.11082],[19.25791,54.1069],[19.24205,54.1005]]}},{"type":"Feature","properties":{"numer":"2935G","klasa":"","kat":"powiatowa"},"geometry":{"type":"LineString","coordinates":[[19.22690609105737,54.11469774484079],[19.22691,54.1147]]}},{"type":"Feature","properties":{"numer":"2935G","klasa":"","kat":"powiatowa"},"geometry":{"type":"LineString","coordinates":[[19.22691,54.1147],[19.22696,54.11473]]}},{"type":"Feature","properties":{"numer":"1116N","klasa":"","kat":"powiatowa"},"geometry":{"type":"LineString","coordinates":[[19.22696,54.11473],[19.22783,54.1155],[19.22846,54.11658],[19.22891,54.11698],[19.23262,54.11931],[19.2333,54.11962],[19.23435,54.11986]]}},{"type":"Feature","properties":{"numer":"1116N","klasa":"","kat":"powiatowa"},"geometry":{"type":"LineString","coordinates":[[19.23915,54.12049],[19.2475,54.12053],[19.26658,54.11942],[19.27788,54.11842]]}},{"type":"Feature","properties":{"numer":"1116N","klasa":"","kat":"powiatowa"},"geometry":{"type":"LineString","coordinates":[[19.23435,54.11986],[19.23729,54.12038],[19.23915,54.12049]]}},{"type":"Feature","properties":{"numer":"22","klasa":"droga gĹ‚Ăłwna ruchu przyĹ›pieszonego","kat":"krajowa"},"geometry":{"type":"LineString","coordinates":[[19.32709,54.13537],[19.32762,54.13548]]}},{"type":"Feature","properties":{"numer":"22","klasa":"droga gĹ‚Ăłwna ruchu przyĹ›pieszonego","kat":"krajowa"},"geometry":{"type":"LineString","coordinates":[[19.32762,54.13548],[19.32824,54.13559]]}},{"type":"Feature","properties":{"numer":"22","klasa":"droga gĹ‚Ăłwna ruchu przyĹ›pieszonego","kat":"krajowa"},"geometry":{"type":"LineString","coordinates":[[19.32824,54.13559],[19.32975,54.13571],[19.33144,54.13565],[19.33704,54.13465],[19.33812,54.1347],[19.34104,54.13516],[19.34198,54.13543],[19.34251,54.13576],[19.34274,54.13609],[19.34313,54.13722],[19.34351,54.13773],[19.34386,54.13795],[19.34534,54.13855],[19.34783,54.14021],[19.34804,54.14058],[19.34798,54.14151],[19.34818,54.14195],[19.34905,54.14266],[19.35004,54.14317],[19.35103,54.14351],[19.35162,54.14362],[19.35385,54.14345],[19.35598,54.14382],[19.35707,54.14391],[19.36235,54.14393],[19.36324,54.14382]]}},{"type":"Feature","properties":{"numer":"1119N","klasa":"droga zbiorcza","kat":"powiatowa"},"geometry":{"type":"LineString","coordinates":[[19.36295,54.14367],[19.36304,54.14372]]}},{"type":"Feature","properties":{"numer":"1119N","klasa":"droga zbiorcza","kat":"powiatowa"},"geometry":{"type":"LineString","coordinates":[[19.36304,54.14372],[19.36324,54.14382]]}},{"type":"Feature","properties":{"numer":"1103N","klasa":"droga zbiorcza","kat":"powiatowa"},"geometry":{"type":"LineString","coordinates":[[19.30835,54.14913],[19.30453,54.14952],[19.29716,54.14893],[19.29623,54.13071],[19.29616,54.13023],[19.29589,54.12974]]}},{"type":"Feature","properties":{"numer":"1103N","klasa":"droga zbiorcza","kat":"powiatowa"},"geometry":{"type":"LineString","coordinates":[[19.308404293160326,54.14912340950077],[19.30835,54.14913]]}},{"type":"Feature","properties":{"numer":"1114N","klasa":"","kat":"powiatowa"},"geometry":{"type":"LineString","coordinates":[[19.30851125232991,54.14945749184528],[19.30835,54.14913]]}}]}