{"type":"FeatureCollection","features":[{"type":"Feature","properties":{"numer":"656","klasa":"droga zbiorcza","kat":"wojewodzka"},"geometry":{"type":"LineString","coordinates":[[22.32827,53.8334],[22.327722807561972,53.83353085036561]]}},{"type":"Feature","properties":{"numer":"621","klasa":"droga gĹ‚Ăłwna ruchu przyĹ›pieszonego","kat":"wojewodzka"},"geometry":{"type":"LineString","coordinates":[[22.35541,53.79501],[22.35512357882322,53.794636629537415]]}},{"type":"Feature","properties":{"numer":"621","klasa":"droga gĹ‚Ăłwna ruchu przyĹ›pieszonego","kat":"wojewodzka"},"geometry":{"type":"LineString","coordinates":[[22.35634,53.7959],[22.35541,53.79501]]}},{"type":"Feature","properties":{"numer":"621","klasa":"droga gĹ‚Ăłwna ruchu przyĹ›pieszonego","kat":"wojewodzka"},"geometry":{"type":"LineString","coordinates":[[22.35634,53.7959],[22.36017,53.7985]]}},{"type":"Feature","properties":{"numer":"204030N","klasa":"droga zbiorcza","kat":"powiatowa"},"geometry":{"type":"LineString","coordinates":[[22.35344,53.79975],[22.35268,53.79956],[22.35204,53.79925]]}},{"type":"Feature","properties":{"numer":"204030N","klasa":"droga zbiorcza","kat":"powiatowa"},"geometry":{"type":"LineString","coordinates":[[22.35466,53.80001],[22.35344,53.79975]]}},{"type":"Feature","properties":{"numer":"204030N","klasa":"droga zbiorcza","kat":"powiatowa"},"geometry":{"type":"LineString","coordinates":[[22.35482,53.80005],[22.35466,53.80001]]}},{"type":"Feature","properties":{"numer":"204030N","klasa":"droga zbiorcza","kat":"powiatowa"},"geometry":{"type":"LineString","coordinates":[[22.35491,53.80007],[22.35482,53.80005]]}},{"type":"Feature","properties":{"numer":"204030N","klasa":"droga zbiorcza","kat":"powiatowa"},"geometry":{"type":"LineString","coordinates":[[22.35577,53.80041],[22.35491,53.80007]]}},{"type":"Feature","properties":{"numer":"204030N","klasa":"droga zbiorcza","kat":"powiatowa"},"geometry":{"type":"LineString","coordinates":[[22.35678,53.80109],[22.35577,53.80041]]}},{"type":"Feature","properties":{"numer":"204030N","klasa":"droga zbiorcza","kat":"powiatowa"},"geometry":{"type":"LineString","coordinates":[[22.35727,53.80141],[22.35678,53.80109]]}},{"type":"Feature","properties":{"numer":"204030N","klasa":"droga zbiorcza","kat":"powiatowa"},"geometry":{"type":"LineString","coordinates":[[22.35779,53.80178],[22.35727,53.80141]]}},{"type":"Feature","properties":{"numer":"204030N","klasa":"droga zbiorcza","kat":"powiatowa"},"geometry":{"type":"LineString","coordinates":[[22.35818,53.80204],[22.35779,53.80178]]}},{"type":"Feature","properties":{"numer":"204030N","klasa":"droga zbiorcza","kat":"powiatowa"},"geometry":{"type":"LineString","coordinates":[[22.35898,53.80259],[22.35818,53.80204]]}},{"type":"Feature","properties":{"numer":"204030N","klasa":"droga zbiorcza","kat":"powiatowa"},"geometry":{"type":"LineString","coordinates":[[22.3599,53.80311],[22.35898,53.80259]]}},{"type":"Feature","properties":{"numer":"204173N","klasa":"droga dojazdowa","kat":"powiatowa"},"geometry":{"type":"LineString","coordinates":[[22.33653923287671,53.81127317808219],[22.33647,53.81156],[22.33668,53.81273]]}},{"type":"Feature","properties":{"numer":"204150N","klasa":"droga zbiorcza","kat":"powiatowa"},"geometry":{"type":"LineString","coordinates":[[22.35966,53.81241],[22.35918,53.81281]]}},{"type":"Feature","properties":{"numer":"204173N","klasa":"droga dojazdowa","kat":"powiatowa"},"geometry":{"type":"LineString","coordinates":[[22.33668,53.81273],[22.33669,53.8128]]}},{"type":"Feature","properties":{"numer":"204173N","klasa":"droga dojazdowa","kat":"powiatowa"},"geometry":{"type":"LineString","coordinates":[[22.33669,53.8128],[22.3367,53.81289]]}},{"type":"Feature","properties":{"numer":"204174N","klasa":"droga dojazdowa","kat":"powiatowa"},"geometry":{"type":"LineString","coordinates":[[22.37856,53.80071],[22.379473126340688,53.8006535179583]]}},{"type":"Feature","properties":{"numer":"204174N","klasa":"droga dojazdowa","kat":"powiatowa"},"geometry":{"type":"LineString","coordinates":[[22.37713,53.80081],[22.37856,53.80071]]}},{"type":"Feature","properties":{"numer":"204174N","klasa":"droga dojazdowa","kat":"powiatowa"},"geometry":{"type":"LineString","coordinates":[[22.37689315789479,53.800830526315785],[22.37713,53.80081]]}},{"type":"Feature","properties":{"numer":"204174N","klasa":"droga dojazdowa","kat":"powiatowa"},"geometry":{"type":"LineString","coordinates":[[22.3741,53.80138],[22.37468,53.80113],[22.375445613382897,53.80097687732342]]}},{"type":"Feature","properties":{"numer":"204174N","klasa":"droga dojazdowa","kat":"powiatowa"},"geometry":{"type":"LineString","coordinates":[[22.3719,53.80223],[22.37314,53.80185],[22.3741,53.80138]]}},{"type":"Feature","properties":{"numer":"204174N","klasa":"droga dojazdowa","kat":"powiatowa"},"geometry":{"type":"LineString","coordinates":[[22.37189,53.80222],[22.37233,53.80199]]}},{"type":"Feature","properties":{"numer":"204030N","klasa":"droga zbiorcza","kat":"powiatowa"},"geometry":{"type":"LineString","coordinates":[[22.3644,53.80235],[22.36444,53.80234]]}},{"type":"Feature","properties":{"numer":"204030N","klasa":"droga zbiorcza","kat":"powiatowa"},"geometry":{"type":"LineString","coordinates":[[22.36368,53.80257],[22.3644,53.80235]]}},{"type":"Feature","properties":{"numer":"621","klasa":"droga gĹ‚Ăłwna ruchu przyĹ›pieszonego","kat":"wojewodzka"},"geometry":{"type":"LineString","coordinates":[[22.36017,53.7985],[22.36142,53.79939],[22.36217,53.80009],[22.36735,53.80525],[22.36836,53.80659]]}},{"type":"Feature","properties":{"numer":"204030N","klasa":"droga zbiorcza","kat":"powiatowa"},"geometry":{"type":"LineString","coordinates":[[22.36368,53.80257],[22.36266,53.80291]]}},{"type":"Feature","properties":{"numer":"204174N","klasa":"droga dojazdowa","kat":"powiatowa"},"geometry":{"type":"LineString","coordinates":[[22.36916,53.80357],[22.3719,53.80223]]}},{"type":"Feature","properties":{"numer":"204030N","klasa":"droga zbiorcza","kat":"powiatowa"},"geometry":{"type":"LineString","coordinates":[[22.36266,53.80291],[22.36251,53.80296]]}},{"type":"Feature","properties":{"numer":"204030N","klasa":"droga zbiorcza","kat":"powiatowa"},"geometry":{"type":"LineString","coordinates":[[22.35997,53.80314],[22.3599,53.80311]]}},{"type":"Feature","properties":{"numer":"204030N","klasa":"droga zbiorcza","kat":"powiatowa"},"geometry":{"type":"LineString","coordinates":[[22.36251,53.80296],[22.36177,53.80319],[22.3612,53.80329]]}},{"type":"Feature","properties":{"numer":"204030N","klasa":"droga zbiorcza","kat":"powiatowa"},"geometry":{"type":"LineString","coordinates":[[22.36025,53.80322],[22.35997,53.80314]]}},{"type":"Feature","properties":{"numer":"204030N","klasa":"droga zbiorcza","kat":"powiatowa"},"geometry":{"type":"LineString","coordinates":[[22.3612,53.80329],[22.36025,53.80322]]}},{"type":"Feature","properties":{"numer":"204174N","klasa":"droga dojazdowa","kat":"powiatowa"},"geometry":{"type":"LineString","coordinates":[[22.36842,53.80401],[22.36916,53.80357]]}},{"type":"Feature","properties":{"numer":"204174N","klasa":"droga dojazdowa","kat":"powiatowa"},"geometry":{"type":"LineString","coordinates":[[22.36747,53.80464],[22.36798,53.80438],[22.36842,53.80401]]}},{"type":"Feature","properties":{"numer":"204174N","klasa":"","kat":"powiatowa"},"geometry":{"type":"LineString","coordinates":[[22.36747,53.80464],[22.36701,53.80481]]}},{"type":"Feature","properties":{"numer":"204174N","klasa":"droga dojazdowa","kat":"powiatowa"},"geometry":{"type":"LineString","coordinates":[[22.36701,53.80481],[22.36695,53.80484]]}},{"type":"Feature","properties":{"numer":"204023N","klasa":"droga zbiorcza","kat":"powiatowa"},"geometry":{"type":"LineString","coordinates":[[22.37942,53.81104],[22.37995,53.81104]]}},{"type":"Feature","properties":{"numer":"204023N","klasa":"droga zbiorcza","kat":"powiatowa"},"geometry":{"type":"LineString","coordinates":[[22.37995,53.81104],[22.3813,53.81111],[22.38192,53.81099]]}},{"type":"Feature","properties":{"numer":"204023N","klasa":"droga zbiorcza","kat":"powiatowa"},"geometry":{"type":"LineString","coordinates":[[22.37867,53.81118],[22.37942,53.81104]]}},{"type":"Feature","properties":{"numer":"204023N","klasa":"droga zbiorcza","kat":"powiatowa"},"geometry":{"type":"LineString","coordinates":[[22.37855,53.8112],[22.37867,53.81118]]}},{"type":"Feature","properties":{"numer":"204150N","klasa":"droga zbiorcza","kat":"powiatowa"},"geometry":{"type":"LineString","coordinates":[[22.36254,53.81031],[22.35966,53.81241]]}},{"type":"Feature","properties":{"numer":"621","klasa":"droga gĹ‚Ăłwna ruchu przyĹ›pieszonego","kat":"wojewodzka"},"geometry":{"type":"LineString","coordinates":[[22.36836,53.80659],[22.37014,53.80733],[22.37375,53.80826],[22.37519,53.80892],[22.38584,53.81622],[22.387,53.81716],[22.38786,53.81809],[22.38855,53.8191],[22.38895,53.81993],[22.39208,53.82876],[22.39215,53.82992],[22.39198,53.83082],[22.39142,53.83204],[22.39033,53.83353]]}},{"type":"Feature","properties":{"numer":"204075N","klasa":"droga zbiorcza","kat":"powiatowa"},"geometry":{"type":"LineString","coordinates":[[22.35953,53.82166],[22.3601,53.82179]]}},{"type":"Feature","properties":{"numer":"204075N","klasa":"droga zbiorcza","kat":"powiatowa"},"geometry":{"type":"LineString","coordinates":[[22.3601,53.82179],[22.36082,53.82196]]}},{"type":"Feature","properties":{"numer":"204075N","klasa":"droga zbiorcza","kat":"powiatowa"},"geometry":{"type":"LineString","coordinates":[[22.36082,53.82196],[22.36275,53.82245],[22.36291,53.82256]]}},{"type":"Feature","properties":{"numer":"204102N","klasa":"","kat":"powiatowa"},"geometry":{"type":"LineString","coordinates":[[22.3688,53.80644],[22.36836,53.80659]]}},{"type":"Feature","properties":{"numer":"204102N","klasa":"droga lokalna","kat":"powiatowa"},"geometry":{"type":"LineString","coordinates":[[22.3688,53.80644],[22.36997,53.80654],[22.37033,53.80665]]}},{"type":"Feature","properties":{"numer":"204102N","klasa":"droga lokalna","kat":"powiatowa"},"geometry":{"type":"LineString","coordinates":[[22.37033,53.80665],[22.3708,53.80704],[22.37099,53.80733],[22.37098,53.80755]]}},{"type":"Feature","properties":{"numer":"204150N","klasa":"droga zbiorcza","kat":"powiatowa"},"geometry":{"type":"LineString","coordinates":[[22.36548,53.8082],[22.36836,53.80659]]}},{"type":"Feature","properties":{"numer":"204150N","klasa":"droga zbiorcza","kat":"powiatowa"},"geometry":{"type":"LineString","coordinates":[[22.36278,53.81012],[22.36548,53.8082],[22.36836,53.80659]]}},{"type":"Feature","properties":{"numer":"204150N","klasa":"droga zbiorcza","kat":"powiatowa"},"geometry":{"type":"LineString","coordinates":[[22.36278,53.81012],[22.36548,53.8082]]}},{"type":"Feature","properties":{"numer":"204150N","klasa":"droga zbiorcza","kat":"powiatowa"},"geometry":{"type":"LineString","coordinates":[[22.36265,53.81022],[22.36278,53.81012]]}},{"type":"Feature","properties":{"numer":"204150N","klasa":"droga zbiorcza","kat":"powiatowa"},"geometry":{"type":"LineString","coordinates":[[22.36254,53.81031],[22.36265,53.81022]]}},{"type":"Feature","properties":{"numer":"204023N","klasa":"droga zbiorcza","kat":"powiatowa"},"geometry":{"type":"LineString","coordinates":[[22.37836,53.81013],[22.37924,53.81078],[22.37942,53.81104]]}},{"type":"Feature","properties":{"numer":"204023N","klasa":"droga zbiorcza","kat":"powiatowa"},"geometry":{"type":"LineString","coordinates":[[22.38289,53.81074],[22.38192,53.81099]]}},{"type":"Feature","properties":{"numer":"204173N","klasa":"droga dojazdowa","kat":"powiatowa"},"geometry":{"type":"LineString","coordinates":[[22.3367,53.81289],[22.33677,53.81346]]}},{"type":"Feature","properties":{"numer":"204173N","klasa":"droga dojazdowa","kat":"powiatowa"},"geometry":{"type":"LineString","coordinates":[[22.33677,53.81346],[22.33684,53.814]]}},{"type":"Feature","properties":{"numer":"204150N","klasa":"droga zbiorcza","kat":"powiatowa"},"geometry":{"type":"LineString","coordinates":[[22.35918,53.81281],[22.35834,53.81395],[22.358,53.81536]]}},{"type":"Feature","properties":{"numer":"204173N","klasa":"droga dojazdowa","kat":"powiatowa"},"geometry":{"type":"LineString","coordinates":[[22.33684,53.814],[22.3369,53.81454]]}},{"type":"Feature","properties":{"numer":"204173N","klasa":"droga dojazdowa","kat":"powiatowa"},"geometry":{"type":"LineString","coordinates":[[22.3369,53.81454],[22.33696,53.81506]]}},{"type":"Feature","properties":{"numer":"204173N","klasa":"droga dojazdowa","kat":"powiatowa"},"geometry":{"type":"LineString","coordinates":[[22.33696,53.81506],[22.33701,53.81557]]}},{"type":"Feature","properties":{"numer":"204081N","klasa":"droga dojazdowa","kat":"powiatowa"},"geometry":{"type":"LineString","coordinates":[[22.33469,53.81611],[22.33701,53.81557]]}},{"type":"Feature","properties":{"numer":"204150N","klasa":"droga zbiorcza","kat":"powiatowa"},"geometry":{"type":"LineString","coordinates":[[22.358,53.81536],[22.35789,53.81678]]}},{"type":"Feature","properties":{"numer":"204078N","klasa":"droga lokalna","kat":"powiatowa"},"geometry":{"type":"LineString","coordinates":[[22.33469,53.81611],[22.33489,53.81651]]}},{"type":"Feature","properties":{"numer":"204091N","klasa":"droga lokalna","kat":"powiatowa"},"geometry":{"type":"LineString","coordinates":[[22.33696,53.81619],[22.33489,53.81651]]}},{"type":"Feature","properties":{"numer":"204173N","klasa":"droga dojazdowa","kat":"powiatowa"},"geometry":{"type":"LineString","coordinates":[[22.33696,53.81619],[22.33712,53.81645],[22.33722,53.81742]]}},{"type":"Feature","properties":{"numer":"204150N","klasa":"droga zbiorcza","kat":"powiatowa"},"geometry":{"type":"LineString","coordinates":[[22.35789,53.81678],[22.35668,53.81733]]}},{"type":"Feature","properties":{"numer":"204150N","klasa":"droga zbiorcza","kat":"powiatowa"},"geometry":{"type":"LineString","coordinates":[[22.35668,53.81733],[22.35606,53.81756]]}},{"type":"Feature","properties":{"numer":"204150N","klasa":"droga zbiorcza","kat":"powiatowa"},"geometry":{"type":"LineString","coordinates":[[22.35606,53.81756],[22.35549,53.81777]]}},{"type":"Feature","properties":{"numer":"204173N","klasa":"droga lokalna","kat":"powiatowa"},"geometry":{"type":"LineString","coordinates":[[22.33722,53.81742],[22.33724,53.81809]]}},{"type":"Feature","properties":{"numer":"204150N","klasa":"droga zbiorcza","kat":"powiatowa"},"geometry":{"type":"LineString","coordinates":[[22.35549,53.81777],[22.355,53.81795]]}},{"type":"Feature","properties":{"numer":"204150N","klasa":"droga zbiorcza","kat":"powiatowa"},"geometry":{"type":"LineString","coordinates":[[22.355,53.81795],[22.35441,53.81815]]}},{"type":"Feature","properties":{"numer":"204173N","klasa":"","kat":"powiatowa"},"geometry":{"type":"LineString","coordinates":[[22.33724,53.81809],[22.33728,53.81823]]}},{"type":"Feature","properties":{"numer":"204150N","klasa":"droga zbiorcza","kat":"powiatowa"},"geometry":{"type":"LineString","coordinates":[[22.35441,53.81815],[22.35407,53.81826]]}},{"type":"Feature","properties":{"numer":"204173N","klasa":"droga lokalna","kat":"powiatowa"},"geometry":{"type":"LineString","coordinates":[[22.33728,53.81823],[22.33732,53.81832]]}},{"type":"Feature","properties":{"numer":"204173N","klasa":"","kat":"powiatowa"},"geometry":{"type":"LineString","coordinates":[[22.33748,53.81831],[22.33774,53.81829]]}},{"type":"Feature","properties":{"numer":"204173N","klasa":"droga lokalna","kat":"powiatowa"},"geometry":{"type":"LineString","coordinates":[[22.33732,53.81832],[22.33748,53.81831]]}},{"type":"Feature","properties":{"numer":"204152N","klasa":"droga zbiorcza","kat":"powiatowa"},"geometry":{"type":"LineString","coordinates":[[22.35372,53.81837],[22.35407,53.81826]]}},{"type":"Feature","properties":{"numer":"204152N","klasa":"droga zbiorcza","kat":"powiatowa"},"geometry":{"type":"LineString","coordinates":[[22.35372,53.81837],[22.35348,53.81843]]}},{"type":"Feature","properties":{"numer":"204152N","klasa":"droga zbiorcza","kat":"powiatowa"},"geometry":{"type":"LineString","coordinates":[[22.35095,53.81906],[22.35348,53.81843]]}},{"type":"Feature","properties":{"numer":"204173N","klasa":"droga dojazdowa","kat":"powiatowa"},"geometry":{"type":"LineString","coordinates":[[22.33774,53.81829],[22.34236,53.81903],[22.343,53.81928],[22.34358,53.81966]]}},{"type":"Feature","properties":{"numer":"204152N","klasa":"droga zbiorcza","kat":"powiatowa"},"geometry":{"type":"LineString","coordinates":[[22.3504,53.8192],[22.35095,53.81906]]}},{"type":"Feature","properties":{"numer":"204075N","klasa":"droga zbiorcza","kat":"powiatowa"},"geometry":{"type":"LineString","coordinates":[[22.3504,53.8192],[22.35042,53.81923]]}},{"type":"Feature","properties":{"numer":"204152N","klasa":"droga zbiorcza","kat":"powiatowa"},"geometry":{"type":"LineString","coordinates":[[22.34945,53.81945],[22.3504,53.8192]]}},{"type":"Feature","properties":{"numer":"204075N","klasa":"droga zbiorcza","kat":"powiatowa"},"geometry":{"type":"LineString","coordinates":[[22.35042,53.81923],[22.35061,53.81943],[22.35141,53.81985],[22.35211,53.82005]]}},{"type":"Feature","properties":{"numer":"204173N","klasa":"droga dojazdowa","kat":"powiatowa"},"geometry":{"type":"LineString","coordinates":[[22.34358,53.81966],[22.34436,53.82014]]}},{"type":"Feature","properties":{"numer":"204152N","klasa":"droga zbiorcza","kat":"powiatowa"},"geometry":{"type":"LineString","coordinates":[[22.3473,53.82048],[22.34811,53.82],[22.34945,53.81945]]}},{"type":"Feature","properties":{"numer":"204075N","klasa":"droga zbiorcza","kat":"powiatowa"},"geometry":{"type":"LineString","coordinates":[[22.35211,53.82005],[22.35366,53.82038]]}},{"type":"Feature","properties":{"numer":"204173N","klasa":"droga dojazdowa","kat":"powiatowa"},"geometry":{"type":"LineString","coordinates":[[22.34436,53.82014],[22.34475,53.82037]]}},{"type":"Feature","properties":{"numer":"204075N","klasa":"droga zbiorcza","kat":"powiatowa"},"geometry":{"type":"LineString","coordinates":[[22.35366,53.82038],[22.3538,53.82041]]}},{"type":"Feature","properties":{"numer":"204075N","klasa":"droga zbiorcza","kat":"powiatowa"},"geometry":{"type":"LineString","coordinates":[[22.3538,53.82041],[22.35398,53.82045]]}},{"type":"Feature","properties":{"numer":"204075N","klasa":"droga zbiorcza","kat":"powiatowa"},"geometry":{"type":"LineString","coordinates":[[22.35398,53.82045],[22.35599,53.82087]]}},{"type":"Feature","properties":{"numer":"204173N","klasa":"droga dojazdowa","kat":"powiatowa"},"geometry":{"type":"LineString","coordinates":[[22.34475,53.82037],[22.34536,53.82098]]}},{"type":"Feature","properties":{"numer":"204075N","klasa":"droga zbiorcza","kat":"powiatowa"},"geometry":{"type":"LineString","coordinates":[[22.35599,53.82087],[22.35619,53.82091]]}},{"type":"Feature","properties":{"numer":"204152N","klasa":"droga zbiorcza","kat":"powiatowa"},"geometry":{"type":"LineString","coordinates":[[22.34653,53.82137],[22.34679,53.82093],[22.3473,53.82048]]}},{"type":"Feature","properties":{"numer":"204075N","klasa":"droga zbiorcza","kat":"powiatowa"},"geometry":{"type":"LineString","coordinates":[[22.35619,53.82091],[22.35739,53.82118]]}},{"type":"Feature","properties":{"numer":"204148N","klasa":"droga zbiorcza","kat":"powiatowa"},"geometry":{"type":"LineString","coordinates":[[22.34663,53.82138],[22.34653,53.82137]]}},{"type":"Feature","properties":{"numer":"204075N","klasa":"droga zbiorcza","kat":"powiatowa"},"geometry":{"type":"LineString","coordinates":[[22.35739,53.82118],[22.35921,53.82159]]}},{"type":"Feature","properties":{"numer":"204152N","klasa":"droga zbiorcza","kat":"powiatowa"},"geometry":{"type":"LineString","coordinates":[[22.34636,53.82169],[22.34653,53.82137]]}},{"type":"Feature","properties":{"numer":"204075N","klasa":"droga zbiorcza","kat":"powiatowa"},"geometry":{"type":"LineString","coordinates":[[22.35921,53.82159],[22.35953,53.82166]]}},{"type":"Feature","properties":{"numer":"204148N","klasa":"droga zbiorcza","kat":"powiatowa"},"geometry":{"type":"LineString","coordinates":[[22.3499,53.82218],[22.34813,53.8217],[22.34663,53.82138]]}},{"type":"Feature","properties":{"numer":"204148N","klasa":"droga zbiorcza","kat":"powiatowa"},"geometry":{"type":"LineString","coordinates":[[22.35092,53.82242],[22.3499,53.82218]]}},{"type":"Feature","properties":{"numer":"204148N","klasa":"droga zbiorcza","kat":"powiatowa"},"geometry":{"type":"LineString","coordinates":[[22.35145,53.82255],[22.35092,53.82242]]}},{"type":"Feature","properties":{"numer":"204113N","klasa":"droga zbiorcza","kat":"powiatowa"},"geometry":{"type":"LineString","coordinates":[[22.34536,53.82098],[22.34514,53.82109],[22.34498,53.82185],[22.34393,53.82332],[22.34363,53.82406]]}},{"type":"Feature","properties":{"numer":"204148N","klasa":"droga zbiorcza","kat":"powiatowa"},"geometry":{"type":"LineString","coordinates":[[22.35166,53.82259],[22.35145,53.82255]]}},{"type":"Feature","properties":{"numer":"204152N","klasa":"droga zbiorcza","kat":"powiatowa"},"geometry":{"type":"LineString","coordinates":[[22.3453,53.82358],[22.34636,53.82169]]}},{"type":"Feature","properties":{"numer":"204148N","klasa":"droga zbiorcza","kat":"powiatowa"},"geometry":{"type":"LineString","coordinates":[[22.35236,53.82275],[22.35166,53.82259]]}},{"type":"Feature","properties":{"numer":"204148N","klasa":"droga zbiorcza","kat":"powiatowa"},"geometry":{"type":"LineString","coordinates":[[22.35497,53.82333],[22.35236,53.82275]]}},{"type":"Feature","properties":{"numer":"204148N","klasa":"droga zbiorcza","kat":"powiatowa"},"geometry":{"type":"LineString","coordinates":[[22.35725,53.82385],[22.35497,53.82333]]}},{"type":"Feature","properties":{"numer":"204152N","klasa":"droga zbiorcza","kat":"powiatowa"},"geometry":{"type":"LineString","coordinates":[[22.3453,53.82358],[22.34528,53.82361]]}},{"type":"Feature","properties":{"numer":"204097N","klasa":"droga zbiorcza","kat":"powiatowa"},"geometry":{"type":"LineString","coordinates":[[22.34528,53.82361],[22.34658,53.82393]]}},{"type":"Feature","properties":{"numer":"204097N","klasa":"droga zbiorcza","kat":"powiatowa"},"geometry":{"type":"LineString","coordinates":[[22.34658,53.82393],[22.34677,53.82398]]}},{"type":"Feature","properties":{"numer":"204097N","klasa":"droga zbiorcza","kat":"powiatowa"},"geometry":{"type":"LineString","coordinates":[[22.34677,53.82398],[22.34708,53.82405]]}},{"type":"Feature","properties":{"numer":"204148N","klasa":"droga zbiorcza","kat":"powiatowa"},"geometry":{"type":"LineString","coordinates":[[22.35876,53.82419],[22.35725,53.82385]]}},{"type":"Feature","properties":{"numer":"204097N","klasa":"droga zbiorcza","kat":"powiatowa"},"geometry":{"type":"LineString","coordinates":[[22.34708,53.82405],[22.34772,53.82421]]}},{"type":"Feature","properties":{"numer":"204097N","klasa":"droga zbiorcza","kat":"powiatowa"},"geometry":{"type":"LineString","coordinates":[[22.34772,53.82421],[22.3481,53.82429]]}},{"type":"Feature","properties":{"numer":"204097N","klasa":"droga zbiorcza","kat":"powiatowa"},"geometry":{"type":"LineString","coordinates":[[22.3481,53.82429],[22.34877,53.82445]]}},{"type":"Feature","properties":{"numer":"204113N","klasa":"droga zbiorcza","kat":"powiatowa"},"geometry":{"type":"LineString","coordinates":[[22.34363,53.82406],[22.34348,53.8247]]}},{"type":"Feature","properties":{"numer":"204097N","klasa":"droga zbiorcza","kat":"powiatowa"},"geometry":{"type":"LineString","coordinates":[[22.34877,53.82445],[22.34917,53.82454]]}},{"type":"Feature","properties":{"numer":"204152N","klasa":"droga zbiorcza","kat":"powiatowa"},"geometry":{"type":"LineString","coordinates":[[22.34528,53.82361],[22.3449,53.82548]]}},{"type":"Feature","properties":{"numer":"204097N","klasa":"droga zbiorcza","kat":"powiatowa"},"geometry":{"type":"LineString","coordinates":[[22.34917,53.82454],[22.34924,53.82456]]}},{"type":"Feature","properties":{"numer":"204097N","klasa":"droga zbiorcza","kat":"powiatowa"},"geometry":{"type":"LineString","coordinates":[[22.34924,53.82456],[22.34932,53.82458]]}},{"type":"Feature","properties":{"numer":"204001N","klasa":"droga zbiorcza","kat":"powiatowa"},"geometry":{"type":"LineString","coordinates":[[22.34902,53.82499],[22.34924,53.82456]]}},{"type":"Feature","properties":{"numer":"204097N","klasa":"droga zbiorcza","kat":"powiatowa"},"geometry":{"type":"LineString","coordinates":[[22.34932,53.82458],[22.35297,53.82542]]}},{"type":"Feature","properties":{"numer":"204113N","klasa":"droga zbiorcza","kat":"powiatowa"},"geometry":{"type":"LineString","coordinates":[[22.34348,53.8247],[22.34369,53.82527],[22.34393,53.82536],[22.3449,53.82548]]}},{"type":"Feature","properties":{"numer":"204075N","klasa":"droga zbiorcza","kat":"powiatowa"},"geometry":{"type":"LineString","coordinates":[[22.36291,53.82256],[22.36205,53.82372]]}},{"type":"Feature","properties":{"numer":"204149N","klasa":"droga zbiorcza","kat":"powiatowa"},"geometry":{"type":"LineString","coordinates":[[22.36205,53.82372],[22.36164,53.82417]]}},{"type":"Feature","properties":{"numer":"204149N","klasa":"droga zbiorcza","kat":"powiatowa"},"geometry":{"type":"LineString","coordinates":[[22.36164,53.82417],[22.36135,53.82444]]}},{"type":"Feature","properties":{"numer":"204148N","klasa":"droga zbiorcza","kat":"powiatowa"},"geometry":{"type":"LineString","coordinates":[[22.36029,53.82454],[22.35876,53.82419]]}},{"type":"Feature","properties":{"numer":"204149N","klasa":"droga zbiorcza","kat":"powiatowa"},"geometry":{"type":"LineString","coordinates":[[22.36135,53.82444],[22.36108,53.82474]]}},{"type":"Feature","properties":{"numer":"204148N","klasa":"droga zbiorcza","kat":"powiatowa"},"geometry":{"type":"LineString","coordinates":[[22.36108,53.82474],[22.36029,53.82454]]}},{"type":"Feature","properties":{"numer":"204148N","klasa":"droga zbiorcza","kat":"powiatowa"},"geometry":{"type":"LineString","coordinates":[[22.36114,53.82475],[22.36108,53.82474]]}},{"type":"Feature","properties":{"numer":"204149N","klasa":"droga zbiorcza","kat":"powiatowa"},"geometry":{"type":"LineString","coordinates":[[22.36073,53.82538],[22.36108,53.82474]]}},{"type":"Feature","properties":{"numer":"204149N","klasa":"droga zbiorcza","kat":"powiatowa"},"geometry":{"type":"LineString","coordinates":[[22.36039,53.82576],[22.36073,53.82538]]}},{"type":"Feature","properties":{"numer":"204149N","klasa":"droga zbiorcza","kat":"powiatowa"},"geometry":{"type":"LineString","coordinates":[[22.35965,53.82685],[22.36039,53.82576]]}},{"type":"Feature","properties":{"numer":"204001N","klasa":"droga zbiorcza","kat":"powiatowa"},"geometry":{"type":"LineString","coordinates":[[22.34888,53.82524],[22.34902,53.82499]]}},{"type":"Feature","properties":{"numer":"204097N","klasa":"droga zbiorcza","kat":"powiatowa"},"geometry":{"type":"LineString","coordinates":[[22.35297,53.82542],[22.35315,53.82546]]}},{"type":"Feature","properties":{"numer":"204097N","klasa":"droga zbiorcza","kat":"powiatowa"},"geometry":{"type":"LineString","coordinates":[[22.35315,53.82546],[22.35323,53.82548]]}},{"type":"Feature","properties":{"numer":"204097N","klasa":"droga zbiorcza","kat":"powiatowa"},"geometry":{"type":"LineString","coordinates":[[22.35323,53.82548],[22.35331,53.82549]]}},{"type":"Feature","properties":{"numer":"204001N","klasa":"droga zbiorcza","kat":"powiatowa"},"geometry":{"type":"LineString","coordinates":[[22.34852,53.82587],[22.34888,53.82524]]}},{"type":"Feature","properties":{"numer":"204152N","klasa":"droga zbiorcza","kat":"powiatowa"},"geometry":{"type":"LineString","coordinates":[[22.3449,53.82548],[22.34477,53.82572]]}},{"type":"Feature","properties":{"numer":"204097N","klasa":"droga zbiorcza","kat":"powiatowa"},"geometry":{"type":"LineString","coordinates":[[22.35331,53.82549],[22.3565,53.82618]]}},{"type":"Feature","properties":{"numer":"204001N","klasa":"droga zbiorcza","kat":"powiatowa"},"geometry":{"type":"LineString","coordinates":[[22.34837,53.82615],[22.34852,53.82587]]}},{"type":"Feature","properties":{"numer":"204097N","klasa":"droga zbiorcza","kat":"powiatowa"},"geometry":{"type":"LineString","coordinates":[[22.3565,53.82618],[22.35682,53.82625]]}},{"type":"Feature","properties":{"numer":"204001N","klasa":"droga zbiorcza","kat":"powiatowa"},"geometry":{"type":"LineString","coordinates":[[22.34815,53.82651],[22.34837,53.82615]]}},{"type":"Feature","properties":{"numer":"204097N","klasa":"droga zbiorcza","kat":"powiatowa"},"geometry":{"type":"LineString","coordinates":[[22.35682,53.82625],[22.35762,53.82642]]}},{"type":"Feature","properties":{"numer":"204097N","klasa":"droga zbiorcza","kat":"powiatowa"},"geometry":{"type":"LineString","coordinates":[[22.35762,53.82642],[22.35813,53.82654]]}},{"type":"Feature","properties":{"numer":"204152N","klasa":"droga zbiorcza","kat":"powiatowa"},"geometry":{"type":"LineString","coordinates":[[22.34477,53.82572],[22.34413,53.82665],[22.34303,53.82749]]}},{"type":"Feature","properties":{"numer":"204097N","klasa":"droga zbiorcza","kat":"powiatowa"},"geometry":{"type":"LineString","coordinates":[[22.35813,53.82654],[22.35964,53.82687]]}},{"type":"Feature","properties":{"numer":"204001N","klasa":"droga zbiorcza","kat":"powiatowa"},"geometry":{"type":"LineString","coordinates":[[22.34786,53.82698],[22.34815,53.82651]]}},{"type":"Feature","properties":{"numer":"204001N","klasa":"droga zbiorcza","kat":"powiatowa"},"geometry":{"type":"LineString","coordinates":[[22.3477,53.82723],[22.34786,53.82698]]}},{"type":"Feature","properties":{"numer":"204152N","klasa":"droga zbiorcza","kat":"powiatowa"},"geometry":{"type":"LineString","coordinates":[[22.34303,53.82749],[22.34291,53.82756]]}},{"type":"Feature","properties":{"numer":"204152N","klasa":"droga zbiorcza","kat":"powiatowa"},"geometry":{"type":"LineString","coordinates":[[22.34291,53.82756],[22.34283,53.8276]]}},{"type":"Feature","properties":{"numer":"204001N","klasa":"droga zbiorcza","kat":"powiatowa"},"geometry":{"type":"LineString","coordinates":[[22.34706,53.82826],[22.3477,53.82723]]}},{"type":"Feature","properties":{"numer":"204149N","klasa":"droga zbiorcza","kat":"powiatowa"},"geometry":{"type":"LineString","coordinates":[[22.35989,53.82864],[22.35908,53.82842],[22.35879,53.82812],[22.35891,53.82775],[22.35961,53.8269]]}},{"type":"Feature","properties":{"numer":"204149N","klasa":"droga zbiorcza","kat":"powiatowa"},"geometry":{"type":"LineString","coordinates":[[22.35964,53.82687],[22.35965,53.82685]]}},{"type":"Feature","properties":{"numer":"204149N","klasa":"droga zbiorcza","kat":"powiatowa"},"geometry":{"type":"LineString","coordinates":[[22.35961,53.8269],[22.35964,53.82687]]}},{"type":"Feature","properties":{"numer":"204151N","klasa":"droga zbiorcza","kat":"powiatowa"},"geometry":{"type":"LineString","coordinates":[[22.36299,53.82772],[22.36268,53.82772]]}},{"type":"Feature","properties":{"numer":"204151N","klasa":"droga zbiorcza","kat":"powiatowa"},"geometry":{"type":"LineString","coordinates":[[22.36328,53.82775],[22.36299,53.82772]]}},{"type":"Feature","properties":{"numer":"204151N","klasa":"droga zbiorcza","kat":"powiatowa"},"geometry":{"type":"LineString","coordinates":[[22.36396,53.82786],[22.36328,53.82775]]}},{"type":"Feature","properties":{"numer":"204151N","klasa":"droga zbiorcza","kat":"powiatowa"},"geometry":{"type":"LineString","coordinates":[[22.36268,53.82772],[22.36168,53.82793]]}},{"type":"Feature","properties":{"numer":"204151N","klasa":"droga zbiorcza","kat":"powiatowa"},"geometry":{"type":"LineString","coordinates":[[22.36476,53.82803],[22.36396,53.82786]]}},{"type":"Feature","properties":{"numer":"204151N","klasa":"droga zbiorcza","kat":"powiatowa"},"geometry":{"type":"LineString","coordinates":[[22.36597,53.8283],[22.36476,53.82803]]}},{"type":"Feature","properties":{"numer":"204151N","klasa":"droga zbiorcza","kat":"powiatowa"},"geometry":{"type":"LineString","coordinates":[[22.36168,53.82793],[22.36054,53.82853],[22.35989,53.82864]]}},{"type":"Feature","properties":{"numer":"204151N","klasa":"droga zbiorcza","kat":"powiatowa"},"geometry":{"type":"LineString","coordinates":[[22.36716,53.82856],[22.36597,53.8283]]}},{"type":"Feature","properties":{"numer":"204152N","klasa":"droga zbiorcza","kat":"powiatowa"},"geometry":{"type":"LineString","coordinates":[[22.34283,53.8276],[22.34152,53.8283]]}},{"type":"Feature","properties":{"numer":"204061N","klasa":"droga dojazdowa","kat":"powiatowa"},"geometry":{"type":"LineString","coordinates":[[22.34152,53.8283],[22.34106,53.82791]]}},{"type":"Feature","properties":{"numer":"204001N","klasa":"droga zbiorcza","kat":"powiatowa"},"geometry":{"type":"LineString","coordinates":[[22.34702,53.82833],[22.34706,53.82826]]}},{"type":"Feature","properties":{"numer":"204152N","klasa":"droga zbiorcza","kat":"powiatowa"},"geometry":{"type":"LineString","coordinates":[[22.34152,53.8283],[22.34129,53.82846]]}},{"type":"Feature","properties":{"numer":"204152N","klasa":"droga zbiorcza","kat":"powiatowa"},"geometry":{"type":"LineString","coordinates":[[22.34076,53.82907],[22.34129,53.82846]]}},{"type":"Feature","properties":{"numer":"204062N","klasa":"droga dojazdowa","kat":"powiatowa"},"geometry":{"type":"LineString","coordinates":[[22.34106,53.82791],[22.34027,53.8281],[22.33992,53.82844],[22.33783,53.82944],[22.3379,53.82966]]}},{"type":"Feature","properties":{"numer":"204152N","klasa":"droga zbiorcza","kat":"powiatowa"},"geometry":{"type":"LineString","coordinates":[[22.3405,53.82931],[22.34076,53.82907]]}},{"type":"Feature","properties":{"numer":"204118N","klasa":"droga zbiorcza","kat":"powiatowa"},"geometry":{"type":"LineString","coordinates":[[22.34076,53.82907],[22.34166,53.82941]]}},{"type":"Feature","properties":{"numer":"204001N","klasa":"droga zbiorcza","kat":"powiatowa"},"geometry":{"type":"LineString","coordinates":[[22.34536,53.83041],[22.34702,53.82833]]}},{"type":"Feature","properties":{"numer":"204168N","klasa":"droga zbiorcza","kat":"powiatowa"},"geometry":{"type":"LineString","coordinates":[[22.36397,53.82902],[22.36445,53.82857],[22.36476,53.82803]]}},{"type":"Feature","properties":{"numer":"204151N","klasa":"droga zbiorcza","kat":"powiatowa"},"geometry":{"type":"LineString","coordinates":[[22.36871,53.82891],[22.36716,53.82856]]}},{"type":"Feature","properties":{"numer":"204151N","klasa":"droga zbiorcza","kat":"powiatowa"},"geometry":{"type":"LineString","coordinates":[[22.36899,53.82897],[22.36871,53.82891]]}},{"type":"Feature","properties":{"numer":"204151N","klasa":"droga zbiorcza","kat":"powiatowa"},"geometry":{"type":"LineString","coordinates":[[22.37009,53.82922],[22.36899,53.82897]]}},{"type":"Feature","properties":{"numer":"204151N","klasa":"droga zbiorcza","kat":"powiatowa"},"geometry":{"type":"LineString","coordinates":[[22.37106,53.82943],[22.37009,53.82922]]}},{"type":"Feature","properties":{"numer":"204168N","klasa":"droga zbiorcza","kat":"powiatowa"},"geometry":{"type":"LineString","coordinates":[[22.36397,53.82902],[22.3635,53.82999]]}},{"type":"Feature","properties":{"numer":"204151N","klasa":"droga zbiorcza","kat":"powiatowa"},"geometry":{"type":"LineString","coordinates":[[22.37188,53.82961],[22.37106,53.82943]]}},{"type":"Feature","properties":{"numer":"204151N","klasa":"droga zbiorcza","kat":"powiatowa"},"geometry":{"type":"LineString","coordinates":[[22.3736,53.82999],[22.37188,53.82961]]}},{"type":"Feature","properties":{"numer":"204151N","klasa":"droga zbiorcza","kat":"powiatowa"},"geometry":{"type":"LineString","coordinates":[[22.37483,53.83026],[22.3736,53.82999]]}},{"type":"Feature","properties":{"numer":"204151N","klasa":"droga zbiorcza","kat":"powiatowa"},"geometry":{"type":"LineString","coordinates":[[22.3755,53.83042],[22.37483,53.83026]]}},{"type":"Feature","properties":{"numer":"204167N","klasa":"droga zbiorcza","kat":"powiatowa"},"geometry":{"type":"LineString","coordinates":[[22.3405,53.82931],[22.34066,53.82987]]}},{"type":"Feature","properties":{"numer":"204166N","klasa":"droga zbiorcza","kat":"powiatowa"},"geometry":{"type":"LineString","coordinates":[[22.33928,53.82989],[22.3405,53.82931]]}},{"type":"Feature","properties":{"numer":"204118N","klasa":"droga zbiorcza","kat":"powiatowa"},"geometry":{"type":"LineString","coordinates":[[22.34166,53.82941],[22.343,53.82986]]}},{"type":"Feature","properties":{"numer":"","klasa":"droga dojazdowa","kat":"gminna"},"geometry":{"type":"LineString","coordinates":[[22.33895,53.83005],[22.33863,53.82984],[22.3379,53.82966]]}},{"type":"Feature","properties":{"numer":"204166N","klasa":"droga zbiorcza","kat":"powiatowa"},"geometry":{"type":"LineString","coordinates":[[22.33928,53.82989],[22.33895,53.83005]]}},{"type":"Feature","properties":{"numer":"204118N","klasa":"droga zbiorcza","kat":"powiatowa"},"geometry":{"type":"LineString","coordinates":[[22.343,53.82986],[22.34371,53.83008]]}},{"type":"Feature","properties":{"numer":"204118N","klasa":"droga zbiorcza","kat":"powiatowa"},"geometry":{"type":"LineString","coordinates":[[22.34371,53.83008],[22.34495,53.83035]]}},{"type":"Feature","properties":{"numer":"204166N","klasa":"droga zbiorcza","kat":"powiatowa"},"geometry":{"type":"LineString","coordinates":[[22.33895,53.83005],[22.33817,53.83044]]}},{"type":"Feature","properties":{"numer":"204118N","klasa":"droga zbiorcza","kat":"powiatowa"},"geometry":{"type":"LineString","coordinates":[[22.34495,53.83035],[22.34536,53.83041]]}},{"type":"Feature","properties":{"numer":"204166N","klasa":"droga zbiorcza","kat":"powiatowa"},"geometry":{"type":"LineString","coordinates":[[22.33817,53.83044],[22.33785,53.83059]]}},{"type":"Feature","properties":{"numer":"204118N","klasa":"droga zbiorcza","kat":"powiatowa"},"geometry":{"type":"LineString","coordinates":[[22.34536,53.83041],[22.34748,53.83076]]}},{"type":"Feature","properties":{"numer":"204167N","klasa":"droga zbiorcza","kat":"powiatowa"},"geometry":{"type":"LineString","coordinates":[[22.34066,53.82987],[22.34088,53.83134]]}},{"type":"Feature","properties":{"numer":"204118N","klasa":"droga zbiorcza","kat":"powiatowa"},"geometry":{"type":"LineString","coordinates":[[22.34748,53.83076],[22.34886,53.83102]]}},{"type":"Feature","properties":{"numer":"16","klasa":"droga gĹ‚Ăłwna ruchu przyĹ›pieszonego","kat":"krajowa"},"geometry":{"type":"LineString","coordinates":[[22.32188,53.83106],[22.3213776434516,53.83079985107315]]}},{"type":"Feature","properties":{"numer":"204118N","klasa":"droga zbiorcza","kat":"powiatowa"},"geometry":{"type":"LineString","coordinates":[[22.34886,53.83102],[22.35025,53.83134]]}},{"type":"Feature","properties":{"numer":"204166N","klasa":"droga zbiorcza","kat":"powiatowa"},"geometry":{"type":"LineString","coordinates":[[22.33785,53.83059],[22.33517,53.83168],[22.33433,53.83191]]}},{"type":"Feature","properties":{"numer":"204167N","klasa":"droga zbiorcza","kat":"powiatowa"},"geometry":{"type":"LineString","coordinates":[[22.34088,53.83134],[22.34089,53.83139]]}},{"type":"Feature","properties":{"numer":"204118N","klasa":"droga zbiorcza","kat":"powiatowa"},"geometry":{"type":"LineString","coordinates":[[22.35025,53.83134],[22.35056,53.83141]]}},{"type":"Feature","properties":{"numer":"204118N","klasa":"droga zbiorcza","kat":"powiatowa"},"geometry":{"type":"LineString","coordinates":[[22.35056,53.83141],[22.35164,53.83166]]}},{"type":"Feature","properties":{"numer":"204118N","klasa":"droga zbiorcza","kat":"powiatowa"},"geometry":{"type":"LineString","coordinates":[[22.35164,53.83166],[22.35311,53.83199]]}},{"type":"Feature","properties":{"numer":"204151N","klasa":"droga zbiorcza","kat":"powiatowa"},"geometry":{"type":"LineString","coordinates":[[22.37664,53.83067],[22.3755,53.83042]]}},{"type":"Feature","properties":{"numer":"204151N","klasa":"droga zbiorcza","kat":"powiatowa"},"geometry":{"type":"LineString","coordinates":[[22.37684,53.83071],[22.37664,53.83067]]}},{"type":"Feature","properties":{"numer":"204168N","klasa":"droga zbiorcza","kat":"powiatowa"},"geometry":{"type":"LineString","coordinates":[[22.3635,53.82999],[22.36285,53.83142]]}},{"type":"Feature","properties":{"numer":"204151N","klasa":"droga zbiorcza","kat":"powiatowa"},"geometry":{"type":"LineString","coordinates":[[22.37874,53.83113],[22.37684,53.83071]]}},{"type":"Feature","properties":{"numer":"204151N","klasa":"droga zbiorcza","kat":"powiatowa"},"geometry":{"type":"LineString","coordinates":[[22.37916,53.83123],[22.37874,53.83113]]}},{"type":"Feature","properties":{"numer":"204151N","klasa":"droga zbiorcza","kat":"powiatowa"},"geometry":{"type":"LineString","coordinates":[[22.38025,53.83147],[22.37916,53.83123]]}},{"type":"Feature","properties":{"numer":"204151N","klasa":"droga zbiorcza","kat":"powiatowa"},"geometry":{"type":"LineString","coordinates":[[22.3806,53.83155],[22.38025,53.83147]]}},{"type":"Feature","properties":{"numer":"204168N","klasa":"droga zbiorcza","kat":"powiatowa"},"geometry":{"type":"LineString","coordinates":[[22.36285,53.83142],[22.36265,53.83185]]}},{"type":"Feature","properties":{"numer":"204151N","klasa":"droga zbiorcza","kat":"powiatowa"},"geometry":{"type":"LineString","coordinates":[[22.38313,53.83211],[22.3806,53.83155]]}},{"type":"Feature","properties":{"numer":"204168N","klasa":"droga zbiorcza","kat":"powiatowa"},"geometry":{"type":"LineString","coordinates":[[22.36265,53.83185],[22.36247,53.83218]]}},{"type":"Feature","properties":{"numer":"204167N","klasa":"droga zbiorcza","kat":"powiatowa"},"geometry":{"type":"LineString","coordinates":[[22.34089,53.83139],[22.34105,53.83243]]}},{"type":"Feature","properties":{"numer":"204141N","klasa":"droga lokalna","kat":"powiatowa"},"geometry":{"type":"LineString","coordinates":[[22.35132,53.83217],[22.35164,53.83166]]}},{"type":"Feature","properties":{"numer":"16","klasa":"droga gĹ‚Ăłwna ruchu przyĹ›pieszonego","kat":"krajowa"},"geometry":{"type":"LineString","coordinates":[[22.32853,53.83295],[22.32643,53.83224],[22.32346,53.83172],[22.32188,53.83106]]}},{"type":"Feature","properties":{"numer":"204118N","klasa":"droga zbiorcza","kat":"powiatowa"},"geometry":{"type":"LineString","coordinates":[[22.35311,53.83199],[22.35347,53.83208]]}},{"type":"Feature","properties":{"numer":"204166N","klasa":"droga zbiorcza","kat":"powiatowa"},"geometry":{"type":"LineString","coordinates":[[22.33433,53.83191],[22.3332,53.83219]]}},{"type":"Feature","properties":{"numer":"204118N","klasa":"droga zbiorcza","kat":"powiatowa"},"geometry":{"type":"LineString","coordinates":[[22.35347,53.83208],[22.35432,53.83229]]}},{"type":"Feature","properties":{"numer":"204118N","klasa":"droga zbiorcza","kat":"powiatowa"},"geometry":{"type":"LineString","coordinates":[[22.35432,53.83229],[22.35499,53.83247]]}},{"type":"Feature","properties":{"numer":"204166N","klasa":"droga zbiorcza","kat":"powiatowa"},"geometry":{"type":"LineString","coordinates":[[22.3332,53.83219],[22.33102,53.83271]]}},{"type":"Feature","properties":{"numer":"204141N","klasa":"droga lokalna","kat":"powiatowa"},"geometry":{"type":"LineString","coordinates":[[22.35092,53.83275],[22.35132,53.83217]]}},{"type":"Feature","properties":{"numer":"204167N","klasa":"droga zbiorcza","kat":"powiatowa"},"geometry":{"type":"LineString","coordinates":[[22.34105,53.83243],[22.34106,53.83252]]}},{"type":"Feature","properties":{"numer":"204118N","klasa":"droga zbiorcza","kat":"powiatowa"},"geometry":{"type":"LineString","coordinates":[[22.35499,53.83247],[22.35625,53.8328]]}},{"type":"Feature","properties":{"numer":"204167N","klasa":"droga zbiorcza","kat":"powiatowa"},"geometry":{"type":"LineString","coordinates":[[22.34106,53.83252],[22.34111,53.83282]]}},{"type":"Feature","properties":{"numer":"204118N","klasa":"droga zbiorcza","kat":"powiatowa"},"geometry":{"type":"LineString","coordinates":[[22.35625,53.8328],[22.35661,53.83289]]}},{"type":"Feature","properties":{"numer":"204060N","klasa":"droga dojazdowa","kat":"powiatowa"},"geometry":{"type":"LineString","coordinates":[[22.34843,53.83289],[22.34769,53.83285]]}},{"type":"Feature","properties":{"numer":"204166N","klasa":"droga zbiorcza","kat":"powiatowa"},"geometry":{"type":"LineString","coordinates":[[22.33102,53.83271],[22.32985,53.83305]]}},{"type":"Feature","properties":{"numer":"204060N","klasa":"droga dojazdowa","kat":"powiatowa"},"geometry":{"type":"LineString","coordinates":[[22.34769,53.83285],[22.34636,53.83289],[22.3452,53.83313]]}},{"type":"Feature","properties":{"numer":"204118N","klasa":"droga zbiorcza","kat":"powiatowa"},"geometry":{"type":"LineString","coordinates":[[22.35661,53.83289],[22.35739,53.8331]]}},{"type":"Feature","properties":{"numer":"204141N","klasa":"droga lokalna","kat":"powiatowa"},"geometry":{"type":"LineString","coordinates":[[22.35059,53.83324],[22.35092,53.83275]]}},{"type":"Feature","properties":{"numer":"16","klasa":"droga gĹ‚Ăłwna ruchu przyĹ›pieszonego","kat":"krajowa"},"geometry":{"type":"LineString","coordinates":[[22.32894,53.83314],[22.32853,53.83295]]}},{"type":"Feature","properties":{"numer":"16","klasa":"droga gĹ‚Ăłwna ruchu przyĹ›pieszonego","kat":"krajowa"},"geometry":{"type":"LineString","coordinates":[[22.32914,53.83326],[22.32894,53.83314]]}},{"type":"Feature","properties":{"numer":"204151N","klasa":"droga zbiorcza","kat":"powiatowa"},"geometry":{"type":"LineString","coordinates":[[22.38313,53.83211],[22.38356,53.83221]]}},{"type":"Feature","properties":{"numer":"204151N","klasa":"droga zbiorcza","kat":"powiatowa"},"geometry":{"type":"LineString","coordinates":[[22.38356,53.83221],[22.384,53.83231]]}},{"type":"Feature","properties":{"numer":"204168N","klasa":"droga zbiorcza","kat":"powiatowa"},"geometry":{"type":"LineString","coordinates":[[22.36247,53.83218],[22.36233,53.83244]]}},{"type":"Feature","properties":{"numer":"204151N","klasa":"droga zbiorcza","kat":"powiatowa"},"geometry":{"type":"LineString","coordinates":[[22.384,53.83231],[22.38417,53.83235]]}},{"type":"Feature","properties":{"numer":"204151N","klasa":"droga zbiorcza","kat":"powiatowa"},"geometry":{"type":"LineString","coordinates":[[22.38417,53.83235],[22.38427,53.83237]]}},{"type":"Feature","properties":{"numer":"204151N","klasa":"droga zbiorcza","kat":"powiatowa"},"geometry":{"type":"LineString","coordinates":[[22.38427,53.83237],[22.38842,53.83328]]}},{"type":"Feature","properties":{"numer":"204168N","klasa":"droga zbiorcza","kat":"powiatowa"},"geometry":{"type":"LineString","coordinates":[[22.36233,53.83244],[22.36176,53.83329]]}},{"type":"Feature","properties":{"numer":"204151N","klasa":"droga zbiorcza","kat":"powiatowa"},"geometry":{"type":"LineString","coordinates":[[22.38427,53.83237],[22.3902,53.83367]]}},{"type":"Feature","properties":{"numer":"204168N","klasa":"droga zbiorcza","kat":"powiatowa"},"geometry":{"type":"LineString","coordinates":[[22.36176,53.83329],[22.36158,53.8334]]}},{"type":"Feature","properties":{"numer":"204168N","klasa":"droga zbiorcza","kat":"powiatowa"},"geometry":{"type":"LineString","coordinates":[[22.36158,53.8334],[22.36142,53.8335]]}},{"type":"Feature","properties":{"numer":"204167N","klasa":"droga zbiorcza","kat":"powiatowa"},"geometry":{"type":"LineString","coordinates":[[22.34111,53.83282],[22.34122,53.83366]]}},{"type":"Feature","properties":{"numer":"656","klasa":"droga zbiorcza","kat":"wojewodzka"},"geometry":{"type":"LineString","coordinates":[[22.32889,53.8333],[22.32914,53.83326]]}},{"type":"Feature","properties":{"numer":"204118N","klasa":"droga zbiorcza","kat":"powiatowa"},"geometry":{"type":"LineString","coordinates":[[22.35739,53.8331],[22.35895,53.83352]]}},{"type":"Feature","properties":{"numer":"16","klasa":"droga gĹ‚Ăłwna ruchu przyĹ›pieszonego","kat":"krajowa"},"geometry":{"type":"LineString","coordinates":[[22.32914,53.83326],[22.32929,53.83339]]}},{"type":"Feature","properties":{"numer":"204060N","klasa":"droga dojazdowa","kat":"powiatowa"},"geometry":{"type":"LineString","coordinates":[[22.3452,53.83313],[22.34394,53.83356]]}},{"type":"Feature","properties":{"numer":"656","klasa":"droga zbiorcza","kat":"wojewodzka"},"geometry":{"type":"LineString","coordinates":[[22.32827,53.8334],[22.32889,53.8333]]}},{"type":"Feature","properties":{"numer":"204060N","klasa":"droga dojazdowa","kat":"powiatowa"},"geometry":{"type":"LineString","coordinates":[[22.34854,53.83397],[22.34862,53.83311],[22.34843,53.83289]]}},{"type":"Feature","properties":{"numer":"204141N","klasa":"droga lokalna","kat":"powiatowa"},"geometry":{"type":"LineString","coordinates":[[22.35028,53.83369],[22.35059,53.83324]]}},{"type":"Feature","properties":{"numer":"16","klasa":"droga gĹ‚Ăłwna ruchu przyĹ›pieszonego","kat":"krajowa"},"geometry":{"type":"LineString","coordinates":[[22.32929,53.83339],[22.32955,53.83372]]}},{"type":"Feature","properties":{"numer":"204118N","klasa":"droga zbiorcza","kat":"powiatowa"},"geometry":{"type":"LineString","coordinates":[[22.35895,53.83352],[22.35955,53.8337],[22.35984,53.83371]]}},{"type":"Feature","properties":{"numer":"204060N","klasa":"droga dojazdowa","kat":"powiatowa"},"geometry":{"type":"LineString","coordinates":[[22.34394,53.83356],[22.34296,53.83382]]}},{"type":"Feature","properties":{"numer":"204167N","klasa":"droga zbiorcza","kat":"powiatowa"},"geometry":{"type":"LineString","coordinates":[[22.34122,53.83366],[22.34127,53.83402]]}},{"type":"Feature","properties":{"numer":"204060N","klasa":"droga dojazdowa","kat":"powiatowa"},"geometry":{"type":"LineString","coordinates":[[22.34296,53.83382],[22.3417,53.83396]]}},{"type":"Feature","properties":{"numer":"204060N","klasa":"droga dojazdowa","kat":"powiatowa"},"geometry":{"type":"LineString","coordinates":[[22.3417,53.83396],[22.34127,53.83402]]}},{"type":"Feature","properties":{"numer":"204141N","klasa":"droga lokalna","kat":"powiatowa"},"geometry":{"type":"LineString","coordinates":[[22.34937,53.83453],[22.34985,53.83417],[22.35028,53.83369]]}},{"type":"Feature","properties":{"numer":"204060N","klasa":"droga dojazdowa","kat":"powiatowa"},"geometry":{"type":"LineString","coordinates":[[22.34937,53.83453],[22.34864,53.83413],[22.34854,53.83397]]}},{"type":"Feature","properties":{"numer":"204167N","klasa":"droga zbiorcza","kat":"powiatowa"},"geometry":{"type":"LineString","coordinates":[[22.34127,53.83402],[22.34143,53.83516]]}},{"type":"Feature","properties":{"numer":"16","klasa":"droga gĹ‚Ăłwna ruchu przyĹ›pieszonego","kat":"krajowa"},"geometry":{"type":"LineString","coordinates":[[22.32955,53.83372],[22.329807065891778,53.83437379750428]]}},{"type":"Feature","properties":{"numer":"204167N","klasa":"droga zbiorcza","kat":"powiatowa"},"geometry":{"type":"LineString","coordinates":[[22.34143,53.83516],[22.34149,53.83557]]}},{"type":"Feature","properties":{"numer":"204069N","klasa":"droga lokalna","kat":"powiatowa"},"geometry":{"type":"LineString","coordinates":[[22.35716,53.83604],[22.35715,53.83577]]}},{"type":"Feature","properties":{"numer":"204167N","klasa":"droga zbiorcza","kat":"powiatowa"},"geometry":{"type":"LineString","coordinates":[[22.34149,53.83557],[22.34162,53.83656]]}},{"type":"Feature","properties":{"numer":"204069N","klasa":"droga lokalna","kat":"powiatowa"},"geometry":{"type":"LineString","coordinates":[[22.35741,53.83662],[22.35716,53.83604]]}},{"type":"Feature","properties":{"numer":"204167N","klasa":"droga zbiorcza","kat":"powiatowa"},"geometry":{"type":"LineString","coordinates":[[22.34162,53.83656],[22.34168711208267,53.83699143481717]]}},{"type":"Feature","properties":{"numer":"204069N","klasa":"droga lokalna","kat":"powiatowa"},"geometry":{"type":"LineString","coordinates":[[22.35792,53.83748],[22.35741,53.83662]]}},{"type":"Feature","properties":{"numer":"204069N","klasa":"droga lokalna","kat":"powiatowa"},"geometry":{"type":"LineString","coordinates":[[22.35878,53.83858],[22.35792,53.83748]]}},{"type":"Feature","properties":{"numer":"204069N","klasa":"droga lokalna","kat":"powiatowa"},"geometry":{"type":"LineString","coordinates":[[22.35949,53.83953],[22.35878,53.83858]]}},{"type":"Feature","properties":{"numer":"621","klasa":"droga gĹ‚Ăłwna ruchu przyĹ›pieszonego","kat":"wojewodzka"},"geometry":{"type":"LineString","coordinates":[[22.39001,53.8341],[22.388393788381297,53.8378129185835]]}},{"type":"Feature","properties":{"numer":"204069N","klasa":"","kat":"powiatowa"},"geometry":{"type":"LineString","coordinates":[[22.35984,53.84],[22.35949,53.83953]]}},{"type":"Feature","properties":{"numer":"204069N","klasa":"","kat":"powiatowa"},"geometry":{"type":"LineString","coordinates":[[22.36012,53.84036],[22.35984,53.84]]}},{"type":"Feature","properties":{"numer":"204069N","klasa":"droga lokalna","kat":"powiatowa"},"geometry":{"type":"LineString","coordinates":[[22.3607,53.84095],[22.36012,53.84036]]}},{"type":"Feature","properties":{"numer":"204069N","klasa":"droga lokalna","kat":"powiatowa"},"geometry":{"type":"LineString","coordinates":[[22.36145,53.84164],[22.3607,53.84095]]}},{"type":"Feature","properties":{"numer":"204069N","klasa":"","kat":"powiatowa"},"geometry":{"type":"LineString","coordinates":[[22.36186,53.84204],[22.36145,53.84164]]}},{"type":"Feature","properties":{"numer":"204069N","klasa":"droga lokalna","kat":"powiatowa"},"geometry":{"type":"LineString","coordinates":[[22.36197,53.84215],[22.36186,53.84204]]}},{"type":"Feature","properties":{"numer":"204069N","klasa":"droga lokalna","kat":"powiatowa"},"geometry":{"type":"LineString","coordinates":[[22.36211,53.84225],[22.36197,53.84215]]}},{"type":"Feature","properties":{"numer":"16,65","klasa":"droga gĹ‚Ăłwna ruchu przyĹ›pieszonego","kat":"gminna"},"geometry":{"type":"LineString","coordinates":[[22.37203,53.84557],[22.37466,53.84526],[22.381534834724494,53.84398792173805]]}},{"type":"Feature","properties":{"numer":"204069N","klasa":"","kat":"powiatowa"},"geometry":{"type":"LineString","coordinates":[[22.36252,53.84253],[22.36211,53.84225]]}},{"type":"Feature","properties":{"numer":"204069N","klasa":"droga lokalna","kat":"powiatowa"},"geometry":{"type":"LineString","coordinates":[[22.36302,53.84281],[22.36252,53.84253]]}},{"type":"Feature","properties":{"numer":"204069N","klasa":"droga lokalna","kat":"powiatowa"},"geometry":{"type":"LineString","coordinates":[[22.36326,53.84292],[22.36302,53.84281]]}},{"type":"Feature","properties":{"numer":"204069N","klasa":"droga lokalna","kat":"powiatowa"},"geometry":{"type":"LineString","coordinates":[[22.36503,53.84336],[22.36326,53.84292]]}},{"type":"Feature","properties":{"numer":"621","klasa":"droga gĹ‚Ăłwna ruchu przyĹ›pieszonego","kat":"wojewodzka"},"geometry":{"type":"LineString","coordinates":[[22.38081,53.84378],[22.38103235386529,53.84371842508346]]}},{"type":"Feature","properties":{"numer":"204069N","klasa":"droga lokalna","kat":"powiatowa"},"geometry":{"type":"LineString","coordinates":[[22.36733,53.84415],[22.36661,53.84375],[22.36503,53.84336]]}},{"type":"Feature","properties":{"numer":"621","klasa":"droga gĹ‚Ăłwna ruchu przyĹ›pieszonego","kat":"wojewodzka"},"geometry":{"type":"LineString","coordinates":[[22.36801,53.84454],[22.36777,53.84452]]}},{"type":"Feature","properties":{"numer":"16","klasa":"droga gĹ‚Ăłwna ruchu przyĹ›pieszonego","kat":"krajowa"},"geometry":{"type":"LineString","coordinates":[[22.36777,53.84452],[22.36712,53.84468]]}},{"type":"Feature","properties":{"numer":"621","klasa":"droga gĹ‚Ăłwna ruchu przyĹ›pieszonego","kat":"wojewodzka"},"geometry":{"type":"LineString","coordinates":[[22.36853,53.84467],[22.36801,53.84454]]}},{"type":"Feature","properties":{"numer":"621","klasa":"droga gĹ‚Ăłwna ruchu przyĹ›pieszonego","kat":"wojewodzka"},"geometry":{"type":"LineString","coordinates":[[22.38081,53.84378],[22.37945,53.84414],[22.37722,53.84431],[22.37452,53.84494],[22.3726,53.84523],[22.37047,53.84543],[22.37019,53.8454],[22.36853,53.84467]]}},{"type":"Feature","properties":{"numer":"16","klasa":"droga gĹ‚Ăłwna ruchu przyĹ›pieszonego","kat":"krajowa"},"geometry":{"type":"LineString","coordinates":[[22.36712,53.84468],[22.36672,53.84493]]}},{"type":"Feature","properties":{"numer":"16","klasa":"droga gĹ‚Ăłwna ruchu przyĹ›pieszonego","kat":"krajowa"},"geometry":{"type":"LineString","coordinates":[[22.36672,53.84493],[22.36661,53.84573]]}},{"type":"Feature","properties":{"numer":"16,65","klasa":"droga gĹ‚Ăłwna ruchu przyĹ›pieszonego","kat":"gminna"},"geometry":{"type":"LineString","coordinates":[[22.36661,53.84573],[22.368099499515793,53.84573702594111]]}},{"type":"Feature","properties":{"numer":"16,65","klasa":"droga gĹ‚Ăłwna ruchu przyĹ›pieszonego","kat":"gminna"},"geometry":{"type":"LineString","coordinates":[[22.370109615117013,53.845668928918215],[22.37203,53.84557]]}},{"type":"Feature","properties":{"numer":"16","klasa":"droga gĹ‚Ăłwna ruchu przyĹ›pieszonego","kat":"krajowa"},"geometry":{"type":"LineString","coordinates":[[22.37214,53.84618],[22.37203,53.84557]]}},{"type":"Feature","properties":{"numer":"16","klasa":"droga gĹ‚Ăłwna ruchu przyĹ›pieszonego","kat":"krajowa"},"geometry":{"type":"LineString","coordinates":[[22.37207,53.84636],[22.37214,53.84618]]}},{"type":"Feature","properties":{"numer":"16","klasa":"droga gĹ‚Ăłwna ruchu przyĹ›pieszonego","kat":"krajowa"},"geometry":{"type":"LineString","coordinates":[[22.37182,53.8466],[22.37207,53.84636]]}},{"type":"Feature","properties":{"numer":"16,65","klasa":"droga gĹ‚Ăłwna ruchu przyĹ›pieszonego","kat":"gminna"},"geometry":{"type":"LineString","coordinates":[[22.34252012564378,53.84163374533184],[22.34573,53.84198],[22.35038,53.84276],[22.35331,53.84343],[22.355648823258697,53.84404387768829]]}},{"type":"Feature","properties":{"numer":"16,65","klasa":"droga gĹ‚Ăłwna ruchu przyĹ›pieszonego","kat":"gminna"},"geometry":{"type":"LineString","coordinates":[[22.358537665152255,53.844760168317556],[22.36049,53.84514],[22.36432,53.84561],[22.36661,53.84573]]}},{"type":"Feature","properties":{"numer":"204151N","klasa":"droga zbiorcza","kat":"powiatowa"},"geometry":{"type":"LineString","coordinates":[[22.38842,53.83328],[22.3902,53.83367]]}},{"type":"Feature","properties":{"numer":"204118N","klasa":"droga zbiorcza","kat":"powiatowa"},"geometry":{"type":"LineString","coordinates":[[22.36123,53.83354],[22.36142,53.8335]]}},{"type":"Feature","properties":{"numer":"204118N","klasa":"droga zbiorcza","kat":"powiatowa"},"geometry":{"type":"LineString","coordinates":[[22.3609,53.83357],[22.36123,53.83354]]}},{"type":"Feature","properties":{"numer":"621","klasa":"droga gĹ‚Ăłwna ruchu przyĹ›pieszonego","kat":"wojewodzka"},"geometry":{"type":"LineString","coordinates":[[22.39033,53.83353],[22.3902,53.83367]]}},{"type":"Feature","properties":{"numer":"204118N","klasa":"droga zbiorcza","kat":"powiatowa"},"geometry":{"type":"LineString","coordinates":[[22.35984,53.83371],[22.3609,53.83357]]}},{"type":"Feature","properties":{"numer":"625","klasa":"droga gĹ‚Ăłwna ruchu przyĹ›pieszonego","kat":"wojewodzka"},"geometry":{"type":"LineString","coordinates":[[22.39045,53.83372],[22.3902,53.83367]]}},{"type":"Feature","properties":{"numer":"625","klasa":"droga gĹ‚Ăłwna ruchu przyĹ›pieszonego","kat":"wojewodzka"},"geometry":{"type":"LineString","coordinates":[[22.39086,53.8338],[22.39045,53.83372]]}},{"type":"Feature","properties":{"numer":"621","klasa":"droga gĹ‚Ăłwna ruchu przyĹ›pieszonego","kat":"wojewodzka"},"geometry":{"type":"LineString","coordinates":[[22.3902,53.83367],[22.39001,53.8341]]}},{"type":"Feature","properties":{"numer":"625","klasa":"droga gĹ‚Ăłwna ruchu przyĹ›pieszonego","kat":"wojewodzka"},"geometry":{"type":"LineString","coordinates":[[22.39086,53.8338],[22.399555478165656,53.83551556784553]]}},{"type":"Feature","properties":{"numer":"16","klasa":"droga gĹ‚Ăłwna ruchu przyĹ›pieszonego","kat":"krajowa"},"geometry":{"type":"LineString","coordinates":[[22.37163,53.84661],[22.37182,53.8466]]}},{"type":"Feature","properties":{"numer":"204069N","klasa":"droga lokalna","kat":"powiatowa"},"geometry":{"type":"LineString","coordinates":[[22.37163,53.84661],[22.371624970383717,53.84661055884625]]}}]}