{"type":"FeatureCollection","features":[{"type":"Feature","properties":{"numer":"536","klasa":"droga gĹ‚Ăłwna","kat":"wojewodzka"},"geometry":{"type":"LineString","coordinates":[[19.61815,53.55403],[19.61924,53.55183],[19.6198,53.55114],[19.62072,53.55034]]}},{"type":"Feature","properties":{"numer":"536","klasa":"droga gĹ‚Ăłwna","kat":"wojewodzka"},"geometry":{"type":"LineString","coordinates":[[19.61815,53.55403],[19.61415,53.55892],[19.61241,53.56208],[19.61032,53.56457],[19.60881,53.56591],[19.60368,53.56938]]}},{"type":"Feature","properties":{"numer":"1339N","klasa":"","kat":"powiatowa"},"geometry":{"type":"LineString","coordinates":[[19.60368,53.56938],[19.60408,53.56958],[19.60472,53.56973],[19.6094,53.57011],[19.6128,53.57014],[19.61436,53.57044],[19.6148,53.5706]]}},{"type":"Feature","properties":{"numer":"1339N","klasa":"","kat":"powiatowa"},"geometry":{"type":"LineString","coordinates":[[19.6148,53.5706],[19.61496,53.57067]]}},{"type":"Feature","properties":{"numer":"1339N","klasa":"","kat":"powiatowa"},"geometry":{"type":"LineString","coordinates":[[19.61496,53.57067],[19.61735,53.57191],[19.6192,53.57259]]}},{"type":"Feature","properties":{"numer":"536","klasa":"droga gĹ‚Ăłwna","kat":"wojewodzka"},"geometry":{"type":"LineString","coordinates":[[19.60368,53.56938],[19.592586301996647,53.57678492928454]]}},{"type":"Feature","properties":{"numer":"1208N","klasa":"","kat":"powiatowa"},"geometry":{"type":"LineString","coordinates":[[19.388612956754713,53.57295408752103],[19.38953,53.57319]]}},{"type":"Feature","properties":{"numer":"1208N","klasa":"","kat":"powiatowa"},"geometry":{"type":"LineString","coordinates":[[19.38953,53.57319],[19.38975,53.57325]]}},{"type":"Feature","properties":{"numer":"16","klasa":"droga gĹ‚Ăłwna ruchu przyĹ›pieszonego","kat":"krajowa"},"geometry":{"type":"LineString","coordinates":[[19.3807422985252,53.60279846487138],[19.38621,53.60343],[19.39268,53.60491],[19.39343,53.60501],[19.39432,53.605]]}},{"type":"Feature","properties":{"numer":"16","klasa":"droga gĹ‚Ăłwna ruchu przyĹ›pieszonego","kat":"krajowa"},"geometry":{"type":"LineString","coordinates":[[19.39432,53.605],[19.39685,53.60482]]}},{"type":"Feature","properties":{"numer":"1297N","klasa":"","kat":"powiatowa"},"geometry":{"type":"LineString","coordinates":[[19.39432,53.605],[19.39578,53.60923],[19.39457,53.61373],[19.39456,53.61428],[19.39852,53.62045],[19.39888,53.62061],[19.40311,53.6216]]}},{"type":"Feature","properties":{"numer":"1208N","klasa":"","kat":"powiatowa"},"geometry":{"type":"LineString","coordinates":[[19.43399,53.59481],[19.43511,53.59645],[19.43726,53.59923],[19.43772,53.60104],[19.44903,53.61562],[19.45064,53.62149]]}},{"type":"Feature","properties":{"numer":"1208N","klasa":"","kat":"powiatowa"},"geometry":{"type":"LineString","coordinates":[[19.38975,53.57325],[19.39761,53.57527],[19.39866,53.57535],[19.40036,53.5753],[19.40129,53.57545],[19.40488,53.57717],[19.41112,53.5799],[19.41465,53.58118]]}},{"type":"Feature","properties":{"numer":"1208N","klasa":"","kat":"powiatowa"},"geometry":{"type":"LineString","coordinates":[[19.41465,53.58118],[19.41578,53.58151],[19.41688,53.58157],[19.42326,53.58084],[19.42363,53.58088],[19.42701,53.58841],[19.43399,53.59481]]}},{"type":"Feature","properties":{"numer":"1297N","klasa":"","kat":"powiatowa"},"geometry":{"type":"LineString","coordinates":[[19.39685,53.60482],[19.39599,53.60339],[19.39605,53.60287],[19.39556,53.6022],[19.39552,53.60139],[19.39592,53.60091],[19.39569,53.60025],[19.39228,53.59724],[19.38604,53.58638],[19.38629,53.58577],[19.39202,53.58488],[19.39293,53.58426],[19.39369,53.58308],[19.39505,53.58223],[19.39537,53.58214],[19.39592,53.58211],[19.39734,53.58226],[19.40014,53.58221],[19.40346,53.58176],[19.40635,53.58184],[19.41275,53.58128],[19.41465,53.58118]]}},{"type":"Feature","properties":{"numer":"16","klasa":"droga gĹ‚Ăłwna ruchu przyĹ›pieszonego","kat":"krajowa"},"geometry":{"type":"LineString","coordinates":[[19.39685,53.60482],[19.39794,53.60459],[19.41139,53.60068],[19.42373,53.59746],[19.42622,53.59687],[19.43007,53.59621],[19.43215,53.59559],[19.43399,53.59481]]}},{"type":"Feature","properties":{"numer":"1206N","klasa":"","kat":"powiatowa"},"geometry":{"type":"LineString","coordinates":[[19.40311,53.6216],[19.40428,53.62207]]}},{"type":"Feature","properties":{"numer":"1206N,146296N","klasa":"","kat":"powiatowa"},"geometry":{"type":"LineString","coordinates":[[19.40428,53.62207],[19.40473,53.6222]]}},{"type":"Feature","properties":{"numer":"1297N","klasa":"","kat":"powiatowa"},"geometry":{"type":"LineString","coordinates":[[19.40311,53.6216],[19.4022,53.62512],[19.39917,53.62885],[19.39896,53.62932],[19.39901,53.63121],[19.39971,53.63395],[19.39993,53.63565],[19.39922,53.63884],[19.39934,53.64123],[19.39924,53.64249],[19.398152056330055,53.64682181241061]]}},{"type":"Feature","properties":{"numer":"1313N","klasa":"droga zbiorcza","kat":"powiatowa"},"geometry":{"type":"LineString","coordinates":[[19.51952,53.58027],[19.51743,53.57876],[19.5162,53.57765],[19.51587,53.57725],[19.51442,53.57192],[19.51435,53.57058],[19.51399,53.57006],[19.5135,53.56971],[19.5058,53.56592],[19.50136,53.56421],[19.50092,53.56394],[19.50074,53.56366],[19.50064,53.56309],[19.50076,53.56195],[19.50115,53.5606],[19.50127,53.5596],[19.50087,53.55824],[19.50084,53.55734],[19.50274,53.55023],[19.50427,53.5465],[19.502542751986883,53.54374462816955]]}},{"type":"Feature","properties":{"numer":"1210N","klasa":"","kat":"powiatowa"},"geometry":{"type":"LineString","coordinates":[[19.49866,53.59372],[19.49981,53.59319],[19.5009,53.59221],[19.50178,53.59096],[19.50192,53.58988],[19.50205,53.58972],[19.50761,53.5865],[19.50889,53.58508],[19.50936,53.5847],[19.51094,53.5839],[19.51856,53.58079],[19.51895,53.58042],[19.51952,53.58027]]}},{"type":"Feature","properties":{"numer":"16","klasa":"droga gĹ‚Ăłwna ruchu przyĹ›pieszonego","kat":"krajowa"},"geometry":{"type":"LineString","coordinates":[[19.43399,53.59481],[19.43503,53.59443],[19.43611,53.59416],[19.43984,53.5933],[19.44201,53.59292],[19.44297,53.59289],[19.44701,53.5932],[19.45684,53.59277],[19.4672,53.59096],[19.46797,53.59088],[19.46889,53.59101],[19.47171,53.59224],[19.47265,53.59238],[19.4743,53.59249],[19.47486,53.59248],[19.47822,53.59202],[19.48466,53.59146],[19.48591,53.59149],[19.49028,53.59198],[19.49573,53.59207],[19.49659,53.59235],[19.49861,53.59369]]}},{"type":"Feature","properties":{"numer":"16","klasa":"droga gĹ‚Ăłwna ruchu przyĹ›pieszonego","kat":"krajowa"},"geometry":{"type":"LineString","coordinates":[[19.49861,53.59369],[19.49866,53.59372]]}},{"type":"Feature","properties":{"numer":"1210N","klasa":"","kat":"powiatowa"},"geometry":{"type":"LineString","coordinates":[[19.49861,53.59369],[19.49686,53.59465],[19.49511,53.59525],[19.49412,53.59576],[19.49251,53.59682],[19.49153,53.59774],[19.48964,53.59871],[19.48884,53.59925],[19.48822,53.59985],[19.48687,53.60056],[19.48641,53.60067],[19.48551,53.60069],[19.48491,53.60081],[19.48092,53.602],[19.47939,53.60297],[19.47882,53.60377],[19.47835,53.6042],[19.4778,53.60447],[19.47542,53.60527],[19.4736,53.60626],[19.47203,53.60658],[19.47085,53.6064]]}},{"type":"Feature","properties":{"numer":"521","klasa":"droga gĹ‚Ăłwna","kat":"wojewodzka"},"geometry":{"type":"LineString","coordinates":[[19.49156,53.65047],[19.4977,53.64661],[19.49843,53.64594],[19.50077,53.64299],[19.50459,53.64056],[19.50531,53.63997],[19.50797,53.63661],[19.51009,53.63269],[19.51316,53.62823],[19.51444,53.62691],[19.51527,53.6258],[19.51578,53.6254],[19.51652,53.62505],[19.51715,53.62486],[19.51952,53.6244],[19.52139,53.62365]]}},{"type":"Feature","properties":{"numer":"1210N","klasa":"","kat":"powiatowa"},"geometry":{"type":"LineString","coordinates":[[19.47085,53.6064],[19.46996,53.60676],[19.46905,53.60729],[19.46898,53.60751],[19.4694,53.60878],[19.4694,53.60908],[19.46913,53.6095],[19.4686,53.61],[19.46822,53.61065],[19.46744,53.61111],[19.46645,53.61189],[19.46563,53.61291],[19.46469,53.61371],[19.46282,53.61484],[19.46141,53.61555],[19.45963,53.61669],[19.45658,53.62098],[19.45562,53.62131],[19.45064,53.62149]]}},{"type":"Feature","properties":{"numer":"1208N","klasa":"","kat":"powiatowa"},"geometry":{"type":"LineString","coordinates":[[19.45064,53.62149],[19.45297,53.63011],[19.45336,53.63097],[19.45402,53.63189],[19.45479,53.63262],[19.45842,53.63516]]}},{"type":"Feature","properties":{"numer":"1206N","klasa":"","kat":"powiatowa"},"geometry":{"type":"LineString","coordinates":[[19.40473,53.6222],[19.40732,53.62284],[19.4095,53.62395],[19.41019,53.62422],[19.42538,53.62816],[19.42605,53.6285],[19.42797,53.6298],[19.42865,53.63015],[19.43206,53.63138],[19.43278,53.63171],[19.43671,53.63461],[19.43721,53.63489],[19.43815,53.63521],[19.44279,53.6359],[19.45361,53.63721],[19.45469,53.6371],[19.45717,53.63619],[19.45739,53.63554],[19.45811,53.63527]]}},{"type":"Feature","properties":{"numer":"1206N","klasa":"","kat":"powiatowa"},"geometry":{"type":"LineString","coordinates":[[19.45842,53.63516],[19.45825,53.63524]]}},{"type":"Feature","properties":{"numer":"1206N","klasa":"","kat":"powiatowa"},"geometry":{"type":"LineString","coordinates":[[19.45825,53.63524],[19.45811,53.63527]]}},{"type":"Feature","properties":{"numer":"1208N","klasa":"","kat":"powiatowa"},"geometry":{"type":"LineString","coordinates":[[19.45842,53.63516],[19.46003,53.63629],[19.46074,53.63659]]}},{"type":"Feature","properties":{"numer":"1208N","klasa":"","kat":"powiatowa"},"geometry":{"type":"LineString","coordinates":[[19.46257,53.63705],[19.46074,53.63659]]}},{"type":"Feature","properties":{"numer":"146005N","klasa":"droga lokalna","kat":"powiatowa"},"geometry":{"type":"LineString","coordinates":[[19.46239,53.637],[19.46156,53.63736]]}},{"type":"Feature","properties":{"numer":"16","klasa":"droga gĹ‚Ăłwna ruchu przyĹ›pieszonego","kat":"krajowa"},"geometry":{"type":"LineString","coordinates":[[19.74326,53.6467],[19.7461,53.64677],[19.74722,53.64691],[19.74852,53.64719],[19.76129,53.65153],[19.76266,53.65228],[19.76687,53.65536],[19.77079,53.6589],[19.77173,53.65949],[19.77255,53.65984],[19.77371,53.66017],[19.78214,53.66172],[19.78268,53.662],[19.78731,53.66534],[19.78913,53.66607],[19.79194,53.66763],[19.7944,53.66819],[19.79796,53.67015]]}},{"type":"Feature","properties":{"numer":"16","klasa":"droga gĹ‚Ăłwna ruchu przyĹ›pieszonego","kat":"krajowa"},"geometry":{"type":"LineString","coordinates":[[19.807035412322275,53.67011229383886],[19.80696,53.67015]]}},{"type":"Feature","properties":{"numer":"16","klasa":"droga gĹ‚Ăłwna ruchu przyĹ›pieszonego","kat":"krajowa"},"geometry":{"type":"LineString","coordinates":[[19.79796,53.67015],[19.79852,53.67041]]}},{"type":"Feature","properties":{"numer":"1219N","klasa":"","kat":"powiatowa"},"geometry":{"type":"LineString","coordinates":[[19.79804,53.67057],[19.79796,53.67015]]}},{"type":"Feature","properties":{"numer":"16","klasa":"droga gĹ‚Ăłwna ruchu przyĹ›pieszonego","kat":"krajowa"},"geometry":{"type":"LineString","coordinates":[[19.79852,53.67041],[19.79946,53.67061],[19.80242,53.67078],[19.80559,53.67055],[19.80626,53.67041],[19.80696,53.67015]]}},{"type":"Feature","properties":{"numer":"1219N","klasa":"","kat":"powiatowa"},"geometry":{"type":"LineString","coordinates":[[19.79804,53.67057],[19.79852,53.67041]]}},{"type":"Feature","properties":{"numer":"1219N","klasa":"","kat":"powiatowa"},"geometry":{"type":"LineString","coordinates":[[19.79801,53.67146],[19.79804,53.67057]]}},{"type":"Feature","properties":{"numer":"1214N","klasa":"","kat":"powiatowa"},"geometry":{"type":"LineString","coordinates":[[19.71743,53.59515],[19.71774414754677,53.59507520296505]]}},{"type":"Feature","properties":{"numer":"1214N","klasa":"","kat":"powiatowa"},"geometry":{"type":"LineString","coordinates":[[19.69272,53.60017],[19.6941,53.59976],[19.6956,53.59912],[19.69639,53.5989],[19.697,53.59883],[19.69814,53.59886],[19.70127,53.59819],[19.70405,53.59775],[19.70592,53.59755],[19.70687,53.59764],[19.70714,53.5976],[19.71066,53.59681],[19.71487,53.59571],[19.71743,53.59515]]}},{"type":"Feature","properties":{"numer":"1339N","klasa":"","kat":"powiatowa"},"geometry":{"type":"LineString","coordinates":[[19.69272,53.60017],[19.69776,53.6056],[19.69799,53.60645],[19.69836,53.60891],[19.69832,53.60946],[19.69753,53.61152],[19.69798,53.61285],[19.6987,53.61454],[19.69921,53.6152],[19.69996,53.61701],[19.70059,53.61783],[19.70139,53.61855],[19.7035,53.621]]}},{"type":"Feature","properties":{"numer":"1212N","klasa":"","kat":"powiatowa"},"geometry":{"type":"LineString","coordinates":[[19.71235,53.61963],[19.72298,53.61792],[19.72377,53.61798],[19.72476,53.61859],[19.72546,53.61876],[19.72627,53.61877],[19.7291,53.61854],[19.73379,53.61838],[19.73776,53.61888],[19.73834,53.61902],[19.73873,53.61925],[19.73897,53.61989],[19.73929,53.62006],[19.74125,53.61937]]}},{"type":"Feature","properties":{"numer":"1212N","klasa":"","kat":"powiatowa"},"geometry":{"type":"LineString","coordinates":[[19.74125,53.61937],[19.74146,53.6193]]}},{"type":"Feature","properties":{"numer":"1212N","klasa":"","kat":"powiatowa"},"geometry":{"type":"LineString","coordinates":[[19.7035,53.621],[19.71235,53.61963]]}},{"type":"Feature","properties":{"numer":"1339N","klasa":"","kat":"powiatowa"},"geometry":{"type":"LineString","coordinates":[[19.7035,53.621],[19.70466,53.62244],[19.70721,53.62508],[19.70892,53.6261],[19.71042,53.62642],[19.711,53.62666],[19.71816,53.63141],[19.71958,53.63249],[19.7198,53.63319],[19.72058,53.63439],[19.72224,53.63561],[19.72815,53.63925],[19.73656,53.64075],[19.74079,53.64342],[19.74325,53.64521],[19.74396,53.6456],[19.74414,53.64582],[19.74326,53.6467]]}},{"type":"Feature","properties":{"numer":"16","klasa":"droga gĹ‚Ăłwna ruchu przyĹ›pieszonego","kat":"krajowa"},"geometry":{"type":"LineString","coordinates":[[19.74305,53.6467],[19.74326,53.6467]]}},{"type":"Feature","properties":{"numer":"16","klasa":"droga gĹ‚Ăłwna ruchu przyĹ›pieszonego","kat":"krajowa"},"geometry":{"type":"LineString","coordinates":[[19.71404,53.64793],[19.71557,53.64779],[19.72108,53.64798],[19.73657,53.64687],[19.74305,53.6467]]}},{"type":"Feature","properties":{"numer":"16","klasa":"droga gĹ‚Ăłwna ruchu przyĹ›pieszonego","kat":"krajowa"},"geometry":{"type":"LineString","coordinates":[[19.71333,53.64804],[19.71404,53.64793]]}},{"type":"Feature","properties":{"numer":"1214N,146022N","klasa":"","kat":"powiatowa"},"geometry":{"type":"LineString","coordinates":[[19.65629,53.60988],[19.65624,53.60988]]}},{"type":"Feature","properties":{"numer":"1214N","klasa":"","kat":"powiatowa"},"geometry":{"type":"LineString","coordinates":[[19.65624,53.60988],[19.65018,53.61041],[19.64823,53.61081]]}},{"type":"Feature","properties":{"numer":"1214N","klasa":"","kat":"powiatowa"},"geometry":{"type":"LineString","coordinates":[[19.64823,53.61081],[19.64571,53.61137],[19.64303,53.61209],[19.63937,53.61333],[19.6368,53.614],[19.63501,53.61478],[19.63355,53.61494],[19.63202,53.61491],[19.63156,53.61481],[19.63113,53.61448],[19.63076,53.61442],[19.63008,53.61478],[19.63014,53.61527],[19.63003,53.61542],[19.62881,53.61563],[19.62758,53.61615],[19.62715,53.61619],[19.62569,53.61598],[19.62488,53.61577],[19.62469,53.61581],[19.62414,53.61623]]}},{"type":"Feature","properties":{"numer":"16","klasa":"droga gĹ‚Ăłwna ruchu przyĹ›pieszonego","kat":"krajowa"},"geometry":{"type":"LineString","coordinates":[[19.62414,53.61623],[19.62559,53.61723],[19.62724,53.6187],[19.62802,53.61925],[19.63351,53.62167],[19.63757,53.62321],[19.64184,53.62501],[19.64317,53.6256],[19.64451,53.62632],[19.64669,53.62761],[19.6484,53.62883],[19.65038,53.63008],[19.65257,53.63183],[19.65506,53.63355],[19.6563,53.63453]]}},{"type":"Feature","properties":{"numer":"1212N","klasa":"","kat":"powiatowa"},"geometry":{"type":"LineString","coordinates":[[19.6563,53.63453],[19.65674,53.6343],[19.65964,53.63335],[19.65998,53.63309],[19.66047,53.63199],[19.66084,53.63171],[19.66503,53.6296],[19.66721,53.62882],[19.68375,53.62522],[19.68934,53.62373],[19.69967,53.62165],[19.7035,53.621]]}},{"type":"Feature","properties":{"numer":"16","klasa":"droga gĹ‚Ăłwna ruchu przyĹ›pieszonego","kat":"krajowa"},"geometry":{"type":"LineString","coordinates":[[19.6563,53.63453],[19.65968,53.6376],[19.6606,53.63827],[19.66126,53.63862],[19.66568,53.64059],[19.67,53.64272],[19.67088,53.64303],[19.67303,53.64362],[19.67417,53.64403],[19.67519,53.64455],[19.67715,53.64572],[19.68022,53.64716],[19.68156,53.64757],[19.68383,53.64792]]}},{"type":"Feature","properties":{"numer":"1212N","klasa":"","kat":"powiatowa"},"geometry":{"type":"LineString","coordinates":[[19.64055,53.66022],[19.64204,53.65899],[19.64305,53.65798],[19.64772,53.65328],[19.64834,53.65238],[19.64869,53.65164],[19.64933,53.6493],[19.6505,53.64223],[19.65161,53.63937],[19.65184,53.63891],[19.65221,53.6385],[19.65456,53.63705],[19.6563,53.63453]]}},{"type":"Feature","properties":{"numer":"1329N","klasa":"droga zbiorcza","kat":"powiatowa"},"geometry":{"type":"LineString","coordinates":[[19.64055,53.66022],[19.64139,53.66068],[19.64277,53.6617],[19.64496,53.66274],[19.64617,53.66352],[19.65301,53.66635],[19.65375,53.66673],[19.65508,53.66763],[19.65661,53.66846],[19.65725,53.66879],[19.65854,53.66919],[19.65912,53.66948],[19.66265,53.67279],[19.66306,53.67329],[19.66316,53.67379],[19.66289,53.67816],[19.66291,53.67852],[19.66306,53.67869],[19.66364,53.67884],[19.66482,53.67892],[19.66616,53.67928],[19.66871,53.67968],[19.67246,53.68084],[19.67329,53.68127],[19.67453,53.68267],[19.67527,53.68318],[19.68853,53.68899],[19.68989,53.68937],[19.693,53.68987],[19.7031,53.69255],[19.70383,53.69295],[19.70486,53.69448],[19.70488,53.69482],[19.70468,53.69529],[19.70432,53.69705],[19.7045,53.69753],[19.70517,53.69837],[19.70509,53.69865],[19.70321,53.69956],[19.70103,53.70134],[19.69478,53.7054],[19.69253,53.70677],[19.69219,53.70694],[19.69121,53.70715],[19.68397,53.70778],[19.68144,53.70867],[19.6777,53.71016],[19.67733,53.71043],[19.67738,53.71065],[19.67774,53.71109],[19.67782,53.7128],[19.67811,53.71381],[19.680920845493986,53.71681740811594]]}},{"type":"Feature","properties":{"numer":"1333N","klasa":"droga zbiorcza","kat":"powiatowa"},"geometry":{"type":"LineString","coordinates":[[19.56714317147916,53.5670709336693],[19.56677,53.56587],[19.56604,53.5642],[19.56378,53.56119],[19.56353,53.56073],[19.56221,53.5573],[19.56052,53.55418],[19.55955,53.55099],[19.55841,53.54862],[19.5583,53.54736],[19.55868,53.54508],[19.55961,53.54266],[19.55838,53.53951],[19.55818,53.5382],[19.55849,53.53776],[19.55991,53.53648],[19.56051,53.53545],[19.56086,53.53446],[19.56093,53.53279],[19.56073,53.53235],[19.55929,53.53106],[19.558,53.52947],[19.55776,53.52893],[19.557603084654843,53.52808123063303]]}},{"type":"Feature","properties":{"numer":"536","klasa":"droga gĹ‚Ăłwna","kat":"wojewodzka"},"geometry":{"type":"LineString","coordinates":[[19.65864,53.52334],[19.659814282747416,53.52220390530942]]}},{"type":"Feature","properties":{"numer":"1341N","klasa":"","kat":"powiatowa"},"geometry":{"type":"LineString","coordinates":[[19.65864,53.52334],[19.65956,53.52412],[19.66108,53.5252],[19.66415,53.52783],[19.66573,53.52879],[19.66889,53.5311],[19.6701,53.53226],[19.67114,53.53389],[19.67137,53.5345],[19.67156,53.53614],[19.67101,53.53724]]}},{"type":"Feature","properties":{"numer":"536","klasa":"droga gĹ‚Ăłwna","kat":"wojewodzka"},"geometry":{"type":"LineString","coordinates":[[19.62072,53.55034],[19.63675,53.53638],[19.6382,53.53551],[19.64875,53.53049],[19.64978,53.52994],[19.65554,53.52624],[19.65642,53.52556],[19.65864,53.52334]]}},{"type":"Feature","properties":{"numer":"1341N","klasa":"","kat":"powiatowa"},"geometry":{"type":"LineString","coordinates":[[19.67088,53.53745],[19.67101,53.53724]]}},{"type":"Feature","properties":{"numer":"1341N","klasa":"","kat":"powiatowa"},"geometry":{"type":"LineString","coordinates":[[19.67086,53.53828],[19.67076,53.53785],[19.67088,53.53745]]}},{"type":"Feature","properties":{"numer":"1339N","klasa":"","kat":"powiatowa"},"geometry":{"type":"LineString","coordinates":[[19.6192,53.57259],[19.63709,53.57871],[19.64191,53.58053],[19.64545,53.58156],[19.64619,53.58166],[19.64683,53.58162],[19.64845,53.58094],[19.64944,53.58066],[19.65095,53.58078],[19.65445,53.58073],[19.65528,53.58156],[19.65631,53.58229],[19.65668,53.58323],[19.65689,53.58345],[19.65874,53.58464],[19.65961,53.58595],[19.66015,53.58642],[19.66053,53.58657],[19.66208,53.58692],[19.66396,53.58771],[19.66703,53.5883],[19.67016,53.58984],[19.67607,53.59185],[19.68356,53.59414],[19.68651,53.59567],[19.68992,53.59779],[19.69272,53.60017]]}},{"type":"Feature","properties":{"numer":"1240N","klasa":"","kat":"powiatowa"},"geometry":{"type":"LineString","coordinates":[[19.64823,53.61081],[19.64701,53.61018],[19.64583,53.60925],[19.64399,53.60818],[19.63989,53.60538],[19.6396,53.60528],[19.63849,53.60512],[19.63371,53.60481],[19.63101,53.6036],[19.63043,53.60309],[19.62858,53.60196],[19.62608,53.60092],[19.62487,53.60052],[19.62197,53.59898],[19.62143,53.59858],[19.62071,53.5978]]}},{"type":"Feature","properties":{"numer":"1214N","klasa":"","kat":"powiatowa"},"geometry":{"type":"LineString","coordinates":[[19.65629,53.60988],[19.65967,53.60964],[19.66501,53.60884],[19.66719,53.60935],[19.67042,53.60982],[19.67457,53.60991],[19.67503,53.60989],[19.67577,53.60971],[19.67725,53.60929],[19.67799,53.60894],[19.68017,53.60753],[19.68246,53.60585],[19.68473,53.60462],[19.685,53.60439],[19.68567,53.60328],[19.6859,53.60308],[19.68837,53.6015],[19.68899,53.60124],[19.69272,53.60017]]}},{"type":"Feature","properties":{"numer":"1240N","klasa":"","kat":"powiatowa"},"geometry":{"type":"LineString","coordinates":[[19.62071,53.5978],[19.6191,53.59646],[19.61892,53.59602],[19.61895,53.59517],[19.61876,53.59449],[19.61886,53.59435],[19.61847,53.59397],[19.61807,53.59382],[19.61707,53.59376],[19.6158,53.59335],[19.61508,53.59274],[19.61514,53.59152],[19.61449,53.58893],[19.61469,53.58752],[19.6147,53.58621],[19.6151,53.585],[19.61899,53.58104],[19.61922,53.58063],[19.6192,53.57259]]}},{"type":"Feature","properties":{"numer":"1313N","klasa":"droga zbiorcza","kat":"powiatowa"},"geometry":{"type":"LineString","coordinates":[[19.541691993366694,53.59224236356053],[19.5414,53.59197],[19.54017,53.59115],[19.53607,53.58924],[19.53389,53.58777],[19.53335,53.5875],[19.5261,53.58443],[19.52278,53.58252],[19.521,53.58138],[19.51952,53.58027]]}},{"type":"Feature","properties":{"numer":"16","klasa":"droga gĹ‚Ăłwna ruchu przyĹ›pieszonego","kat":"krajowa"},"geometry":{"type":"LineString","coordinates":[[19.49866,53.59372],[19.50101,53.59523],[19.50218,53.59554],[19.50346,53.59565],[19.50461,53.59559],[19.52254,53.59358],[19.52334,53.59361],[19.52495,53.59397],[19.53027,53.59408],[19.53212,53.59425],[19.53313,53.59443],[19.53365,53.59467],[19.53398,53.59501],[19.53486,53.59649],[19.53589,53.59693],[19.5366,53.59766],[19.536902683813977,53.59781982419676]]}},{"type":"Feature","properties":{"numer":"521","klasa":"droga gĹ‚Ăłwna","kat":"wojewodzka"},"geometry":{"type":"LineString","coordinates":[[19.52139,53.62365],[19.52496,53.62203],[19.52607,53.62136],[19.52664,53.6208],[19.52772,53.61882],[19.52816,53.61603],[19.52853,53.61514],[19.53108655960491,53.611564709791104]]}},{"type":"Feature","properties":{"numer":"1311N","klasa":"","kat":"powiatowa"},"geometry":{"type":"LineString","coordinates":[[19.52139,53.62365],[19.52167,53.62392],[19.52195,53.62808],[19.52224,53.62871],[19.52281,53.62951],[19.52363,53.63174],[19.52371,53.63468],[19.52427,53.63577],[19.52746,53.63985],[19.53048,53.64295],[19.53101,53.64343],[19.53446,53.64603],[19.54,53.6529],[19.54,53.65325],[19.53981,53.65354],[19.53882,53.65415],[19.53841,53.65454],[19.53756,53.65619]]}},{"type":"Feature","properties":{"numer":"16","klasa":"droga gĹ‚Ăłwna ruchu przyĹ›pieszonego","kat":"krajowa"},"geometry":{"type":"LineString","coordinates":[[19.59320130778015,53.60674749515913],[19.59344,53.6068],[19.59812,53.60772],[19.60085,53.60815],[19.60226,53.60849],[19.61362,53.61226],[19.62068,53.61446],[19.62252,53.61526],[19.62414,53.61623]]}},{"type":"Feature","properties":{"numer":"1329N","klasa":"droga zbiorcza","kat":"powiatowa"},"geometry":{"type":"LineString","coordinates":[[19.6103,53.64359],[19.60957,53.64159],[19.60931,53.63995],[19.60732,53.6374],[19.60615,53.63635],[19.60523,53.63567],[19.60392,53.63502],[19.60306,53.63474],[19.59838,53.63359],[19.5964,53.63243],[19.59224,53.62841],[19.59066,53.62714],[19.58791,53.62532],[19.57793805815659,53.618126139977115]]}},{"type":"Feature","properties":{"numer":"1327N","klasa":"","kat":"powiatowa"},"geometry":{"type":"LineString","coordinates":[[19.6103,53.64359],[19.60912,53.64399],[19.60726,53.64423],[19.60689,53.64377],[19.60642,53.64368],[19.60578,53.64376],[19.60402,53.64417],[19.60169,53.64397],[19.59912,53.64429],[19.59857,53.6442],[19.59734,53.64377],[19.59652,53.64367],[19.59032,53.64406],[19.58864,53.64407],[19.5881,53.64418],[19.58723,53.64472],[19.5866,53.64497],[19.58488,53.64528],[19.58394,53.64568],[19.5832,53.64534],[19.57878,53.64443],[19.5783,53.64421],[19.57727,53.64343],[19.57664,53.64268],[19.57294,53.63529],[19.57273,53.63464],[19.5721,53.63017],[19.56939044692734,53.62413547486025]]}},{"type":"Feature","properties":{"numer":"1327N","klasa":"","kat":"powiatowa"},"geometry":{"type":"LineString","coordinates":[[19.568823642545784,53.62278090845687],[19.568367981550573,53.62137100088474]]}},{"type":"Feature","properties":{"numer":"1329N","klasa":"droga zbiorcza","kat":"powiatowa"},"geometry":{"type":"LineString","coordinates":[[19.64055,53.66022],[19.63858,53.65939],[19.63657,53.65915],[19.63307,53.65764],[19.63014,53.6551],[19.62694,53.65183],[19.62457,53.64979],[19.62309,53.6482],[19.62263,53.64788],[19.62149,53.64738],[19.6196,53.64714],[19.61879,53.64695],[19.61185,53.64474],[19.61088,53.64435],[19.6103,53.64359]]}},{"type":"Feature","properties":{"numer":"1311N,146097N","klasa":"","kat":"powiatowa"},"geometry":{"type":"LineString","coordinates":[[19.58646,53.72974],[19.58667,53.72937]]}},{"type":"Feature","properties":{"numer":"1208N","klasa":"","kat":"powiatowa"},"geometry":{"type":"LineString","coordinates":[[19.46609,53.63882],[19.46553,53.63825],[19.46488,53.63782],[19.46387,53.6374],[19.46257,53.63705]]}},{"type":"Feature","properties":{"numer":"146244N","klasa":"droga lokalna","kat":"powiatowa"},"geometry":{"type":"LineString","coordinates":[[19.46156,53.63736],[19.46199,53.63766],[19.46394,53.63843],[19.46495,53.63928]]}},{"type":"Feature","properties":{"numer":"1208N","klasa":"","kat":"powiatowa"},"geometry":{"type":"LineString","coordinates":[[19.46609,53.63882],[19.46495,53.63928]]}},{"type":"Feature","properties":{"numer":"1208N","klasa":"","kat":"powiatowa"},"geometry":{"type":"LineString","coordinates":[[19.46609,53.63882],[19.46647,53.63943],[19.46669,53.64038],[19.46708,53.64086],[19.46992,53.64209],[19.47089,53.64274],[19.47419,53.64417],[19.4744,53.64443],[19.47453,53.64494]]}},{"type":"Feature","properties":{"numer":"1208N","klasa":"","kat":"powiatowa"},"geometry":{"type":"LineString","coordinates":[[19.47456,53.64501],[19.47453,53.64494]]}},{"type":"Feature","properties":{"numer":"1208N","klasa":"","kat":"powiatowa"},"geometry":{"type":"LineString","coordinates":[[19.47456,53.64501],[19.47479,53.64545],[19.47523,53.64578],[19.48038,53.64841],[19.48114,53.6485],[19.48289,53.64801],[19.48442,53.64801],[19.48944,53.64921],[19.49156,53.65047]]}},{"type":"Feature","properties":{"numer":"521","klasa":"droga gĹ‚Ăłwna","kat":"wojewodzka"},"geometry":{"type":"LineString","coordinates":[[19.46423060686353,53.663292148920604],[19.46964,53.6613],[19.47561,53.65977],[19.47701,53.65923],[19.48611,53.65386],[19.49156,53.65047]]}},{"type":"Feature","properties":{"numer":"1307N","klasa":"droga zbiorcza","kat":"powiatowa"},"geometry":{"type":"LineString","coordinates":[[19.50279442836398,53.76040069323499],[19.50588,53.763],[19.50628,53.76345],[19.50655,53.76394],[19.50692,53.76516],[19.50893,53.76758],[19.50954,53.76806],[19.51131,53.76901],[19.5116,53.76927],[19.51209,53.77009],[19.51226,53.77127],[19.51271,53.77286]]}},{"type":"Feature","properties":{"numer":"16","klasa":"droga gĹ‚Ăłwna ruchu przyĹ›pieszonego","kat":"krajowa"},"geometry":{"type":"LineString","coordinates":[[19.68383,53.64792],[19.68639,53.64837],[19.69238,53.64962],[19.69418,53.6498],[19.69572,53.64968],[19.6986,53.64913],[19.7024,53.64887],[19.7054,53.64822],[19.70666,53.64804],[19.70839,53.64797],[19.71164,53.64819],[19.71333,53.64804]]}},{"type":"Feature","properties":{"numer":"1339N","klasa":"","kat":"powiatowa"},"geometry":{"type":"LineString","coordinates":[[19.73329,53.66184],[19.7352,53.66015],[19.73582,53.65978],[19.73746,53.65919],[19.73821,53.65844],[19.73843,53.65793],[19.73846,53.65757],[19.73776,53.65503],[19.73809,53.65384],[19.73838,53.65325],[19.73901,53.65261],[19.73931,53.65215],[19.73938,53.65059],[19.73954,53.65012],[19.74019,53.64914],[19.74132,53.6484],[19.743,53.64684],[19.74305,53.6467]]}},{"type":"Feature","properties":{"numer":"1339N","klasa":"","kat":"powiatowa"},"geometry":{"type":"LineString","coordinates":[[19.68383,53.64792],[19.68378,53.6485],[19.68432,53.64919],[19.68643,53.65108],[19.69092,53.65456],[19.6901,53.65542],[19.69009,53.65562],[19.69023,53.65582],[19.69243,53.65665],[19.6929,53.65723],[19.69983,53.66177],[19.70311,53.66314],[19.70622,53.66391],[19.70757,53.66432],[19.71173,53.66579],[19.71709,53.6679],[19.72133,53.66921]]}},{"type":"Feature","properties":{"numer":"1339N","klasa":"","kat":"powiatowa"},"geometry":{"type":"LineString","coordinates":[[19.72133,53.66921],[19.7222,53.66776],[19.72288,53.66691],[19.72417,53.66647],[19.72566,53.6663],[19.72688,53.66585],[19.73197,53.66258],[19.73329,53.66184]]}},{"type":"Feature","properties":{"numer":"1219N","klasa":"","kat":"powiatowa"},"geometry":{"type":"LineString","coordinates":[[19.79801,53.67146],[19.79801,53.67173]]}},{"type":"Feature","properties":{"numer":"1219N","klasa":"","kat":"powiatowa"},"geometry":{"type":"LineString","coordinates":[[19.781913486633222,53.68490451647685],[19.78301,53.68318],[19.78334,53.68282],[19.78913,53.67905],[19.79651,53.67537],[19.79722,53.67492],[19.79771,53.67441],[19.79796,53.6739],[19.79801,53.67173]]}},{"type":"Feature","properties":{"numer":"1208N","klasa":"","kat":"powiatowa"},"geometry":{"type":"LineString","coordinates":[[19.49156,53.65047],[19.4938,53.65202],[19.4963,53.65465],[19.49668,53.6551],[19.49753,53.65656],[19.49974,53.65904],[19.50142,53.66127],[19.50281,53.66121],[19.5051,53.66075],[19.50985,53.66345],[19.51638,53.66238],[19.52028,53.6614],[19.52498,53.66118],[19.52707,53.66131],[19.52739,53.66126],[19.53484,53.65709],[19.53573,53.65616],[19.53601,53.65612],[19.53756,53.65619]]}},{"type":"Feature","properties":{"numer":"1311N","klasa":"","kat":"powiatowa"},"geometry":{"type":"LineString","coordinates":[[19.53756,53.65619],[19.53738,53.65693],[19.53784,53.65749],[19.53832,53.65773],[19.54051,53.65826],[19.5428,53.6593],[19.54387,53.65952],[19.54527,53.65962],[19.54939,53.65919],[19.55011,53.65935],[19.55059,53.65964],[19.55148,53.66163],[19.55203,53.66359],[19.55203,53.66417],[19.55159,53.66652],[19.55175,53.6676],[19.55223,53.66865],[19.55262,53.66926],[19.55361,53.6704],[19.55436,53.67178],[19.55665,53.67373],[19.55995,53.67597],[19.56128,53.67709],[19.56382,53.67974],[19.5649,53.68115],[19.56732,53.68324],[19.56812,53.68368],[19.57035,53.68431],[19.57143,53.68482],[19.57459,53.68691],[19.5753,53.68765],[19.57577,53.68879],[19.57561,53.68978],[19.57502,53.691],[19.57451,53.69159],[19.57403,53.69236],[19.57393,53.6931],[19.57459,53.69469],[19.57587,53.69592],[19.5767,53.69756],[19.57716,53.69969],[19.57684,53.70115],[19.57735,53.70296],[19.57747,53.70435],[19.57798,53.70499],[19.57992,53.70626],[19.58038,53.70693],[19.58187,53.70983],[19.58266,53.71277],[19.58322,53.71579],[19.58349,53.71643],[19.58415,53.71741],[19.58477,53.71959],[19.58526,53.72018],[19.58652,53.72118],[19.5868,53.7224],[19.58851,53.72512],[19.5885,53.72614],[19.5883,53.72724],[19.58667,53.72937]]}},{"type":"Feature","properties":{"numer":"1311N","klasa":"","kat":"powiatowa"},"geometry":{"type":"LineString","coordinates":[[19.51271,53.77286],[19.51458,53.77213],[19.51593,53.77144],[19.51953,53.76754],[19.5205,53.76679],[19.52123,53.7666],[19.52246,53.76644],[19.53597,53.76479],[19.53658,53.76461],[19.53715,53.76434],[19.55245,53.75489],[19.56457,53.74755],[19.56569,53.74694],[19.56883,53.74585],[19.56967,53.74539],[19.57158,53.74407],[19.5743,53.7405],[19.57491,53.73997],[19.57691,53.73894],[19.57738,53.73879],[19.58217,53.73798],[19.58473,53.73768],[19.58578,53.73736],[19.58631,53.73686],[19.58646,53.73597],[19.58643,53.7352],[19.58579,53.73286],[19.58596,53.73221],[19.58594,53.73095],[19.58646,53.72974]]}},{"type":"Feature","properties":{"numer":"1307N","klasa":"droga zbiorcza","kat":"powiatowa"},"geometry":{"type":"LineString","coordinates":[[19.51271,53.77286],[19.512768170780472,53.772998406339745]]}}]}