{"type":"FeatureCollection","features":[{"type":"Feature","properties":{"numer":"1200N","klasa":"","kat":"powiatowa"},"geometry":{"type":"LineString","coordinates":[[19.33463,53.65795],[19.33748,53.65605],[19.33833,53.65565],[19.3536,53.651],[19.35541,53.65017],[19.35888,53.64819],[19.3621,53.64673],[19.3637,53.64567],[19.37222,53.65102],[19.37281,53.65128],[19.375,53.65166],[19.3768,53.65209],[19.38108,53.6534],[19.38348,53.65427],[19.38778,53.65554],[19.38926,53.65557],[19.39627,53.65525],[19.39674,53.65528],[19.39705,53.65541]]}},{"type":"Feature","properties":{"numer":"1297N","klasa":"","kat":"powiatowa"},"geometry":{"type":"LineString","coordinates":[[19.398152056330055,53.64682181241061],[19.39815,53.64683],[19.39795,53.65127],[19.39805,53.65365],[19.39794,53.654],[19.39705,53.65541]]}},{"type":"Feature","properties":{"numer":"521","klasa":"droga gĹ‚Ăłwna","kat":"wojewodzka"},"geometry":{"type":"LineString","coordinates":[[19.41628,53.68682],[19.42004,53.68536],[19.42402,53.68469],[19.4261,53.68427],[19.42685,53.68405],[19.43557,53.68091],[19.4472,53.67611],[19.44789,53.6757],[19.44839,53.67521],[19.45224,53.66916]]}},{"type":"Feature","properties":{"numer":"1309N","klasa":"","kat":"powiatowa"},"geometry":{"type":"LineString","coordinates":[[19.45224,53.66916],[19.45526,53.67027],[19.45846,53.6721],[19.4644,53.67459],[19.48218,53.67723],[19.48364,53.67767],[19.48554,53.67806],[19.4919,53.67995],[19.4942,53.68165],[19.49501,53.68247],[19.49626,53.6861],[19.49623,53.68657],[19.49591,53.68711],[19.49472,53.68839],[19.49262,53.6899],[19.49186,53.69066],[19.48856,53.69281],[19.48799,53.69327],[19.48369,53.69762],[19.48312,53.69858],[19.48259,53.69906],[19.47494,53.70361],[19.47056,53.70489],[19.4704,53.70558],[19.47032,53.70829],[19.47015,53.70832],[19.46869,53.70797],[19.46473,53.70679],[19.46423,53.7068],[19.46267,53.70708],[19.46081,53.70712],[19.45724,53.7069],[19.44456,53.70668],[19.44148,53.70649],[19.43857,53.7062],[19.43554,53.7061],[19.43315,53.70574],[19.4304,53.70552],[19.42824,53.7057],[19.42537,53.70636],[19.42123,53.70833],[19.41879,53.70835]]}},{"type":"Feature","properties":{"numer":"1297N","klasa":"","kat":"powiatowa"},"geometry":{"type":"LineString","coordinates":[[19.39758,53.65656],[19.40034,53.66237],[19.40069,53.6672],[19.40066,53.66867],[19.40093,53.66926],[19.40194,53.67018],[19.40203,53.67037],[19.40191,53.67069],[19.40103,53.6712],[19.40022,53.67217],[19.40007,53.67279],[19.40034,53.67355]]}},{"type":"Feature","properties":{"numer":"1297N","klasa":"","kat":"powiatowa"},"geometry":{"type":"LineString","coordinates":[[19.40074,53.67396],[19.40034,53.67355]]}},{"type":"Feature","properties":{"numer":"1297N","klasa":"","kat":"powiatowa"},"geometry":{"type":"LineString","coordinates":[[19.40074,53.67396],[19.40321,53.67532],[19.404,53.67592],[19.40573,53.67871],[19.40803,53.68138],[19.40904,53.68186],[19.41077,53.68216],[19.41114,53.68229],[19.41166,53.68318],[19.41273,53.68398],[19.41541,53.68566],[19.41628,53.68682]]}},{"type":"Feature","properties":{"numer":"521","klasa":"droga gĹ‚Ăłwna","kat":"wojewodzka"},"geometry":{"type":"LineString","coordinates":[[19.3885,53.6974],[19.39109,53.69583],[19.39439,53.69449],[19.41244,53.68832],[19.41628,53.68682]]}},{"type":"Feature","properties":{"numer":"1295N","klasa":"","kat":"powiatowa"},"geometry":{"type":"LineString","coordinates":[[19.41879,53.70835],[19.41899,53.70695],[19.41872,53.70627],[19.41814,53.70586],[19.41664,53.70531],[19.41326,53.70297],[19.40624,53.70119],[19.40173,53.70028],[19.3959,53.70035],[19.39123,53.69935],[19.39077,53.69911],[19.3885,53.6974]]}},{"type":"Feature","properties":{"numer":"1295N","klasa":"","kat":"powiatowa"},"geometry":{"type":"LineString","coordinates":[[19.41825,53.72498],[19.41859,53.72246],[19.4192,53.72015],[19.41926,53.71902],[19.4188,53.71665],[19.41848,53.71558],[19.41863,53.71157],[19.41882,53.71047],[19.41879,53.70835]]}},{"type":"Feature","properties":{"numer":"1295N","klasa":"","kat":"powiatowa"},"geometry":{"type":"LineString","coordinates":[[19.4183,53.7269],[19.41825,53.72498]]}},{"type":"Feature","properties":{"numer":"1295N","klasa":"","kat":"powiatowa"},"geometry":{"type":"LineString","coordinates":[[19.41688,53.74579],[19.41672,53.74508],[19.41677,53.74392],[19.41688,53.74359],[19.41721,53.74313],[19.4176,53.7404],[19.41775,53.73666],[19.41772,53.73347],[19.4179,53.73011],[19.41779,53.72912],[19.41825,53.7277],[19.4183,53.7269]]}},{"type":"Feature","properties":{"numer":"1295N","klasa":"","kat":"powiatowa"},"geometry":{"type":"LineString","coordinates":[[19.39658,53.75305],[19.41391,53.7485],[19.41688,53.74797],[19.41706,53.74781],[19.41711,53.74691],[19.41688,53.74579]]}},{"type":"Feature","properties":{"numer":"1311N","klasa":"","kat":"powiatowa"},"geometry":{"type":"LineString","coordinates":[[19.45605,53.79695],[19.45386,53.79554],[19.4516,53.79365],[19.45148,53.79297],[19.45184,53.79169],[19.45184,53.79111],[19.45157,53.78896],[19.44986,53.78564],[19.44897,53.78416],[19.4488,53.7836],[19.4488,53.78265],[19.44794,53.78237],[19.44745,53.78211],[19.4453,53.7802],[19.44259,53.77899],[19.44138,53.77857],[19.43983,53.77832],[19.43663,53.77801],[19.43592,53.77811],[19.43521,53.77831],[19.4331,53.77944],[19.43187,53.77976],[19.4312,53.77983],[19.42909,53.77979],[19.42728,53.77987],[19.4251,53.77978],[19.42276,53.78012],[19.42192,53.78017],[19.41917,53.77996],[19.41807,53.7798],[19.41459,53.7784],[19.41384,53.77822],[19.41252,53.77805],[19.41149,53.77805],[19.408,53.77842],[19.40465,53.77846],[19.4025,53.77859],[19.40177,53.77846],[19.39932,53.77763],[19.39752,53.77729],[19.39057,53.77734],[19.38864,53.77709],[19.38556,53.77655],[19.38299,53.77638],[19.38103,53.77611],[19.38025,53.77613],[19.37913,53.77633]]}},{"type":"Feature","properties":{"numer":"1297N","klasa":"","kat":"powiatowa"},"geometry":{"type":"LineString","coordinates":[[19.39705,53.65541],[19.39755,53.65649]]}},{"type":"Feature","properties":{"numer":"1297N","klasa":"","kat":"powiatowa"},"geometry":{"type":"LineString","coordinates":[[19.39758,53.65656],[19.39755,53.65649]]}},{"type":"Feature","properties":{"numer":"521","klasa":"droga gĹ‚Ăłwna","kat":"wojewodzka"},"geometry":{"type":"LineString","coordinates":[[19.35459,53.7142],[19.36781,53.70266],[19.36872,53.70202],[19.3695,53.70171],[19.374,53.7004],[19.38338,53.69805],[19.38419,53.69793],[19.38701,53.69786],[19.38761,53.69774],[19.3885,53.6974]]}},{"type":"Feature","properties":{"numer":"1307N","klasa":"droga zbiorcza","kat":"powiatowa"},"geometry":{"type":"LineString","coordinates":[[19.34771,53.71946],[19.35299,53.71964],[19.35422,53.71995],[19.36184,53.72233],[19.36328,53.72264],[19.36492,53.72279],[19.36682,53.72267],[19.36822,53.72233],[19.37154,53.72108],[19.37421,53.72029],[19.37676,53.71929],[19.37741,53.71924],[19.37865,53.71932],[19.37952,53.71941],[19.3832,53.72023],[19.38564,53.72058],[19.38722,53.72108],[19.38853,53.72107],[19.38903,53.72116],[19.3937,53.72317],[19.39681,53.72408],[19.39982,53.72437],[19.40603,53.72558],[19.41825,53.72498]]}},{"type":"Feature","properties":{"numer":"1295N","klasa":"","kat":"powiatowa"},"geometry":{"type":"LineString","coordinates":[[19.36918,53.76023],[19.36968,53.75975],[19.37124,53.75912],[19.37183,53.759],[19.37357,53.75883],[19.37402,53.7587],[19.37449,53.75836],[19.37521,53.75751],[19.37568,53.7572],[19.37833,53.75646],[19.38233,53.75566],[19.38521,53.75517],[19.38655,53.75504],[19.38802,53.75508],[19.3898,53.7548],[19.39658,53.75305]]}},{"type":"Feature","properties":{"numer":"515","klasa":"droga gĹ‚Ăłwna","kat":"wojewodzka"},"geometry":{"type":"LineString","coordinates":[[19.36918,53.76023],[19.3724,53.76559]]}},{"type":"Feature","properties":{"numer":"515","klasa":"droga gĹ‚Ăłwna","kat":"wojewodzka"},"geometry":{"type":"LineString","coordinates":[[19.37248,53.76572],[19.3724,53.76559]]}},{"type":"Feature","properties":{"numer":"515","klasa":"droga gĹ‚Ăłwna","kat":"wojewodzka"},"geometry":{"type":"LineString","coordinates":[[19.37248,53.76572],[19.37602,53.77164]]}},{"type":"Feature","properties":{"numer":"515","klasa":"droga gĹ‚Ăłwna","kat":"wojewodzka"},"geometry":{"type":"LineString","coordinates":[[19.37602,53.77164],[19.37786,53.7747],[19.37913,53.77633]]}},{"type":"Feature","properties":{"numer":"515","klasa":"droga gĹ‚Ăłwna","kat":"wojewodzka"},"geometry":{"type":"LineString","coordinates":[[19.37913,53.77633],[19.38122,53.77895],[19.38157,53.77955],[19.396779053339188,53.80892953704787]]}},{"type":"Feature","properties":{"numer":"1307N","klasa":"droga zbiorcza","kat":"powiatowa"},"geometry":{"type":"LineString","coordinates":[[19.4183,53.7269],[19.41911,53.72711],[19.42274,53.72763],[19.42544,53.72783],[19.42709,53.72819],[19.42763,53.7284],[19.42964,53.72965],[19.43207,53.73149],[19.43316,53.73218],[19.43624,53.7338],[19.43988,53.73527],[19.44064,53.73587],[19.44438,53.73932],[19.44902,53.74238],[19.45346,53.74473],[19.45387,53.74507],[19.45468,53.74605],[19.45828,53.74815],[19.45917,53.74851],[19.46236,53.74928],[19.463,53.74956],[19.46579,53.75122],[19.47003,53.75279],[19.47078,53.75272]]}},{"type":"Feature","properties":{"numer":"521","klasa":"droga gĹ‚Ăłwna","kat":"wojewodzka"},"geometry":{"type":"LineString","coordinates":[[19.45224,53.66916],[19.45268,53.66856],[19.45484,53.66682],[19.45578,53.66629],[19.45712,53.6657],[19.45899,53.665],[19.46239,53.66397],[19.46423060686353,53.663292148920604]]}},{"type":"Feature","properties":{"numer":"1307N","klasa":"droga zbiorcza","kat":"powiatowa"},"geometry":{"type":"LineString","coordinates":[[19.47078,53.75272],[19.47093,53.75267]]}},{"type":"Feature","properties":{"numer":"1307N","klasa":"droga zbiorcza","kat":"powiatowa"},"geometry":{"type":"LineString","coordinates":[[19.47093,53.75267],[19.47199,53.75213],[19.47371,53.75075],[19.47437,53.75055],[19.4748,53.75058],[19.47686,53.75119],[19.48036,53.75188],[19.48328,53.75279],[19.4871,53.75504],[19.48995,53.75644],[19.49746,53.75781],[19.50053,53.75905],[19.50239,53.76006],[19.502695271178656,53.76031716254019]]}},{"type":"Feature","properties":{"numer":"3223G","klasa":"droga zbiorcza","kat":"powiatowa"},"geometry":{"type":"LineString","coordinates":[[19.22295939874829,53.699360040895556],[19.22296,53.69936]]}},{"type":"Feature","properties":{"numer":"1200N","klasa":"","kat":"powiatowa"},"geometry":{"type":"LineString","coordinates":[[19.33151,53.66008],[19.33463,53.65795]]}},{"type":"Feature","properties":{"numer":"1289N","klasa":"","kat":"powiatowa"},"geometry":{"type":"LineString","coordinates":[[19.33463,53.65795],[19.33684,53.65848],[19.33983,53.65955],[19.34051,53.65987],[19.34066,53.66013],[19.34057,53.66097],[19.34078,53.66219],[19.34075,53.66435],[19.34188,53.66523],[19.34379,53.66601],[19.34674,53.66821],[19.35013,53.67056],[19.35198,53.67163],[19.35563,53.67407],[19.35532,53.67573],[19.3558,53.6776],[19.3566,53.67915],[19.35711,53.68138],[19.35718,53.68249],[19.35701,53.68307],[19.35584,53.68504],[19.35534,53.68617],[19.35209,53.68747],[19.3483,53.6894],[19.34457,53.69017],[19.3437,53.69104],[19.34185,53.69235],[19.3403,53.69328],[19.33801,53.69448],[19.33677,53.69592],[19.33416,53.69783],[19.33313,53.699]]}},{"type":"Feature","properties":{"numer":"2829N","klasa":"","kat":"powiatowa"},"geometry":{"type":"LineString","coordinates":[[19.33313,53.699],[19.33262,53.69988],[19.33221,53.7009],[19.33175,53.70318],[19.33144,53.70408],[19.33114,53.70453],[19.33014,53.70528],[19.32989,53.70564],[19.32963,53.7065],[19.32963,53.70754],[19.32941,53.70785]]}},{"type":"Feature","properties":{"numer":"1910N","klasa":"droga zbiorcza","kat":"powiatowa"},"geometry":{"type":"LineString","coordinates":[[19.33108,53.70926],[19.32941,53.70785]]}},{"type":"Feature","properties":{"numer":"1910N","klasa":"droga zbiorcza","kat":"powiatowa"},"geometry":{"type":"LineString","coordinates":[[19.33108,53.70926],[19.33239,53.7104]]}},{"type":"Feature","properties":{"numer":"1910N","klasa":"droga zbiorcza","kat":"powiatowa"},"geometry":{"type":"LineString","coordinates":[[19.299191334015646,53.65423538134377],[19.29702,53.66017],[19.29668,53.66101],[19.29639,53.66141],[19.29141,53.66449],[19.28884,53.66582],[19.28553,53.66728],[19.27954,53.66961],[19.27902,53.67015],[19.279,53.67074]]}},{"type":"Feature","properties":{"numer":"1281N","klasa":"","kat":"powiatowa"},"geometry":{"type":"LineString","coordinates":[[19.26766978549975,53.66482797511796],[19.27114,53.66636],[19.279,53.67074]]}},{"type":"Feature","properties":{"numer":"1200N","klasa":"","kat":"powiatowa"},"geometry":{"type":"LineString","coordinates":[[19.28768,53.67462],[19.30015,53.67378],[19.30455,53.67316],[19.30547,53.6732],[19.30685,53.67342],[19.30774,53.67345],[19.3108,53.67297],[19.31339,53.67158],[19.31536,53.67114],[19.31707,53.67031],[19.31814,53.67015],[19.31913,53.6697],[19.31977,53.66967],[19.32085,53.66778],[19.32154,53.66713],[19.32417,53.66518],[19.33151,53.66008]]}},{"type":"Feature","properties":{"numer":"1910N","klasa":"droga zbiorcza","kat":"powiatowa"},"geometry":{"type":"LineString","coordinates":[[19.279,53.67074],[19.27939,53.67137],[19.28112,53.67523]]}},{"type":"Feature","properties":{"numer":"1200N","klasa":"","kat":"powiatowa"},"geometry":{"type":"LineString","coordinates":[[19.28447,53.67487],[19.28768,53.67462]]}},{"type":"Feature","properties":{"numer":"1200N","klasa":"","kat":"powiatowa"},"geometry":{"type":"LineString","coordinates":[[19.28112,53.67523],[19.28447,53.67487]]}},{"type":"Feature","properties":{"numer":"1200N","klasa":"","kat":"powiatowa"},"geometry":{"type":"LineString","coordinates":[[19.25687,53.68859],[19.25778,53.68796],[19.26099,53.68622],[19.26124,53.68424],[19.2627,53.6824],[19.26463,53.68155],[19.26613,53.68116],[19.27286,53.67848],[19.2793,53.67548],[19.28112,53.67523]]}},{"type":"Feature","properties":{"numer":"1910N","klasa":"droga zbiorcza","kat":"powiatowa"},"geometry":{"type":"LineString","coordinates":[[19.28112,53.67523],[19.28138,53.67587],[19.2821,53.677],[19.28249,53.67862],[19.28315,53.67925],[19.28498,53.68024],[19.29534,53.68431],[19.30228,53.68843],[19.30513,53.69051],[19.30878,53.6937],[19.3123,53.69717],[19.3273,53.7061],[19.32941,53.70785]]}},{"type":"Feature","properties":{"numer":"1277N","klasa":"","kat":"powiatowa"},"geometry":{"type":"LineString","coordinates":[[19.22957,53.66719],[19.22615,53.66461],[19.22499,53.66435],[19.22408,53.66431],[19.22242,53.66464],[19.2220981975421,53.66478481110605]]}},{"type":"Feature","properties":{"numer":"144006N","klasa":"droga lokalna","kat":"powiatowa"},"geometry":{"type":"LineString","coordinates":[[19.24173,53.66774],[19.2417606947995,53.667722734175285]]}},{"type":"Feature","properties":{"numer":"143006N","klasa":"droga dojazdowa","kat":"powiatowa"},"geometry":{"type":"LineString","coordinates":[[19.23843,53.66967],[19.24173,53.66774]]}},{"type":"Feature","properties":{"numer":"143006N","klasa":"droga dojazdowa","kat":"powiatowa"},"geometry":{"type":"LineString","coordinates":[[19.23812,53.66986],[19.23843,53.66967]]}},{"type":"Feature","properties":{"numer":"143006N","klasa":"droga dojazdowa","kat":"powiatowa"},"geometry":{"type":"LineString","coordinates":[[19.23354,53.67157],[19.23676,53.67066],[19.23812,53.66986]]}},{"type":"Feature","properties":{"numer":"1277N","klasa":"","kat":"powiatowa"},"geometry":{"type":"LineString","coordinates":[[19.22957,53.66719],[19.2308,53.66812],[19.23189,53.66966],[19.2328,53.67033],[19.23309,53.67069],[19.23369,53.67195],[19.23384,53.67454],[19.23399,53.67504],[19.2342,53.67532],[19.23697,53.67682],[19.24038,53.67841],[19.24682,53.68059],[19.24974,53.68141],[19.251,53.68243],[19.25269,53.68482],[19.25349,53.68613],[19.25467,53.68749],[19.25524,53.68786],[19.25687,53.68859]]}},{"type":"Feature","properties":{"numer":"1200N","klasa":"","kat":"powiatowa"},"geometry":{"type":"LineString","coordinates":[[19.25355,53.69038],[19.25429,53.68997],[19.2549,53.68944],[19.2561,53.68902],[19.25687,53.68859]]}},{"type":"Feature","properties":{"numer":"1277N","klasa":"","kat":"powiatowa"},"geometry":{"type":"LineString","coordinates":[[19.26065,53.69614],[19.26056,53.69615],[19.25919,53.69474],[19.25762,53.6924],[19.25715,53.69186],[19.25676,53.69169],[19.25549,53.69152],[19.25479,53.69129],[19.25355,53.69038]]}},{"type":"Feature","properties":{"numer":"1910N","klasa":"droga zbiorcza","kat":"powiatowa"},"geometry":{"type":"LineString","coordinates":[[19.33239,53.7104],[19.33312,53.71104]]}},{"type":"Feature","properties":{"numer":"2872N","klasa":"droga zbiorcza","kat":"powiatowa"},"geometry":{"type":"LineString","coordinates":[[19.3294,53.71151],[19.33031,53.7121],[19.33061,53.71215],[19.33117,53.71184],[19.33312,53.71104]]}},{"type":"Feature","properties":{"numer":"143531N","klasa":"droga dojazdowa","kat":"powiatowa"},"geometry":{"type":"LineString","coordinates":[[19.3327,53.71338],[19.33236,53.71337]]}},{"type":"Feature","properties":{"numer":"143531N","klasa":"droga dojazdowa","kat":"powiatowa"},"geometry":{"type":"LineString","coordinates":[[19.33376,53.7134],[19.3327,53.71338]]}},{"type":"Feature","properties":{"numer":"143531N","klasa":"droga dojazdowa","kat":"powiatowa"},"geometry":{"type":"LineString","coordinates":[[19.33508,53.71343],[19.33376,53.7134]]}},{"type":"Feature","properties":{"numer":"143531N","klasa":"droga dojazdowa","kat":"powiatowa"},"geometry":{"type":"LineString","coordinates":[[19.33533,53.71344],[19.33508,53.71343]]}},{"type":"Feature","properties":{"numer":"143545N","klasa":"droga dojazdowa","kat":"powiatowa"},"geometry":{"type":"LineString","coordinates":[[19.33236,53.71337],[19.33236,53.71463]]}},{"type":"Feature","properties":{"numer":"1910N","klasa":"droga zbiorcza","kat":"powiatowa"},"geometry":{"type":"LineString","coordinates":[[19.33312,53.71104],[19.3348,53.71249],[19.33526,53.71309],[19.33535,53.71703]]}},{"type":"Feature","properties":{"numer":"521","klasa":"droga gĹ‚Ăłwna","kat":"wojewodzka"},"geometry":{"type":"LineString","coordinates":[[19.3545,53.71427],[19.35459,53.7142]]}},{"type":"Feature","properties":{"numer":"143545N","klasa":"droga dojazdowa","kat":"powiatowa"},"geometry":{"type":"LineString","coordinates":[[19.33236,53.71463],[19.33237,53.71531]]}},{"type":"Feature","properties":{"numer":"143545N","klasa":"droga dojazdowa","kat":"powiatowa"},"geometry":{"type":"LineString","coordinates":[[19.33237,53.71531],[19.33237,53.71546]]}},{"type":"Feature","properties":{"numer":"143545N","klasa":"droga dojazdowa","kat":"powiatowa"},"geometry":{"type":"LineString","coordinates":[[19.33237,53.71546],[19.33238,53.71599],[19.33217,53.71663]]}},{"type":"Feature","properties":{"numer":"","klasa":"droga dojazdowa","kat":"gminna"},"geometry":{"type":"LineString","coordinates":[[19.33347,53.71683],[19.33244,53.71672],[19.33217,53.71663]]}},{"type":"Feature","properties":{"numer":"521","klasa":"droga gĹ‚Ăłwna","kat":"wojewodzka"},"geometry":{"type":"LineString","coordinates":[[19.34771,53.71946],[19.34784,53.71923],[19.3545,53.71427]]}},{"type":"Feature","properties":{"numer":"","klasa":"droga dojazdowa","kat":"gminna"},"geometry":{"type":"LineString","coordinates":[[19.33535,53.71703],[19.33347,53.71683]]}},{"type":"Feature","properties":{"numer":"2821N","klasa":"","kat":"powiatowa"},"geometry":{"type":"LineString","coordinates":[[19.33535,53.71703],[19.33669,53.71728],[19.3369,53.71751]]}},{"type":"Feature","properties":{"numer":"2830N","klasa":"","kat":"powiatowa"},"geometry":{"type":"LineString","coordinates":[[19.3369,53.71751],[19.33657,53.71868]]}},{"type":"Feature","properties":{"numer":"2830N","klasa":"","kat":"powiatowa"},"geometry":{"type":"LineString","coordinates":[[19.33657,53.71868],[19.33652,53.71886]]}},{"type":"Feature","properties":{"numer":"143525N","klasa":"droga dojazdowa","kat":"powiatowa"},"geometry":{"type":"LineString","coordinates":[[19.34164,53.7191],[19.34264,53.71921]]}},{"type":"Feature","properties":{"numer":"","klasa":"droga dojazdowa","kat":"gminna"},"geometry":{"type":"LineString","coordinates":[[19.33849,53.71946],[19.33652,53.71886]]}},{"type":"Feature","properties":{"numer":"143525N","klasa":"droga dojazdowa","kat":"powiatowa"},"geometry":{"type":"LineString","coordinates":[[19.34264,53.71921],[19.34444,53.71938]]}},{"type":"Feature","properties":{"numer":"","klasa":"droga dojazdowa","kat":"gminna"},"geometry":{"type":"LineString","coordinates":[[19.34002,53.71949],[19.34164,53.7191]]}},{"type":"Feature","properties":{"numer":"143525N","klasa":"droga dojazdowa","kat":"powiatowa"},"geometry":{"type":"LineString","coordinates":[[19.34454,53.71939],[19.34593,53.71948]]}},{"type":"Feature","properties":{"numer":"143525N","klasa":"","kat":"powiatowa"},"geometry":{"type":"LineString","coordinates":[[19.34719,53.71944],[19.34771,53.71946]]}},{"type":"Feature","properties":{"numer":"143525N","klasa":"droga dojazdowa","kat":"powiatowa"},"geometry":{"type":"LineString","coordinates":[[19.3467,53.71946],[19.34719,53.71944]]}},{"type":"Feature","properties":{"numer":"143525N","klasa":"droga dojazdowa","kat":"powiatowa"},"geometry":{"type":"LineString","coordinates":[[19.34603,53.71948],[19.3467,53.71946]]}},{"type":"Feature","properties":{"numer":"143525N","klasa":"droga dojazdowa","kat":"powiatowa"},"geometry":{"type":"LineString","coordinates":[[19.34593,53.71948],[19.34603,53.71948]]}},{"type":"Feature","properties":{"numer":"","klasa":"droga dojazdowa","kat":"gminna"},"geometry":{"type":"LineString","coordinates":[[19.33849,53.71946],[19.33929,53.71951]]}},{"type":"Feature","properties":{"numer":"","klasa":"droga dojazdowa","kat":"gminna"},"geometry":{"type":"LineString","coordinates":[[19.33929,53.71951],[19.34002,53.71949]]}},{"type":"Feature","properties":{"numer":"143543N","klasa":"droga dojazdowa","kat":"powiatowa"},"geometry":{"type":"LineString","coordinates":[[19.33751,53.72058],[19.33849,53.71946]]}},{"type":"Feature","properties":{"numer":"1277N","klasa":"","kat":"powiatowa"},"geometry":{"type":"LineString","coordinates":[[19.28428,53.69934],[19.28298,53.69871],[19.28248,53.69831],[19.27933,53.69379],[19.27877,53.69346],[19.2765,53.6927],[19.27142,53.69329],[19.26844,53.69317],[19.26658,53.69351],[19.26613,53.69366],[19.26105,53.69611],[19.26065,53.69614]]}},{"type":"Feature","properties":{"numer":"1277N","klasa":"","kat":"powiatowa"},"geometry":{"type":"LineString","coordinates":[[19.32941,53.70785],[19.32802,53.70857],[19.32774,53.70892],[19.32775,53.70997],[19.32878,53.71071],[19.3288,53.71092],[19.32864,53.71106],[19.32542,53.71275],[19.32447,53.71293],[19.32325,53.71385],[19.32156,53.71466],[19.32115,53.71469],[19.3203,53.71447],[19.31851,53.7142],[19.31736,53.71385],[19.31277,53.71182],[19.30756,53.71068],[19.30496,53.70996],[19.30232,53.70909],[19.30186,53.70884],[19.30088,53.70772],[19.30031,53.70732],[19.29901,53.70685],[19.29637,53.70639],[19.29215,53.70431],[19.29172,53.70399],[19.29106,53.70301],[19.29023,53.70236],[19.28609,53.70019],[19.28428,53.69934]]}},{"type":"Feature","properties":{"numer":"521","klasa":"droga gĹ‚Ăłwna","kat":"wojewodzka"},"geometry":{"type":"LineString","coordinates":[[19.30778,53.73642],[19.30744,53.73641]]}},{"type":"Feature","properties":{"numer":"521","klasa":"droga gĹ‚Ăłwna","kat":"wojewodzka"},"geometry":{"type":"LineString","coordinates":[[19.3183,53.73754],[19.31406,53.7374],[19.31076,53.7367],[19.30778,53.73642]]}},{"type":"Feature","properties":{"numer":"521","klasa":"droga gĹ‚Ăłwna","kat":"wojewodzka"},"geometry":{"type":"LineString","coordinates":[[19.31898,53.73746],[19.3183,53.73754]]}},{"type":"Feature","properties":{"numer":"521","klasa":"droga gĹ‚Ăłwna","kat":"wojewodzka"},"geometry":{"type":"LineString","coordinates":[[19.30744,53.73641],[19.30611,53.73643],[19.30252,53.73698],[19.29904,53.73722],[19.29114,53.73735],[19.29007,53.73767],[19.28737,53.73926],[19.28619,53.73974],[19.28617,53.73974]]}},{"type":"Feature","properties":{"numer":"1275N","klasa":"","kat":"powiatowa"},"geometry":{"type":"LineString","coordinates":[[19.31784,53.73878],[19.3183,53.73754]]}},{"type":"Feature","properties":{"numer":"1275N","klasa":"","kat":"powiatowa"},"geometry":{"type":"LineString","coordinates":[[19.31496,53.7432],[19.31672,53.7415],[19.31784,53.73878]]}},{"type":"Feature","properties":{"numer":"1275N","klasa":"","kat":"powiatowa"},"geometry":{"type":"LineString","coordinates":[[19.31471,53.74343],[19.31496,53.7432]]}},{"type":"Feature","properties":{"numer":"1275N","klasa":"","kat":"powiatowa"},"geometry":{"type":"LineString","coordinates":[[19.31471,53.74343],[19.31013,53.74771],[19.3072,53.75059],[19.30707,53.7509],[19.30753,53.75341],[19.30742,53.7551],[19.30761,53.75601],[19.30737,53.75672],[19.30628,53.75809],[19.30552,53.75864],[19.30435,53.75924],[19.30138,53.76053],[19.30026,53.76181],[19.29946471859465,53.76227722782564]]}},{"type":"Feature","properties":{"numer":"1200N","klasa":"","kat":"powiatowa"},"geometry":{"type":"LineString","coordinates":[[19.25355,53.69038],[19.23979,53.69678],[19.2347,53.69839],[19.23381,53.69861],[19.22958,53.6992],[19.22807,53.69931],[19.22296,53.69936]]}},{"type":"Feature","properties":{"numer":"521","klasa":"droga gĹ‚Ăłwna","kat":"wojewodzka"},"geometry":{"type":"LineString","coordinates":[[19.28609615151877,53.73975177355786],[19.28617,53.73974]]}},{"type":"Feature","properties":{"numer":"143544N","klasa":"droga dojazdowa","kat":"powiatowa"},"geometry":{"type":"LineString","coordinates":[[19.33611,53.72017],[19.33751,53.72058]]}},{"type":"Feature","properties":{"numer":"","klasa":"","kat":"gminna"},"geometry":{"type":"LineString","coordinates":[[19.33652,53.71886],[19.33604,53.72026],[19.33105,53.72477],[19.32506,53.73374],[19.32388,53.73485],[19.32125,53.73648],[19.32014,53.7371],[19.31898,53.73746]]}},{"type":"Feature","properties":{"numer":"515","klasa":"droga gĹ‚Ăłwna","kat":"wojewodzka"},"geometry":{"type":"LineString","coordinates":[[19.34771,53.71946],[19.34821,53.72055],[19.34902,53.72191],[19.35043,53.72355],[19.35075,53.72419],[19.35144,53.72654],[19.35116,53.7299],[19.35283,53.73242],[19.35343,53.73362],[19.35421,53.73696],[19.3544,53.73858],[19.35344,53.74177],[19.35281,53.74329],[19.35283,53.74365]]}},{"type":"Feature","properties":{"numer":"521","klasa":"droga gĹ‚Ăłwna","kat":"wojewodzka"},"geometry":{"type":"LineString","coordinates":[[19.35283,53.74365],[19.34434,53.74223],[19.33429,53.73994],[19.32398,53.73834],[19.31956,53.73778],[19.31923,53.73768],[19.31898,53.73746]]}},{"type":"Feature","properties":{"numer":"515","klasa":"droga gĹ‚Ăłwna","kat":"wojewodzka"},"geometry":{"type":"LineString","coordinates":[[19.35283,53.74365],[19.35317,53.74411],[19.35891,53.74966],[19.3612,53.75238],[19.36918,53.76023]]}},{"type":"Feature","properties":{"numer":"520","klasa":"droga gĹ‚Ăłwna","kat":"wojewodzka"},"geometry":{"type":"LineString","coordinates":[[19.30406126263761,53.783568827229836],[19.30962,53.78299],[19.31037,53.78302],[19.31429,53.78387],[19.3169,53.7848],[19.31797,53.7851],[19.31866,53.78518],[19.32135,53.78499],[19.32474,53.78514],[19.329,53.78494],[19.33125,53.78518],[19.33769,53.78496],[19.34317,53.78438],[19.3446,53.78429],[19.34901,53.78373],[19.34988,53.78353],[19.35036,53.78323],[19.35146,53.78236],[19.35335,53.78034],[19.35649,53.77796],[19.35718,53.77754],[19.35808,53.77737],[19.36285,53.77697],[19.36544,53.77603],[19.36626,53.77585],[19.3688,53.77599],[19.36973,53.77592],[19.37002,53.77575],[19.37183,53.77376],[19.37287,53.77289],[19.37352,53.77255],[19.37602,53.77164]]}}]}