{"type":"FeatureCollection","features":[{"type":"Feature","properties":{"numer":"1735N","klasa":"droga zbiorcza","kat":"powiatowa"},"geometry":{"type":"LineString","coordinates":[[21.37883,54.06627],[21.37874372911848,54.06603275507582]]}},{"type":"Feature","properties":{"numer":"208053N","klasa":"droga zbiorcza","kat":"powiatowa"},"geometry":{"type":"LineString","coordinates":[[21.37886,54.06655],[21.37883,54.06627]]}},{"type":"Feature","properties":{"numer":"1733N","klasa":"droga zbiorcza","kat":"powiatowa"},"geometry":{"type":"LineString","coordinates":[[21.39411,54.0613],[21.39412045252127,54.06129553028625]]}},{"type":"Feature","properties":{"numer":"594","klasa":"droga zbiorcza","kat":"wojewodzka"},"geometry":{"type":"LineString","coordinates":[[21.351076694489123,54.07773540088974],[21.35843,54.08148]]}},{"type":"Feature","properties":{"numer":"594","klasa":"droga zbiorcza","kat":"wojewodzka"},"geometry":{"type":"LineString","coordinates":[[21.35883,54.08186],[21.35843,54.08148]]}},{"type":"Feature","properties":{"numer":"208104N","klasa":"","kat":"powiatowa"},"geometry":{"type":"LineString","coordinates":[[21.35903,54.08193],[21.35883,54.08186]]}},{"type":"Feature","properties":{"numer":"591","klasa":"droga gĹ‚Ăłwna","kat":"wojewodzka"},"geometry":{"type":"LineString","coordinates":[[21.37428,54.07097],[21.37403,54.07074],[21.37353,54.07051],[21.37295,54.07039],[21.37171,54.07029],[21.37104,54.07012],[21.36804,54.06864],[21.36055,54.066],[21.356227220812666,54.0643862401147]]}},{"type":"Feature","properties":{"numer":"208053N","klasa":"droga zbiorcza","kat":"powiatowa"},"geometry":{"type":"LineString","coordinates":[[21.37884,54.06676],[21.37886,54.06655]]}},{"type":"Feature","properties":{"numer":"208124N","klasa":"droga zbiorcza","kat":"powiatowa"},"geometry":{"type":"LineString","coordinates":[[21.38065,54.06708],[21.38279,54.06646]]}},{"type":"Feature","properties":{"numer":"208053N","klasa":"droga zbiorcza","kat":"powiatowa"},"geometry":{"type":"LineString","coordinates":[[21.37842,54.06744],[21.37884,54.06676]]}},{"type":"Feature","properties":{"numer":"208124N","klasa":"droga zbiorcza","kat":"powiatowa"},"geometry":{"type":"LineString","coordinates":[[21.38041,54.06715],[21.38065,54.06708]]}},{"type":"Feature","properties":{"numer":"208124N","klasa":"droga zbiorcza","kat":"powiatowa"},"geometry":{"type":"LineString","coordinates":[[21.37964,54.06739],[21.38041,54.06715]]}},{"type":"Feature","properties":{"numer":"208124N","klasa":"droga zbiorcza","kat":"powiatowa"},"geometry":{"type":"LineString","coordinates":[[21.37876,54.06767],[21.37964,54.06739]]}},{"type":"Feature","properties":{"numer":"208053N","klasa":"droga zbiorcza","kat":"powiatowa"},"geometry":{"type":"LineString","coordinates":[[21.37808,54.06798],[21.37842,54.06744]]}},{"type":"Feature","properties":{"numer":"208124N","klasa":"droga zbiorcza","kat":"powiatowa"},"geometry":{"type":"LineString","coordinates":[[21.37808,54.06798],[21.37876,54.06767]]}},{"type":"Feature","properties":{"numer":"208124N","klasa":"droga zbiorcza","kat":"powiatowa"},"geometry":{"type":"LineString","coordinates":[[21.37798,54.06805],[21.37808,54.06798]]}},{"type":"Feature","properties":{"numer":"208124N","klasa":"droga zbiorcza","kat":"powiatowa"},"geometry":{"type":"LineString","coordinates":[[21.37758,54.06838],[21.37798,54.06805]]}},{"type":"Feature","properties":{"numer":"208124N","klasa":"droga zbiorcza","kat":"powiatowa"},"geometry":{"type":"LineString","coordinates":[[21.37725,54.06862],[21.37758,54.06838]]}},{"type":"Feature","properties":{"numer":"208124N","klasa":"droga zbiorcza","kat":"powiatowa"},"geometry":{"type":"LineString","coordinates":[[21.3767,54.06904],[21.37725,54.06862]]}},{"type":"Feature","properties":{"numer":"208124N","klasa":"droga zbiorcza","kat":"powiatowa"},"geometry":{"type":"LineString","coordinates":[[21.37613,54.06947],[21.3767,54.06904]]}},{"type":"Feature","properties":{"numer":"208124N","klasa":"droga zbiorcza","kat":"powiatowa"},"geometry":{"type":"LineString","coordinates":[[21.37462,54.07083],[21.37524,54.07015],[21.37613,54.06947]]}},{"type":"Feature","properties":{"numer":"208124N","klasa":"droga zbiorcza","kat":"powiatowa"},"geometry":{"type":"LineString","coordinates":[[21.37428,54.07097],[21.37462,54.07083]]}},{"type":"Feature","properties":{"numer":"591","klasa":"droga gĹ‚Ăłwna","kat":"wojewodzka"},"geometry":{"type":"LineString","coordinates":[[21.37497,54.07281],[21.37453,54.0722],[21.37428,54.07097]]}},{"type":"Feature","properties":{"numer":"591","klasa":"droga gĹ‚Ăłwna","kat":"wojewodzka"},"geometry":{"type":"LineString","coordinates":[[21.37513,54.07298],[21.37497,54.07281]]}},{"type":"Feature","properties":{"numer":"591","klasa":"droga gĹ‚Ăłwna","kat":"wojewodzka"},"geometry":{"type":"LineString","coordinates":[[21.37652,54.07385],[21.37611,54.07384],[21.37586,54.07376],[21.37513,54.07298]]}},{"type":"Feature","properties":{"numer":"591","klasa":"droga gĹ‚Ăłwna","kat":"wojewodzka"},"geometry":{"type":"LineString","coordinates":[[21.37652,54.07385],[21.37773,54.07375],[21.37839,54.07388]]}},{"type":"Feature","properties":{"numer":"591","klasa":"droga gĹ‚Ăłwna","kat":"wojewodzka"},"geometry":{"type":"LineString","coordinates":[[21.37839,54.07388],[21.37864,54.07408],[21.37912,54.07504]]}},{"type":"Feature","properties":{"numer":"591","klasa":"droga gĹ‚Ăłwna","kat":"wojewodzka"},"geometry":{"type":"LineString","coordinates":[[21.37923,54.07534],[21.37912,54.07504]]}},{"type":"Feature","properties":{"numer":"591,592","klasa":"droga gĹ‚Ăłwna","kat":"gminna"},"geometry":{"type":"LineString","coordinates":[[21.37942,54.07583],[21.37923,54.07534]]}},{"type":"Feature","properties":{"numer":"592","klasa":"droga gĹ‚Ăłwna","kat":"wojewodzka"},"geometry":{"type":"LineString","coordinates":[[21.38612,54.07856],[21.399997294071447,54.07626702197787]]}},{"type":"Feature","properties":{"numer":"592","klasa":"droga gĹ‚Ăłwna","kat":"wojewodzka"},"geometry":{"type":"LineString","coordinates":[[21.37523,54.07643],[21.37604,54.0761],[21.37923,54.07534]]}},{"type":"Feature","properties":{"numer":"592","klasa":"droga gĹ‚Ăłwna","kat":"wojewodzka"},"geometry":{"type":"LineString","coordinates":[[21.37523,54.07643],[21.37466,54.07647]]}},{"type":"Feature","properties":{"numer":"591,592","klasa":"droga gĹ‚Ăłwna","kat":"gminna"},"geometry":{"type":"LineString","coordinates":[[21.38181,54.07835],[21.3812,54.07789],[21.38001,54.07667],[21.37942,54.07583]]}},{"type":"Feature","properties":{"numer":"208080N","klasa":"droga lokalna","kat":"powiatowa"},"geometry":{"type":"LineString","coordinates":[[21.37487,54.07758],[21.37499,54.077]]}},{"type":"Feature","properties":{"numer":"208080N","klasa":"droga lokalna","kat":"powiatowa"},"geometry":{"type":"LineString","coordinates":[[21.374,54.07815],[21.37474,54.07776],[21.37487,54.07758]]}},{"type":"Feature","properties":{"numer":"208080N","klasa":"droga lokalna","kat":"powiatowa"},"geometry":{"type":"LineString","coordinates":[[21.37289,54.07849],[21.374,54.07815]]}},{"type":"Feature","properties":{"numer":"208080N","klasa":"droga lokalna","kat":"powiatowa"},"geometry":{"type":"LineString","coordinates":[[21.37252,54.07859],[21.37289,54.07849]]}},{"type":"Feature","properties":{"numer":"591,592","klasa":"droga gĹ‚Ăłwna","kat":"gminna"},"geometry":{"type":"LineString","coordinates":[[21.38272,54.07881],[21.38181,54.07835]]}},{"type":"Feature","properties":{"numer":"208080N","klasa":"droga lokalna","kat":"powiatowa"},"geometry":{"type":"LineString","coordinates":[[21.37237,54.07863],[21.37252,54.07859]]}},{"type":"Feature","properties":{"numer":"592","klasa":"droga gĹ‚Ăłwna","kat":"wojewodzka"},"geometry":{"type":"LineString","coordinates":[[21.38399,54.0788],[21.38476,54.07877],[21.38612,54.07856]]}},{"type":"Feature","properties":{"numer":"208080N","klasa":"droga lokalna","kat":"powiatowa"},"geometry":{"type":"LineString","coordinates":[[21.37196,54.07876],[21.37237,54.07863]]}},{"type":"Feature","properties":{"numer":"592","klasa":"droga gĹ‚Ăłwna","kat":"wojewodzka"},"geometry":{"type":"LineString","coordinates":[[21.38289,54.07888],[21.38399,54.0788]]}},{"type":"Feature","properties":{"numer":"591,592","klasa":"droga zbiorcza","kat":"powiatowa"},"geometry":{"type":"LineString","coordinates":[[21.38289,54.07888],[21.38272,54.07881]]}},{"type":"Feature","properties":{"numer":"592","klasa":"droga gĹ‚Ăłwna","kat":"wojewodzka"},"geometry":{"type":"LineString","coordinates":[[21.35947,54.08162],[21.3612,54.08097],[21.3636,54.07968],[21.37116,54.07675],[21.37244,54.07614],[21.37294,54.07609],[21.37329,54.07617],[21.37379,54.07644],[21.37466,54.07647]]}},{"type":"Feature","properties":{"numer":"208080N","klasa":"droga lokalna","kat":"powiatowa"},"geometry":{"type":"LineString","coordinates":[[21.37129,54.07896],[21.37196,54.07876]]}},{"type":"Feature","properties":{"numer":"208080N","klasa":"droga lokalna","kat":"powiatowa"},"geometry":{"type":"LineString","coordinates":[[21.37118,54.079],[21.37129,54.07896]]}},{"type":"Feature","properties":{"numer":"208080N","klasa":"droga lokalna","kat":"powiatowa"},"geometry":{"type":"LineString","coordinates":[[21.37104,54.07904],[21.37118,54.079]]}},{"type":"Feature","properties":{"numer":"208080N","klasa":"droga lokalna","kat":"powiatowa"},"geometry":{"type":"LineString","coordinates":[[21.37061,54.07918],[21.37104,54.07904]]}},{"type":"Feature","properties":{"numer":"591","klasa":"droga zbiorcza","kat":"wojewodzka"},"geometry":{"type":"LineString","coordinates":[[21.38321,54.07936],[21.38289,54.07888]]}},{"type":"Feature","properties":{"numer":"208080N","klasa":"droga lokalna","kat":"powiatowa"},"geometry":{"type":"LineString","coordinates":[[21.36956,54.07944],[21.37061,54.07918]]}},{"type":"Feature","properties":{"numer":"208080N","klasa":"droga lokalna","kat":"powiatowa"},"geometry":{"type":"LineString","coordinates":[[21.36904,54.07954],[21.36956,54.07944]]}},{"type":"Feature","properties":{"numer":"208080N","klasa":"droga lokalna","kat":"powiatowa"},"geometry":{"type":"LineString","coordinates":[[21.36831,54.07968],[21.36904,54.07954]]}},{"type":"Feature","properties":{"numer":"208080N","klasa":"droga lokalna","kat":"powiatowa"},"geometry":{"type":"LineString","coordinates":[[21.36471,54.08034],[21.36831,54.07968]]}},{"type":"Feature","properties":{"numer":"208134N","klasa":"droga lokalna","kat":"powiatowa"},"geometry":{"type":"LineString","coordinates":[[21.38425,54.08032],[21.38405,54.08037]]}},{"type":"Feature","properties":{"numer":"208080N","klasa":"droga lokalna","kat":"powiatowa"},"geometry":{"type":"LineString","coordinates":[[21.36412,54.08044],[21.36471,54.08034]]}},{"type":"Feature","properties":{"numer":"208134N","klasa":"droga lokalna","kat":"powiatowa"},"geometry":{"type":"LineString","coordinates":[[21.38405,54.08037],[21.38298,54.08056]]}},{"type":"Feature","properties":{"numer":"208080N","klasa":"droga lokalna","kat":"powiatowa"},"geometry":{"type":"LineString","coordinates":[[21.36297,54.08064],[21.36412,54.08044]]}},{"type":"Feature","properties":{"numer":"208080N","klasa":"droga lokalna","kat":"powiatowa"},"geometry":{"type":"LineString","coordinates":[[21.3619,54.08059],[21.36235,54.08074],[21.36297,54.08064]]}},{"type":"Feature","properties":{"numer":"208134N","klasa":"droga lokalna","kat":"powiatowa"},"geometry":{"type":"LineString","coordinates":[[21.38298,54.08056],[21.38208,54.0808]]}},{"type":"Feature","properties":{"numer":"208134N","klasa":"droga lokalna","kat":"powiatowa"},"geometry":{"type":"LineString","coordinates":[[21.38208,54.0808],[21.38084,54.08108]]}},{"type":"Feature","properties":{"numer":"208134N","klasa":"droga lokalna","kat":"powiatowa"},"geometry":{"type":"LineString","coordinates":[[21.38084,54.08108],[21.37939,54.08133]]}},{"type":"Feature","properties":{"numer":"591","klasa":"droga zbiorcza","kat":"wojewodzka"},"geometry":{"type":"LineString","coordinates":[[21.38901,54.08358],[21.38479,54.0805],[21.38425,54.08032],[21.38395,54.07992],[21.38321,54.07936]]}},{"type":"Feature","properties":{"numer":"208134N","klasa":"droga lokalna","kat":"powiatowa"},"geometry":{"type":"LineString","coordinates":[[21.37939,54.08133],[21.3772,54.08171]]}},{"type":"Feature","properties":{"numer":"208109N","klasa":"droga lokalna","kat":"powiatowa"},"geometry":{"type":"LineString","coordinates":[[21.3772,54.08171],[21.37691,54.08177]]}},{"type":"Feature","properties":{"numer":"592","klasa":"droga gĹ‚Ăłwna","kat":"wojewodzka"},"geometry":{"type":"LineString","coordinates":[[21.35883,54.08186],[21.35947,54.08162]]}},{"type":"Feature","properties":{"numer":"208109N","klasa":"droga lokalna","kat":"powiatowa"},"geometry":{"type":"LineString","coordinates":[[21.37691,54.08177],[21.376,54.08224]]}},{"type":"Feature","properties":{"numer":"208104N","klasa":"droga lokalna","kat":"powiatowa"},"geometry":{"type":"LineString","coordinates":[[21.36155,54.08289],[21.35962,54.08215]]}},{"type":"Feature","properties":{"numer":"208109N","klasa":"droga lokalna","kat":"powiatowa"},"geometry":{"type":"LineString","coordinates":[[21.376,54.08224],[21.37406,54.08338]]}},{"type":"Feature","properties":{"numer":"208104N","klasa":"droga lokalna","kat":"powiatowa"},"geometry":{"type":"LineString","coordinates":[[21.3654,54.08398],[21.3635,54.08357],[21.36155,54.08289]]}},{"type":"Feature","properties":{"numer":"208109N","klasa":"","kat":"powiatowa"},"geometry":{"type":"LineString","coordinates":[[21.37293,54.08412],[21.37342,54.08395],[21.37406,54.08338]]}},{"type":"Feature","properties":{"numer":"208104N","klasa":"","kat":"powiatowa"},"geometry":{"type":"LineString","coordinates":[[21.37293,54.08412],[21.37268,54.08412]]}},{"type":"Feature","properties":{"numer":"208104N","klasa":"droga lokalna","kat":"powiatowa"},"geometry":{"type":"LineString","coordinates":[[21.37268,54.08412],[21.37115,54.08423],[21.36892,54.08427],[21.3654,54.08398]]}},{"type":"Feature","properties":{"numer":"591","klasa":"droga zbiorcza","kat":"wojewodzka"},"geometry":{"type":"LineString","coordinates":[[21.393300910259303,54.086744418305784],[21.38901,54.08358]]}},{"type":"Feature","properties":{"numer":"592","klasa":"droga gĹ‚Ăłwna","kat":"wojewodzka"},"geometry":{"type":"LineString","coordinates":[[21.35817,54.0821],[21.35883,54.08186]]}},{"type":"Feature","properties":{"numer":"592","klasa":"droga gĹ‚Ăłwna","kat":"wojewodzka"},"geometry":{"type":"LineString","coordinates":[[21.35515,54.08319],[21.35817,54.0821]]}},{"type":"Feature","properties":{"numer":"592","klasa":"droga gĹ‚Ăłwna","kat":"wojewodzka"},"geometry":{"type":"LineString","coordinates":[[21.34974496897191,54.0851630987054],[21.35515,54.08319]]}}]}