{"type":"FeatureCollection","features":[{"type":"Feature","properties":{"numer":"3216W","klasa":"droga zbiorcza","kat":"powiatowa"},"geometry":{"type":"LineString","coordinates":[[20.69225275059343,53.29982960229876],[20.69225,53.29983]]}},{"type":"Feature","properties":{"numer":"1627N","klasa":"","kat":"powiatowa"},"geometry":{"type":"LineString","coordinates":[[20.64744,53.26664],[20.64815,53.26626],[20.64844,53.26573],[20.64882,53.26436],[20.64919,53.2623],[20.65212,53.25839],[20.6534,53.25609],[20.65416,53.25517],[20.65592,53.2534],[20.656358714758213,53.251525491487634]]}},{"type":"Feature","properties":{"numer":"1625N","klasa":"","kat":"powiatowa"},"geometry":{"type":"LineString","coordinates":[[20.61173,53.2602],[20.61529,53.2599],[20.62011,53.25968],[20.62049,53.25997],[20.62092,53.26105],[20.62103,53.26219],[20.62258,53.2628],[20.6236,53.26295],[20.625,53.2636],[20.62576,53.26387],[20.63495,53.26603],[20.63851,53.26573],[20.63904,53.2658],[20.64349,53.26682],[20.64693,53.26656],[20.64727,53.26656],[20.64744,53.26664]]}},{"type":"Feature","properties":{"numer":"1625N","klasa":"","kat":"powiatowa"},"geometry":{"type":"LineString","coordinates":[[20.64744,53.26664],[20.64749,53.26703],[20.64737,53.26728],[20.64596,53.26844],[20.64517,53.26927],[20.64497,53.27086],[20.64744,53.27497],[20.64904,53.2757],[20.64931,53.27594],[20.64839,53.27679],[20.64769,53.27769],[20.64578,53.27897],[20.64608,53.27919]]}},{"type":"Feature","properties":{"numer":"1570N","klasa":"","kat":"powiatowa"},"geometry":{"type":"LineString","coordinates":[[20.6254,53.28235],[20.6337,53.28084],[20.63666,53.28131],[20.63687,53.2814],[20.63728,53.28189],[20.63749,53.28197],[20.64252,53.28267],[20.64276,53.28256],[20.64333,53.28194],[20.64439,53.2804],[20.64526,53.27987],[20.64608,53.27919]]}},{"type":"Feature","properties":{"numer":"1625N","klasa":"","kat":"powiatowa"},"geometry":{"type":"LineString","coordinates":[[20.64608,53.27919],[20.64878,53.28091],[20.65023,53.28149],[20.65279,53.2828],[20.6592,53.28765],[20.66649,53.3032],[20.67209,53.31194],[20.67319,53.31325]]}},{"type":"Feature","properties":{"numer":"1619N","klasa":"droga zbiorcza","kat":"powiatowa"},"geometry":{"type":"LineString","coordinates":[[20.6427,53.31953],[20.64391,53.31802],[20.64462,53.3176],[20.64537,53.31737],[20.65151,53.31662],[20.66182,53.31631],[20.66614,53.31547],[20.66659,53.3155],[20.66829,53.31635],[20.67008,53.31775],[20.67049,53.3183]]}},{"type":"Feature","properties":{"numer":"1619N","klasa":"droga zbiorcza","kat":"powiatowa"},"geometry":{"type":"LineString","coordinates":[[20.64249,53.3198],[20.6427,53.31953]]}},{"type":"Feature","properties":{"numer":"1619N","klasa":"droga zbiorcza","kat":"powiatowa"},"geometry":{"type":"LineString","coordinates":[[20.64249,53.3198],[20.64208,53.32035],[20.6417,53.32066],[20.64125,53.32086],[20.64062,53.32101],[20.6178,53.32336],[20.61663,53.3233],[20.61095503200198,53.322212670173606]]}},{"type":"Feature","properties":{"numer":"1623N","klasa":"droga zbiorcza","kat":"powiatowa"},"geometry":{"type":"LineString","coordinates":[[20.65149,53.33027],[20.65996,53.3271],[20.6684,53.32169],[20.66877,53.32134]]}},{"type":"Feature","properties":{"numer":"1932N","klasa":"","kat":"powiatowa"},"geometry":{"type":"LineString","coordinates":[[20.72199,53.31526],[20.72376,53.31496],[20.7345,53.31343]]}},{"type":"Feature","properties":{"numer":"1572N","klasa":"","kat":"powiatowa"},"geometry":{"type":"LineString","coordinates":[[20.7542,53.34031],[20.75511,53.34011]]}},{"type":"Feature","properties":{"numer":"1574N","klasa":"","kat":"powiatowa"},"geometry":{"type":"LineString","coordinates":[[20.7542,53.34031],[20.75295,53.34053]]}},{"type":"Feature","properties":{"numer":"1574N","klasa":"","kat":"powiatowa"},"geometry":{"type":"LineString","coordinates":[[20.75295,53.34053],[20.74804,53.33956],[20.74162,53.33898],[20.7405,53.33905],[20.73259,53.34035],[20.73198,53.34058],[20.73048,53.3414],[20.72948,53.34238],[20.72832,53.34303],[20.72757,53.34367],[20.72505,53.34491],[20.72323,53.34553],[20.72006,53.34588],[20.71915,53.34616],[20.71486,53.3477],[20.70743,53.3509],[20.70587,53.35149],[20.70391,53.35189],[20.70036,53.35223],[20.69789,53.35299],[20.69558,53.35391],[20.69496,53.35408],[20.68953,53.3548],[20.68652,53.35495]]}},{"type":"Feature","properties":{"numer":"1572N","klasa":"","kat":"powiatowa"},"geometry":{"type":"LineString","coordinates":[[20.72832,53.36441],[20.72843,53.36423],[20.72976,53.36365],[20.73947,53.35469],[20.74215,53.35237],[20.74408,53.35096],[20.74574,53.35028],[20.74644,53.34978],[20.7531,53.342],[20.75407,53.3408],[20.7542,53.34031]]}},{"type":"Feature","properties":{"numer":"604","klasa":"droga gĹ‚Ăłwna","kat":"wojewodzka"},"geometry":{"type":"LineString","coordinates":[[20.72832,53.36441],[20.74797,53.36605]]}},{"type":"Feature","properties":{"numer":"604","klasa":"droga gĹ‚Ăłwna","kat":"wojewodzka"},"geometry":{"type":"LineString","coordinates":[[20.74797,53.36605],[20.74805,53.36605]]}},{"type":"Feature","properties":{"numer":"1623N","klasa":"droga zbiorcza","kat":"powiatowa"},"geometry":{"type":"LineString","coordinates":[[20.67319,53.31325],[20.67324,53.31288],[20.67372,53.31239],[20.67712,53.31007],[20.68131,53.30701],[20.69106,53.30029],[20.69225,53.29983]]}},{"type":"Feature","properties":{"numer":"1623N","klasa":"droga zbiorcza","kat":"powiatowa"},"geometry":{"type":"LineString","coordinates":[[20.67311,53.31615],[20.67328,53.31461],[20.67319,53.31325]]}},{"type":"Feature","properties":{"numer":"1932N","klasa":"","kat":"powiatowa"},"geometry":{"type":"LineString","coordinates":[[20.67311,53.31615],[20.67416,53.31626],[20.67825,53.31622],[20.69016,53.31583],[20.701,53.31558],[20.71908,53.31544],[20.72199,53.31526]]}},{"type":"Feature","properties":{"numer":"1932N","klasa":"","kat":"powiatowa"},"geometry":{"type":"LineString","coordinates":[[20.6726,53.31601],[20.67311,53.31615]]}},{"type":"Feature","properties":{"numer":"1623N","klasa":"droga zbiorcza","kat":"powiatowa"},"geometry":{"type":"LineString","coordinates":[[20.67049,53.3183],[20.67171,53.31776],[20.67219,53.31741],[20.67307,53.31657],[20.67311,53.31615]]}},{"type":"Feature","properties":{"numer":"1623N","klasa":"droga zbiorcza","kat":"powiatowa"},"geometry":{"type":"LineString","coordinates":[[20.67045,53.31935],[20.67059,53.31883],[20.67049,53.3183]]}},{"type":"Feature","properties":{"numer":"1623N","klasa":"droga zbiorcza","kat":"powiatowa"},"geometry":{"type":"LineString","coordinates":[[20.67027,53.31963],[20.67045,53.31935]]}},{"type":"Feature","properties":{"numer":"1623N","klasa":"droga zbiorcza","kat":"powiatowa"},"geometry":{"type":"LineString","coordinates":[[20.66877,53.32134],[20.67027,53.31963]]}},{"type":"Feature","properties":{"numer":"1576N","klasa":"","kat":"powiatowa"},"geometry":{"type":"LineString","coordinates":[[20.75295,53.34053],[20.75206,53.33871],[20.75158,53.33801],[20.74683,53.33591],[20.74284,53.33333],[20.73976,53.33179],[20.73814,53.33121],[20.73501,53.33099],[20.7312,53.33118],[20.73002,53.33117],[20.72566,53.33059],[20.72402,53.3307],[20.72191,53.33113],[20.72077,53.33141],[20.71882,53.33207],[20.71796,53.33226],[20.71439,53.33236],[20.71178,53.33259],[20.70957,53.33241],[20.70891,53.33226],[20.70172,53.3297],[20.701,53.3295],[20.69979,53.32928],[20.69757,53.32853],[20.68311,53.32586],[20.67739,53.32501],[20.67384,53.32441],[20.67354,53.32433],[20.67069,53.32234],[20.66877,53.32134]]}},{"type":"Feature","properties":{"numer":"1629N","klasa":"","kat":"powiatowa"},"geometry":{"type":"LineString","coordinates":[[20.66785,53.34023],[20.66771,53.34018]]}},{"type":"Feature","properties":{"numer":"604","klasa":"droga gĹ‚Ăłwna","kat":"wojewodzka"},"geometry":{"type":"LineString","coordinates":[[20.77089,53.36736],[20.76623,53.36749],[20.76496,53.36746],[20.7622,53.36717],[20.76101,53.3672],[20.75964,53.36702],[20.74805,53.36605]]}},{"type":"Feature","properties":{"numer":"604","klasa":"droga gĹ‚Ăłwna","kat":"wojewodzka"},"geometry":{"type":"LineString","coordinates":[[20.77089,53.36736],[20.78735684871387,53.36688009184076]]}},{"type":"Feature","properties":{"numer":"1629N","klasa":"","kat":"powiatowa"},"geometry":{"type":"LineString","coordinates":[[20.68652,53.35495],[20.68578,53.35432],[20.68459,53.35288],[20.68322,53.35158],[20.68111,53.35059],[20.67856,53.34953],[20.67695,53.34845],[20.67611,53.34804],[20.67568,53.34769],[20.67415,53.34591],[20.67276,53.34402],[20.67172,53.34177],[20.66956,53.34121],[20.66785,53.34023]]}},{"type":"Feature","properties":{"numer":"1574N","klasa":"","kat":"powiatowa"},"geometry":{"type":"LineString","coordinates":[[20.68652,53.35495],[20.68071,53.35522],[20.67675,53.35569],[20.67205,53.35657],[20.66913,53.35741],[20.66886,53.35756],[20.6689,53.35769]]}},{"type":"Feature","properties":{"numer":"604","klasa":"droga gĹ‚Ăłwna","kat":"wojewodzka"},"geometry":{"type":"LineString","coordinates":[[20.6689,53.35769],[20.67214,53.35711],[20.67299,53.35703],[20.6736,53.35707],[20.67437,53.3572],[20.68475,53.35993],[20.69827,53.36187],[20.72832,53.36441]]}},{"type":"Feature","properties":{"numer":"1572N","klasa":"","kat":"powiatowa"},"geometry":{"type":"LineString","coordinates":[[20.75511,53.34011],[20.76044,53.33941],[20.76149,53.33921],[20.76551,53.33817],[20.76819,53.33756],[20.77057,53.33682],[20.77265,53.33637],[20.78705,53.32842],[20.79949,53.32141],[20.80137,53.32085],[20.803040289294664,53.32046380594343]]}},{"type":"Feature","properties":{"numer":"1625N","klasa":"","kat":"powiatowa"},"geometry":{"type":"LineString","coordinates":[[20.61139,53.2602],[20.60897,53.26005],[20.607767962760136,53.259878280394304]]}},{"type":"Feature","properties":{"numer":"1625N","klasa":"","kat":"powiatowa"},"geometry":{"type":"LineString","coordinates":[[20.61139,53.2602],[20.61173,53.2602]]}},{"type":"Feature","properties":{"numer":"1623N","klasa":"droga zbiorcza","kat":"powiatowa"},"geometry":{"type":"LineString","coordinates":[[20.61387,53.35083],[20.61372,53.3505],[20.61354,53.34603],[20.61263,53.34173],[20.61317,53.33999],[20.61348,53.33978],[20.61683,53.33827],[20.61735,53.33782],[20.61855,53.33623],[20.61936,53.33579],[20.62408,53.33399],[20.62532,53.33391],[20.62797,53.33395]]}},{"type":"Feature","properties":{"numer":"1536N","klasa":"","kat":"powiatowa"},"geometry":{"type":"LineString","coordinates":[[20.58632,53.35049],[20.58626,53.35015],[20.58661,53.34987],[20.58681,53.34985],[20.59062,53.35046],[20.5936,53.35064],[20.60132,53.35016],[20.60538,53.35006],[20.61387,53.35083]]}},{"type":"Feature","properties":{"numer":"1536N","klasa":"","kat":"powiatowa"},"geometry":{"type":"LineString","coordinates":[[20.6169,53.35171],[20.61427,53.35103],[20.61387,53.35083]]}},{"type":"Feature","properties":{"numer":"1536N","klasa":"","kat":"powiatowa"},"geometry":{"type":"LineString","coordinates":[[20.60492,53.37163],[20.60212,53.36596],[20.60135,53.36492],[20.59069,53.35642],[20.58688,53.354],[20.58639,53.35361],[20.58612,53.35322],[20.58603,53.3528],[20.58639,53.35068],[20.58632,53.35049]]}},{"type":"Feature","properties":{"numer":"1623N","klasa":"droga zbiorcza","kat":"powiatowa"},"geometry":{"type":"LineString","coordinates":[[20.60492,53.37163],[20.60769,53.37042],[20.60795,53.37022],[20.60904,53.36784],[20.61097,53.36431],[20.61715,53.35218],[20.61717,53.35191],[20.6169,53.35171]]}},{"type":"Feature","properties":{"numer":"604","klasa":"droga gĹ‚Ăłwna","kat":"wojewodzka"},"geometry":{"type":"LineString","coordinates":[[20.60551,53.37314],[20.60805,53.37169],[20.62108,53.36618],[20.62295,53.36576],[20.63595,53.36322]]}},{"type":"Feature","properties":{"numer":"1536N","klasa":"","kat":"powiatowa"},"geometry":{"type":"LineString","coordinates":[[20.60551,53.37314],[20.60492,53.37163]]}},{"type":"Feature","properties":{"numer":"604","klasa":"droga gĹ‚Ăłwna","kat":"wojewodzka"},"geometry":{"type":"LineString","coordinates":[[20.59887,53.37578],[20.60118,53.37531],[20.60229,53.37496],[20.60551,53.37314]]}},{"type":"Feature","properties":{"numer":"1607N","klasa":"","kat":"powiatowa"},"geometry":{"type":"LineString","coordinates":[[20.59889,53.37611],[20.59887,53.37578]]}},{"type":"Feature","properties":{"numer":"1607N","klasa":"","kat":"powiatowa"},"geometry":{"type":"LineString","coordinates":[[20.59906,53.38913],[20.59858,53.38791],[20.59854,53.38698],[20.59889,53.37611]]}},{"type":"Feature","properties":{"numer":"1607N","klasa":"","kat":"powiatowa"},"geometry":{"type":"LineString","coordinates":[[20.59856,53.3977],[20.59888,53.39732],[20.59927,53.39638],[20.59956,53.39523],[20.59987,53.39454],[20.60057,53.39344],[20.60066,53.39304],[20.60062,53.39259],[20.59906,53.38913]]}},{"type":"Feature","properties":{"numer":"1607N","klasa":"","kat":"powiatowa"},"geometry":{"type":"LineString","coordinates":[[20.59714,53.39956],[20.59856,53.3977]]}},{"type":"Feature","properties":{"numer":"1607N","klasa":"","kat":"powiatowa"},"geometry":{"type":"LineString","coordinates":[[20.59709995866953,53.39962563475819],[20.59714,53.39956]]}},{"type":"Feature","properties":{"numer":"1623N","klasa":"droga zbiorcza","kat":"powiatowa"},"geometry":{"type":"LineString","coordinates":[[20.62809,53.33395],[20.64104,53.33325],[20.65149,53.33027]]}},{"type":"Feature","properties":{"numer":"1623N","klasa":"droga zbiorcza","kat":"powiatowa"},"geometry":{"type":"LineString","coordinates":[[20.62797,53.33395],[20.62809,53.33395]]}},{"type":"Feature","properties":{"numer":"1629N","klasa":"","kat":"powiatowa"},"geometry":{"type":"LineString","coordinates":[[20.66771,53.34018],[20.66314,53.339],[20.66238,53.3384],[20.65745,53.33393],[20.65149,53.33027]]}},{"type":"Feature","properties":{"numer":"1536N","klasa":"","kat":"powiatowa"},"geometry":{"type":"LineString","coordinates":[[20.6169,53.35171],[20.6215,53.35293],[20.62226,53.35316],[20.62266,53.35336],[20.62611,53.35555],[20.63382,53.36092],[20.63584,53.36251],[20.63595,53.36322]]}},{"type":"Feature","properties":{"numer":"604","klasa":"droga gĹ‚Ăłwna","kat":"wojewodzka"},"geometry":{"type":"LineString","coordinates":[[20.63595,53.36322],[20.63987,53.36267],[20.64148,53.36255],[20.6689,53.35769]]}},{"type":"Feature","properties":{"numer":"604","klasa":"droga gĹ‚Ăłwna","kat":"wojewodzka"},"geometry":{"type":"LineString","coordinates":[[20.55825584737449,53.370147650895824],[20.56174,53.37092],[20.57835,53.37509],[20.58391,53.37585],[20.58666,53.37602],[20.59596,53.37625],[20.5972,53.37613],[20.59887,53.37578]]}}]}