{"type":"FeatureCollection","features":[{"type":"Feature","properties":{"numer":"1337N","klasa":"droga zbiorcza","kat":"powiatowa"},"geometry":{"type":"LineString","coordinates":[[19.703667129822314,53.30421675204098],[19.70368,53.30425]]}},{"type":"Feature","properties":{"numer":"1335N","klasa":"droga zbiorcza","kat":"powiatowa"},"geometry":{"type":"LineString","coordinates":[[19.71778,53.32356],[19.72171,53.32239],[19.72244,53.32205],[19.73351,53.31517],[19.74377738295077,53.308927765820336]]}},{"type":"Feature","properties":{"numer":"1337N","klasa":"","kat":"powiatowa"},"geometry":{"type":"LineString","coordinates":[[19.70368,53.30425],[19.70397,53.30487],[19.70753,53.30878],[19.70839,53.31008],[19.71284,53.31836],[19.71328,53.31934],[19.71345,53.32037],[19.71362,53.32051],[19.71395,53.32061],[19.71592,53.32062],[19.71629,53.3207],[19.71662,53.32089],[19.71684,53.32148],[19.71754,53.32264],[19.71778,53.32356]]}},{"type":"Feature","properties":{"numer":"1335N","klasa":"droga zbiorcza","kat":"powiatowa"},"geometry":{"type":"LineString","coordinates":[[19.70647,53.35177],[19.70698,53.35102],[19.70714,53.34953],[19.70732,53.34914],[19.71234,53.34476],[19.71285,53.34409],[19.71426,53.33538],[19.71697,53.33196],[19.71887,53.32924],[19.71893,53.32873],[19.71865,53.32627],[19.71814,53.32509],[19.71778,53.32356]]}},{"type":"Feature","properties":{"numer":"1250N","klasa":"","kat":"powiatowa"},"geometry":{"type":"LineString","coordinates":[[19.70647,53.35177],[19.70705,53.3516],[19.70802,53.35146],[19.71542,53.35091],[19.71756,53.35123],[19.72209,53.35137],[19.72386,53.35191],[19.72437,53.35196],[19.72486,53.35184],[19.72584,53.35124],[19.72696,53.35074],[19.72914,53.34931],[19.73014,53.34883],[19.73176,53.34822],[19.73304,53.34785],[19.7347,53.34772],[19.73549,53.34732],[19.73601,53.34716],[19.73781,53.3469],[19.73879,53.34685],[19.74319,53.34791],[19.74431,53.348]]}},{"type":"Feature","properties":{"numer":"1250N,1335N","klasa":"droga zbiorcza","kat":"powiatowa"},"geometry":{"type":"LineString","coordinates":[[19.70433,53.35343],[19.70647,53.35177]]}},{"type":"Feature","properties":{"numer":"1250N","klasa":"","kat":"powiatowa"},"geometry":{"type":"LineString","coordinates":[[19.74431,53.348],[19.74457,53.348]]}},{"type":"Feature","properties":{"numer":"1250N","klasa":"","kat":"powiatowa"},"geometry":{"type":"LineString","coordinates":[[19.74457,53.348],[19.7454,53.34803],[19.74737,53.34831],[19.75,53.34848],[19.75456,53.35021],[19.75618,53.35154],[19.75791,53.35232],[19.759,53.35263],[19.7597,53.35297],[19.76016,53.35335],[19.76183,53.35518],[19.76605,53.35779],[19.76688,53.35806],[19.76827,53.35824],[19.76966,53.35814],[19.77014,53.35817],[19.77065,53.35831],[19.77376,53.35982],[19.77675,53.3619],[19.77734,53.36216],[19.7821,53.36299],[19.78328,53.36338],[19.78479,53.36403],[19.78531,53.36416],[19.78902,53.36433],[19.79059,53.36477],[19.79632,53.36474],[19.8053,53.36855],[19.806,53.36878],[19.81473,53.36873],[19.81564,53.3688],[19.81743,53.36923]]}},{"type":"Feature","properties":{"numer":"541","klasa":"droga zbiorcza","kat":"wojewodzka"},"geometry":{"type":"LineString","coordinates":[[19.79626,53.40779],[19.79721,53.40649],[19.81023,53.39197],[19.81146,53.39006],[19.81315,53.38851],[19.81354,53.388],[19.81524,53.38438],[19.81467,53.37963],[19.81743,53.36923]]}},{"type":"Feature","properties":{"numer":"1252N","klasa":"","kat":"powiatowa"},"geometry":{"type":"LineString","coordinates":[[19.74094,53.39747],[19.74151,53.39778],[19.74231,53.39804],[19.74422,53.39819],[19.74524,53.3987],[19.74542,53.39898],[19.74539,53.39937],[19.7456,53.39991],[19.7457,53.40068],[19.74617,53.40172],[19.74596,53.40251],[19.746,53.40277],[19.74701,53.40371],[19.74979,53.40589],[19.75013,53.40634],[19.7507,53.40748],[19.75115,53.40797],[19.75339,53.40894],[19.75801,53.41053],[19.75871,53.41084],[19.7604,53.41133],[19.76173,53.41158],[19.7619,53.41181],[19.76155,53.4123]]}},{"type":"Feature","properties":{"numer":"541","klasa":"droga zbiorcza","kat":"wojewodzka"},"geometry":{"type":"LineString","coordinates":[[19.79465,53.41],[19.79626,53.40779]]}},{"type":"Feature","properties":{"numer":"538","klasa":"droga gĹ‚Ăłwna","kat":"wojewodzka"},"geometry":{"type":"LineString","coordinates":[[19.76155,53.4123],[19.76435,53.41277],[19.7648,53.41278],[19.76941,53.41191],[19.77966,53.4097],[19.7834,53.40901],[19.78518,53.40878],[19.79479,53.40798],[19.79563,53.4078],[19.79626,53.40779]]}},{"type":"Feature","properties":{"numer":"541","klasa":"droga zbiorcza","kat":"wojewodzka"},"geometry":{"type":"LineString","coordinates":[[19.79396,53.41095],[19.79465,53.41]]}},{"type":"Feature","properties":{"numer":"1252N,538","klasa":"droga gĹ‚Ăłwna","kat":"powiatowa"},"geometry":{"type":"LineString","coordinates":[[19.76081,53.41336],[19.76155,53.4123]]}},{"type":"Feature","properties":{"numer":"541","klasa":"droga zbiorcza","kat":"wojewodzka"},"geometry":{"type":"LineString","coordinates":[[19.77796,53.42438],[19.78018,53.42298],[19.78417,53.42094],[19.78909,53.41751],[19.7898,53.41668],[19.79396,53.41095]]}},{"type":"Feature","properties":{"numer":"1250N","klasa":"","kat":"powiatowa"},"geometry":{"type":"LineString","coordinates":[[19.68367,53.35451],[19.68481,53.35355],[19.68594,53.35284],[19.68717,53.3523],[19.68931,53.3512]]}},{"type":"Feature","properties":{"numer":"1250N,1335N","klasa":"droga zbiorcza","kat":"powiatowa"},"geometry":{"type":"LineString","coordinates":[[19.70224,53.3548],[19.70433,53.35343]]}},{"type":"Feature","properties":{"numer":"1250N","klasa":"","kat":"powiatowa"},"geometry":{"type":"LineString","coordinates":[[19.68367,53.35451],[19.69221,53.35417],[19.70224,53.3548]]}},{"type":"Feature","properties":{"numer":"1335N","klasa":"droga zbiorcza","kat":"powiatowa"},"geometry":{"type":"LineString","coordinates":[[19.679523536621478,53.38066522518652],[19.68087,53.37982],[19.68143,53.37934],[19.68549,53.37275],[19.69393,53.3655],[19.69947,53.35692],[19.7003,53.35608],[19.70224,53.3548]]}},{"type":"Feature","properties":{"numer":"1252N","klasa":"","kat":"powiatowa"},"geometry":{"type":"LineString","coordinates":[[19.679543420948225,53.380690447990126],[19.68723,53.38254],[19.69111,53.38317],[19.69776,53.38444],[19.70444,53.38596]]}},{"type":"Feature","properties":{"numer":"1252N","klasa":"","kat":"powiatowa"},"geometry":{"type":"LineString","coordinates":[[19.70444,53.38596],[19.70712,53.38651],[19.70828,53.38693],[19.70899,53.38708],[19.70977,53.38711],[19.71092,53.38703],[19.71515,53.38777],[19.71735,53.38805],[19.72207,53.38887],[19.72301,53.38893],[19.7239,53.38887],[19.72446,53.38874],[19.72523,53.38841],[19.72605,53.38831],[19.72741,53.38873],[19.72993,53.38884],[19.73202,53.38933],[19.73406,53.39004],[19.73576,53.39116],[19.73628,53.3919],[19.73711,53.39358],[19.73863,53.39589],[19.74077,53.39736]]}},{"type":"Feature","properties":{"numer":"1252N","klasa":"","kat":"powiatowa"},"geometry":{"type":"LineString","coordinates":[[19.74077,53.39736],[19.74094,53.39747]]}},{"type":"Feature","properties":{"numer":"1347N","klasa":"","kat":"powiatowa"},"geometry":{"type":"LineString","coordinates":[[19.697064506289852,53.39862922798552],[19.69717,53.39826],[19.69847,53.39579],[19.69943,53.39469],[19.70444,53.38596]]}},{"type":"Feature","properties":{"numer":"538","klasa":"droga gĹ‚Ăłwna","kat":"wojewodzka"},"geometry":{"type":"LineString","coordinates":[[19.73,53.42372],[19.72995,53.42376]]}},{"type":"Feature","properties":{"numer":"538","klasa":"droga gĹ‚Ăłwna","kat":"wojewodzka"},"geometry":{"type":"LineString","coordinates":[[19.72995,53.42376],[19.72806,53.42547],[19.72672,53.42799],[19.72594,53.42901],[19.72517,53.42971]]}},{"type":"Feature","properties":{"numer":"538","klasa":"droga gĹ‚Ăłwna","kat":"wojewodzka"},"geometry":{"type":"LineString","coordinates":[[19.69065,53.42944],[19.69091,53.42959]]}},{"type":"Feature","properties":{"numer":"538","klasa":"droga gĹ‚Ăłwna","kat":"wojewodzka"},"geometry":{"type":"LineString","coordinates":[[19.72517,53.42971],[19.72512,53.42975]]}},{"type":"Feature","properties":{"numer":"183004N","klasa":"droga dojazdowa","kat":"powiatowa"},"geometry":{"type":"LineString","coordinates":[[19.72364,53.43045],[19.72447,53.43331],[19.72473,53.43356],[19.72568,53.43403]]}},{"type":"Feature","properties":{"numer":"538","klasa":"droga gĹ‚Ăłwna","kat":"wojewodzka"},"geometry":{"type":"LineString","coordinates":[[19.71327,53.43518],[19.71697,53.43338],[19.71815,53.43234],[19.71844,53.43223],[19.71947,53.43212],[19.71973,53.43202],[19.72018,53.43142],[19.72049,53.43123],[19.722,53.43063],[19.72374,53.43042],[19.72512,53.42975]]}},{"type":"Feature","properties":{"numer":"538","klasa":"droga gĹ‚Ăłwna","kat":"wojewodzka"},"geometry":{"type":"LineString","coordinates":[[19.69091,53.42959],[19.6936,53.43125],[19.70637,53.43551],[19.70696,53.43554],[19.71281,53.43529]]}},{"type":"Feature","properties":{"numer":"183004N","klasa":"droga dojazdowa","kat":"powiatowa"},"geometry":{"type":"LineString","coordinates":[[19.72568,53.43403],[19.72596,53.43416]]}},{"type":"Feature","properties":{"numer":"183004N","klasa":"droga dojazdowa","kat":"powiatowa"},"geometry":{"type":"LineString","coordinates":[[19.72596,53.43416],[19.72602,53.43421]]}},{"type":"Feature","properties":{"numer":"183004N","klasa":"droga dojazdowa","kat":"powiatowa"},"geometry":{"type":"LineString","coordinates":[[19.72604,53.4345],[19.72602,53.43421]]}},{"type":"Feature","properties":{"numer":"538","klasa":"droga gĹ‚Ăłwna","kat":"wojewodzka"},"geometry":{"type":"LineString","coordinates":[[19.71281,53.43529],[19.71327,53.43518]]}},{"type":"Feature","properties":{"numer":"1270N","klasa":"","kat":"powiatowa"},"geometry":{"type":"LineString","coordinates":[[19.7132,53.43543],[19.71327,53.43518]]}},{"type":"Feature","properties":{"numer":"538","klasa":"droga gĹ‚Ăłwna","kat":"wojewodzka"},"geometry":{"type":"LineString","coordinates":[[19.76081,53.41336],[19.75959,53.41318],[19.7587,53.41348],[19.7565,53.41334],[19.75308,53.41381],[19.7507,53.41483],[19.74854,53.41611],[19.7457,53.41756],[19.74379,53.41842],[19.73872,53.42025],[19.7343,53.42159],[19.73383,53.42182],[19.73326,53.4225],[19.73297,53.42265],[19.73162,53.4227],[19.73113,53.42281],[19.7308,53.42299],[19.73,53.42372]]}},{"type":"Feature","properties":{"numer":"1252N","klasa":"","kat":"powiatowa"},"geometry":{"type":"LineString","coordinates":[[19.76081,53.41336],[19.76173,53.41356],[19.76247,53.41418],[19.76379,53.41473],[19.76513,53.41517],[19.77001,53.41776],[19.77089,53.41852],[19.77298,53.42117],[19.77634,53.42351],[19.77796,53.42438]]}},{"type":"Feature","properties":{"numer":"541","klasa":"droga zbiorcza","kat":"wojewodzka"},"geometry":{"type":"LineString","coordinates":[[19.77618,53.42572],[19.77796,53.42438]]}},{"type":"Feature","properties":{"numer":"541","klasa":"droga zbiorcza","kat":"wojewodzka"},"geometry":{"type":"LineString","coordinates":[[19.77614,53.42575],[19.77618,53.42572]]}},{"type":"Feature","properties":{"numer":"541","klasa":"droga zbiorcza","kat":"wojewodzka"},"geometry":{"type":"LineString","coordinates":[[19.77641473409349,53.439669594460575],[19.77361,53.42907],[19.77361,53.4283],[19.774,53.42748],[19.77463,53.42687],[19.77614,53.42575]]}},{"type":"Feature","properties":{"numer":"1254N","klasa":"","kat":"powiatowa"},"geometry":{"type":"LineString","coordinates":[[19.799361020970547,53.449222434648],[19.80223,53.44841],[19.80703,53.4466],[19.81025,53.4455],[19.81148,53.44519]]}},{"type":"Feature","properties":{"numer":"1270N","klasa":"","kat":"powiatowa"},"geometry":{"type":"LineString","coordinates":[[19.71281,53.43529],[19.7132,53.43543]]}},{"type":"Feature","properties":{"numer":"183003N","klasa":"droga dojazdowa","kat":"powiatowa"},"geometry":{"type":"LineString","coordinates":[[19.722480645196992,53.446185913752394],[19.72362,53.43897],[19.72418,53.43802],[19.72531,53.43655],[19.72545,53.43615],[19.72547,53.43557],[19.72604,53.4345]]}},{"type":"Feature","properties":{"numer":"1270N","klasa":"","kat":"powiatowa"},"geometry":{"type":"LineString","coordinates":[[19.679985059761854,53.45849597792889],[19.68207,53.45758],[19.68437,53.45703],[19.68694,53.45605],[19.68758,53.45551],[19.68859,53.45443],[19.69135,53.45254],[19.69252,53.45199],[19.69375,53.45116],[19.69401,53.45081],[19.69406,53.44975],[19.69424,53.44955],[19.70196,53.44592],[19.70682,53.44317],[19.70775,53.44297],[19.71346,53.44266],[19.71492,53.44252],[19.71518,53.44233],[19.71398,53.44057],[19.71398,53.43775],[19.71371,53.4364],[19.7132,53.43543]]}},{"type":"Feature","properties":{"numer":"1276N","klasa":"","kat":"powiatowa"},"geometry":{"type":"LineString","coordinates":[[19.669025714285713,53.341524285714286],[19.67144,53.34271],[19.67249,53.34308],[19.67728,53.34441],[19.6804,53.34476],[19.68189,53.34526],[19.68449,53.34583],[19.68637,53.34656],[19.68775,53.34668],[19.68933,53.34647],[19.69008,53.34653],[19.69103,53.34684],[19.69255,53.34711],[19.69511,53.34775],[19.69693,53.34844],[19.69803,53.34872],[19.6984,53.34892],[19.69935,53.34971],[19.70132,53.35108],[19.70433,53.35343]]}},{"type":"Feature","properties":{"numer":"1250N","klasa":"","kat":"powiatowa"},"geometry":{"type":"LineString","coordinates":[[19.66829720261438,53.35291118954248],[19.67276,53.35424],[19.67507,53.35513],[19.67683,53.35544],[19.67734,53.35545],[19.67925,53.3548],[19.67997,53.35464],[19.68367,53.35451]]}},{"type":"Feature","properties":{"numer":"538","klasa":"droga gĹ‚Ăłwna","kat":"wojewodzka"},"geometry":{"type":"LineString","coordinates":[[19.684110161561108,53.42635860303132],[19.68682,53.4267],[19.68739,53.42688],[19.68789,53.42716],[19.68886,53.42794],[19.69,53.42905],[19.69065,53.42944]]}},{"type":"Feature","properties":{"numer":"541","klasa":"droga zbiorcza","kat":"wojewodzka"},"geometry":{"type":"LineString","coordinates":[[19.81743,53.36923],[19.82028,53.35856],[19.82065,53.35739],[19.82212,53.35404],[19.822170055525284,53.353405575319094]]}},{"type":"Feature","properties":{"numer":"183030N","klasa":"droga dojazdowa","kat":"powiatowa"},"geometry":{"type":"LineString","coordinates":[[19.81743,53.36923],[19.82019,53.36971]]}},{"type":"Feature","properties":{"numer":"183030N","klasa":"droga dojazdowa","kat":"powiatowa"},"geometry":{"type":"LineString","coordinates":[[19.82019,53.36971],[19.82693,53.37091],[19.82814,53.3712]]}},{"type":"Feature","properties":{"numer":"183030N","klasa":"droga dojazdowa","kat":"powiatowa"},"geometry":{"type":"LineString","coordinates":[[19.82814,53.3712],[19.82941,53.37172]]}},{"type":"Feature","properties":{"numer":"183030N","klasa":"droga dojazdowa","kat":"powiatowa"},"geometry":{"type":"LineString","coordinates":[[19.82941,53.37172],[19.82951,53.37177]]}},{"type":"Feature","properties":{"numer":"183030N","klasa":"droga dojazdowa","kat":"powiatowa"},"geometry":{"type":"LineString","coordinates":[[19.82951,53.37177],[19.82983,53.37208],[19.83141,53.37439],[19.83175,53.37451]]}},{"type":"Feature","properties":{"numer":"183031N","klasa":"droga dojazdowa","kat":"powiatowa"},"geometry":{"type":"LineString","coordinates":[[19.83175,53.37451],[19.83195,53.37458],[19.83527,53.37377]]}},{"type":"Feature","properties":{"numer":"183031N","klasa":"droga dojazdowa","kat":"powiatowa"},"geometry":{"type":"LineString","coordinates":[[19.83527,53.37377],[19.83741,53.37453],[19.83892,53.37527],[19.83978,53.37586],[19.84088,53.37625]]}},{"type":"Feature","properties":{"numer":"183031N","klasa":"droga dojazdowa","kat":"powiatowa"},"geometry":{"type":"LineString","coordinates":[[19.84088,53.37625],[19.84105494668392,53.37631647973989]]}},{"type":"Feature","properties":{"numer":"1254N","klasa":"","kat":"powiatowa"},"geometry":{"type":"LineString","coordinates":[[19.84642,53.43452],[19.85043,53.43151],[19.8546,53.42856],[19.857874572597204,53.42535225541498]]}},{"type":"Feature","properties":{"numer":"538","klasa":"droga gĹ‚Ăłwna","kat":"wojewodzka"},"geometry":{"type":"LineString","coordinates":[[19.79626,53.40779],[19.79694,53.40778],[19.81041,53.40659],[19.81076,53.40667],[19.81111,53.40697],[19.81304,53.40803],[19.81355,53.40807],[19.81428,53.40797],[19.81643,53.40735],[19.82066,53.40658],[19.8228,53.40652],[19.82357,53.40641],[19.82524,53.40601],[19.82673,53.40555],[19.83042,53.40404],[19.83366,53.40371],[19.833939156219866,53.40363024108004]]}},{"type":"Feature","properties":{"numer":"1254N,183029N","klasa":"","kat":"powiatowa"},"geometry":{"type":"LineString","coordinates":[[19.84632,53.43459],[19.84642,53.43452]]}},{"type":"Feature","properties":{"numer":"1254N","klasa":"","kat":"powiatowa"},"geometry":{"type":"LineString","coordinates":[[19.81156,53.44518],[19.81176,53.44519],[19.81193,53.44529],[19.81265,53.44609],[19.81408,53.44704],[19.81568,53.44793],[19.81613,53.44798],[19.81846,53.44677],[19.82403,53.4443],[19.82524,53.444],[19.8274,53.44377],[19.82902,53.44338],[19.82976,53.44315],[19.83315,53.44167],[19.8358,53.441],[19.84096,53.4386],[19.84141,53.43778],[19.84335,53.43684],[19.84342,53.43663],[19.84632,53.43459]]}},{"type":"Feature","properties":{"numer":"1254N","klasa":"","kat":"powiatowa"},"geometry":{"type":"LineString","coordinates":[[19.81148,53.44519],[19.81156,53.44518]]}}]}