{"type":"FeatureCollection","features":[{"type":"Feature","properties":{"numer":"1227N","klasa":"","kat":"powiatowa"},"geometry":{"type":"LineString","coordinates":[[19.74759,53.81066],[19.747595609444797,53.810284167198475]]}},{"type":"Feature","properties":{"numer":"1227N","klasa":"","kat":"powiatowa"},"geometry":{"type":"LineString","coordinates":[[19.74782,53.81156],[19.74759,53.81066]]}},{"type":"Feature","properties":{"numer":"1190N","klasa":"","kat":"powiatowa"},"geometry":{"type":"LineString","coordinates":[[19.72918,53.84654],[19.7259,53.84321],[19.72438,53.8415],[19.72352,53.84127],[19.72093,53.84087],[19.7201,53.8408],[19.71862960084343,53.840470806158976]]}},{"type":"Feature","properties":{"numer":"1190N","klasa":"","kat":"powiatowa"},"geometry":{"type":"LineString","coordinates":[[19.72957,53.84736],[19.72918,53.84654]]}},{"type":"Feature","properties":{"numer":"1190N","klasa":"","kat":"powiatowa"},"geometry":{"type":"LineString","coordinates":[[19.72062,53.85454],[19.71981,53.85169],[19.72923,53.84757],[19.72957,53.84736]]}},{"type":"Feature","properties":{"numer":"1227N","klasa":"","kat":"powiatowa"},"geometry":{"type":"LineString","coordinates":[[19.768984586477398,53.826668859518755],[19.76375,53.82539],[19.76047,53.82441],[19.755,53.82225],[19.75366,53.82137],[19.75364,53.82115],[19.75416,53.82055],[19.75011,53.81838],[19.74972,53.81641],[19.74994,53.815],[19.74962,53.81372],[19.74908,53.81263],[19.74782,53.81156]]}},{"type":"Feature","properties":{"numer":"1190N","klasa":"","kat":"powiatowa"},"geometry":{"type":"LineString","coordinates":[[19.796028604395516,53.822024607414455],[19.79605,53.82205],[19.7967,53.8226],[19.79757,53.82283],[19.79854,53.82345],[19.79972,53.82403],[19.79995,53.82443],[19.80005,53.82507],[19.80149,53.82678],[19.80149,53.82731],[19.80113,53.82788],[19.80078,53.82887],[19.79951,53.82924],[19.79649,53.83054],[19.79497,53.83175],[19.79414,53.83299],[19.79195,53.83691]]}},{"type":"Feature","properties":{"numer":"1227N","klasa":"","kat":"powiatowa"},"geometry":{"type":"LineString","coordinates":[[19.7758,53.8283],[19.775617360370426,53.828256693696076]]}},{"type":"Feature","properties":{"numer":"148026N","klasa":"droga lokalna","kat":"powiatowa"},"geometry":{"type":"LineString","coordinates":[[19.77191,53.83538],[19.7758,53.8283]]}},{"type":"Feature","properties":{"numer":"148026N","klasa":"droga lokalna","kat":"powiatowa"},"geometry":{"type":"LineString","coordinates":[[19.76928,53.83869],[19.77004,53.8381],[19.77079,53.83732],[19.77191,53.83538]]}},{"type":"Feature","properties":{"numer":"1190N","klasa":"","kat":"powiatowa"},"geometry":{"type":"LineString","coordinates":[[19.79195,53.83691],[19.79116,53.83835],[19.79075,53.83876],[19.7903,53.83885],[19.78892,53.83864]]}},{"type":"Feature","properties":{"numer":"148026N","klasa":"droga lokalna","kat":"powiatowa"},"geometry":{"type":"LineString","coordinates":[[19.76482,53.84211],[19.76928,53.83869]]}},{"type":"Feature","properties":{"numer":"148026N","klasa":"droga lokalna","kat":"powiatowa"},"geometry":{"type":"LineString","coordinates":[[19.75788,53.84739],[19.76482,53.84211]]}},{"type":"Feature","properties":{"numer":"E77,S7","klasa":"droga ekspresowa","kat":"krajowa"},"geometry":{"type":"LineString","coordinates":[[19.766073039319302,53.8338996357747],[19.7604,53.83826],[19.75849,53.83983],[19.75628,53.84197],[19.75437,53.84425],[19.75241,53.84733],[19.75155,53.84931],[19.75078,53.8519],[19.75015,53.85591],[19.74977,53.85748],[19.74898,53.85961],[19.74776,53.86187]]}},{"type":"Feature","properties":{"numer":"148026N","klasa":"droga lokalna","kat":"powiatowa"},"geometry":{"type":"LineString","coordinates":[[19.75685,53.84816],[19.75781,53.84745]]}},{"type":"Feature","properties":{"numer":"148026N","klasa":"droga lokalna","kat":"powiatowa"},"geometry":{"type":"LineString","coordinates":[[19.75612,53.84873],[19.75685,53.84816]]}},{"type":"Feature","properties":{"numer":"148026N","klasa":"droga lokalna","kat":"powiatowa"},"geometry":{"type":"LineString","coordinates":[[19.75516,53.84964],[19.75612,53.84873]]}},{"type":"Feature","properties":{"numer":"1190N","klasa":"","kat":"powiatowa"},"geometry":{"type":"LineString","coordinates":[[19.78099,53.86111],[19.78124,53.86104],[19.78146,53.85996],[19.7814,53.85939],[19.7815,53.85825],[19.78511,53.8467],[19.78518,53.84602],[19.78496,53.84496],[19.78563,53.84382],[19.78691,53.84261],[19.78782,53.84105],[19.78867,53.83935],[19.78892,53.83864]]}},{"type":"Feature","properties":{"numer":"148026N","klasa":"droga lokalna","kat":"powiatowa"},"geometry":{"type":"LineString","coordinates":[[19.75023,53.86027],[19.75042,53.85919],[19.75067,53.85858],[19.75516,53.84964]]}},{"type":"Feature","properties":{"numer":"1190N","klasa":"","kat":"powiatowa"},"geometry":{"type":"LineString","coordinates":[[19.75018,53.8606],[19.75809,53.85994],[19.76087,53.85958],[19.7652,53.85929],[19.76605,53.85934],[19.77179,53.8601],[19.77331,53.86],[19.77501,53.85958],[19.77595,53.85956],[19.77691,53.8598],[19.78068,53.86121],[19.78099,53.86111]]}},{"type":"Feature","properties":{"numer":"148026N","klasa":"droga lokalna","kat":"powiatowa"},"geometry":{"type":"LineString","coordinates":[[19.75018,53.8606],[19.75023,53.86027]]}},{"type":"Feature","properties":{"numer":"1207N","klasa":"","kat":"powiatowa"},"geometry":{"type":"LineString","coordinates":[[19.638143868312763,53.88525596707819],[19.63828,53.88529],[19.64062,53.88564],[19.64525,53.88664],[19.6461,53.887],[19.64661,53.88753],[19.6484,53.89027],[19.64917,53.89182]]}},{"type":"Feature","properties":{"numer":"519","klasa":"droga gĹ‚Ăłwna","kat":"wojewodzka"},"geometry":{"type":"LineString","coordinates":[[19.68541415662652,53.87962],[19.68559,53.87969]]}},{"type":"Feature","properties":{"numer":"1209N","klasa":"","kat":"powiatowa"},"geometry":{"type":"LineString","coordinates":[[19.64949,53.89184],[19.65424,53.88879],[19.65811,53.88564],[19.661285144986653,53.88279646284485]]}},{"type":"Feature","properties":{"numer":"1184N","klasa":"","kat":"powiatowa"},"geometry":{"type":"LineString","coordinates":[[19.589361094239827,53.892077267492695],[19.5923,53.89331],[19.59283,53.89379],[19.59315,53.89396],[19.59891,53.89607],[19.60686,53.89855],[19.61042,53.90041],[19.61208,53.90138],[19.61292,53.90213],[19.61381,53.90318],[19.6155,53.90476]]}},{"type":"Feature","properties":{"numer":"1205N","klasa":"","kat":"powiatowa"},"geometry":{"type":"LineString","coordinates":[[19.579735035460978,53.90848517730495],[19.57984,53.90861]]}},{"type":"Feature","properties":{"numer":"1205N","klasa":"","kat":"powiatowa"},"geometry":{"type":"LineString","coordinates":[[19.57984,53.90861],[19.5803,53.90912]]}},{"type":"Feature","properties":{"numer":"1186N","klasa":"","kat":"powiatowa"},"geometry":{"type":"LineString","coordinates":[[19.77759,53.901],[19.78018,53.90052],[19.78069,53.90036],[19.78248,53.8992],[19.78281,53.8975],[19.78337,53.89615],[19.78494,53.89346],[19.78552,53.89286],[19.78811,53.89163],[19.78864,53.89145],[19.78957,53.89119],[19.79122,53.89096],[19.79251,53.89038],[19.79319,53.89021],[19.79478,53.8901],[19.79546,53.88995],[19.79713,53.8891],[19.7978,53.88885],[19.79935,53.88845],[19.80165,53.88809],[19.80445,53.8865],[19.80587,53.88582],[19.80795,53.8835],[19.80889,53.88285],[19.81011,53.88248],[19.81062,53.88193],[19.81091,53.88139],[19.81271,53.87977],[19.81627,53.87722],[19.8176,53.87651],[19.81966,53.87607],[19.82047,53.87563],[19.82129,53.87537],[19.82259,53.87479],[19.823571048245658,53.87420954645465]]}},{"type":"Feature","properties":{"numer":"1213N","klasa":"","kat":"powiatowa"},"geometry":{"type":"LineString","coordinates":[[19.849499023652534,53.88397078579638],[19.84864,53.88442],[19.8478,53.885],[19.845338506612777,53.88630573842763]]}},{"type":"Feature","properties":{"numer":"1213N","klasa":"","kat":"powiatowa"},"geometry":{"type":"LineString","coordinates":[[19.844761955193487,53.88664971486761],[19.8433,53.88765],[19.843090177215185,53.88795162025317]]}},{"type":"Feature","properties":{"numer":"1213N","klasa":"","kat":"powiatowa"},"geometry":{"type":"LineString","coordinates":[[19.842973230462917,53.888176341463414],[19.84293,53.8886],[19.8433,53.88937],[19.84332,53.89047],[19.84317,53.89165],[19.84275,53.89273],[19.84276,53.89419],[19.84535,53.89866],[19.84543,53.89941],[19.84509,53.90029],[19.84374,53.90202],[19.84309,53.90265],[19.84107,53.90384],[19.84059,53.904],[19.84004,53.90406]]}},{"type":"Feature","properties":{"numer":"1213N","klasa":"","kat":"powiatowa"},"geometry":{"type":"LineString","coordinates":[[19.84004,53.90406],[19.83853,53.90408],[19.83718,53.90584],[19.83685,53.90648],[19.83678,53.90691],[19.83685,53.90844]]}},{"type":"Feature","properties":{"numer":"1190N","klasa":"","kat":"powiatowa"},"geometry":{"type":"LineString","coordinates":[[19.72795,53.85992],[19.72677,53.86017],[19.72614,53.86017],[19.72512,53.85992],[19.72264,53.85879],[19.72139,53.85785],[19.72052,53.85695],[19.72052,53.85671],[19.72091,53.85579],[19.72062,53.85454]]}},{"type":"Feature","properties":{"numer":"1190N","klasa":"","kat":"powiatowa"},"geometry":{"type":"LineString","coordinates":[[19.72874,53.86088],[19.72942,53.85989],[19.72795,53.85992]]}},{"type":"Feature","properties":{"numer":"1190N","klasa":"","kat":"powiatowa"},"geometry":{"type":"LineString","coordinates":[[19.74737,53.86185],[19.74554,53.86183],[19.73738,53.86339],[19.73647,53.86293],[19.7357,53.86272],[19.72838,53.86213],[19.72874,53.86088]]}},{"type":"Feature","properties":{"numer":"E77,S7","klasa":"droga ekspresowa","kat":"krajowa"},"geometry":{"type":"LineString","coordinates":[[19.74776,53.86187],[19.74687,53.86319],[19.73815,53.87477],[19.73669,53.8771],[19.73554,53.87943],[19.7345,53.88234],[19.73387,53.88531],[19.73367,53.88752],[19.73359,53.89245],[19.73291,53.89803],[19.73254,53.89942],[19.7319,53.90081],[19.73134,53.90168],[19.72962,53.9038]]}},{"type":"Feature","properties":{"numer":"148014N","klasa":"droga lokalna","kat":"powiatowa"},"geometry":{"type":"LineString","coordinates":[[19.73371,53.88687],[19.73409,53.88687]]}},{"type":"Feature","properties":{"numer":"148014N","klasa":"droga lokalna","kat":"powiatowa"},"geometry":{"type":"LineString","coordinates":[[19.73409,53.88687],[19.7348,53.88689]]}},{"type":"Feature","properties":{"numer":"148014N","klasa":"droga lokalna","kat":"powiatowa"},"geometry":{"type":"LineString","coordinates":[[19.7348,53.88689],[19.7354,53.88691]]}},{"type":"Feature","properties":{"numer":"148014N","klasa":"droga lokalna","kat":"powiatowa"},"geometry":{"type":"LineString","coordinates":[[19.7354,53.88691],[19.73562,53.88692]]}},{"type":"Feature","properties":{"numer":"148014N","klasa":"droga lokalna","kat":"powiatowa"},"geometry":{"type":"LineString","coordinates":[[19.73562,53.88692],[19.74048,53.88708]]}},{"type":"Feature","properties":{"numer":"148026N","klasa":"droga lokalna","kat":"powiatowa"},"geometry":{"type":"LineString","coordinates":[[19.73953,53.89006],[19.74055,53.88725],[19.74048,53.88708]]}},{"type":"Feature","properties":{"numer":"519","klasa":"droga gĹ‚Ăłwna","kat":"wojewodzka"},"geometry":{"type":"LineString","coordinates":[[19.68554,53.87967],[19.68933,53.88113],[19.6976,53.88415],[19.70533,53.88808],[19.70591,53.88851],[19.71176,53.89409],[19.71251,53.89508],[19.71373,53.89715],[19.71417,53.89754]]}},{"type":"Feature","properties":{"numer":"148026N","klasa":"droga lokalna","kat":"powiatowa"},"geometry":{"type":"LineString","coordinates":[[19.73936,53.89055],[19.73953,53.89006]]}},{"type":"Feature","properties":{"numer":"148026N","klasa":"droga lokalna","kat":"powiatowa"},"geometry":{"type":"LineString","coordinates":[[19.73924,53.89089],[19.73936,53.89055]]}},{"type":"Feature","properties":{"numer":"148026N","klasa":"droga lokalna","kat":"powiatowa"},"geometry":{"type":"LineString","coordinates":[[19.73912,53.89121],[19.73924,53.89089]]}},{"type":"Feature","properties":{"numer":"148026N","klasa":"droga lokalna","kat":"powiatowa"},"geometry":{"type":"LineString","coordinates":[[19.73891,53.8918],[19.73912,53.89121]]}},{"type":"Feature","properties":{"numer":"148026N","klasa":"droga lokalna","kat":"powiatowa"},"geometry":{"type":"LineString","coordinates":[[19.73583,53.90518],[19.73614,53.90428],[19.73692,53.89739],[19.73891,53.8918]]}},{"type":"Feature","properties":{"numer":"519","klasa":"droga gĹ‚Ăłwna","kat":"wojewodzka"},"geometry":{"type":"LineString","coordinates":[[19.71417,53.89754],[19.71564,53.89807],[19.7174,53.89847],[19.71905,53.8991],[19.72116,53.89965],[19.72259,53.90016],[19.72962,53.9038]]}},{"type":"Feature","properties":{"numer":"519","klasa":"droga gĹ‚Ăłwna","kat":"wojewodzka"},"geometry":{"type":"LineString","coordinates":[[19.72962,53.9038],[19.73202,53.9051],[19.73299,53.90548],[19.73376,53.90559],[19.73556,53.90557]]}},{"type":"Feature","properties":{"numer":"519","klasa":"droga gĹ‚Ăłwna","kat":"wojewodzka"},"geometry":{"type":"LineString","coordinates":[[19.7358,53.90556],[19.73715,53.9055],[19.73772,53.90541],[19.74202,53.90397],[19.74263,53.90395],[19.74411,53.90414]]}},{"type":"Feature","properties":{"numer":"148026N","klasa":"","kat":"powiatowa"},"geometry":{"type":"LineString","coordinates":[[19.73556,53.90557],[19.73583,53.90518]]}},{"type":"Feature","properties":{"numer":"1209N","klasa":"","kat":"powiatowa"},"geometry":{"type":"LineString","coordinates":[[19.64917,53.89182],[19.64949,53.89184]]}},{"type":"Feature","properties":{"numer":"1207N","klasa":"","kat":"powiatowa"},"geometry":{"type":"LineString","coordinates":[[19.64917,53.89182],[19.64928,53.89204]]}},{"type":"Feature","properties":{"numer":"1209N","klasa":"","kat":"powiatowa"},"geometry":{"type":"LineString","coordinates":[[19.64928,53.89204],[19.64949,53.89184]]}},{"type":"Feature","properties":{"numer":"1207N","klasa":"","kat":"powiatowa"},"geometry":{"type":"LineString","coordinates":[[19.64928,53.89204],[19.64974,53.89294],[19.64952,53.89383],[19.64956,53.89448],[19.65064,53.89583],[19.65078,53.89662]]}},{"type":"Feature","properties":{"numer":"1928N","klasa":"","kat":"powiatowa"},"geometry":{"type":"LineString","coordinates":[[19.65101,53.89739],[19.6527,53.89731],[19.65492,53.89739],[19.65884,53.89729],[19.66083,53.89736],[19.66255,53.897],[19.67279,53.89699],[19.67344,53.8969],[19.67526,53.89636],[19.67791,53.89592],[19.67881,53.89549],[19.67942,53.89544],[19.67992,53.89549],[19.68135,53.89613],[19.68172,53.8962],[19.69376,53.89631],[19.69795,53.897],[19.69902,53.89711],[19.7019,53.89702],[19.70352,53.89631],[19.70438,53.89618],[19.70585,53.89622],[19.70642,53.89632],[19.71083,53.89791],[19.71142,53.8979],[19.71213,53.89756],[19.71258,53.89747],[19.7134,53.89741],[19.71417,53.89754]]}},{"type":"Feature","properties":{"numer":"1928N","klasa":"","kat":"powiatowa"},"geometry":{"type":"LineString","coordinates":[[19.65078,53.89662],[19.64465,53.89718]]}},{"type":"Feature","properties":{"numer":"1207N,1928N","klasa":"","kat":"powiatowa"},"geometry":{"type":"LineString","coordinates":[[19.65078,53.89662],[19.65101,53.89739]]}},{"type":"Feature","properties":{"numer":"1928N","klasa":"","kat":"powiatowa"},"geometry":{"type":"LineString","coordinates":[[19.64465,53.89718],[19.64456,53.89719]]}},{"type":"Feature","properties":{"numer":"1928N","klasa":"","kat":"powiatowa"},"geometry":{"type":"LineString","coordinates":[[19.64456,53.89719],[19.63676,53.89809],[19.63258,53.89846],[19.62967,53.89912],[19.62909,53.89934],[19.6255,53.90113],[19.62064,53.90274],[19.61834,53.90383],[19.61781,53.90396],[19.6168,53.90405],[19.6155,53.90476]]}},{"type":"Feature","properties":{"numer":"1207N","klasa":"","kat":"powiatowa"},"geometry":{"type":"LineString","coordinates":[[19.66847,53.91704],[19.66805,53.91653],[19.66638,53.9151],[19.66612,53.9147],[19.66612,53.91442],[19.66639,53.9138],[19.66582,53.91179],[19.66593,53.91115],[19.66656,53.90944],[19.66667,53.90675],[19.66337,53.90558],[19.66146,53.90455],[19.65907,53.90216],[19.65875,53.90195],[19.65693,53.90152],[19.65259,53.90077],[19.65042,53.90001],[19.65037,53.89994],[19.65098,53.89833],[19.65101,53.89739]]}},{"type":"Feature","properties":{"numer":"519","klasa":"droga gĹ‚Ăłwna","kat":"wojewodzka"},"geometry":{"type":"LineString","coordinates":[[19.73556,53.90557],[19.7358,53.90556]]}},{"type":"Feature","properties":{"numer":"148026N","klasa":"","kat":"powiatowa"},"geometry":{"type":"LineString","coordinates":[[19.73509,53.90595],[19.73556,53.90557]]}},{"type":"Feature","properties":{"numer":"148026N","klasa":"droga lokalna","kat":"powiatowa"},"geometry":{"type":"LineString","coordinates":[[19.73453,53.90644],[19.73509,53.90595]]}},{"type":"Feature","properties":{"numer":"148026N","klasa":"droga lokalna","kat":"powiatowa"},"geometry":{"type":"LineString","coordinates":[[19.73372,53.90714],[19.73453,53.90644]]}},{"type":"Feature","properties":{"numer":"148026N","klasa":"droga lokalna","kat":"powiatowa"},"geometry":{"type":"LineString","coordinates":[[19.73293,53.90782],[19.73372,53.90714]]}},{"type":"Feature","properties":{"numer":"148026N","klasa":"droga lokalna","kat":"powiatowa"},"geometry":{"type":"LineString","coordinates":[[19.73149,53.90902],[19.73293,53.90782]]}},{"type":"Feature","properties":{"numer":"1179N","klasa":"droga zbiorcza","kat":"powiatowa"},"geometry":{"type":"LineString","coordinates":[[19.73149,53.90902],[19.73175,53.90946],[19.73168,53.91002],[19.73563,53.9117]]}},{"type":"Feature","properties":{"numer":"1179N","klasa":"droga zbiorcza","kat":"powiatowa"},"geometry":{"type":"LineString","coordinates":[[19.73563,53.9117],[19.73604,53.91188]]}},{"type":"Feature","properties":{"numer":"148026N","klasa":"droga lokalna","kat":"powiatowa"},"geometry":{"type":"LineString","coordinates":[[19.7247,53.91276],[19.72516,53.91266]]}},{"type":"Feature","properties":{"numer":"148026N","klasa":"droga lokalna","kat":"powiatowa"},"geometry":{"type":"LineString","coordinates":[[19.7245,53.9128],[19.7247,53.91276]]}},{"type":"Feature","properties":{"numer":"148026N","klasa":"droga lokalna","kat":"powiatowa"},"geometry":{"type":"LineString","coordinates":[[19.72372,53.91353],[19.7239,53.91311],[19.7245,53.9128]]}},{"type":"Feature","properties":{"numer":"148026N","klasa":"droga lokalna","kat":"powiatowa"},"geometry":{"type":"LineString","coordinates":[[19.72372,53.91404],[19.72372,53.91353]]}},{"type":"Feature","properties":{"numer":"148026N","klasa":"droga lokalna","kat":"powiatowa"},"geometry":{"type":"LineString","coordinates":[[19.72289,53.91598],[19.72365,53.91479],[19.72372,53.91404]]}},{"type":"Feature","properties":{"numer":"148026N","klasa":"droga lokalna","kat":"powiatowa"},"geometry":{"type":"LineString","coordinates":[[19.72177,53.91713],[19.72289,53.91598]]}},{"type":"Feature","properties":{"numer":"148026N","klasa":"droga lokalna","kat":"powiatowa"},"geometry":{"type":"LineString","coordinates":[[19.72177,53.91713],[19.72035,53.91835]]}},{"type":"Feature","properties":{"numer":"148026N","klasa":"droga lokalna","kat":"powiatowa"},"geometry":{"type":"LineString","coordinates":[[19.72035,53.91835],[19.71796,53.92042]]}},{"type":"Feature","properties":{"numer":"148026N","klasa":"droga lokalna","kat":"powiatowa"},"geometry":{"type":"LineString","coordinates":[[19.71796,53.92042],[19.71545,53.9226]]}},{"type":"Feature","properties":{"numer":"148026N","klasa":"droga lokalna","kat":"powiatowa"},"geometry":{"type":"LineString","coordinates":[[19.71545,53.9226],[19.71304,53.92467]]}},{"type":"Feature","properties":{"numer":"148026N","klasa":"droga lokalna","kat":"powiatowa"},"geometry":{"type":"LineString","coordinates":[[19.7087,53.92866],[19.7101,53.9272],[19.71304,53.92467]]}},{"type":"Feature","properties":{"numer":"148026N","klasa":"droga lokalna","kat":"powiatowa"},"geometry":{"type":"LineString","coordinates":[[19.70838,53.92906],[19.7087,53.92866]]}},{"type":"Feature","properties":{"numer":"148026N","klasa":"droga lokalna","kat":"powiatowa"},"geometry":{"type":"LineString","coordinates":[[19.74998,53.86197],[19.75018,53.8606]]}},{"type":"Feature","properties":{"numer":"1190N","klasa":"","kat":"powiatowa"},"geometry":{"type":"LineString","coordinates":[[19.74737,53.86185],[19.74776,53.86187]]}},{"type":"Feature","properties":{"numer":"1190N","klasa":"","kat":"powiatowa"},"geometry":{"type":"LineString","coordinates":[[19.74776,53.86187],[19.74814,53.86189]]}},{"type":"Feature","properties":{"numer":"1190N","klasa":"","kat":"powiatowa"},"geometry":{"type":"LineString","coordinates":[[19.74814,53.86189],[19.74998,53.86197]]}},{"type":"Feature","properties":{"numer":"519","klasa":"droga gĹ‚Ăłwna","kat":"wojewodzka"},"geometry":{"type":"LineString","coordinates":[[19.74432,53.90417],[19.74588,53.90437],[19.74652,53.90437],[19.75316,53.90302],[19.76101,53.90239],[19.76517,53.90169],[19.76709,53.90144],[19.7682,53.90145],[19.77228,53.90181],[19.77512,53.90139],[19.77646,53.9011],[19.77759,53.901]]}},{"type":"Feature","properties":{"numer":"519","klasa":"droga gĹ‚Ăłwna","kat":"wojewodzka"},"geometry":{"type":"LineString","coordinates":[[19.74411,53.90414],[19.74432,53.90417]]}},{"type":"Feature","properties":{"numer":"519","klasa":"droga gĹ‚Ăłwna","kat":"wojewodzka"},"geometry":{"type":"LineString","coordinates":[[19.77759,53.901],[19.78164,53.90125],[19.82281,53.90435],[19.82366,53.90458],[19.83082,53.90703],[19.83382,53.90789],[19.8359,53.90831]]}},{"type":"Feature","properties":{"numer":"1211N","klasa":"","kat":"powiatowa"},"geometry":{"type":"LineString","coordinates":[[19.73133,53.9502],[19.74005,53.95394],[19.74059,53.9541],[19.74219,53.95436],[19.7475,53.95517],[19.75612,53.9563],[19.75827,53.95647],[19.75973,53.95669],[19.76139,53.95714],[19.76224,53.9571],[19.76694,53.95653],[19.77009,53.95665],[19.771304883944527,53.95693447695671]]}},{"type":"Feature","properties":{"numer":"148026N","klasa":"droga lokalna","kat":"powiatowa"},"geometry":{"type":"LineString","coordinates":[[19.70698,53.93091],[19.70838,53.92906]]}},{"type":"Feature","properties":{"numer":"1179N","klasa":"droga zbiorcza","kat":"powiatowa"},"geometry":{"type":"LineString","coordinates":[[19.73072,53.94983],[19.7309,53.94935],[19.73197,53.94864],[19.73214,53.9483],[19.73112,53.94618],[19.73121,53.94584],[19.73186,53.94502],[19.73343,53.94384],[19.73371,53.94354],[19.73518,53.94055],[19.73661,53.93857],[19.73752,53.93542],[19.74004,53.93394],[19.74073,53.93247],[19.74171,53.93146],[19.74264,53.9283],[19.74388,53.92628],[19.7436,53.92557],[19.74212,53.92306],[19.74087,53.9221],[19.73961,53.92061],[19.73966,53.92052],[19.74063,53.92026],[19.7413,53.91998],[19.74404,53.91855],[19.74424,53.91832],[19.74414,53.91808],[19.74321,53.9168],[19.74268,53.91634],[19.74025,53.91541],[19.73665,53.91363],[19.73636,53.91322],[19.73657,53.91222],[19.73604,53.91188]]}},{"type":"Feature","properties":{"numer":"148026N","klasa":"droga lokalna","kat":"powiatowa"},"geometry":{"type":"LineString","coordinates":[[19.70698,53.93091],[19.70685,53.93109]]}},{"type":"Feature","properties":{"numer":"148026N","klasa":"droga lokalna","kat":"powiatowa"},"geometry":{"type":"LineString","coordinates":[[19.70685,53.93109],[19.70676,53.93121]]}},{"type":"Feature","properties":{"numer":"148026N","klasa":"droga lokalna","kat":"powiatowa"},"geometry":{"type":"LineString","coordinates":[[19.70676,53.93121],[19.70666,53.93133]]}},{"type":"Feature","properties":{"numer":"148026N","klasa":"droga lokalna","kat":"powiatowa"},"geometry":{"type":"LineString","coordinates":[[19.70666,53.93133],[19.70656,53.93146]]}},{"type":"Feature","properties":{"numer":"148026N","klasa":"droga lokalna","kat":"powiatowa"},"geometry":{"type":"LineString","coordinates":[[19.7046,53.934],[19.70656,53.93146]]}},{"type":"Feature","properties":{"numer":"E77,S7","klasa":"droga ekspresowa","kat":"krajowa"},"geometry":{"type":"LineString","coordinates":[[19.72962,53.9038],[19.72781,53.90599],[19.72688,53.90748],[19.72636,53.90875],[19.72482,53.91362],[19.72423,53.91482],[19.72338,53.91608],[19.72188,53.91767],[19.71168,53.92646],[19.70952,53.92859],[19.70829,53.93003],[19.69914,53.94187],[19.69734,53.94461],[19.69649,53.94648],[19.69595,53.94817],[19.69563,53.94997],[19.69555,53.95189],[19.6955754315898,53.95208420486754]]}},{"type":"Feature","properties":{"numer":"148026N","klasa":"droga lokalna","kat":"powiatowa"},"geometry":{"type":"LineString","coordinates":[[19.7046,53.934],[19.70265,53.93651]]}},{"type":"Feature","properties":{"numer":"148026N","klasa":"droga lokalna","kat":"powiatowa"},"geometry":{"type":"LineString","coordinates":[[19.70265,53.93651],[19.69876,53.94155]]}},{"type":"Feature","properties":{"numer":"148026N","klasa":"droga lokalna","kat":"powiatowa"},"geometry":{"type":"LineString","coordinates":[[19.69876,53.94155],[19.69652,53.94442]]}},{"type":"Feature","properties":{"numer":"148026N","klasa":"droga lokalna","kat":"powiatowa"},"geometry":{"type":"LineString","coordinates":[[19.69652,53.94442],[19.69593,53.94518]]}},{"type":"Feature","properties":{"numer":"148026N","klasa":"droga lokalna","kat":"powiatowa"},"geometry":{"type":"LineString","coordinates":[[19.69593,53.94518],[19.69583,53.94531]]}},{"type":"Feature","properties":{"numer":"148026N","klasa":"droga lokalna","kat":"powiatowa"},"geometry":{"type":"LineString","coordinates":[[19.69583,53.94531],[19.69554,53.94568]]}},{"type":"Feature","properties":{"numer":"148026N","klasa":"droga lokalna","kat":"powiatowa"},"geometry":{"type":"LineString","coordinates":[[19.69534,53.94594],[19.69554,53.94568]]}},{"type":"Feature","properties":{"numer":"148026N","klasa":"droga lokalna","kat":"powiatowa"},"geometry":{"type":"LineString","coordinates":[[19.69354,53.94867],[19.69392,53.94778],[19.69534,53.94594]]}},{"type":"Feature","properties":{"numer":"1211N","klasa":"","kat":"powiatowa"},"geometry":{"type":"LineString","coordinates":[[19.73072,53.94983],[19.73133,53.9502]]}},{"type":"Feature","properties":{"numer":"1179N","klasa":"droga zbiorcza","kat":"powiatowa"},"geometry":{"type":"LineString","coordinates":[[19.73059,53.95035],[19.73072,53.94983]]}},{"type":"Feature","properties":{"numer":"148026N","klasa":"droga lokalna","kat":"powiatowa"},"geometry":{"type":"LineString","coordinates":[[19.69414,53.95169],[19.69349,53.94981],[19.69354,53.94867]]}},{"type":"Feature","properties":{"numer":"1179N","klasa":"droga zbiorcza","kat":"powiatowa"},"geometry":{"type":"LineString","coordinates":[[19.73059,53.95035],[19.73133,53.9502]]}},{"type":"Feature","properties":{"numer":"1179N","klasa":"droga zbiorcza","kat":"powiatowa"},"geometry":{"type":"LineString","coordinates":[[19.73048,53.95051],[19.73059,53.95035]]}},{"type":"Feature","properties":{"numer":"1179N","klasa":"droga zbiorcza","kat":"powiatowa"},"geometry":{"type":"LineString","coordinates":[[19.72996,53.95086],[19.73048,53.95051]]}},{"type":"Feature","properties":{"numer":"1179N","klasa":"droga zbiorcza","kat":"powiatowa"},"geometry":{"type":"LineString","coordinates":[[19.71557,53.95824],[19.71656,53.95826],[19.71744,53.95802],[19.72996,53.95086]]}},{"type":"Feature","properties":{"numer":"1991N","klasa":"droga zbiorcza","kat":"powiatowa"},"geometry":{"type":"LineString","coordinates":[[19.694178549182457,53.95179279781988],[19.69414,53.95169]]}},{"type":"Feature","properties":{"numer":"1179N","klasa":"droga zbiorcza","kat":"powiatowa"},"geometry":{"type":"LineString","coordinates":[[19.71538,53.95823],[19.71557,53.95824]]}},{"type":"Feature","properties":{"numer":"1179N","klasa":"droga zbiorcza","kat":"powiatowa"},"geometry":{"type":"LineString","coordinates":[[19.705441115374796,53.96190163306537],[19.70568,53.96185],[19.71401,53.95841],[19.71458,53.95825],[19.71538,53.95823]]}},{"type":"Feature","properties":{"numer":"1205N","klasa":"","kat":"powiatowa"},"geometry":{"type":"LineString","coordinates":[[19.5803,53.90912],[19.58031,53.90914]]}},{"type":"Feature","properties":{"numer":"1205N","klasa":"","kat":"powiatowa"},"geometry":{"type":"LineString","coordinates":[[19.58031,53.90914],[19.58055,53.90935]]}},{"type":"Feature","properties":{"numer":"1205N","klasa":"","kat":"powiatowa"},"geometry":{"type":"LineString","coordinates":[[19.58055,53.90935],[19.580676326383923,53.90945298346516]]}},{"type":"Feature","properties":{"numer":"1205N","klasa":"","kat":"powiatowa"},"geometry":{"type":"LineString","coordinates":[[19.581660451612905,53.91024864516129],[19.58229,53.91074]]}},{"type":"Feature","properties":{"numer":"1928N","klasa":"","kat":"powiatowa"},"geometry":{"type":"LineString","coordinates":[[19.6155,53.90476],[19.61219,53.90643],[19.60949,53.91005],[19.60615,53.91643]]}},{"type":"Feature","properties":{"numer":"1205N","klasa":"","kat":"powiatowa"},"geometry":{"type":"LineString","coordinates":[[19.58229,53.91074],[19.58241,53.91083]]}},{"type":"Feature","properties":{"numer":"1205N","klasa":"","kat":"powiatowa"},"geometry":{"type":"LineString","coordinates":[[19.58241,53.91083],[19.58255,53.91095]]}},{"type":"Feature","properties":{"numer":"1205N","klasa":"","kat":"powiatowa"},"geometry":{"type":"LineString","coordinates":[[19.58241,53.91083],[19.58345,53.91161],[19.58409,53.91296],[19.58346,53.91417],[19.58346,53.91485],[19.58368,53.91566],[19.58361,53.91585],[19.58339,53.91601]]}},{"type":"Feature","properties":{"numer":"1205N","klasa":"","kat":"powiatowa"},"geometry":{"type":"LineString","coordinates":[[19.58339,53.91601],[19.58253,53.91652],[19.58222,53.91721],[19.5827,53.91951],[19.58324,53.92],[19.5835,53.92041],[19.58718,53.92318],[19.58799,53.92351],[19.58962,53.92383],[19.592,53.92467],[19.59253,53.92501],[19.59395,53.92622],[19.59425,53.92636]]}},{"type":"Feature","properties":{"numer":"1928N","klasa":"","kat":"powiatowa"},"geometry":{"type":"LineString","coordinates":[[19.60615,53.91643],[19.60605,53.91663],[19.60564,53.91696],[19.60404,53.91772],[19.60209,53.9193],[19.60069,53.92117],[19.59997,53.92195],[19.59486,53.9256],[19.59425,53.92636]]}},{"type":"Feature","properties":{"numer":"526","klasa":"droga zbiorcza","kat":"wojewodzka"},"geometry":{"type":"LineString","coordinates":[[19.576061305698694,53.9484035759321],[19.57722,53.94797],[19.58094,53.94692],[19.58261,53.94627],[19.58597,53.94554],[19.58645,53.94549]]}},{"type":"Feature","properties":{"numer":"1928N","klasa":"","kat":"powiatowa"},"geometry":{"type":"LineString","coordinates":[[19.59425,53.92636],[19.59594,53.92825],[19.59652,53.92935],[19.59682,53.93034],[19.60198,53.93664],[19.60229,53.93751],[19.60272,53.93979],[19.60247,53.94002],[19.59993,53.94073],[19.59496,53.9432],[19.59192,53.94382],[19.58674,53.94532]]}},{"type":"Feature","properties":{"numer":"1928N","klasa":"","kat":"powiatowa"},"geometry":{"type":"LineString","coordinates":[[19.58674,53.94532],[19.58645,53.94549]]}},{"type":"Feature","properties":{"numer":"526","klasa":"droga zbiorcza","kat":"wojewodzka"},"geometry":{"type":"LineString","coordinates":[[19.58645,53.94549],[19.58676,53.94552],[19.58729,53.94586],[19.58916,53.94835],[19.58979768365803,53.951879713769095]]}},{"type":"Feature","properties":{"numer":"526","klasa":"droga zbiorcza","kat":"wojewodzka"},"geometry":{"type":"LineString","coordinates":[[19.610277388137355,53.961142903225806],[19.6103,53.96116],[19.61032060653188,53.961195443234836]]}},{"type":"Feature","properties":{"numer":"526","klasa":"droga zbiorcza","kat":"wojewodzka"},"geometry":{"type":"LineString","coordinates":[[19.61046576550939,53.96144511667615],[19.6113,53.96288]]}},{"type":"Feature","properties":{"numer":"526","klasa":"droga zbiorcza","kat":"wojewodzka"},"geometry":{"type":"LineString","coordinates":[[19.6113,53.96288],[19.611375971179257,53.96290916750632]]}},{"type":"Feature","properties":{"numer":"1207N","klasa":"","kat":"powiatowa"},"geometry":{"type":"LineString","coordinates":[[19.67572,53.92544],[19.67436,53.92496],[19.6742,53.92482],[19.67403,53.92265],[19.67252,53.92128],[19.6714,53.91933],[19.67078,53.91869],[19.66847,53.91704]]}},{"type":"Feature","properties":{"numer":"1182N","klasa":"","kat":"powiatowa"},"geometry":{"type":"LineString","coordinates":[[19.66362,53.93211],[19.66322,53.93169],[19.66296,53.93154],[19.6605,53.93093],[19.65764,53.93072],[19.65647,53.9304],[19.6489,53.9298],[19.64472,53.92841],[19.64414,53.92808],[19.64209,53.92528],[19.64178,53.9253],[19.64102,53.92561],[19.64063,53.9256],[19.63536,53.92331],[19.63489,53.92317],[19.63369,53.92301],[19.63308,53.92281],[19.63277,53.92266],[19.63249,53.92232],[19.63201,53.92086],[19.63182,53.92065],[19.63143,53.92049],[19.62941,53.92015],[19.62493,53.91994],[19.61855,53.92028],[19.61708,53.92029],[19.61632,53.92005],[19.61326,53.91823],[19.61254,53.9179],[19.60615,53.91643]]}},{"type":"Feature","properties":{"numer":"1207N","klasa":"","kat":"powiatowa"},"geometry":{"type":"LineString","coordinates":[[19.67678,53.92678],[19.67724,53.92656],[19.67742,53.9263],[19.67742,53.92607],[19.67572,53.92544]]}},{"type":"Feature","properties":{"numer":"1207N","klasa":"","kat":"powiatowa"},"geometry":{"type":"LineString","coordinates":[[19.66362,53.93211],[19.66386,53.93165],[19.66621,53.9299],[19.66707,53.92942],[19.67483,53.92684],[19.67542,53.92677],[19.67678,53.92678]]}},{"type":"Feature","properties":{"numer":"1182N","klasa":"","kat":"powiatowa"},"geometry":{"type":"LineString","coordinates":[[19.70265,53.93651],[19.70177,53.93624],[19.7015,53.93607],[19.70054,53.93468],[19.70039,53.93455],[19.70001,53.93447],[19.69946,53.93453],[19.69295,53.93622],[19.69177,53.93596],[19.68749,53.93462],[19.68698,53.93451],[19.68507,53.93435],[19.68346,53.93443],[19.68032,53.93508],[19.67822,53.93522],[19.67608,53.93566],[19.67465,53.93562],[19.67244,53.93535],[19.67102,53.93554],[19.6689,53.93603],[19.66833,53.93604],[19.66711,53.93586],[19.66659,53.93562],[19.66644,53.93542],[19.66614,53.93402],[19.66529,53.93282],[19.66508,53.93264],[19.66362,53.93211]]}},{"type":"Feature","properties":{"numer":"519","klasa":"droga gĹ‚Ăłwna","kat":"wojewodzka"},"geometry":{"type":"LineString","coordinates":[[19.8359,53.90831],[19.83612,53.90834]]}},{"type":"Feature","properties":{"numer":"519","klasa":"droga gĹ‚Ăłwna","kat":"wojewodzka"},"geometry":{"type":"LineString","coordinates":[[19.83612,53.90834],[19.83673,53.90842]]}},{"type":"Feature","properties":{"numer":"519","klasa":"droga gĹ‚Ăłwna","kat":"wojewodzka"},"geometry":{"type":"LineString","coordinates":[[19.83673,53.90842],[19.83685,53.90844]]}},{"type":"Feature","properties":{"numer":"1213N","klasa":"","kat":"powiatowa"},"geometry":{"type":"LineString","coordinates":[[19.83673,53.90842],[19.83628,53.90908],[19.83562,53.90975],[19.83495,53.91037],[19.83461,53.91053]]}},{"type":"Feature","properties":{"numer":"519","klasa":"droga gĹ‚Ăłwna","kat":"wojewodzka"},"geometry":{"type":"LineString","coordinates":[[19.83685,53.90844],[19.8401,53.90888],[19.84253,53.90948],[19.84834,53.91057],[19.85201,53.91087]]}},{"type":"Feature","properties":{"numer":"1213N","klasa":"","kat":"powiatowa"},"geometry":{"type":"LineString","coordinates":[[19.83461,53.91053],[19.83448,53.91057]]}},{"type":"Feature","properties":{"numer":"519","klasa":"droga gĹ‚Ăłwna","kat":"wojewodzka"},"geometry":{"type":"LineString","coordinates":[[19.85201,53.91087],[19.85214,53.9109]]}},{"type":"Feature","properties":{"numer":"1213N","klasa":"","kat":"powiatowa"},"geometry":{"type":"LineString","coordinates":[[19.81438,53.92303],[19.81449,53.92202],[19.81437,53.92103],[19.81444,53.92028],[19.81615,53.91966],[19.81975,53.91854],[19.8221,53.91749],[19.82346,53.91667],[19.82469,53.91561],[19.82615,53.91458],[19.82701,53.91418],[19.82914,53.91344],[19.83091,53.912],[19.83231,53.91103],[19.83282,53.91092],[19.83352,53.91095],[19.83393,53.91073],[19.83448,53.91057]]}},{"type":"Feature","properties":{"numer":"1213N","klasa":"","kat":"powiatowa"},"geometry":{"type":"LineString","coordinates":[[19.83924238372945,53.933489160097295],[19.83742,53.93222],[19.83628,53.93178],[19.83118,53.93116],[19.83033,53.93056],[19.82915,53.92989],[19.82863,53.92932],[19.82767,53.9285],[19.82617,53.92784],[19.82525,53.92712],[19.82448,53.92666],[19.82278,53.92582],[19.8197,53.92474],[19.81919,53.92441],[19.81826,53.92339],[19.81776,53.92323],[19.81651,53.92322],[19.81538,53.92309],[19.81465,53.92315],[19.81438,53.92303]]}},{"type":"Feature","properties":{"numer":"519","klasa":"droga gĹ‚Ăłwna","kat":"wojewodzka"},"geometry":{"type":"LineString","coordinates":[[19.85214,53.9109],[19.8592,53.91278],[19.86263,53.91351],[19.86579,53.91468],[19.86663,53.91489],[19.86756,53.915],[19.87123,53.91497]]}},{"type":"Feature","properties":{"numer":"519","klasa":"droga gĹ‚Ăłwna","kat":"wojewodzka"},"geometry":{"type":"LineString","coordinates":[[19.87123,53.91497],[19.87132,53.91498]]}},{"type":"Feature","properties":{"numer":"519","klasa":"droga gĹ‚Ăłwna","kat":"wojewodzka"},"geometry":{"type":"LineString","coordinates":[[19.876975802238782,53.91675215485074],[19.87588,53.91668],[19.87502,53.91657],[19.87438,53.91636],[19.87345,53.91597],[19.87233,53.91519],[19.87132,53.91498]]}}]}