{"type":"FeatureCollection","features":[{"type":"Feature","properties":{"numer":"1261N","klasa":"","kat":"powiatowa"},"geometry":{"type":"LineString","coordinates":[[20.12179,53.47096],[20.11971,53.46964],[20.11878,53.46922],[20.11923,53.46886],[20.12052,53.46824],[20.12564,53.4662],[20.129306948260183,53.46407640027346]]}},{"type":"Feature","properties":{"numer":"1253N","klasa":"","kat":"powiatowa"},"geometry":{"type":"LineString","coordinates":[[20.192973464248293,53.4610659085161],[20.18984,53.4635],[20.18917,53.46538],[20.18884,53.46585],[20.1846,53.46889],[20.18434,53.46953],[20.18447,53.47036],[20.18437,53.47077],[20.1837,53.47227],[20.18323,53.47386],[20.18253,53.47486],[20.18252,53.47573],[20.18205,53.47672],[20.18232,53.47816],[20.1823,53.4793],[20.1821,53.4797],[20.1814,53.48057],[20.17628,53.49474],[20.17529,53.49606],[20.17528,53.49622],[20.17594,53.49725],[20.1758,53.49759]]}},{"type":"Feature","properties":{"numer":"537","klasa":"droga zbiorcza","kat":"wojewodzka"},"geometry":{"type":"LineString","coordinates":[[20.13523,53.49623],[20.13479,53.49601]]}},{"type":"Feature","properties":{"numer":"537","klasa":"droga zbiorcza","kat":"wojewodzka"},"geometry":{"type":"LineString","coordinates":[[20.13523,53.49623],[20.1367,53.49677],[20.13747,53.4969],[20.14784,53.49728],[20.15528,53.49717],[20.16381,53.49782],[20.16576,53.49835]]}},{"type":"Feature","properties":{"numer":"1253N","klasa":"","kat":"powiatowa"},"geometry":{"type":"LineString","coordinates":[[20.1758,53.49759],[20.17563,53.49769]]}},{"type":"Feature","properties":{"numer":"1253N","klasa":"","kat":"powiatowa"},"geometry":{"type":"LineString","coordinates":[[20.17563,53.49769],[20.17493,53.49802],[20.17432,53.49815],[20.17356,53.49827],[20.17205,53.49834],[20.17176,53.49842],[20.17163,53.49865],[20.17181,53.4997],[20.17161,53.50024]]}},{"type":"Feature","properties":{"numer":"537","klasa":"droga zbiorcza","kat":"wojewodzka"},"geometry":{"type":"LineString","coordinates":[[20.16576,53.49835],[20.17099,53.49993],[20.17161,53.50024]]}},{"type":"Feature","properties":{"numer":"537","klasa":"droga zbiorcza","kat":"wojewodzka"},"geometry":{"type":"LineString","coordinates":[[20.17161,53.50024],[20.17198,53.50078],[20.17248,53.5026],[20.17271,53.50302],[20.17637,53.50642]]}},{"type":"Feature","properties":{"numer":"537","klasa":"droga zbiorcza","kat":"wojewodzka"},"geometry":{"type":"LineString","coordinates":[[20.17637,53.50642],[20.17644,53.50649]]}},{"type":"Feature","properties":{"numer":"537","klasa":"droga zbiorcza","kat":"wojewodzka"},"geometry":{"type":"LineString","coordinates":[[20.17644,53.50649],[20.17833,53.50816],[20.18336,53.51122],[20.1843,53.5115],[20.19342,53.51331]]}},{"type":"Feature","properties":{"numer":"1585N","klasa":"","kat":"powiatowa"},"geometry":{"type":"LineString","coordinates":[[20.19655,53.51028],[20.1964,53.51031]]}},{"type":"Feature","properties":{"numer":"1585N","klasa":"","kat":"powiatowa"},"geometry":{"type":"LineString","coordinates":[[20.19342,53.51331],[20.19399,53.51212],[20.19439,53.51162],[20.19565,53.51061],[20.1964,53.51031]]}},{"type":"Feature","properties":{"numer":"1253N","klasa":"","kat":"powiatowa"},"geometry":{"type":"LineString","coordinates":[[20.14268,53.53107],[20.1433,53.53032],[20.14321,53.52947],[20.14427,53.52744],[20.14448,53.52613],[20.14532,53.52507],[20.14588,53.52477],[20.14772,53.52426],[20.14991,53.52328],[20.15027,53.52302],[20.15044,53.52263],[20.15066,53.5225],[20.15188,53.52229],[20.15205,53.5222],[20.15204,53.52109],[20.15225,53.5207],[20.15212,53.52032],[20.15116,53.51859],[20.15069,53.51721],[20.15025,53.51662],[20.14976,53.51541],[20.14932,53.5147],[20.15198,53.51383],[20.15317,53.51328],[20.15374,53.51315],[20.15443,53.5131],[20.15506,53.51256],[20.15589,53.51088],[20.15529,53.50893],[20.15617,53.50754],[20.1561,53.50698],[20.15621,53.50675],[20.15712,53.50631],[20.15808,53.50556],[20.15919,53.50401],[20.16227,53.50073],[20.16385,53.49956],[20.16576,53.49835]]}},{"type":"Feature","properties":{"numer":"1924N","klasa":"","kat":"powiatowa"},"geometry":{"type":"LineString","coordinates":[[20.13786,53.53059],[20.13904,53.53057],[20.14268,53.53107]]}},{"type":"Feature","properties":{"numer":"1253N","klasa":"","kat":"powiatowa"},"geometry":{"type":"LineString","coordinates":[[20.14284,53.53604],[20.14277,53.53409],[20.14296,53.53198],[20.14284,53.53131],[20.14268,53.53107]]}},{"type":"Feature","properties":{"numer":"1253N","klasa":"","kat":"powiatowa"},"geometry":{"type":"LineString","coordinates":[[20.1428,53.53685],[20.14284,53.53604]]}},{"type":"Feature","properties":{"numer":"1253N","klasa":"","kat":"powiatowa"},"geometry":{"type":"LineString","coordinates":[[20.14286,53.53745],[20.1428,53.53685]]}},{"type":"Feature","properties":{"numer":"1260N","klasa":"","kat":"powiatowa"},"geometry":{"type":"LineString","coordinates":[[20.15792,53.5465],[20.1562,53.54561],[20.15374,53.54376],[20.15225,53.54238],[20.15171,53.54203],[20.15007,53.54143],[20.14822,53.54102],[20.14757,53.54076],[20.14729,53.54049],[20.14716,53.53979],[20.14683,53.53919],[20.14684,53.53854],[20.14623,53.53795],[20.14585,53.5378],[20.14536,53.53771],[20.14343,53.53779],[20.1431,53.53768],[20.14286,53.53745]]}},{"type":"Feature","properties":{"numer":"1260N","klasa":"","kat":"powiatowa"},"geometry":{"type":"LineString","coordinates":[[20.16385,53.54857],[20.15792,53.5465]]}},{"type":"Feature","properties":{"numer":"1260N","klasa":"","kat":"powiatowa"},"geometry":{"type":"LineString","coordinates":[[20.16897389731622,53.55126022170362],[20.16849,53.55129],[20.16704,53.55179],[20.16636,53.55135],[20.16415,53.55053],[20.16324,53.55029],[20.16303,53.55007],[20.16384,53.54927],[20.16377,53.5488],[20.16385,53.54857]]}},{"type":"Feature","properties":{"numer":"1585N","klasa":"","kat":"powiatowa"},"geometry":{"type":"LineString","coordinates":[[20.19655,53.51028],[20.19675,53.51016],[20.19749,53.51026],[20.19868,53.51004],[20.19963,53.51003],[20.20472,53.51077],[20.20526,53.5107],[20.20629,53.50908],[20.20936,53.50529],[20.21021,53.50434],[20.21075,53.50396],[20.21564,53.50117],[20.22354,53.49717],[20.23411,53.49257],[20.23534,53.49238],[20.23753,53.49189],[20.23767,53.49171],[20.2374,53.49084],[20.23742,53.49039],[20.23876,53.48837],[20.2412,53.48598],[20.24162,53.48577],[20.24541,53.48476],[20.250976456847706,53.48182187017374]]}},{"type":"Feature","properties":{"numer":"537","klasa":"droga zbiorcza","kat":"wojewodzka"},"geometry":{"type":"LineString","coordinates":[[20.19342,53.51331],[20.211963834841576,53.51700570135746]]}},{"type":"Feature","properties":{"numer":"537","klasa":"droga zbiorcza","kat":"wojewodzka"},"geometry":{"type":"LineString","coordinates":[[20.22012847481814,53.5196630360936],[20.22864109562176,53.52264191798991]]}},{"type":"Feature","properties":{"numer":"1253N","klasa":"","kat":"powiatowa"},"geometry":{"type":"LineString","coordinates":[[20.1354,53.56404],[20.13643,53.5633],[20.13864,53.56093],[20.14232,53.55546],[20.14644,53.54841],[20.14659,53.54726],[20.14647,53.5464],[20.14697,53.54522],[20.14636,53.54455],[20.14566,53.544],[20.1456,53.54322],[20.14508,53.54271],[20.1448,53.54223],[20.14452,53.54097],[20.1443,53.54062],[20.14411,53.53986],[20.1433,53.53894],[20.14293,53.53831],[20.1428,53.53784],[20.14286,53.53745]]}},{"type":"Feature","properties":{"numer":"1253N","klasa":"","kat":"powiatowa"},"geometry":{"type":"LineString","coordinates":[[20.13477,53.56375],[20.1354,53.56404]]}},{"type":"Feature","properties":{"numer":"E77,S7","klasa":"droga ekspresowa","kat":"krajowa"},"geometry":{"type":"LineString","coordinates":[[20.135050630476925,53.591790609538585],[20.13492,53.59181]]}},{"type":"Feature","properties":{"numer":"1261N","klasa":"","kat":"powiatowa"},"geometry":{"type":"LineString","coordinates":[[20.09526,53.48342],[20.10374,53.47896],[20.10825,53.47683],[20.11911,53.47197],[20.12069,53.4713],[20.12179,53.47096]]}},{"type":"Feature","properties":{"numer":"1266N","klasa":"","kat":"powiatowa"},"geometry":{"type":"LineString","coordinates":[[20.074279912733417,53.47742712207938],[20.07509,53.47762],[20.09526,53.48342]]}},{"type":"Feature","properties":{"numer":"1266N","klasa":"","kat":"powiatowa"},"geometry":{"type":"LineString","coordinates":[[20.12179,53.47096],[20.12388,53.47254],[20.12419,53.47291],[20.1324,53.49388]]}},{"type":"Feature","properties":{"numer":"1266N","klasa":"","kat":"powiatowa"},"geometry":{"type":"LineString","coordinates":[[20.09526,53.48342],[20.13234,53.49413]]}},{"type":"Feature","properties":{"numer":"1266N","klasa":"","kat":"powiatowa"},"geometry":{"type":"LineString","coordinates":[[20.1324,53.49388],[20.13234,53.49413]]}},{"type":"Feature","properties":{"numer":"1261N","klasa":"","kat":"powiatowa"},"geometry":{"type":"LineString","coordinates":[[20.07954,53.50472],[20.08004,53.5044],[20.08107,53.50339],[20.08288,53.50214],[20.08308,53.5019],[20.08268,53.50045],[20.08096,53.49812],[20.08089,53.49791],[20.081,53.4977],[20.08734,53.4914],[20.08762,53.49048],[20.09137,53.48589],[20.09153,53.48518],[20.09526,53.48342]]}},{"type":"Feature","properties":{"numer":"1266N","klasa":"","kat":"powiatowa"},"geometry":{"type":"LineString","coordinates":[[20.13234,53.49413],[20.13254,53.4942]]}},{"type":"Feature","properties":{"numer":"1266N","klasa":"","kat":"powiatowa"},"geometry":{"type":"LineString","coordinates":[[20.13254,53.4942],[20.13456,53.49582]]}},{"type":"Feature","properties":{"numer":"1266N","klasa":"","kat":"powiatowa"},"geometry":{"type":"LineString","coordinates":[[20.13456,53.49582],[20.13465,53.49593]]}},{"type":"Feature","properties":{"numer":"537","klasa":"droga zbiorcza","kat":"wojewodzka"},"geometry":{"type":"LineString","coordinates":[[20.13449,53.49599],[20.13465,53.49593]]}},{"type":"Feature","properties":{"numer":"537","klasa":"droga zbiorcza","kat":"wojewodzka"},"geometry":{"type":"LineString","coordinates":[[20.13465,53.49593],[20.13479,53.49601]]}},{"type":"Feature","properties":{"numer":"537","klasa":"droga zbiorcza","kat":"wojewodzka"},"geometry":{"type":"LineString","coordinates":[[20.13449,53.49599],[20.13411,53.49607]]}},{"type":"Feature","properties":{"numer":"537","klasa":"droga zbiorcza","kat":"wojewodzka"},"geometry":{"type":"LineString","coordinates":[[20.08168,53.50577],[20.09557,53.50406],[20.10627,53.50365],[20.11297,53.50259],[20.11647,53.50162],[20.12306,53.49959],[20.12483,53.49912],[20.13411,53.49607]]}},{"type":"Feature","properties":{"numer":"542","klasa":"droga gĹ‚Ăłwna","kat":"wojewodzka"},"geometry":{"type":"LineString","coordinates":[[20.07921,53.50448],[20.07954,53.50472]]}},{"type":"Feature","properties":{"numer":"537","klasa":"droga zbiorcza","kat":"wojewodzka"},"geometry":{"type":"LineString","coordinates":[[20.07877,53.50472],[20.07921,53.50448]]}},{"type":"Feature","properties":{"numer":"542","klasa":"droga gĹ‚Ăłwna","kat":"wojewodzka"},"geometry":{"type":"LineString","coordinates":[[20.07954,53.50472],[20.08111,53.50589]]}},{"type":"Feature","properties":{"numer":"537","klasa":"droga zbiorcza","kat":"wojewodzka"},"geometry":{"type":"LineString","coordinates":[[20.08111,53.50589],[20.08168,53.50577]]}},{"type":"Feature","properties":{"numer":"542","klasa":"droga gĹ‚Ăłwna","kat":"wojewodzka"},"geometry":{"type":"LineString","coordinates":[[20.08111,53.50589],[20.08176,53.5067],[20.08972,53.51838],[20.0903,53.51931],[20.09056,53.52],[20.09056,53.52084],[20.08756,53.53358],[20.08774,53.53474],[20.08806,53.53544],[20.08907,53.537],[20.08925,53.53803]]}},{"type":"Feature","properties":{"numer":"1924N","klasa":"","kat":"powiatowa"},"geometry":{"type":"LineString","coordinates":[[20.08918,53.53886],[20.10383,53.53607],[20.105,53.53599],[20.1064,53.53616],[20.10775,53.53598],[20.1089,53.5356],[20.11143,53.53515],[20.1133,53.53448],[20.11447,53.53388],[20.11807,53.53303],[20.11925,53.53253],[20.11988,53.53239],[20.12177,53.53211],[20.12292,53.53224],[20.12378,53.53218],[20.12436,53.53205],[20.12564,53.53156],[20.12599,53.5315],[20.13786,53.53059]]}},{"type":"Feature","properties":{"numer":"542","klasa":"droga gĹ‚Ăłwna","kat":"wojewodzka"},"geometry":{"type":"LineString","coordinates":[[20.08925,53.53803],[20.08918,53.53886]]}},{"type":"Feature","properties":{"numer":"542","klasa":"droga gĹ‚Ăłwna","kat":"wojewodzka"},"geometry":{"type":"LineString","coordinates":[[20.08918,53.53886],[20.08893,53.54097]]}},{"type":"Feature","properties":{"numer":"1924N","klasa":"","kat":"powiatowa"},"geometry":{"type":"LineString","coordinates":[[20.08893,53.54097],[20.0851,53.54075],[20.07899,53.5409],[20.07503,53.54113],[20.0731,53.54092],[20.0725,53.54107]]}},{"type":"Feature","properties":{"numer":"1924N","klasa":"","kat":"powiatowa"},"geometry":{"type":"LineString","coordinates":[[20.07232,53.54113],[20.0725,53.54107]]}},{"type":"Feature","properties":{"numer":"542","klasa":"droga gĹ‚Ăłwna","kat":"wojewodzka"},"geometry":{"type":"LineString","coordinates":[[20.08893,53.54097],[20.08899,53.54238],[20.08848,53.54344],[20.08824,53.54704]]}},{"type":"Feature","properties":{"numer":"1262N","klasa":"","kat":"powiatowa"},"geometry":{"type":"LineString","coordinates":[[20.08824,53.54704],[20.10099,53.55151],[20.11632,53.55701],[20.11803,53.5584],[20.11875,53.55884],[20.12353,53.56067],[20.12591,53.56178],[20.12911,53.5626],[20.12943,53.56252],[20.13071,53.56176],[20.13094,53.56171],[20.13477,53.56375]]}},{"type":"Feature","properties":{"numer":"1253N","klasa":"","kat":"powiatowa"},"geometry":{"type":"LineString","coordinates":[[20.13459,53.56443],[20.13477,53.56375]]}},{"type":"Feature","properties":{"numer":"1253N","klasa":"","kat":"powiatowa"},"geometry":{"type":"LineString","coordinates":[[20.13149,53.56614],[20.13459,53.56443]]}},{"type":"Feature","properties":{"numer":"542","klasa":"droga gĹ‚Ăłwna","kat":"wojewodzka"},"geometry":{"type":"LineString","coordinates":[[20.063587825663024,53.48877458073323],[20.0639,53.48913],[20.06467,53.48976],[20.06647,53.49083],[20.06793,53.49293],[20.06883,53.494],[20.07769,53.50325],[20.07921,53.50448]]}},{"type":"Feature","properties":{"numer":"537","klasa":"droga zbiorcza","kat":"wojewodzka"},"geometry":{"type":"LineString","coordinates":[[20.025227946917585,53.50692492814211],[20.02623,53.50696],[20.03191,53.50738],[20.03519,53.50862],[20.03631,53.50918],[20.03762,53.5101],[20.04232,53.51229],[20.04296,53.51242],[20.04656,53.51259],[20.0494,53.51253],[20.05156,53.51225],[20.0546,53.51132],[20.05687,53.51084],[20.06065,53.5095],[20.06489,53.50848],[20.0662,53.50829],[20.07312,53.5077],[20.07582,53.50678],[20.07877,53.50472]]}},{"type":"Feature","properties":{"numer":"1924N","klasa":"","kat":"powiatowa"},"geometry":{"type":"LineString","coordinates":[[20.07232,53.54113],[20.07136,53.54156],[20.0698,53.54276],[20.0654,53.54466],[20.06412,53.54537],[20.06377,53.54573],[20.0633,53.54726],[20.06311,53.54758],[20.06022,53.54994],[20.05433,53.55411],[20.05019,53.55517],[20.04179,53.55688],[20.03726,53.55896],[20.02804,53.56191],[20.02584,53.56289],[20.02428,53.5633]]}},{"type":"Feature","properties":{"numer":"1251N","klasa":"","kat":"powiatowa"},"geometry":{"type":"LineString","coordinates":[[20.056240326950633,53.59322906126525],[20.05761,53.59261],[20.05872,53.59221],[20.05896,53.59215],[20.059064529505598,53.59220406698565]]}},{"type":"Feature","properties":{"numer":"1251N","klasa":"","kat":"powiatowa"},"geometry":{"type":"LineString","coordinates":[[20.063269353612167,53.59298034220532],[20.06378804317548,53.592899101671314]]}},{"type":"Feature","properties":{"numer":"1251N","klasa":"","kat":"powiatowa"},"geometry":{"type":"LineString","coordinates":[[20.064116862745095,53.59279725490196],[20.06461,53.5926],[20.065007226813602,53.592521478420565]]}},{"type":"Feature","properties":{"numer":"1251N","klasa":"","kat":"powiatowa"},"geometry":{"type":"LineString","coordinates":[[20.0657151446373,53.592302211838],[20.06641,53.59194],[20.06679,53.59192],[20.06726,53.59219],[20.068060247933882,53.593712210743796]]}},{"type":"Feature","properties":{"numer":"1251N","klasa":"","kat":"powiatowa"},"geometry":{"type":"LineString","coordinates":[[20.06824160789845,53.59396843441467],[20.06844,53.59406],[20.06896,53.594],[20.06941,53.59409],[20.07051,53.59384],[20.07165,53.59371],[20.07208,53.59352],[20.07332,53.59359],[20.07372,53.59351]]}},{"type":"Feature","properties":{"numer":"E77,S7","klasa":"droga ekspresowa","kat":"krajowa"},"geometry":{"type":"LineString","coordinates":[[20.08126,53.59929],[20.08008509716824,53.59981870627429]]}},{"type":"Feature","properties":{"numer":"1243N","klasa":"droga zbiorcza","kat":"powiatowa"},"geometry":{"type":"LineString","coordinates":[[20.02428,53.5633],[20.02421,53.55451],[20.02575,53.54755],[20.02566,53.54697],[20.02201,53.53969],[20.01679,53.53618],[20.01368,53.53233],[20.01174,53.53027],[20.00659751125665,53.52376894596807]]}},{"type":"Feature","properties":{"numer":"1243N","klasa":"droga zbiorcza","kat":"powiatowa"},"geometry":{"type":"LineString","coordinates":[[20.01552,53.58375],[20.01765,53.58006],[20.01782,53.57674],[20.02183,53.56732],[20.02287,53.56499],[20.02428,53.5633]]}},{"type":"Feature","properties":{"numer":"1963N","klasa":"","kat":"powiatowa"},"geometry":{"type":"LineString","coordinates":[[20.014559178525225,53.583769236739975],[20.01464,53.58376],[20.01552,53.58375]]}},{"type":"Feature","properties":{"numer":"1243N","klasa":"droga zbiorcza","kat":"powiatowa"},"geometry":{"type":"LineString","coordinates":[[20.018695555555553,53.595703888888885],[20.01805,53.59423],[20.01711,53.5895],[20.01759,53.58765],[20.01554,53.58404],[20.01552,53.58375]]}},{"type":"Feature","properties":{"numer":"542","klasa":"droga gĹ‚Ăłwna","kat":"wojewodzka"},"geometry":{"type":"LineString","coordinates":[[20.08824,53.54704],[20.08831,53.5478],[20.08849,53.54831],[20.09307,53.55708],[20.09436,53.56122],[20.0946,53.56236],[20.09429,53.56776],[20.09154,53.57567],[20.09152,53.5764],[20.09177,53.57743],[20.09178,53.57803],[20.09158,53.57841],[20.08936,53.58055],[20.0888,53.58126],[20.08852,53.58362],[20.08893,53.58435]]}},{"type":"Feature","properties":{"numer":"1253N","klasa":"","kat":"powiatowa"},"geometry":{"type":"LineString","coordinates":[[20.12056,53.57359],[20.12231,53.5724],[20.12667,53.56891],[20.12825,53.56787],[20.13149,53.56614]]}},{"type":"Feature","properties":{"numer":"1253N","klasa":"","kat":"powiatowa"},"geometry":{"type":"LineString","coordinates":[[20.08893,53.58435],[20.09222,53.58338],[20.09351,53.58319],[20.09495,53.58329],[20.09794,53.58394],[20.1005,53.58297],[20.10128,53.58229],[20.10179,53.58201],[20.10475,53.58104],[20.10592,53.58075],[20.11189,53.57845],[20.11657,53.57623],[20.12056,53.57359]]}},{"type":"Feature","properties":{"numer":"542","klasa":"droga gĹ‚Ăłwna","kat":"wojewodzka"},"geometry":{"type":"LineString","coordinates":[[20.08201,53.59159],[20.08456,53.58808],[20.08714,53.58553],[20.08818,53.58469],[20.08893,53.58435]]}},{"type":"Feature","properties":{"numer":"1251N","klasa":"","kat":"powiatowa"},"geometry":{"type":"LineString","coordinates":[[20.08201,53.59159],[20.08129,53.59166],[20.07934,53.59203],[20.07679,53.59281],[20.07476,53.5932],[20.07383,53.59348]]}},{"type":"Feature","properties":{"numer":"1251N","klasa":"","kat":"powiatowa"},"geometry":{"type":"LineString","coordinates":[[20.07383,53.59348],[20.07372,53.59351]]}},{"type":"Feature","properties":{"numer":"542","klasa":"droga gĹ‚Ăłwna","kat":"wojewodzka"},"geometry":{"type":"LineString","coordinates":[[20.0817,53.59704],[20.08174,53.59255],[20.08201,53.59159]]}},{"type":"Feature","properties":{"numer":"E77,S7","klasa":"droga ekspresowa","kat":"krajowa"},"geometry":{"type":"LineString","coordinates":[[20.13492,53.59181],[20.13149,53.59204],[20.12213,53.59189],[20.11619,53.59198],[20.11139,53.59227],[20.10673,53.59276],[20.10442,53.59307],[20.10126,53.59357],[20.09795,53.5942],[20.09254,53.59547],[20.08848,53.59666],[20.0861,53.59745],[20.08126,53.59929]]}},{"type":"Feature","properties":{"numer":"542","klasa":"droga gĹ‚Ăłwna","kat":"wojewodzka"},"geometry":{"type":"LineString","coordinates":[[20.08153,53.59756],[20.0817,53.59704]]}},{"type":"Feature","properties":{"numer":"542","klasa":"droga gĹ‚Ăłwna","kat":"wojewodzka"},"geometry":{"type":"LineString","coordinates":[[20.08146,53.59787],[20.08153,53.59756]]}},{"type":"Feature","properties":{"numer":"542","klasa":"droga gĹ‚Ăłwna","kat":"wojewodzka"},"geometry":{"type":"LineString","coordinates":[[20.0814,53.59831],[20.08146,53.59787]]}},{"type":"Feature","properties":{"numer":"542","klasa":"droga gĹ‚Ăłwna","kat":"wojewodzka"},"geometry":{"type":"LineString","coordinates":[[20.08132,53.59884],[20.0814,53.59831]]}},{"type":"Feature","properties":{"numer":"542","klasa":"droga gĹ‚Ăłwna","kat":"wojewodzka"},"geometry":{"type":"LineString","coordinates":[[20.08126,53.59929],[20.08132,53.59884]]}},{"type":"Feature","properties":{"numer":"542","klasa":"droga gĹ‚Ăłwna","kat":"wojewodzka"},"geometry":{"type":"LineString","coordinates":[[20.08114,53.59978],[20.08126,53.59929]]}},{"type":"Feature","properties":{"numer":"542","klasa":"droga gĹ‚Ăłwna","kat":"wojewodzka"},"geometry":{"type":"LineString","coordinates":[[20.080681166699076,53.600555968082446],[20.08114,53.59978]]}}]}