{"type":"FeatureCollection","features":[{"type":"Feature","properties":{"numer":"53","klasa":"droga gĹ‚Ăłwna ruchu przyĹ›pieszonego","kat":"krajowa"},"geometry":{"type":"LineString","coordinates":[[21.158831571971106,53.55225757353489],[21.16064,53.55199]]}},{"type":"Feature","properties":{"numer":"1673N","klasa":"droga zbiorcza","kat":"powiatowa"},"geometry":{"type":"LineString","coordinates":[[21.13014,53.5885],[21.13016,53.58826],[21.13108,53.58637],[21.13091,53.5849],[21.126516243681877,53.575982656306145]]}},{"type":"Feature","properties":{"numer":"1502N","klasa":"droga zbiorcza","kat":"powiatowa"},"geometry":{"type":"LineString","coordinates":[[21.13014,53.5885],[21.13715,53.58953]]}},{"type":"Feature","properties":{"numer":"1502N","klasa":"droga zbiorcza","kat":"powiatowa"},"geometry":{"type":"LineString","coordinates":[[21.111149421384827,53.584800878200035],[21.11402,53.58561],[21.12012,53.58665],[21.13014,53.5885]]}},{"type":"Feature","properties":{"numer":"1655N","klasa":"droga zbiorcza","kat":"powiatowa"},"geometry":{"type":"LineString","coordinates":[[21.11468629729035,53.60354908368363],[21.11481,53.60355],[21.1157,53.60334],[21.13012,53.59917],[21.13169,53.59843],[21.1362,53.59599]]}},{"type":"Feature","properties":{"numer":"1502N","klasa":"droga zbiorcza","kat":"powiatowa"},"geometry":{"type":"LineString","coordinates":[[21.13715,53.58953],[21.13719,53.58954]]}},{"type":"Feature","properties":{"numer":"1502N","klasa":"droga zbiorcza","kat":"powiatowa"},"geometry":{"type":"LineString","coordinates":[[21.13719,53.58954],[21.13944,53.58998],[21.13975,53.58998]]}},{"type":"Feature","properties":{"numer":"1655N","klasa":"droga zbiorcza","kat":"powiatowa"},"geometry":{"type":"LineString","coordinates":[[21.13623,53.5959],[21.13682,53.5938],[21.13792,53.59183],[21.13878,53.59107],[21.13975,53.58998]]}},{"type":"Feature","properties":{"numer":"58","klasa":"droga gĹ‚Ăłwna","kat":"krajowa"},"geometry":{"type":"LineString","coordinates":[[21.150343465400272,53.64360394251881],[21.1572,53.64532],[21.16199,53.64714],[21.1631,53.64749]]}},{"type":"Feature","properties":{"numer":"1496N","klasa":"droga zbiorcza","kat":"powiatowa"},"geometry":{"type":"LineString","coordinates":[[21.145402078053266,53.6575968278153],[21.14612,53.65743],[21.14917,53.65634],[21.15052,53.65594],[21.15155,53.65582],[21.15536,53.65567],[21.15704,53.6555],[21.16072,53.6549],[21.16466,53.65406],[21.1649,53.65385],[21.16487,53.65355],[21.1631,53.64749]]}},{"type":"Feature","properties":{"numer":"1681N","klasa":"droga zbiorcza","kat":"powiatowa"},"geometry":{"type":"LineString","coordinates":[[21.26658,53.57131],[21.26704,53.57056],[21.26915,53.56815],[21.27214,53.56603],[21.27419,53.56503],[21.27453,53.56479],[21.2753,53.56142],[21.27641,53.56023],[21.27782,53.55924],[21.28091,53.55779],[21.28122,53.55742],[21.28187,53.55595],[21.28376,53.55443],[21.28432,53.55415],[21.28735,53.55312],[21.28928,53.55201],[21.29026,53.55119],[21.29078,53.55011]]}},{"type":"Feature","properties":{"numer":"1504N","klasa":"droga zbiorcza","kat":"powiatowa"},"geometry":{"type":"LineString","coordinates":[[21.23762,53.56888],[21.23772,53.5689]]}},{"type":"Feature","properties":{"numer":"1504N","klasa":"droga zbiorcza","kat":"powiatowa"},"geometry":{"type":"LineString","coordinates":[[21.23772,53.5689],[21.24073,53.56961],[21.24573,53.56986],[21.25047,53.57039],[21.25128,53.57031],[21.25182,53.57018],[21.25309,53.56961],[21.25365,53.56945],[21.25615,53.56938],[21.25981,53.56978],[21.26315,53.57096],[21.2639,53.57109],[21.26537,53.57117]]}},{"type":"Feature","properties":{"numer":"1504N","klasa":"droga zbiorcza","kat":"powiatowa"},"geometry":{"type":"LineString","coordinates":[[21.26547,53.57118],[21.26537,53.57117]]}},{"type":"Feature","properties":{"numer":"1504N","klasa":"droga zbiorcza","kat":"powiatowa"},"geometry":{"type":"LineString","coordinates":[[21.26658,53.57131],[21.26547,53.57118]]}},{"type":"Feature","properties":{"numer":"1504N,1681N","klasa":"droga zbiorcza","kat":"powiatowa"},"geometry":{"type":"LineString","coordinates":[[21.26671,53.57133],[21.26658,53.57131]]}},{"type":"Feature","properties":{"numer":"1675N","klasa":"droga zbiorcza","kat":"powiatowa"},"geometry":{"type":"LineString","coordinates":[[21.16064,53.55199],[21.16206,53.54852],[21.16502,53.54639],[21.16579,53.54547],[21.16661,53.54473],[21.16649,53.53994],[21.16664,53.53865],[21.1686,53.53661],[21.17112,53.53496],[21.17208,53.53418],[21.17432,53.53109],[21.17471,53.53001],[21.17526,53.52435],[21.177399848940883,53.520235654081844]]}},{"type":"Feature","properties":{"numer":"53","klasa":"droga gĹ‚Ăłwna ruchu przyĹ›pieszonego","kat":"krajowa"},"geometry":{"type":"LineString","coordinates":[[21.16064,53.55199],[21.18213,53.54878],[21.18351,53.54852],[21.21638,53.53914]]}},{"type":"Feature","properties":{"numer":"1502N","klasa":"droga zbiorcza","kat":"powiatowa"},"geometry":{"type":"LineString","coordinates":[[21.13975,53.58998],[21.14033,53.58981],[21.14111,53.58979],[21.14897,53.59042],[21.15318,53.5902],[21.15414,53.58998],[21.15737,53.58881],[21.20304,53.57109],[21.21416,53.56669],[21.21446,53.56659],[21.21471,53.56659]]}},{"type":"Feature","properties":{"numer":"1496N","klasa":"droga zbiorcza","kat":"powiatowa"},"geometry":{"type":"LineString","coordinates":[[21.17156,53.62707],[21.17248,53.62638],[21.17331,53.62539],[21.18132,53.61328],[21.18215,53.61267],[21.18674,53.61],[21.19114,53.60684],[21.192,53.60644],[21.19295,53.60612],[21.19745,53.60483],[21.20046,53.60349],[21.20467,53.60228],[21.20772,53.60097],[21.20979,53.59979],[21.21031,53.5997],[21.21078,53.5997],[21.21276,53.59997],[21.21538,53.59996],[21.21597,53.59985],[21.21616,53.59969],[21.21678,53.5988],[21.21786,53.59677],[21.22019,53.58632],[21.21824,53.5718],[21.2176,53.57063],[21.21663,53.56934],[21.21622,53.56761],[21.21578,53.567],[21.21536,53.56667]]}},{"type":"Feature","properties":{"numer":"1677N","klasa":"droga zbiorcza","kat":"powiatowa"},"geometry":{"type":"LineString","coordinates":[[21.22677,53.53625],[21.22713,53.53557],[21.22833,53.53448],[21.22883,53.53363],[21.23035,53.52891],[21.2299,53.52727],[21.22945,53.5263],[21.22991,53.52582],[21.2302,53.52532],[21.2309,53.52465],[21.23234,53.52102],[21.23269,53.5207],[21.23557,53.51927],[21.24247,53.51477],[21.24309,53.51388],[21.24341,53.51234],[21.243,53.51132],[21.24307,53.51092],[21.24239,53.51069],[21.24041,53.50947],[21.23896,53.50703],[21.23868,53.50671],[21.23833,53.5065],[21.23459,53.5055],[21.2305,53.50568],[21.23004,53.50564],[21.2288,53.50535],[21.22814,53.50508],[21.22518,53.50344],[21.22305,53.50281],[21.22107,53.50176],[21.22049,53.5014],[21.21999,53.50086],[21.21912,53.49899],[21.21692,53.49704],[21.21562,53.49624],[21.21486,53.49544],[21.21458,53.49528],[21.2125,53.49484],[21.21121,53.49421],[21.20903,53.49377],[21.20879,53.49379],[21.20825,53.49424],[21.20794,53.49474],[21.20771,53.49545],[21.20664,53.50039],[21.2068,53.50086],[21.20729,53.50167],[21.20857,53.50334],[21.20864,53.5039],[21.20809,53.50495],[21.20647,53.50725],[21.20332,53.5105],[21.20243,53.51127],[21.20076,53.51207],[21.19977,53.51304],[21.19769,53.514],[21.19409,53.51541],[21.19216,53.51585],[21.19008,53.51646],[21.18931,53.51698],[21.18813,53.5176],[21.18715,53.51876],[21.18614,53.51922],[21.18552,53.51978],[21.18466,53.52031],[21.178736700036815,53.520153690695416]]}},{"type":"Feature","properties":{"numer":"53","klasa":"droga gĹ‚Ăłwna ruchu przyĹ›pieszonego","kat":"krajowa"},"geometry":{"type":"LineString","coordinates":[[21.21638,53.53914],[21.22677,53.53625]]}},{"type":"Feature","properties":{"numer":"1504N","klasa":"droga zbiorcza","kat":"powiatowa"},"geometry":{"type":"LineString","coordinates":[[21.21642,53.53966],[21.21638,53.53914]]}},{"type":"Feature","properties":{"numer":"1504N","klasa":"droga zbiorcza","kat":"powiatowa"},"geometry":{"type":"LineString","coordinates":[[21.21642,53.53966],[21.2167,53.54464],[21.21433,53.54962],[21.21413,53.55136],[21.21416,53.55235],[21.21509,53.55481],[21.21511,53.55772],[21.21638,53.56043],[21.21673,53.56087],[21.22158,53.56334]]}},{"type":"Feature","properties":{"numer":"1504N","klasa":"droga zbiorcza","kat":"powiatowa"},"geometry":{"type":"LineString","coordinates":[[21.22158,53.56334],[21.22183,53.56355]]}},{"type":"Feature","properties":{"numer":"1496N","klasa":"droga zbiorcza","kat":"powiatowa"},"geometry":{"type":"LineString","coordinates":[[21.22183,53.56355],[21.22091,53.56377]]}},{"type":"Feature","properties":{"numer":"1496N","klasa":"droga zbiorcza","kat":"powiatowa"},"geometry":{"type":"LineString","coordinates":[[21.22091,53.56377],[21.21911,53.56437],[21.21847,53.56465],[21.2165,53.56619],[21.21599,53.56648],[21.21536,53.56667]]}},{"type":"Feature","properties":{"numer":"1504N","klasa":"droga zbiorcza","kat":"powiatowa"},"geometry":{"type":"LineString","coordinates":[[21.22183,53.56355],[21.22427,53.56502],[21.22981,53.56601],[21.23372,53.56728],[21.236,53.56845],[21.23762,53.56888]]}},{"type":"Feature","properties":{"numer":"1496N,1502N","klasa":"droga zbiorcza","kat":"powiatowa"},"geometry":{"type":"LineString","coordinates":[[21.21536,53.56667],[21.21471,53.56659]]}},{"type":"Feature","properties":{"numer":"58","klasa":"droga gĹ‚Ăłwna","kat":"krajowa"},"geometry":{"type":"LineString","coordinates":[[21.1868,53.65293],[21.1881,53.65319],[21.18885,53.65326],[21.19541,53.65307],[21.20142,53.6526],[21.20352,53.65221],[21.2045,53.65213],[21.20566,53.65223],[21.20841,53.65294],[21.20955,53.65328],[21.21035,53.65363],[21.21841,53.65866],[21.21972,53.65932],[21.22187,53.66007],[21.22456084130331,53.660685861565895]]}},{"type":"Feature","properties":{"numer":"58","klasa":"droga gĹ‚Ăłwna","kat":"krajowa"},"geometry":{"type":"LineString","coordinates":[[21.230760582441707,53.66236218455108],[21.24072,53.66544],[21.24194,53.66597],[21.24844,53.66921],[21.24887,53.66947],[21.24943,53.67001]]}},{"type":"Feature","properties":{"numer":"1681N","klasa":"droga zbiorcza","kat":"powiatowa"},"geometry":{"type":"LineString","coordinates":[[21.25231,53.60214],[21.25277,53.60078],[21.25364,53.59969],[21.2595,53.59436],[21.26025,53.59354],[21.26085,53.59259],[21.26141,53.59194],[21.26232,53.59131],[21.26803,53.58507],[21.26897,53.58431],[21.26918,53.58403],[21.27057,53.57823],[21.26906,53.57583],[21.26885,53.57412],[21.2686,53.57394],[21.26776,53.5737],[21.26753,53.57352],[21.26683,53.57197],[21.26671,53.57133]]}},{"type":"Feature","properties":{"numer":"1681N","klasa":"droga zbiorcza","kat":"powiatowa"},"geometry":{"type":"LineString","coordinates":[[21.264403286384972,53.65802397496088],[21.26452,53.65781],[21.26411,53.65574],[21.25487,53.61469],[21.25228,53.60275],[21.25231,53.60214]]}},{"type":"Feature","properties":{"numer":"1498N","klasa":"droga zbiorcza","kat":"powiatowa"},"geometry":{"type":"LineString","coordinates":[[21.23209,53.66745],[21.23335,53.66752],[21.23408,53.66764],[21.23568,53.66835],[21.2372,53.66893],[21.2378,53.66908],[21.23874,53.6691],[21.23983,53.66895],[21.24132,53.66896],[21.24386,53.6694],[21.24783,53.66949],[21.24828,53.66957],[21.24943,53.67001]]}},{"type":"Feature","properties":{"numer":"58","klasa":"droga gĹ‚Ăłwna","kat":"krajowa"},"geometry":{"type":"LineString","coordinates":[[21.24943,53.67001],[21.249901234625497,53.67048361459835]]}},{"type":"Feature","properties":{"numer":"1679N","klasa":"droga zbiorcza","kat":"powiatowa"},"geometry":{"type":"LineString","coordinates":[[21.17156,53.62707],[21.17179,53.62731]]}},{"type":"Feature","properties":{"numer":"1679N","klasa":"droga zbiorcza","kat":"powiatowa"},"geometry":{"type":"LineString","coordinates":[[21.17179,53.62731],[21.17304,53.62855],[21.17483,53.62972],[21.17573,53.63011],[21.17742,53.63053],[21.17831,53.63083],[21.18076,53.63196],[21.1814,53.63238],[21.18182,53.63292],[21.18208,53.63359],[21.18329,53.63813],[21.18341,53.63909]]}},{"type":"Feature","properties":{"numer":"1496N","klasa":"droga zbiorcza","kat":"powiatowa"},"geometry":{"type":"LineString","coordinates":[[21.1631,53.64749],[21.16045,53.6385],[21.16037,53.63781],[21.16061,53.63679],[21.16229,53.63336],[21.1634,53.63204],[21.16491,53.63089],[21.17156,53.62707]]}},{"type":"Feature","properties":{"numer":"1679N","klasa":"droga zbiorcza","kat":"powiatowa"},"geometry":{"type":"LineString","coordinates":[[21.18341,53.63909],[21.18132,53.64273],[21.18146,53.64322],[21.18237,53.64446]]}},{"type":"Feature","properties":{"numer":"1679N","klasa":"droga zbiorcza","kat":"powiatowa"},"geometry":{"type":"LineString","coordinates":[[21.18237,53.64446],[21.18342,53.64602],[21.18335,53.64768],[21.1835,53.64837],[21.18677,53.65266]]}},{"type":"Feature","properties":{"numer":"58","klasa":"droga gĹ‚Ăłwna","kat":"krajowa"},"geometry":{"type":"LineString","coordinates":[[21.1631,53.64749],[21.17346,53.65035],[21.17862,53.65167],[21.17952,53.65202],[21.18085,53.65271],[21.18134,53.65273],[21.18438,53.65248],[21.18521,53.65258],[21.1868,53.65293]]}},{"type":"Feature","properties":{"numer":"1679N","klasa":"droga zbiorcza","kat":"powiatowa"},"geometry":{"type":"LineString","coordinates":[[21.18677,53.65266],[21.1868,53.65293]]}},{"type":"Feature","properties":{"numer":"1498N","klasa":"droga zbiorcza","kat":"powiatowa"},"geometry":{"type":"LineString","coordinates":[[21.178381597359078,53.68699338900757],[21.18589,53.68484],[21.18747,53.68474],[21.18948,53.68476],[21.19188,53.6842],[21.19463,53.68373],[21.19638,53.68322],[21.19898,53.6826],[21.1997,53.68262],[21.20134,53.68306],[21.20209,53.68314],[21.20293,53.6831],[21.20381,53.68281]]}},{"type":"Feature","properties":{"numer":"1498N","klasa":"","kat":"powiatowa"},"geometry":{"type":"LineString","coordinates":[[21.21364,53.68321],[21.213799512445647,53.683253201287364]]}},{"type":"Feature","properties":{"numer":"1498N","klasa":"droga zbiorcza","kat":"powiatowa"},"geometry":{"type":"LineString","coordinates":[[21.20381,53.68281],[21.20488,53.68129]]}},{"type":"Feature","properties":{"numer":"1912N","klasa":"droga zbiorcza","kat":"powiatowa"},"geometry":{"type":"LineString","coordinates":[[21.19867,53.696],[21.19773,53.69581],[21.19763,53.69572],[21.19743,53.69517],[21.19743,53.69417],[21.19717,53.69367],[21.19675,53.69348],[21.19627,53.69342],[21.19571,53.69316],[21.19542,53.69175],[21.1955,53.69109],[21.19605,53.69013],[21.19712,53.68885],[21.19707,53.6883],[21.19757,53.68808],[21.19842,53.68719],[21.19867,53.68654],[21.19946,53.68628],[21.20031,53.68637],[21.20082,53.68581],[21.20091,53.68555],[21.20222,53.68481],[21.20239,53.68427],[21.20272,53.68381],[21.20381,53.68281]]}},{"type":"Feature","properties":{"numer":"1912N","klasa":"","kat":"powiatowa"},"geometry":{"type":"LineString","coordinates":[[21.1987,53.69602],[21.19867,53.696]]}},{"type":"Feature","properties":{"numer":"1912N","klasa":"","kat":"powiatowa"},"geometry":{"type":"LineString","coordinates":[[21.1987,53.69602],[21.19883,53.6961]]}},{"type":"Feature","properties":{"numer":"1912N","klasa":"","kat":"powiatowa"},"geometry":{"type":"LineString","coordinates":[[21.19890452513966,53.69616480446927],[21.19883,53.6961]]}},{"type":"Feature","properties":{"numer":"53","klasa":"droga gĹ‚Ăłwna ruchu przyĹ›pieszonego","kat":"krajowa"},"geometry":{"type":"LineString","coordinates":[[21.22677,53.53625],[21.24339,53.53155],[21.24435,53.53112],[21.25694,53.52446],[21.25921249254403,53.523387801012625]]}},{"type":"Feature","properties":{"numer":"","klasa":"droga lokalna","kat":"gminna"},"geometry":{"type":"LineString","coordinates":[[21.30023,53.53082],[21.30233,53.52849],[21.30272,53.52793]]}},{"type":"Feature","properties":{"numer":"1518N","klasa":"droga zbiorcza","kat":"powiatowa"},"geometry":{"type":"LineString","coordinates":[[21.434666051636714,53.545044272687974],[21.43924,53.5493],[21.43975,53.54972],[21.44068,53.5501],[21.441464281594726,53.5502788712409]]}},{"type":"Feature","properties":{"numer":"","klasa":"droga lokalna","kat":"gminna"},"geometry":{"type":"LineString","coordinates":[[21.30272,53.52793],[21.30665,53.52839],[21.30908,53.52925],[21.31407,53.53345],[21.31495,53.53424],[21.31531,53.53472]]}},{"type":"Feature","properties":{"numer":"1681N","klasa":"droga zbiorcza","kat":"powiatowa"},"geometry":{"type":"LineString","coordinates":[[21.31531,53.53472],[21.3155,53.53471],[21.31611,53.5344],[21.320225541631668,53.532172413145965]]}},{"type":"Feature","properties":{"numer":"","klasa":"droga lokalna","kat":"gminna"},"geometry":{"type":"LineString","coordinates":[[21.2982,53.53312],[21.30023,53.53082]]}},{"type":"Feature","properties":{"numer":"","klasa":"droga lokalna","kat":"gminna"},"geometry":{"type":"LineString","coordinates":[[21.29447,53.53739],[21.2982,53.53312]]}},{"type":"Feature","properties":{"numer":"","klasa":"droga lokalna","kat":"gminna"},"geometry":{"type":"LineString","coordinates":[[21.2943,53.5376],[21.29447,53.53739]]}},{"type":"Feature","properties":{"numer":"","klasa":"droga lokalna","kat":"gminna"},"geometry":{"type":"LineString","coordinates":[[21.29458,53.54469],[21.29219,53.54276],[21.29206,53.54242],[21.29205,53.54074],[21.29217,53.54009],[21.2943,53.5376]]}},{"type":"Feature","properties":{"numer":"1681N","klasa":"droga zbiorcza","kat":"powiatowa"},"geometry":{"type":"LineString","coordinates":[[21.29078,53.55011],[21.29177,53.54848],[21.29429,53.5462],[21.29449,53.54576],[21.29458,53.54469]]}},{"type":"Feature","properties":{"numer":"59","klasa":"droga gĹ‚Ăłwna","kat":"krajowa"},"geometry":{"type":"LineString","coordinates":[[21.34549,53.5992],[21.3463,53.59844],[21.34719,53.59725],[21.34789,53.59586],[21.35017,53.59374],[21.35102,53.59246],[21.35152,53.59093],[21.35152,53.58964],[21.35216,53.58714],[21.35279,53.58613],[21.35457,53.58388],[21.35635,53.5805],[21.3573,53.57727],[21.35936,53.5733],[21.36043,53.57147],[21.36102,53.56939],[21.36121,53.56904],[21.36187,53.56859],[21.36351,53.56812],[21.36423,53.56781],[21.36858,53.56488],[21.36893,53.56458],[21.36917,53.56417],[21.36971,53.56217],[21.36967,53.56021],[21.37059,53.55708],[21.37067,53.55633],[21.36974,53.55235],[21.369195486344644,53.551615959492224]]}},{"type":"Feature","properties":{"numer":"1504N","klasa":"droga zbiorcza","kat":"powiatowa"},"geometry":{"type":"LineString","coordinates":[[21.34549,53.5992],[21.34447,53.59817],[21.33896,53.59567],[21.3248,53.59104],[21.3242,53.59071],[21.32279,53.58962],[21.31984,53.58569],[21.31856,53.58446],[21.31736,53.5838],[21.3086,53.57949],[21.30416,53.57784],[21.30175,53.57727],[21.30021,53.57714],[21.29521,53.5773],[21.28998,53.57802],[21.28894,53.57808],[21.28796,53.578],[21.28205,53.57665],[21.27842,53.57602],[21.27598,53.57577],[21.27533,53.57562],[21.27459,53.57527],[21.27238,53.57383],[21.268,53.5717],[21.26671,53.57133]]}},{"type":"Feature","properties":{"numer":"59","klasa":"droga gĹ‚Ăłwna","kat":"krajowa"},"geometry":{"type":"LineString","coordinates":[[21.3464,53.60851],[21.3472,53.60746],[21.34898,53.60653],[21.35098,53.60585],[21.35118,53.60551],[21.35075,53.60507],[21.34561,53.60071],[21.34521,53.59995],[21.34549,53.5992]]}},{"type":"Feature","properties":{"numer":"59","klasa":"droga gĹ‚Ăłwna","kat":"krajowa"},"geometry":{"type":"LineString","coordinates":[[21.34625,53.60872],[21.3464,53.60851]]}},{"type":"Feature","properties":{"numer":"59","klasa":"droga gĹ‚Ăłwna","kat":"krajowa"},"geometry":{"type":"LineString","coordinates":[[21.34193,53.61576],[21.34445,53.61182],[21.34625,53.60872]]}},{"type":"Feature","properties":{"numer":"1771N","klasa":"droga zbiorcza","kat":"powiatowa"},"geometry":{"type":"LineString","coordinates":[[21.319599149880876,53.62891454515919],[21.32078,53.62692],[21.32103,53.62666],[21.3236,53.62535],[21.32623,53.62436],[21.33066,53.62157],[21.33594,53.61848],[21.3386,53.61773],[21.3393,53.61744],[21.34193,53.61576]]}},{"type":"Feature","properties":{"numer":"59","klasa":"droga gĹ‚Ăłwna","kat":"krajowa"},"geometry":{"type":"LineString","coordinates":[[21.33209165239608,53.631107467407375],[21.34193,53.61576]]}}]}