{"type":"FeatureCollection","features":[{"type":"Feature","properties":{"numer":"1877N","klasa":"droga zbiorcza","kat":"powiatowa"},"geometry":{"type":"LineString","coordinates":[[22.16206864528072,54.193737998111544],[22.15837,54.19705],[22.15614,54.19991]]}},{"type":"Feature","properties":{"numer":"1772N","klasa":"","kat":"powiatowa"},"geometry":{"type":"LineString","coordinates":[[22.138298996931795,54.18654973802218],[22.13831,54.18655],[22.139166699507445,54.18665133004927]]}},{"type":"Feature","properties":{"numer":"1772N","klasa":"","kat":"powiatowa"},"geometry":{"type":"LineString","coordinates":[[22.139273132743334,54.186667646017696],[22.1408,54.18702],[22.14328,54.18732],[22.14359,54.18741],[22.14388,54.18763],[22.144,54.18901],[22.14392,54.18947],[22.14357,54.1901],[22.14186,54.19242],[22.14121,54.1949],[22.14126,54.19809],[22.14162,54.19877],[22.142,54.19911],[22.14241,54.19934],[22.14406,54.19958],[22.14584,54.2002],[22.14829,54.20088],[22.14857,54.20105],[22.14864,54.2015],[22.14897,54.20195],[22.14999,54.20183],[22.15238,54.20174],[22.15365,54.20149],[22.15516,54.20098],[22.15597,54.20015]]}},{"type":"Feature","properties":{"numer":"1877N","klasa":"droga zbiorcza","kat":"powiatowa"},"geometry":{"type":"LineString","coordinates":[[22.15614,54.19991],[22.15627,54.20011]]}},{"type":"Feature","properties":{"numer":"1772N","klasa":"","kat":"powiatowa"},"geometry":{"type":"LineString","coordinates":[[22.15614,54.19991],[22.15597,54.20015]]}},{"type":"Feature","properties":{"numer":"1772N","klasa":"","kat":"powiatowa"},"geometry":{"type":"LineString","coordinates":[[22.15597,54.20015],[22.15627,54.20011]]}},{"type":"Feature","properties":{"numer":"1877N","klasa":"droga zbiorcza","kat":"powiatowa"},"geometry":{"type":"LineString","coordinates":[[22.15627,54.20011],[22.15928,54.20088],[22.16087,54.20194],[22.16134,54.20216],[22.16362,54.20245],[22.16405,54.2027],[22.16428,54.20304],[22.16434,54.20505],[22.16389,54.20622],[22.16094,54.21035],[22.1595,54.21198],[22.15898,54.21357],[22.15838,54.21473]]}},{"type":"Feature","properties":{"numer":"650","klasa":"droga gĹ‚Ăłwna","kat":"wojewodzka"},"geometry":{"type":"LineString","coordinates":[[22.13148192375437,54.22457676856879],[22.13701,54.22432],[22.13841,54.22414],[22.1408,54.22356],[22.14685,54.22117],[22.14831,54.22052]]}},{"type":"Feature","properties":{"numer":"650","klasa":"droga gĹ‚Ăłwna","kat":"wojewodzka"},"geometry":{"type":"LineString","coordinates":[[22.15697,54.21541],[22.15755,54.21497],[22.15796,54.2148],[22.15838,54.21473]]}},{"type":"Feature","properties":{"numer":"650","klasa":"droga gĹ‚Ăłwna","kat":"wojewodzka"},"geometry":{"type":"LineString","coordinates":[[22.15838,54.21473],[22.16085,54.21478],[22.16309,54.2146],[22.16388,54.21439],[22.16537,54.21372],[22.16919,54.21261],[22.17334,54.21221],[22.1758,54.21185],[22.17635,54.21169],[22.17775,54.21105],[22.18067,54.21037],[22.18295,54.2097],[22.18448,54.20889],[22.18525,54.20868],[22.1889,54.20853],[22.1912,54.20832],[22.19288,54.20831],[22.19498,54.20802],[22.19873,54.2079],[22.1994,54.20793],[22.20029,54.20819],[22.20436,54.21061],[22.20513,54.21099],[22.20581,54.21113],[22.20685,54.21122],[22.20738,54.21118],[22.21008,54.21064],[22.21115,54.21085],[22.2116,54.21102],[22.21294,54.21177],[22.2136,54.21194],[22.215,54.21215],[22.21753,54.21358],[22.21858,54.21372],[22.21891,54.21384],[22.21959,54.21453],[22.22095,54.21493],[22.22513,54.21667],[22.22635,54.21767],[22.22897,54.21875],[22.22948,54.21909],[22.23022,54.22014],[22.23197,54.22135],[22.23259,54.2221],[22.23338,54.22272],[22.23525,54.22462]]}},{"type":"Feature","properties":{"numer":"650","klasa":"droga gĹ‚Ăłwna","kat":"wojewodzka"},"geometry":{"type":"LineString","coordinates":[[22.15176,54.21967],[22.1526,54.21855],[22.15412,54.21761],[22.1553,54.21712],[22.15631,54.21597],[22.15697,54.21541]]}},{"type":"Feature","properties":{"numer":"650","klasa":"droga gĹ‚Ăłwna","kat":"wojewodzka"},"geometry":{"type":"LineString","coordinates":[[22.14831,54.22052],[22.14972,54.21999],[22.15048,54.21986],[22.1513,54.21983],[22.15176,54.21967]]}},{"type":"Feature","properties":{"numer":"1788N","klasa":"droga zbiorcza","kat":"powiatowa"},"geometry":{"type":"LineString","coordinates":[[22.15176,54.21967],[22.15222,54.22088],[22.1546,54.22368]]}},{"type":"Feature","properties":{"numer":"1788N","klasa":"droga zbiorcza","kat":"powiatowa"},"geometry":{"type":"LineString","coordinates":[[22.1547,54.2238],[22.1546,54.22368]]}},{"type":"Feature","properties":{"numer":"1788N","klasa":"droga zbiorcza","kat":"powiatowa"},"geometry":{"type":"LineString","coordinates":[[22.1547,54.2238],[22.15518,54.22432],[22.15558,54.2246]]}},{"type":"Feature","properties":{"numer":"1902N","klasa":"","kat":"powiatowa"},"geometry":{"type":"LineString","coordinates":[[22.15558,54.2246],[22.15336,54.22606]]}},{"type":"Feature","properties":{"numer":"1902N","klasa":"","kat":"powiatowa"},"geometry":{"type":"LineString","coordinates":[[22.14973,54.22642],[22.15141,54.22607],[22.15227,54.22568],[22.15263,54.22571],[22.15336,54.22606]]}},{"type":"Feature","properties":{"numer":"1902N","klasa":"","kat":"powiatowa"},"geometry":{"type":"LineString","coordinates":[[22.14931,54.22653],[22.14973,54.22642]]}},{"type":"Feature","properties":{"numer":"1788N","klasa":"droga zbiorcza","kat":"powiatowa"},"geometry":{"type":"LineString","coordinates":[[22.15558,54.2246],[22.15608,54.22471],[22.15706,54.2247],[22.17695,54.22363],[22.17787,54.22362],[22.17877,54.2237],[22.17988,54.22396],[22.18054,54.22424],[22.18915,54.22882],[22.18984,54.22906],[22.1915,54.22941],[22.19238,54.2297],[22.19547,54.23149],[22.19744,54.23227],[22.19808,54.23286]]}},{"type":"Feature","properties":{"numer":"1768N","klasa":"","kat":"powiatowa"},"geometry":{"type":"LineString","coordinates":[[22.16099,54.25432],[22.1608896421857,54.254180215901506]]}},{"type":"Feature","properties":{"numer":"1768N","klasa":"","kat":"powiatowa"},"geometry":{"type":"LineString","coordinates":[[22.160889151130508,54.254179531931776],[22.16071,54.25393],[22.1572,54.2521],[22.15378,54.25098],[22.15093,54.24982],[22.14805,54.24879]]}},{"type":"Feature","properties":{"numer":"1768N","klasa":"","kat":"powiatowa"},"geometry":{"type":"LineString","coordinates":[[22.16099,54.25432],[22.16097,54.25447]]}},{"type":"Feature","properties":{"numer":"1768N","klasa":"","kat":"powiatowa"},"geometry":{"type":"LineString","coordinates":[[22.16488,54.2633],[22.16388,54.26265],[22.16115,54.2614],[22.16074,54.26109],[22.16051,54.26069],[22.16027,54.25936],[22.16058,54.2563],[22.16097,54.25447]]}},{"type":"Feature","properties":{"numer":"1768N","klasa":"","kat":"powiatowa"},"geometry":{"type":"LineString","coordinates":[[22.16499,54.26338],[22.16488,54.2633]]}},{"type":"Feature","properties":{"numer":"1768N","klasa":"","kat":"powiatowa"},"geometry":{"type":"LineString","coordinates":[[22.16775,54.2731],[22.16768,54.27226],[22.16785,54.27011],[22.16814,54.26961],[22.16907,54.26851],[22.16918,54.26799],[22.1686,54.26717],[22.16499,54.26338]]}},{"type":"Feature","properties":{"numer":"1815N","klasa":"droga zbiorcza","kat":"powiatowa"},"geometry":{"type":"LineString","coordinates":[[22.16569,54.2734],[22.16463,54.27322],[22.16412,54.27295],[22.16385,54.27268],[22.16328,54.27159],[22.16224,54.27061],[22.16149,54.26944],[22.15969,54.26811],[22.15754,54.2668],[22.15519,54.26472],[22.15436,54.26447],[22.15369,54.26444],[22.15266,54.26478],[22.15201,54.26522]]}},{"type":"Feature","properties":{"numer":"1815N","klasa":"","kat":"powiatowa"},"geometry":{"type":"LineString","coordinates":[[22.15201,54.26522],[22.15197708160443,54.26524455816813]]}},{"type":"Feature","properties":{"numer":"1815N","klasa":"droga zbiorcza","kat":"powiatowa"},"geometry":{"type":"LineString","coordinates":[[22.16569,54.2734],[22.1661,54.27343]]}},{"type":"Feature","properties":{"numer":"1768N","klasa":"","kat":"powiatowa"},"geometry":{"type":"LineString","coordinates":[[22.16841,54.27377],[22.16781,54.27326]]}},{"type":"Feature","properties":{"numer":"1768N","klasa":"","kat":"powiatowa"},"geometry":{"type":"LineString","coordinates":[[22.14805,54.24879],[22.147959431203113,54.24879505602507]]}},{"type":"Feature","properties":{"numer":"1815N","klasa":"droga zbiorcza","kat":"powiatowa"},"geometry":{"type":"LineString","coordinates":[[22.1661,54.27343],[22.16719,54.27354],[22.16841,54.27377]]}},{"type":"Feature","properties":{"numer":"1815N","klasa":"droga zbiorcza","kat":"powiatowa"},"geometry":{"type":"LineString","coordinates":[[22.16841,54.27377],[22.16923,54.27398],[22.17045,54.27414],[22.17161,54.27445],[22.17839,54.27739],[22.18286,54.27763],[22.18589,54.27832],[22.18748,54.27895],[22.18821,54.27937],[22.18873,54.27981],[22.1923,54.28384],[22.19293,54.28437],[22.19804,54.28673],[22.20083,54.28836],[22.20524,54.29132],[22.20724,54.29185],[22.20779,54.29212],[22.20928,54.29312],[22.21144,54.29378]]}},{"type":"Feature","properties":{"numer":"1900N","klasa":"","kat":"powiatowa"},"geometry":{"type":"LineString","coordinates":[[22.1976,54.30116],[22.19729,54.30193],[22.19654,54.30254],[22.19607,54.30314],[22.19537,54.30375],[22.19505,54.30443],[22.19462,54.30501],[22.1947,54.30658],[22.19508,54.30716],[22.19625,54.30774],[22.19714,54.30875],[22.19726,54.30917],[22.19713,54.30965],[22.19732,54.31027],[22.19895,54.31256],[22.1991,54.313],[22.19914,54.31389]]}},{"type":"Feature","properties":{"numer":"1900N","klasa":"","kat":"powiatowa"},"geometry":{"type":"LineString","coordinates":[[22.19914,54.31389],[22.1996,54.31399],[22.20045,54.31443],[22.20119,54.31467]]}},{"type":"Feature","properties":{"numer":"1784N","klasa":"droga zbiorcza","kat":"powiatowa"},"geometry":{"type":"LineString","coordinates":[[22.15643679020066,54.318036989776495],[22.15789,54.31832],[22.16086,54.31818],[22.166,54.31887],[22.16713,54.31917],[22.16876,54.32001],[22.1698,54.32098],[22.17083,54.3217],[22.17118,54.32259],[22.17246,54.32373],[22.1726,54.32428],[22.1719,54.32546],[22.17189,54.32594],[22.17452,54.3292],[22.17651,54.3313],[22.17686,54.33198],[22.17719,54.33346],[22.17782,54.33432],[22.17847,54.33486],[22.17977,54.33557],[22.18091,54.33595],[22.18251,54.33625],[22.18319,54.3362],[22.18947,54.33524],[22.19219,54.33443],[22.1992,54.33144],[22.20323,54.32991],[22.20377,54.32952],[22.20499,54.32839],[22.20556,54.32808],[22.21598,54.32426],[22.2168,54.32414],[22.21747,54.32417],[22.218,54.32428],[22.21926,54.32481],[22.22013,54.32491],[22.22657,54.32428],[22.22696,54.32419],[22.22737,54.32399],[22.23124,54.32154],[22.2319,54.32121],[22.23344,54.3209],[22.23573,54.32093]]}},{"type":"Feature","properties":{"numer":"1794N","klasa":"","kat":"powiatowa"},"geometry":{"type":"LineString","coordinates":[[22.48432,54.20792],[22.48832,54.20658]]}},{"type":"Feature","properties":{"numer":"1106B","klasa":"","kat":"powiatowa"},"geometry":{"type":"LineString","coordinates":[[22.48432,54.20792],[22.484312548736444,54.20792155956679]]}},{"type":"Feature","properties":{"numer":"1106B","klasa":"","kat":"powiatowa"},"geometry":{"type":"LineString","coordinates":[[22.483895560687234,54.20800883613523],[22.48389,54.20801]]}},{"type":"Feature","properties":{"numer":"1106B","klasa":"","kat":"powiatowa"},"geometry":{"type":"LineString","coordinates":[[22.48832,54.20658],[22.48832263267865,54.20657881773228]]}},{"type":"Feature","properties":{"numer":"1885N","klasa":"","kat":"powiatowa"},"geometry":{"type":"LineString","coordinates":[[22.304914048369778,54.191424705571556],[22.30492,54.19145],[22.30695,54.19515],[22.30692,54.19557],[22.30666,54.19616],[22.30588,54.19699],[22.30495,54.19829],[22.30426,54.19976],[22.30441,54.19999],[22.30496,54.20029],[22.30565,54.20092],[22.30615,54.20176],[22.30618,54.20209],[22.30536,54.20314],[22.30505,54.20379],[22.30402,54.20468],[22.30359,54.20751],[22.30267,54.20841],[22.30166,54.20908],[22.30158,54.20926]]}},{"type":"Feature","properties":{"numer":"1790N","klasa":"droga zbiorcza","kat":"powiatowa"},"geometry":{"type":"LineString","coordinates":[[22.38527482023664,54.20305855799836],[22.3847,54.20345],[22.37749,54.20779]]}},{"type":"Feature","properties":{"numer":"1790N","klasa":"droga zbiorcza","kat":"powiatowa"},"geometry":{"type":"LineString","coordinates":[[22.37749,54.20779],[22.37734,54.20788]]}},{"type":"Feature","properties":{"numer":"1790N","klasa":"droga zbiorcza","kat":"powiatowa"},"geometry":{"type":"LineString","coordinates":[[22.37734,54.20788],[22.3726,54.21058],[22.3705,54.21143],[22.36814,54.21172]]}},{"type":"Feature","properties":{"numer":"1883N","klasa":"","kat":"powiatowa"},"geometry":{"type":"LineString","coordinates":[[22.3658,54.21642],[22.36567,54.21516],[22.36595,54.21413],[22.36635,54.21357],[22.36814,54.21172]]}},{"type":"Feature","properties":{"numer":"65","klasa":"droga gĹ‚Ăłwna ruchu przyĹ›pieszonego","kat":"krajowa"},"geometry":{"type":"LineString","coordinates":[[22.40867,54.2273],[22.41199,54.21263],[22.41315,54.20881],[22.41301,54.20805],[22.41145,54.20593],[22.41076517491455,54.204262599791946]]}},{"type":"Feature","properties":{"numer":"1883N","klasa":"","kat":"powiatowa"},"geometry":{"type":"LineString","coordinates":[[22.36578,54.21653],[22.3658,54.21642]]}},{"type":"Feature","properties":{"numer":"1879N","klasa":"","kat":"powiatowa"},"geometry":{"type":"LineString","coordinates":[[22.243971609174675,54.177493577019405],[22.24723,54.1802],[22.24802,54.18055],[22.2492,54.18073],[22.25002,54.18093],[22.25115,54.18189],[22.24852,54.18415],[22.24784,54.18687],[22.24615,54.18839],[22.24444,54.19218],[22.24442,54.19261],[22.24535,54.19426],[22.24566,54.19511],[22.24585,54.19639],[22.24578,54.19687],[22.24154,54.19898],[22.23728,54.20189],[22.23649,54.20216],[22.23451,54.20244],[22.23412,54.20256],[22.2335,54.20309],[22.23314,54.20361],[22.23218,54.2044],[22.23205,54.20466],[22.23288,54.20627],[22.23354,54.20865],[22.23374,54.20891],[22.23564,54.2102],[22.23658,54.2115],[22.23899,54.21405],[22.24061,54.21501],[22.24106,54.21543],[22.24172,54.21646],[22.24186,54.21803],[22.2421,54.21821]]}},{"type":"Feature","properties":{"numer":"1879N","klasa":"","kat":"powiatowa"},"geometry":{"type":"LineString","coordinates":[[22.24019,54.22587],[22.24155,54.22415],[22.24193,54.22342],[22.24218,54.22153],[22.24198,54.22028],[22.24193,54.21895],[22.24195,54.21849],[22.2421,54.21821]]}},{"type":"Feature","properties":{"numer":"1970N","klasa":"","kat":"powiatowa"},"geometry":{"type":"LineString","coordinates":[[22.23525,54.22462],[22.23511,54.22469]]}},{"type":"Feature","properties":{"numer":"650","klasa":"droga gĹ‚Ăłwna","kat":"wojewodzka"},"geometry":{"type":"LineString","coordinates":[[22.23525,54.22462],[22.2371,54.22501],[22.23871,54.22551],[22.23938,54.22557],[22.24019,54.22587]]}},{"type":"Feature","properties":{"numer":"1970N","klasa":"","kat":"powiatowa"},"geometry":{"type":"LineString","coordinates":[[22.23511,54.22469],[22.23195,54.22731]]}},{"type":"Feature","properties":{"numer":"1970N","klasa":"","kat":"powiatowa"},"geometry":{"type":"LineString","coordinates":[[22.2316,54.22741],[22.23195,54.22731]]}},{"type":"Feature","properties":{"numer":"1970N","klasa":"","kat":"powiatowa"},"geometry":{"type":"LineString","coordinates":[[22.2316,54.22741],[22.23053,54.22781],[22.22924,54.22855],[22.22751,54.22856],[22.22495,54.22928],[22.22433,54.22957],[22.22321,54.23037],[22.22245,54.23069],[22.21988,54.23082],[22.21676,54.23085],[22.2103,54.2314],[22.20599,54.23142],[22.20067,54.23227],[22.19808,54.23286]]}},{"type":"Feature","properties":{"numer":"1788N","klasa":"droga zbiorcza","kat":"powiatowa"},"geometry":{"type":"LineString","coordinates":[[22.19808,54.23286],[22.20106,54.23582],[22.20187,54.23724],[22.20184,54.23839],[22.20215,54.23896],[22.20184,54.23953],[22.19917,54.24324],[22.19906,54.24361],[22.19915,54.24397],[22.20103,54.24629],[22.20726,54.25018]]}},{"type":"Feature","properties":{"numer":"1788N","klasa":"droga zbiorcza","kat":"powiatowa"},"geometry":{"type":"LineString","coordinates":[[22.2074,54.25027],[22.20726,54.25018]]}},{"type":"Feature","properties":{"numer":"1790N","klasa":"droga zbiorcza","kat":"powiatowa"},"geometry":{"type":"LineString","coordinates":[[22.30158,54.20926],[22.30115,54.20927],[22.30067,54.20917],[22.29832,54.20811],[22.29729,54.20789],[22.2942,54.20792],[22.28054,54.20634],[22.27714,54.20607],[22.27618,54.20604],[22.27189,54.20627],[22.27118,54.20645],[22.26982,54.20721],[22.2656,54.21045],[22.26223,54.21258],[22.26088,54.21287],[22.25488,54.21377],[22.25127,54.21501],[22.24833,54.21614],[22.24396,54.21709],[22.24339,54.21735],[22.2421,54.21821]]}},{"type":"Feature","properties":{"numer":"650","klasa":"droga gĹ‚Ăłwna","kat":"wojewodzka"},"geometry":{"type":"LineString","coordinates":[[22.24019,54.22587],[22.2427,54.22679],[22.24337,54.22718],[22.24398,54.22771],[22.24557,54.22977],[22.24623,54.23032],[22.25173,54.23302],[22.2524,54.23346],[22.25373,54.2348],[22.2539,54.23526],[22.25386,54.23623],[22.25404,54.23664],[22.25431,54.23694],[22.26142,54.24352],[22.26499,54.24652],[22.26804,54.24934],[22.27,54.25233],[22.27096,54.25569],[22.27177,54.25762],[22.27377,54.26364],[22.27385,54.26419],[22.27368,54.26769],[22.27387,54.26847],[22.27432,54.26908],[22.27487,54.26953],[22.27934,54.27188],[22.27991,54.27239],[22.28104,54.2757],[22.28393,54.28259]]}},{"type":"Feature","properties":{"numer":"1881N","klasa":"","kat":"powiatowa"},"geometry":{"type":"LineString","coordinates":[[22.29819,54.29323],[22.29842,54.29294],[22.29852,54.28951],[22.29776,54.28745],[22.29746,54.28473],[22.2976,54.28431],[22.29848,54.28327],[22.29923,54.28164],[22.29943,54.28089],[22.29894,54.27807],[22.29918,54.27769],[22.30032,54.27709],[22.30078,54.27665],[22.30144,54.27416],[22.30251,54.27313],[22.30334,54.27153],[22.30374,54.27048],[22.30388,54.26779],[22.30438,54.26634]]}},{"type":"Feature","properties":{"numer":"650","klasa":"droga gĹ‚Ăłwna","kat":"wojewodzka"},"geometry":{"type":"LineString","coordinates":[[22.28393,54.28259],[22.28429,54.28373],[22.28408,54.28672],[22.28422,54.28764],[22.28618,54.28985],[22.28869,54.29325],[22.29113,54.29494]]}},{"type":"Feature","properties":{"numer":"4829N","klasa":"","kat":"powiatowa"},"geometry":{"type":"LineString","coordinates":[[22.29091,54.29239],[22.29156,54.29234],[22.2919,54.29242]]}},{"type":"Feature","properties":{"numer":"1790N","klasa":"droga zbiorcza","kat":"powiatowa"},"geometry":{"type":"LineString","coordinates":[[22.34559,54.20904],[22.34403,54.20871],[22.34242,54.2081],[22.3421,54.20785],[22.34135,54.20679],[22.34087,54.20654],[22.33725,54.20549],[22.33491,54.20511],[22.3345,54.20497],[22.33355,54.20433],[22.33121,54.20381],[22.32945,54.20302],[22.32922,54.2031],[22.32806,54.20443],[22.32765,54.20469],[22.32528,54.20506],[22.31893,54.20674],[22.31462,54.20698],[22.30158,54.20926]]}},{"type":"Feature","properties":{"numer":"1790N","klasa":"droga zbiorcza","kat":"powiatowa"},"geometry":{"type":"LineString","coordinates":[[22.36814,54.21172],[22.36555,54.21181],[22.36323,54.212],[22.36113,54.21182],[22.36011,54.21156],[22.35975,54.21128],[22.35913,54.21052],[22.35842,54.21028],[22.35671,54.2101],[22.35524,54.20978],[22.35306,54.20987],[22.35213,54.20985],[22.35061,54.20971],[22.34984,54.20956],[22.34791,54.20946],[22.34559,54.20904]]}},{"type":"Feature","properties":{"numer":"1881N","klasa":"","kat":"powiatowa"},"geometry":{"type":"LineString","coordinates":[[22.30438,54.26634],[22.30438,54.26583],[22.30425,54.26543],[22.30322,54.26375],[22.30257,54.26333],[22.30069,54.26255],[22.30022,54.26217],[22.29984,54.26168],[22.29979,54.26129],[22.29999,54.26047],[22.30069,54.25909],[22.30008,54.25674],[22.30053,54.25643],[22.30159,54.25629],[22.30208,54.25598],[22.30175,54.25484],[22.30189,54.25437],[22.30211,54.25412],[22.30281,54.25385],[22.30467,54.25347],[22.3058,54.25268],[22.30618,54.25156],[22.30721,54.24979],[22.30749,54.24962],[22.30949,54.24897],[22.31019,54.24838],[22.31053,54.2472],[22.3114,54.24532],[22.31156,54.24369],[22.31206,54.24308],[22.31244,54.24237],[22.31391,54.24096],[22.31411,54.24061],[22.31421,54.23913],[22.31352,54.23822],[22.31345,54.23792],[22.31415,54.23611],[22.31461,54.23536],[22.31558,54.23428],[22.31988,54.23167],[22.3221,54.23074],[22.32441,54.22881],[22.3264,54.22757],[22.32758,54.22708],[22.33256,54.22575],[22.3336,54.22516],[22.33423,54.22437],[22.3345,54.22418],[22.33513,54.22394],[22.33611,54.22379],[22.33657,54.2235],[22.33683,54.22313],[22.3371,54.22226],[22.33921,54.2199],[22.33962,54.21963],[22.3408,54.21913],[22.34111,54.21892],[22.34437,54.21569],[22.34439,54.21546],[22.34399,54.21461],[22.34432,54.21377],[22.34429,54.21259],[22.34384,54.21131],[22.34466,54.20965],[22.34559,54.20904]]}},{"type":"Feature","properties":{"numer":"1883N","klasa":"","kat":"powiatowa"},"geometry":{"type":"LineString","coordinates":[[22.34723,54.26719],[22.34567,54.2652],[22.34544,54.26475],[22.34558,54.2639],[22.34699,54.26063],[22.34655,54.2579],[22.34652,54.25655],[22.34496,54.25405],[22.34217,54.25217],[22.34189,54.25179],[22.34238,54.24953],[22.34352,54.24837],[22.34399,54.24744],[22.34483,54.24658],[22.34524,54.24554],[22.34691,54.24433],[22.34806,54.24248],[22.3481,54.24198],[22.34746,54.23938],[22.34767,54.23913],[22.3497,54.23814],[22.3511,54.23592],[22.35111,54.23557],[22.35085,54.23514],[22.34852,54.23327],[22.34846,54.23291],[22.34891,54.2323],[22.35134,54.22997],[22.35234,54.22802],[22.35398,54.22712],[22.35637,54.22616],[22.35805,54.22487],[22.35926,54.22313],[22.35916,54.22091],[22.35931,54.22048],[22.35969,54.22005],[22.36205,54.21861],[22.36514,54.21711],[22.36578,54.21653]]}},{"type":"Feature","properties":{"numer":"65","klasa":"droga gĹ‚Ăłwna ruchu przyĹ›pieszonego","kat":"krajowa"},"geometry":{"type":"LineString","coordinates":[[22.31623,54.29758],[22.32,54.29529],[22.33095,54.28585],[22.33669,54.27912],[22.33775,54.276],[22.33857,54.27467],[22.33968,54.27356],[22.34723,54.26719]]}},{"type":"Feature","properties":{"numer":"65","klasa":"droga gĹ‚Ăłwna ruchu przyĹ›pieszonego","kat":"krajowa"},"geometry":{"type":"LineString","coordinates":[[22.31623,54.29758],[22.31541,54.29798],[22.3144,54.29834],[22.3131,54.29868],[22.31162,54.2989]]}},{"type":"Feature","properties":{"numer":"65","klasa":"droga gĹ‚Ăłwna ruchu przyĹ›pieszonego","kat":"krajowa"},"geometry":{"type":"LineString","coordinates":[[22.31162,54.2989],[22.31016,54.29899],[22.30789,54.29886]]}},{"type":"Feature","properties":{"numer":"137530N","klasa":"","kat":"powiatowa"},"geometry":{"type":"LineString","coordinates":[[22.31162,54.2989],[22.31173,54.29928]]}},{"type":"Feature","properties":{"numer":"137530N","klasa":"droga lokalna","kat":"powiatowa"},"geometry":{"type":"LineString","coordinates":[[22.31167,54.29993],[22.31173,54.29928]]}},{"type":"Feature","properties":{"numer":"137530N","klasa":"droga lokalna","kat":"powiatowa"},"geometry":{"type":"LineString","coordinates":[[22.31066,54.30087],[22.3112,54.30052],[22.31167,54.29993]]}},{"type":"Feature","properties":{"numer":"1794N","klasa":"","kat":"powiatowa"},"geometry":{"type":"LineString","coordinates":[[22.46412,54.21821],[22.46485,54.21679],[22.46574,54.21582],[22.4665,54.21539],[22.46821,54.21504],[22.46911,54.21463],[22.46939,54.21439],[22.47026,54.21313],[22.47083,54.2127],[22.47573,54.21087],[22.47955,54.2096],[22.48389,54.20801]]}},{"type":"Feature","properties":{"numer":"1794N","klasa":"","kat":"powiatowa"},"geometry":{"type":"LineString","coordinates":[[22.45744,54.22507],[22.45876,54.22472],[22.45924,54.22451],[22.4603,54.22338],[22.46138,54.22245],[22.46189,54.22105],[22.46263,54.22032],[22.46315,54.21936],[22.46412,54.21821]]}},{"type":"Feature","properties":{"numer":"1794N","klasa":"","kat":"powiatowa"},"geometry":{"type":"LineString","coordinates":[[22.45714,54.22507],[22.45744,54.22507]]}},{"type":"Feature","properties":{"numer":"1794N","klasa":"","kat":"powiatowa"},"geometry":{"type":"LineString","coordinates":[[22.42835,54.22895],[22.432,54.2279],[22.43735,54.22677],[22.44248,54.22527],[22.44729,54.22448],[22.45202,54.22434],[22.45499,54.22458],[22.45672,54.22503],[22.45714,54.22507]]}},{"type":"Feature","properties":{"numer":"1794N","klasa":"","kat":"powiatowa"},"geometry":{"type":"LineString","coordinates":[[22.4281,54.22902],[22.42835,54.22895]]}},{"type":"Feature","properties":{"numer":"1792N","klasa":"","kat":"powiatowa"},"geometry":{"type":"LineString","coordinates":[[22.45125,54.26525],[22.45003,54.26502],[22.44882,54.26457],[22.44524,54.26273],[22.44134,54.26117],[22.43883,54.2594],[22.43641,54.25672]]}},{"type":"Feature","properties":{"numer":"1792N","klasa":"droga zbiorcza","kat":"powiatowa"},"geometry":{"type":"LineString","coordinates":[[22.45297,54.26473],[22.45300831188267,54.264703660580665]]}},{"type":"Feature","properties":{"numer":"1792N","klasa":"droga zbiorcza","kat":"powiatowa"},"geometry":{"type":"LineString","coordinates":[[22.45297,54.26473],[22.45188,54.2653],[22.45125,54.26525]]}},{"type":"Feature","properties":{"numer":"65","klasa":"droga gĹ‚Ăłwna ruchu przyĹ›pieszonego","kat":"krajowa"},"geometry":{"type":"LineString","coordinates":[[22.40865,54.22738],[22.40867,54.2273]]}},{"type":"Feature","properties":{"numer":"65","klasa":"droga gĹ‚Ăłwna ruchu przyĹ›pieszonego","kat":"krajowa"},"geometry":{"type":"LineString","coordinates":[[22.40858,54.22763],[22.40865,54.22738]]}},{"type":"Feature","properties":{"numer":"1794N","klasa":"","kat":"powiatowa"},"geometry":{"type":"LineString","coordinates":[[22.40858,54.22763],[22.41424,54.22791],[22.41805,54.2285],[22.41931,54.22879],[22.42289,54.23],[22.42345,54.23011],[22.42463,54.23003],[22.4281,54.22902]]}},{"type":"Feature","properties":{"numer":"65","klasa":"droga gĹ‚Ăłwna ruchu przyĹ›pieszonego","kat":"krajowa"},"geometry":{"type":"LineString","coordinates":[[22.39951,54.24189],[22.4047,54.23524],[22.40817,54.22924],[22.40858,54.22763]]}},{"type":"Feature","properties":{"numer":"1792N","klasa":"droga zbiorcza","kat":"powiatowa"},"geometry":{"type":"LineString","coordinates":[[22.43641,54.25672],[22.42922,54.25583],[22.42857,54.2558],[22.42664,54.25606],[22.42516,54.25591],[22.42452,54.25576],[22.4238,54.25535],[22.4219,54.2536],[22.41822,54.25228],[22.41448,54.25044],[22.39951,54.24189]]}},{"type":"Feature","properties":{"numer":"65","klasa":"droga gĹ‚Ăłwna ruchu przyĹ›pieszonego","kat":"krajowa"},"geometry":{"type":"LineString","coordinates":[[22.34723,54.26719],[22.34884,54.26584],[22.34946,54.26552],[22.36417,54.25994],[22.37404,54.25761],[22.37496,54.2573],[22.37568,54.25689],[22.38114,54.25277],[22.38199,54.25232],[22.39261,54.24976],[22.39349,54.24909],[22.39714,54.24484],[22.39951,54.24189]]}},{"type":"Feature","properties":{"numer":"651","klasa":"droga gĹ‚Ăłwna","kat":"wojewodzka"},"geometry":{"type":"LineString","coordinates":[[22.36833,54.3097],[22.36837,54.30997]]}},{"type":"Feature","properties":{"numer":"651","klasa":"droga gĹ‚Ăłwna","kat":"wojewodzka"},"geometry":{"type":"LineString","coordinates":[[22.36837,54.30997],[22.36868,54.31089],[22.36924,54.3112],[22.36975,54.31128],[22.37075,54.31119],[22.37205,54.31092],[22.37371,54.31019],[22.37448,54.30999],[22.37788,54.31023],[22.38257,54.30997],[22.38331,54.30977],[22.38544,54.30894],[22.386,54.30883],[22.38952,54.30915],[22.39549,54.30906],[22.39716,54.30915],[22.40046,54.30899],[22.40528,54.3091],[22.40686,54.30893],[22.40792,54.30874],[22.40981,54.30821],[22.412,54.30744],[22.42134,54.30536],[22.4241,54.30462],[22.42845,54.30286],[22.43271,54.30088],[22.43465,54.29965],[22.43678,54.29907],[22.447491553182665,54.29904191026263]]}},{"type":"Feature","properties":{"numer":"1788N","klasa":"droga zbiorcza","kat":"powiatowa"},"geometry":{"type":"LineString","coordinates":[[22.2074,54.25027],[22.20815,54.25086],[22.20831,54.2512],[22.20842,54.25348],[22.20853,54.25393],[22.21333,54.26205],[22.2138,54.26406],[22.21432,54.26463],[22.2157,54.26542],[22.21614,54.26554],[22.2178,54.2656],[22.21929,54.26599],[22.22365,54.2677],[22.22595,54.26847],[22.22859,54.2699],[22.23469,54.27158],[22.23553,54.27172],[22.23785,54.27172],[22.23965,54.27203],[22.243,54.27233],[22.2462,54.27212],[22.2472,54.27223],[22.25125,54.2734],[22.25311,54.27461],[22.25428,54.27506],[22.25477,54.275],[22.25603,54.27442],[22.25835,54.27532],[22.26632,54.27709],[22.26713,54.27742],[22.26875,54.2784],[22.27051,54.27926],[22.28021,54.28259],[22.28328,54.28269],[22.28393,54.28259]]}},{"type":"Feature","properties":{"numer":"1900N","klasa":"","kat":"powiatowa"},"geometry":{"type":"LineString","coordinates":[[22.21144,54.29378],[22.21004,54.29412],[22.20924,54.29446]]}},{"type":"Feature","properties":{"numer":"1900N","klasa":"","kat":"powiatowa"},"geometry":{"type":"LineString","coordinates":[[22.20924,54.29446],[22.20907,54.29455]]}},{"type":"Feature","properties":{"numer":"1900N","klasa":"","kat":"powiatowa"},"geometry":{"type":"LineString","coordinates":[[22.20907,54.29455],[22.20881,54.29483],[22.20881,54.29521],[22.20854,54.29588],[22.2082,54.2962],[22.20615,54.29604],[22.20537,54.29562],[22.2046,54.29594],[22.20443,54.2962],[22.20428,54.29721],[22.20397,54.29754],[22.20244,54.29818],[22.19948,54.29916],[22.19845,54.29958],[22.1979,54.30028],[22.1976,54.30116]]}},{"type":"Feature","properties":{"numer":"1815N","klasa":"droga zbiorcza","kat":"powiatowa"},"geometry":{"type":"LineString","coordinates":[[22.21144,54.29378],[22.21415,54.29373],[22.22194,54.29491],[22.22636,54.29525],[22.23032,54.29591],[22.23308,54.29669],[22.23387,54.29709],[22.23488,54.29841],[22.23827,54.3001],[22.24083,54.30244],[22.24233,54.30344],[22.2432,54.30388],[22.24561,54.30493],[22.24935,54.30624],[22.26107,54.30931],[22.26565,54.31007],[22.26713,54.31016],[22.2699,54.31016],[22.2729,54.31068],[22.27393,54.31076],[22.27518,54.31074],[22.27606,54.31063],[22.27953,54.30977]]}},{"type":"Feature","properties":{"numer":"1900N","klasa":"","kat":"powiatowa"},"geometry":{"type":"LineString","coordinates":[[22.20119,54.31467],[22.20179,54.31476],[22.20267,54.31468],[22.20424,54.31472],[22.20606,54.31398],[22.20676,54.31388],[22.21009,54.31392],[22.21395,54.31413],[22.21524,54.3141],[22.21624,54.31458],[22.21971,54.31557],[22.22056,54.31569],[22.22162,54.31566],[22.22217,54.31572],[22.22369,54.31646],[22.22493,54.3168],[22.22623,54.31765],[22.22859,54.31826],[22.23004,54.31919],[22.23282,54.32037],[22.23332,54.32051],[22.23534,54.32081],[22.23573,54.32093]]}},{"type":"Feature","properties":{"numer":"1784N","klasa":"droga zbiorcza","kat":"powiatowa"},"geometry":{"type":"LineString","coordinates":[[22.23573,54.32093],[22.23675,54.32097],[22.23754,54.32093],[22.24091,54.32043],[22.24149,54.32024],[22.24271,54.31958],[22.24341,54.3193],[22.24412,54.31915],[22.24497,54.31911],[22.24546,54.31915],[22.24601,54.3193],[22.25153,54.32115],[22.25226,54.32126],[22.25377,54.3213]]}},{"type":"Feature","properties":{"numer":"4829N","klasa":"","kat":"powiatowa"},"geometry":{"type":"LineString","coordinates":[[22.2919,54.29242],[22.29427,54.29289],[22.29474,54.29313]]}},{"type":"Feature","properties":{"numer":"4829N","klasa":"","kat":"powiatowa"},"geometry":{"type":"LineString","coordinates":[[22.29474,54.29313],[22.2953,54.29307],[22.29597,54.29318]]}},{"type":"Feature","properties":{"numer":"4829N","klasa":"","kat":"powiatowa"},"geometry":{"type":"LineString","coordinates":[[22.29597,54.29318],[22.29702,54.29342]]}},{"type":"Feature","properties":{"numer":"4829N","klasa":"","kat":"powiatowa"},"geometry":{"type":"LineString","coordinates":[[22.29702,54.29342],[22.29761,54.29344],[22.29819,54.29323]]}},{"type":"Feature","properties":{"numer":"4829N","klasa":"","kat":"powiatowa"},"geometry":{"type":"LineString","coordinates":[[22.297,54.29365],[22.29702,54.29342]]}},{"type":"Feature","properties":{"numer":"4829N","klasa":"","kat":"powiatowa"},"geometry":{"type":"LineString","coordinates":[[22.29597,54.29318],[22.29593,54.29389],[22.29605,54.29477]]}},{"type":"Feature","properties":{"numer":"4829N","klasa":"","kat":"powiatowa"},"geometry":{"type":"LineString","coordinates":[[22.29113,54.29494],[22.29474,54.29313]]}},{"type":"Feature","properties":{"numer":"4829N","klasa":"","kat":"powiatowa"},"geometry":{"type":"LineString","coordinates":[[22.29696,54.29448],[22.297,54.29365]]}},{"type":"Feature","properties":{"numer":"1881N","klasa":"","kat":"powiatowa"},"geometry":{"type":"LineString","coordinates":[[22.29824,54.29496],[22.29855,54.29359],[22.29848,54.29338],[22.29819,54.29323]]}},{"type":"Feature","properties":{"numer":"4829N","klasa":"","kat":"powiatowa"},"geometry":{"type":"LineString","coordinates":[[22.29696,54.29466],[22.29696,54.29448]]}},{"type":"Feature","properties":{"numer":"4829N","klasa":"","kat":"powiatowa"},"geometry":{"type":"LineString","coordinates":[[22.29696,54.29466],[22.29605,54.29477]]}},{"type":"Feature","properties":{"numer":"4829N","klasa":"","kat":"powiatowa"},"geometry":{"type":"LineString","coordinates":[[22.29824,54.29496],[22.29756,54.29471],[22.29696,54.29466]]}},{"type":"Feature","properties":{"numer":"4829N","klasa":"","kat":"powiatowa"},"geometry":{"type":"LineString","coordinates":[[22.29605,54.29477],[22.2946,54.2948],[22.29426,54.29601],[22.29406,54.29628]]}},{"type":"Feature","properties":{"numer":"650","klasa":"droga gĹ‚Ăłwna","kat":"wojewodzka"},"geometry":{"type":"LineString","coordinates":[[22.29113,54.29494],[22.29235,54.29569],[22.29406,54.29628]]}},{"type":"Feature","properties":{"numer":"1881N","klasa":"","kat":"powiatowa"},"geometry":{"type":"LineString","coordinates":[[22.29846,54.29759],[22.29813,54.29675],[22.29824,54.29496]]}},{"type":"Feature","properties":{"numer":"650","klasa":"droga gĹ‚Ăłwna","kat":"wojewodzka"},"geometry":{"type":"LineString","coordinates":[[22.29406,54.29628],[22.29487,54.29652],[22.29534,54.29675],[22.29566,54.29703],[22.29584,54.29739]]}},{"type":"Feature","properties":{"numer":"650","klasa":"droga gĹ‚Ăłwna","kat":"wojewodzka"},"geometry":{"type":"LineString","coordinates":[[22.29584,54.29739],[22.29586,54.29785]]}},{"type":"Feature","properties":{"numer":"650","klasa":"droga gĹ‚Ăłwna","kat":"wojewodzka"},"geometry":{"type":"LineString","coordinates":[[22.29586,54.29785],[22.29593,54.29824]]}},{"type":"Feature","properties":{"numer":"65","klasa":"droga gĹ‚Ăłwna ruchu przyĹ›pieszonego","kat":"krajowa"},"geometry":{"type":"LineString","coordinates":[[22.30789,54.29886],[22.30339,54.29804],[22.30181,54.29786],[22.30034,54.29778],[22.29594,54.29784]]}},{"type":"Feature","properties":{"numer":"650","klasa":"droga gĹ‚Ăłwna","kat":"wojewodzka"},"geometry":{"type":"LineString","coordinates":[[22.29804,54.30098],[22.29719,54.30012],[22.29593,54.29824]]}},{"type":"Feature","properties":{"numer":"137530N","klasa":"droga lokalna","kat":"powiatowa"},"geometry":{"type":"LineString","coordinates":[[22.31054,54.30094],[22.31066,54.30087]]}},{"type":"Feature","properties":{"numer":"137530N","klasa":"droga lokalna","kat":"powiatowa"},"geometry":{"type":"LineString","coordinates":[[22.30813,54.30233],[22.31054,54.30094]]}},{"type":"Feature","properties":{"numer":"137530N","klasa":"droga lokalna","kat":"powiatowa"},"geometry":{"type":"LineString","coordinates":[[22.3059,54.30364],[22.30813,54.30233]]}},{"type":"Feature","properties":{"numer":"650","klasa":"droga gĹ‚Ăłwna","kat":"wojewodzka"},"geometry":{"type":"LineString","coordinates":[[22.303,54.30513],[22.30147,54.30389]]}},{"type":"Feature","properties":{"numer":"650","klasa":"droga gĹ‚Ăłwna","kat":"wojewodzka"},"geometry":{"type":"LineString","coordinates":[[22.30352,54.3053],[22.303,54.30513]]}},{"type":"Feature","properties":{"numer":"650","klasa":"droga gĹ‚Ăłwna","kat":"wojewodzka"},"geometry":{"type":"LineString","coordinates":[[22.30376,54.30534],[22.30352,54.3053]]}},{"type":"Feature","properties":{"numer":"137530N","klasa":"droga lokalna","kat":"powiatowa"},"geometry":{"type":"LineString","coordinates":[[22.30374,54.30539],[22.30376,54.30534]]}},{"type":"Feature","properties":{"numer":"4814N","klasa":"droga gĹ‚Ăłwna","kat":"powiatowa"},"geometry":{"type":"LineString","coordinates":[[22.30352,54.3053],[22.30277,54.30536],[22.30209,54.30586],[22.30096,54.3058]]}},{"type":"Feature","properties":{"numer":"4831N","klasa":"droga zbiorcza","kat":"powiatowa"},"geometry":{"type":"LineString","coordinates":[[22.30851,54.30613],[22.31105,54.30604]]}},{"type":"Feature","properties":{"numer":"4831N","klasa":"droga zbiorcza","kat":"powiatowa"},"geometry":{"type":"LineString","coordinates":[[22.30572,54.30622],[22.30851,54.30613]]}},{"type":"Feature","properties":{"numer":"1881N","klasa":"","kat":"powiatowa"},"geometry":{"type":"LineString","coordinates":[[22.29848,54.30134],[22.29871,54.30118],[22.29893,54.29944],[22.29891,54.29835],[22.29872,54.298]]}},{"type":"Feature","properties":{"numer":"650","klasa":"droga gĹ‚Ăłwna","kat":"wojewodzka"},"geometry":{"type":"LineString","coordinates":[[22.29848,54.30134],[22.29804,54.30098]]}},{"type":"Feature","properties":{"numer":"4812N","klasa":"droga zbiorcza","kat":"powiatowa"},"geometry":{"type":"LineString","coordinates":[[22.29644,54.30093],[22.29631,54.30172]]}},{"type":"Feature","properties":{"numer":"4852N","klasa":"","kat":"powiatowa"},"geometry":{"type":"LineString","coordinates":[[22.29203,54.3015],[22.29039,54.30137]]}},{"type":"Feature","properties":{"numer":"4852N","klasa":"","kat":"powiatowa"},"geometry":{"type":"LineString","coordinates":[[22.29203,54.3015],[22.29454,54.30161]]}},{"type":"Feature","properties":{"numer":"4852N","klasa":"","kat":"powiatowa"},"geometry":{"type":"LineString","coordinates":[[22.29454,54.30161],[22.29537,54.30166]]}},{"type":"Feature","properties":{"numer":"4852N","klasa":"","kat":"powiatowa"},"geometry":{"type":"LineString","coordinates":[[22.29537,54.30166],[22.29631,54.30172]]}},{"type":"Feature","properties":{"numer":"4812N","klasa":"droga zbiorcza","kat":"powiatowa"},"geometry":{"type":"LineString","coordinates":[[22.29631,54.30172],[22.29611,54.30282]]}},{"type":"Feature","properties":{"numer":"650","klasa":"droga gĹ‚Ăłwna","kat":"wojewodzka"},"geometry":{"type":"LineString","coordinates":[[22.30147,54.30389],[22.29848,54.30134]]}},{"type":"Feature","properties":{"numer":"65","klasa":"droga gĹ‚Ăłwna ruchu przyĹ›pieszonego","kat":"krajowa"},"geometry":{"type":"LineString","coordinates":[[22.27953,54.30961],[22.27981,54.30188],[22.27992,54.3012],[22.28028,54.30035],[22.28116,54.29944],[22.28167,54.2991],[22.28283,54.29857],[22.28392,54.29827],[22.285,54.2981],[22.28679,54.29801],[22.29586,54.29785]]}},{"type":"Feature","properties":{"numer":"4812N","klasa":"droga zbiorcza","kat":"powiatowa"},"geometry":{"type":"LineString","coordinates":[[22.29611,54.30282],[22.29558,54.30577]]}},{"type":"Feature","properties":{"numer":"4811N","klasa":"droga zbiorcza","kat":"powiatowa"},"geometry":{"type":"LineString","coordinates":[[22.29352,54.30464],[22.29158,54.304]]}},{"type":"Feature","properties":{"numer":"4851N","klasa":"droga zbiorcza","kat":"powiatowa"},"geometry":{"type":"LineString","coordinates":[[22.30096,54.3058],[22.30147,54.30389]]}},{"type":"Feature","properties":{"numer":"4811N","klasa":"droga zbiorcza","kat":"powiatowa"},"geometry":{"type":"LineString","coordinates":[[22.29558,54.30577],[22.29352,54.30464]]}},{"type":"Feature","properties":{"numer":"4811N","klasa":"droga zbiorcza","kat":"powiatowa"},"geometry":{"type":"LineString","coordinates":[[22.29736,54.30645],[22.29558,54.30577]]}},{"type":"Feature","properties":{"numer":"4851N","klasa":"droga zbiorcza","kat":"powiatowa"},"geometry":{"type":"LineString","coordinates":[[22.30091,54.30643],[22.30096,54.3058]]}},{"type":"Feature","properties":{"numer":"4812N","klasa":"droga zbiorcza","kat":"powiatowa"},"geometry":{"type":"LineString","coordinates":[[22.29558,54.30577],[22.29542,54.30654]]}},{"type":"Feature","properties":{"numer":"4831N","klasa":"droga zbiorcza","kat":"powiatowa"},"geometry":{"type":"LineString","coordinates":[[22.29889,54.3065],[22.30091,54.30643]]}},{"type":"Feature","properties":{"numer":"4831N","klasa":"droga zbiorcza","kat":"powiatowa"},"geometry":{"type":"LineString","coordinates":[[22.29736,54.30645],[22.29889,54.3065]]}},{"type":"Feature","properties":{"numer":"4831N","klasa":"droga zbiorcza","kat":"powiatowa"},"geometry":{"type":"LineString","coordinates":[[22.29581,54.30652],[22.29736,54.30645]]}},{"type":"Feature","properties":{"numer":"4831N","klasa":"droga zbiorcza","kat":"powiatowa"},"geometry":{"type":"LineString","coordinates":[[22.30091,54.30643],[22.30572,54.30622]]}},{"type":"Feature","properties":{"numer":"137529N","klasa":"droga lokalna","kat":"powiatowa"},"geometry":{"type":"LineString","coordinates":[[22.30355,54.30688],[22.3036,54.30634]]}},{"type":"Feature","properties":{"numer":"137529N","klasa":"droga lokalna","kat":"powiatowa"},"geometry":{"type":"LineString","coordinates":[[22.30351,54.30701],[22.30355,54.30688]]}},{"type":"Feature","properties":{"numer":"651","klasa":"droga gĹ‚Ăłwna","kat":"wojewodzka"},"geometry":{"type":"LineString","coordinates":[[22.30835,54.30793],[22.30947,54.30776],[22.31218,54.30787]]}},{"type":"Feature","properties":{"numer":"651","klasa":"droga gĹ‚Ăłwna","kat":"wojewodzka"},"geometry":{"type":"LineString","coordinates":[[22.31218,54.30787],[22.31401,54.30804],[22.31465,54.30822],[22.315,54.30844]]}},{"type":"Feature","properties":{"numer":"651","klasa":"droga gĹ‚Ăłwna","kat":"wojewodzka"},"geometry":{"type":"LineString","coordinates":[[22.30568,54.30843],[22.30691,54.30829],[22.30835,54.30793]]}},{"type":"Feature","properties":{"numer":"651","klasa":"droga gĹ‚Ăłwna","kat":"wojewodzka"},"geometry":{"type":"LineString","coordinates":[[22.32889,54.31155],[22.32995,54.31142],[22.33136,54.31083],[22.33221,54.31057],[22.33566,54.3098],[22.34017,54.30894],[22.34171,54.3087],[22.34761,54.30807],[22.35128,54.30749],[22.35481,54.30667],[22.35629,54.30652],[22.35901,54.30597],[22.36077,54.30583],[22.36466,54.30512],[22.36499,54.30514],[22.36529,54.30528],[22.36567,54.30581],[22.36638,54.30624],[22.36789,54.30793],[22.36833,54.3097]]}},{"type":"Feature","properties":{"numer":"651","klasa":"droga gĹ‚Ăłwna","kat":"wojewodzka"},"geometry":{"type":"LineString","coordinates":[[22.30463,54.30849],[22.30568,54.30843]]}},{"type":"Feature","properties":{"numer":"651","klasa":"droga gĹ‚Ăłwna","kat":"wojewodzka"},"geometry":{"type":"LineString","coordinates":[[22.3036,54.30847],[22.30402,54.30849]]}},{"type":"Feature","properties":{"numer":"651","klasa":"droga gĹ‚Ăłwna","kat":"wojewodzka"},"geometry":{"type":"LineString","coordinates":[[22.30357,54.3085],[22.3036,54.30847]]}},{"type":"Feature","properties":{"numer":"4831N","klasa":"droga zbiorcza","kat":"powiatowa"},"geometry":{"type":"LineString","coordinates":[[22.29542,54.30654],[22.29581,54.30652]]}},{"type":"Feature","properties":{"numer":"4831N","klasa":"droga zbiorcza","kat":"powiatowa"},"geometry":{"type":"LineString","coordinates":[[22.29282,54.3067],[22.2942,54.30667],[22.29542,54.30654]]}},{"type":"Feature","properties":{"numer":"4851N","klasa":"droga zbiorcza","kat":"powiatowa"},"geometry":{"type":"LineString","coordinates":[[22.30098,54.30711],[22.30091,54.30643]]}},{"type":"Feature","properties":{"numer":"1815N","klasa":"droga zbiorcza","kat":"powiatowa"},"geometry":{"type":"LineString","coordinates":[[22.30249,54.30923],[22.30087,54.3093]]}},{"type":"Feature","properties":{"numer":"1815N","klasa":"droga zbiorcza","kat":"powiatowa"},"geometry":{"type":"LineString","coordinates":[[22.30087,54.3093],[22.29977,54.30944],[22.2987,54.30971]]}},{"type":"Feature","properties":{"numer":"1815N","klasa":"droga zbiorcza","kat":"powiatowa"},"geometry":{"type":"LineString","coordinates":[[22.29776,54.30986],[22.29358,54.30965],[22.28461,54.30984],[22.28407,54.30978],[22.28274,54.30935],[22.28204,54.30928],[22.28128,54.30934],[22.27953,54.30977]]}},{"type":"Feature","properties":{"numer":"65","klasa":"droga gĹ‚Ăłwna ruchu przyĹ›pieszonego","kat":"krajowa"},"geometry":{"type":"LineString","coordinates":[[22.27953,54.30977],[22.27953,54.30961]]}},{"type":"Feature","properties":{"numer":"1815N","klasa":"droga zbiorcza","kat":"powiatowa"},"geometry":{"type":"LineString","coordinates":[[22.2987,54.30971],[22.2983,54.30986],[22.29776,54.30986]]}},{"type":"Feature","properties":{"numer":"65","klasa":"droga gĹ‚Ăłwna ruchu przyĹ›pieszonego","kat":"krajowa"},"geometry":{"type":"LineString","coordinates":[[22.27952,54.30994],[22.27953,54.30977]]}},{"type":"Feature","properties":{"numer":"137525N","klasa":"droga lokalna","kat":"powiatowa"},"geometry":{"type":"LineString","coordinates":[[22.30174,54.31073],[22.30186,54.31059]]}},{"type":"Feature","properties":{"numer":"651","klasa":"droga gĹ‚Ăłwna","kat":"wojewodzka"},"geometry":{"type":"LineString","coordinates":[[22.30402,54.30849],[22.30463,54.30849]]}},{"type":"Feature","properties":{"numer":"137527N","klasa":"droga lokalna","kat":"powiatowa"},"geometry":{"type":"LineString","coordinates":[[22.30357,54.3085],[22.30354,54.30853]]}},{"type":"Feature","properties":{"numer":"137527N","klasa":"","kat":"powiatowa"},"geometry":{"type":"LineString","coordinates":[[22.30354,54.30853],[22.30361,54.30872]]}},{"type":"Feature","properties":{"numer":"137527N","klasa":"droga lokalna","kat":"powiatowa"},"geometry":{"type":"LineString","coordinates":[[22.30373,54.30913],[22.30361,54.30872]]}},{"type":"Feature","properties":{"numer":"651","klasa":"droga gĹ‚Ăłwna","kat":"wojewodzka"},"geometry":{"type":"LineString","coordinates":[[22.315,54.30844],[22.31553,54.309],[22.31577,54.30961]]}},{"type":"Feature","properties":{"numer":"137527N","klasa":"droga lokalna","kat":"powiatowa"},"geometry":{"type":"LineString","coordinates":[[22.30377,54.30919],[22.30373,54.30913]]}},{"type":"Feature","properties":{"numer":"1815N","klasa":"droga zbiorcza","kat":"powiatowa"},"geometry":{"type":"LineString","coordinates":[[22.30373,54.30913],[22.30249,54.30923]]}},{"type":"Feature","properties":{"numer":"137526N","klasa":"droga lokalna","kat":"powiatowa"},"geometry":{"type":"LineString","coordinates":[[22.30435,54.30977],[22.30377,54.30919]]}},{"type":"Feature","properties":{"numer":"4824N","klasa":"droga gĹ‚Ăłwna","kat":"powiatowa"},"geometry":{"type":"LineString","coordinates":[[22.30249,54.30923],[22.30247,54.30961],[22.30219,54.31031]]}},{"type":"Feature","properties":{"numer":"137526N","klasa":"droga lokalna","kat":"powiatowa"},"geometry":{"type":"LineString","coordinates":[[22.30219,54.31031],[22.30363,54.3102],[22.304,54.31011],[22.30437,54.30995],[22.30435,54.30977]]}},{"type":"Feature","properties":{"numer":"4816N","klasa":"droga gĹ‚Ăłwna","kat":"powiatowa"},"geometry":{"type":"LineString","coordinates":[[22.30377,54.30919],[22.30497,54.30981],[22.3054,54.31013],[22.30582,54.31057],[22.30604,54.31109]]}},{"type":"Feature","properties":{"numer":"651","klasa":"droga gĹ‚Ăłwna","kat":"wojewodzka"},"geometry":{"type":"LineString","coordinates":[[22.31577,54.30961],[22.31595,54.3105],[22.31612,54.31081]]}},{"type":"Feature","properties":{"numer":"137525N","klasa":"droga lokalna","kat":"powiatowa"},"geometry":{"type":"LineString","coordinates":[[22.30186,54.31059],[22.30219,54.31031]]}},{"type":"Feature","properties":{"numer":"651","klasa":"droga gĹ‚Ăłwna","kat":"wojewodzka"},"geometry":{"type":"LineString","coordinates":[[22.31612,54.31081],[22.31631,54.31109]]}},{"type":"Feature","properties":{"numer":"4816N","klasa":"droga gĹ‚Ăłwna","kat":"powiatowa"},"geometry":{"type":"LineString","coordinates":[[22.30604,54.31109],[22.30606,54.31136]]}},{"type":"Feature","properties":{"numer":"651","klasa":"droga gĹ‚Ăłwna","kat":"wojewodzka"},"geometry":{"type":"LineString","coordinates":[[22.31631,54.31109],[22.31707,54.31192]]}},{"type":"Feature","properties":{"numer":"651","klasa":"droga gĹ‚Ăłwna","kat":"wojewodzka"},"geometry":{"type":"LineString","coordinates":[[22.32866,54.31155],[22.32889,54.31155]]}},{"type":"Feature","properties":{"numer":"651","klasa":"droga gĹ‚Ăłwna","kat":"wojewodzka"},"geometry":{"type":"LineString","coordinates":[[22.3276,54.31158],[22.32866,54.31155]]}},{"type":"Feature","properties":{"numer":"651","klasa":"droga gĹ‚Ăłwna","kat":"wojewodzka"},"geometry":{"type":"LineString","coordinates":[[22.31898,54.31238],[22.32152,54.31244],[22.32618,54.3117],[22.3276,54.31158]]}},{"type":"Feature","properties":{"numer":"651","klasa":"droga gĹ‚Ăłwna","kat":"wojewodzka"},"geometry":{"type":"LineString","coordinates":[[22.31754,54.31219],[22.31707,54.31192]]}},{"type":"Feature","properties":{"numer":"137525N","klasa":"droga lokalna","kat":"powiatowa"},"geometry":{"type":"LineString","coordinates":[[22.30155,54.31093],[22.30174,54.31073]]}},{"type":"Feature","properties":{"numer":"65","klasa":"droga gĹ‚Ăłwna ruchu przyĹ›pieszonego","kat":"krajowa"},"geometry":{"type":"LineString","coordinates":[[22.27948,54.31184],[22.27952,54.30994]]}},{"type":"Feature","properties":{"numer":"137525N","klasa":"droga lokalna","kat":"powiatowa"},"geometry":{"type":"LineString","coordinates":[[22.3014,54.3111],[22.30155,54.31093]]}},{"type":"Feature","properties":{"numer":"137525N","klasa":"droga lokalna","kat":"powiatowa"},"geometry":{"type":"LineString","coordinates":[[22.30095,54.31166],[22.3014,54.3111]]}},{"type":"Feature","properties":{"numer":"65","klasa":"droga gĹ‚Ăłwna ruchu przyĹ›pieszonego","kat":"krajowa"},"geometry":{"type":"LineString","coordinates":[[22.27951,54.31217],[22.27948,54.31184]]}},{"type":"Feature","properties":{"numer":"137525N","klasa":"droga lokalna","kat":"powiatowa"},"geometry":{"type":"LineString","coordinates":[[22.30014,54.31269],[22.30048,54.31225]]}},{"type":"Feature","properties":{"numer":"137525N","klasa":"droga lokalna","kat":"powiatowa"},"geometry":{"type":"LineString","coordinates":[[22.30009,54.31276],[22.30014,54.31269]]}},{"type":"Feature","properties":{"numer":"137525N","klasa":"droga lokalna","kat":"powiatowa"},"geometry":{"type":"LineString","coordinates":[[22.2999,54.31301],[22.30009,54.31276]]}},{"type":"Feature","properties":{"numer":"137525N","klasa":"droga lokalna","kat":"powiatowa"},"geometry":{"type":"LineString","coordinates":[[22.29954,54.31344],[22.2999,54.31301]]}},{"type":"Feature","properties":{"numer":"137525N","klasa":"droga lokalna","kat":"powiatowa"},"geometry":{"type":"LineString","coordinates":[[22.29942,54.31354],[22.29954,54.31344]]}},{"type":"Feature","properties":{"numer":"651","klasa":"droga gĹ‚Ăłwna","kat":"wojewodzka"},"geometry":{"type":"LineString","coordinates":[[22.31767,54.31227],[22.31754,54.31219]]}},{"type":"Feature","properties":{"numer":"651","klasa":"droga gĹ‚Ăłwna","kat":"wojewodzka"},"geometry":{"type":"LineString","coordinates":[[22.31767,54.31227],[22.31784,54.3123]]}},{"type":"Feature","properties":{"numer":"4810N","klasa":"droga gĹ‚Ăłwna","kat":"powiatowa"},"geometry":{"type":"LineString","coordinates":[[22.31767,54.31227],[22.31753,54.31235]]}},{"type":"Feature","properties":{"numer":"651","klasa":"droga gĹ‚Ăłwna","kat":"wojewodzka"},"geometry":{"type":"LineString","coordinates":[[22.31784,54.3123],[22.31863,54.31236]]}},{"type":"Feature","properties":{"numer":"651","klasa":"droga gĹ‚Ăłwna","kat":"wojewodzka"},"geometry":{"type":"LineString","coordinates":[[22.31863,54.31236],[22.31898,54.31238]]}},{"type":"Feature","properties":{"numer":"4816N","klasa":"droga gĹ‚Ăłwna","kat":"powiatowa"},"geometry":{"type":"LineString","coordinates":[[22.30606,54.31136],[22.30615,54.31172],[22.30723,54.31359]]}},{"type":"Feature","properties":{"numer":"4810N","klasa":"droga gĹ‚Ăłwna","kat":"powiatowa"},"geometry":{"type":"LineString","coordinates":[[22.31753,54.31235],[22.3171,54.31269]]}},{"type":"Feature","properties":{"numer":"4810N","klasa":"droga gĹ‚Ăłwna","kat":"powiatowa"},"geometry":{"type":"LineString","coordinates":[[22.3171,54.31269],[22.31638,54.31324],[22.31555,54.31347]]}},{"type":"Feature","properties":{"numer":"4810N","klasa":"droga gĹ‚Ăłwna","kat":"powiatowa"},"geometry":{"type":"LineString","coordinates":[[22.31555,54.31347],[22.31512,54.31354]]}},{"type":"Feature","properties":{"numer":"4810N","klasa":"droga gĹ‚Ăłwna","kat":"powiatowa"},"geometry":{"type":"LineString","coordinates":[[22.31512,54.31354],[22.31291,54.31382]]}},{"type":"Feature","properties":{"numer":"4816N","klasa":"droga gĹ‚Ăłwna","kat":"powiatowa"},"geometry":{"type":"LineString","coordinates":[[22.30723,54.31359],[22.30734,54.31379]]}},{"type":"Feature","properties":{"numer":"4816N","klasa":"droga gĹ‚Ăłwna","kat":"powiatowa"},"geometry":{"type":"LineString","coordinates":[[22.30734,54.31379],[22.30748,54.31395]]}},{"type":"Feature","properties":{"numer":"4810N","klasa":"droga gĹ‚Ăłwna","kat":"powiatowa"},"geometry":{"type":"LineString","coordinates":[[22.31291,54.31382],[22.31127,54.31396],[22.30836,54.31396]]}},{"type":"Feature","properties":{"numer":"4816N","klasa":"droga gĹ‚Ăłwna","kat":"powiatowa"},"geometry":{"type":"LineString","coordinates":[[22.30748,54.31395],[22.3076,54.31399]]}},{"type":"Feature","properties":{"numer":"4810N","klasa":"droga gĹ‚Ăłwna","kat":"powiatowa"},"geometry":{"type":"LineString","coordinates":[[22.30836,54.31396],[22.30774,54.31399]]}},{"type":"Feature","properties":{"numer":"4810N","klasa":"droga gĹ‚Ăłwna","kat":"powiatowa"},"geometry":{"type":"LineString","coordinates":[[22.30774,54.31399],[22.3076,54.31399]]}},{"type":"Feature","properties":{"numer":"4836N","klasa":"droga gĹ‚Ăłwna","kat":"powiatowa"},"geometry":{"type":"LineString","coordinates":[[22.3076,54.31399],[22.30753,54.31406]]}},{"type":"Feature","properties":{"numer":"4836N","klasa":"droga gĹ‚Ăłwna","kat":"powiatowa"},"geometry":{"type":"LineString","coordinates":[[22.30753,54.31406],[22.30719,54.31422]]}},{"type":"Feature","properties":{"numer":"4836N","klasa":"droga gĹ‚Ăłwna","kat":"powiatowa"},"geometry":{"type":"LineString","coordinates":[[22.30719,54.31422],[22.30632,54.31436]]}},{"type":"Feature","properties":{"numer":"4820N","klasa":"droga zbiorcza","kat":"powiatowa"},"geometry":{"type":"LineString","coordinates":[[22.31291,54.31382],[22.31303,54.3144],[22.31214,54.31511]]}},{"type":"Feature","properties":{"numer":"1784N","klasa":"droga zbiorcza","kat":"powiatowa"},"geometry":{"type":"LineString","coordinates":[[22.29324,54.31566],[22.29423,54.31502],[22.29595,54.31427],[22.29781,54.31368],[22.29942,54.31354]]}},{"type":"Feature","properties":{"numer":"65","klasa":"droga gĹ‚Ăłwna ruchu przyĹ›pieszonego","kat":"krajowa"},"geometry":{"type":"LineString","coordinates":[[22.29106,54.31733],[22.28292,54.31508],[22.28159,54.31455],[22.28079,54.31406],[22.28002,54.31329],[22.27951,54.31217]]}},{"type":"Feature","properties":{"numer":"137524N","klasa":"droga lokalna","kat":"powiatowa"},"geometry":{"type":"LineString","coordinates":[[22.29924,54.31538],[22.29926,54.31517]]}},{"type":"Feature","properties":{"numer":"137524N","klasa":"droga lokalna","kat":"powiatowa"},"geometry":{"type":"LineString","coordinates":[[22.29919,54.3159],[22.29924,54.31538]]}},{"type":"Feature","properties":{"numer":"1784N","klasa":"droga zbiorcza","kat":"powiatowa"},"geometry":{"type":"LineString","coordinates":[[22.29319,54.31569],[22.29324,54.31566]]}},{"type":"Feature","properties":{"numer":"137524N","klasa":"droga lokalna","kat":"powiatowa"},"geometry":{"type":"LineString","coordinates":[[22.29909,54.31655],[22.29919,54.3159]]}},{"type":"Feature","properties":{"numer":"1784N","klasa":"droga zbiorcza","kat":"powiatowa"},"geometry":{"type":"LineString","coordinates":[[22.29112,54.31725],[22.29195,54.31649],[22.29319,54.31569]]}},{"type":"Feature","properties":{"numer":"137524N","klasa":"droga lokalna","kat":"powiatowa"},"geometry":{"type":"LineString","coordinates":[[22.29899,54.31751],[22.29909,54.31655]]}},{"type":"Feature","properties":{"numer":"1784N","klasa":"droga zbiorcza","kat":"powiatowa"},"geometry":{"type":"LineString","coordinates":[[22.29106,54.31733],[22.29112,54.31725]]}},{"type":"Feature","properties":{"numer":"1784N","klasa":"droga zbiorcza","kat":"powiatowa"},"geometry":{"type":"LineString","coordinates":[[22.29097,54.31744],[22.29106,54.31733]]}},{"type":"Feature","properties":{"numer":"4836N","klasa":"droga gĹ‚Ăłwna","kat":"powiatowa"},"geometry":{"type":"LineString","coordinates":[[22.30632,54.31436],[22.29926,54.31517]]}},{"type":"Feature","properties":{"numer":"137503N,4820N","klasa":"droga zbiorcza","kat":"powiatowa"},"geometry":{"type":"LineString","coordinates":[[22.31214,54.31511],[22.31205,54.31517]]}},{"type":"Feature","properties":{"numer":"4820N","klasa":"droga zbiorcza","kat":"powiatowa"},"geometry":{"type":"LineString","coordinates":[[22.31205,54.31517],[22.31152,54.31576],[22.31143,54.31634]]}},{"type":"Feature","properties":{"numer":"4853N","klasa":"","kat":"powiatowa"},"geometry":{"type":"LineString","coordinates":[[22.29919,54.3159],[22.30279,54.31569],[22.30687,54.3163],[22.30774,54.31649],[22.31119,54.31668]]}},{"type":"Feature","properties":{"numer":"4820N","klasa":"droga zbiorcza","kat":"powiatowa"},"geometry":{"type":"LineString","coordinates":[[22.31143,54.31634],[22.31151,54.31658]]}},{"type":"Feature","properties":{"numer":"4853N","klasa":"droga zbiorcza","kat":"powiatowa"},"geometry":{"type":"LineString","coordinates":[[22.31119,54.31668],[22.31143,54.31634]]}},{"type":"Feature","properties":{"numer":"4853N","klasa":"droga zbiorcza","kat":"powiatowa"},"geometry":{"type":"LineString","coordinates":[[22.31119,54.31668],[22.31151,54.31658]]}},{"type":"Feature","properties":{"numer":"4820N","klasa":"droga zbiorcza","kat":"powiatowa"},"geometry":{"type":"LineString","coordinates":[[22.31151,54.31658],[22.31163,54.31671]]}},{"type":"Feature","properties":{"numer":"4853N","klasa":"droga zbiorcza","kat":"powiatowa"},"geometry":{"type":"LineString","coordinates":[[22.31119,54.31668],[22.31163,54.31671]]}},{"type":"Feature","properties":{"numer":"4820N","klasa":"droga zbiorcza","kat":"powiatowa"},"geometry":{"type":"LineString","coordinates":[[22.31163,54.31671],[22.31244,54.31716],[22.31696,54.31876]]}},{"type":"Feature","properties":{"numer":"4820N","klasa":"droga zbiorcza","kat":"powiatowa"},"geometry":{"type":"LineString","coordinates":[[22.31696,54.31876],[22.31893,54.31947],[22.3196,54.31978]]}},{"type":"Feature","properties":{"numer":"4820N","klasa":"droga zbiorcza","kat":"powiatowa"},"geometry":{"type":"LineString","coordinates":[[22.3196,54.31978],[22.32111,54.32094]]}},{"type":"Feature","properties":{"numer":"4820N","klasa":"droga zbiorcza","kat":"powiatowa"},"geometry":{"type":"LineString","coordinates":[[22.32111,54.32094],[22.32232,54.32195]]}},{"type":"Feature","properties":{"numer":"4820N","klasa":"droga zbiorcza","kat":"powiatowa"},"geometry":{"type":"LineString","coordinates":[[22.32232,54.32195],[22.32268,54.32238]]}},{"type":"Feature","properties":{"numer":"4808N","klasa":"droga zbiorcza","kat":"powiatowa"},"geometry":{"type":"LineString","coordinates":[[22.32268,54.32238],[22.32427,54.32332]]}},{"type":"Feature","properties":{"numer":"4808N","klasa":"droga zbiorcza","kat":"powiatowa"},"geometry":{"type":"LineString","coordinates":[[22.32427,54.32332],[22.32616,54.3245]]}},{"type":"Feature","properties":{"numer":"4808N","klasa":"droga zbiorcza","kat":"powiatowa"},"geometry":{"type":"LineString","coordinates":[[22.32616,54.3245],[22.33002,54.32712],[22.33042,54.32725],[22.33194,54.3274]]}},{"type":"Feature","properties":{"numer":"65","klasa":"droga gĹ‚Ăłwna ruchu przyĹ›pieszonego","kat":"krajowa"},"geometry":{"type":"LineString","coordinates":[[22.29106,54.31733],[22.29258,54.31775]]}},{"type":"Feature","properties":{"numer":"1784N","klasa":"droga zbiorcza","kat":"powiatowa"},"geometry":{"type":"LineString","coordinates":[[22.28849,54.31748],[22.28961,54.31775],[22.29018,54.31778],[22.29055,54.3177],[22.29097,54.31744]]}},{"type":"Feature","properties":{"numer":"137524N","klasa":"droga lokalna","kat":"powiatowa"},"geometry":{"type":"LineString","coordinates":[[22.29876,54.318],[22.29899,54.31751]]}},{"type":"Feature","properties":{"numer":"137524N","klasa":"droga lokalna","kat":"powiatowa"},"geometry":{"type":"LineString","coordinates":[[22.29771,54.31897],[22.29876,54.318]]}},{"type":"Feature","properties":{"numer":"65","klasa":"droga gĹ‚Ăłwna ruchu przyĹ›pieszonego","kat":"krajowa"},"geometry":{"type":"LineString","coordinates":[[22.29639,54.31961],[22.29582,54.31908],[22.29485,54.31851],[22.29258,54.31775]]}},{"type":"Feature","properties":{"numer":"137524N","klasa":"droga lokalna","kat":"powiatowa"},"geometry":{"type":"LineString","coordinates":[[22.29697,54.31939],[22.29771,54.31897]]}},{"type":"Feature","properties":{"numer":"137524N","klasa":"droga lokalna","kat":"powiatowa"},"geometry":{"type":"LineString","coordinates":[[22.29639,54.31961],[22.29697,54.31939]]}},{"type":"Feature","properties":{"numer":"1784N","klasa":"droga zbiorcza","kat":"powiatowa"},"geometry":{"type":"LineString","coordinates":[[22.25377,54.3213],[22.25567,54.32139],[22.25918,54.32195],[22.26016,54.32196],[22.26089,54.32183],[22.27028,54.3194],[22.27533,54.31913],[22.28429,54.31801],[22.28759,54.31745],[22.28849,54.31748]]}},{"type":"Feature","properties":{"numer":"65","klasa":"droga gĹ‚Ăłwna ruchu przyĹ›pieszonego","kat":"krajowa"},"geometry":{"type":"LineString","coordinates":[[22.29745,54.32143],[22.29706,54.32056],[22.29639,54.31961]]}},{"type":"Feature","properties":{"numer":"1786N","klasa":"","kat":"powiatowa"},"geometry":{"type":"LineString","coordinates":[[22.25888,54.33183],[22.26194,54.33174],[22.26748,54.33241],[22.26851,54.33246],[22.26975,54.33225],[22.27338,54.33091],[22.28024,54.32687],[22.28062,54.32639],[22.28198,54.32369],[22.28634,54.32003],[22.28806,54.31825],[22.28849,54.31748]]}},{"type":"Feature","properties":{"numer":"1786N","klasa":"","kat":"powiatowa"},"geometry":{"type":"LineString","coordinates":[[22.25377,54.3213],[22.25258,54.32229],[22.25188,54.32396],[22.25072,54.3254],[22.25,54.3261],[22.24908,54.32721],[22.24908,54.32913],[22.24966,54.33252],[22.25,54.33279],[22.25058,54.33299],[22.25108,54.3331],[22.25159,54.3331],[22.25198,54.33299],[22.25242,54.33264],[22.25381,54.33195],[22.25645,54.33142],[22.25709,54.33144],[22.25888,54.33183]]}},{"type":"Feature","properties":{"numer":"65","klasa":"droga gĹ‚Ăłwna ruchu przyĹ›pieszonego","kat":"krajowa"},"geometry":{"type":"LineString","coordinates":[[22.29695,54.33845],[22.29488,54.33289],[22.29717,54.32819],[22.29783,54.32624],[22.29831,54.32433],[22.29834,54.32364],[22.29745,54.32143]]}},{"type":"Feature","properties":{"numer":"65","klasa":"droga gĹ‚Ăłwna ruchu przyĹ›pieszonego","kat":"krajowa"},"geometry":{"type":"LineString","coordinates":[[22.29695,54.33845],[22.29689,54.33881],[22.29705,54.33933],[22.29745,54.33977]]}},{"type":"Feature","properties":{"numer":"65","klasa":"droga gĹ‚Ăłwna ruchu przyĹ›pieszonego","kat":"krajowa"},"geometry":{"type":"LineString","coordinates":[[22.29745,54.33977],[22.29695,54.33845]]}},{"type":"Feature","properties":{"numer":"65","klasa":"droga gĹ‚Ăłwna ruchu przyĹ›pieszonego","kat":"krajowa"},"geometry":{"type":"LineString","coordinates":[[22.29763,54.34055],[22.29746,54.34045],[22.29763,54.34029],[22.29745,54.33977]]}},{"type":"Feature","properties":{"numer":"65","klasa":"droga gĹ‚Ăłwna ruchu przyĹ›pieszonego","kat":"krajowa"},"geometry":{"type":"LineString","coordinates":[[22.29778,54.34073],[22.29763,54.34055]]}},{"type":"Feature","properties":{"numer":"65","klasa":"droga gĹ‚Ăłwna ruchu przyĹ›pieszonego","kat":"krajowa"},"geometry":{"type":"LineString","coordinates":[[22.297989687875102,54.341216094619554],[22.29778,54.34073]]}}]}