{"type":"FeatureCollection","features":[{"type":"Feature","properties":{"numer":"675138P","klasa":"droga dojazdowa","kat":"powiatowa"},"geometry":{"type":"LineString","coordinates":[[18.41157,51.80125],[18.41354,51.80126],[18.4153,51.80146]]}},{"type":"Feature","properties":{"numer":"675130P","klasa":"droga dojazdowa","kat":"powiatowa"},"geometry":{"type":"LineString","coordinates":[[18.41131,51.80455],[18.41136,51.80196],[18.41157,51.80125]]}},{"type":"Feature","properties":{"numer":"675138P","klasa":"droga dojazdowa","kat":"powiatowa"},"geometry":{"type":"LineString","coordinates":[[18.4153,51.80146],[18.42273,51.80428],[18.42822,51.80467]]}},{"type":"Feature","properties":{"numer":"675132P","klasa":"droga dojazdowa","kat":"powiatowa"},"geometry":{"type":"LineString","coordinates":[[18.394237945183264,51.8022719137204],[18.39615,51.8039],[18.39654,51.80411],[18.39708,51.8042]]}},{"type":"Feature","properties":{"numer":"675132P","klasa":"droga dojazdowa","kat":"powiatowa"},"geometry":{"type":"LineString","coordinates":[[18.39708,51.8042],[18.40227,51.80441]]}},{"type":"Feature","properties":{"numer":"675132P","klasa":"droga dojazdowa","kat":"powiatowa"},"geometry":{"type":"LineString","coordinates":[[18.40227,51.80441],[18.4028,51.80444]]}},{"type":"Feature","properties":{"numer":"675132P","klasa":"droga dojazdowa","kat":"powiatowa"},"geometry":{"type":"LineString","coordinates":[[18.4028,51.80444],[18.40717,51.80462],[18.40809,51.80451],[18.41127,51.80467]]}},{"type":"Feature","properties":{"numer":"675130P","klasa":"droga dojazdowa","kat":"powiatowa"},"geometry":{"type":"LineString","coordinates":[[18.41127,51.80467],[18.41131,51.80455]]}},{"type":"Feature","properties":{"numer":"675138P","klasa":"droga dojazdowa","kat":"powiatowa"},"geometry":{"type":"LineString","coordinates":[[18.42822,51.80467],[18.43113,51.80484],[18.43241,51.80507]]}},{"type":"Feature","properties":{"numer":"675138P","klasa":"droga dojazdowa","kat":"powiatowa"},"geometry":{"type":"LineString","coordinates":[[18.43241,51.80507],[18.43924,51.80631]]}},{"type":"Feature","properties":{"numer":"675138P","klasa":"droga dojazdowa","kat":"powiatowa"},"geometry":{"type":"LineString","coordinates":[[18.43924,51.80631],[18.44019,51.8065]]}},{"type":"Feature","properties":{"numer":"675138P","klasa":"droga dojazdowa","kat":"powiatowa"},"geometry":{"type":"LineString","coordinates":[[18.44019,51.8065],[18.44222,51.8069]]}},{"type":"Feature","properties":{"numer":"675138P","klasa":"droga dojazdowa","kat":"powiatowa"},"geometry":{"type":"LineString","coordinates":[[18.44222,51.8069],[18.44258,51.80697]]}},{"type":"Feature","properties":{"numer":"675138P","klasa":"droga dojazdowa","kat":"powiatowa"},"geometry":{"type":"LineString","coordinates":[[18.44258,51.80697],[18.4426,51.80698]]}},{"type":"Feature","properties":{"numer":"1740E","klasa":"","kat":"powiatowa"},"geometry":{"type":"LineString","coordinates":[[18.4426,51.80698],[18.442696859974422,51.80700145911422]]}},{"type":"Feature","properties":{"numer":"471","klasa":"droga gĹ‚Ăłwna","kat":"wojewodzka"},"geometry":{"type":"LineString","coordinates":[[18.39892,51.83262],[18.39018,51.83212]]}},{"type":"Feature","properties":{"numer":"471,675127P","klasa":"droga gĹ‚Ăłwna","kat":"gminna"},"geometry":{"type":"LineString","coordinates":[[18.39944,51.83281],[18.39892,51.83262]]}},{"type":"Feature","properties":{"numer":"4606P","klasa":"","kat":"powiatowa"},"geometry":{"type":"LineString","coordinates":[[18.30720544302875,51.83191363197413],[18.33056,51.83334],[18.32946,51.83919],[18.32846,51.84239],[18.3297,51.84833]]}},{"type":"Feature","properties":{"numer":"471","klasa":"droga gĹ‚Ăłwna","kat":"wojewodzka"},"geometry":{"type":"LineString","coordinates":[[18.38884,51.83198],[18.38369,51.83032],[18.37739,51.82741],[18.377217895233283,51.8272575334232]]}},{"type":"Feature","properties":{"numer":"471","klasa":"droga gĹ‚Ăłwna","kat":"wojewodzka"},"geometry":{"type":"LineString","coordinates":[[18.39018,51.83212],[18.38925,51.83208],[18.38884,51.83198]]}},{"type":"Feature","properties":{"numer":"4606P","klasa":"","kat":"powiatowa"},"geometry":{"type":"LineString","coordinates":[[18.35678,51.84179],[18.36282,51.84166],[18.36358,51.84158],[18.37254,51.83827],[18.38884,51.83198]]}},{"type":"Feature","properties":{"numer":"4604P","klasa":"","kat":"powiatowa"},"geometry":{"type":"LineString","coordinates":[[18.39018,51.83212],[18.38988,51.83579],[18.39121,51.84338],[18.39288,51.84824],[18.39271,51.84903],[18.39315,51.85053],[18.39297,51.85115]]}},{"type":"Feature","properties":{"numer":"4606P,675116P","klasa":"","kat":"powiatowa"},"geometry":{"type":"LineString","coordinates":[[18.35674,51.8418],[18.35678,51.84179]]}},{"type":"Feature","properties":{"numer":"4606P","klasa":"","kat":"powiatowa"},"geometry":{"type":"LineString","coordinates":[[18.3297,51.84833],[18.33541,51.84853],[18.33731,51.84878],[18.33943,51.84884],[18.35101,51.84219],[18.35181,51.84205],[18.35674,51.8418]]}},{"type":"Feature","properties":{"numer":"4604P,675120P","klasa":"","kat":"powiatowa"},"geometry":{"type":"LineString","coordinates":[[18.39297,51.85115],[18.39247,51.85157],[18.39049,51.85237]]}},{"type":"Feature","properties":{"numer":"4604P","klasa":"","kat":"powiatowa"},"geometry":{"type":"LineString","coordinates":[[18.39049,51.85237],[18.38917,51.85303],[18.38875,51.8534],[18.38807,51.85553],[18.38718,51.85705],[18.38627,51.85797],[18.38607,51.85851],[18.38613,51.85902],[18.3873,51.86047],[18.38732,51.86062],[18.38455,51.86395],[18.38415,51.86433],[18.38305,51.86507],[18.381,51.86711],[18.37949,51.86828],[18.37876,51.86876],[18.37734,51.8693],[18.37678,51.8696],[18.37374,51.87161],[18.37357,51.87175],[18.37366,51.87182]]}},{"type":"Feature","properties":{"numer":"471","klasa":"droga gĹ‚Ăłwna","kat":"wojewodzka"},"geometry":{"type":"LineString","coordinates":[[18.477538945744083,51.86162001494462],[18.46071,51.86215],[18.45179,51.86222],[18.45022,51.86215],[18.45005,51.86191],[18.44974,51.85753],[18.44963,51.85721],[18.4493,51.85683],[18.43273,51.84878]]}},{"type":"Feature","properties":{"numer":"471","klasa":"droga gĹ‚Ăłwna","kat":"wojewodzka"},"geometry":{"type":"LineString","coordinates":[[18.43273,51.84878],[18.40816,51.8369],[18.40539,51.83491],[18.40413,51.83424],[18.40239,51.83316],[18.40174,51.83297],[18.39944,51.83281]]}},{"type":"Feature","properties":{"numer":"4487P","klasa":"","kat":"powiatowa"},"geometry":{"type":"LineString","coordinates":[[18.41266,51.88256],[18.41547,51.87788],[18.41764,51.87403],[18.4178,51.87271],[18.41805,51.87197],[18.42415,51.86421],[18.42425,51.8633],[18.42423,51.86158],[18.42412,51.86148],[18.42361,51.86137],[18.42347,51.86126],[18.42352,51.86035],[18.42533,51.85858],[18.42656,51.85753],[18.4272,51.85602],[18.43273,51.84878]]}},{"type":"Feature","properties":{"numer":"4603P","klasa":"","kat":"powiatowa"},"geometry":{"type":"LineString","coordinates":[[18.38182,51.8779],[18.38709,51.88181],[18.38776,51.88216],[18.38874,51.88246],[18.39033,51.88256],[18.41266,51.88256]]}},{"type":"Feature","properties":{"numer":"4487P","klasa":"","kat":"powiatowa"},"geometry":{"type":"LineString","coordinates":[[18.407831779545777,51.890922889326376],[18.40784,51.89088],[18.41266,51.88256]]}},{"type":"Feature","properties":{"numer":"4603P","klasa":"","kat":"powiatowa"},"geometry":{"type":"LineString","coordinates":[[18.37366,51.87182],[18.38122,51.87745]]}},{"type":"Feature","properties":{"numer":"4603P,675115P","klasa":"","kat":"powiatowa"},"geometry":{"type":"LineString","coordinates":[[18.38122,51.87745],[18.38182,51.8779]]}},{"type":"Feature","properties":{"numer":"4604P","klasa":"","kat":"powiatowa"},"geometry":{"type":"LineString","coordinates":[[18.37366,51.87182],[18.37146,51.87329],[18.37084,51.87361],[18.37037,51.87417],[18.37009,51.8746],[18.36996,51.87529],[18.3696,51.87603],[18.36932,51.87636],[18.36834,51.87708],[18.36798,51.87745],[18.36814,51.87781],[18.36813,51.87887],[18.36761,51.8795],[18.367557714181377,51.879509902617166]]}},{"type":"Feature","properties":{"numer":"4597P","klasa":"","kat":"powiatowa"},"geometry":{"type":"LineString","coordinates":[[18.30710732530225,51.84227262690054],[18.3081,51.84245],[18.31789,51.84449],[18.32211,51.84544],[18.32501,51.84597],[18.32591,51.84629],[18.32923,51.84817],[18.3297,51.84833]]}}]}