{"type":"FeatureCollection","features":[{"type":"Feature","properties":{"numer":"264","klasa":"droga gĹ‚Ăłwna","kat":"wojewodzka"},"geometry":{"type":"LineString","coordinates":[[18.19036665942229,52.340351110208665],[18.19332,52.34379],[18.19378,52.34469],[18.19387,52.3452],[18.19383,52.358],[18.19365,52.35867],[18.19322,52.35928],[18.18479,52.36696]]}},{"type":"Feature","properties":{"numer":"","klasa":"droga wewnÄ™trzna","kat":"gminna"},"geometry":{"type":"LineString","coordinates":[[18.18463,52.36708],[18.18479,52.36696]]}},{"type":"Feature","properties":{"numer":"","klasa":"droga wewnÄ™trzna","kat":"gminna"},"geometry":{"type":"LineString","coordinates":[[18.18425,52.36737],[18.18463,52.36708]]}},{"type":"Feature","properties":{"numer":"","klasa":"droga wewnÄ™trzna","kat":"gminna"},"geometry":{"type":"LineString","coordinates":[[18.18373,52.3677],[18.18425,52.36737]]}},{"type":"Feature","properties":{"numer":"","klasa":"droga wewnÄ™trzna","kat":"gminna"},"geometry":{"type":"LineString","coordinates":[[18.18342,52.36786],[18.18373,52.3677]]}},{"type":"Feature","properties":{"numer":"","klasa":"droga wewnÄ™trzna","kat":"gminna"},"geometry":{"type":"LineString","coordinates":[[18.18301,52.36802],[18.18342,52.36786]]}},{"type":"Feature","properties":{"numer":"264","klasa":"droga gĹ‚Ăłwna","kat":"wojewodzka"},"geometry":{"type":"LineString","coordinates":[[18.18479,52.36696],[18.18507,52.36714],[18.1852,52.36734],[18.18538,52.36896]]}},{"type":"Feature","properties":{"numer":"","klasa":"droga wewnÄ™trzna","kat":"gminna"},"geometry":{"type":"LineString","coordinates":[[18.18101,52.36852],[18.18301,52.36802]]}},{"type":"Feature","properties":{"numer":"","klasa":"droga wewnÄ™trzna","kat":"gminna"},"geometry":{"type":"LineString","coordinates":[[18.18023,52.3687],[18.18101,52.36852]]}},{"type":"Feature","properties":{"numer":"3267P","klasa":"","kat":"powiatowa"},"geometry":{"type":"LineString","coordinates":[[18.18538,52.36896],[18.1872,52.36878]]}},{"type":"Feature","properties":{"numer":"","klasa":"droga wewnÄ™trzna","kat":"gminna"},"geometry":{"type":"LineString","coordinates":[[18.17807,52.36917],[18.18023,52.3687]]}},{"type":"Feature","properties":{"numer":"3267P","klasa":"","kat":"powiatowa"},"geometry":{"type":"LineString","coordinates":[[18.18517,52.36898],[18.18538,52.36896]]}},{"type":"Feature","properties":{"numer":"3267P","klasa":"","kat":"powiatowa"},"geometry":{"type":"LineString","coordinates":[[18.18486,52.36901],[18.18517,52.36898]]}},{"type":"Feature","properties":{"numer":"3267P","klasa":"","kat":"powiatowa"},"geometry":{"type":"LineString","coordinates":[[18.18165,52.36931],[18.18486,52.36901]]}},{"type":"Feature","properties":{"numer":"","klasa":"droga wewnÄ™trzna","kat":"gminna"},"geometry":{"type":"LineString","coordinates":[[18.17672,52.36946],[18.17807,52.36917]]}},{"type":"Feature","properties":{"numer":"3263P","klasa":"","kat":"powiatowa"},"geometry":{"type":"LineString","coordinates":[[18.17586,52.36965],[18.17672,52.36946]]}},{"type":"Feature","properties":{"numer":"3267P","klasa":"","kat":"powiatowa"},"geometry":{"type":"LineString","coordinates":[[18.17954,52.36985],[18.18165,52.36931]]}},{"type":"Feature","properties":{"numer":"454119P","klasa":"droga lokalna","kat":"powiatowa"},"geometry":{"type":"LineString","coordinates":[[18.1769,52.36989],[18.17672,52.36946]]}},{"type":"Feature","properties":{"numer":"3267P","klasa":"","kat":"powiatowa"},"geometry":{"type":"LineString","coordinates":[[18.17864,52.37009],[18.17954,52.36985]]}},{"type":"Feature","properties":{"numer":"3267P","klasa":"","kat":"powiatowa"},"geometry":{"type":"LineString","coordinates":[[18.17837,52.37016],[18.17864,52.37009]]}},{"type":"Feature","properties":{"numer":"454119P","klasa":"droga lokalna","kat":"powiatowa"},"geometry":{"type":"LineString","coordinates":[[18.1769,52.36989],[18.17714,52.37045]]}},{"type":"Feature","properties":{"numer":"454123P","klasa":"droga lokalna","kat":"powiatowa"},"geometry":{"type":"LineString","coordinates":[[18.17586,52.36965],[18.17531,52.36983],[18.17345,52.37071],[18.17295,52.37081]]}},{"type":"Feature","properties":{"numer":"454119P","klasa":"droga lokalna","kat":"powiatowa"},"geometry":{"type":"LineString","coordinates":[[18.17714,52.37045],[18.17715,52.37047]]}},{"type":"Feature","properties":{"numer":"454122P","klasa":"droga lokalna","kat":"powiatowa"},"geometry":{"type":"LineString","coordinates":[[18.17715,52.37047],[18.17739,52.37109]]}},{"type":"Feature","properties":{"numer":"454115P","klasa":"droga lokalna","kat":"powiatowa"},"geometry":{"type":"LineString","coordinates":[[18.17741,52.37114],[18.17774,52.37176]]}},{"type":"Feature","properties":{"numer":"264","klasa":"droga gĹ‚Ăłwna","kat":"wojewodzka"},"geometry":{"type":"LineString","coordinates":[[18.18538,52.36896],[18.18546,52.37055],[18.18504,52.37366],[18.18466,52.37439],[18.1843,52.37471]]}},{"type":"Feature","properties":{"numer":"454115P","klasa":"droga lokalna","kat":"powiatowa"},"geometry":{"type":"LineString","coordinates":[[18.17774,52.37176],[18.17811,52.37185],[18.17835,52.37203]]}},{"type":"Feature","properties":{"numer":"454115P","klasa":"droga lokalna","kat":"powiatowa"},"geometry":{"type":"LineString","coordinates":[[18.17835,52.37203],[18.17972,52.37356]]}},{"type":"Feature","properties":{"numer":"454115P","klasa":"droga lokalna","kat":"powiatowa"},"geometry":{"type":"LineString","coordinates":[[18.17972,52.37356],[18.18011,52.374]]}},{"type":"Feature","properties":{"numer":"454115P","klasa":"","kat":"powiatowa"},"geometry":{"type":"LineString","coordinates":[[18.18037,52.37427],[18.18011,52.374]]}},{"type":"Feature","properties":{"numer":"454115P","klasa":"","kat":"powiatowa"},"geometry":{"type":"LineString","coordinates":[[18.18092,52.37457],[18.18037,52.37427]]}},{"type":"Feature","properties":{"numer":"454115P","klasa":"","kat":"powiatowa"},"geometry":{"type":"LineString","coordinates":[[18.18037,52.37427],[18.1804,52.37452],[18.18057,52.37466]]}},{"type":"Feature","properties":{"numer":"263","klasa":"droga gĹ‚Ăłwna","kat":"wojewodzka"},"geometry":{"type":"LineString","coordinates":[[18.23176,52.37669],[18.23393,52.37615],[18.23498,52.37598],[18.239489164170912,52.37562784116832]]}},{"type":"Feature","properties":{"numer":"263,454054P","klasa":"droga gĹ‚Ăłwna","kat":"gminna"},"geometry":{"type":"LineString","coordinates":[[18.23173,52.3767],[18.23176,52.37669]]}},{"type":"Feature","properties":{"numer":"3186P","klasa":"","kat":"powiatowa"},"geometry":{"type":"LineString","coordinates":[[18.21708,52.39923],[18.219,52.40033]]}},{"type":"Feature","properties":{"numer":"3186P","klasa":"","kat":"powiatowa"},"geometry":{"type":"LineString","coordinates":[[18.219,52.40033],[18.22125,52.40172],[18.22134,52.40204],[18.22132,52.40355],[18.22154,52.40392],[18.22893326472974,52.409375609956314]]}},{"type":"Feature","properties":{"numer":"263","klasa":"droga gĹ‚Ăłwna","kat":"wojewodzka"},"geometry":{"type":"LineString","coordinates":[[18.08413,52.35793],[18.09176,52.35917],[18.11326,52.36244],[18.12916,52.36512],[18.1309,52.36561],[18.132,52.36619],[18.13274,52.36681],[18.14022,52.37559],[18.14103,52.37626],[18.14469,52.37878],[18.14542,52.3794],[18.14901,52.3841]]}},{"type":"Feature","properties":{"numer":"3224P","klasa":"","kat":"powiatowa"},"geometry":{"type":"LineString","coordinates":[[18.08413,52.35793],[18.08694,52.3648],[18.08927,52.36982],[18.09212,52.37387],[18.09409,52.37917],[18.09422,52.38045],[18.09443,52.38133],[18.09585,52.38431],[18.09635,52.38446],[18.09784,52.38446],[18.09843,52.38463],[18.11012,52.39021],[18.11136,52.39097],[18.11757,52.39249],[18.12351,52.39412],[18.12377,52.39436],[18.12479,52.39662]]}},{"type":"Feature","properties":{"numer":"3036P","klasa":"","kat":"powiatowa"},"geometry":{"type":"LineString","coordinates":[[18.14901,52.3841],[18.1524,52.38195]]}},{"type":"Feature","properties":{"numer":"263","klasa":"droga gĹ‚Ăłwna","kat":"wojewodzka"},"geometry":{"type":"LineString","coordinates":[[18.14901,52.3841],[18.15025,52.38577],[18.15058,52.38641],[18.15137,52.39042],[18.1516,52.39109],[18.1524,52.39214],[18.15353,52.39291],[18.15457,52.3934],[18.15575,52.3938],[18.15784,52.39422],[18.16739,52.39482],[18.16951,52.39487]]}},{"type":"Feature","properties":{"numer":"3036P","klasa":"","kat":"powiatowa"},"geometry":{"type":"LineString","coordinates":[[18.12479,52.39662],[18.13133,52.39546],[18.13189,52.3953],[18.13463,52.39343],[18.14901,52.3841]]}},{"type":"Feature","properties":{"numer":"3036P","klasa":"","kat":"powiatowa"},"geometry":{"type":"LineString","coordinates":[[18.0834,52.43608],[18.08782,52.43344],[18.09425,52.42942],[18.09494,52.42889],[18.09707,52.42681],[18.1009,52.42178],[18.10302,52.41996],[18.10513,52.4178],[18.10752,52.41531],[18.10791,52.41459],[18.10964,52.41273],[18.10985,52.41229],[18.10986,52.41183],[18.10739,52.40578],[18.10742,52.40511],[18.10785,52.4045],[18.10851,52.40406],[18.11183,52.40255],[18.11416,52.40121],[18.12052,52.39788],[18.12256,52.39711],[18.12479,52.39662]]}},{"type":"Feature","properties":{"numer":"3178P","klasa":"","kat":"powiatowa"},"geometry":{"type":"LineString","coordinates":[[18.0834,52.43608],[18.08372,52.43615],[18.09913,52.43653],[18.10215,52.43672],[18.10948,52.43658],[18.11716,52.43536],[18.1284,52.43378],[18.13379,52.43314],[18.1353,52.43288],[18.13863,52.43255],[18.13918,52.4324],[18.1419,52.4313],[18.1461,52.43082],[18.14819,52.43066],[18.14901,52.43066],[18.15012,52.43079],[18.15108,52.43102],[18.15208,52.4314],[18.15333,52.43212],[18.15771,52.43513],[18.15884,52.43558],[18.15965,52.43574],[18.16128,52.43586],[18.166879417208794,52.43598134959895]]}},{"type":"Feature","properties":{"numer":"454115P","klasa":"","kat":"powiatowa"},"geometry":{"type":"LineString","coordinates":[[18.18131,52.37464],[18.18092,52.37457]]}},{"type":"Feature","properties":{"numer":"","klasa":"droga wewnÄ™trzna","kat":"gminna"},"geometry":{"type":"LineString","coordinates":[[18.18131,52.37464],[18.18331,52.37465]]}},{"type":"Feature","properties":{"numer":"","klasa":"","kat":"gminna"},"geometry":{"type":"LineString","coordinates":[[18.18057,52.37466],[18.18131,52.37464]]}},{"type":"Feature","properties":{"numer":"264","klasa":"droga gĹ‚Ăłwna","kat":"wojewodzka"},"geometry":{"type":"LineString","coordinates":[[18.18435,52.37493],[18.1843,52.37471]]}},{"type":"Feature","properties":{"numer":"264","klasa":"droga gĹ‚Ăłwna","kat":"wojewodzka"},"geometry":{"type":"LineString","coordinates":[[18.18435,52.37493],[18.18484,52.37519],[18.18504,52.3755],[18.18564,52.37954],[18.18618,52.38098],[18.18681,52.38193],[18.1903,52.38593]]}},{"type":"Feature","properties":{"numer":"263","klasa":"droga gĹ‚Ăłwna","kat":"wojewodzka"},"geometry":{"type":"LineString","coordinates":[[18.1906,52.38604],[18.21985,52.37876],[18.22547,52.37702],[18.22634,52.37688],[18.22726,52.37683],[18.22969,52.37696],[18.23173,52.3767]]}},{"type":"Feature","properties":{"numer":"264","klasa":"droga gĹ‚Ăłwna","kat":"wojewodzka"},"geometry":{"type":"LineString","coordinates":[[18.1903,52.38593],[18.19038,52.38606]]}},{"type":"Feature","properties":{"numer":"263","klasa":"droga gĹ‚Ăłwna","kat":"wojewodzka"},"geometry":{"type":"LineString","coordinates":[[18.19038,52.38606],[18.1906,52.38604]]}},{"type":"Feature","properties":{"numer":"263","klasa":"droga gĹ‚Ăłwna","kat":"wojewodzka"},"geometry":{"type":"LineString","coordinates":[[18.1902,52.38613],[18.19038,52.38606]]}},{"type":"Feature","properties":{"numer":"3186P","klasa":"","kat":"powiatowa"},"geometry":{"type":"LineString","coordinates":[[18.19051,52.38616],[18.19038,52.38606]]}},{"type":"Feature","properties":{"numer":"3186P","klasa":"","kat":"powiatowa"},"geometry":{"type":"LineString","coordinates":[[18.20892,52.3929],[18.20606,52.39065],[18.20338,52.38925],[18.1912,52.38654],[18.1909,52.38644],[18.19051,52.38616]]}},{"type":"Feature","properties":{"numer":"263","klasa":"droga gĹ‚Ăłwna","kat":"wojewodzka"},"geometry":{"type":"LineString","coordinates":[[18.16979,52.39486],[18.18177,52.39391],[18.18309,52.39366],[18.18417,52.39328],[18.18541,52.39254],[18.18595,52.392],[18.18631,52.39146],[18.18653,52.39079],[18.18673,52.38865],[18.18726,52.38767],[18.18786,52.38712],[18.18857,52.38668],[18.1902,52.38613]]}},{"type":"Feature","properties":{"numer":"3186P","klasa":"","kat":"powiatowa"},"geometry":{"type":"LineString","coordinates":[[18.21077,52.39486],[18.21005,52.39399],[18.20892,52.3929]]}},{"type":"Feature","properties":{"numer":"263","klasa":"droga gĹ‚Ăłwna","kat":"wojewodzka"},"geometry":{"type":"LineString","coordinates":[[18.16951,52.39487],[18.16979,52.39486]]}},{"type":"Feature","properties":{"numer":"3186P","klasa":"","kat":"powiatowa"},"geometry":{"type":"LineString","coordinates":[[18.21702,52.39921],[18.21323,52.39731],[18.21181,52.39614],[18.21077,52.39486]]}},{"type":"Feature","properties":{"numer":"3186P,454052P","klasa":"","kat":"powiatowa"},"geometry":{"type":"LineString","coordinates":[[18.21708,52.39923],[18.21702,52.39921]]}},{"type":"Feature","properties":{"numer":"3180P","klasa":"","kat":"powiatowa"},"geometry":{"type":"LineString","coordinates":[[18.219,52.40033],[18.21811,52.40092],[18.21779,52.40129],[18.21765,52.40169],[18.21871,52.40724],[18.21873,52.40797],[18.21833,52.40884],[18.21739,52.40963],[18.21279,52.41166],[18.21212,52.41211],[18.208778157949055,52.41559474977022]]}},{"type":"Feature","properties":{"numer":"3177P","klasa":"","kat":"powiatowa"},"geometry":{"type":"LineString","coordinates":[[18.10658,52.4523],[18.10454,52.45492],[18.10435,52.45537],[18.10431,52.45594],[18.10482,52.45751],[18.10511,52.45941],[18.10739,52.46276],[18.10704,52.46291],[18.09805,52.46294],[18.0978,52.46299],[18.09778111434746,52.46301045945692]]}},{"type":"Feature","properties":{"numer":"3177P","klasa":"","kat":"powiatowa"},"geometry":{"type":"LineString","coordinates":[[18.09863439445672,52.46631394055031],[18.09891,52.46693],[18.09964,52.4698],[18.09964381917381,52.46980709275136]]}},{"type":"Feature","properties":{"numer":"3050P","klasa":"","kat":"powiatowa"},"geometry":{"type":"LineString","coordinates":[[18.10658,52.4523],[18.110546805439203,52.45392278404331]]}},{"type":"Feature","properties":{"numer":"3225P","klasa":"","kat":"powiatowa"},"geometry":{"type":"LineString","coordinates":[[18.07964,52.35721],[18.07931,52.35598],[18.07912,52.3557],[18.07885878504673,52.35554642857143]]}},{"type":"Feature","properties":{"numer":"263","klasa":"droga gĹ‚Ăłwna","kat":"wojewodzka"},"geometry":{"type":"LineString","coordinates":[[18.077197348066296,52.35707584128579],[18.07833,52.35706],[18.07964,52.35721]]}},{"type":"Feature","properties":{"numer":"263","klasa":"droga gĹ‚Ăłwna","kat":"wojewodzka"},"geometry":{"type":"LineString","coordinates":[[18.07964,52.35721],[18.08413,52.35793]]}},{"type":"Feature","properties":{"numer":"3050P","klasa":"droga zbiorcza","kat":"powiatowa"},"geometry":{"type":"LineString","coordinates":[[18.066779270574415,52.42345676478297],[18.06687,52.4235]]}},{"type":"Feature","properties":{"numer":"3050P","klasa":"","kat":"powiatowa"},"geometry":{"type":"LineString","coordinates":[[18.06687,52.4235],[18.06755,52.42392],[18.07629,52.43055],[18.07977,52.43267],[18.08072,52.43399],[18.0828,52.43636]]}},{"type":"Feature","properties":{"numer":"3036P","klasa":"","kat":"powiatowa"},"geometry":{"type":"LineString","coordinates":[[18.0828,52.43636],[18.0834,52.43608]]}},{"type":"Feature","properties":{"numer":"3036P","klasa":"","kat":"powiatowa"},"geometry":{"type":"LineString","coordinates":[[18.08253,52.43658],[18.0828,52.43636]]}},{"type":"Feature","properties":{"numer":"3036P","klasa":"","kat":"powiatowa"},"geometry":{"type":"LineString","coordinates":[[18.07542,52.4378],[18.07795,52.4376],[18.0815,52.43687],[18.08253,52.43658]]}},{"type":"Feature","properties":{"numer":"3036P,454004P","klasa":"","kat":"powiatowa"},"geometry":{"type":"LineString","coordinates":[[18.0751,52.43781],[18.07542,52.4378]]}},{"type":"Feature","properties":{"numer":"3036P","klasa":"","kat":"powiatowa"},"geometry":{"type":"LineString","coordinates":[[18.03048,52.44677],[18.03156,52.44646],[18.04061,52.44319],[18.04474,52.4424],[18.05219,52.44032],[18.05353,52.44016],[18.06323,52.43945],[18.06516,52.43895],[18.06726,52.43825],[18.06793,52.43813],[18.0751,52.43781]]}},{"type":"Feature","properties":{"numer":"3050P","klasa":"","kat":"powiatowa"},"geometry":{"type":"LineString","coordinates":[[18.08253,52.43658],[18.08288,52.43667],[18.08306,52.43682],[18.084,52.43861],[18.08752,52.44086],[18.08972,52.44255],[18.0909,52.44594],[18.09171,52.44688],[18.09213,52.44698],[18.09319,52.44708],[18.09604,52.44723],[18.09681,52.44791],[18.09912,52.44921],[18.10658,52.4523]]}},{"type":"Feature","properties":{"numer":"","klasa":"","kat":"gminna"},"geometry":{"type":"LineString","coordinates":[[18.07231,52.45818],[18.072280291262143,52.458072718446616]]}},{"type":"Feature","properties":{"numer":"3036P","klasa":"droga zbiorcza","kat":"powiatowa"},"geometry":{"type":"LineString","coordinates":[[18.03042834805195,52.446774233766234],[18.03048,52.44677]]}},{"type":"Feature","properties":{"numer":"3176P","klasa":"","kat":"powiatowa"},"geometry":{"type":"LineString","coordinates":[[18.07154625675328,52.46128215178801],[18.07146,52.46094],[18.07239,52.45886],[18.07231,52.45818]]}},{"type":"Feature","properties":{"numer":"3176P","klasa":"","kat":"powiatowa"},"geometry":{"type":"LineString","coordinates":[[18.071749404910527,52.46280278818144],[18.07174,52.4634],[18.071879162561576,52.46373399014779]]}},{"type":"Feature","properties":{"numer":"3176P","klasa":"","kat":"powiatowa"},"geometry":{"type":"LineString","coordinates":[[18.071885585215604,52.46374940451745],[18.07224,52.4646],[18.072649396921516,52.46503552863991]]}}]}