{"type":"FeatureCollection","features":[{"type":"Feature","properties":{"numer":"15","klasa":"droga gĹ‚Ăłwna","kat":"krajowa"},"geometry":{"type":"LineString","coordinates":[[17.36828,51.63997],[17.36817,51.63993],[17.3681399804869,51.63990552127858]]}},{"type":"Feature","properties":{"numer":"1423D","klasa":"","kat":"powiatowa"},"geometry":{"type":"LineString","coordinates":[[17.40936,51.63189],[17.40955433586146,51.63175557218605]]}},{"type":"Feature","properties":{"numer":"1423D,772347P","klasa":"droga zbiorcza","kat":"powiatowa"},"geometry":{"type":"LineString","coordinates":[[17.40937,51.63188],[17.40917,51.632]]}},{"type":"Feature","properties":{"numer":"5166P","klasa":"droga zbiorcza","kat":"powiatowa"},"geometry":{"type":"LineString","coordinates":[[17.429113817065577,51.63242719992882],[17.42941,51.6327],[17.43072,51.63335],[17.43099,51.63362],[17.43169,51.63553],[17.43391,51.63917]]}},{"type":"Feature","properties":{"numer":"5167P","klasa":"droga zbiorcza","kat":"powiatowa"},"geometry":{"type":"LineString","coordinates":[[17.40917,51.632],[17.40491,51.63418],[17.40098,51.63596],[17.39695,51.63879],[17.39267,51.64085],[17.39004,51.64232]]}},{"type":"Feature","properties":{"numer":"5165P,5166P","klasa":"droga zbiorcza","kat":"powiatowa"},"geometry":{"type":"LineString","coordinates":[[17.43595,51.64164],[17.43566,51.64144],[17.43391,51.63917]]}},{"type":"Feature","properties":{"numer":"5165P","klasa":"droga zbiorcza","kat":"powiatowa"},"geometry":{"type":"LineString","coordinates":[[17.39058,51.64285],[17.39136,51.64273],[17.39499,51.6413],[17.39583,51.64123],[17.39673,51.6413],[17.39751,51.6412],[17.40079,51.63992],[17.40252,51.63941],[17.40781,51.63849],[17.41714,51.63869],[17.42125,51.63836],[17.42626,51.63861],[17.43007,51.63901],[17.43391,51.63917]]}},{"type":"Feature","properties":{"numer":"5167P","klasa":"droga zbiorcza","kat":"powiatowa"},"geometry":{"type":"LineString","coordinates":[[17.39004,51.64232],[17.39058,51.64285]]}},{"type":"Feature","properties":{"numer":"5165P","klasa":"droga zbiorcza","kat":"powiatowa"},"geometry":{"type":"LineString","coordinates":[[17.43595,51.64164],[17.464226753539123,51.64340617071181]]}},{"type":"Feature","properties":{"numer":"5167P","klasa":"droga zbiorcza","kat":"powiatowa"},"geometry":{"type":"LineString","coordinates":[[17.39004,51.64232],[17.38532,51.64394]]}},{"type":"Feature","properties":{"numer":"5165P","klasa":"droga zbiorcza","kat":"powiatowa"},"geometry":{"type":"LineString","coordinates":[[17.39058,51.64285],[17.38729,51.64381],[17.3855,51.64421]]}},{"type":"Feature","properties":{"numer":"5167P","klasa":"droga zbiorcza","kat":"powiatowa"},"geometry":{"type":"LineString","coordinates":[[17.38532,51.64394],[17.3855,51.64421]]}},{"type":"Feature","properties":{"numer":"5167P","klasa":"droga zbiorcza","kat":"powiatowa"},"geometry":{"type":"LineString","coordinates":[[17.38379,51.64445],[17.38532,51.64394]]}},{"type":"Feature","properties":{"numer":"5165P","klasa":"droga zbiorcza","kat":"powiatowa"},"geometry":{"type":"LineString","coordinates":[[17.3855,51.64421],[17.38398,51.64467]]}},{"type":"Feature","properties":{"numer":"5167P","klasa":"droga zbiorcza","kat":"powiatowa"},"geometry":{"type":"LineString","coordinates":[[17.38379,51.64445],[17.38398,51.64467]]}},{"type":"Feature","properties":{"numer":"5165P","klasa":"droga zbiorcza","kat":"powiatowa"},"geometry":{"type":"LineString","coordinates":[[17.3855,51.64421],[17.38563,51.64443],[17.38554,51.64451],[17.38314,51.64505],[17.38305,51.64494]]}},{"type":"Feature","properties":{"numer":"5167P","klasa":"droga zbiorcza","kat":"powiatowa"},"geometry":{"type":"LineString","coordinates":[[17.3833,51.64486],[17.38331,51.64464],[17.38379,51.64445]]}},{"type":"Feature","properties":{"numer":"5165P","klasa":"droga zbiorcza","kat":"powiatowa"},"geometry":{"type":"LineString","coordinates":[[17.38398,51.64467],[17.3833,51.64486]]}},{"type":"Feature","properties":{"numer":"15","klasa":"droga gĹ‚Ăłwna","kat":"krajowa"},"geometry":{"type":"LineString","coordinates":[[17.37559,51.64512],[17.37426,51.6423],[17.37401,51.642],[17.37349,51.64175],[17.36828,51.63997]]}},{"type":"Feature","properties":{"numer":"15,772380P","klasa":"droga gĹ‚Ăłwna","kat":"gminna"},"geometry":{"type":"LineString","coordinates":[[17.37657,51.64495],[17.37559,51.64512]]}},{"type":"Feature","properties":{"numer":"5165P","klasa":"droga zbiorcza","kat":"powiatowa"},"geometry":{"type":"LineString","coordinates":[[17.38305,51.64494],[17.37907,51.64621]]}},{"type":"Feature","properties":{"numer":"15","klasa":"droga gĹ‚Ăłwna","kat":"krajowa"},"geometry":{"type":"LineString","coordinates":[[17.37758,51.64633],[17.37707,51.6458],[17.37657,51.64495]]}},{"type":"Feature","properties":{"numer":"15","klasa":"droga gĹ‚Ăłwna","kat":"krajowa"},"geometry":{"type":"LineString","coordinates":[[17.37758,51.64633],[17.37658,51.64659],[17.37638,51.64656],[17.37559,51.64512]]}},{"type":"Feature","properties":{"numer":"5165P","klasa":"droga zbiorcza","kat":"powiatowa"},"geometry":{"type":"LineString","coordinates":[[17.3778,51.64632],[17.37875,51.64604],[17.37891,51.64606],[17.37907,51.64621]]}},{"type":"Feature","properties":{"numer":"15","klasa":"droga gĹ‚Ăłwna","kat":"krajowa"},"geometry":{"type":"LineString","coordinates":[[17.3778,51.64632],[17.37758,51.64633]]}},{"type":"Feature","properties":{"numer":"5165P","klasa":"droga zbiorcza","kat":"powiatowa"},"geometry":{"type":"LineString","coordinates":[[17.37907,51.64621],[17.37917,51.64644],[17.37871,51.64668]]}},{"type":"Feature","properties":{"numer":"15","klasa":"droga gĹ‚Ăłwna","kat":"krajowa"},"geometry":{"type":"LineString","coordinates":[[17.37824,51.64674],[17.3778,51.64632]]}},{"type":"Feature","properties":{"numer":"15","klasa":"droga gĹ‚Ăłwna","kat":"krajowa"},"geometry":{"type":"LineString","coordinates":[[17.37871,51.64668],[17.37824,51.64674]]}},{"type":"Feature","properties":{"numer":"1415D","klasa":"","kat":"powiatowa"},"geometry":{"type":"LineString","coordinates":[[17.30778644352648,51.64585990224222],[17.30778,51.64593]]}},{"type":"Feature","properties":{"numer":"5144P","klasa":"droga zbiorcza","kat":"powiatowa"},"geometry":{"type":"LineString","coordinates":[[17.26624,51.6543],[17.26663,51.65143],[17.26692,51.64746],[17.27224,51.64322]]}},{"type":"Feature","properties":{"numer":"5144P","klasa":"droga zbiorcza","kat":"powiatowa"},"geometry":{"type":"LineString","coordinates":[[17.26624,51.65434],[17.26624,51.6543]]}},{"type":"Feature","properties":{"numer":"5144P","klasa":"droga zbiorcza","kat":"powiatowa"},"geometry":{"type":"LineString","coordinates":[[17.26628,51.65436],[17.26624,51.65434]]}},{"type":"Feature","properties":{"numer":"5165P","klasa":"droga zbiorcza","kat":"powiatowa"},"geometry":{"type":"LineString","coordinates":[[17.3833,51.64486],[17.38305,51.64494]]}},{"type":"Feature","properties":{"numer":"15","klasa":"droga gĹ‚Ăłwna","kat":"krajowa"},"geometry":{"type":"LineString","coordinates":[[17.39525,51.66308],[17.38151,51.64881],[17.3801,51.64745],[17.37871,51.64668]]}},{"type":"Feature","properties":{"numer":"5166P","klasa":"droga zbiorcza","kat":"powiatowa"},"geometry":{"type":"LineString","coordinates":[[17.43595,51.64164],[17.4354,51.6435],[17.43418,51.64464],[17.43272,51.64533],[17.43217,51.64574],[17.43036,51.6479],[17.4298,51.64913],[17.42923,51.65205],[17.42928,51.65565],[17.42947,51.65681],[17.42960007756919,51.657063651259925]]}},{"type":"Feature","properties":{"numer":"15","klasa":"droga gĹ‚Ăłwna","kat":"krajowa"},"geometry":{"type":"LineString","coordinates":[[17.3954,51.66324],[17.39525,51.66308]]}},{"type":"Feature","properties":{"numer":"15","klasa":"droga gĹ‚Ăłwna","kat":"krajowa"},"geometry":{"type":"LineString","coordinates":[[17.40924,51.67424],[17.40117,51.66914],[17.3954,51.66324]]}},{"type":"Feature","properties":{"numer":"5236P","klasa":"droga zbiorcza","kat":"powiatowa"},"geometry":{"type":"LineString","coordinates":[[17.41894975181111,51.670808402200166],[17.41906,51.67081],[17.421194166785828,51.670530596548936]]}},{"type":"Feature","properties":{"numer":"15","klasa":"droga gĹ‚Ăłwna","kat":"krajowa"},"geometry":{"type":"LineString","coordinates":[[17.40992769515011,51.67467277367205],[17.40924,51.67424]]}},{"type":"Feature","properties":{"numer":"5129P","klasa":"droga zbiorcza","kat":"powiatowa"},"geometry":{"type":"LineString","coordinates":[[17.37515,51.64795],[17.37618,51.64766],[17.3781,51.64692],[17.37824,51.64674]]}},{"type":"Feature","properties":{"numer":"5172P","klasa":"droga zbiorcza","kat":"powiatowa"},"geometry":{"type":"LineString","coordinates":[[17.37354,51.64767],[17.37461,51.64734],[17.37515,51.64795]]}},{"type":"Feature","properties":{"numer":"5172P","klasa":"droga zbiorcza","kat":"powiatowa"},"geometry":{"type":"LineString","coordinates":[[17.37408,51.64832],[17.37354,51.64767]]}},{"type":"Feature","properties":{"numer":"5129P","klasa":"droga zbiorcza","kat":"powiatowa"},"geometry":{"type":"LineString","coordinates":[[17.37408,51.64832],[17.37515,51.64795]]}},{"type":"Feature","properties":{"numer":"5172P","klasa":"droga zbiorcza","kat":"powiatowa"},"geometry":{"type":"LineString","coordinates":[[17.36407,51.65385],[17.36436,51.65346],[17.3642,51.65082],[17.36433,51.65057],[17.36467,51.65028],[17.36867,51.64901],[17.37089,51.64804],[17.372,51.64743],[17.37298,51.64727],[17.3733,51.64758],[17.37354,51.64767]]}},{"type":"Feature","properties":{"numer":"5129P","klasa":"droga zbiorcza","kat":"powiatowa"},"geometry":{"type":"LineString","coordinates":[[17.36407,51.65385],[17.37024,51.65244],[17.37465,51.65082],[17.37479,51.65071],[17.37466,51.65043],[17.37376,51.6497],[17.37333,51.6489],[17.37341,51.64866],[17.37408,51.64832]]}},{"type":"Feature","properties":{"numer":"5129P","klasa":"droga zbiorcza","kat":"powiatowa"},"geometry":{"type":"LineString","coordinates":[[17.30396,51.67756],[17.31865,51.67201],[17.32083,51.67077],[17.32173,51.6704],[17.3231,51.67018],[17.32558,51.67017],[17.32744,51.66987],[17.33036,51.66988],[17.33124,51.66974],[17.3319,51.66952],[17.33592,51.66717],[17.34728,51.66138],[17.35379,51.65841],[17.35896,51.65644],[17.361,51.65525],[17.36407,51.65385]]}},{"type":"Feature","properties":{"numer":"5500P","klasa":"droga zbiorcza","kat":"powiatowa"},"geometry":{"type":"LineString","coordinates":[[17.30396,51.67756],[17.31811,51.67868],[17.32008,51.67877],[17.35334,51.67842],[17.37967,51.67844],[17.38024,51.67853],[17.38063,51.67876],[17.38124,51.68033],[17.38139,51.68048],[17.3818,51.68065],[17.39046,51.68095],[17.3951,51.68053],[17.39577,51.68039],[17.40369,51.67742],[17.40924,51.67424]]}},{"type":"Feature","properties":{"numer":"5144P","klasa":"droga zbiorcza","kat":"powiatowa"},"geometry":{"type":"LineString","coordinates":[[17.28609,51.66922],[17.28396,51.66928],[17.28347,51.66913],[17.28265,51.66871],[17.28186,51.66852],[17.28181,51.66832],[17.28211,51.66721],[17.28206,51.66703],[17.28036,51.66667],[17.27802,51.66594],[17.26869,51.65744],[17.26864,51.65624],[17.26912,51.6545],[17.26904,51.65443],[17.26661,51.65444],[17.26628,51.65436]]}},{"type":"Feature","properties":{"numer":"5144P","klasa":"droga zbiorcza","kat":"powiatowa"},"geometry":{"type":"LineString","coordinates":[[17.28697,51.67687],[17.28609,51.66922]]}},{"type":"Feature","properties":{"numer":"5500P","klasa":"droga zbiorcza","kat":"powiatowa"},"geometry":{"type":"LineString","coordinates":[[17.22903,51.67324],[17.2647,51.67969],[17.27931,51.68004]]}},{"type":"Feature","properties":{"numer":"5144P","klasa":"droga zbiorcza","kat":"powiatowa"},"geometry":{"type":"LineString","coordinates":[[17.28698,51.67721],[17.28697,51.67687]]}},{"type":"Feature","properties":{"numer":"5144P","klasa":"droga zbiorcza","kat":"powiatowa"},"geometry":{"type":"LineString","coordinates":[[17.28709,51.67791],[17.28698,51.67721]]}},{"type":"Feature","properties":{"numer":"5144P","klasa":"droga zbiorcza","kat":"powiatowa"},"geometry":{"type":"LineString","coordinates":[[17.28877,51.67996],[17.2875,51.67958],[17.28736,51.67948],[17.28709,51.67791]]}},{"type":"Feature","properties":{"numer":"5129P,5500P","klasa":"droga zbiorcza","kat":"powiatowa"},"geometry":{"type":"LineString","coordinates":[[17.28987,51.68012],[17.29305,51.6796],[17.29345,51.6797],[17.29379,51.68016],[17.2943,51.68039],[17.29643,51.68036],[17.30396,51.67756]]}},{"type":"Feature","properties":{"numer":"5500P","klasa":"droga zbiorcza","kat":"powiatowa"},"geometry":{"type":"LineString","coordinates":[[17.28877,51.67996],[17.28987,51.68012]]}},{"type":"Feature","properties":{"numer":"5500P","klasa":"droga zbiorcza","kat":"powiatowa"},"geometry":{"type":"LineString","coordinates":[[17.28271,51.6801],[17.28722,51.68017],[17.28877,51.67996]]}},{"type":"Feature","properties":{"numer":"5500P","klasa":"droga zbiorcza","kat":"powiatowa"},"geometry":{"type":"LineString","coordinates":[[17.27931,51.68004],[17.28271,51.6801]]}},{"type":"Feature","properties":{"numer":"5500P","klasa":"droga zbiorcza","kat":"powiatowa"},"geometry":{"type":"LineString","coordinates":[[17.228970598035026,51.67319955147373],[17.22903,51.67324]]}},{"type":"Feature","properties":{"numer":"5129P","klasa":"droga zbiorcza","kat":"powiatowa"},"geometry":{"type":"LineString","coordinates":[[17.2651,51.69325],[17.28675,51.68093],[17.28777,51.68055],[17.28987,51.68012]]}},{"type":"Feature","properties":{"numer":"5129P","klasa":"droga zbiorcza","kat":"powiatowa"},"geometry":{"type":"LineString","coordinates":[[17.26493,51.69335],[17.2651,51.69325]]}},{"type":"Feature","properties":{"numer":"5129P","klasa":"droga zbiorcza","kat":"powiatowa"},"geometry":{"type":"LineString","coordinates":[[17.26177,51.69515],[17.26493,51.69335]]}},{"type":"Feature","properties":{"numer":"5129P","klasa":"droga zbiorcza","kat":"powiatowa"},"geometry":{"type":"LineString","coordinates":[[17.26142,51.69535],[17.26177,51.69515]]}},{"type":"Feature","properties":{"numer":"5129P","klasa":"droga zbiorcza","kat":"powiatowa"},"geometry":{"type":"LineString","coordinates":[[17.261176049690548,51.69553059219021],[17.26142,51.69535]]}}]}