{"type":"FeatureCollection","features":[{"type":"Feature","properties":{"numer":"2402P","klasa":"droga zbiorcza","kat":"powiatowa"},"geometry":{"type":"LineString","coordinates":[[16.700380704277247,52.299478845891905],[16.7006,52.29979],[16.70095,52.30059],[16.700961455660902,52.30076374419037]]}},{"type":"Feature","properties":{"numer":"2402P","klasa":"droga zbiorcza","kat":"powiatowa"},"geometry":{"type":"LineString","coordinates":[[16.699725666495112,52.30373935409161],[16.69904,52.30458]]}},{"type":"Feature","properties":{"numer":"E261,S5","klasa":"droga ekspresowa","kat":"krajowa"},"geometry":{"type":"LineString","coordinates":[[16.69384786831319,52.29998525467979],[16.69622,52.30208],[16.69882,52.30484]]}},{"type":"Feature","properties":{"numer":"2402P","klasa":"droga zbiorcza","kat":"powiatowa"},"geometry":{"type":"LineString","coordinates":[[16.69904,52.30458],[16.69882,52.30484]]}},{"type":"Feature","properties":{"numer":"2402P","klasa":"droga zbiorcza","kat":"powiatowa"},"geometry":{"type":"LineString","coordinates":[[16.69882,52.30484],[16.69863,52.30506]]}},{"type":"Feature","properties":{"numer":"2402P","klasa":"droga zbiorcza","kat":"powiatowa"},"geometry":{"type":"LineString","coordinates":[[16.69863,52.30506],[16.69233,52.31261],[16.69067,52.31427],[16.6812,52.32155],[16.68072,52.32184],[16.67985,52.32209]]}},{"type":"Feature","properties":{"numer":"2412P","klasa":"droga zbiorcza","kat":"powiatowa"},"geometry":{"type":"LineString","coordinates":[[16.67985,52.32209],[16.70154,52.33258],[16.71071,52.33474]]}},{"type":"Feature","properties":{"numer":"E261,S5","klasa":"droga ekspresowa","kat":"krajowa"},"geometry":{"type":"LineString","coordinates":[[16.69882,52.30484],[16.70297,52.30963],[16.70523,52.31192],[16.7073,52.31381],[16.72032,52.32493],[16.72509,52.32895],[16.72695,52.33025],[16.72841,52.33121],[16.73075,52.33254],[16.73245,52.33339]]}},{"type":"Feature","properties":{"numer":"2412P","klasa":"droga zbiorcza","kat":"powiatowa"},"geometry":{"type":"LineString","coordinates":[[16.73245,52.33339],[16.732460294561175,52.333389356589926]]}},{"type":"Feature","properties":{"numer":"2412P","klasa":"droga zbiorcza","kat":"powiatowa"},"geometry":{"type":"LineString","coordinates":[[16.73202,52.33342],[16.73245,52.33339]]}},{"type":"Feature","properties":{"numer":"2412P","klasa":"droga zbiorcza","kat":"powiatowa"},"geometry":{"type":"LineString","coordinates":[[16.73069,52.33358],[16.73202,52.33342]]}},{"type":"Feature","properties":{"numer":"2412P","klasa":"droga zbiorcza","kat":"powiatowa"},"geometry":{"type":"LineString","coordinates":[[16.72836,52.33394],[16.73069,52.33358]]}},{"type":"Feature","properties":{"numer":"2412P","klasa":"droga zbiorcza","kat":"powiatowa"},"geometry":{"type":"LineString","coordinates":[[16.71769,52.33486],[16.718,52.33477],[16.71848,52.3348],[16.72033,52.33531],[16.72836,52.33394]]}},{"type":"Feature","properties":{"numer":"2412P","klasa":"droga zbiorcza","kat":"powiatowa"},"geometry":{"type":"LineString","coordinates":[[16.71071,52.33474],[16.71302,52.33521],[16.71516,52.33525],[16.71627,52.33544],[16.71677,52.33537],[16.71769,52.33486]]}},{"type":"Feature","properties":{"numer":"E261,S5","klasa":"droga ekspresowa","kat":"krajowa"},"geometry":{"type":"LineString","coordinates":[[16.73245,52.33339],[16.732458884671672,52.33339428730847]]}},{"type":"Feature","properties":{"numer":"2402P","klasa":"droga gĹ‚Ăłwna","kat":"powiatowa"},"geometry":{"type":"LineString","coordinates":[[16.68495,52.34817],[16.68112,52.34797],[16.68065,52.34784],[16.6803,52.34759],[16.67915,52.34476],[16.67906,52.34106],[16.67672,52.33816],[16.67465,52.33723],[16.67391,52.33646],[16.6738,52.33619],[16.67351,52.3299],[16.67372,52.32797],[16.6759,52.32409],[16.67637,52.32368],[16.67741,52.3231],[16.67908,52.32231],[16.67985,52.32209]]}},{"type":"Feature","properties":{"numer":"2414P","klasa":"droga zbiorcza","kat":"powiatowa"},"geometry":{"type":"LineString","coordinates":[[16.68495,52.34817],[16.68742,52.34828],[16.68783,52.34823],[16.6882,52.34809],[16.69551,52.34287],[16.70292,52.33809],[16.71071,52.33474]]}},{"type":"Feature","properties":{"numer":"2414P","klasa":"droga zbiorcza","kat":"powiatowa"},"geometry":{"type":"LineString","coordinates":[[16.68493,52.34832],[16.68495,52.34817]]}},{"type":"Feature","properties":{"numer":"2414P","klasa":"droga zbiorcza","kat":"powiatowa"},"geometry":{"type":"LineString","coordinates":[[16.68493,52.34832],[16.6849,52.34862]]}},{"type":"Feature","properties":{"numer":"2414P","klasa":"droga zbiorcza","kat":"powiatowa"},"geometry":{"type":"LineString","coordinates":[[16.6849,52.34862],[16.68486,52.34892]]}},{"type":"Feature","properties":{"numer":"A2,E30","klasa":"autostrada","kat":"krajowa"},"geometry":{"type":"LineString","coordinates":[[16.6849,52.34862],[16.71643,52.34992]]}},{"type":"Feature","properties":{"numer":"A2,E30","klasa":"autostrada","kat":"krajowa"},"geometry":{"type":"LineString","coordinates":[[16.65541,52.35074],[16.66493,52.34927],[16.67096,52.34865],[16.67383,52.34849],[16.67732,52.3484],[16.68007,52.34843],[16.6849,52.34862]]}},{"type":"Feature","properties":{"numer":"2413P","klasa":"","kat":"powiatowa"},"geometry":{"type":"LineString","coordinates":[[16.65541,52.35074],[16.66866,52.35508]]}},{"type":"Feature","properties":{"numer":"2414P","klasa":"droga zbiorcza","kat":"powiatowa"},"geometry":{"type":"LineString","coordinates":[[16.6754,52.35728],[16.68388,52.35116],[16.68434,52.3507],[16.6846,52.35029],[16.68486,52.34892]]}},{"type":"Feature","properties":{"numer":"2413P,325016P","klasa":"","kat":"powiatowa"},"geometry":{"type":"LineString","coordinates":[[16.66866,52.35508],[16.66883,52.35513]]}},{"type":"Feature","properties":{"numer":"2415P","klasa":"droga zbiorcza","kat":"powiatowa"},"geometry":{"type":"LineString","coordinates":[[16.71769,52.33486],[16.71812,52.33534],[16.71919,52.33737],[16.72021,52.33888],[16.72049,52.33961],[16.71657,52.34958]]}},{"type":"Feature","properties":{"numer":"S11","klasa":"droga ekspresowa","kat":"krajowa"},"geometry":{"type":"LineString","coordinates":[[16.755474614341,52.346188124046066],[16.758021989788663,52.348516584416195]]}},{"type":"Feature","properties":{"numer":"2415P","klasa":"droga zbiorcza","kat":"powiatowa"},"geometry":{"type":"LineString","coordinates":[[16.71657,52.34958],[16.71643,52.34992]]}},{"type":"Feature","properties":{"numer":"2415P","klasa":"droga zbiorcza","kat":"powiatowa"},"geometry":{"type":"LineString","coordinates":[[16.71643,52.34992],[16.7163,52.35028]]}},{"type":"Feature","properties":{"numer":"A2,E30","klasa":"autostrada","kat":"krajowa"},"geometry":{"type":"LineString","coordinates":[[16.71643,52.34992],[16.72614,52.3503],[16.73429,52.35048],[16.758639271155033,52.35048]]}},{"type":"Feature","properties":{"numer":"2413P","klasa":"","kat":"powiatowa"},"geometry":{"type":"LineString","coordinates":[[16.628044392218193,52.34126902439635],[16.62836,52.34127],[16.62864,52.34136],[16.63064,52.34247]]}},{"type":"Feature","properties":{"numer":"2413P","klasa":"","kat":"powiatowa"},"geometry":{"type":"LineString","coordinates":[[16.63064,52.34247],[16.63066,52.34271],[16.63104,52.34345],[16.63135,52.34372],[16.64128,52.3462],[16.64186,52.34629],[16.64246,52.34654],[16.64371,52.34675],[16.64598,52.34689],[16.64686,52.34705],[16.64832,52.34758],[16.64847,52.34775],[16.64865,52.34845],[16.64887,52.34861],[16.65541,52.35074]]}},{"type":"Feature","properties":{"numer":"A2,E30","klasa":"autostrada","kat":"krajowa"},"geometry":{"type":"LineString","coordinates":[[16.629373740525065,52.35482736816422],[16.62967,52.35477],[16.65541,52.35074]]}},{"type":"Feature","properties":{"numer":"2416P","klasa":"droga zbiorcza","kat":"powiatowa"},"geometry":{"type":"LineString","coordinates":[[16.76889,52.36826],[16.77385,52.37157],[16.77416,52.3717],[16.778869182015736,52.371376383226405]]}},{"type":"Feature","properties":{"numer":"2405P","klasa":"droga zbiorcza","kat":"powiatowa"},"geometry":{"type":"LineString","coordinates":[[16.80392,52.39656],[16.80498506833707,52.395689903189115]]}},{"type":"Feature","properties":{"numer":"2401P","klasa":"droga gĹ‚Ăłwna","kat":"powiatowa"},"geometry":{"type":"LineString","coordinates":[[16.79212,52.39184],[16.79036,52.39102],[16.78667,52.38827],[16.78627,52.38805],[16.78571,52.3879],[16.7851,52.38791],[16.78455,52.38804],[16.77943,52.39012]]}},{"type":"Feature","properties":{"numer":"2415P","klasa":"droga zbiorcza","kat":"powiatowa"},"geometry":{"type":"LineString","coordinates":[[16.7163,52.35028],[16.71295,52.35877]]}},{"type":"Feature","properties":{"numer":"2391P","klasa":"droga zbiorcza","kat":"powiatowa"},"geometry":{"type":"LineString","coordinates":[[16.75362,52.359],[16.75274,52.35773],[16.75276,52.35757],[16.75970579524266,52.353872342824886]]}},{"type":"Feature","properties":{"numer":"S11","klasa":"droga ekspresowa","kat":"krajowa"},"geometry":{"type":"LineString","coordinates":[[16.77030392288349,52.36464666267513],[16.76998,52.36563],[16.76862,52.36808]]}},{"type":"Feature","properties":{"numer":"2401P","klasa":"droga gĹ‚Ăłwna","kat":"powiatowa"},"geometry":{"type":"LineString","coordinates":[[16.71295,52.35877],[16.7158,52.35853],[16.71626,52.35857],[16.72541,52.36254],[16.73557,52.36709],[16.73633,52.3673]]}},{"type":"Feature","properties":{"numer":"2391P","klasa":"droga zbiorcza","kat":"powiatowa"},"geometry":{"type":"LineString","coordinates":[[16.73633,52.3673],[16.73765,52.36753],[16.73791,52.36751],[16.73949,52.36627],[16.74513,52.36472],[16.75362,52.359]]}},{"type":"Feature","properties":{"numer":"2416P","klasa":"droga zbiorcza","kat":"powiatowa"},"geometry":{"type":"LineString","coordinates":[[16.75362,52.359],[16.76626,52.36656],[16.76836,52.36792]]}},{"type":"Feature","properties":{"numer":"2416P","klasa":"droga zbiorcza","kat":"powiatowa"},"geometry":{"type":"LineString","coordinates":[[16.76836,52.36792],[16.76862,52.36808]]}},{"type":"Feature","properties":{"numer":"2416P","klasa":"droga zbiorcza","kat":"powiatowa"},"geometry":{"type":"LineString","coordinates":[[16.76862,52.36808],[16.76889,52.36826]]}},{"type":"Feature","properties":{"numer":"2401P","klasa":"droga gĹ‚Ăłwna","kat":"powiatowa"},"geometry":{"type":"LineString","coordinates":[[16.73633,52.3673],[16.73613,52.36821],[16.73581,52.36874],[16.73592,52.3701],[16.74486,52.37955],[16.74373,52.38379],[16.74436,52.38497],[16.74515,52.38583],[16.74538,52.38597]]}},{"type":"Feature","properties":{"numer":"S11","klasa":"droga ekspresowa","kat":"krajowa"},"geometry":{"type":"LineString","coordinates":[[16.76862,52.36808],[16.76272,52.37806],[16.7617,52.37963],[16.76086,52.38071],[16.75921,52.38242],[16.7573,52.38399],[16.75497,52.3855],[16.75268,52.38672]]}},{"type":"Feature","properties":{"numer":"2401P","klasa":"droga gĹ‚Ăłwna","kat":"powiatowa"},"geometry":{"type":"LineString","coordinates":[[16.74538,52.38597],[16.74594,52.38617]]}},{"type":"Feature","properties":{"numer":"2401P","klasa":"droga gĹ‚Ăłwna","kat":"powiatowa"},"geometry":{"type":"LineString","coordinates":[[16.74594,52.38617],[16.74667,52.38614]]}},{"type":"Feature","properties":{"numer":"2401P","klasa":"droga gĹ‚Ăłwna","kat":"powiatowa"},"geometry":{"type":"LineString","coordinates":[[16.74667,52.38614],[16.74925,52.38644]]}},{"type":"Feature","properties":{"numer":"2417P","klasa":"droga zbiorcza","kat":"powiatowa"},"geometry":{"type":"LineString","coordinates":[[16.74594,52.38617],[16.74584,52.3866]]}},{"type":"Feature","properties":{"numer":"2401P","klasa":"droga gĹ‚Ăłwna","kat":"powiatowa"},"geometry":{"type":"LineString","coordinates":[[16.74925,52.38644],[16.75066,52.38638]]}},{"type":"Feature","properties":{"numer":"2401P","klasa":"droga gĹ‚Ăłwna","kat":"powiatowa"},"geometry":{"type":"LineString","coordinates":[[16.75066,52.38638],[16.75148,52.38644],[16.75225,52.38662]]}},{"type":"Feature","properties":{"numer":"2403P","klasa":"droga zbiorcza","kat":"powiatowa"},"geometry":{"type":"LineString","coordinates":[[16.63728,52.39784],[16.63712,52.39825]]}},{"type":"Feature","properties":{"numer":"307","klasa":"droga gĹ‚Ăłwna","kat":"wojewodzka"},"geometry":{"type":"LineString","coordinates":[[16.63702,52.39826],[16.63712,52.39825]]}},{"type":"Feature","properties":{"numer":"2392P","klasa":"droga zbiorcza","kat":"powiatowa"},"geometry":{"type":"LineString","coordinates":[[16.63702,52.39826],[16.63685,52.39867]]}},{"type":"Feature","properties":{"numer":"307","klasa":"droga gĹ‚Ăłwna","kat":"wojewodzka"},"geometry":{"type":"LineString","coordinates":[[16.608275789140237,52.40080709536764],[16.60905,52.40087],[16.63702,52.39826]]}},{"type":"Feature","properties":{"numer":"2413P","klasa":"","kat":"powiatowa"},"geometry":{"type":"LineString","coordinates":[[16.66883,52.35513],[16.6754,52.35728]]}},{"type":"Feature","properties":{"numer":"2401P","klasa":"droga gĹ‚Ăłwna","kat":"powiatowa"},"geometry":{"type":"LineString","coordinates":[[16.6754,52.35728],[16.67722,52.35848]]}},{"type":"Feature","properties":{"numer":"2401P","klasa":"droga gĹ‚Ăłwna","kat":"powiatowa"},"geometry":{"type":"LineString","coordinates":[[16.67722,52.35848],[16.6784,52.35888],[16.67932,52.359],[16.70696,52.36024],[16.71024,52.35976],[16.71052,52.35965],[16.71082,52.35912],[16.71106,52.35898],[16.71295,52.35877]]}},{"type":"Feature","properties":{"numer":"2403P","klasa":"droga zbiorcza","kat":"powiatowa"},"geometry":{"type":"LineString","coordinates":[[16.67722,52.35848],[16.67633,52.35909],[16.67499,52.36052],[16.67454,52.36169],[16.67436,52.36185],[16.66115,52.37187],[16.65873,52.37387],[16.65725,52.37473],[16.65189,52.37867],[16.64976,52.38035],[16.64272,52.38756],[16.64119,52.38902],[16.6389,52.39162],[16.63843,52.39265],[16.63826,52.39344],[16.6381,52.39523],[16.63828,52.39626],[16.63728,52.39784]]}},{"type":"Feature","properties":{"numer":"307","klasa":"droga gĹ‚Ăłwna","kat":"wojewodzka"},"geometry":{"type":"LineString","coordinates":[[16.63712,52.39825],[16.64099,52.39792],[16.64332,52.39798],[16.64481,52.39818],[16.65046,52.39917],[16.65143,52.3994],[16.6522,52.3997]]}},{"type":"Feature","properties":{"numer":"307","klasa":"droga gĹ‚Ăłwna","kat":"wojewodzka"},"geometry":{"type":"LineString","coordinates":[[16.6522,52.3997],[16.65292,52.39994],[16.65425,52.40019],[16.65535,52.40025]]}},{"type":"Feature","properties":{"numer":"307","klasa":"droga gĹ‚Ăłwna","kat":"wojewodzka"},"geometry":{"type":"LineString","coordinates":[[16.65535,52.40025],[16.65694,52.40035],[16.66128974188284,52.401123846179544]]}},{"type":"Feature","properties":{"numer":"307","klasa":"droga gĹ‚Ăłwna","kat":"wojewodzka"},"geometry":{"type":"LineString","coordinates":[[16.69958463953139,52.40618802493241],[16.70131,52.40618],[16.71607,52.40539],[16.71688,52.40556],[16.71797,52.4062]]}},{"type":"Feature","properties":{"numer":"2401P","klasa":"droga gĹ‚Ăłwna","kat":"powiatowa"},"geometry":{"type":"LineString","coordinates":[[16.75225,52.38662],[16.75268,52.38672]]}},{"type":"Feature","properties":{"numer":"2401P","klasa":"droga gĹ‚Ăłwna","kat":"powiatowa"},"geometry":{"type":"LineString","coordinates":[[16.75268,52.38672],[16.75313,52.38682]]}},{"type":"Feature","properties":{"numer":"2417P","klasa":"droga zbiorcza","kat":"powiatowa"},"geometry":{"type":"LineString","coordinates":[[16.74584,52.3866],[16.74566,52.38734]]}},{"type":"Feature","properties":{"numer":"2401P","klasa":"droga gĹ‚Ăłwna","kat":"powiatowa"},"geometry":{"type":"LineString","coordinates":[[16.75313,52.38682],[16.75494,52.3872]]}},{"type":"Feature","properties":{"numer":"2401P","klasa":"droga gĹ‚Ăłwna","kat":"powiatowa"},"geometry":{"type":"LineString","coordinates":[[16.75494,52.3872],[16.75689,52.38748],[16.75723,52.38771],[16.7575,52.38778]]}},{"type":"Feature","properties":{"numer":"2417P","klasa":"droga zbiorcza","kat":"powiatowa"},"geometry":{"type":"LineString","coordinates":[[16.74566,52.38734],[16.74555,52.38778]]}},{"type":"Feature","properties":{"numer":"2417P","klasa":"droga zbiorcza","kat":"powiatowa"},"geometry":{"type":"LineString","coordinates":[[16.74555,52.38778],[16.74496,52.38813]]}},{"type":"Feature","properties":{"numer":"2401P","klasa":"droga gĹ‚Ăłwna","kat":"powiatowa"},"geometry":{"type":"LineString","coordinates":[[16.7575,52.38778],[16.75937,52.38774],[16.77679,52.38994]]}},{"type":"Feature","properties":{"numer":"2417P","klasa":"droga zbiorcza","kat":"powiatowa"},"geometry":{"type":"LineString","coordinates":[[16.74496,52.38813],[16.74254,52.38976],[16.74089,52.39001],[16.73666,52.39004],[16.73505,52.39022],[16.73069,52.39157],[16.72942,52.39175],[16.72748,52.39227],[16.72616,52.39318],[16.72444,52.3942],[16.72282,52.39478],[16.72227,52.39507],[16.72073,52.39623],[16.71761,52.39764],[16.7149,52.39942],[16.71373,52.40028],[16.7135,52.4006],[16.71852,52.40537]]}},{"type":"Feature","properties":{"numer":"S11","klasa":"droga ekspresowa","kat":"krajowa"},"geometry":{"type":"LineString","coordinates":[[16.75268,52.38672],[16.73281,52.39635],[16.7305,52.39754],[16.72884,52.39864],[16.72779,52.39955],[16.72687,52.40064],[16.72634,52.4015],[16.7259,52.40258],[16.72568,52.40358],[16.72564,52.40464],[16.72595,52.40761]]}},{"type":"Feature","properties":{"numer":"2417P","klasa":"droga zbiorcza","kat":"powiatowa"},"geometry":{"type":"LineString","coordinates":[[16.71852,52.40537],[16.71866,52.40628]]}},{"type":"Feature","properties":{"numer":"307","klasa":"droga gĹ‚Ăłwna","kat":"wojewodzka"},"geometry":{"type":"LineString","coordinates":[[16.71797,52.4062],[16.71866,52.40628]]}},{"type":"Feature","properties":{"numer":"307","klasa":"droga gĹ‚Ăłwna","kat":"wojewodzka"},"geometry":{"type":"LineString","coordinates":[[16.71866,52.40628],[16.72033,52.40645],[16.72303,52.40712],[16.72595,52.40761]]}},{"type":"Feature","properties":{"numer":"2417P","klasa":"droga zbiorcza","kat":"powiatowa"},"geometry":{"type":"LineString","coordinates":[[16.71866,52.40628],[16.71863,52.40763]]}},{"type":"Feature","properties":{"numer":"307","klasa":"droga gĹ‚Ăłwna","kat":"wojewodzka"},"geometry":{"type":"LineString","coordinates":[[16.72595,52.40761],[16.72741,52.40785],[16.72886,52.40796],[16.72995,52.40793],[16.73267,52.40763],[16.73357,52.40766],[16.73506,52.40788]]}},{"type":"Feature","properties":{"numer":"307","klasa":"droga gĹ‚Ăłwna","kat":"wojewodzka"},"geometry":{"type":"LineString","coordinates":[[16.73506,52.40788],[16.75154,52.41052]]}},{"type":"Feature","properties":{"numer":"307","klasa":"droga gĹ‚Ăłwna","kat":"wojewodzka"},"geometry":{"type":"LineString","coordinates":[[16.75154,52.41052],[16.757421493322074,52.41144549384019]]}},{"type":"Feature","properties":{"numer":"S11","klasa":"droga ekspresowa","kat":"krajowa"},"geometry":{"type":"LineString","coordinates":[[16.72595,52.40761],[16.72677988853951,52.41497941023084]]}},{"type":"Feature","properties":{"numer":"2417P","klasa":"droga zbiorcza","kat":"powiatowa"},"geometry":{"type":"LineString","coordinates":[[16.71863,52.40763],[16.718470466199545,52.41191188720421]]}},{"type":"Feature","properties":{"numer":"2392P","klasa":"droga zbiorcza","kat":"powiatowa"},"geometry":{"type":"LineString","coordinates":[[16.63685,52.39867],[16.63512,52.4014],[16.63422,52.40398],[16.63269,52.40652],[16.63253,52.40703],[16.6326,52.40757],[16.632636186671512,52.40762158525513]]}},{"type":"Feature","properties":{"numer":"2401P","klasa":"droga gĹ‚Ăłwna","kat":"powiatowa"},"geometry":{"type":"LineString","coordinates":[[16.77679,52.38994],[16.77755,52.39005],[16.77833,52.3903]]}},{"type":"Feature","properties":{"numer":"2401P","klasa":"droga gĹ‚Ăłwna","kat":"powiatowa"},"geometry":{"type":"LineString","coordinates":[[16.77943,52.39012],[16.77833,52.3903]]}},{"type":"Feature","properties":{"numer":"2401P","klasa":"droga gĹ‚Ăłwna","kat":"powiatowa"},"geometry":{"type":"LineString","coordinates":[[16.79297,52.39196],[16.79212,52.39184]]}},{"type":"Feature","properties":{"numer":"2401P","klasa":"droga gĹ‚Ăłwna","kat":"powiatowa"},"geometry":{"type":"LineString","coordinates":[[16.79338,52.39238],[16.79316,52.39225],[16.79297,52.39196]]}},{"type":"Feature","properties":{"numer":"2401P","klasa":"droga gĹ‚Ăłwna","kat":"powiatowa"},"geometry":{"type":"LineString","coordinates":[[16.80229,52.39711],[16.80163,52.39684],[16.79338,52.39238]]}},{"type":"Feature","properties":{"numer":"2405P","klasa":"droga zbiorcza","kat":"powiatowa"},"geometry":{"type":"LineString","coordinates":[[16.80388043627873,52.39661149563721],[16.80392,52.39656]]}},{"type":"Feature","properties":{"numer":"2401P","klasa":"droga gĹ‚Ăłwna","kat":"powiatowa"},"geometry":{"type":"LineString","coordinates":[[16.803040153983254,52.397312541575474],[16.80229,52.39711]]}}]}