{"type":"FeatureCollection","features":[{"type":"Feature","properties":{"numer":"1860P","klasa":"","kat":"powiatowa"},"geometry":{"type":"LineString","coordinates":[[16.59323,52.55817],[16.61973,52.55103],[16.62177,52.55063],[16.62243,52.55068],[16.62921,52.55229],[16.63065,52.55256],[16.63765,52.55256],[16.63809,52.55264],[16.6385,52.55281]]}},{"type":"Feature","properties":{"numer":"1860P","klasa":"","kat":"powiatowa"},"geometry":{"type":"LineString","coordinates":[[16.58949,52.55935],[16.59323,52.55817]]}},{"type":"Feature","properties":{"numer":"1860P","klasa":"","kat":"powiatowa"},"geometry":{"type":"LineString","coordinates":[[16.5894,52.55938],[16.58949,52.55935]]}},{"type":"Feature","properties":{"numer":"1859P","klasa":"","kat":"powiatowa"},"geometry":{"type":"LineString","coordinates":[[16.71565,52.54642],[16.73446,52.54729]]}},{"type":"Feature","properties":{"numer":"1859P","klasa":"droga zbiorcza","kat":"powiatowa"},"geometry":{"type":"LineString","coordinates":[[16.734486942601094,52.547289937812806],[16.73446,52.54729]]}},{"type":"Feature","properties":{"numer":"184","klasa":"droga gĹ‚Ăłwna","kat":"wojewodzka"},"geometry":{"type":"LineString","coordinates":[[16.67368,52.55093],[16.67681,52.54532],[16.68179,52.53788],[16.68273,52.53671],[16.684516890254745,52.53472486008682]]}},{"type":"Feature","properties":{"numer":"1860P","klasa":"","kat":"powiatowa"},"geometry":{"type":"LineString","coordinates":[[16.6385,52.55281],[16.63921,52.55295],[16.64254,52.55319],[16.64579,52.55313],[16.64851,52.55265],[16.65191,52.55221],[16.65272,52.55191],[16.65463,52.55095],[16.65573,52.55056],[16.66286,52.54951],[16.66347,52.54954],[16.67368,52.55093]]}},{"type":"Feature","properties":{"numer":"1859P","klasa":"","kat":"powiatowa"},"geometry":{"type":"LineString","coordinates":[[16.67368,52.55093],[16.67493,52.55127],[16.68106,52.55342]]}},{"type":"Feature","properties":{"numer":"1859P","klasa":"","kat":"powiatowa"},"geometry":{"type":"LineString","coordinates":[[16.68479,52.55469],[16.68696,52.55476],[16.69276,52.55473],[16.69385,52.55466],[16.71317,52.55095]]}},{"type":"Feature","properties":{"numer":"1859P","klasa":"","kat":"powiatowa"},"geometry":{"type":"LineString","coordinates":[[16.68106,52.55342],[16.68405,52.5545]]}},{"type":"Feature","properties":{"numer":"1859P,258086P","klasa":"","kat":"powiatowa"},"geometry":{"type":"LineString","coordinates":[[16.71317,52.55095],[16.71349,52.55076],[16.71565,52.54642]]}},{"type":"Feature","properties":{"numer":"1861P","klasa":"","kat":"powiatowa"},"geometry":{"type":"LineString","coordinates":[[16.584516517225737,52.54684714584117],[16.58557,52.54846],[16.5915,52.55722],[16.59181,52.55748],[16.59323,52.55817]]}},{"type":"Feature","properties":{"numer":"1852P","klasa":"","kat":"powiatowa"},"geometry":{"type":"LineString","coordinates":[[16.3855591373853,52.55101016401829],[16.38557,52.55104],[16.38785,52.55494],[16.39079,52.55767],[16.39194,52.55915]]}},{"type":"Feature","properties":{"numer":"1874P","klasa":"","kat":"powiatowa"},"geometry":{"type":"LineString","coordinates":[[16.412842152135017,52.550543416037954],[16.41567,52.55214],[16.42913,52.55951],[16.43299,52.56172]]}},{"type":"Feature","properties":{"numer":"1868P","klasa":"","kat":"powiatowa"},"geometry":{"type":"LineString","coordinates":[[16.453111402393418,52.526788721017205],[16.45298,52.52684],[16.44069,52.53237],[16.43597,52.53319],[16.43573,52.53333],[16.43421,52.53548],[16.43408,52.53582],[16.43417,52.5402],[16.43125,52.54803],[16.43039,52.5508],[16.43399,52.56085],[16.43418,52.56132],[16.43442,52.5616]]}},{"type":"Feature","properties":{"numer":"306","klasa":"droga gĹ‚Ăłwna","kat":"wojewodzka"},"geometry":{"type":"LineString","coordinates":[[16.47138,52.55153],[16.46686,52.54666],[16.466829601886882,52.54653962347206]]}},{"type":"Feature","properties":{"numer":"1867P,258009P","klasa":"","kat":"powiatowa"},"geometry":{"type":"LineString","coordinates":[[16.46535,52.55486],[16.46798,52.55353],[16.4688,52.55279],[16.47017,52.55198],[16.47138,52.55153]]}},{"type":"Feature","properties":{"numer":"1867P","klasa":"","kat":"powiatowa"},"geometry":{"type":"LineString","coordinates":[[16.43569,52.56125],[16.43543,52.56079],[16.43542,52.56052],[16.43614,52.55986],[16.43547,52.55803],[16.43556,52.55736],[16.43596,52.55719],[16.43642,52.55721],[16.43766,52.55655],[16.43839,52.55633],[16.43987,52.5562],[16.44188,52.55637],[16.4471,52.55603],[16.45343,52.55663],[16.46535,52.55486]]}},{"type":"Feature","properties":{"numer":"187","klasa":"droga gĹ‚Ăłwna","kat":"wojewodzka"},"geometry":{"type":"LineString","coordinates":[[16.379699531416403,52.55885561235357],[16.38025,52.55893],[16.38776,52.5589],[16.39194,52.55915]]}},{"type":"Feature","properties":{"numer":"1862P","klasa":"","kat":"powiatowa"},"geometry":{"type":"LineString","coordinates":[[16.509635212705742,52.55509029737139],[16.51098,52.55727],[16.51257,52.56126],[16.5164,52.5696]]}},{"type":"Feature","properties":{"numer":"306","klasa":"droga gĹ‚Ăłwna","kat":"wojewodzka"},"geometry":{"type":"LineString","coordinates":[[16.48043,52.57058],[16.47421,52.55974],[16.47138,52.55153]]}},{"type":"Feature","properties":{"numer":"306","klasa":"droga gĹ‚Ăłwna","kat":"wojewodzka"},"geometry":{"type":"LineString","coordinates":[[16.48074,52.57096],[16.48043,52.57058]]}},{"type":"Feature","properties":{"numer":"187","klasa":"droga gĹ‚Ăłwna","kat":"wojewodzka"},"geometry":{"type":"LineString","coordinates":[[16.48074,52.57096],[16.48152,52.57098]]}},{"type":"Feature","properties":{"numer":"187","klasa":"droga gĹ‚Ăłwna","kat":"wojewodzka"},"geometry":{"type":"LineString","coordinates":[[16.4799,52.57113],[16.48074,52.57096]]}},{"type":"Feature","properties":{"numer":"1853P","klasa":"","kat":"powiatowa"},"geometry":{"type":"LineString","coordinates":[[16.48078,52.57145],[16.48074,52.57096]]}},{"type":"Feature","properties":{"numer":"1860P","klasa":"","kat":"powiatowa"},"geometry":{"type":"LineString","coordinates":[[16.57334,52.55971],[16.57988,52.55941],[16.58124,52.55947],[16.58627,52.55992],[16.58785,52.55979],[16.5894,52.55938]]}},{"type":"Feature","properties":{"numer":"1860P","klasa":"","kat":"powiatowa"},"geometry":{"type":"LineString","coordinates":[[16.5164,52.5696],[16.51864,52.56897],[16.52021,52.56904],[16.52226,52.56893],[16.52496,52.56902],[16.52724,52.56898],[16.53124,52.5684],[16.53268,52.56793],[16.53513,52.56765],[16.53552,52.56753],[16.53574,52.56732],[16.53654,52.56566],[16.53672,52.56543],[16.537,52.5653],[16.55105,52.56182],[16.55275,52.56115],[16.57334,52.55971]]}},{"type":"Feature","properties":{"numer":"1856P","klasa":"","kat":"powiatowa"},"geometry":{"type":"LineString","coordinates":[[16.57334,52.55971],[16.57518,52.56351],[16.57589,52.56545],[16.57609,52.57071],[16.57677,52.57169],[16.57822,52.57153],[16.57841,52.57163],[16.57904,52.57316],[16.57579,52.58116],[16.57455,52.58373],[16.57032,52.58926],[16.5702,52.58947],[16.57023,52.58978]]}},{"type":"Feature","properties":{"numer":"187","klasa":"droga gĹ‚Ăłwna","kat":"wojewodzka"},"geometry":{"type":"LineString","coordinates":[[16.50477,52.57443],[16.55879,52.59578]]}},{"type":"Feature","properties":{"numer":"1855P","klasa":"","kat":"powiatowa"},"geometry":{"type":"LineString","coordinates":[[16.57171,52.58961],[16.57023,52.58978]]}},{"type":"Feature","properties":{"numer":"1855P","klasa":"","kat":"powiatowa"},"geometry":{"type":"LineString","coordinates":[[16.57023,52.58978],[16.56833,52.59003],[16.56753,52.59029],[16.56686,52.59064],[16.56122,52.59553]]}},{"type":"Feature","properties":{"numer":"1856P","klasa":"","kat":"powiatowa"},"geometry":{"type":"LineString","coordinates":[[16.57023,52.58978],[16.57016,52.59009],[16.56948,52.59041],[16.56914,52.59088],[16.56719,52.59762],[16.5683,52.59976],[16.56823,52.59998]]}},{"type":"Feature","properties":{"numer":"1855P","klasa":"","kat":"powiatowa"},"geometry":{"type":"LineString","coordinates":[[16.56122,52.59553],[16.56028,52.59636]]}},{"type":"Feature","properties":{"numer":"187","klasa":"droga gĹ‚Ăłwna","kat":"wojewodzka"},"geometry":{"type":"LineString","coordinates":[[16.55879,52.59578],[16.56028,52.59636]]}},{"type":"Feature","properties":{"numer":"1855P","klasa":"","kat":"powiatowa"},"geometry":{"type":"LineString","coordinates":[[16.53413,52.59636],[16.5353,52.59619]]}},{"type":"Feature","properties":{"numer":"187","klasa":"droga gĹ‚Ăłwna","kat":"wojewodzka"},"geometry":{"type":"LineString","coordinates":[[16.39194,52.55915],[16.43299,52.56172]]}},{"type":"Feature","properties":{"numer":"1867P","klasa":"","kat":"powiatowa"},"geometry":{"type":"LineString","coordinates":[[16.43563,52.56156],[16.43569,52.56125]]}},{"type":"Feature","properties":{"numer":"187","klasa":"droga gĹ‚Ăłwna","kat":"wojewodzka"},"geometry":{"type":"LineString","coordinates":[[16.43442,52.5616],[16.43522,52.56152],[16.43563,52.56156]]}},{"type":"Feature","properties":{"numer":"187","klasa":"droga gĹ‚Ăłwna","kat":"wojewodzka"},"geometry":{"type":"LineString","coordinates":[[16.43299,52.56172],[16.43442,52.5616]]}},{"type":"Feature","properties":{"numer":"187","klasa":"droga gĹ‚Ăłwna","kat":"wojewodzka"},"geometry":{"type":"LineString","coordinates":[[16.43563,52.56156],[16.43597,52.56174],[16.43709,52.56297],[16.43831,52.56397],[16.43928,52.56445],[16.44062,52.56471],[16.44167,52.56479],[16.444,52.56465],[16.44615,52.56443],[16.44719,52.56448],[16.45404,52.56616],[16.46372,52.56806],[16.46952,52.57005],[16.47035,52.57062],[16.47185,52.57187],[16.47268,52.57224],[16.47363,52.57224],[16.47627,52.57141],[16.4799,52.57113]]}},{"type":"Feature","properties":{"numer":"1852P","klasa":"","kat":"powiatowa"},"geometry":{"type":"LineString","coordinates":[[16.39194,52.55915],[16.39287,52.56046],[16.39307,52.56222],[16.39307,52.56438],[16.39447,52.57172],[16.3948,52.57222],[16.39524,52.57242],[16.39757,52.57254],[16.39806,52.57265],[16.39832,52.57282],[16.39927,52.57514],[16.3996,52.57628],[16.39951,52.57665]]}},{"type":"Feature","properties":{"numer":"1852P","klasa":"","kat":"powiatowa"},"geometry":{"type":"LineString","coordinates":[[16.39951,52.57665],[16.39942,52.57918],[16.40007,52.5815],[16.4009,52.58367],[16.40114,52.58401],[16.40236,52.58517],[16.40401,52.58842],[16.404036659247197,52.588449956722215]]}},{"type":"Feature","properties":{"numer":"1855P","klasa":"","kat":"powiatowa"},"geometry":{"type":"LineString","coordinates":[[16.5353,52.59619],[16.55726,52.59644],[16.55963,52.5967]]}},{"type":"Feature","properties":{"numer":"187","klasa":"droga gĹ‚Ăłwna","kat":"wojewodzka"},"geometry":{"type":"LineString","coordinates":[[16.56028,52.59636],[16.56109,52.59668]]}},{"type":"Feature","properties":{"numer":"1855P","klasa":"","kat":"powiatowa"},"geometry":{"type":"LineString","coordinates":[[16.55963,52.5967],[16.56001,52.59657],[16.56028,52.59636]]}},{"type":"Feature","properties":{"numer":"1855P,258064P","klasa":"","kat":"powiatowa"},"geometry":{"type":"LineString","coordinates":[[16.53431,52.5969],[16.53413,52.59636]]}},{"type":"Feature","properties":{"numer":"187","klasa":"droga gĹ‚Ăłwna","kat":"wojewodzka"},"geometry":{"type":"LineString","coordinates":[[16.56109,52.59668],[16.5646,52.59808],[16.56604,52.59877],[16.56823,52.59998]]}},{"type":"Feature","properties":{"numer":"187","klasa":"droga gĹ‚Ăłwna","kat":"wojewodzka"},"geometry":{"type":"LineString","coordinates":[[16.56823,52.59998],[16.57604,52.60426],[16.57983,52.60568]]}},{"type":"Feature","properties":{"numer":"187","klasa":"droga gĹ‚Ăłwna","kat":"wojewodzka"},"geometry":{"type":"LineString","coordinates":[[16.57983,52.60568],[16.57996,52.60573]]}},{"type":"Feature","properties":{"numer":"1855P","klasa":"","kat":"powiatowa"},"geometry":{"type":"LineString","coordinates":[[16.53976,52.6152],[16.54013,52.61343],[16.54005,52.61284],[16.53431,52.5969]]}},{"type":"Feature","properties":{"numer":"184,258100P","klasa":"droga gĹ‚Ăłwna","kat":"gminna"},"geometry":{"type":"LineString","coordinates":[[16.58275,52.60676],[16.58351,52.60538]]}},{"type":"Feature","properties":{"numer":"187","klasa":"droga gĹ‚Ăłwna","kat":"wojewodzka"},"geometry":{"type":"LineString","coordinates":[[16.57996,52.60573],[16.58184,52.60642]]}},{"type":"Feature","properties":{"numer":"187","klasa":"droga gĹ‚Ăłwna","kat":"wojewodzka"},"geometry":{"type":"LineString","coordinates":[[16.58184,52.60642],[16.58275,52.60676]]}},{"type":"Feature","properties":{"numer":"184,187","klasa":"droga gĹ‚Ăłwna","kat":"gminna"},"geometry":{"type":"LineString","coordinates":[[16.58275,52.60676],[16.58341,52.60702]]}},{"type":"Feature","properties":{"numer":"184,187","klasa":"droga gĹ‚Ăłwna","kat":"gminna"},"geometry":{"type":"LineString","coordinates":[[16.58341,52.60702],[16.58397,52.60738],[16.58436,52.60787],[16.58484,52.60863],[16.58534,52.61037],[16.58604,52.61125],[16.58657,52.61169]]}},{"type":"Feature","properties":{"numer":"1848P","klasa":"","kat":"powiatowa"},"geometry":{"type":"LineString","coordinates":[[16.58385,52.61329],[16.58492,52.61254],[16.58616,52.61202],[16.58657,52.61169]]}},{"type":"Feature","properties":{"numer":"1848P","klasa":"","kat":"powiatowa"},"geometry":{"type":"LineString","coordinates":[[16.58365,52.61361],[16.58385,52.61329]]}},{"type":"Feature","properties":{"numer":"184","klasa":"droga gĹ‚Ăłwna","kat":"wojewodzka"},"geometry":{"type":"LineString","coordinates":[[16.53976,52.6152],[16.55309,52.61505],[16.55622,52.61508],[16.55907,52.6148],[16.56362,52.61472],[16.57045,52.61499],[16.57532,52.61531]]}},{"type":"Feature","properties":{"numer":"184","klasa":"droga gĹ‚Ăłwna","kat":"wojewodzka"},"geometry":{"type":"LineString","coordinates":[[16.57532,52.61531],[16.57546,52.61552]]}},{"type":"Feature","properties":{"numer":"1848P","klasa":"","kat":"powiatowa"},"geometry":{"type":"LineString","coordinates":[[16.58394,52.61785],[16.58346,52.61567],[16.58353,52.61388],[16.58365,52.61361]]}},{"type":"Feature","properties":{"numer":"184","klasa":"droga gĹ‚Ăłwna","kat":"wojewodzka"},"geometry":{"type":"LineString","coordinates":[[16.57222,52.61782],[16.57327,52.6172],[16.57494,52.61638],[16.57557,52.61571],[16.57546,52.61552]]}},{"type":"Feature","properties":{"numer":"184","klasa":"droga gĹ‚Ăłwna","kat":"wojewodzka"},"geometry":{"type":"LineString","coordinates":[[16.57296,52.61788],[16.57675,52.6178],[16.58134,52.61784]]}},{"type":"Feature","properties":{"numer":"1860P","klasa":"","kat":"powiatowa"},"geometry":{"type":"LineString","coordinates":[[16.50477,52.57443],[16.50915,52.57249],[16.51423,52.5707],[16.5164,52.5696]]}},{"type":"Feature","properties":{"numer":"187","klasa":"droga gĹ‚Ăłwna","kat":"wojewodzka"},"geometry":{"type":"LineString","coordinates":[[16.48152,52.57098],[16.5011,52.57323],[16.50249,52.57355],[16.50477,52.57443]]}},{"type":"Feature","properties":{"numer":"1853P","klasa":"","kat":"powiatowa"},"geometry":{"type":"LineString","coordinates":[[16.479562652837355,52.58352575245555],[16.47957,52.58346],[16.48078,52.57145]]}},{"type":"Feature","properties":{"numer":"184","klasa":"droga gĹ‚Ăłwna","kat":"wojewodzka"},"geometry":{"type":"LineString","coordinates":[[16.518424260780925,52.619138638899116],[16.51925,52.61901],[16.53751,52.61533],[16.53825,52.61524],[16.53976,52.6152]]}},{"type":"Feature","properties":{"numer":"184","klasa":"droga gĹ‚Ăłwna","kat":"wojewodzka"},"geometry":{"type":"LineString","coordinates":[[16.58134,52.61784],[16.58159,52.61785]]}},{"type":"Feature","properties":{"numer":"184","klasa":"droga gĹ‚Ăłwna","kat":"wojewodzka"},"geometry":{"type":"LineString","coordinates":[[16.58159,52.61785],[16.58394,52.61785]]}},{"type":"Feature","properties":{"numer":"184","klasa":"droga gĹ‚Ăłwna","kat":"wojewodzka"},"geometry":{"type":"LineString","coordinates":[[16.57222,52.61782],[16.57296,52.61788]]}},{"type":"Feature","properties":{"numer":"184,185","klasa":"droga gĹ‚Ăłwna","kat":"gminna"},"geometry":{"type":"LineString","coordinates":[[16.5721,52.61789],[16.57222,52.61782]]}},{"type":"Feature","properties":{"numer":"185","klasa":"droga gĹ‚Ăłwna","kat":"wojewodzka"},"geometry":{"type":"LineString","coordinates":[[16.55464,52.62814],[16.5721,52.61789]]}},{"type":"Feature","properties":{"numer":"185","klasa":"droga gĹ‚Ăłwna","kat":"wojewodzka"},"geometry":{"type":"LineString","coordinates":[[16.55263,52.62941],[16.55464,52.62814]]}},{"type":"Feature","properties":{"numer":"1845P","klasa":"","kat":"powiatowa"},"geometry":{"type":"LineString","coordinates":[[16.55209,52.62939],[16.55233,52.62935],[16.55263,52.62941]]}},{"type":"Feature","properties":{"numer":"1845P","klasa":"","kat":"powiatowa"},"geometry":{"type":"LineString","coordinates":[[16.545948695924874,52.630912590595585],[16.55209,52.62939]]}},{"type":"Feature","properties":{"numer":"185","klasa":"droga gĹ‚Ăłwna","kat":"wojewodzka"},"geometry":{"type":"LineString","coordinates":[[16.55262618730965,52.629413706891135],[16.55263,52.62941]]}},{"type":"Feature","properties":{"numer":"1859P","klasa":"","kat":"powiatowa"},"geometry":{"type":"LineString","coordinates":[[16.68405,52.5545],[16.68433,52.55464]]}},{"type":"Feature","properties":{"numer":"1859P","klasa":"","kat":"powiatowa"},"geometry":{"type":"LineString","coordinates":[[16.68433,52.55464],[16.68479,52.55469]]}},{"type":"Feature","properties":{"numer":"2048P","klasa":"","kat":"powiatowa"},"geometry":{"type":"LineString","coordinates":[[16.68433,52.55464],[16.68436,52.55487]]}},{"type":"Feature","properties":{"numer":"2048P","klasa":"","kat":"powiatowa"},"geometry":{"type":"LineString","coordinates":[[16.68436,52.55487],[16.68477,52.55593],[16.69134,52.56314]]}},{"type":"Feature","properties":{"numer":"2048P,258048P","klasa":"","kat":"powiatowa"},"geometry":{"type":"LineString","coordinates":[[16.69134,52.56314],[16.69136,52.56316]]}},{"type":"Feature","properties":{"numer":"2048P","klasa":"","kat":"powiatowa"},"geometry":{"type":"LineString","coordinates":[[16.69136,52.56316],[16.699895387508743,52.57258243701889]]}},{"type":"Feature","properties":{"numer":"1858P","klasa":"","kat":"powiatowa"},"geometry":{"type":"LineString","coordinates":[[16.61247,52.59652],[16.61573,52.59435],[16.61841,52.59207],[16.63049,52.58631],[16.63423,52.58496],[16.64492,52.57954],[16.6702,52.56149],[16.67093,52.56107],[16.67262,52.56066],[16.67301,52.56047],[16.67312,52.56028],[16.67294,52.55974],[16.67301,52.55948],[16.67906,52.55521],[16.68106,52.55342]]}},{"type":"Feature","properties":{"numer":"184","klasa":"droga gĹ‚Ăłwna","kat":"wojewodzka"},"geometry":{"type":"LineString","coordinates":[[16.60867,52.58122],[16.62134,52.57588],[16.62215,52.57527],[16.62342,52.57343],[16.62437,52.57275],[16.62675,52.57172],[16.62796,52.57128],[16.63487,52.56998],[16.63622,52.56954],[16.65672,52.55943],[16.6723,52.55207],[16.67314,52.55153],[16.67368,52.55093]]}},{"type":"Feature","properties":{"numer":"1861P","klasa":"","kat":"powiatowa"},"geometry":{"type":"LineString","coordinates":[[16.59323,52.55817],[16.59448,52.55878],[16.59487,52.55914],[16.60422,52.57283],[16.60611,52.57588],[16.60839,52.58061]]}},{"type":"Feature","properties":{"numer":"1861P","klasa":"","kat":"powiatowa"},"geometry":{"type":"LineString","coordinates":[[16.60839,52.58061],[16.60867,52.58122]]}},{"type":"Feature","properties":{"numer":"184","klasa":"droga gĹ‚Ăłwna","kat":"wojewodzka"},"geometry":{"type":"LineString","coordinates":[[16.58351,52.60538],[16.58345,52.60524],[16.58257,52.60455],[16.58257,52.60426],[16.58316,52.6039],[16.58722,52.60188],[16.58762,52.60159],[16.59536,52.59237],[16.60229,52.58459],[16.60286,52.58412],[16.60475,52.58289],[16.60867,52.58122]]}},{"type":"Feature","properties":{"numer":"1858P","klasa":"","kat":"powiatowa"},"geometry":{"type":"LineString","coordinates":[[16.61213,52.59654],[16.61247,52.59652]]}},{"type":"Feature","properties":{"numer":"1858P","klasa":"","kat":"powiatowa"},"geometry":{"type":"LineString","coordinates":[[16.6116,52.59713],[16.612,52.59682],[16.61213,52.59654]]}},{"type":"Feature","properties":{"numer":"1858P","klasa":"","kat":"powiatowa"},"geometry":{"type":"LineString","coordinates":[[16.60877,52.59904],[16.6116,52.59713]]}},{"type":"Feature","properties":{"numer":"1858P","klasa":"","kat":"powiatowa"},"geometry":{"type":"LineString","coordinates":[[16.5952,52.60743],[16.59705,52.60683],[16.59757,52.60659],[16.60877,52.59904]]}},{"type":"Feature","properties":{"numer":"1857P","klasa":"","kat":"powiatowa"},"geometry":{"type":"LineString","coordinates":[[16.62752,52.60811],[16.62927,52.60772],[16.63011,52.60651],[16.63045,52.60621],[16.63068,52.60619],[16.63219,52.60645],[16.63316,52.60641],[16.63589,52.60541]]}},{"type":"Feature","properties":{"numer":"1858P","klasa":"","kat":"powiatowa"},"geometry":{"type":"LineString","coordinates":[[16.59471,52.60769],[16.5952,52.60743]]}},{"type":"Feature","properties":{"numer":"1857P","klasa":"","kat":"powiatowa"},"geometry":{"type":"LineString","coordinates":[[16.65716,52.59717],[16.6575408267423,52.59719764065065]]}},{"type":"Feature","properties":{"numer":"1857P","klasa":"","kat":"powiatowa"},"geometry":{"type":"LineString","coordinates":[[16.63589,52.60541],[16.65447,52.59806],[16.65547,52.59776],[16.65565,52.59781]]}},{"type":"Feature","properties":{"numer":"2047P","klasa":"","kat":"powiatowa"},"geometry":{"type":"LineString","coordinates":[[16.655648542415175,52.59786273806911],[16.65565,52.59781]]}},{"type":"Feature","properties":{"numer":"1858P","klasa":"","kat":"powiatowa"},"geometry":{"type":"LineString","coordinates":[[16.59395,52.60785],[16.59471,52.60769]]}},{"type":"Feature","properties":{"numer":"1857P,258016P","klasa":"","kat":"powiatowa"},"geometry":{"type":"LineString","coordinates":[[16.62714,52.60818],[16.62752,52.60811]]}},{"type":"Feature","properties":{"numer":"1858P","klasa":"","kat":"powiatowa"},"geometry":{"type":"LineString","coordinates":[[16.58919,52.60969],[16.59107,52.60884],[16.59395,52.60785]]}},{"type":"Feature","properties":{"numer":"1857P","klasa":"","kat":"powiatowa"},"geometry":{"type":"LineString","coordinates":[[16.59463,52.61021],[16.59918,52.60979],[16.60827,52.60931],[16.61615,52.60877],[16.62395,52.60847],[16.62714,52.60818]]}},{"type":"Feature","properties":{"numer":"1857P","klasa":"","kat":"powiatowa"},"geometry":{"type":"LineString","coordinates":[[16.58919,52.60969],[16.59047,52.6106],[16.59463,52.61021]]}},{"type":"Feature","properties":{"numer":"1858P","klasa":"","kat":"powiatowa"},"geometry":{"type":"LineString","coordinates":[[16.58657,52.61169],[16.58813,52.61027],[16.58919,52.60969]]}},{"type":"Feature","properties":{"numer":"184,187","klasa":"droga gĹ‚Ăłwna","kat":"gminna"},"geometry":{"type":"LineString","coordinates":[[16.58657,52.61169],[16.58961,52.61415],[16.59048,52.61475]]}},{"type":"Feature","properties":{"numer":"184","klasa":"droga gĹ‚Ăłwna","kat":"wojewodzka"},"geometry":{"type":"LineString","coordinates":[[16.58394,52.61785],[16.58595,52.61761],[16.58714,52.61725],[16.58803,52.6167],[16.58908,52.61562],[16.59048,52.61475]]}},{"type":"Feature","properties":{"numer":"187","klasa":"droga gĹ‚Ăłwna","kat":"wojewodzka"},"geometry":{"type":"LineString","coordinates":[[16.65270898255387,52.63067399684797],[16.62692,52.62872],[16.62526,52.62852],[16.62359,52.62807],[16.5957,52.61801],[16.59502,52.61768],[16.59354,52.61664],[16.59048,52.61475]]}},{"type":"Feature","properties":{"numer":"1848P","klasa":"","kat":"powiatowa"},"geometry":{"type":"LineString","coordinates":[[16.6073,52.6516],[16.59967,52.64658],[16.5989,52.64592],[16.59573,52.64277],[16.5902,52.63681],[16.58541,52.63004],[16.58522,52.62945],[16.58552,52.62347],[16.58394,52.61785]]}},{"type":"Feature","properties":{"numer":"1848P,246513P","klasa":"","kat":"powiatowa"},"geometry":{"type":"LineString","coordinates":[[16.60739,52.6517],[16.6073,52.6516]]}},{"type":"Feature","properties":{"numer":"1848P","klasa":"","kat":"powiatowa"},"geometry":{"type":"LineString","coordinates":[[16.60974,52.65447],[16.60739,52.6517]]}},{"type":"Feature","properties":{"numer":"1848P","klasa":"","kat":"powiatowa"},"geometry":{"type":"LineString","coordinates":[[16.61288,52.65743],[16.60974,52.65447]]}},{"type":"Feature","properties":{"numer":"1848P","klasa":"","kat":"powiatowa"},"geometry":{"type":"LineString","coordinates":[[16.613028174552756,52.65752286511579],[16.61296,52.65748]]}}]}