{"type":"FeatureCollection","features":[{"type":"Feature","properties":{"numer":"310","klasa":"droga gĹ‚Ăłwna","kat":"wojewodzka"},"geometry":{"type":"LineString","coordinates":[[16.91214026301231,52.11454084531708],[16.92955,52.11402],[16.93037,52.11395],[16.9363,52.11278]]}},{"type":"Feature","properties":{"numer":"310","klasa":"droga gĹ‚Ăłwna","kat":"wojewodzka"},"geometry":{"type":"LineString","coordinates":[[16.88947,52.11752],[16.89057,52.11708],[16.896681342815054,52.11549811661388]]}},{"type":"Feature","properties":{"numer":"4067P","klasa":"","kat":"powiatowa"},"geometry":{"type":"LineString","coordinates":[[16.86954,52.12048],[16.867895827808013,52.11899928352301]]}},{"type":"Feature","properties":{"numer":"4067P","klasa":"","kat":"powiatowa"},"geometry":{"type":"LineString","coordinates":[[16.867562193698962,52.118590490081694],[16.86665,52.1174],[16.86582,52.11569],[16.86462,52.11265],[16.86373,52.11104],[16.86239,52.1078],[16.86127,52.10592],[16.86038,52.10402],[16.858092105263157,52.10195]]}},{"type":"Feature","properties":{"numer":"310","klasa":"droga gĹ‚Ăłwna","kat":"wojewodzka"},"geometry":{"type":"LineString","coordinates":[[16.86954,52.12048],[16.88151,52.11873],[16.88779,52.11818],[16.88848,52.11799],[16.88947,52.11752]]}},{"type":"Feature","properties":{"numer":"310","klasa":"droga gĹ‚Ăłwna","kat":"wojewodzka"},"geometry":{"type":"LineString","coordinates":[[16.85083,52.12529],[16.86954,52.12048]]}},{"type":"Feature","properties":{"numer":"2463P","klasa":"droga gĹ‚Ăłwna","kat":"powiatowa"},"geometry":{"type":"LineString","coordinates":[[16.88909,52.13806],[16.88909,52.13641],[16.88979,52.13349],[16.8915,52.12723],[16.89299,52.12254],[16.89319,52.12115],[16.89297,52.1206],[16.88947,52.11752]]}},{"type":"Feature","properties":{"numer":"4065P","klasa":"","kat":"powiatowa"},"geometry":{"type":"LineString","coordinates":[[16.85083,52.12529],[16.85248,52.12687],[16.85275,52.12702],[16.86459,52.12931],[16.86503,52.12945],[16.86603,52.12992],[16.86723,52.13141],[16.86756,52.13159],[16.88018,52.13628],[16.88127,52.13645],[16.88366,52.13659],[16.88602,52.13683],[16.88909,52.13806]]}},{"type":"Feature","properties":{"numer":"2463P","klasa":"droga gĹ‚Ăłwna","kat":"powiatowa"},"geometry":{"type":"LineString","coordinates":[[16.89209,52.14116],[16.89187,52.1409],[16.88977,52.14029],[16.88942,52.14009],[16.88909,52.13806]]}},{"type":"Feature","properties":{"numer":"4062P","klasa":"droga gĹ‚Ăłwna","kat":"powiatowa"},"geometry":{"type":"LineString","coordinates":[[16.89209,52.14116],[16.89247,52.14085]]}},{"type":"Feature","properties":{"numer":"2463P","klasa":"droga gĹ‚Ăłwna","kat":"powiatowa"},"geometry":{"type":"LineString","coordinates":[[16.89128,52.14362],[16.89206,52.14247],[16.892,52.14178],[16.89209,52.14116]]}},{"type":"Feature","properties":{"numer":"4062P","klasa":"droga gĹ‚Ăłwna","kat":"powiatowa"},"geometry":{"type":"LineString","coordinates":[[16.84373,52.15042],[16.84512,52.14981],[16.85469,52.14637],[16.87558,52.14235],[16.87713,52.14223],[16.88249,52.14253],[16.88974,52.14331],[16.89128,52.14362]]}},{"type":"Feature","properties":{"numer":"310","klasa":"droga gĹ‚Ăłwna","kat":"wojewodzka"},"geometry":{"type":"LineString","coordinates":[[16.83661,52.12895],[16.85083,52.12529]]}},{"type":"Feature","properties":{"numer":"310","klasa":"droga gĹ‚Ăłwna","kat":"wojewodzka"},"geometry":{"type":"LineString","coordinates":[[16.812282493956367,52.131885919135435],[16.83661,52.12895]]}},{"type":"Feature","properties":{"numer":"4063P","klasa":"droga zbiorcza","kat":"powiatowa"},"geometry":{"type":"LineString","coordinates":[[16.84373,52.15042],[16.84393,52.14925],[16.84385,52.14573],[16.84258,52.14399],[16.84121,52.14258],[16.8409,52.14198],[16.84019,52.13558],[16.84046,52.13452],[16.84042,52.13392],[16.83661,52.12895]]}},{"type":"Feature","properties":{"numer":"4062P","klasa":"droga gĹ‚Ăłwna","kat":"powiatowa"},"geometry":{"type":"LineString","coordinates":[[16.81394,52.16564],[16.82456,52.15854],[16.82468,52.15837],[16.82466,52.15805],[16.82409,52.15582],[16.82414,52.1556],[16.82472,52.15499],[16.83678,52.15272],[16.84231,52.15096],[16.84373,52.15042]]}},{"type":"Feature","properties":{"numer":"4063P","klasa":"droga zbiorcza","kat":"powiatowa"},"geometry":{"type":"LineString","coordinates":[[16.84511,52.17457],[16.84538,52.17385],[16.84718,52.17256],[16.84594,52.16246],[16.8432,52.15325],[16.84373,52.15042]]}},{"type":"Feature","properties":{"numer":"","klasa":"","kat":"gminna"},"geometry":{"type":"LineString","coordinates":[[16.81394,52.16564],[16.81411,52.16571]]}},{"type":"Feature","properties":{"numer":"4062P","klasa":"droga gĹ‚Ăłwna","kat":"powiatowa"},"geometry":{"type":"LineString","coordinates":[[16.80621,52.17002],[16.80784,52.16931],[16.80878,52.16865],[16.81174,52.16712],[16.81394,52.16564]]}},{"type":"Feature","properties":{"numer":"2465P","klasa":"droga gĹ‚Ăłwna","kat":"powiatowa"},"geometry":{"type":"LineString","coordinates":[[16.80426053499191,52.16713815028317],[16.80579,52.16849],[16.80621,52.17002]]}},{"type":"Feature","properties":{"numer":"2465P","klasa":"droga gĹ‚Ăłwna","kat":"powiatowa"},"geometry":{"type":"LineString","coordinates":[[16.80621,52.17002],[16.80553,52.17207],[16.80544729565303,52.17591575213424]]}},{"type":"Feature","properties":{"numer":"2467P","klasa":"droga zbiorcza","kat":"powiatowa"},"geometry":{"type":"LineString","coordinates":[[16.84511,52.17457],[16.84479,52.17449],[16.8434,52.17442],[16.84037,52.17446],[16.83739,52.17431],[16.82968,52.17368],[16.8286,52.17382],[16.82344,52.17483],[16.81372,52.17527],[16.81172,52.17547],[16.806902305942753,52.176427411378626]]}},{"type":"Feature","properties":{"numer":"2463P","klasa":"droga gĹ‚Ăłwna","kat":"powiatowa"},"geometry":{"type":"LineString","coordinates":[[16.88771,52.17326],[16.88646,52.17185],[16.88107,52.16762],[16.88088,52.16733],[16.88086,52.16703],[16.88093,52.1668],[16.8812,52.16653],[16.88354,52.1647],[16.88471,52.16272],[16.88535,52.15973],[16.8876,52.15535],[16.88993,52.14627],[16.89089,52.14421],[16.89128,52.14362]]}},{"type":"Feature","properties":{"numer":"2467P","klasa":"droga zbiorcza","kat":"powiatowa"},"geometry":{"type":"LineString","coordinates":[[16.88771,52.17326],[16.87958,52.1764]]}},{"type":"Feature","properties":{"numer":"2463P","klasa":"droga gĹ‚Ăłwna","kat":"powiatowa"},"geometry":{"type":"LineString","coordinates":[[16.89192,52.17789],[16.8898,52.17521],[16.88849,52.17413],[16.88771,52.17326]]}},{"type":"Feature","properties":{"numer":"","klasa":"","kat":"gminna"},"geometry":{"type":"LineString","coordinates":[[16.87976,52.17649],[16.87958,52.1764]]}},{"type":"Feature","properties":{"numer":"2467P","klasa":"droga zbiorcza","kat":"powiatowa"},"geometry":{"type":"LineString","coordinates":[[16.87958,52.1764],[16.87887,52.17663],[16.87031,52.17852],[16.86681,52.17921],[16.86523,52.17934],[16.8618,52.17941],[16.85863,52.17964],[16.85764,52.17961],[16.85529,52.17914],[16.85203,52.17771],[16.84716,52.17601],[16.84563,52.17556],[16.84537,52.17541],[16.84535,52.17509],[16.84511,52.17457]]}},{"type":"Feature","properties":{"numer":"2463P","klasa":"droga gĹ‚Ăłwna","kat":"powiatowa"},"geometry":{"type":"LineString","coordinates":[[16.89512,52.18227],[16.8951,52.18173],[16.89492,52.18139],[16.89285,52.17914],[16.89192,52.17789]]}},{"type":"Feature","properties":{"numer":"2463P","klasa":"droga gĹ‚Ăłwna","kat":"powiatowa"},"geometry":{"type":"LineString","coordinates":[[16.887090091772766,52.1889103651522],[16.88813,52.18816],[16.8946,52.18299],[16.89499,52.18258],[16.89512,52.18227]]}},{"type":"Feature","properties":{"numer":"2466P","klasa":"droga zbiorcza","kat":"powiatowa"},"geometry":{"type":"LineString","coordinates":[[16.914280432975406,52.19533641496363],[16.91408,52.19504],[16.91379,52.19484],[16.91214,52.19453],[16.91119,52.19406],[16.90385,52.18846],[16.89968,52.1863],[16.89903,52.18512],[16.89872,52.18478],[16.89512,52.18227]]}},{"type":"Feature","properties":{"numer":"4064P","klasa":"","kat":"powiatowa"},"geometry":{"type":"LineString","coordinates":[[16.92648,52.13652],[16.92708,52.13437],[16.92729,52.13432],[16.9295,52.13442],[16.92982,52.13423],[16.93132,52.1328],[16.94456,52.13129],[16.94684,52.13061],[16.94715,52.13051],[16.94722,52.13041],[16.94287,52.12052],[16.9363,52.11278]]}},{"type":"Feature","properties":{"numer":"4062P","klasa":"droga gĹ‚Ăłwna","kat":"powiatowa"},"geometry":{"type":"LineString","coordinates":[[16.92648,52.13652],[16.9289,52.13668],[16.937,52.13788]]}},{"type":"Feature","properties":{"numer":"4062P","klasa":"droga gĹ‚Ăłwna","kat":"powiatowa"},"geometry":{"type":"LineString","coordinates":[[16.89247,52.14085],[16.89286,52.14046],[16.89368,52.13997],[16.89466,52.13967],[16.9085,52.13926],[16.92648,52.13652]]}},{"type":"Feature","properties":{"numer":"4061P","klasa":"droga zbiorcza","kat":"powiatowa"},"geometry":{"type":"LineString","coordinates":[[16.89192,52.17789],[16.89449,52.17715],[16.89592,52.17651],[16.899,52.1749],[16.90637,52.17201],[16.90748,52.17185],[16.90928,52.17204],[16.91037,52.17201],[16.91268,52.17152],[16.91333,52.1713],[16.9139,52.17096],[16.91433,52.17059],[16.91551,52.16925],[16.91707,52.16843],[16.91892,52.1668],[16.92091,52.16553],[16.9235,52.16412],[16.92668,52.16253],[16.92867,52.16207],[16.93324,52.16033],[16.93547,52.15936],[16.93906,52.15765],[16.94005,52.1565],[16.94031,52.15578],[16.94014,52.1478],[16.93969,52.14515],[16.937,52.13788]]}},{"type":"Feature","properties":{"numer":"310","klasa":"droga gĹ‚Ăłwna","kat":"wojewodzka"},"geometry":{"type":"LineString","coordinates":[[16.9363,52.11278],[16.93986,52.1121],[16.94957689698304,52.11055674748221]]}},{"type":"Feature","properties":{"numer":"4062P","klasa":"droga gĹ‚Ăłwna","kat":"powiatowa"},"geometry":{"type":"LineString","coordinates":[[16.97868768416572,52.13356335020252],[16.97454,52.14172],[16.97424,52.14179],[16.97283,52.14172],[16.95564,52.14072],[16.95171,52.14001],[16.937,52.13788]]}}]}