{"type":"FeatureCollection","features":[{"type":"Feature","properties":{"numer":"2220Z","klasa":"droga zbiorcza","kat":"powiatowa"},"geometry":{"type":"LineString","coordinates":[[15.50106,53.20221],[15.50113,53.20088],[15.501658510638302,53.20006999999999]]}},{"type":"Feature","properties":{"numer":"2222Z","klasa":"droga zbiorcza","kat":"powiatowa"},"geometry":{"type":"LineString","coordinates":[[15.570636805677712,53.196007377628774],[15.57063,53.19601],[15.56254,53.19832]]}},{"type":"Feature","properties":{"numer":"2226Z","klasa":"droga zbiorcza","kat":"powiatowa"},"geometry":{"type":"LineString","coordinates":[[15.60909,53.22054],[15.61047,53.21831],[15.61108,53.21684],[15.61139,53.21656],[15.61386,53.21527],[15.62379,53.21192],[15.6243,53.21165],[15.62629,53.20868],[15.634568733601226,53.19539492749618]]}},{"type":"Feature","properties":{"numer":"2225Z","klasa":"droga zbiorcza","kat":"powiatowa"},"geometry":{"type":"LineString","coordinates":[[15.56254,53.19832],[15.56304,53.19992],[15.56443,53.20212],[15.56495,53.20327],[15.56767,53.20478],[15.56797,53.20508],[15.56899,53.20656],[15.56988,53.20715],[15.57171,53.2081],[15.57243,53.20896],[15.57249,53.20952],[15.57229,53.21068],[15.57258,53.21195],[15.57251,53.21319],[15.57305,53.21535],[15.57298,53.21763],[15.57273,53.21839],[15.57287,53.21855],[15.57688,53.21909],[15.57741,53.21911],[15.58524,53.21712],[15.58568,53.21706],[15.60301,53.21955],[15.60802,53.22032]]}},{"type":"Feature","properties":{"numer":"2225Z","klasa":"droga zbiorcza","kat":"powiatowa"},"geometry":{"type":"LineString","coordinates":[[15.60802,53.22032],[15.60909,53.22054]]}},{"type":"Feature","properties":{"numer":"2226Z","klasa":"droga zbiorcza","kat":"powiatowa"},"geometry":{"type":"LineString","coordinates":[[15.59115,53.25276],[15.59187,53.25273],[15.59505,53.25202],[15.59887,53.25092],[15.60149,53.25038],[15.60518,53.2494],[15.6062,53.24894],[15.60753,53.248],[15.6078,53.24771],[15.60784,53.24743],[15.6072,53.24466],[15.60663,53.24338],[15.60571,53.24197],[15.60477,53.23815],[15.60411,53.22921],[15.60436,53.22833],[15.60813,53.2228],[15.60909,53.22054]]}},{"type":"Feature","properties":{"numer":"2220Z","klasa":"droga zbiorcza","kat":"powiatowa"},"geometry":{"type":"LineString","coordinates":[[15.4975,53.21334],[15.49756,53.21307],[15.49702,53.21116],[15.4969,53.21032],[15.49698,53.2096],[15.49733,53.20877],[15.49751,53.20737],[15.49873,53.2052],[15.501,53.20308],[15.50106,53.20221]]}},{"type":"Feature","properties":{"numer":"2220Z","klasa":"droga zbiorcza","kat":"powiatowa"},"geometry":{"type":"LineString","coordinates":[[15.49584,53.21519],[15.4975,53.21334]]}},{"type":"Feature","properties":{"numer":"2220Z","klasa":"droga zbiorcza","kat":"powiatowa"},"geometry":{"type":"LineString","coordinates":[[15.49396,53.21776],[15.4957,53.21549],[15.49584,53.21519]]}},{"type":"Feature","properties":{"numer":"2220Z","klasa":"droga zbiorcza","kat":"powiatowa"},"geometry":{"type":"LineString","coordinates":[[15.49584,53.21519],[15.49358,53.21716],[15.49218,53.21881]]}},{"type":"Feature","properties":{"numer":"2220Z","klasa":"droga zbiorcza","kat":"powiatowa"},"geometry":{"type":"LineString","coordinates":[[15.49218,53.21881],[15.49311,53.21833],[15.49396,53.21776]]}},{"type":"Feature","properties":{"numer":"2220Z","klasa":"droga zbiorcza","kat":"powiatowa"},"geometry":{"type":"LineString","coordinates":[[15.4854,53.22105],[15.48635,53.22112],[15.48707,53.22099],[15.49152,53.21924],[15.49218,53.21881]]}},{"type":"Feature","properties":{"numer":"2220Z","klasa":"droga zbiorcza","kat":"powiatowa"},"geometry":{"type":"LineString","coordinates":[[15.48528,53.22103],[15.4854,53.22105]]}},{"type":"Feature","properties":{"numer":"2220Z","klasa":"droga zbiorcza","kat":"powiatowa"},"geometry":{"type":"LineString","coordinates":[[15.47965,53.22347],[15.48148,53.22259],[15.48435,53.22104],[15.48474,53.22096],[15.48528,53.22103]]}},{"type":"Feature","properties":{"numer":"2222Z","klasa":"droga zbiorcza","kat":"powiatowa"},"geometry":{"type":"LineString","coordinates":[[15.54199,53.25323],[15.5421,53.25312],[15.54235,53.24992],[15.54215,53.24619],[15.54188,53.2446],[15.54261,53.24384],[15.54367,53.24141],[15.5444,53.2404],[15.54962,53.23553],[15.55042,53.23467],[15.55095,53.23363],[15.55113,53.23232],[15.5511,53.23191],[15.54983,53.22967],[15.55001,53.2273],[15.54949,53.22606],[15.54777,53.21914],[15.54778,53.21729],[15.54712,53.21514],[15.54693,53.21222],[15.54711,53.2115],[15.54716,53.21047],[15.54756,53.21024],[15.54868,53.21022],[15.5492,53.21002],[15.55054,53.20896],[15.55185,53.20754],[15.55386,53.20585],[15.55644,53.20203],[15.55805,53.19991],[15.55911,53.19931],[15.56254,53.19832]]}},{"type":"Feature","properties":{"numer":"151","klasa":"droga gĹ‚Ăłwna","kat":"wojewodzka"},"geometry":{"type":"LineString","coordinates":[[15.48069,53.22419],[15.49891,53.23743],[15.50086,53.23881],[15.50166,53.23924],[15.52891,53.25001],[15.53008,53.25032],[15.5359,53.25124],[15.54158,53.25301],[15.54199,53.25323]]}},{"type":"Feature","properties":{"numer":"151","klasa":"droga gĹ‚Ăłwna","kat":"wojewodzka"},"geometry":{"type":"LineString","coordinates":[[15.54199,53.25323],[15.54207,53.25349]]}},{"type":"Feature","properties":{"numer":"","klasa":"","kat":"gminna"},"geometry":{"type":"LineString","coordinates":[[15.54207,53.25349],[15.54236,53.25351]]}},{"type":"Feature","properties":{"numer":"151","klasa":"droga gĹ‚Ăłwna","kat":"wojewodzka"},"geometry":{"type":"LineString","coordinates":[[15.54207,53.25349],[15.53993,53.25686]]}},{"type":"Feature","properties":{"numer":"151","klasa":"droga gĹ‚Ăłwna","kat":"wojewodzka"},"geometry":{"type":"LineString","coordinates":[[15.53993,53.25686],[15.53988,53.25704]]}},{"type":"Feature","properties":{"numer":"151","klasa":"droga gĹ‚Ăłwna","kat":"wojewodzka"},"geometry":{"type":"LineString","coordinates":[[15.53988,53.25704],[15.54015,53.25749],[15.54145,53.25834],[15.54154,53.25858]]}},{"type":"Feature","properties":{"numer":"","klasa":"droga lokalna","kat":"gminna"},"geometry":{"type":"LineString","coordinates":[[15.54154,53.25858],[15.54197,53.25864],[15.54221,53.25879]]}},{"type":"Feature","properties":{"numer":"2226Z","klasa":"droga zbiorcza","kat":"powiatowa"},"geometry":{"type":"LineString","coordinates":[[15.55203,53.25887],[15.55212,53.25883]]}},{"type":"Feature","properties":{"numer":"","klasa":"droga lokalna","kat":"gminna"},"geometry":{"type":"LineString","coordinates":[[15.54221,53.25879],[15.54263,53.25903]]}},{"type":"Feature","properties":{"numer":"","klasa":"droga lokalna","kat":"gminna"},"geometry":{"type":"LineString","coordinates":[[15.54263,53.25903],[15.54324,53.25921],[15.54463,53.25946]]}},{"type":"Feature","properties":{"numer":"151","klasa":"droga gĹ‚Ăłwna","kat":"wojewodzka"},"geometry":{"type":"LineString","coordinates":[[15.54154,53.25858],[15.54048,53.25938],[15.53878,53.25991]]}},{"type":"Feature","properties":{"numer":"2226Z","klasa":"droga zbiorcza","kat":"powiatowa"},"geometry":{"type":"LineString","coordinates":[[15.55116,53.26009],[15.55125,53.25935],[15.55147,53.25912],[15.55203,53.25887]]}},{"type":"Feature","properties":{"numer":"","klasa":"droga lokalna","kat":"gminna"},"geometry":{"type":"LineString","coordinates":[[15.54463,53.25946],[15.54594,53.25972]]}},{"type":"Feature","properties":{"numer":"","klasa":"droga lokalna","kat":"gminna"},"geometry":{"type":"LineString","coordinates":[[15.54594,53.25972],[15.54626,53.25977]]}},{"type":"Feature","properties":{"numer":"","klasa":"droga lokalna","kat":"gminna"},"geometry":{"type":"LineString","coordinates":[[15.54626,53.25977],[15.54715,53.25988]]}},{"type":"Feature","properties":{"numer":"","klasa":"droga lokalna","kat":"gminna"},"geometry":{"type":"LineString","coordinates":[[15.54715,53.25988],[15.54995,53.26008]]}},{"type":"Feature","properties":{"numer":"151","klasa":"droga gĹ‚Ăłwna","kat":"wojewodzka"},"geometry":{"type":"LineString","coordinates":[[15.53878,53.25991],[15.53805,53.26017]]}},{"type":"Feature","properties":{"numer":"","klasa":"droga lokalna","kat":"gminna"},"geometry":{"type":"LineString","coordinates":[[15.54995,53.26008],[15.5502,53.26012]]}},{"type":"Feature","properties":{"numer":"10","klasa":"droga gĹ‚Ăłwna ruchu przyĹ›pieszonego","kat":"krajowa"},"geometry":{"type":"LineString","coordinates":[[15.5354,53.26054],[15.53634,53.2602],[15.53691,53.26009],[15.53747,53.26007],[15.53805,53.26017]]}},{"type":"Feature","properties":{"numer":"10","klasa":"droga gĹ‚Ăłwna ruchu przyĹ›pieszonego","kat":"krajowa"},"geometry":{"type":"LineString","coordinates":[[15.53522,53.26061],[15.5354,53.26054]]}},{"type":"Feature","properties":{"numer":"","klasa":"droga lokalna","kat":"gminna"},"geometry":{"type":"LineString","coordinates":[[15.55116,53.26009],[15.55156,53.26019],[15.55178,53.26039],[15.55195,53.26127],[15.55195,53.26197]]}},{"type":"Feature","properties":{"numer":"10,151","klasa":"droga gĹ‚Ăłwna ruchu przyĹ›pieszonego","kat":"gminna"},"geometry":{"type":"LineString","coordinates":[[15.53805,53.26017],[15.5428,53.26155],[15.54697,53.26265],[15.55095,53.26384]]}},{"type":"Feature","properties":{"numer":"","klasa":"droga lokalna","kat":"gminna"},"geometry":{"type":"LineString","coordinates":[[15.55195,53.26197],[15.55194,53.26227]]}},{"type":"Feature","properties":{"numer":"","klasa":"droga lokalna","kat":"gminna"},"geometry":{"type":"LineString","coordinates":[[15.55194,53.26227],[15.55193,53.26247]]}},{"type":"Feature","properties":{"numer":"","klasa":"droga lokalna","kat":"gminna"},"geometry":{"type":"LineString","coordinates":[[15.55114,53.26357],[15.55193,53.26247]]}},{"type":"Feature","properties":{"numer":"","klasa":"droga lokalna","kat":"gminna"},"geometry":{"type":"LineString","coordinates":[[15.55114,53.26357],[15.55095,53.26384]]}},{"type":"Feature","properties":{"numer":"2203Z","klasa":"droga zbiorcza","kat":"powiatowa"},"geometry":{"type":"LineString","coordinates":[[15.50052,53.26864],[15.49686,53.26621],[15.49467,53.26456],[15.49433,53.26395],[15.49321,53.26295],[15.49236,53.26238],[15.49037,53.26018],[15.48974,53.25906]]}},{"type":"Feature","properties":{"numer":"10","klasa":"droga gĹ‚Ăłwna ruchu przyĹ›pieszonego","kat":"krajowa"},"geometry":{"type":"LineString","coordinates":[[15.50052,53.26864],[15.52891,53.26302],[15.53522,53.26061]]}},{"type":"Feature","properties":{"numer":"10,2203Z","klasa":"droga gĹ‚Ăłwna ruchu przyĹ›pieszonego","kat":"gminna"},"geometry":{"type":"LineString","coordinates":[[15.49601,53.26953],[15.50052,53.26864]]}},{"type":"Feature","properties":{"numer":"10","klasa":"droga gĹ‚Ăłwna ruchu przyĹ›pieszonego","kat":"krajowa"},"geometry":{"type":"LineString","coordinates":[[15.49601,53.26953],[15.49107,53.27051]]}},{"type":"Feature","properties":{"numer":"2203Z","klasa":"droga zbiorcza","kat":"powiatowa"},"geometry":{"type":"LineString","coordinates":[[15.49601,53.26953],[15.49523,53.27423],[15.4935,53.27691],[15.49224,53.28037],[15.49655,53.28933],[15.49651,53.2899],[15.49625,53.29067],[15.49757,53.29159],[15.49794,53.29163],[15.49896,53.29132],[15.49926,53.29131],[15.50097,53.29198],[15.50174,53.29219],[15.50289,53.29275],[15.50383,53.2931],[15.50677,53.29294],[15.50776,53.29321],[15.50828,53.29326],[15.51625,53.29355],[15.52202,53.29367],[15.5336,53.29218],[15.53985,53.2913],[15.54323,53.29071],[15.54528,53.29011],[15.54635,53.28993]]}},{"type":"Feature","properties":{"numer":"2226Z","klasa":"droga zbiorcza","kat":"powiatowa"},"geometry":{"type":"LineString","coordinates":[[15.55212,53.25883],[15.55492,53.25802],[15.55719,53.25769],[15.55903,53.25731],[15.56162,53.25654],[15.56424,53.25521],[15.56574,53.25398],[15.56864,53.25248],[15.56958,53.25216],[15.57645,53.25228],[15.57853,53.25217],[15.58142,53.25263],[15.58316,53.2528],[15.58688,53.25241],[15.58799,53.25238],[15.59115,53.25276]]}},{"type":"Feature","properties":{"numer":"2227Z","klasa":"droga zbiorcza","kat":"powiatowa"},"geometry":{"type":"LineString","coordinates":[[15.59115,53.25276],[15.61334,53.26312],[15.61579,53.26374],[15.61753,53.26396]]}},{"type":"Feature","properties":{"numer":"2227Z","klasa":"droga zbiorcza","kat":"powiatowa"},"geometry":{"type":"LineString","coordinates":[[15.61753,53.26396],[15.61847,53.26407]]}},{"type":"Feature","properties":{"numer":"10,151","klasa":"droga gĹ‚Ăłwna ruchu przyĹ›pieszonego","kat":"gminna"},"geometry":{"type":"LineString","coordinates":[[15.55095,53.26384],[15.55213,53.26422],[15.55303,53.2647],[15.55492,53.2666],[15.55573,53.26712],[15.56273,53.26993],[15.56335,53.27047],[15.56504,53.2708],[15.56628,53.27121],[15.56746,53.27144],[15.56784,53.27188],[15.56828,53.27211]]}},{"type":"Feature","properties":{"numer":"10","klasa":"droga gĹ‚Ăłwna ruchu przyĹ›pieszonego","kat":"krajowa"},"geometry":{"type":"LineString","coordinates":[[15.56828,53.27211],[15.57141,53.27366],[15.58274,53.27688],[15.58408,53.27721],[15.59599,53.27961],[15.5964,53.27985],[15.59916,53.28242],[15.60142,53.28497],[15.60183,53.28519],[15.60237,53.28529],[15.603,53.28526],[15.60359,53.2851],[15.60574,53.28417],[15.61141,53.28332],[15.62105,53.28284],[15.625,53.28353],[15.62737,53.28371],[15.658188192309623,53.280664143889375]]}},{"type":"Feature","properties":{"numer":"151","klasa":"droga gĹ‚Ăłwna","kat":"wojewodzka"},"geometry":{"type":"LineString","coordinates":[[15.55117,53.29],[15.55177,53.28907],[15.55221,53.28664],[15.55245,53.28603],[15.55285,53.28553],[15.55335,53.28515],[15.5592,53.28214],[15.56312,53.27967],[15.56565,53.27797],[15.56659,53.2772],[15.56821,53.27559],[15.56843,53.27527],[15.56847,53.27495],[15.56828,53.27211]]}},{"type":"Feature","properties":{"numer":"151","klasa":"droga gĹ‚Ăłwna","kat":"wojewodzka"},"geometry":{"type":"LineString","coordinates":[[15.5769,53.33033],[15.57575,53.32922],[15.57539,53.32847],[15.57541,53.32803],[15.57602,53.32694],[15.57595,53.32655],[15.5758,53.32644],[15.57142,53.32509],[15.57075,53.3247],[15.57055,53.32436],[15.56945,53.32078],[15.5692,53.32028],[15.56844,53.31946],[15.56576,53.31728],[15.56212,53.31208],[15.56195,53.31139],[15.56223,53.30723],[15.56214,53.30677],[15.55838,53.30234],[15.55798,53.30159],[15.55596,53.29651],[15.55467,53.29482],[15.55394,53.2934],[15.5511,53.29104],[15.5509,53.29055],[15.55117,53.29]]}},{"type":"Feature","properties":{"numer":"1765Z","klasa":"droga zbiorcza","kat":"powiatowa"},"geometry":{"type":"LineString","coordinates":[[15.57211,53.3333],[15.57341,53.33264],[15.57504,53.33167],[15.57677,53.3305],[15.5769,53.33033]]}},{"type":"Feature","properties":{"numer":"1765Z","klasa":"droga zbiorcza","kat":"powiatowa"},"geometry":{"type":"LineString","coordinates":[[15.558822682516595,53.33973229850681],[15.56453,53.33662],[15.57211,53.3333]]}},{"type":"Feature","properties":{"numer":"151","klasa":"droga gĹ‚Ăłwna","kat":"wojewodzka"},"geometry":{"type":"LineString","coordinates":[[15.584628651184252,53.343336853275915],[15.58457,53.34326],[15.5844,53.34279],[15.58469,53.34126],[15.58463,53.34061],[15.58331,53.33721],[15.58254,53.33552],[15.5769,53.33033]]}},{"type":"Feature","properties":{"numer":"151","klasa":"droga gĹ‚Ăłwna","kat":"wojewodzka"},"geometry":{"type":"LineString","coordinates":[[15.4690588356546,53.217585426183845],[15.46919,53.2176]]}},{"type":"Feature","properties":{"numer":"151","klasa":"droga gĹ‚Ăłwna","kat":"wojewodzka"},"geometry":{"type":"LineString","coordinates":[[15.46919,53.2176],[15.4713,53.2178],[15.47222,53.21812],[15.47965,53.22347]]}},{"type":"Feature","properties":{"numer":"151","klasa":"droga gĹ‚Ăłwna","kat":"wojewodzka"},"geometry":{"type":"LineString","coordinates":[[15.47965,53.22347],[15.48055,53.22409]]}},{"type":"Feature","properties":{"numer":"151","klasa":"droga gĹ‚Ăłwna","kat":"wojewodzka"},"geometry":{"type":"LineString","coordinates":[[15.48055,53.22409],[15.48069,53.22419]]}},{"type":"Feature","properties":{"numer":"10","klasa":"droga gĹ‚Ăłwna ruchu przyĹ›pieszonego","kat":"krajowa"},"geometry":{"type":"LineString","coordinates":[[15.482363831844236,53.2722239600117],[15.48959,53.2708]]}},{"type":"Feature","properties":{"numer":"2203Z","klasa":"droga zbiorcza","kat":"powiatowa"},"geometry":{"type":"LineString","coordinates":[[15.54635,53.28993],[15.54659,53.28992]]}},{"type":"Feature","properties":{"numer":"2203Z","klasa":"droga zbiorcza","kat":"powiatowa"},"geometry":{"type":"LineString","coordinates":[[15.54659,53.28992],[15.5472,53.28998],[15.54838,53.29026],[15.54915,53.2903],[15.5499,53.29029],[15.55117,53.29]]}}]}