{"type":"FeatureCollection","features":[{"type":"Feature","properties":{"numer":"4158Z","klasa":"droga zbiorcza","kat":"powiatowa"},"geometry":{"type":"LineString","coordinates":[[14.97736,53.57434],[14.977253728457969,53.57426479244718]]}},{"type":"Feature","properties":{"numer":"4162Z","klasa":"droga zbiorcza","kat":"powiatowa"},"geometry":{"type":"LineString","coordinates":[[15.09016262115438,53.564815908473854],[15.09062,53.56646],[15.09095,53.56863],[15.09134,53.57406],[15.09122,53.5747],[15.09062,53.57599],[15.08976,53.57693],[15.0874,53.57867],[15.08329,53.58096],[15.08234,53.58158],[15.08221,53.58187],[15.08215,53.58307],[15.08193,53.58356]]}},{"type":"Feature","properties":{"numer":"4161Z","klasa":"droga zbiorcza","kat":"powiatowa"},"geometry":{"type":"LineString","coordinates":[[15.105325873115719,53.58511697683823],[15.10351,53.58495],[15.09975,53.58479],[15.09379,53.58603],[15.08476,53.58729]]}},{"type":"Feature","properties":{"numer":"4161Z,4162Z","klasa":"droga zbiorcza","kat":"powiatowa"},"geometry":{"type":"LineString","coordinates":[[15.08362,53.587],[15.08314,53.58625],[15.08193,53.58356]]}},{"type":"Feature","properties":{"numer":"4161Z","klasa":"droga zbiorcza","kat":"powiatowa"},"geometry":{"type":"LineString","coordinates":[[15.08362,53.587],[15.08476,53.58729]]}},{"type":"Feature","properties":{"numer":"4162Z","klasa":"droga zbiorcza","kat":"powiatowa"},"geometry":{"type":"LineString","coordinates":[[15.08393,53.58737],[15.08362,53.587]]}},{"type":"Feature","properties":{"numer":"4183Z","klasa":"","kat":"powiatowa"},"geometry":{"type":"LineString","coordinates":[[14.97736,53.57434],[14.97551,53.57416],[14.970600904138852,53.573331839519355]]}},{"type":"Feature","properties":{"numer":"4183Z","klasa":"","kat":"powiatowa"},"geometry":{"type":"LineString","coordinates":[[14.970471914893608,53.57347936170214],[14.96874,53.57567],[14.965450085287765,53.5792227185502]]}},{"type":"Feature","properties":{"numer":"4183Z","klasa":"","kat":"powiatowa"},"geometry":{"type":"LineString","coordinates":[[14.962717500000007,53.587639999999986],[14.96259,53.58798],[14.962480422090723,53.588196272189364]]}},{"type":"Feature","properties":{"numer":"4183Z","klasa":"","kat":"powiatowa"},"geometry":{"type":"LineString","coordinates":[[14.962238113726691,53.58867451238154],[14.96183,53.58948],[14.9621,53.59384],[14.96143,53.59652],[14.96144,53.59683]]}},{"type":"Feature","properties":{"numer":"4158Z","klasa":"droga zbiorcza","kat":"powiatowa"},"geometry":{"type":"LineString","coordinates":[[15.00674,53.60284],[15.00506,53.60253],[15.0044,53.60211],[15.00433,53.60183],[15.00475,53.60073],[15.00467,53.60002],[15.00289,53.59865],[15.00112,53.59792],[14.99953,53.59699],[14.99711,53.59537],[14.99618,53.59488],[14.99407,53.59403],[14.99144,53.59356],[14.99086,53.59315],[14.98995,53.59161],[14.98904,53.58954],[14.98768,53.58759],[14.98692,53.58584],[14.98571,53.58409],[14.98468,53.58212],[14.98446,53.58197],[14.98332,53.58153],[14.98272,53.58117],[14.98135,53.57902],[14.98107,53.57883],[14.97783,53.57829],[14.97783,53.57803],[14.97901,53.57467],[14.97888,53.57457],[14.97736,53.57434]]}},{"type":"Feature","properties":{"numer":"4161Z","klasa":"droga zbiorcza","kat":"powiatowa"},"geometry":{"type":"LineString","coordinates":[[15.08193,53.58356],[15.08099,53.58334],[15.08004,53.58344],[15.07907,53.58364],[15.07739,53.58409],[15.07596,53.58469],[15.06309,53.58819],[15.05075,53.58986],[15.04666,53.59071],[15.0442,53.5914],[15.04092,53.59214],[15.03109,53.59573],[15.02503,53.59928],[15.01367,53.60336],[15.01293,53.60379],[15.0124,53.60467]]}},{"type":"Feature","properties":{"numer":"4158Z","klasa":"droga zbiorcza","kat":"powiatowa"},"geometry":{"type":"LineString","coordinates":[[15.00683,53.60289],[15.00674,53.60284]]}},{"type":"Feature","properties":{"numer":"4158Z","klasa":"droga zbiorcza","kat":"powiatowa"},"geometry":{"type":"LineString","coordinates":[[15.0124,53.60467],[15.00878,53.60404],[15.00835,53.60386],[15.00683,53.60289]]}},{"type":"Feature","properties":{"numer":"4157Z","klasa":"droga zbiorcza","kat":"powiatowa"},"geometry":{"type":"LineString","coordinates":[[14.96094,53.59807],[14.96294,53.59981],[14.96516,53.60121],[14.96758,53.60218],[14.97125,53.60388],[14.97226,53.60418],[14.97571,53.60452],[14.97941,53.60408],[14.98051,53.60413],[14.9865,53.60596],[14.98958,53.60768],[14.9928,53.60912],[14.99449,53.60965],[14.99642,53.61066],[14.99694,53.61084],[14.99783,53.61094],[14.99867,53.61079],[14.99929,53.61052],[15.00054,53.6097],[15.00106,53.60952],[15.00174,53.60941],[15.00493,53.6095],[15.01015,53.60992]]}},{"type":"Feature","properties":{"numer":"4161Z","klasa":"droga zbiorcza","kat":"powiatowa"},"geometry":{"type":"LineString","coordinates":[[15.0124,53.60467],[15.01205,53.60556]]}},{"type":"Feature","properties":{"numer":"4166Z","klasa":"","kat":"powiatowa"},"geometry":{"type":"LineString","coordinates":[[15.01205,53.60556],[15.01669,53.60666],[15.02083,53.60741]]}},{"type":"Feature","properties":{"numer":"4161Z","klasa":"droga zbiorcza","kat":"powiatowa"},"geometry":{"type":"LineString","coordinates":[[15.01205,53.60556],[15.01015,53.60992]]}},{"type":"Feature","properties":{"numer":"4166Z","klasa":"","kat":"powiatowa"},"geometry":{"type":"LineString","coordinates":[[15.02083,53.60741],[15.02209,53.60765],[15.02247,53.60779],[15.02261,53.60793],[15.0226,53.60826],[15.02276,53.60841],[15.02668,53.60828],[15.03105,53.60907],[15.03282,53.60913],[15.03417,53.60897],[15.03528,53.60807],[15.03662,53.60716],[15.03854,53.60677],[15.04135,53.60641],[15.04256,53.60638],[15.04402,53.60653],[15.04539,53.60742],[15.04593,53.60766],[15.05258758097476,53.61013953186646]]}},{"type":"Feature","properties":{"numer":"4183Z","klasa":"","kat":"powiatowa"},"geometry":{"type":"LineString","coordinates":[[14.96144,53.59683],[14.96115,53.59791],[14.96094,53.59807]]}},{"type":"Feature","properties":{"numer":"4193Z","klasa":"","kat":"powiatowa"},"geometry":{"type":"LineString","coordinates":[[14.92848,53.61569],[14.921980963962818,53.61530978428626]]}},{"type":"Feature","properties":{"numer":"4157Z","klasa":"droga zbiorcza","kat":"powiatowa"},"geometry":{"type":"LineString","coordinates":[[14.94129,53.61705],[14.94395,53.61519],[14.94587,53.61371],[14.94604,53.61335],[14.94599,53.61246],[14.94611,53.61203],[14.94654,53.61134],[14.94883,53.6097],[14.94994,53.60848],[14.95075,53.60727],[14.95129,53.60604],[14.95197,53.60489],[14.95256,53.60413],[14.95881,53.5995],[14.96094,53.59807]]}},{"type":"Feature","properties":{"numer":"4156Z","klasa":"droga zbiorcza","kat":"powiatowa"},"geometry":{"type":"LineString","coordinates":[[14.92849,53.61558],[14.92858,53.61526],[14.9289,53.61497],[14.92935,53.61481],[14.92983,53.61477],[14.93048,53.61491],[14.93111,53.61517],[14.93129,53.61538],[14.93135,53.61576]]}},{"type":"Feature","properties":{"numer":"E28,6","klasa":"droga gĹ‚Ăłwna ruchu przyĹ›pieszonego","kat":"gminna"},"geometry":{"type":"LineString","coordinates":[[14.92262,53.61565],[14.921638967530951,53.615591138051855]]}},{"type":"Feature","properties":{"numer":"4156Z","klasa":"droga zbiorcza","kat":"powiatowa"},"geometry":{"type":"LineString","coordinates":[[14.92848,53.61569],[14.92849,53.61558]]}},{"type":"Feature","properties":{"numer":"4193Z","klasa":"","kat":"powiatowa"},"geometry":{"type":"LineString","coordinates":[[14.93135,53.61576],[14.92848,53.61569]]}},{"type":"Feature","properties":{"numer":"E28,6","klasa":"droga gĹ‚Ăłwna ruchu przyĹ›pieszonego","kat":"gminna"},"geometry":{"type":"LineString","coordinates":[[14.92844,53.61592],[14.92262,53.61565]]}},{"type":"Feature","properties":{"numer":"4156Z","klasa":"droga zbiorcza","kat":"powiatowa"},"geometry":{"type":"LineString","coordinates":[[14.92844,53.61592],[14.92848,53.61569]]}},{"type":"Feature","properties":{"numer":"4156Z","klasa":"droga zbiorcza","kat":"powiatowa"},"geometry":{"type":"LineString","coordinates":[[14.92842,53.61614],[14.92844,53.61592]]}},{"type":"Feature","properties":{"numer":"4161Z","klasa":"droga zbiorcza","kat":"powiatowa"},"geometry":{"type":"LineString","coordinates":[[15.08476,53.58729],[15.08393,53.58737]]}},{"type":"Feature","properties":{"numer":"4162Z","klasa":"droga zbiorcza","kat":"powiatowa"},"geometry":{"type":"LineString","coordinates":[[15.094568909281401,53.59595654142543],[15.09445,53.59587],[15.09196,53.59314],[15.08556,53.58914],[15.0846,53.58824],[15.08393,53.58737]]}},{"type":"Feature","properties":{"numer":"4161Z","klasa":"droga zbiorcza","kat":"powiatowa"},"geometry":{"type":"LineString","coordinates":[[15.01015,53.60992],[15.00944,53.61141],[15.00785,53.61289],[15.00767,53.6132],[15.00767,53.61356],[15.00777,53.6138],[15.00813,53.61413],[15.01333,53.61818],[15.01393,53.61876],[15.01419,53.6192],[15.01432,53.62894],[15.01396,53.63278]]}},{"type":"Feature","properties":{"numer":"4193Z","klasa":"","kat":"powiatowa"},"geometry":{"type":"LineString","coordinates":[[14.99584,53.63107],[14.99509,53.6308]]}},{"type":"Feature","properties":{"numer":"4193Z","klasa":"","kat":"powiatowa"},"geometry":{"type":"LineString","coordinates":[[14.99666,53.63131],[14.99584,53.63107]]}},{"type":"Feature","properties":{"numer":"4159Z","klasa":"droga zbiorcza","kat":"powiatowa"},"geometry":{"type":"LineString","coordinates":[[14.99529,53.63141],[14.99584,53.63107]]}},{"type":"Feature","properties":{"numer":"4159Z","klasa":"droga zbiorcza","kat":"powiatowa"},"geometry":{"type":"LineString","coordinates":[[14.99479,53.63191],[14.99529,53.63141]]}},{"type":"Feature","properties":{"numer":"4159Z","klasa":"droga zbiorcza","kat":"powiatowa"},"geometry":{"type":"LineString","coordinates":[[14.9946,53.63214],[14.99479,53.63191]]}},{"type":"Feature","properties":{"numer":"4159Z","klasa":"droga zbiorcza","kat":"powiatowa"},"geometry":{"type":"LineString","coordinates":[[14.99443,53.63237],[14.9946,53.63214]]}},{"type":"Feature","properties":{"numer":"4193Z","klasa":"","kat":"powiatowa"},"geometry":{"type":"LineString","coordinates":[[15.0042,53.63364],[15.00264,53.63337],[15.0017,53.63311],[14.997,53.63149],[14.99666,53.63131]]}},{"type":"Feature","properties":{"numer":"4159Z","klasa":"droga zbiorcza","kat":"powiatowa"},"geometry":{"type":"LineString","coordinates":[[14.99409,53.63304],[14.99443,53.63237]]}},{"type":"Feature","properties":{"numer":"4161Z","klasa":"droga zbiorcza","kat":"powiatowa"},"geometry":{"type":"LineString","coordinates":[[15.01396,53.63278],[15.01393,53.63313]]}},{"type":"Feature","properties":{"numer":"E28,6","klasa":"droga gĹ‚Ăłwna ruchu przyĹ›pieszonego","kat":"gminna"},"geometry":{"type":"LineString","coordinates":[[14.99931,53.63467],[14.99728,53.63368],[14.9946,53.63214]]}},{"type":"Feature","properties":{"numer":"4193Z","klasa":"","kat":"powiatowa"},"geometry":{"type":"LineString","coordinates":[[15.01393,53.63313],[15.00708,53.63371],[15.00574,53.63374],[15.00439,53.63366]]}},{"type":"Feature","properties":{"numer":"4159Z","klasa":"droga zbiorcza","kat":"powiatowa"},"geometry":{"type":"LineString","coordinates":[[14.99391,53.63387],[14.99409,53.63304]]}},{"type":"Feature","properties":{"numer":"4193Z","klasa":"","kat":"powiatowa"},"geometry":{"type":"LineString","coordinates":[[15.00439,53.63366],[15.0042,53.63364]]}},{"type":"Feature","properties":{"numer":"E28,6","klasa":"droga gĹ‚Ăłwna ruchu przyĹ›pieszonego","kat":"gminna"},"geometry":{"type":"LineString","coordinates":[[15.00095,53.63536],[14.99931,53.63467]]}},{"type":"Feature","properties":{"numer":"4193Z","klasa":"","kat":"powiatowa"},"geometry":{"type":"LineString","coordinates":[[15.04428,53.64019],[15.04372,53.63948],[15.043,53.63909],[15.02721,53.63436],[15.02566,53.63397],[15.02254,53.63337],[15.0204,53.63307],[15.0186,53.633],[15.01393,53.63313]]}},{"type":"Feature","properties":{"numer":"E28,6","klasa":"droga gĹ‚Ăłwna ruchu przyĹ›pieszonego","kat":"gminna"},"geometry":{"type":"LineString","coordinates":[[15.03946,53.63988],[15.01653,53.63838],[15.01174,53.63799],[15.00896,53.63758],[15.00625,53.63701],[15.00382,53.63635],[15.00095,53.63536]]}},{"type":"Feature","properties":{"numer":"E28,6","klasa":"droga gĹ‚Ăłwna ruchu przyĹ›pieszonego","kat":"gminna"},"geometry":{"type":"LineString","coordinates":[[15.04,53.63991],[15.03946,53.63988]]}},{"type":"Feature","properties":{"numer":"E28,6","klasa":"droga gĹ‚Ăłwna ruchu przyĹ›pieszonego","kat":"gminna"},"geometry":{"type":"LineString","coordinates":[[15.04401,53.64018],[15.04,53.63991]]}},{"type":"Feature","properties":{"numer":"E28,6","klasa":"droga gĹ‚Ăłwna ruchu przyĹ›pieszonego","kat":"gminna"},"geometry":{"type":"LineString","coordinates":[[15.04428,53.64019],[15.04401,53.64018]]}},{"type":"Feature","properties":{"numer":"4193Z","klasa":"","kat":"powiatowa"},"geometry":{"type":"LineString","coordinates":[[15.048200005570171,53.64087143339007],[15.04541,53.6409],[15.04481,53.6407],[15.04428,53.64019]]}},{"type":"Feature","properties":{"numer":"E28,6","klasa":"droga gĹ‚Ăłwna ruchu przyĹ›pieszonego","kat":"gminna"},"geometry":{"type":"LineString","coordinates":[[15.055714575273338,53.64107409587889],[15.05533,53.64101],[15.05208,53.6407],[15.04445,53.6402]]}},{"type":"Feature","properties":{"numer":"4193Z","klasa":"","kat":"powiatowa"},"geometry":{"type":"LineString","coordinates":[[14.94129,53.61705],[14.93488,53.61601],[14.9333,53.61585],[14.93135,53.61576]]}},{"type":"Feature","properties":{"numer":"4193Z","klasa":"","kat":"powiatowa"},"geometry":{"type":"LineString","coordinates":[[14.99509,53.6308],[14.97397,53.62274],[14.97268,53.62234],[14.97117,53.622],[14.94129,53.61705]]}},{"type":"Feature","properties":{"numer":"E28,6","klasa":"droga gĹ‚Ăłwna ruchu przyĹ›pieszonego","kat":"gminna"},"geometry":{"type":"LineString","coordinates":[[14.9946,53.63214],[14.99123,53.63017],[14.98731,53.62825],[14.97594,53.62386],[14.97328,53.62299],[14.97182,53.62259],[14.9674,53.6217],[14.93704,53.61667],[14.93275,53.61617],[14.92844,53.61592]]}},{"type":"Feature","properties":{"numer":"4156Z","klasa":"droga zbiorcza","kat":"powiatowa"},"geometry":{"type":"LineString","coordinates":[[14.93568,53.64423],[14.936,53.64335],[14.93585,53.64298],[14.93243,53.64091],[14.93059,53.63944],[14.9293,53.63798],[14.92882,53.6371],[14.9276,53.63635],[14.92618,53.63482],[14.92476,53.63304],[14.92432,53.63231],[14.92487,53.62812],[14.92777,53.62129],[14.92842,53.61614]]}},{"type":"Feature","properties":{"numer":"4156Z","klasa":"droga zbiorcza","kat":"powiatowa"},"geometry":{"type":"LineString","coordinates":[[14.9357,53.6443],[14.93568,53.64423]]}},{"type":"Feature","properties":{"numer":"4156Z","klasa":"droga zbiorcza","kat":"powiatowa"},"geometry":{"type":"LineString","coordinates":[[14.97547,53.65436],[14.97429,53.65446],[14.97322,53.65446],[14.9661,53.65403],[14.96505,53.65391],[14.96051,53.65256],[14.95703,53.65119],[14.95071,53.64936],[14.94788,53.64859],[14.94585,53.64839],[14.94471,53.64813],[14.9416,53.647],[14.93599,53.64469],[14.93577,53.6445],[14.9357,53.6443]]}},{"type":"Feature","properties":{"numer":"E28,6","klasa":"droga gĹ‚Ăłwna ruchu przyĹ›pieszonego","kat":"gminna"},"geometry":{"type":"LineString","coordinates":[[15.04445,53.6402],[15.04428,53.64019]]}},{"type":"Feature","properties":{"numer":"4159Z","klasa":"droga zbiorcza","kat":"powiatowa"},"geometry":{"type":"LineString","coordinates":[[14.98207,53.65094],[14.98174,53.64886],[14.98208,53.64774],[14.98249,53.64672],[14.98394,53.64499],[14.98428,53.64441],[14.98464,53.64225],[14.98479,53.64196],[14.98503,53.64162],[14.98613,53.64068],[14.98872,53.63859],[14.99254,53.63574],[14.99367,53.63441],[14.99391,53.63387]]}},{"type":"Feature","properties":{"numer":"4159Z","klasa":"droga zbiorcza","kat":"powiatowa"},"geometry":{"type":"LineString","coordinates":[[14.9821,53.65109],[14.98207,53.65094]]}},{"type":"Feature","properties":{"numer":"4159Z","klasa":"droga zbiorcza","kat":"powiatowa"},"geometry":{"type":"LineString","coordinates":[[14.97547,53.65436],[14.97749,53.65386],[14.97887,53.65338],[14.98189,53.65171],[14.9821,53.65142],[14.9821,53.65109]]}},{"type":"Feature","properties":{"numer":"4163Z","klasa":"droga zbiorcza","kat":"powiatowa"},"geometry":{"type":"LineString","coordinates":[[15.050453329649955,53.64469626513113],[15.03478,53.65183],[15.034,53.65276],[15.03372,53.65336],[15.03158,53.65295],[15.02829,53.65267],[15.02593,53.65205],[15.02407,53.65191],[15.02301,53.65197],[15.01821,53.65372],[15.01726,53.65416],[15.01563,53.65546],[15.01447,53.65661],[15.01396,53.65686],[15.01279,53.65713],[15.01044,53.6587],[15.01002,53.6591],[15.00912,53.66045],[15.00873,53.66075],[15.00814,53.66101],[15.00339,53.66259],[15.00015,53.66341],[14.99831,53.66344],[14.99394,53.66271]]}},{"type":"Feature","properties":{"numer":"4159Z","klasa":"droga zbiorcza","kat":"powiatowa"},"geometry":{"type":"LineString","coordinates":[[14.97706,53.66039],[14.9762,53.65812],[14.97547,53.65436]]}},{"type":"Feature","properties":{"numer":"4163Z","klasa":"droga zbiorcza","kat":"powiatowa"},"geometry":{"type":"LineString","coordinates":[[14.99394,53.66271],[14.98262,53.66053],[14.9803,53.66046],[14.97758,53.66049],[14.97706,53.66039]]}},{"type":"Feature","properties":{"numer":"4164Z","klasa":"droga zbiorcza","kat":"powiatowa"},"geometry":{"type":"LineString","coordinates":[[14.99394,53.66271],[14.99438,53.66307],[14.995080335346406,53.66425289857096]]}},{"type":"Feature","properties":{"numer":"4159Z","klasa":"droga zbiorcza","kat":"powiatowa"},"geometry":{"type":"LineString","coordinates":[[14.973821386838923,53.672648864509846],[14.97524,53.66986],[14.97604,53.66776],[14.97738,53.66292],[14.97728,53.66092],[14.97706,53.66039]]}}]}