{"type":"FeatureCollection","features":[{"type":"Feature","properties":{"numer":"111","klasa":"droga zbiorcza","kat":"wojewodzka"},"geometry":{"type":"LineString","coordinates":[[14.64853,53.65104],[14.64962,53.65085],[14.65038,53.65061],[14.65154,53.64994],[14.66063,53.64133],[14.66105,53.64059],[14.66116,53.63992],[14.66094,53.63607],[14.66132,53.63525],[14.6621,53.63454],[14.66339,53.63395],[14.68472,53.62545],[14.68571,53.62511],[14.68683,53.62492]]}},{"type":"Feature","properties":{"numer":"111","klasa":"droga zbiorcza","kat":"wojewodzka"},"geometry":{"type":"LineString","coordinates":[[14.64786,53.65114],[14.64853,53.65104]]}},{"type":"Feature","properties":{"numer":"111","klasa":"droga zbiorcza","kat":"wojewodzka"},"geometry":{"type":"LineString","coordinates":[[14.68683,53.62492],[14.68772,53.62489],[14.68858,53.62497],[14.71177,53.62895],[14.71289,53.6291],[14.71437,53.62915],[14.71581,53.62902],[14.71663,53.62884],[14.71758,53.62851],[14.71903,53.62783],[14.72097,53.62667],[14.72146,53.62628],[14.72462,53.62341],[14.72528,53.62303],[14.72608447466181,53.622736701946216]]}},{"type":"Feature","properties":{"numer":"E65,3","klasa":"droga gĹ‚Ăłwna ruchu przyĹ›pieszonego","kat":"gminna"},"geometry":{"type":"LineString","coordinates":[[14.81557,53.65704],[14.815615588345402,53.6565924744093]]}},{"type":"Feature","properties":{"numer":"E65,3,S3","klasa":"droga ekspresowa","kat":"krajowa"},"geometry":{"type":"LineString","coordinates":[[14.81482,53.65864],[14.815057784035472,53.65623495553952]]}},{"type":"Feature","properties":{"numer":"4123Z","klasa":"droga zbiorcza","kat":"powiatowa"},"geometry":{"type":"LineString","coordinates":[[14.74772,53.66414],[14.74901,53.66313],[14.7519,53.65823],[14.75414,53.65595],[14.75538,53.65442],[14.75682,53.6523],[14.75838,53.65048],[14.76111,53.64745],[14.76447,53.64484],[14.767413759327294,53.643479847175506]]}},{"type":"Feature","properties":{"numer":"4124Z","klasa":"droga zbiorcza","kat":"powiatowa"},"geometry":{"type":"LineString","coordinates":[[14.81557,53.65704],[14.816384414012733,53.65708524522292]]}},{"type":"Feature","properties":{"numer":"4124Z","klasa":"droga zbiorcza","kat":"powiatowa"},"geometry":{"type":"LineString","coordinates":[[14.817527821080605,53.657818100088576],[14.81756,53.65792],[14.81735,53.65831],[14.81691,53.65857],[14.81645,53.65867],[14.8154,53.65867]]}},{"type":"Feature","properties":{"numer":"E65,3","klasa":"droga gĹ‚Ăłwna ruchu przyĹ›pieszonego","kat":"gminna"},"geometry":{"type":"LineString","coordinates":[[14.8154,53.65867],[14.81557,53.65704]]}},{"type":"Feature","properties":{"numer":"4124Z","klasa":"droga zbiorcza","kat":"powiatowa"},"geometry":{"type":"LineString","coordinates":[[14.8154,53.65867],[14.81482,53.65864]]}},{"type":"Feature","properties":{"numer":"4124Z","klasa":"droga zbiorcza","kat":"powiatowa"},"geometry":{"type":"LineString","coordinates":[[14.66074,53.65734],[14.66298,53.65759],[14.66388,53.65748],[14.66563,53.65707],[14.66636,53.65682],[14.67027,53.65496],[14.67912,53.65435],[14.68067,53.65464],[14.68458,53.65605],[14.68577,53.65667],[14.68701,53.65765],[14.68758,53.65788],[14.68974,53.65812],[14.69169,53.65793],[14.69251,53.65797],[14.69463,53.6585],[14.69741,53.65883],[14.70034,53.65908],[14.70299,53.65958],[14.70542,53.65983],[14.70882,53.66117],[14.71251,53.66146],[14.7164,53.66148],[14.7261,53.66225],[14.72933,53.66277],[14.73588,53.66343],[14.74241,53.66441],[14.74441,53.66442],[14.74716,53.6642]]}},{"type":"Feature","properties":{"numer":"4124Z","klasa":"droga zbiorcza","kat":"powiatowa"},"geometry":{"type":"LineString","coordinates":[[14.81482,53.65864],[14.81274,53.6586],[14.80792,53.65883],[14.80289,53.65947],[14.7928,53.66054],[14.79104,53.66087],[14.78716,53.66134],[14.77854,53.66189],[14.7665,53.66224],[14.76554,53.66239],[14.76234,53.66451],[14.75964,53.66498],[14.75672,53.66538],[14.75585,53.66534],[14.7521,53.66469],[14.74819,53.66427]]}},{"type":"Feature","properties":{"numer":"4124Z","klasa":"droga zbiorcza","kat":"powiatowa"},"geometry":{"type":"LineString","coordinates":[[14.74716,53.6642],[14.74772,53.66414]]}},{"type":"Feature","properties":{"numer":"4124Z","klasa":"droga zbiorcza","kat":"powiatowa"},"geometry":{"type":"LineString","coordinates":[[14.74772,53.66414],[14.74819,53.66427]]}},{"type":"Feature","properties":{"numer":"4123Z","klasa":"droga zbiorcza","kat":"powiatowa"},"geometry":{"type":"LineString","coordinates":[[14.74749,53.66433],[14.74772,53.66414]]}},{"type":"Feature","properties":{"numer":"4124Z","klasa":"droga zbiorcza","kat":"powiatowa"},"geometry":{"type":"LineString","coordinates":[[14.74716,53.6642],[14.74749,53.66433]]}},{"type":"Feature","properties":{"numer":"111","klasa":"droga zbiorcza","kat":"wojewodzka"},"geometry":{"type":"LineString","coordinates":[[14.64728,53.65116],[14.64786,53.65114]]}},{"type":"Feature","properties":{"numer":"111","klasa":"droga zbiorcza","kat":"wojewodzka"},"geometry":{"type":"LineString","coordinates":[[14.64635,53.65125],[14.64728,53.65116]]}},{"type":"Feature","properties":{"numer":"4125Z","klasa":"droga zbiorcza","kat":"powiatowa"},"geometry":{"type":"LineString","coordinates":[[14.64786,53.65114],[14.64812,53.65141]]}},{"type":"Feature","properties":{"numer":"111","klasa":"droga zbiorcza","kat":"wojewodzka"},"geometry":{"type":"LineString","coordinates":[[14.63909,53.65235],[14.64047,53.6522],[14.64318,53.65232],[14.64376,53.65217],[14.64559,53.65139],[14.64635,53.65125]]}},{"type":"Feature","properties":{"numer":"4125Z","klasa":"droga zbiorcza","kat":"powiatowa"},"geometry":{"type":"LineString","coordinates":[[14.65938,53.6571],[14.65858,53.65669],[14.65127,53.65373],[14.64812,53.65141]]}},{"type":"Feature","properties":{"numer":"111","klasa":"droga zbiorcza","kat":"wojewodzka"},"geometry":{"type":"LineString","coordinates":[[14.6183,53.65895],[14.61842,53.65851],[14.61816,53.65761],[14.61818,53.65733],[14.62108,53.65543],[14.6212,53.65472],[14.62198,53.65364],[14.62219,53.65307],[14.62285,53.65289],[14.62476,53.65184],[14.62605,53.65181],[14.62766,53.65227],[14.62884,53.6525],[14.63042,53.65291],[14.63509,53.65284],[14.63909,53.65235]]}},{"type":"Feature","properties":{"numer":"4124Z","klasa":"droga zbiorcza","kat":"powiatowa"},"geometry":{"type":"LineString","coordinates":[[14.65938,53.6571],[14.66074,53.65734]]}},{"type":"Feature","properties":{"numer":"4125Z","klasa":"droga zbiorcza","kat":"powiatowa"},"geometry":{"type":"LineString","coordinates":[[14.66007,53.65772],[14.65938,53.6571]]}},{"type":"Feature","properties":{"numer":"4124Z","klasa":"droga zbiorcza","kat":"powiatowa"},"geometry":{"type":"LineString","coordinates":[[14.66074,53.65734],[14.66007,53.65772]]}},{"type":"Feature","properties":{"numer":"4128Z","klasa":"droga zbiorcza","kat":"powiatowa"},"geometry":{"type":"LineString","coordinates":[[14.61345,53.65925],[14.61525,53.65899],[14.61647,53.65904],[14.6183,53.65895]]}},{"type":"Feature","properties":{"numer":"4124Z","klasa":"droga zbiorcza","kat":"powiatowa"},"geometry":{"type":"LineString","coordinates":[[14.74819,53.66427],[14.74749,53.66433]]}},{"type":"Feature","properties":{"numer":"4123Z","klasa":"droga zbiorcza","kat":"powiatowa"},"geometry":{"type":"LineString","coordinates":[[14.7454,53.66647],[14.74661,53.66573],[14.74749,53.66433]]}},{"type":"Feature","properties":{"numer":"4123Z","klasa":"droga zbiorcza","kat":"powiatowa"},"geometry":{"type":"LineString","coordinates":[[14.74521,53.66658],[14.7454,53.66647]]}},{"type":"Feature","properties":{"numer":"4123Z","klasa":"droga zbiorcza","kat":"powiatowa"},"geometry":{"type":"LineString","coordinates":[[14.74271,53.66841],[14.74335,53.66818],[14.7443,53.66765],[14.74446,53.66752],[14.74454,53.66699],[14.74521,53.66658]]}},{"type":"Feature","properties":{"numer":"E65,3,S3","klasa":"droga ekspresowa","kat":"krajowa"},"geometry":{"type":"LineString","coordinates":[[14.813910489053146,53.668066958057246],[14.81482,53.65864]]}},{"type":"Feature","properties":{"numer":"E65,3","klasa":"droga gĹ‚Ăłwna ruchu przyĹ›pieszonego","kat":"gminna"},"geometry":{"type":"LineString","coordinates":[[14.814468127110526,53.66789366545658],[14.81448,53.66778],[14.81438,53.66618],[14.81477,53.66488],[14.8154,53.65867]]}},{"type":"Feature","properties":{"numer":"4126Z","klasa":"","kat":"powiatowa"},"geometry":{"type":"LineString","coordinates":[[14.74271,53.66841],[14.74285,53.66875],[14.74305,53.66888],[14.74336,53.669],[14.7443,53.66916]]}},{"type":"Feature","properties":{"numer":"4126Z","klasa":"","kat":"powiatowa"},"geometry":{"type":"LineString","coordinates":[[14.7443,53.66916],[14.74577,53.66945],[14.74685,53.66999],[14.74718,53.67021],[14.74793,53.67131],[14.74899,53.6755],[14.74895,53.67614],[14.7493,53.6787]]}},{"type":"Feature","properties":{"numer":"4128Z","klasa":"droga zbiorcza","kat":"powiatowa"},"geometry":{"type":"LineString","coordinates":[[14.61345,53.65925],[14.61338,53.65928]]}},{"type":"Feature","properties":{"numer":"111","klasa":"droga zbiorcza","kat":"wojewodzka"},"geometry":{"type":"LineString","coordinates":[[14.6183,53.65895],[14.61944,53.65939],[14.62352,53.66289],[14.624,53.6642],[14.62406,53.66569]]}},{"type":"Feature","properties":{"numer":"111","klasa":"droga zbiorcza","kat":"wojewodzka"},"geometry":{"type":"LineString","coordinates":[[14.62406,53.66569],[14.62406,53.66575]]}},{"type":"Feature","properties":{"numer":"4125Z","klasa":"droga zbiorcza","kat":"powiatowa"},"geometry":{"type":"LineString","coordinates":[[14.66976,53.67407],[14.66284,53.66197],[14.66007,53.65772]]}},{"type":"Feature","properties":{"numer":"4128Z","klasa":"droga zbiorcza","kat":"powiatowa"},"geometry":{"type":"LineString","coordinates":[[14.61338,53.65928],[14.61082,53.66046],[14.60906,53.66155],[14.60873,53.66157],[14.60679,53.66136],[14.6031,53.66152],[14.6012,53.66207],[14.60058,53.66237],[14.5998,53.66291],[14.59924,53.66315],[14.59865,53.66324],[14.59673,53.6633],[14.59616,53.66347],[14.59534,53.66381],[14.595,53.66407],[14.59392,53.66563],[14.59256,53.66635],[14.59073,53.66765],[14.58912,53.66837],[14.58832,53.66856],[14.58742,53.6686],[14.58307,53.66832],[14.57916,53.66867],[14.57831,53.6689],[14.57628,53.66968],[14.57482,53.67],[14.57267,53.67102],[14.57205,53.67167],[14.57149,53.67203],[14.56968,53.67355],[14.56762,53.67439],[14.56571,53.67461]]}},{"type":"Feature","properties":{"numer":"111","klasa":"droga zbiorcza","kat":"wojewodzka"},"geometry":{"type":"LineString","coordinates":[[14.62406,53.66575],[14.62456,53.66882],[14.62595,53.6711],[14.62651,53.67404],[14.6281,53.67806],[14.62875,53.67892]]}},{"type":"Feature","properties":{"numer":"4125Z","klasa":"droga zbiorcza","kat":"powiatowa"},"geometry":{"type":"LineString","coordinates":[[14.66982,53.67417],[14.66976,53.67407]]}},{"type":"Feature","properties":{"numer":"4128Z","klasa":"droga zbiorcza","kat":"powiatowa"},"geometry":{"type":"LineString","coordinates":[[14.56571,53.67461],[14.56561,53.67462]]}},{"type":"Feature","properties":{"numer":"111","klasa":"droga zbiorcza","kat":"wojewodzka"},"geometry":{"type":"LineString","coordinates":[[14.6288,53.67898],[14.62875,53.67892]]}},{"type":"Feature","properties":{"numer":"4125Z","klasa":"droga zbiorcza","kat":"powiatowa"},"geometry":{"type":"LineString","coordinates":[[14.68361,53.69387],[14.68309,53.69369],[14.68167,53.69291],[14.68113,53.69252],[14.68026,53.69145],[14.67764,53.68715],[14.67439,53.68129],[14.67262,53.67897],[14.66982,53.67417]]}},{"type":"Feature","properties":{"numer":"4123Z","klasa":"droga zbiorcza","kat":"powiatowa"},"geometry":{"type":"LineString","coordinates":[[14.68361,53.69387],[14.68749,53.69255],[14.69008,53.69152],[14.69493,53.69032],[14.69551,53.69012],[14.69732,53.68894],[14.6987,53.68749],[14.70072,53.68645],[14.70279,53.68486],[14.70404,53.68419],[14.70472,53.68392],[14.70765,53.68304],[14.71081,53.68191],[14.71453,53.6811],[14.715,53.68089],[14.71615,53.68011],[14.71815,53.67969],[14.72047,53.67836],[14.72279,53.67656],[14.72605,53.67518],[14.72899,53.67406],[14.73248,53.67219],[14.73389,53.67156],[14.735,53.67095],[14.73948,53.66924],[14.74271,53.66841]]}},{"type":"Feature","properties":{"numer":"4126Z","klasa":"","kat":"powiatowa"},"geometry":{"type":"LineString","coordinates":[[14.7493,53.6787],[14.74946,53.67955],[14.75059,53.68255],[14.75142,53.68425],[14.75163,53.68503],[14.75173,53.68698],[14.751216421855142,53.68901747395173]]}},{"type":"Feature","properties":{"numer":"4126Z","klasa":"","kat":"powiatowa"},"geometry":{"type":"LineString","coordinates":[[14.752686867268478,53.692706393625336],[14.7528,53.693],[14.753773226151587,53.694936621735984]]}},{"type":"Feature","properties":{"numer":"4125Z","klasa":"droga zbiorcza","kat":"powiatowa"},"geometry":{"type":"LineString","coordinates":[[14.68361,53.69387],[14.68499,53.69426],[14.71442,53.69931],[14.71553,53.69956],[14.71618,53.69981],[14.71659,53.7001],[14.721,53.70452],[14.72164,53.70494],[14.72241,53.7052],[14.73515,53.70636],[14.736128976575142,53.70654027683777]]}},{"type":"Feature","properties":{"numer":"111","klasa":"droga zbiorcza","kat":"wojewodzka"},"geometry":{"type":"LineString","coordinates":[[14.6288,53.67898],[14.63127,53.6817],[14.63187,53.68324],[14.63259,53.68412],[14.63321,53.68462],[14.63738,53.68716],[14.63918,53.68786],[14.64314,53.6883],[14.6443,53.68834],[14.64824,53.68826],[14.65281,53.68857],[14.65401,53.68877],[14.65659,53.68895],[14.65761,53.68912],[14.66173,53.69061],[14.66242,53.69098],[14.66814,53.69575],[14.6686,53.69653],[14.66897,53.69782]]}},{"type":"Feature","properties":{"numer":"4123Z","klasa":"droga zbiorcza","kat":"powiatowa"},"geometry":{"type":"LineString","coordinates":[[14.66897,53.69782],[14.67055,53.6976],[14.67292,53.69697],[14.67461,53.697],[14.676,53.69684],[14.67699,53.69665],[14.67848,53.69603],[14.67995,53.69573],[14.68361,53.69387]]}},{"type":"Feature","properties":{"numer":"4128Z","klasa":"droga zbiorcza","kat":"powiatowa"},"geometry":{"type":"LineString","coordinates":[[14.56561,53.67462],[14.55876,53.67574],[14.55544,53.67578],[14.54942,53.67655],[14.54885,53.67668],[14.5484,53.67688],[14.54807,53.67714],[14.54783,53.67756],[14.5481,53.67902],[14.54951,53.68332],[14.54945,53.68441],[14.54967,53.6867],[14.54725,53.69312],[14.54724,53.69381],[14.54746,53.69538],[14.54654,53.69651],[14.54647,53.69685],[14.54662,53.69722],[14.54739,53.69807],[14.54784,53.69914],[14.54995,53.70023],[14.55025,53.70046],[14.55076,53.701],[14.55131,53.70203],[14.55102,53.70402],[14.55144,53.70861],[14.55258,53.71284],[14.55285,53.71329],[14.55417,53.71474],[14.55457,53.71576],[14.55507,53.71975],[14.555,53.72025],[14.55437,53.72163],[14.55438,53.72316],[14.55511,53.72469],[14.5582,53.72904]]}},{"type":"Feature","properties":{"numer":"4128Z","klasa":"droga zbiorcza","kat":"powiatowa"},"geometry":{"type":"LineString","coordinates":[[14.5582,53.72904],[14.55823,53.7291]]}},{"type":"Feature","properties":{"numer":"111","klasa":"droga zbiorcza","kat":"wojewodzka"},"geometry":{"type":"LineString","coordinates":[[14.66897,53.69782],[14.66875,53.70074],[14.66891,53.70279],[14.66725,53.7087],[14.66746,53.71062],[14.66833,53.71194],[14.66851,53.71238],[14.6684,53.71274],[14.66746,53.71407],[14.66723,53.7148],[14.66727,53.7153],[14.66785,53.71685],[14.66773,53.72151],[14.66669,53.72404],[14.66613,53.7251],[14.66435,53.72708],[14.66301,53.72956],[14.66107,53.73624],[14.66054,53.73734],[14.65933,53.73875],[14.65752,53.74112],[14.65674,53.74375],[14.65606,53.74502],[14.6559,53.74825],[14.65602,53.74884],[14.65792,53.75126],[14.65922,53.75265],[14.66056,53.75339],[14.66104,53.75391],[14.66117,53.75703],[14.66043,53.7601],[14.65997,53.76368]]}},{"type":"Feature","properties":{"numer":"4128Z","klasa":"droga zbiorcza","kat":"powiatowa"},"geometry":{"type":"LineString","coordinates":[[14.55823,53.7291],[14.56287,53.74331],[14.56416,53.74461],[14.56814,53.74726],[14.56933,53.74897],[14.56959,53.75012]]}},{"type":"Feature","properties":{"numer":"4128Z","klasa":"droga zbiorcza","kat":"powiatowa"},"geometry":{"type":"LineString","coordinates":[[14.56959,53.75012],[14.57019,53.75225]]}},{"type":"Feature","properties":{"numer":"111","klasa":"droga zbiorcza","kat":"wojewodzka"},"geometry":{"type":"LineString","coordinates":[[14.659470570097165,53.76755557604601],[14.65997,53.76368]]}},{"type":"Feature","properties":{"numer":"4269Z","klasa":"droga gĹ‚Ăłwna","kat":"powiatowa"},"geometry":{"type":"LineString","coordinates":[[14.66021868863308,53.763638504525225],[14.65997,53.76368]]}}]}