{"type":"FeatureCollection","features":[{"type":"Feature","properties":{"numer":"1428Z","klasa":"","kat":"powiatowa"},"geometry":{"type":"LineString","coordinates":[[14.36817,52.82947],[14.36978,52.82479],[14.37074,52.82378],[14.37233,52.82245],[14.37272,52.82183],[14.37284,52.82092],[14.37277,52.82034],[14.37218,52.81933],[14.37109,52.81849],[14.36606,52.81599],[14.36529,52.81526],[14.36484,52.8142],[14.36061,52.81129],[14.359099275466287,52.81035805954089]]}},{"type":"Feature","properties":{"numer":"1424Z","klasa":"","kat":"powiatowa"},"geometry":{"type":"LineString","coordinates":[[14.43103,52.8221],[14.43499,52.81982],[14.44464,52.8148],[14.45187,52.80798],[14.45582,52.80499],[14.45889,52.80184],[14.46092,52.80073],[14.463263158822029,52.79923979020524]]}},{"type":"Feature","properties":{"numer":"1409Z","klasa":"","kat":"powiatowa"},"geometry":{"type":"LineString","coordinates":[[14.36817,52.82947],[14.36122,52.82562],[14.351212552993,52.82029983548442]]}},{"type":"Feature","properties":{"numer":"125","klasa":"droga gĹ‚Ăłwna","kat":"wojewodzka"},"geometry":{"type":"LineString","coordinates":[[14.43103,52.8221],[14.43401,52.82217],[14.43475,52.82241],[14.43841,52.824],[14.43906,52.82411],[14.44475,52.82304],[14.44535,52.82302],[14.44604,52.82312],[14.44697,52.82357],[14.45102,52.82646],[14.45303,52.82765],[14.45397,52.82837],[14.45418,52.82846],[14.45455,52.82844]]}},{"type":"Feature","properties":{"numer":"125","klasa":"droga gĹ‚Ăłwna","kat":"wojewodzka"},"geometry":{"type":"LineString","coordinates":[[14.45455,52.82844],[14.45583,52.82779],[14.45671,52.82748],[14.45996,52.82667],[14.46126,52.82626],[14.46179,52.82592],[14.46296,52.82453],[14.4634,52.82421],[14.46423,52.82383],[14.46544,52.82363],[14.46793,52.82354],[14.47988,52.82362],[14.492281512915087,52.82457030750307]]}},{"type":"Feature","properties":{"numer":"440029Z","klasa":"droga lokalna","kat":"powiatowa"},"geometry":{"type":"LineString","coordinates":[[14.45384,52.82884],[14.45455,52.82844]]}},{"type":"Feature","properties":{"numer":"440029Z","klasa":"droga lokalna","kat":"powiatowa"},"geometry":{"type":"LineString","coordinates":[[14.45385,52.82905],[14.45384,52.82884]]}},{"type":"Feature","properties":{"numer":"125","klasa":"droga gĹ‚Ăłwna","kat":"wojewodzka"},"geometry":{"type":"LineString","coordinates":[[14.39694,52.84839],[14.3983,52.84585],[14.40008,52.84433],[14.40329,52.84118],[14.40531,52.83942],[14.40817,52.83768],[14.40909,52.83703],[14.41385,52.83362],[14.41611,52.83178],[14.42096,52.82878],[14.42505,52.82642],[14.42912,52.82321],[14.43103,52.8221]]}},{"type":"Feature","properties":{"numer":"1409Z","klasa":"","kat":"powiatowa"},"geometry":{"type":"LineString","coordinates":[[14.36817,52.82947],[14.3777,52.83456],[14.37916,52.83558],[14.38021,52.83662],[14.38777,52.84503],[14.39176,52.84865]]}},{"type":"Feature","properties":{"numer":"1411Z","klasa":"","kat":"powiatowa"},"geometry":{"type":"LineString","coordinates":[[14.42229,52.85255],[14.42253,52.85238],[14.42344,52.85107],[14.42402,52.84884],[14.42487,52.84712],[14.42624,52.84575],[14.42874,52.84248],[14.43062,52.83992],[14.43119,52.83873],[14.43213,52.83799],[14.43278,52.83733],[14.433,52.83718],[14.43373,52.83695],[14.43789,52.83601],[14.44008,52.83562],[14.4442,52.83474],[14.44524,52.83416],[14.44991,52.83025],[14.45385,52.82905]]}},{"type":"Feature","properties":{"numer":"1410Z","klasa":"","kat":"powiatowa"},"geometry":{"type":"LineString","coordinates":[[14.35076,52.84053],[14.35428,52.84171],[14.36005,52.84275]]}},{"type":"Feature","properties":{"numer":"1413Z","klasa":"","kat":"powiatowa"},"geometry":{"type":"LineString","coordinates":[[14.492617967183248,52.84404102096627],[14.492649262093863,52.84404320433213]]}},{"type":"Feature","properties":{"numer":"1410Z","klasa":"","kat":"powiatowa"},"geometry":{"type":"LineString","coordinates":[[14.36005,52.84275],[14.36798,52.84413],[14.38307,52.84661],[14.38548,52.84711],[14.3869,52.84765],[14.38976,52.84853],[14.39068,52.84864],[14.39176,52.84865]]}},{"type":"Feature","properties":{"numer":"125,1409Z","klasa":"droga gĹ‚Ăłwna","kat":"gminna"},"geometry":{"type":"LineString","coordinates":[[14.39694,52.84839],[14.39687,52.84866]]}},{"type":"Feature","properties":{"numer":"125,1409Z","klasa":"droga gĹ‚Ăłwna","kat":"gminna"},"geometry":{"type":"LineString","coordinates":[[14.39687,52.84866],[14.39635,52.85126],[14.39612,52.8518]]}},{"type":"Feature","properties":{"numer":"1409Z","klasa":"","kat":"powiatowa"},"geometry":{"type":"LineString","coordinates":[[14.42229,52.85255],[14.4188,52.85346],[14.41807,52.85358],[14.41219,52.85077],[14.40922,52.85036],[14.4059,52.84942],[14.402,52.84854],[14.40064,52.84783],[14.39987,52.84718],[14.39967,52.84711],[14.39922,52.8471],[14.39852,52.84729],[14.39786,52.84787],[14.39694,52.84839]]}},{"type":"Feature","properties":{"numer":"1409Z","klasa":"","kat":"powiatowa"},"geometry":{"type":"LineString","coordinates":[[14.39176,52.84865],[14.39263,52.84957],[14.39391,52.85128],[14.39515,52.85245],[14.39541,52.85259]]}},{"type":"Feature","properties":{"numer":"125,1409Z","klasa":"droga gĹ‚Ăłwna","kat":"gminna"},"geometry":{"type":"LineString","coordinates":[[14.39612,52.8518],[14.39541,52.85259]]}},{"type":"Feature","properties":{"numer":"31","klasa":"droga gĹ‚Ăłwna","kat":"krajowa"},"geometry":{"type":"LineString","coordinates":[[14.47492,52.86579],[14.47559,52.86323],[14.47613,52.86228],[14.47696,52.86134],[14.486778592343498,52.85400814264546]]}},{"type":"Feature","properties":{"numer":"31","klasa":"droga gĹ‚Ăłwna","kat":"krajowa"},"geometry":{"type":"LineString","coordinates":[[14.490628193302,52.85084205542499],[14.49128,52.84986],[14.491354610989012,52.84966518241758]]}},{"type":"Feature","properties":{"numer":"31","klasa":"droga gĹ‚Ăłwna","kat":"krajowa"},"geometry":{"type":"LineString","coordinates":[[14.491944827372977,52.8471021879831],[14.492457293153018,52.8440461420509]]}},{"type":"Feature","properties":{"numer":"125","klasa":"droga gĹ‚Ăłwna","kat":"wojewodzka"},"geometry":{"type":"LineString","coordinates":[[14.39541,52.85259],[14.39473,52.85357],[14.39416,52.85525],[14.39277,52.85794],[14.39251,52.85822]]}},{"type":"Feature","properties":{"numer":"1412Z","klasa":"","kat":"powiatowa"},"geometry":{"type":"LineString","coordinates":[[14.456,52.84879],[14.45665,52.84886],[14.45742,52.84915],[14.46441,52.85516],[14.46845,52.86051],[14.47379,52.86498],[14.47463,52.86565],[14.47492,52.86579]]}},{"type":"Feature","properties":{"numer":"125","klasa":"droga gĹ‚Ăłwna","kat":"wojewodzka"},"geometry":{"type":"LineString","coordinates":[[14.39251,52.85822],[14.39097,52.85866],[14.38897,52.85962],[14.3876,52.85996],[14.38677,52.8603]]}},{"type":"Feature","properties":{"numer":"1425Z","klasa":"","kat":"powiatowa"},"geometry":{"type":"LineString","coordinates":[[14.287142650982952,52.862191907902584],[14.28711,52.86236],[14.287462221180878,52.86264330834114]]}},{"type":"Feature","properties":{"numer":"125","klasa":"droga gĹ‚Ăłwna","kat":"wojewodzka"},"geometry":{"type":"LineString","coordinates":[[14.38677,52.8603],[14.38583,52.86052],[14.38493,52.8606],[14.37769,52.86092],[14.37693,52.86092],[14.37459,52.86062],[14.37185,52.86069]]}},{"type":"Feature","properties":{"numer":"1399Z","klasa":"","kat":"powiatowa"},"geometry":{"type":"LineString","coordinates":[[14.32959,52.86396],[14.33035,52.8633],[14.33475,52.86049],[14.33495,52.86043],[14.33919,52.86002],[14.344,52.86005],[14.34633,52.85943],[14.35041,52.8587],[14.35177,52.85831],[14.35328,52.85816],[14.35539,52.85814],[14.35706,52.85829],[14.35946,52.85826],[14.36063,52.85835],[14.36306,52.85889],[14.36409,52.85903],[14.36532,52.8593],[14.36734,52.85998],[14.3715,52.86046],[14.37185,52.86069]]}},{"type":"Feature","properties":{"numer":"1409Z","klasa":"","kat":"powiatowa"},"geometry":{"type":"LineString","coordinates":[[14.47453,52.87049],[14.47343,52.8699],[14.47024,52.86977],[14.46828,52.86952],[14.46719,52.86929],[14.46047,52.86615],[14.45993,52.86596],[14.43843,52.86186],[14.42179,52.85558],[14.4217,52.8555],[14.42229,52.85255]]}},{"type":"Feature","properties":{"numer":"125","klasa":"droga gĹ‚Ăłwna","kat":"wojewodzka"},"geometry":{"type":"LineString","coordinates":[[14.37185,52.86069],[14.37108,52.86091],[14.36853,52.86204],[14.36608,52.86373],[14.36281,52.86541]]}},{"type":"Feature","properties":{"numer":"1399Z","klasa":"","kat":"powiatowa"},"geometry":{"type":"LineString","coordinates":[[14.32959,52.86396],[14.32956,52.86399]]}},{"type":"Feature","properties":{"numer":"1399Z","klasa":"","kat":"powiatowa"},"geometry":{"type":"LineString","coordinates":[[14.32818,52.86664],[14.32739,52.8654],[14.32857,52.86487],[14.32959,52.86396]]}},{"type":"Feature","properties":{"numer":"125","klasa":"droga gĹ‚Ăłwna","kat":"wojewodzka"},"geometry":{"type":"LineString","coordinates":[[14.36281,52.86541],[14.36255,52.86555]]}},{"type":"Feature","properties":{"numer":"1397Z","klasa":"","kat":"powiatowa"},"geometry":{"type":"LineString","coordinates":[[14.38677,52.8603],[14.38741,52.86159],[14.38714,52.8624],[14.3865,52.86362],[14.38255,52.86724],[14.37944,52.86882],[14.37912,52.86911],[14.37901,52.86943],[14.37924,52.87258]]}},{"type":"Feature","properties":{"numer":"125","klasa":"droga gĹ‚Ăłwna","kat":"wojewodzka"},"geometry":{"type":"LineString","coordinates":[[14.30929,52.87017],[14.30897,52.86999],[14.30783,52.86981],[14.30599,52.86936],[14.29683,52.86653],[14.28942417012975,52.86558078816082]]}},{"type":"Feature","properties":{"numer":"1400Z","klasa":"","kat":"powiatowa"},"geometry":{"type":"LineString","coordinates":[[14.32818,52.86664],[14.32868,52.86723],[14.32972,52.86911],[14.32998,52.86924],[14.33176,52.8695]]}},{"type":"Feature","properties":{"numer":"31","klasa":"droga gĹ‚Ăłwna","kat":"krajowa"},"geometry":{"type":"LineString","coordinates":[[14.47453,52.87049],[14.47445,52.86787],[14.47492,52.86579]]}},{"type":"Feature","properties":{"numer":"1399Z","klasa":"","kat":"powiatowa"},"geometry":{"type":"LineString","coordinates":[[14.32818,52.86664],[14.32618,52.86681],[14.32056,52.86691],[14.31177,52.86902],[14.31095,52.86928],[14.30977,52.86993],[14.30954,52.87014],[14.30929,52.87017]]}},{"type":"Feature","properties":{"numer":"1400Z","klasa":"","kat":"powiatowa"},"geometry":{"type":"LineString","coordinates":[[14.33176,52.8695],[14.33201,52.86954]]}},{"type":"Feature","properties":{"numer":"125","klasa":"droga gĹ‚Ăłwna","kat":"wojewodzka"},"geometry":{"type":"LineString","coordinates":[[14.36255,52.86555],[14.36131,52.86611],[14.35834,52.86664],[14.35645,52.86767],[14.35167,52.86953],[14.34999,52.86971],[14.34885,52.86993],[14.3479,52.87034],[14.3459,52.87093],[14.34257,52.87264],[14.33926,52.87395],[14.33705,52.87459]]}},{"type":"Feature","properties":{"numer":"125,1399Z","klasa":"droga gĹ‚Ăłwna","kat":"gminna"},"geometry":{"type":"LineString","coordinates":[[14.31057,52.87378],[14.30972,52.87323],[14.30958,52.873],[14.30927,52.87184],[14.30945,52.87058],[14.30929,52.87017]]}},{"type":"Feature","properties":{"numer":"1400Z","klasa":"","kat":"powiatowa"},"geometry":{"type":"LineString","coordinates":[[14.33201,52.86954],[14.33255,52.8697],[14.33279,52.8699],[14.33426,52.87174],[14.33705,52.87459]]}},{"type":"Feature","properties":{"numer":"1409Z","klasa":"","kat":"powiatowa"},"geometry":{"type":"LineString","coordinates":[[14.502948126354147,52.874289143687214],[14.4988,52.87541],[14.49742,52.87562],[14.49551,52.87545],[14.49295,52.87502],[14.48979,52.87438],[14.48715,52.87374],[14.48176,52.87199],[14.47803,52.87064],[14.47596,52.87065],[14.47453,52.87049]]}},{"type":"Feature","properties":{"numer":"1399Z","klasa":"","kat":"powiatowa"},"geometry":{"type":"LineString","coordinates":[[14.30524,52.87501],[14.30578,52.8748],[14.30729,52.87455],[14.31057,52.87378]]}},{"type":"Feature","properties":{"numer":"1425Z","klasa":"","kat":"powiatowa"},"geometry":{"type":"LineString","coordinates":[[14.29001373645358,52.86684696560388],[14.2902,52.8672],[14.290228767946989,52.867309995091425]]}},{"type":"Feature","properties":{"numer":"125","klasa":"droga gĹ‚Ăłwna","kat":"wojewodzka"},"geometry":{"type":"LineString","coordinates":[[14.33705,52.87459],[14.33495,52.87507],[14.32762,52.87621],[14.32469,52.87632],[14.32174,52.87741],[14.3213,52.87748],[14.31189,52.87484],[14.31057,52.87378]]}},{"type":"Feature","properties":{"numer":"1399Z","klasa":"","kat":"powiatowa"},"geometry":{"type":"LineString","coordinates":[[14.29579558457829,52.88057034936084],[14.29603,52.88045],[14.2981,52.87922],[14.30199,52.8766],[14.30524,52.87501]]}},{"type":"Feature","properties":{"numer":"1397Z","klasa":"","kat":"powiatowa"},"geometry":{"type":"LineString","coordinates":[[14.37924,52.87258],[14.37935,52.87398],[14.37882,52.87551],[14.37821,52.87861],[14.37895,52.8813],[14.37916,52.88352],[14.37894,52.88407],[14.37788,52.88572],[14.3778,52.88611],[14.37855,52.89402],[14.37825,52.89481],[14.37777,52.89532],[14.37703,52.89584],[14.37651,52.89637],[14.37592,52.89802],[14.37584,52.89857]]}},{"type":"Feature","properties":{"numer":"1398Z","klasa":"","kat":"powiatowa"},"geometry":{"type":"LineString","coordinates":[[14.37924,52.87258],[14.38087,52.87299],[14.383,52.87318],[14.38367,52.87305],[14.3843,52.87284],[14.38468,52.87257],[14.38526,52.87154],[14.38602,52.87066],[14.38635,52.87054],[14.3873,52.87084],[14.39052,52.87252],[14.3908,52.87279],[14.39096,52.87406],[14.3908,52.87498],[14.39035,52.87606],[14.39043,52.87632],[14.39098,52.87671],[14.39203,52.87711],[14.39357,52.87789],[14.40104,52.88452],[14.41018,52.89347],[14.41267,52.89604],[14.41462,52.89782],[14.41592,52.89874],[14.41753,52.90065],[14.41833,52.90267],[14.41885,52.90301],[14.42172,52.90444],[14.422581658719457,52.90465572823835]]}},{"type":"Feature","properties":{"numer":"31","klasa":"droga gĹ‚Ăłwna","kat":"krajowa"},"geometry":{"type":"LineString","coordinates":[[14.459293214472995,52.89857456213949],[14.45968,52.89783],[14.46569,52.88983],[14.46661,52.8888],[14.46737,52.88823],[14.46854,52.88759],[14.4728,52.88553],[14.47323,52.88519],[14.47353,52.88475],[14.47346,52.88392],[14.47231,52.87992],[14.47227,52.87856],[14.47243,52.8776],[14.47271,52.8768],[14.47426,52.87344],[14.47454,52.87214],[14.47453,52.87049]]}},{"type":"Feature","properties":{"numer":"124","klasa":"droga gĹ‚Ăłwna","kat":"wojewodzka"},"geometry":{"type":"LineString","coordinates":[[14.298647800722764,52.891342157976254],[14.30061,52.89229],[14.3046,52.89506],[14.31272,52.89935],[14.314254597826077,52.89997863043478]]}},{"type":"Feature","properties":{"numer":"1397Z","klasa":"","kat":"powiatowa"},"geometry":{"type":"LineString","coordinates":[[14.37583,52.89868],[14.37584,52.89857]]}},{"type":"Feature","properties":{"numer":"1397Z","klasa":"","kat":"powiatowa"},"geometry":{"type":"LineString","coordinates":[[14.373346578419575,52.90552534296029],[14.37364,52.90505],[14.37528,52.90154],[14.37533,52.9001],[14.37583,52.89868]]}}]}