{"type":"FeatureCollection","features":[{"type":"Feature","properties":{"numer":"S11","klasa":"droga ekspresowa","kat":"krajowa"},"geometry":{"type":"LineString","coordinates":[[16.35504159717263,54.0303577373693],[16.34977384145696,54.03051387989441]]}},{"type":"Feature","properties":{"numer":"3501Z","klasa":"","kat":"powiatowa"},"geometry":{"type":"LineString","coordinates":[[16.43304386451544,54.03926569718987],[16.43543,54.04119],[16.44111,54.0447]]}},{"type":"Feature","properties":{"numer":"165","klasa":"droga gĹ‚Ăłwna","kat":"wojewodzka"},"geometry":{"type":"LineString","coordinates":[[16.39586,54.07431],[16.3961,54.0735],[16.39635,54.0731],[16.40113,54.06734],[16.4019,54.06659],[16.43331,54.04913],[16.44111,54.0447]]}},{"type":"Feature","properties":{"numer":"165","klasa":"droga gĹ‚Ăłwna","kat":"wojewodzka"},"geometry":{"type":"LineString","coordinates":[[16.3958,54.07458],[16.39586,54.07431]]}},{"type":"Feature","properties":{"numer":"165","klasa":"droga gĹ‚Ăłwna","kat":"wojewodzka"},"geometry":{"type":"LineString","coordinates":[[16.39522,54.07619],[16.39553,54.07568],[16.3958,54.07458]]}},{"type":"Feature","properties":{"numer":"3565Z","klasa":"droga gĹ‚Ăłwna","kat":"powiatowa"},"geometry":{"type":"LineString","coordinates":[[16.39522,54.07619],[16.44082950440957,54.08019511818546]]}},{"type":"Feature","properties":{"numer":"3565Z","klasa":"droga gĹ‚Ăłwna","kat":"powiatowa"},"geometry":{"type":"LineString","coordinates":[[16.46220452884066,54.079369383209595],[16.46231,54.07937],[16.46755,54.08007],[16.468004078291752,54.080157886120986]]}},{"type":"Feature","properties":{"numer":"165","klasa":"droga gĹ‚Ăłwna","kat":"wojewodzka"},"geometry":{"type":"LineString","coordinates":[[16.44111,54.0447],[16.44175,54.04451],[16.44247,54.04441],[16.4471,54.04432],[16.44805,54.04425],[16.45094,54.04325],[16.45178,54.04278],[16.45591,54.03968],[16.45600017763957,54.03960877689613]]}},{"type":"Feature","properties":{"numer":"3537Z","klasa":"","kat":"powiatowa"},"geometry":{"type":"LineString","coordinates":[[16.30194583734758,54.05471011603029],[16.30215,54.05615],[16.30084,54.06],[16.29773,54.06735],[16.29777,54.06765],[16.29846,54.06864]]}},{"type":"Feature","properties":{"numer":"3537Z","klasa":"","kat":"powiatowa"},"geometry":{"type":"LineString","coordinates":[[16.29846,54.06864],[16.29861,54.06884]]}},{"type":"Feature","properties":{"numer":"3537Z","klasa":"","kat":"powiatowa"},"geometry":{"type":"LineString","coordinates":[[16.29861,54.06884],[16.2985,54.06901],[16.29547,54.07086],[16.29221,54.07305],[16.2923,54.07326],[16.29388,54.07425],[16.29508,54.07477]]}},{"type":"Feature","properties":{"numer":"3537Z","klasa":"","kat":"powiatowa"},"geometry":{"type":"LineString","coordinates":[[16.29508,54.07477],[16.29541,54.07488]]}},{"type":"Feature","properties":{"numer":"3537Z","klasa":"","kat":"powiatowa"},"geometry":{"type":"LineString","coordinates":[[16.29541,54.07488],[16.29653,54.07533],[16.29758,54.07588],[16.30145,54.07904],[16.30298,54.07979],[16.30371,54.08001],[16.30601,54.08032],[16.31305,54.08079],[16.32551,54.08196],[16.32626,54.08216],[16.3335,54.08478],[16.33466,54.08503],[16.33884,54.08567],[16.33993,54.08594],[16.34146,54.08643],[16.34338,54.08734],[16.34515,54.08876],[16.34887,54.09329],[16.35251,54.09911]]}},{"type":"Feature","properties":{"numer":"165","klasa":"droga gĹ‚Ăłwna","kat":"wojewodzka"},"geometry":{"type":"LineString","coordinates":[[16.35251,54.09911],[16.38314,54.08328],[16.39522,54.07619]]}},{"type":"Feature","properties":{"numer":"165","klasa":"droga gĹ‚Ăłwna","kat":"wojewodzka"},"geometry":{"type":"LineString","coordinates":[[16.30549,54.12335],[16.35251,54.09911]]}},{"type":"Feature","properties":{"numer":"3531Z","klasa":"","kat":"powiatowa"},"geometry":{"type":"LineString","coordinates":[[16.236365884098312,54.124779767290775],[16.24579,54.12629],[16.24657,54.12626],[16.25297,54.12521],[16.25391,54.12512],[16.26625,54.13123],[16.26719,54.13184],[16.26738,54.13216],[16.26732,54.13262],[16.26593,54.1345],[16.26581,54.13513],[16.26782,54.1406]]}},{"type":"Feature","properties":{"numer":"165","klasa":"droga gĹ‚Ăłwna","kat":"wojewodzka"},"geometry":{"type":"LineString","coordinates":[[16.26782,54.1406],[16.275,54.13887],[16.27605,54.13854],[16.30549,54.12335]]}},{"type":"Feature","properties":{"numer":"165","klasa":"droga gĹ‚Ăłwna","kat":"wojewodzka"},"geometry":{"type":"LineString","coordinates":[[16.26019,54.14246],[16.26782,54.1406]]}},{"type":"Feature","properties":{"numer":"165","klasa":"droga gĹ‚Ăłwna","kat":"wojewodzka"},"geometry":{"type":"LineString","coordinates":[[16.24448,54.14936],[16.24948,54.14547],[16.25051,54.14486],[16.2513,54.1446],[16.26019,54.14246]]}},{"type":"Feature","properties":{"numer":"3561Z","klasa":"","kat":"powiatowa"},"geometry":{"type":"LineString","coordinates":[[16.26158,54.14946],[16.2616,54.14801],[16.26019,54.14246]]}},{"type":"Feature","properties":{"numer":"3561Z","klasa":"","kat":"powiatowa"},"geometry":{"type":"LineString","coordinates":[[16.24482,54.14952],[16.24448,54.14936]]}},{"type":"Feature","properties":{"numer":"3561Z","klasa":"","kat":"powiatowa"},"geometry":{"type":"LineString","coordinates":[[16.24482,54.14952],[16.25927,54.15044]]}},{"type":"Feature","properties":{"numer":"3561Z","klasa":"","kat":"powiatowa"},"geometry":{"type":"LineString","coordinates":[[16.25927,54.15044],[16.26131,54.15056]]}},{"type":"Feature","properties":{"numer":"165","klasa":"droga gĹ‚Ăłwna","kat":"wojewodzka"},"geometry":{"type":"LineString","coordinates":[[16.23347,54.1557],[16.24073,54.15222],[16.24448,54.14936]]}},{"type":"Feature","properties":{"numer":"11","klasa":"droga gĹ‚Ăłwna ruchu przyĹ›pieszonego","kat":"krajowa"},"geometry":{"type":"LineString","coordinates":[[16.23346227475232,54.15570370645307],[16.23347,54.1557]]}},{"type":"Feature","properties":{"numer":"3562Z","klasa":"","kat":"powiatowa"},"geometry":{"type":"LineString","coordinates":[[16.30549,54.12335],[16.307,54.12437],[16.30749,54.12483],[16.31186,54.13141],[16.31251,54.13206],[16.31563,54.13385],[16.31717,54.13451],[16.32041,54.13552],[16.3229,54.13581],[16.32336,54.13595],[16.32383,54.13625],[16.32415,54.13665],[16.32988,54.14651],[16.32988,54.14694],[16.32968,54.14716]]}},{"type":"Feature","properties":{"numer":"3562Z","klasa":"","kat":"powiatowa"},"geometry":{"type":"LineString","coordinates":[[16.32968,54.14716],[16.32897,54.14755],[16.32843,54.14832],[16.32824,54.14889],[16.32824,54.14951]]}},{"type":"Feature","properties":{"numer":"","klasa":"droga lokalna","kat":"gminna"},"geometry":{"type":"LineString","coordinates":[[16.32824,54.14951],[16.32806,54.15003],[16.32701,54.1511]]}},{"type":"Feature","properties":{"numer":"","klasa":"droga lokalna","kat":"gminna"},"geometry":{"type":"LineString","coordinates":[[16.32701,54.1511],[16.32655,54.15183],[16.32647,54.15264],[16.32684,54.15367],[16.32815,54.155],[16.32826,54.15642],[16.32926,54.16013],[16.32884,54.16101],[16.32812,54.16206],[16.32627,54.16395]]}},{"type":"Feature","properties":{"numer":"","klasa":"droga lokalna","kat":"gminna"},"geometry":{"type":"LineString","coordinates":[[16.32627,54.16395],[16.32546,54.1648],[16.32301,54.16813]]}},{"type":"Feature","properties":{"numer":"","klasa":"droga lokalna","kat":"gminna"},"geometry":{"type":"LineString","coordinates":[[16.32301,54.16813],[16.32274,54.16848]]}},{"type":"Feature","properties":{"numer":"","klasa":"droga lokalna","kat":"gminna"},"geometry":{"type":"LineString","coordinates":[[16.32274,54.16848],[16.32184,54.16923]]}},{"type":"Feature","properties":{"numer":"","klasa":"droga lokalna","kat":"gminna"},"geometry":{"type":"LineString","coordinates":[[16.32184,54.16923],[16.32142,54.16947],[16.32096,54.16991],[16.32041,54.17015]]}},{"type":"Feature","properties":{"numer":"","klasa":"droga lokalna","kat":"gminna"},"geometry":{"type":"LineString","coordinates":[[16.32041,54.17015],[16.3196,54.17036],[16.31924,54.17053],[16.31875,54.17138],[16.31851,54.17157]]}},{"type":"Feature","properties":{"numer":"3562Z","klasa":"","kat":"powiatowa"},"geometry":{"type":"LineString","coordinates":[[16.31851,54.17157],[16.316956569200162,54.17205879503616]]}},{"type":"Feature","properties":{"numer":"5518Z","klasa":"droga zbiorcza","kat":"powiatowa"},"geometry":{"type":"LineString","coordinates":[[16.284503355511198,54.16512118984254],[16.28361,54.16547],[16.28296,54.16579],[16.28284210526316,54.16591696356275]]}},{"type":"Feature","properties":{"numer":"206","klasa":"droga gĹ‚Ăłwna","kat":"wojewodzka"},"geometry":{"type":"LineString","coordinates":[[16.32815806175256,54.18150771659197],[16.32843,54.18146],[16.32966,54.18138],[16.33061,54.18142],[16.330921966036147,54.18146293110589]]}}]}