{"type":"FeatureCollection","features":[{"type":"Feature","properties":{"numer":"1721Z","klasa":"","kat":"powiatowa"},"geometry":{"type":"LineString","coordinates":[[15.24545,53.42781],[15.24484,53.42716],[15.243992298475323,53.42517298762616]]}},{"type":"Feature","properties":{"numer":"142","klasa":"droga gĹ‚Ăłwna ruchu przyĹ›pieszonego","kat":"wojewodzka"},"geometry":{"type":"LineString","coordinates":[[15.24572,53.4278],[15.24545,53.42781]]}},{"type":"Feature","properties":{"numer":"142","klasa":"droga gĹ‚Ăłwna ruchu przyĹ›pieszonego","kat":"wojewodzka"},"geometry":{"type":"LineString","coordinates":[[15.24545,53.42781],[15.2452,53.42783]]}},{"type":"Feature","properties":{"numer":"1745Z","klasa":"","kat":"powiatowa"},"geometry":{"type":"LineString","coordinates":[[15.3538,53.43896],[15.3513,53.4378],[15.34961,53.43692],[15.34473,53.43305],[15.34442,53.43256],[15.34436,53.43156],[15.34507,53.42969],[15.34505,53.42861],[15.34537,53.42737],[15.34518,53.42702],[15.34272,53.42459],[15.34337,53.42337],[15.34392,53.42267],[15.34561,53.42125],[15.34692,53.42041],[15.34987,53.41933],[15.35068,53.41881],[15.35247,53.41731],[15.354314023761308,53.414574265217965]]}},{"type":"Feature","properties":{"numer":"142","klasa":"droga gĹ‚Ăłwna ruchu przyĹ›pieszonego","kat":"wojewodzka"},"geometry":{"type":"LineString","coordinates":[[15.24572,53.4278],[15.25579,53.42737],[15.25849,53.42732],[15.26251,53.42743],[15.26684,53.42777],[15.26973,53.42816],[15.27348,53.42885],[15.275496886087666,53.42930867377746]]}},{"type":"Feature","properties":{"numer":"1740Z","klasa":"droga zbiorcza","kat":"powiatowa"},"geometry":{"type":"LineString","coordinates":[[15.425288989361704,53.42218420212766],[15.42491,53.42251],[15.42392,53.42291],[15.42049,53.4239],[15.41573,53.42509]]}},{"type":"Feature","properties":{"numer":"1755Z","klasa":"","kat":"powiatowa"},"geometry":{"type":"LineString","coordinates":[[15.40042,53.42796],[15.39925,53.42639],[15.3985,53.42516],[15.39662,53.42328],[15.39507,53.42188],[15.39249,53.42043],[15.39155,53.4201],[15.38905,53.41944],[15.38799,53.41887],[15.38729,53.4182],[15.384656204359718,53.415098610206186]]}},{"type":"Feature","properties":{"numer":"1740Z","klasa":"droga zbiorcza","kat":"powiatowa"},"geometry":{"type":"LineString","coordinates":[[15.41573,53.42509],[15.41293,53.4257],[15.40625,53.42687],[15.40145,53.42793],[15.40042,53.42796]]}},{"type":"Feature","properties":{"numer":"1759Z","klasa":"droga zbiorcza","kat":"powiatowa"},"geometry":{"type":"LineString","coordinates":[[15.436343029546379,53.4288744028298],[15.43205,53.42888],[15.430206267690922,53.42895070359887]]}},{"type":"Feature","properties":{"numer":"1759Z","klasa":"droga zbiorcza","kat":"powiatowa"},"geometry":{"type":"LineString","coordinates":[[15.428024238687525,53.42903438022732],[15.42527,53.42914],[15.42432,53.42905],[15.42341,53.42878],[15.42296,53.42857],[15.42063,53.42696],[15.41573,53.42509]]}},{"type":"Feature","properties":{"numer":"1740Z,1755Z","klasa":"droga gĹ‚Ăłwna","kat":"powiatowa"},"geometry":{"type":"LineString","coordinates":[[15.4002,53.42794],[15.40042,53.42796]]}},{"type":"Feature","properties":{"numer":"1740Z","klasa":"droga zbiorcza","kat":"powiatowa"},"geometry":{"type":"LineString","coordinates":[[15.36271,53.43738],[15.36546,53.43651],[15.38151,53.43099],[15.38431,53.42958],[15.38716,53.42839],[15.38785,53.42819],[15.3907,53.42752],[15.39195,53.42743],[15.39661,53.42782],[15.39889,53.42782],[15.4002,53.42794]]}},{"type":"Feature","properties":{"numer":"1755Z","klasa":"","kat":"powiatowa"},"geometry":{"type":"LineString","coordinates":[[15.4002,53.42794],[15.39909,53.42827],[15.39889,53.4288],[15.39839,53.42911],[15.3977,53.42972],[15.39755,53.4301],[15.3957,53.43167],[15.39564,53.43231],[15.39655,53.43339],[15.39631,53.43388],[15.39538,53.43468],[15.39184,53.43698],[15.39104,53.4376],[15.39074,53.4381],[15.39058,53.43894],[15.39025,53.4397],[15.38925,53.441],[15.38787,53.44448],[15.3819,53.45506],[15.38112,53.45612],[15.38107,53.45679]]}},{"type":"Feature","properties":{"numer":"142","klasa":"droga gĹ‚Ăłwna ruchu przyĹ›pieszonego","kat":"wojewodzka"},"geometry":{"type":"LineString","coordinates":[[15.2452,53.42783],[15.233809877692668,53.42832133860934]]}},{"type":"Feature","properties":{"numer":"1721Z","klasa":"","kat":"powiatowa"},"geometry":{"type":"LineString","coordinates":[[15.270392078493861,53.435632520860416],[15.27017,53.43569],[15.2655,53.43555],[15.25731,53.43775],[15.25395,53.43663],[15.24982,53.43238],[15.24915,53.43125],[15.24849,53.43041],[15.24707,53.42939],[15.24545,53.42781]]}},{"type":"Feature","properties":{"numer":"1740Z","klasa":"droga zbiorcza","kat":"powiatowa"},"geometry":{"type":"LineString","coordinates":[[15.3538,53.43896],[15.35452,53.43866],[15.35513,53.43854],[15.35981,53.43782],[15.36176,53.43764],[15.36271,53.43738]]}},{"type":"Feature","properties":{"numer":"20","klasa":"droga gĹ‚Ăłwna","kat":"krajowa"},"geometry":{"type":"LineString","coordinates":[[15.301990775037744,53.439221484650226],[15.30291,53.44007],[15.30366,53.44093],[15.30389,53.44104],[15.3047,53.44118],[15.30494,53.44132],[15.30523,53.44208],[15.3055,53.44244],[15.31243,53.44876],[15.31385,53.44947],[15.3292,53.45566],[15.32997,53.45612],[15.33029,53.45643],[15.33206,53.45861]]}},{"type":"Feature","properties":{"numer":"1772Z","klasa":"droga zbiorcza","kat":"powiatowa"},"geometry":{"type":"LineString","coordinates":[[15.36271,53.43738],[15.36434,53.43847],[15.36746,53.44218],[15.37097,53.44926],[15.37163,53.45053],[15.37186,53.45078],[15.37628,53.4541],[15.38107,53.45679]]}},{"type":"Feature","properties":{"numer":"1740Z","klasa":"droga zbiorcza","kat":"powiatowa"},"geometry":{"type":"LineString","coordinates":[[15.33257,53.45817],[15.33348,53.45717],[15.33438,53.45652],[15.33505,53.45634],[15.33775,53.45608],[15.33853,53.45583],[15.33901,53.4556],[15.34333,53.45277],[15.34584,53.45092],[15.34631,53.45041],[15.35001,53.44524],[15.35224,53.44175],[15.35295,53.44013],[15.3538,53.43896]]}},{"type":"Feature","properties":{"numer":"1740Z","klasa":"droga zbiorcza","kat":"powiatowa"},"geometry":{"type":"LineString","coordinates":[[15.33257,53.45817],[15.33229,53.45851],[15.33206,53.45861]]}},{"type":"Feature","properties":{"numer":"20","klasa":"droga gĹ‚Ăłwna","kat":"krajowa"},"geometry":{"type":"LineString","coordinates":[[15.33206,53.45861],[15.33306,53.45998]]}},{"type":"Feature","properties":{"numer":"1801Z","klasa":"droga zbiorcza","kat":"powiatowa"},"geometry":{"type":"LineString","coordinates":[[15.33306,53.45998],[15.33387,53.45983],[15.3342,53.45988],[15.33448,53.46112],[15.33519,53.46111]]}},{"type":"Feature","properties":{"numer":"20","klasa":"droga gĹ‚Ăłwna","kat":"krajowa"},"geometry":{"type":"LineString","coordinates":[[15.33306,53.45998],[15.3334,53.46053],[15.33348,53.4609],[15.33351,53.4617],[15.33331,53.4625]]}},{"type":"Feature","properties":{"numer":"20","klasa":"droga gĹ‚Ăłwna","kat":"krajowa"},"geometry":{"type":"LineString","coordinates":[[15.33331,53.4625],[15.33285,53.46404]]}},{"type":"Feature","properties":{"numer":"1798Z","klasa":"droga zbiorcza","kat":"powiatowa"},"geometry":{"type":"LineString","coordinates":[[15.33331,53.4625],[15.33215,53.46256],[15.33189,53.4632],[15.33179,53.46378],[15.33214,53.46394],[15.33285,53.46404]]}},{"type":"Feature","properties":{"numer":"20","klasa":"droga gĹ‚Ăłwna","kat":"krajowa"},"geometry":{"type":"LineString","coordinates":[[15.33285,53.46404],[15.33247,53.4659],[15.33255,53.46629]]}},{"type":"Feature","properties":{"numer":"1754Z","klasa":"droga gĹ‚Ăłwna","kat":"powiatowa"},"geometry":{"type":"LineString","coordinates":[[15.37342,53.46115],[15.37296,53.46188],[15.37228,53.4624],[15.36727,53.46455],[15.35953,53.4682],[15.35898,53.46832],[15.35714,53.46844],[15.35655,53.4686],[15.35335,53.47086]]}},{"type":"Feature","properties":{"numer":"20","klasa":"droga gĹ‚Ăłwna","kat":"krajowa"},"geometry":{"type":"LineString","coordinates":[[15.33255,53.46629],[15.33344,53.46687]]}},{"type":"Feature","properties":{"numer":"1754Z","klasa":"droga gĹ‚Ăłwna","kat":"powiatowa"},"geometry":{"type":"LineString","coordinates":[[15.38141,53.45704],[15.38209,53.45707],[15.3843,53.45783],[15.38726,53.45827],[15.38945,53.45842],[15.3949,53.45978],[15.39607,53.45999],[15.40161,53.46018],[15.40502,53.46],[15.40865,53.46038],[15.41541,53.46072],[15.42209,53.46197],[15.42536,53.46187],[15.42636,53.46171],[15.42897,53.46079],[15.43183,53.46033],[15.43899,53.45884],[15.441280966224882,53.45873664814023]]}},{"type":"Feature","properties":{"numer":"1772Z,1755Z","klasa":"droga zbiorcza","kat":"powiatowa"},"geometry":{"type":"LineString","coordinates":[[15.38107,53.45679],[15.38141,53.45704]]}},{"type":"Feature","properties":{"numer":"1754Z,1755Z","klasa":"droga gĹ‚Ăłwna","kat":"powiatowa"},"geometry":{"type":"LineString","coordinates":[[15.38141,53.45704],[15.37437,53.45951],[15.37387,53.45991],[15.37342,53.46115]]}},{"type":"Feature","properties":{"numer":"1756Z","klasa":"","kat":"powiatowa"},"geometry":{"type":"LineString","coordinates":[[15.44032,53.47755],[15.44015,53.47671],[15.44098,53.47613],[15.44161,53.47474],[15.44264,53.47422],[15.44301,53.47408],[15.44598,53.47354],[15.44971,53.47233],[15.45549,53.47063],[15.456000492357985,53.47045528603791]]}},{"type":"Feature","properties":{"numer":"1755Z","klasa":"","kat":"powiatowa"},"geometry":{"type":"LineString","coordinates":[[15.3791,53.47151],[15.37945,53.47085],[15.37974,53.46921],[15.37901,53.46774],[15.37883,53.46637],[15.37918,53.46567],[15.37981,53.46541],[15.37984,53.46513],[15.37959,53.46497],[15.37842,53.46459],[15.37793,53.46433],[15.37754,53.4639],[15.37746,53.46323],[15.37502,53.46199],[15.37417,53.46139],[15.37342,53.46115]]}},{"type":"Feature","properties":{"numer":"1755Z","klasa":"","kat":"powiatowa"},"geometry":{"type":"LineString","coordinates":[[15.37872,53.48137],[15.37854,53.48116],[15.37654,53.47995],[15.3759,53.47933],[15.37647,53.47831],[15.37686,53.47705],[15.37665,53.47547],[15.37805,53.47408],[15.37844,53.47327],[15.37875,53.47213],[15.3791,53.47151]]}},{"type":"Feature","properties":{"numer":"1756Z","klasa":"","kat":"powiatowa"},"geometry":{"type":"LineString","coordinates":[[15.438,53.47931],[15.43957,53.4781],[15.4403,53.47769],[15.44032,53.47755]]}},{"type":"Feature","properties":{"numer":"1756Z","klasa":"","kat":"powiatowa"},"geometry":{"type":"LineString","coordinates":[[15.43609,53.48219],[15.43666,53.48156],[15.43762,53.47972],[15.438,53.47931]]}},{"type":"Feature","properties":{"numer":"20","klasa":"droga gĹ‚Ăłwna","kat":"krajowa"},"geometry":{"type":"LineString","coordinates":[[15.37872,53.48137],[15.37999,53.48159]]}},{"type":"Feature","properties":{"numer":"4149Z","klasa":"droga zbiorcza","kat":"powiatowa"},"geometry":{"type":"LineString","coordinates":[[15.33255,53.46629],[15.33048,53.46704]]}},{"type":"Feature","properties":{"numer":"20","klasa":"droga gĹ‚Ăłwna","kat":"krajowa"},"geometry":{"type":"LineString","coordinates":[[15.33344,53.46687],[15.33473,53.46731]]}},{"type":"Feature","properties":{"numer":"144","klasa":"droga gĹ‚Ăłwna","kat":"wojewodzka"},"geometry":{"type":"LineString","coordinates":[[15.33344,53.46687],[15.33336,53.46831]]}},{"type":"Feature","properties":{"numer":"20","klasa":"droga gĹ‚Ăłwna","kat":"krajowa"},"geometry":{"type":"LineString","coordinates":[[15.33473,53.46731],[15.33744,53.46821]]}},{"type":"Feature","properties":{"numer":"4149Z","klasa":"droga zbiorcza","kat":"powiatowa"},"geometry":{"type":"LineString","coordinates":[[15.33048,53.46704],[15.3301,53.46699],[15.329,53.46643],[15.32552,53.46508],[15.32486,53.46495],[15.32278,53.46482],[15.32085,53.46458],[15.32017,53.46461],[15.31969,53.4649],[15.31858,53.46689],[15.31819,53.46738],[15.31526,53.47037],[15.3145,53.47098],[15.31296,53.47156]]}},{"type":"Feature","properties":{"numer":"1795Z","klasa":"droga zbiorcza","kat":"powiatowa"},"geometry":{"type":"LineString","coordinates":[[15.33048,53.46704],[15.33324,53.46914]]}},{"type":"Feature","properties":{"numer":"1799Z","klasa":"droga zbiorcza","kat":"powiatowa"},"geometry":{"type":"LineString","coordinates":[[15.33473,53.46731],[15.33479,53.46755],[15.33666,53.46958]]}},{"type":"Feature","properties":{"numer":"144","klasa":"droga gĹ‚Ăłwna","kat":"wojewodzka"},"geometry":{"type":"LineString","coordinates":[[15.33336,53.46831],[15.33324,53.46914]]}},{"type":"Feature","properties":{"numer":"1802Z","klasa":"droga zbiorcza","kat":"powiatowa"},"geometry":{"type":"LineString","coordinates":[[15.33744,53.46821],[15.33666,53.46958]]}},{"type":"Feature","properties":{"numer":"144","klasa":"droga gĹ‚Ăłwna","kat":"wojewodzka"},"geometry":{"type":"LineString","coordinates":[[15.33324,53.46914],[15.33325,53.4693]]}},{"type":"Feature","properties":{"numer":"","klasa":"droga zbiorcza","kat":"powiatowa"},"geometry":{"type":"LineString","coordinates":[[15.33336,53.46831],[15.33627,53.47025]]}},{"type":"Feature","properties":{"numer":"20","klasa":"droga gĹ‚Ăłwna","kat":"krajowa"},"geometry":{"type":"LineString","coordinates":[[15.33744,53.46821],[15.33886,53.46849],[15.35335,53.47086]]}},{"type":"Feature","properties":{"numer":"1802Z","klasa":"droga zbiorcza","kat":"powiatowa"},"geometry":{"type":"LineString","coordinates":[[15.33666,53.46958],[15.33627,53.47025]]}},{"type":"Feature","properties":{"numer":"1799Z","klasa":"droga zbiorcza","kat":"powiatowa"},"geometry":{"type":"LineString","coordinates":[[15.33666,53.46958],[15.33735,53.47032]]}},{"type":"Feature","properties":{"numer":"1797Z","klasa":"droga zbiorcza","kat":"powiatowa"},"geometry":{"type":"LineString","coordinates":[[15.33325,53.4693],[15.33053,53.47139]]}},{"type":"Feature","properties":{"numer":"","klasa":"droga zbiorcza","kat":"powiatowa"},"geometry":{"type":"LineString","coordinates":[[15.33627,53.47025],[15.33656,53.47045]]}},{"type":"Feature","properties":{"numer":"1799Z","klasa":"droga zbiorcza","kat":"powiatowa"},"geometry":{"type":"LineString","coordinates":[[15.33735,53.47032],[15.33842,53.47109],[15.33831,53.47161]]}},{"type":"Feature","properties":{"numer":"4149Z","klasa":"droga zbiorcza","kat":"powiatowa"},"geometry":{"type":"LineString","coordinates":[[15.31296,53.47156],[15.31257,53.47169]]}},{"type":"Feature","properties":{"numer":"4149Z","klasa":"droga zbiorcza","kat":"powiatowa"},"geometry":{"type":"LineString","coordinates":[[15.31257,53.47169],[15.30804,53.47317],[15.30568,53.47383],[15.30376,53.47411],[15.29783,53.47474],[15.29545,53.47514]]}},{"type":"Feature","properties":{"numer":"144","klasa":"droga gĹ‚Ăłwna","kat":"wojewodzka"},"geometry":{"type":"LineString","coordinates":[[15.33325,53.4693],[15.33338,53.47003],[15.33388,53.47076],[15.33396,53.47108],[15.3344,53.47826],[15.33598,53.48215]]}},{"type":"Feature","properties":{"numer":"20","klasa":"droga gĹ‚Ăłwna","kat":"krajowa"},"geometry":{"type":"LineString","coordinates":[[15.35335,53.47086],[15.36184,53.47226],[15.36313,53.47261],[15.36385,53.47304],[15.37431,53.48046],[15.37522,53.48076],[15.37872,53.48137]]}},{"type":"Feature","properties":{"numer":"1725Z","klasa":"","kat":"powiatowa"},"geometry":{"type":"LineString","coordinates":[[15.30162,53.47804],[15.29991,53.47742],[15.29545,53.47514]]}},{"type":"Feature","properties":{"numer":"1725Z","klasa":"","kat":"powiatowa"},"geometry":{"type":"LineString","coordinates":[[15.30085,53.4808],[15.30095,53.48036],[15.3013,53.47999],[15.30198,53.47952],[15.30218,53.47923],[15.3022,53.47901],[15.30177,53.47814],[15.30162,53.47804]]}},{"type":"Feature","properties":{"numer":"144","klasa":"droga gĹ‚Ăłwna","kat":"wojewodzka"},"geometry":{"type":"LineString","coordinates":[[15.33598,53.48215],[15.33601,53.48221]]}},{"type":"Feature","properties":{"numer":"4149Z","klasa":"droga zbiorcza","kat":"powiatowa"},"geometry":{"type":"LineString","coordinates":[[15.29545,53.47514],[15.29342,53.47536],[15.28995,53.47534],[15.28856,53.47525],[15.28647,53.47584],[15.28591,53.47593],[15.28015,53.47604],[15.26455,53.48068],[15.26398,53.4813],[15.25953,53.48757],[15.25577,53.49016],[15.24795,53.49665],[15.24665,53.49876],[15.24651,53.49883]]}},{"type":"Feature","properties":{"numer":"1725Z","klasa":"","kat":"powiatowa"},"geometry":{"type":"LineString","coordinates":[[15.30334,53.49656],[15.30376,53.49376],[15.30333,53.49286],[15.30255,53.49176],[15.30186,53.49046],[15.30096,53.48928],[15.30066,53.48862],[15.30105,53.48437],[15.30101,53.48149],[15.30085,53.4808]]}},{"type":"Feature","properties":{"numer":"144","klasa":"droga gĹ‚Ăłwna","kat":"wojewodzka"},"geometry":{"type":"LineString","coordinates":[[15.33839,53.50262],[15.33957,53.50083],[15.33972,53.50036],[15.34,53.49494],[15.34045,53.49213],[15.33859,53.48467],[15.33816,53.48413],[15.33638,53.48273],[15.33601,53.48221]]}},{"type":"Feature","properties":{"numer":"1725Z","klasa":"","kat":"powiatowa"},"geometry":{"type":"LineString","coordinates":[[15.308,53.50839],[15.30435,53.50342],[15.3035,53.50209],[15.30283,53.4999],[15.30334,53.49656]]}},{"type":"Feature","properties":{"numer":"1753Z","klasa":"","kat":"powiatowa"},"geometry":{"type":"LineString","coordinates":[[15.39008,53.49905],[15.3651,53.50296],[15.36481,53.50318],[15.36392,53.50494],[15.36357,53.50529],[15.34757,53.51166]]}},{"type":"Feature","properties":{"numer":"4303Z","klasa":"droga zbiorcza","kat":"powiatowa"},"geometry":{"type":"LineString","coordinates":[[15.33839,53.50262],[15.33897,53.50295],[15.34003,53.50377],[15.34084,53.50509],[15.34161,53.50661],[15.3419,53.50803],[15.34267,53.50924],[15.34288,53.51037],[15.34314,53.511],[15.34363,53.51171],[15.3447,53.51252],[15.34757,53.51166]]}},{"type":"Feature","properties":{"numer":"4149Z","klasa":"droga zbiorcza","kat":"powiatowa"},"geometry":{"type":"LineString","coordinates":[[15.227539718309837,53.493777323943675],[15.22592,53.49489],[15.223662179072281,53.496067993527504]]}},{"type":"Feature","properties":{"numer":"4149Z","klasa":"droga zbiorcza","kat":"powiatowa"},"geometry":{"type":"LineString","coordinates":[[15.24651,53.49883],[15.24638,53.49882],[15.24418,53.49721],[15.24135,53.49477],[15.24001,53.49332],[15.23904,53.49273],[15.23858,53.49261],[15.23700545249507,53.492484751903014]]}},{"type":"Feature","properties":{"numer":"4149Z","klasa":"droga zbiorcza","kat":"powiatowa"},"geometry":{"type":"LineString","coordinates":[[15.236195579808992,53.49256413369714],[15.23483,53.49277],[15.23204661605394,53.49297080525463]]}},{"type":"Feature","properties":{"numer":"1724Z","klasa":"","kat":"powiatowa"},"geometry":{"type":"LineString","coordinates":[[15.24651,53.49883],[15.24584,53.50013],[15.2454,53.5017],[15.24497,53.50214],[15.24234,53.50408],[15.2423,53.50463]]}},{"type":"Feature","properties":{"numer":"1724Z","klasa":"","kat":"powiatowa"},"geometry":{"type":"LineString","coordinates":[[15.2423,53.50463],[15.24226,53.50511]]}},{"type":"Feature","properties":{"numer":"1724Z","klasa":"","kat":"powiatowa"},"geometry":{"type":"LineString","coordinates":[[15.24363,53.50541],[15.2435,53.50529],[15.24273,53.50496],[15.2423,53.50463]]}},{"type":"Feature","properties":{"numer":"1724Z","klasa":"","kat":"powiatowa"},"geometry":{"type":"LineString","coordinates":[[15.24363,53.50541],[15.24345,53.50561],[15.24085,53.5069],[15.23965,53.51057],[15.24088,53.51356],[15.24171,53.51486],[15.24427,53.51686],[15.24468,53.51707],[15.24578,53.51742],[15.24596,53.51757],[15.24685,53.52388],[15.24714,53.52427],[15.24706,53.52453],[15.24651,53.52507],[15.24585,53.52744],[15.24579,53.52758],[15.24552,53.52765]]}},{"type":"Feature","properties":{"numer":"20","klasa":"droga gĹ‚Ăłwna","kat":"krajowa"},"geometry":{"type":"LineString","coordinates":[[15.37999,53.48159],[15.39709,53.48452],[15.40634,53.48683],[15.41643,53.48865],[15.42128,53.48971]]}},{"type":"Feature","properties":{"numer":"1756Z","klasa":"","kat":"powiatowa"},"geometry":{"type":"LineString","coordinates":[[15.42128,53.48971],[15.4217,53.48939],[15.42223,53.48862],[15.42278,53.48811],[15.42313,53.48797],[15.42584,53.48746],[15.42606,53.48734],[15.4269,53.48649],[15.42746,53.48621],[15.43043,53.48538],[15.43138,53.48496],[15.43322,53.48465],[15.43546,53.48284],[15.43609,53.48219]]}},{"type":"Feature","properties":{"numer":"1752Z","klasa":"","kat":"powiatowa"},"geometry":{"type":"LineString","coordinates":[[15.39008,53.49905],[15.38886,53.49821],[15.38777,53.4978],[15.38637,53.49737],[15.38344,53.49664],[15.38045,53.49506],[15.38013,53.49482],[15.37878,53.49255],[15.37873,53.49231],[15.37893,53.49164],[15.38137,53.48555],[15.37999,53.48159]]}},{"type":"Feature","properties":{"numer":"20","klasa":"droga gĹ‚Ăłwna","kat":"krajowa"},"geometry":{"type":"LineString","coordinates":[[15.42128,53.48971],[15.42569,53.49072],[15.43747,53.49602],[15.43804,53.49658],[15.43983,53.49935],[15.44037,53.49974],[15.44223,53.50059],[15.44269,53.50098],[15.443187451483938,53.50172850176555]]}},{"type":"Feature","properties":{"numer":"1752Z","klasa":"","kat":"powiatowa"},"geometry":{"type":"LineString","coordinates":[[15.38813,53.53001],[15.38882,53.52784],[15.38941,53.52471],[15.39074,53.52143],[15.39062,53.51927],[15.39033,53.51824],[15.38962,53.51709],[15.38965,53.51662],[15.39302,53.51455],[15.39377,53.51429],[15.39448,53.51415],[15.40209,53.51462],[15.40235,53.51457],[15.40239,53.51447],[15.40196,53.51378],[15.39583,53.50734],[15.39576,53.50639],[15.39423,53.50507],[15.39342,53.50389],[15.39268,53.50332],[15.39235,53.50292],[15.39087,53.49985],[15.39052,53.49939],[15.39008,53.49905]]}},{"type":"Feature","properties":{"numer":"4303Z","klasa":"droga zbiorcza","kat":"powiatowa"},"geometry":{"type":"LineString","coordinates":[[15.38813,53.53001],[15.38867,53.53148],[15.3885,53.53298],[15.38493,53.5334],[15.38264,53.53358],[15.38203,53.53382],[15.37666,53.53661],[15.37284,53.53805],[15.3694,53.53877]]}},{"type":"Feature","properties":{"numer":"144","klasa":"droga gĹ‚Ăłwna","kat":"wojewodzka"},"geometry":{"type":"LineString","coordinates":[[15.324827659945177,53.5148609178342],[15.32558,53.51436],[15.33358,53.50974],[15.33455,53.50843],[15.33839,53.50262]]}},{"type":"Feature","properties":{"numer":"4303Z","klasa":"droga zbiorcza","kat":"powiatowa"},"geometry":{"type":"LineString","coordinates":[[15.34757,53.51166],[15.35049,53.51376],[15.36669,53.51674],[15.36817,53.51713],[15.36985,53.51808],[15.37166,53.51925],[15.37892,53.52435],[15.38737,53.52906],[15.38775,53.52938],[15.38813,53.53001]]}},{"type":"Feature","properties":{"numer":"4303Z","klasa":"","kat":"powiatowa"},"geometry":{"type":"LineString","coordinates":[[15.369351162790698,53.53878953488372],[15.3694,53.53877]]}}]}