{"type":"FeatureCollection","features":[{"type":"Feature","properties":{"numer":"177","klasa":"droga gĹ‚Ăłwna","kat":"wojewodzka"},"geometry":{"type":"LineString","coordinates":[[16.127281025628132,53.152597570558456],[16.12815,53.15499],[16.12932,53.15942],[16.12948,53.16064],[16.12927,53.16443],[16.12952,53.165],[16.13002,53.16568],[16.14636,53.18573]]}},{"type":"Feature","properties":{"numer":"2303Z","klasa":"","kat":"powiatowa"},"geometry":{"type":"LineString","coordinates":[[16.14822,53.1878],[16.14493,53.18727],[16.1436,53.18692],[16.14231,53.18643],[16.13961,53.18584],[16.13887,53.18548],[16.13803,53.18476],[16.13511,53.1844],[16.13311,53.18385],[16.13133,53.18329],[16.12895,53.18222],[16.12836,53.18204],[16.12766,53.18194],[16.12702,53.18197],[16.12561,53.18226],[16.12493,53.18227],[16.12094,53.18164],[16.11676,53.18088],[16.11404,53.18076],[16.11239,53.18055],[16.11115,53.18013],[16.11034,53.17998],[16.1092,53.17955],[16.10788,53.1796],[16.10642,53.1793],[16.10555,53.1792]]}},{"type":"Feature","properties":{"numer":"2302Z","klasa":"","kat":"powiatowa"},"geometry":{"type":"LineString","coordinates":[[16.14981,53.19771],[16.14945,53.19807],[16.14831,53.19889],[16.13436,53.20806],[16.12696,53.21234],[16.12321,53.21722],[16.12237,53.21861],[16.12181,53.21983],[16.12006,53.22239],[16.11621,53.2266],[16.11456,53.22811],[16.11397,53.2292],[16.11355,53.23039],[16.11335,53.23054],[16.11224,53.23078],[16.11166,53.23103],[16.1108,53.23178],[16.11019,53.23259],[16.11002,53.23302],[16.10983,53.23473],[16.10987,53.2365],[16.11002,53.23726],[16.10956,53.23778],[16.1094,53.23816],[16.10954,53.23845],[16.11017,53.23916],[16.1215,53.2428],[16.12912,53.24641],[16.12997,53.24668],[16.13388,53.24712],[16.13552,53.24719],[16.13606,53.24703],[16.13658,53.24675],[16.13728,53.24577]]}},{"type":"Feature","properties":{"numer":"2301Z","klasa":"","kat":"powiatowa"},"geometry":{"type":"LineString","coordinates":[[16.13728,53.24577],[16.13719,53.2468],[16.13686,53.2476]]}},{"type":"Feature","properties":{"numer":"179","klasa":"droga gĹ‚Ăłwna","kat":"wojewodzka"},"geometry":{"type":"LineString","coordinates":[[16.25449,53.16161],[16.2551,53.16164],[16.271124057961508,53.16462288495188]]}},{"type":"Feature","properties":{"numer":"2318Z","klasa":"droga zbiorcza","kat":"powiatowa"},"geometry":{"type":"LineString","coordinates":[[16.22684289601715,53.14801426238971],[16.22605,53.14849],[16.21665,53.1512],[16.20867,53.15593],[16.20569,53.15835],[16.19406,53.16325],[16.19236,53.16394],[16.18148,53.1667],[16.18064,53.16705],[16.17994,53.16748],[16.17206,53.1733],[16.16898,53.17525],[16.15699,53.18346],[16.15656,53.18365],[16.1557,53.18384],[16.15363,53.18397],[16.15259,53.18411],[16.14636,53.18573]]}},{"type":"Feature","properties":{"numer":"177","klasa":"droga gĹ‚Ăłwna","kat":"wojewodzka"},"geometry":{"type":"LineString","coordinates":[[16.14636,53.18573],[16.14772,53.18739],[16.14822,53.1878]]}},{"type":"Feature","properties":{"numer":"177","klasa":"droga gĹ‚Ăłwna","kat":"wojewodzka"},"geometry":{"type":"LineString","coordinates":[[16.14822,53.1878],[16.15084,53.18917],[16.15124,53.18945],[16.15158,53.18985]]}},{"type":"Feature","properties":{"numer":"177","klasa":"droga gĹ‚Ăłwna","kat":"wojewodzka"},"geometry":{"type":"LineString","coordinates":[[16.15162,53.18994],[16.15158,53.18985]]}},{"type":"Feature","properties":{"numer":"177","klasa":"droga gĹ‚Ăłwna","kat":"wojewodzka"},"geometry":{"type":"LineString","coordinates":[[16.15232,53.19219],[16.15209,53.19099],[16.15162,53.18994]]}},{"type":"Feature","properties":{"numer":"177","klasa":"droga gĹ‚Ăłwna","kat":"wojewodzka"},"geometry":{"type":"LineString","coordinates":[[16.15307,53.19382],[16.15275,53.19372],[16.15259,53.19356],[16.15232,53.19219]]}},{"type":"Feature","properties":{"numer":"732012Z","klasa":"droga lokalna","kat":"powiatowa"},"geometry":{"type":"LineString","coordinates":[[16.15307,53.19382],[16.15136,53.19396]]}},{"type":"Feature","properties":{"numer":"732035Z","klasa":"droga lokalna","kat":"powiatowa"},"geometry":{"type":"LineString","coordinates":[[16.15114,53.19429],[16.15136,53.19396]]}},{"type":"Feature","properties":{"numer":"177","klasa":"droga gĹ‚Ăłwna","kat":"wojewodzka"},"geometry":{"type":"LineString","coordinates":[[16.15589,53.19465],[16.15554,53.19429],[16.15487,53.19385],[16.15452,53.19379],[16.15307,53.19382]]}},{"type":"Feature","properties":{"numer":"2315Z","klasa":"","kat":"powiatowa"},"geometry":{"type":"LineString","coordinates":[[16.15617,53.19458],[16.16068,53.19424]]}},{"type":"Feature","properties":{"numer":"732035Z","klasa":"droga lokalna","kat":"powiatowa"},"geometry":{"type":"LineString","coordinates":[[16.15099,53.19454],[16.15114,53.19429]]}},{"type":"Feature","properties":{"numer":"2315Z","klasa":"","kat":"powiatowa"},"geometry":{"type":"LineString","coordinates":[[16.15589,53.19465],[16.15617,53.19458]]}},{"type":"Feature","properties":{"numer":"732035Z","klasa":"droga lokalna","kat":"powiatowa"},"geometry":{"type":"LineString","coordinates":[[16.1506,53.19515],[16.15099,53.19454]]}},{"type":"Feature","properties":{"numer":"732035Z","klasa":"droga lokalna","kat":"powiatowa"},"geometry":{"type":"LineString","coordinates":[[16.15027,53.19617],[16.1506,53.19515]]}},{"type":"Feature","properties":{"numer":"732035Z","klasa":"droga lokalna","kat":"powiatowa"},"geometry":{"type":"LineString","coordinates":[[16.14997,53.19728],[16.15027,53.19617]]}},{"type":"Feature","properties":{"numer":"732035Z","klasa":"droga lokalna","kat":"powiatowa"},"geometry":{"type":"LineString","coordinates":[[16.14981,53.19771],[16.14997,53.19728]]}},{"type":"Feature","properties":{"numer":"2315Z","klasa":"","kat":"powiatowa"},"geometry":{"type":"LineString","coordinates":[[16.20692,53.21966],[16.2075,53.21868],[16.20886,53.21076],[16.21643,53.19733],[16.21675,53.19656],[16.21668,53.1959],[16.21567,53.19402],[16.21482,53.19376],[16.21419,53.19348],[16.21375,53.19321],[16.21307,53.19248],[16.2123,53.19212],[16.21101,53.19067],[16.21053,53.19029],[16.2105,53.18969],[16.21021,53.18965],[16.20377,53.19069],[16.2004,53.19076],[16.19949,53.19068],[16.1989,53.19053],[16.19686,53.18958],[16.1957,53.18931],[16.19503,53.18929],[16.18876,53.18965],[16.17991,53.19098],[16.1789,53.19123],[16.1748,53.19255],[16.1732,53.19295],[16.17185,53.19318],[16.16582,53.1939],[16.16068,53.19424]]}},{"type":"Feature","properties":{"numer":"177","klasa":"droga gĹ‚Ăłwna","kat":"wojewodzka"},"geometry":{"type":"LineString","coordinates":[[16.17128,53.21665],[16.16591,53.20541],[16.15589,53.19465]]}},{"type":"Feature","properties":{"numer":"22","klasa":"droga gĹ‚Ăłwna ruchu przyĹ›pieszonego","kat":"krajowa"},"geometry":{"type":"LineString","coordinates":[[16.235142447311226,53.15296628589742],[16.24694,53.16019],[16.24775,53.16047],[16.24912,53.16074],[16.25102,53.16084],[16.25182,53.16095],[16.25423,53.16149],[16.25449,53.16161]]}},{"type":"Feature","properties":{"numer":"22","klasa":"droga gĹ‚Ăłwna ruchu przyĹ›pieszonego","kat":"krajowa"},"geometry":{"type":"LineString","coordinates":[[16.25449,53.16161],[16.25472,53.16185],[16.25732,53.16634],[16.25809,53.16702],[16.26944,53.17288],[16.275589715832147,53.17596265223272]]}},{"type":"Feature","properties":{"numer":"2313Z","klasa":"droga zbiorcza","kat":"powiatowa"},"geometry":{"type":"LineString","coordinates":[[16.2115,53.22094],[16.21916,53.22651],[16.22435,53.23015],[16.22481,53.23025],[16.22827,53.2304],[16.22967,53.23056],[16.23049,53.23071],[16.2352,53.23193],[16.24088,53.23138],[16.24537,53.23163],[16.24618,53.2318],[16.24858,53.23248],[16.24952,53.23296],[16.252170080819067,53.23389936582347]]}},{"type":"Feature","properties":{"numer":"2311Z","klasa":"","kat":"powiatowa"},"geometry":{"type":"LineString","coordinates":[[16.20908,53.28385],[16.2099,53.28407],[16.21045,53.28455],[16.21107,53.28651],[16.21222,53.28791],[16.21254,53.28817],[16.213986522493787,53.288815623033955]]}},{"type":"Feature","properties":{"numer":"2311Z","klasa":"","kat":"powiatowa"},"geometry":{"type":"LineString","coordinates":[[16.214220367546986,53.288919994554874],[16.21431,53.28896],[16.21585,53.28996]]}},{"type":"Feature","properties":{"numer":"2311Z","klasa":"","kat":"powiatowa"},"geometry":{"type":"LineString","coordinates":[[16.21585,53.28996],[16.216092337598628,53.290126769960345]]}},{"type":"Feature","properties":{"numer":"2313Z","klasa":"droga zbiorcza","kat":"powiatowa"},"geometry":{"type":"LineString","coordinates":[[16.17128,53.21665],[16.17558,53.21645],[16.17627,53.21648],[16.1769,53.21656],[16.18115,53.21754],[16.18198,53.21767],[16.18937,53.21817],[16.196,53.21851],[16.20464,53.21947],[16.20623,53.21951],[16.20692,53.21966]]}},{"type":"Feature","properties":{"numer":"2313Z","klasa":"droga zbiorcza","kat":"powiatowa"},"geometry":{"type":"LineString","coordinates":[[16.20692,53.21966],[16.20718,53.21973]]}},{"type":"Feature","properties":{"numer":"2313Z","klasa":"droga zbiorcza","kat":"powiatowa"},"geometry":{"type":"LineString","coordinates":[[16.2115,53.22094],[16.20826,53.21992],[16.20718,53.21973]]}},{"type":"Feature","properties":{"numer":"177","klasa":"droga gĹ‚Ăłwna","kat":"wojewodzka"},"geometry":{"type":"LineString","coordinates":[[16.17128,53.21665],[16.17628,53.22716]]}},{"type":"Feature","properties":{"numer":"2301Z","klasa":"","kat":"powiatowa"},"geometry":{"type":"LineString","coordinates":[[16.17628,53.22716],[16.16188,53.23328],[16.14305,53.24223],[16.1422,53.2426],[16.13811,53.24391],[16.13782,53.24421],[16.13728,53.24577]]}},{"type":"Feature","properties":{"numer":"177","klasa":"droga gĹ‚Ăłwna","kat":"wojewodzka"},"geometry":{"type":"LineString","coordinates":[[16.17628,53.22716],[16.17989,53.23481],[16.18464,53.24412],[16.18478,53.24453],[16.18477,53.24582],[16.18491,53.24717],[16.1864,53.25098],[16.18651,53.25187],[16.18647,53.25432],[16.18609,53.26622],[16.18634,53.2683],[16.18602,53.26962]]}},{"type":"Feature","properties":{"numer":"2311Z","klasa":"","kat":"powiatowa"},"geometry":{"type":"LineString","coordinates":[[16.18602,53.26962],[16.18766,53.27059],[16.19294,53.27431],[16.19493,53.2758],[16.19641,53.27705],[16.207,53.28267]]}},{"type":"Feature","properties":{"numer":"2311Z","klasa":"","kat":"powiatowa"},"geometry":{"type":"LineString","coordinates":[[16.207,53.28267],[16.20908,53.28385]]}},{"type":"Feature","properties":{"numer":"177","klasa":"droga gĹ‚Ăłwna","kat":"wojewodzka"},"geometry":{"type":"LineString","coordinates":[[16.18602,53.26962],[16.18602,53.27246],[16.18676851584762,53.29292993865391]]}},{"type":"Feature","properties":{"numer":"2301Z","klasa":"","kat":"powiatowa"},"geometry":{"type":"LineString","coordinates":[[16.13681,53.24768],[16.13686,53.2476]]}},{"type":"Feature","properties":{"numer":"2301Z","klasa":"","kat":"powiatowa"},"geometry":{"type":"LineString","coordinates":[[16.12648,53.27286],[16.12631,53.27221],[16.1261,53.26995],[16.12609,53.26785],[16.13426,53.2505],[16.13466,53.25001],[16.13625,53.2488],[16.13681,53.24768]]}},{"type":"Feature","properties":{"numer":"2301Z","klasa":"","kat":"powiatowa"},"geometry":{"type":"LineString","coordinates":[[16.13848094898945,53.27623617923361],[16.13123,53.27389],[16.12773,53.27318],[16.12712,53.27296],[16.12648,53.27286]]}}]}