{"type":"FeatureCollection","features":[{"type":"Feature","properties":{"numer":"4314Z","klasa":"droga zbiorcza","kat":"powiatowa"},"geometry":{"type":"LineString","coordinates":[[15.48202,53.61545],[15.48357,53.61467],[15.48552,53.61343],[15.48823,53.61194],[15.49043,53.61028],[15.49124,53.60941],[15.49166,53.60855],[15.49858,53.58984],[15.49921,53.58896],[15.503259315895532,53.58521799825726]]}},{"type":"Feature","properties":{"numer":"146","klasa":"droga gĹ‚Ăłwna","kat":"wojewodzka"},"geometry":{"type":"LineString","coordinates":[[15.449964610182896,53.605838925116],[15.45046,53.60659],[15.45285,53.60929],[15.45711,53.61113],[15.45881,53.61199],[15.47184,53.61345],[15.47452,53.61394],[15.47956,53.61504],[15.48167,53.6153]]}},{"type":"Feature","properties":{"numer":"146","klasa":"droga gĹ‚Ăłwna","kat":"wojewodzka"},"geometry":{"type":"LineString","coordinates":[[15.48167,53.6153],[15.48202,53.61545]]}},{"type":"Feature","properties":{"numer":"146,4314Z","klasa":"droga gĹ‚Ăłwna","kat":"gminna"},"geometry":{"type":"LineString","coordinates":[[15.48202,53.61545],[15.48175,53.61602]]}},{"type":"Feature","properties":{"numer":"4314Z","klasa":"droga zbiorcza","kat":"powiatowa"},"geometry":{"type":"LineString","coordinates":[[15.48172,53.6161],[15.48175,53.61602]]}},{"type":"Feature","properties":{"numer":"146","klasa":"droga gĹ‚Ăłwna","kat":"wojewodzka"},"geometry":{"type":"LineString","coordinates":[[15.48172,53.6161],[15.48218,53.61616]]}},{"type":"Feature","properties":{"numer":"4314Z","klasa":"droga zbiorcza","kat":"powiatowa"},"geometry":{"type":"LineString","coordinates":[[15.44761,53.64425],[15.44782,53.64405],[15.44943,53.64313],[15.45222,53.64091],[15.45536,53.63779],[15.4596,53.63465],[15.46689,53.62977],[15.46775,53.62911],[15.47653,53.6207],[15.48136,53.61663],[15.48172,53.6161]]}},{"type":"Feature","properties":{"numer":"4303Z","klasa":"","kat":"powiatowa"},"geometry":{"type":"LineString","coordinates":[[15.35915,53.63401],[15.36045,53.63252],[15.36019,53.63195],[15.35835,53.63113],[15.35779,53.63074],[15.35678,53.62852],[15.35642,53.62804],[15.34969,53.62239],[15.34872,53.62185],[15.33914,53.61764],[15.33587,53.61594],[15.33063,53.61368],[15.33027,53.61344],[15.32933,53.61182],[15.32957,53.61043],[15.32941,53.60939],[15.33262,53.6],[15.33268,53.59941],[15.33229,53.59531],[15.33189,53.5948],[15.330952457853,53.59413929116412]]}},{"type":"Feature","properties":{"numer":"4303Z","klasa":"","kat":"powiatowa"},"geometry":{"type":"LineString","coordinates":[[15.36138,53.63497],[15.35915,53.63401]]}},{"type":"Feature","properties":{"numer":"4303Z","klasa":"","kat":"powiatowa"},"geometry":{"type":"LineString","coordinates":[[15.36168,53.6351],[15.36138,53.63497]]}},{"type":"Feature","properties":{"numer":"4303Z","klasa":"","kat":"powiatowa"},"geometry":{"type":"LineString","coordinates":[[15.37589,53.63683],[15.37512,53.63493],[15.37494,53.63477],[15.37458,53.63464],[15.37404,53.63465],[15.37041,53.63522],[15.36478,53.63598],[15.36419,53.63596],[15.36336,53.6358],[15.36168,53.6351]]}},{"type":"Feature","properties":{"numer":"4304Z","klasa":"","kat":"powiatowa"},"geometry":{"type":"LineString","coordinates":[[15.32577,53.64952],[15.32632,53.64901],[15.32738,53.64846],[15.32914,53.64776],[15.33603,53.64563],[15.33925,53.64419],[15.34138,53.64307],[15.34615,53.64107],[15.35742,53.6355],[15.35915,53.63401]]}},{"type":"Feature","properties":{"numer":"4315Z","klasa":"","kat":"powiatowa"},"geometry":{"type":"LineString","coordinates":[[15.36963,53.64878],[15.36974,53.64872]]}},{"type":"Feature","properties":{"numer":"146","klasa":"droga gĹ‚Ăłwna","kat":"wojewodzka"},"geometry":{"type":"LineString","coordinates":[[15.48218,53.61616],[15.4825,53.6163],[15.4827,53.61653],[15.48294,53.61741],[15.48338,53.6184],[15.48372,53.61889],[15.48412,53.6192],[15.48876,53.62121],[15.4902,53.62197],[15.49196,53.62256],[15.49227,53.62276],[15.49261,53.62318],[15.49291,53.62334],[15.49707,53.62456],[15.50413,53.62838],[15.50735,53.6306],[15.507432210220708,53.63069645848454]]}},{"type":"Feature","properties":{"numer":"146","klasa":"droga gĹ‚Ăłwna","kat":"wojewodzka"},"geometry":{"type":"LineString","coordinates":[[15.516008360789098,53.643170406752084],[15.51633,53.64364]]}},{"type":"Feature","properties":{"numer":"4303Z","klasa":"","kat":"powiatowa"},"geometry":{"type":"LineString","coordinates":[[15.44761,53.64425],[15.44656,53.64454],[15.4457,53.64464],[15.43662,53.64515],[15.43518,53.64497],[15.43457,53.64478],[15.4079,53.6339],[15.4077,53.6339],[15.40564,53.63515],[15.4041,53.63709],[15.40313,53.6379],[15.40268,53.63805],[15.4019,53.63801],[15.3941,53.63674],[15.388,53.63676],[15.38486,53.63704],[15.38215,53.63749],[15.3804,53.63751],[15.37836,53.63739],[15.3762,53.63695],[15.37589,53.63683]]}},{"type":"Feature","properties":{"numer":"4315Z","klasa":"","kat":"powiatowa"},"geometry":{"type":"LineString","coordinates":[[15.36974,53.64872],[15.37159,53.64759],[15.37241,53.64549],[15.37408,53.64315],[15.37542,53.64182],[15.3756,53.64113],[15.37589,53.63683]]}},{"type":"Feature","properties":{"numer":"4314Z","klasa":"droga zbiorcza","kat":"powiatowa"},"geometry":{"type":"LineString","coordinates":[[15.4308,53.66071],[15.43606,53.65438],[15.44704,53.6455],[15.44764,53.64471],[15.44761,53.64425]]}},{"type":"Feature","properties":{"numer":"260044Z","klasa":"droga wewnÄ™trzna","kat":"powiatowa"},"geometry":{"type":"LineString","coordinates":[[15.47791,53.65338],[15.47982,53.65358]]}},{"type":"Feature","properties":{"numer":"260044Z","klasa":"droga wewnÄ™trzna","kat":"powiatowa"},"geometry":{"type":"LineString","coordinates":[[15.47611,53.65374],[15.47791,53.65338]]}},{"type":"Feature","properties":{"numer":"260044Z","klasa":"droga wewnÄ™trzna","kat":"powiatowa"},"geometry":{"type":"LineString","coordinates":[[15.47982,53.65358],[15.48115,53.6537],[15.48132,53.65383]]}},{"type":"Feature","properties":{"numer":"4315Z","klasa":"","kat":"powiatowa"},"geometry":{"type":"LineString","coordinates":[[15.4308,53.66071],[15.42507,53.65871],[15.42264,53.65808],[15.42204,53.65782],[15.421,53.65716],[15.42019,53.65687],[15.41543,53.65653],[15.41362,53.65629],[15.41306,53.65657],[15.41276,53.65658],[15.4082,53.65626],[15.40787,53.65616],[15.40771,53.65593],[15.40773,53.65503],[15.40753,53.65489],[15.40712,53.65478],[15.37242,53.64958],[15.37003,53.6489],[15.36974,53.64872]]}},{"type":"Feature","properties":{"numer":"260044Z","klasa":"droga wewnÄ™trzna","kat":"powiatowa"},"geometry":{"type":"LineString","coordinates":[[15.45309,53.66259],[15.46262,53.65841],[15.47611,53.65374]]}},{"type":"Feature","properties":{"numer":"260044Z","klasa":"droga wewnÄ™trzna","kat":"powiatowa"},"geometry":{"type":"LineString","coordinates":[[15.45202,53.66307],[15.45309,53.66259]]}},{"type":"Feature","properties":{"numer":"147","klasa":"droga gĹ‚Ăłwna","kat":"wojewodzka"},"geometry":{"type":"LineString","coordinates":[[15.45202,53.66307],[15.45161,53.66299],[15.45123,53.66305]]}},{"type":"Feature","properties":{"numer":"260033Z","klasa":"droga wewnÄ™trzna","kat":"powiatowa"},"geometry":{"type":"LineString","coordinates":[[15.36715,53.64988],[15.36963,53.64878]]}},{"type":"Feature","properties":{"numer":"4304Z","klasa":"","kat":"powiatowa"},"geometry":{"type":"LineString","coordinates":[[15.32568,53.64961],[15.32577,53.64952]]}},{"type":"Feature","properties":{"numer":"260033Z","klasa":"droga wewnÄ™trzna","kat":"powiatowa"},"geometry":{"type":"LineString","coordinates":[[15.36391,53.65204],[15.36439,53.65128],[15.36715,53.64988]]}},{"type":"Feature","properties":{"numer":"260033Z","klasa":"droga wewnÄ™trzna","kat":"powiatowa"},"geometry":{"type":"LineString","coordinates":[[15.36302,53.6539],[15.36391,53.65204]]}},{"type":"Feature","properties":{"numer":"260033Z","klasa":"droga wewnÄ™trzna","kat":"powiatowa"},"geometry":{"type":"LineString","coordinates":[[15.36292,53.65407],[15.36302,53.6539]]}},{"type":"Feature","properties":{"numer":"260033Z","klasa":"droga wewnÄ™trzna","kat":"powiatowa"},"geometry":{"type":"LineString","coordinates":[[15.36256,53.65479],[15.36292,53.65407]]}},{"type":"Feature","properties":{"numer":"260033Z","klasa":"droga wewnÄ™trzna","kat":"powiatowa"},"geometry":{"type":"LineString","coordinates":[[15.3602,53.66064],[15.36256,53.65479]]}},{"type":"Feature","properties":{"numer":"4304Z","klasa":"","kat":"powiatowa"},"geometry":{"type":"LineString","coordinates":[[15.30743,53.67652],[15.31059,53.67517],[15.32211,53.66967],[15.32285,53.669],[15.3275,53.66244],[15.32806,53.66154],[15.32878,53.65973],[15.32917,53.6542],[15.32844,53.65114],[15.32767,53.65053],[15.32544,53.64991],[15.32568,53.64961]]}},{"type":"Feature","properties":{"numer":"260033Z","klasa":"droga wewnÄ™trzna","kat":"powiatowa"},"geometry":{"type":"LineString","coordinates":[[15.35223,53.67536],[15.35801,53.66607],[15.3602,53.66064]]}},{"type":"Feature","properties":{"numer":"147","klasa":"droga gĹ‚Ăłwna","kat":"wojewodzka"},"geometry":{"type":"LineString","coordinates":[[15.30743,53.67652],[15.30575,53.67478],[15.30544,53.67461],[15.29495,53.6733],[15.2945,53.67319],[15.29422,53.673],[15.29407,53.67276],[15.29363,53.67006],[15.29315,53.66962],[15.28558,53.66791],[15.27776,53.66806],[15.27698,53.66799],[15.27653,53.66784],[15.27617,53.66761],[15.27512,53.66629],[15.27476,53.66608],[15.274297112334892,53.665952932797815]]}},{"type":"Feature","properties":{"numer":"147","klasa":"droga gĹ‚Ăłwna","kat":"wojewodzka"},"geometry":{"type":"LineString","coordinates":[[15.39393,53.6792],[15.39142,53.67815],[15.39077,53.6778],[15.38523,53.67315],[15.38416,53.67271],[15.38365,53.67259],[15.38263,53.67251],[15.37929,53.67267],[15.3783,53.67278],[15.35064,53.67795]]}},{"type":"Feature","properties":{"numer":"260033Z","klasa":"droga wewnÄ™trzna","kat":"powiatowa"},"geometry":{"type":"LineString","coordinates":[[15.35064,53.67795],[15.35223,53.67536]]}},{"type":"Feature","properties":{"numer":"147","klasa":"droga gĹ‚Ăłwna","kat":"wojewodzka"},"geometry":{"type":"LineString","coordinates":[[15.30818,53.67713],[15.30743,53.67652]]}},{"type":"Feature","properties":{"numer":"147","klasa":"droga gĹ‚Ăłwna","kat":"wojewodzka"},"geometry":{"type":"LineString","coordinates":[[15.35039,53.67796],[15.34989,53.6779],[15.34409,53.67641],[15.33829,53.67629],[15.33713,53.67634],[15.32685,53.67758],[15.31776,53.67731],[15.31703,53.67719],[15.31466,53.67649],[15.31408,53.67644],[15.31343,53.67653],[15.31226,53.67691],[15.31183,53.67716],[15.31128,53.67767]]}},{"type":"Feature","properties":{"numer":"147","klasa":"droga gĹ‚Ăłwna","kat":"wojewodzka"},"geometry":{"type":"LineString","coordinates":[[15.31116,53.67775],[15.31086,53.67786],[15.31054,53.67785],[15.30818,53.67713]]}},{"type":"Feature","properties":{"numer":"147","klasa":"droga gĹ‚Ăłwna","kat":"wojewodzka"},"geometry":{"type":"LineString","coordinates":[[15.31128,53.67767],[15.31116,53.67775]]}},{"type":"Feature","properties":{"numer":"147","klasa":"droga gĹ‚Ăłwna","kat":"wojewodzka"},"geometry":{"type":"LineString","coordinates":[[15.35064,53.67795],[15.35039,53.67796]]}},{"type":"Feature","properties":{"numer":"4300Z","klasa":"","kat":"powiatowa"},"geometry":{"type":"LineString","coordinates":[[15.39393,53.6792],[15.37507,53.6917],[15.37057,53.69345],[15.36112,53.69781],[15.36012,53.70286],[15.35926,53.70322],[15.35724,53.70479],[15.33944,53.70597],[15.33877,53.70598],[15.33673,53.7057],[15.33632,53.70592]]}},{"type":"Feature","properties":{"numer":"4305Z","klasa":"droga zbiorcza","kat":"powiatowa"},"geometry":{"type":"LineString","coordinates":[[15.29909,53.71684],[15.29485,53.71612],[15.29418,53.7158],[15.2912,53.71397],[15.29032,53.71357],[15.290027712995219,53.71347969002775]]}},{"type":"Feature","properties":{"numer":"4315Z","klasa":"","kat":"powiatowa"},"geometry":{"type":"LineString","coordinates":[[15.44529,53.66686],[15.4443,53.66703],[15.44403,53.66701],[15.4411,53.66603],[15.43755,53.66391],[15.43713,53.66348],[15.43665,53.66271],[15.43631,53.66241],[15.43575,53.66221],[15.43399,53.66194],[15.4308,53.66071]]}},{"type":"Feature","properties":{"numer":"147","klasa":"droga gĹ‚Ăłwna","kat":"wojewodzka"},"geometry":{"type":"LineString","coordinates":[[15.48371,53.66477],[15.48226,53.66484],[15.47853,53.6652],[15.47658,53.66518],[15.4709,53.66434],[15.46981,53.66424],[15.46783,53.66417],[15.46222,53.66431],[15.4527,53.66322],[15.45202,53.66307]]}},{"type":"Feature","properties":{"numer":"147","klasa":"droga gĹ‚Ăłwna","kat":"wojewodzka"},"geometry":{"type":"LineString","coordinates":[[15.45123,53.66305],[15.44919,53.66465],[15.44529,53.66686]]}},{"type":"Feature","properties":{"numer":"4314Z","klasa":"droga zbiorcza","kat":"powiatowa"},"geometry":{"type":"LineString","coordinates":[[15.42171,53.68288],[15.42165,53.68274],[15.42204,53.68175],[15.42194,53.68102],[15.41765,53.67413],[15.41763,53.67365],[15.4187,53.66862],[15.41919,53.6679],[15.42001,53.66729],[15.42696,53.66369],[15.42838,53.66288],[15.42964,53.66193],[15.4308,53.66071]]}},{"type":"Feature","properties":{"numer":"147","klasa":"droga gĹ‚Ăłwna","kat":"wojewodzka"},"geometry":{"type":"LineString","coordinates":[[15.44529,53.66686],[15.44494,53.6674],[15.44457,53.66772],[15.43538,53.67422],[15.43371,53.67598],[15.43317,53.67642],[15.42688,53.68087],[15.42594,53.68131],[15.42171,53.68288]]}},{"type":"Feature","properties":{"numer":"147","klasa":"droga gĹ‚Ăłwna","kat":"wojewodzka"},"geometry":{"type":"LineString","coordinates":[[15.42147,53.68562],[15.42128,53.68575],[15.42029,53.68608],[15.41774,53.68667],[15.41579,53.68644],[15.41389,53.6866],[15.41222,53.68556],[15.40582,53.68254],[15.40509,53.68236],[15.39854,53.68137],[15.39803,53.68113],[15.39652,53.68003],[15.39393,53.6792]]}},{"type":"Feature","properties":{"numer":"147,4314Z","klasa":"droga gĹ‚Ăłwna","kat":"gminna"},"geometry":{"type":"LineString","coordinates":[[15.42171,53.68288],[15.42144,53.68306],[15.4213,53.68337],[15.42147,53.68562]]}},{"type":"Feature","properties":{"numer":"4314Z","klasa":"droga zbiorcza","kat":"powiatowa"},"geometry":{"type":"LineString","coordinates":[[15.412049238308597,53.70890373004761],[15.41205,53.7089],[15.41374,53.70599],[15.41412,53.70572],[15.41469,53.7055],[15.416888167285483,53.70511579311056]]}},{"type":"Feature","properties":{"numer":"4314Z","klasa":"droga zbiorcza","kat":"powiatowa"},"geometry":{"type":"LineString","coordinates":[[15.418854595564973,53.704662608236525],[15.41907,53.70459],[15.41976,53.70408],[15.4209,53.70264],[15.420890384615385,53.702255384615384]]}},{"type":"Feature","properties":{"numer":"4314Z","klasa":"droga zbiorcza","kat":"powiatowa"},"geometry":{"type":"LineString","coordinates":[[15.4204743005126,53.701383111917984],[15.41927,53.69988],[15.41911,53.69942],[15.4208,53.69314],[15.42305,53.68867],[15.42269,53.68724],[15.42147,53.68562]]}},{"type":"Feature","properties":{"numer":"4305Z","klasa":"droga zbiorcza","kat":"powiatowa"},"geometry":{"type":"LineString","coordinates":[[15.29931,53.71688],[15.29909,53.71684]]}},{"type":"Feature","properties":{"numer":"4300Z","klasa":"","kat":"powiatowa"},"geometry":{"type":"LineString","coordinates":[[15.33632,53.70592],[15.33513,53.70661],[15.33455,53.70722],[15.33386,53.70842],[15.3335,53.70981],[15.33465,53.71047],[15.33559,53.71133],[15.33805,53.71435],[15.33804,53.71462],[15.33767,53.71505],[15.33728,53.71525],[15.33436,53.71593],[15.33301,53.71639],[15.33036,53.71879],[15.32785,53.72262],[15.32638,53.72589],[15.32562,53.72703],[15.32535,53.72896]]}},{"type":"Feature","properties":{"numer":"4305Z","klasa":"droga zbiorcza","kat":"powiatowa"},"geometry":{"type":"LineString","coordinates":[[15.32535,53.72896],[15.319804827856997,53.726458645174624]]}},{"type":"Feature","properties":{"numer":"4305Z","klasa":"droga zbiorcza","kat":"powiatowa"},"geometry":{"type":"LineString","coordinates":[[15.29933269618476,53.71688487686615],[15.29931,53.71688]]}},{"type":"Feature","properties":{"numer":"4305Z","klasa":"droga zbiorcza","kat":"powiatowa"},"geometry":{"type":"LineString","coordinates":[[15.34686,53.73287],[15.34528,53.73263],[15.343789449105273,53.73257555065225]]}},{"type":"Feature","properties":{"numer":"4305Z","klasa":"droga zbiorcza","kat":"powiatowa"},"geometry":{"type":"LineString","coordinates":[[15.330814056013185,53.731187756177924],[15.32931,53.73073],[15.32535,53.72896]]}},{"type":"Feature","properties":{"numer":"4305Z","klasa":"droga zbiorcza","kat":"powiatowa"},"geometry":{"type":"LineString","coordinates":[[15.34701,53.73289],[15.34686,53.73287]]}},{"type":"Feature","properties":{"numer":"4308Z","klasa":"","kat":"powiatowa"},"geometry":{"type":"LineString","coordinates":[[15.32535,53.72896],[15.32522,53.72992],[15.325296384999533,53.730597608866816]]}},{"type":"Feature","properties":{"numer":"4305Z","klasa":"droga zbiorcza","kat":"powiatowa"},"geometry":{"type":"LineString","coordinates":[[15.361288922510386,53.7388666529133],[15.36081,53.73843],[15.35462,53.73466],[15.35362,53.73417],[15.35212,53.73376],[15.34701,53.73289]]}},{"type":"Feature","properties":{"numer":"147","klasa":"droga gĹ‚Ăłwna","kat":"wojewodzka"},"geometry":{"type":"LineString","coordinates":[[15.561280103092784,53.65627775486827],[15.561,53.65634]]}},{"type":"Feature","properties":{"numer":"147","klasa":"droga gĹ‚Ăłwna","kat":"wojewodzka"},"geometry":{"type":"LineString","coordinates":[[15.561,53.65634],[15.55961,53.65657]]}},{"type":"Feature","properties":{"numer":"255001Z","klasa":"droga lokalna","kat":"powiatowa"},"geometry":{"type":"LineString","coordinates":[[15.51633,53.64364],[15.516446725663718,53.643608165728075]]}},{"type":"Feature","properties":{"numer":"146","klasa":"droga gĹ‚Ăłwna","kat":"wojewodzka"},"geometry":{"type":"LineString","coordinates":[[15.51633,53.64364],[15.51954,53.64762],[15.52023,53.64805],[15.522304087403583,53.64894470437017]]}},{"type":"Feature","properties":{"numer":"146","klasa":"droga gĹ‚Ăłwna","kat":"wojewodzka"},"geometry":{"type":"LineString","coordinates":[[15.524462286374114,53.650012586605065],[15.52464,53.65011],[15.52562,53.65127],[15.52556,53.65135]]}},{"type":"Feature","properties":{"numer":"147","klasa":"droga gĹ‚Ăłwna","kat":"wojewodzka"},"geometry":{"type":"LineString","coordinates":[[15.55961,53.65657],[15.5588,53.65658],[15.55546,53.6564],[15.55441,53.6565],[15.553004186046502,53.656788372093025]]}},{"type":"Feature","properties":{"numer":"147","klasa":"droga gĹ‚Ăłwna","kat":"wojewodzka"},"geometry":{"type":"LineString","coordinates":[[15.552260562770574,53.656851861471864],[15.55174,53.65688],[15.54826,53.65663],[15.54383,53.65614],[15.53693,53.65622],[15.53566,53.65616],[15.533169599510963,53.65553035157447]]}},{"type":"Feature","properties":{"numer":"147","klasa":"droga gĹ‚Ăłwna","kat":"wojewodzka"},"geometry":{"type":"LineString","coordinates":[[15.532714921540473,53.65542536376601],[15.52986,53.6548],[15.52939,53.65449],[15.52838,53.65347],[15.52556,53.65135]]}},{"type":"Feature","properties":{"numer":"147","klasa":"droga gĹ‚Ăłwna","kat":"wojewodzka"},"geometry":{"type":"LineString","coordinates":[[15.52556,53.65135],[15.52524,53.65132],[15.52446,53.65147],[15.52098,53.65289],[15.51777,53.65333],[15.51721,53.65347],[15.51418,53.65481],[15.50848,53.65764],[15.50343,53.65985],[15.50007,53.66085],[15.4921,53.66347],[15.48597,53.66459],[15.48371,53.66477]]}},{"type":"Feature","properties":{"numer":"4319Z","klasa":"","kat":"powiatowa"},"geometry":{"type":"LineString","coordinates":[[15.48371,53.66477],[15.48268,53.66338],[15.48195,53.6612],[15.48116,53.66009],[15.48162,53.65886],[15.4813,53.65598],[15.48152,53.65398],[15.48132,53.65383]]}},{"type":"Feature","properties":{"numer":"4318Z","klasa":"","kat":"powiatowa"},"geometry":{"type":"LineString","coordinates":[[15.5288,53.67497],[15.53182,53.67216],[15.53209,53.67213],[15.53377,53.67279],[15.53409,53.6728],[15.53457,53.6727],[15.53599,53.67208],[15.53797,53.67143],[15.53888,53.67076],[15.53996,53.67032],[15.54141,53.66956],[15.54506,53.6681],[15.54599,53.66786],[15.54794,53.66777],[15.55011,53.66729],[15.55092,53.66701],[15.55211,53.6658],[15.55289,53.66394],[15.55503,53.66127],[15.55953,53.65703],[15.55966,53.65688],[15.55961,53.65657]]}},{"type":"Feature","properties":{"numer":"4318Z","klasa":"","kat":"powiatowa"},"geometry":{"type":"LineString","coordinates":[[15.509243705730844,53.69300238892466],[15.50884,53.69292],[15.50595,53.69196],[15.50043,53.69103],[15.49973,53.69097],[15.4992,53.69101],[15.49745,53.69163],[15.49692,53.69166],[15.49642,53.69157],[15.49649,53.69141],[15.49784,53.69019],[15.50388,53.68404],[15.50789,53.68282],[15.51043,53.6823],[15.51651,53.68019],[15.51914,53.67909],[15.52174,53.67847],[15.52409,53.67748],[15.52782,53.67557],[15.5288,53.67497]]}},{"type":"Feature","properties":{"numer":"4317Z","klasa":"","kat":"powiatowa"},"geometry":{"type":"LineString","coordinates":[[15.52426271354972,53.68412250090139],[15.52427,53.68376],[15.52501,53.6825],[15.52811,53.67905],[15.52877,53.67584],[15.5288,53.67497]]}}]}